{"type":"FeatureCollection","features":[{"type":"Feature","properties":{"id":"bishnupur","name":"Bishnupur","stateId":"manipur","stateName":"Manipur","censuscode":275,"type":"district"},"geometry":{"type":"Polygon","coordinates":[[[93.87595,24.55206],[93.87013,24.53805],[93.87011,24.52568],[93.86993,24.51999],[93.87133,24.51743],[93.87422,24.51871],[93.87706,24.51742],[93.87695,24.50716],[93.88124,24.50587],[93.87976,24.50078],[93.87544,24.49825],[93.88254,24.49188],[93.88395,24.48808],[93.88248,24.48429],[93.8796,24.48178],[93.87526,24.47423],[93.8738,24.4692],[93.86517,24.46044],[93.86088,24.4592],[93.85658,24.45671],[93.85942,24.45418],[93.85941,24.45167],[93.85653,24.44916],[93.8565,24.44163],[93.85362,24.43913],[93.85074,24.43287],[93.84645,24.4329],[93.84071,24.4279],[93.84068,24.42288],[93.84919,24.41152],[93.84347,24.41031],[93.84203,24.40781],[93.84343,24.40277],[93.8477,24.39898],[93.84909,24.3952],[93.84903,24.38266],[93.85186,24.37887],[93.85185,24.37762],[93.84899,24.37513],[93.85035,24.36258],[93.85462,24.3613],[93.8546,24.35754],[93.85174,24.35505],[93.85172,24.35003],[93.85744,24.35251],[93.8603,24.35501],[93.86314,24.35123],[93.85885,24.3475],[93.85453,24.34126],[93.8645,24.33373],[93.86163,24.33],[93.86162,24.32378],[93.85591,24.32627],[93.85733,24.31757],[93.85446,24.31135],[93.85732,24.31013],[93.86593,24.31019],[93.87024,24.30775],[93.87027,24.30285],[93.88034,24.28558],[93.87605,24.28558],[93.87319,24.28682],[93.86743,24.28675],[93.86745,24.29174],[93.8516,24.30886],[93.84874,24.3163],[93.84316,24.35259],[93.83891,24.35762],[93.83464,24.36015],[93.81464,24.35523],[93.81035,24.35526],[93.80182,24.36158],[93.80906,24.38288],[93.80764,24.38415],[93.8091,24.38916],[93.78915,24.39555],[93.77488,24.39814],[93.75775,24.39822],[93.75207,24.40453],[93.74778,24.40455],[93.74635,24.40079],[93.74348,24.39955],[93.74059,24.39202],[93.73489,24.39205],[93.73205,24.39709],[93.7321,24.40839],[93.73642,24.41843],[93.73501,24.42095],[93.72355,24.41346],[93.71359,24.4223],[93.7122,24.43235],[93.70796,24.44369],[93.71227,24.4487],[93.71372,24.45372],[93.71519,24.46503],[93.71951,24.4713],[93.71957,24.48387],[93.73248,24.49889],[93.73283,24.52109],[93.73293,24.54749],[93.7301,24.55378],[93.72871,24.56635],[93.72305,24.58271],[93.72452,24.5915],[93.73893,24.62037],[93.74036,24.62162],[93.75193,24.64799],[93.75053,24.6593],[93.74912,24.66308],[93.75206,24.68192],[93.75637,24.68568],[93.75922,24.68442],[93.76494,24.6844],[93.76927,24.69193],[93.76931,24.69822],[93.77219,24.70575],[93.77227,24.72586],[93.7766,24.73087],[93.77375,24.73465],[93.77376,24.73717],[93.78948,24.72957],[93.7995,24.72829],[93.80524,24.73079],[93.82381,24.71941],[93.83239,24.71813],[93.84243,24.71935],[93.87252,24.71491],[93.88252,24.70985],[93.89255,24.70986],[93.89109,24.70608],[93.89249,24.70103],[93.89247,24.69723],[93.89098,24.68965],[93.87658,24.67956],[93.86797,24.67706],[93.84789,24.67588],[93.84649,24.68093],[93.83646,24.6797],[93.80057,24.66851],[93.80472,24.6433],[93.81757,24.63568],[93.81467,24.6294],[93.80604,24.62188],[93.806,24.61558],[93.81169,24.60927],[93.82027,24.60672],[93.84901,24.62421],[93.8533,24.62294],[93.85615,24.62041],[93.85325,24.6154],[93.85607,24.60912],[93.86897,24.61159],[93.87182,24.60906],[93.87323,24.60407],[93.87178,24.59909],[93.88892,24.58544],[93.89034,24.58051],[93.88889,24.57682],[93.8717,24.57065],[93.86884,24.56324],[93.87595,24.55206]]]}}]}