{"type":"FeatureCollection","features":[{"type":"Feature","properties":{"id":"senapati","name":"Senapati","stateId":"manipur","stateName":"Manipur","censuscode":272,"type":"district"},"geometry":{"type":"Polygon","coordinates":[[[94.49227,25.60838],[94.49299,25.60702],[94.48654,25.59605],[94.47601,25.58809],[94.47019,25.58248],[94.46677,25.57062],[94.46399,25.55453],[94.44918,25.53636],[94.44297,25.52672],[94.44114,25.52148],[94.43861,25.51877],[94.43836,25.51583],[94.43525,25.51329],[94.43304,25.50942],[94.42767,25.48959],[94.42311,25.48123],[94.41926,25.47119],[94.42211,25.46636],[94.4113,25.45534],[94.40548,25.44818],[94.40397,25.44034],[94.39696,25.42915],[94.39366,25.42229],[94.39076,25.42325],[94.38778,25.42291],[94.38596,25.42106],[94.38886,25.41714],[94.38236,25.40814],[94.38628,25.40296],[94.3816,25.39656],[94.37889,25.39148],[94.37795,25.38785],[94.37738,25.37667],[94.37841,25.36867],[94.38131,25.36527],[94.3793,25.35991],[94.38056,25.35721],[94.37735,25.35311],[94.37008,25.34796],[94.36225,25.33959],[94.35891,25.33549],[94.35759,25.33174],[94.35196,25.32332],[94.34793,25.31397],[94.34287,25.31079],[94.33922,25.30738],[94.33096,25.29289],[94.32933,25.2846],[94.3263,25.2783],[94.31692,25.26727],[94.31508,25.26491],[94.31129,25.26248],[94.29886,25.24896],[94.28467,25.23884],[94.26428,25.23093],[94.25873,25.22775],[94.25691,25.22359],[94.25535,25.21679],[94.25125,25.20894],[94.24609,25.20316],[94.23613,25.19771],[94.22867,25.19538],[94.22433,25.18925],[94.22201,25.18199],[94.21577,25.17811],[94.20801,25.17595],[94.19577,25.17607],[94.19187,25.17151],[94.18491,25.16781],[94.18273,25.16663],[94.18318,25.1633],[94.18463,25.16048],[94.18072,25.16075],[94.17631,25.15855],[94.17726,25.1525],[94.17437,25.15192],[94.17059,25.14757],[94.16746,25.14117],[94.16335,25.14323],[94.16266,25.13953],[94.16533,25.13575],[94.16192,25.13354],[94.15813,25.13606],[94.15644,25.13243],[94.15151,25.13298],[94.14882,25.12583],[94.14,25.11917],[94.1359,25.1176],[94.13591,25.11529],[94.1349,25.11327],[94.1317,25.11204],[94.13078,25.10029],[94.12766,25.09342],[94.12501,25.09082],[94.12377,25.08568],[94.1246,25.07889],[94.12209,25.07599],[94.12078,25.06908],[94.12193,25.0658],[94.12439,25.06402],[94.12732,25.05995],[94.12757,25.05713],[94.12929,25.05275],[94.14115,25.04831],[94.14964,25.03492],[94.15099,25.02681],[94.15264,25.02324],[94.14892,25.00042],[94.15409,24.99104],[94.1643,24.96476],[94.1664,24.95343],[94.16995,24.94447],[94.17619,24.94071],[94.17595,24.93854],[94.1742,24.938],[94.17226,24.93844],[94.17194,24.93647],[94.17305,24.9347],[94.17332,24.93239],[94.17207,24.92828],[94.17357,24.92552],[94.17288,24.92089],[94.17104,24.91775],[94.1655,24.91687],[94.16482,24.9153],[94.16616,24.91242],[94.16311,24.90285],[94.16538,24.89988],[94.1647,24.8971],[94.16309,24.89581],[94.16225,24.89095],[94.16306,24.88726],[94.16167,24.88545],[94.15546,24.88371],[94.15406,24.87434],[94.15008,24.8752],[94.14805,24.87415],[94.14703,24.87193],[94.14989,24.87145],[94.1477,24.86126],[94.14554,24.86078],[94.14368,24.85913],[94.14482,24.85597],[94.14813,24.85308],[94.14735,24.8477],[94.15022,24.84554],[94.15292,24.84216],[94.15286,24.84032],[94.1498,24.83896],[94.15387,24.83543],[94.1545,24.83335],[94.15225,24.83194],[94.15395,24.82919],[94.15252,24.82698],[94.15026,24.82908],[94.14714,24.82869],[94.14815,24.8186],[94.14261,24.81066],[94.14167,24.80679],[94.13754,24.8047],[94.13756,24.80419],[94.13972,24.80248],[94.14258,24.79987],[94.14699,24.7989],[94.1582,24.79865],[94.16288,24.79716],[94.16907,24.78335],[94.1774,24.77608],[94.184,24.76561],[94.18476,24.76031],[94.18052,24.75582],[94.18371,24.75176],[94.18229,24.74436],[94.17776,24.73801],[94.17668,24.73459],[94.18871,24.71981],[94.19105,24.71291],[94.19159,24.69238],[94.19099,24.68401],[94.18566,24.67078],[94.19212,24.66094],[94.20042,24.6543],[94.20258,24.64008],[94.20253,24.63298],[94.20346,24.6261],[94.17717,24.63516],[94.1744,24.63455],[94.16398,24.62305],[94.15823,24.61964],[94.15122,24.61798],[94.15027,24.61813],[94.13293,24.62092],[94.12559,24.62504],[94.11899,24.63141],[94.11504,24.6373],[94.11176,24.64897],[94.11502,24.64953],[94.11227,24.65296],[94.10956,24.65897],[94.10645,24.66119],[94.10139,24.66885],[94.10554,24.6741],[94.10973,24.67669],[94.11492,24.67889],[94.11922,24.67648],[94.12291,24.67861],[94.12149,24.68112],[94.1233,24.68253],[94.12626,24.68274],[94.13178,24.68871],[94.13099,24.69227],[94.1248,24.69461],[94.11761,24.69613],[94.11946,24.69967],[94.12411,24.7002],[94.12703,24.697],[94.13098,24.69827],[94.12893,24.70176],[94.13085,24.70479],[94.13536,24.70664],[94.13174,24.7096],[94.13089,24.71847],[94.12939,24.72306],[94.12311,24.7164],[94.12278,24.71195],[94.12125,24.70789],[94.1179,24.70409],[94.11184,24.69997],[94.10519,24.69843],[94.09445,24.69194],[94.08715,24.69258],[94.08573,24.69508],[94.08225,24.69833],[94.0781,24.70692],[94.06996,24.70514],[94.06728,24.69449],[94.06273,24.69178],[94.06151,24.69517],[94.06138,24.70255],[94.06356,24.7057],[94.06637,24.70787],[94.06383,24.71089],[94.06671,24.71232],[94.06594,24.71369],[94.06718,24.71573],[94.06524,24.71611],[94.06905,24.71823],[94.06923,24.7206],[94.05982,24.71823],[94.06303,24.7275],[94.06642,24.72761],[94.06823,24.72879],[94.06445,24.73093],[94.06462,24.73416],[94.06724,24.73611],[94.06491,24.73821],[94.06584,24.74047],[94.07006,24.73846],[94.0694,24.74179],[94.07392,24.74226],[94.07566,24.74632],[94.07469,24.75086],[94.07814,24.75212],[94.08614,24.79631],[94.08778,24.80627],[94.09179,24.81586],[94.09649,24.82268],[94.0997,24.83046],[94.09603,24.84965],[94.10017,24.85183],[94.10675,24.85169],[94.11056,24.8529],[94.11237,24.8681],[94.11429,24.87609],[94.11799,24.88133],[94.12265,24.8852],[94.12748,24.89981],[94.13938,24.91111],[94.14498,24.91818],[94.14285,24.9215],[94.1394,24.92479],[94.13824,24.92841],[94.13832,24.93332],[94.13692,24.93764],[94.13232,24.93849],[94.12923,24.93608],[94.12915,24.92205],[94.12068,24.91622],[94.11892,24.9121],[94.11315,24.90538],[94.10657,24.90495],[94.09903,24.90329],[94.09506,24.88934],[94.08937,24.88504],[94.07934,24.88042],[94.07017,24.87948],[94.06505,24.88241],[94.06219,24.88704],[94.06042,24.90093],[94.06838,24.94039],[94.06475,24.94086],[94.05868,24.94044],[94.05343,24.94216],[94.05424,24.94408],[94.06198,24.94781],[94.06467,24.95097],[94.06109,24.95375],[94.04942,24.95504],[94.04695,24.95726],[94.04725,24.962],[94.04871,24.9663],[94.0483,24.97287],[94.04411,24.97137],[94.03999,24.96831],[94.03404,24.96621],[94.03355,24.96926],[94.03453,24.97228],[94.03897,24.98025],[94.04659,24.98152],[94.04453,24.98703],[94.03538,24.98592],[94.03563,24.98801],[94.04085,24.99468],[94.04718,24.99525],[94.05024,24.99631],[94.04721,24.99891],[94.04756,25.00014],[94.0458,25.00076],[94.04332,25.00368],[94.04169,25.00391],[94.04004,25.00345],[94.03708,25.00226],[94.03191,25.00328],[94.03216,25.00417],[94.03215,25.00654],[94.03397,25.01034],[94.03971,25.01024],[94.0414,25.01312],[94.04284,25.01319],[94.04467,25.01118],[94.04625,25.01072],[94.04877,25.01206],[94.04357,25.0186],[94.0413,25.019],[94.03923,25.01761],[94.03507,25.01719],[94.03241,25.01994],[94.03231,25.02626],[94.02831,25.03169],[94.0278,25.03421],[94.03113,25.04459],[94.03345,25.04758],[94.0337,25.04976],[94.02363,25.04542],[94.01999,25.04127],[94.01582,25.03201],[94.0183,25.02733],[94.02119,25.01804],[94.02172,25.01408],[94.02043,25.0063],[94.01886,25.00409],[94.01654,25.00326],[94.00657,25.00292],[93.99995,24.99998],[94.01219,24.99931],[94.01805,24.99745],[94.02258,24.99706],[94.02395,24.99216],[94.01964,24.97229],[94.01821,24.95437],[94.01537,24.95062],[94.01067,24.95026],[94.00723,24.95122],[94.00008,24.95556],[93.99463,24.95059],[93.99406,24.94278],[93.98428,24.94662],[93.97896,24.94719],[93.97488,24.94936],[93.97339,24.95419],[93.97072,24.95617],[93.96675,24.95724],[93.96411,24.95545],[93.95617,24.96061],[93.96012,24.95384],[93.95605,24.95087],[93.96553,24.94934],[93.96696,24.9457],[93.98076,24.93998],[93.98095,24.93704],[93.9838,24.93567],[93.98533,24.93355],[93.98586,24.92318],[93.98732,24.92201],[93.98173,24.9166],[93.97882,24.91902],[93.97735,24.92138],[93.97712,24.93028],[93.97145,24.93189],[93.96995,24.93645],[93.96439,24.93594],[93.95457,24.93795],[93.9531,24.93207],[93.95592,24.92954],[93.96445,24.92905],[93.96303,24.92325],[93.96158,24.92212],[93.95141,24.91873],[93.94845,24.91629],[93.94978,24.91129],[93.96297,24.91603],[93.96148,24.91239],[93.94818,24.90375],[93.94815,24.9025],[93.95254,24.90249],[93.95399,24.90123],[93.94663,24.89621],[93.94228,24.89621],[93.93651,24.89372],[93.93505,24.89623],[93.93508,24.89875],[93.93369,24.90254],[93.92801,24.90383],[93.9209,24.90263],[93.91384,24.90018],[93.91955,24.90643],[93.91826,24.91149],[93.92257,24.91398],[93.92277,24.9203],[93.9257,24.92279],[93.92501,24.93915],[93.92615,24.95423],[93.93351,24.96027],[93.93662,24.96519],[93.93242,24.96287],[93.93007,24.96553],[93.90989,24.94443],[93.90741,24.92676],[93.89633,24.93315],[93.88963,24.94077],[93.89354,24.95218],[93.8983,24.95596],[93.90575,24.95844],[93.90787,24.96352],[93.91105,24.96603],[93.91992,24.96969],[93.91756,24.9723],[93.91181,24.97112],[93.91076,24.97367],[93.90661,24.97498],[93.91363,24.98383],[93.91498,25.00026],[93.92609,25.00911],[93.93445,25.01445],[93.958,25.02667],[93.96462,25.03258],[93.9846,25.05503],[93.98781,25.06409],[93.98641,25.06978],[93.98243,25.07304],[93.97545,25.07496],[93.96466,25.07202],[93.92176,25.05532],[93.92106,25.0515],[93.91808,25.04475],[93.91628,25.04249],[93.91082,25.04033],[93.90095,25.03094],[93.89319,25.01795],[93.89194,25.00954],[93.88831,25.00033],[93.87238,24.97507],[93.86601,24.95599],[93.84793,24.95085],[93.84467,24.94325],[93.84426,24.92935],[93.83548,24.92177],[93.8325,24.90539],[93.82818,24.89027],[93.82245,24.88649],[93.81818,24.87139],[93.81101,24.86887],[93.80816,24.86383],[93.81248,24.85628],[93.80961,24.85376],[93.81106,24.84494],[93.81108,24.83613],[93.79387,24.82356],[93.78814,24.81854],[93.78813,24.80846],[93.78382,24.8047],[93.78668,24.7921],[93.78954,24.78453],[93.79383,24.77823],[93.79525,24.77444],[93.79093,24.76941],[93.7938,24.76563],[93.78227,24.74678],[93.78081,24.73922],[93.77376,24.73717],[93.77375,24.73465],[93.7766,24.73087],[93.77227,24.72586],[93.77219,24.70575],[93.76931,24.69822],[93.76927,24.69193],[93.76494,24.6844],[93.75922,24.68442],[93.75637,24.68568],[93.75206,24.68192],[93.74912,24.66308],[93.75053,24.6593],[93.75193,24.64799],[93.74036,24.62162],[93.73893,24.62037],[93.72452,24.5915],[93.72168,24.59905],[93.71741,24.60409],[93.70028,24.61162],[93.69976,24.62027],[93.69424,24.65893],[93.68712,24.707],[93.66509,24.79276],[93.6736,24.79785],[93.67647,24.7991],[93.67934,24.79908],[93.6822,24.80285],[93.68792,24.80534],[93.68936,24.80911],[93.69221,24.81036],[93.69508,24.81412],[93.70223,24.8141],[93.70509,24.82037],[93.70795,24.8191],[93.71654,24.82034],[93.72369,24.82534],[93.72369,24.8291],[93.72082,24.83414],[93.72794,24.84793],[93.7365,24.85418],[93.73073,24.86299],[93.73065,24.87178],[93.72342,24.87683],[93.72048,24.88187],[93.71467,24.88566],[93.71316,24.88943],[93.71025,24.89195],[93.71014,24.89698],[93.70567,24.91082],[93.7114,24.91835],[93.72009,24.92586],[93.72599,24.93339],[93.73478,24.93715],[93.74792,24.94089],[93.77022,24.95347],[93.77339,24.95727],[93.78074,24.95726],[93.78692,24.96106],[93.79428,24.96232],[93.80086,24.96994],[93.80186,24.97763],[93.80126,24.98403],[93.79605,24.98788],[93.80057,24.99168],[93.79514,24.99803],[93.79515,25.00055],[93.79358,25.00689],[93.79561,25.01214],[93.79979,25.01637],[93.80454,25.01801],[93.81082,25.01782],[93.81685,25.01573],[93.81968,25.01678],[93.82101,25.02342],[93.82023,25.02819],[93.81812,25.03404],[93.81417,25.04122],[93.81415,25.04496],[93.81085,25.05035],[93.80705,25.05412],[93.80411,25.06049],[93.80055,25.07687],[93.80122,25.08039],[93.79925,25.08279],[93.79955,25.08624],[93.79984,25.09868],[93.79822,25.10599],[93.79598,25.1123],[93.7937,25.11602],[93.79001,25.12078],[93.78394,25.1254],[93.78089,25.14029],[93.77755,25.14988],[93.77891,25.15299],[93.78249,25.15498],[93.78341,25.15804],[93.7917,25.16604],[93.79517,25.16624],[93.79822,25.16948],[93.79657,25.17217],[93.7973,25.17489],[93.80033,25.17531],[93.8017,25.18482],[93.80573,25.18455],[93.81371,25.19508],[93.81827,25.19932],[93.81879,25.20652],[93.82415,25.21369],[93.83045,25.22087],[93.8361,25.22304],[93.84157,25.22336],[93.84589,25.22471],[93.84984,25.2271],[93.85538,25.22829],[93.86875,25.24351],[93.88077,25.25239],[93.88785,25.25669],[93.88771,25.25912],[93.89379,25.26221],[93.89528,25.26451],[93.89929,25.26782],[93.90543,25.27119],[93.92613,25.27115],[93.93092,25.2725],[93.94239,25.27826],[93.9555,25.28634],[93.9585,25.28958],[93.94981,25.29],[93.94735,25.29205],[93.94075,25.30157],[93.93673,25.31174],[93.93099,25.31378],[93.92737,25.31795],[93.92394,25.3245],[93.92096,25.32828],[93.90886,25.32971],[93.90596,25.3313],[93.89922,25.33252],[93.896,25.33504],[93.88964,25.33402],[93.88968,25.33714],[93.89307,25.33911],[93.8936,25.34487],[93.89213,25.34912],[93.89331,25.35068],[93.9024,25.35702],[93.90386,25.36559],[93.90763,25.3685],[93.90884,25.37667],[93.91678,25.38496],[93.92308,25.38604],[93.92293,25.38909],[93.92383,25.38979],[93.92216,25.39663],[93.91669,25.40409],[93.9129,25.40723],[93.90784,25.40973],[93.90283,25.41643],[93.89259,25.42155],[93.88924,25.42274],[93.88045,25.42107],[93.87212,25.42137],[93.86549,25.42415],[93.85364,25.42615],[93.8426,25.42717],[93.83328,25.42687],[93.83221,25.43648],[93.82677,25.44739],[93.82516,25.45492],[93.82235,25.46053],[93.817,25.45861],[93.81183,25.45903],[93.80842,25.46108],[93.81332,25.48022],[93.80707,25.49106],[93.80351,25.49455],[93.79674,25.49992],[93.78795,25.50204],[93.77289,25.49342],[93.76886,25.49235],[93.76531,25.4955],[93.76382,25.51109],[93.76885,25.51331],[93.76771,25.5209],[93.7685,25.52632],[93.77053,25.53163],[93.77019,25.53589],[93.77138,25.53641],[93.77904,25.53364],[93.80737,25.54006],[93.81544,25.54097],[93.81923,25.5399],[93.82286,25.54367],[93.82457,25.55151],[93.83277,25.55191],[93.83299,25.55686],[93.83601,25.55855],[93.84371,25.55716],[93.8518,25.5541],[93.86172,25.55296],[93.87783,25.55738],[93.89141,25.5638],[93.89549,25.56394],[93.89967,25.56408],[93.90429,25.56278],[93.91035,25.56287],[93.91653,25.56204],[93.91875,25.55935],[93.92953,25.56068],[93.94291,25.55869],[93.94311,25.5586],[93.95676,25.55198],[93.96458,25.55179],[93.972,25.55638],[93.97721,25.56135],[93.97983,25.56643],[93.99995,25.56903],[94.00677,25.56498],[94.00974,25.56643],[94.01093,25.56788],[94.01161,25.57042],[94.01109,25.57422],[94.00718,25.58267],[94.00701,25.58608],[94.00975,25.59055],[94.01409,25.59126],[94.02485,25.58849],[94.02659,25.58309],[94.03273,25.57978],[94.0342,25.57657],[94.03722,25.577],[94.03848,25.5781],[94.03831,25.57493],[94.04293,25.57253],[94.0453,25.57601],[94.05341,25.5718],[94.06395,25.56137],[94.06866,25.55397],[94.07928,25.55655],[94.08517,25.55468],[94.09415,25.54136],[94.09537,25.53664],[94.09171,25.53289],[94.09129,25.52764],[94.10523,25.52379],[94.12764,25.52071],[94.13785,25.51851],[94.14435,25.52244],[94.14731,25.52648],[94.15095,25.53664],[94.15201,25.54264],[94.15926,25.55003],[94.16264,25.54469],[94.16702,25.54177],[94.17866,25.54492],[94.18188,25.54798],[94.19094,25.54565],[94.19396,25.54712],[94.19299,25.53689],[94.18921,25.52933],[94.18979,25.52547],[94.19829,25.51744],[94.20591,25.5086],[94.20591,25.50629],[94.21194,25.5028],[94.21182,25.49744],[94.21385,25.49485],[94.21886,25.49423],[94.22196,25.49136],[94.22811,25.49058],[94.2307,25.49289],[94.25102,25.4936],[94.2562,25.49793],[94.26589,25.49693],[94.27309,25.49747],[94.27878,25.49991],[94.28568,25.50616],[94.28967,25.50397],[94.29791,25.49514],[94.30152,25.48904],[94.30786,25.48819],[94.31241,25.48884],[94.31956,25.49365],[94.3279,25.50271],[94.36353,25.51577],[94.38738,25.53081],[94.40333,25.5351],[94.40972,25.53772],[94.41562,25.53612],[94.4191,25.53682],[94.42442,25.54708],[94.42522,25.55561],[94.42396,25.56718],[94.42124,25.57018],[94.42452,25.57566],[94.42889,25.5869],[94.43662,25.59003],[94.44314,25.59016],[94.44668,25.59218],[94.44814,25.59523],[94.47291,25.61574],[94.49002,25.61386],[94.48995,25.61272],[94.49227,25.60838]]]}}]}