{"type":"FeatureCollection","features":[{"type":"Feature","properties":{"id":"tamenglong","name":"Tamenglong","stateId":"manipur","stateName":"Manipur","censuscode":273,"type":"district"},"geometry":{"type":"Polygon","coordinates":[[[93.70028,24.61162],[93.68882,24.60919],[93.68022,24.60418],[93.66734,24.60673],[93.66162,24.60674],[93.65446,24.60173],[93.653,24.59419],[93.65013,24.59042],[93.63443,24.60428],[93.62585,24.60304],[93.62297,24.60053],[93.61577,24.58169],[93.61146,24.57542],[93.60715,24.5704],[93.59856,24.56915],[93.5957,24.56539],[93.58998,24.56791],[93.58714,24.5742],[93.58286,24.57923],[93.57572,24.58427],[93.57145,24.59056],[93.55999,24.5843],[93.55855,24.58053],[93.54997,24.58055],[93.5471,24.57678],[93.54281,24.57804],[93.53993,24.5705],[93.53706,24.56799],[93.53704,24.55668],[93.53275,24.55543],[93.51274,24.56425],[93.50844,24.55922],[93.50128,24.55421],[93.49843,24.55547],[93.49269,24.55044],[93.48414,24.56554],[93.47843,24.56931],[93.47128,24.56932],[93.46555,24.56681],[93.45408,24.5442],[93.44835,24.53792],[93.42977,24.55427],[93.41263,24.5593],[93.40691,24.56308],[93.40262,24.56811],[93.40119,24.57188],[93.39548,24.57439],[93.38975,24.56434],[93.35543,24.57314],[93.34828,24.5744],[93.34112,24.57189],[93.33683,24.5656],[93.32682,24.5656],[93.31823,24.56434],[93.30822,24.56182],[93.28821,24.56559],[93.28105,24.56307],[93.28534,24.5593],[93.27676,24.54673],[93.27104,24.54422],[93.2739,24.54045],[93.26819,24.53542],[93.26104,24.52284],[93.26961,24.52033],[93.26675,24.51656],[93.26675,24.50902],[93.26104,24.50776],[93.25389,24.50776],[93.24674,24.51278],[93.2353,24.51025],[93.22958,24.50145],[93.22245,24.49391],[93.21387,24.49767],[93.20671,24.51275],[93.19813,24.51399],[93.19384,24.52027],[93.18526,24.52152],[93.18384,24.51272],[93.17811,24.51523],[93.17383,24.51522],[93.17525,24.52026],[93.17239,24.52779],[93.1781,24.53157],[93.18095,24.54037],[93.18381,24.5454],[93.19096,24.55043],[93.19524,24.55547],[93.1981,24.55925],[93.19809,24.56176],[93.19667,24.56426],[93.19381,24.56678],[93.19666,24.57055],[93.20238,24.56804],[93.20524,24.56553],[93.20811,24.56554],[93.21097,24.5668],[93.20811,24.57056],[93.20525,24.57181],[93.2081,24.57433],[93.20381,24.57684],[93.20237,24.58816],[93.2038,24.5869],[93.21238,24.58313],[93.21525,24.58439],[93.21668,24.58691],[93.21953,24.59948],[93.21667,24.60576],[93.21666,24.61079],[93.21809,24.61582],[93.21093,24.6221],[93.21236,24.62587],[93.22095,24.62588],[93.22381,24.63217],[93.22381,24.6372],[93.22095,24.64096],[93.21522,24.64473],[93.21521,24.65101],[93.21091,24.65855],[93.21091,24.66233],[93.21377,24.66484],[93.21807,24.66233],[93.22093,24.66359],[93.22092,24.67113],[93.20661,24.66735],[93.20946,24.68495],[93.21662,24.69375],[93.21805,24.69752],[93.21662,24.69627],[93.20803,24.69877],[93.2066,24.70003],[93.20659,24.70254],[93.19228,24.70504],[93.18082,24.70503],[93.16506,24.70877],[93.14788,24.70875],[93.14501,24.71126],[93.14788,24.71756],[93.1493,24.7251],[93.15786,24.7427],[93.17217,24.76158],[93.17932,24.78296],[93.18935,24.78423],[93.18935,24.78171],[93.19222,24.77795],[93.19509,24.77669],[93.19939,24.7767],[93.20511,24.77922],[93.20798,24.78299],[93.21657,24.79054],[93.22087,24.7918],[93.22373,24.79431],[93.22373,24.79935],[93.22517,24.80563],[93.23232,24.82198],[93.24234,24.84084],[93.24521,24.8509],[93.24378,24.85341],[93.23804,24.85341],[93.2323,24.85466],[93.22657,24.85717],[93.21367,24.85841],[93.21559,24.86116],[93.21846,24.86619],[93.22132,24.86745],[93.22418,24.87123],[93.22849,24.87375],[93.22563,24.87752],[93.22848,24.88129],[93.23278,24.88129],[93.23278,24.88129],[93.23278,24.88129],[93.2342,24.88633],[93.2299,24.89135],[93.23277,24.89135],[93.23277,24.89135],[93.23277,24.89135],[93.23277,24.89513],[93.23561,24.89889],[93.24134,24.89765],[93.24134,24.89765],[93.24134,24.89765],[93.24277,24.90015],[93.24275,24.90392],[93.24129,24.9077],[93.23841,24.91146],[93.23983,24.91272],[93.24127,24.91147],[93.24986,24.91147],[93.24986,24.91147],[93.24986,24.91147],[93.25268,24.91523],[93.2521,24.91739],[93.24963,24.92651],[93.24392,24.92651],[93.24247,24.92776],[93.24662,24.93277],[93.24793,24.93653],[93.2465,24.93652],[93.2465,24.93652],[93.24499,24.93585],[93.24088,24.93403],[93.23947,24.93402],[93.23943,24.93528],[93.24077,24.93778],[93.24352,24.94028],[93.24637,24.94027],[93.24926,24.93903],[93.25355,24.93903],[93.25355,24.93903],[93.25355,24.93903],[93.25053,24.94277],[93.25036,24.94652],[93.24881,24.94901],[93.24869,24.95151],[93.25299,24.95151],[93.25893,24.94777],[93.26182,24.94777],[93.26182,24.94777],[93.26182,24.94777],[93.26026,24.95027],[93.26003,24.95527],[93.26277,24.96028],[93.2627,24.96278],[93.25817,24.96906],[93.25237,24.96905],[93.25235,24.97158],[93.25381,24.97534],[93.251,24.97785],[93.2525,24.97909],[93.25274,24.98279],[93.2515,24.98524],[93.25474,24.98883],[93.25644,24.99244],[93.25654,24.99489],[93.25512,24.99614],[93.25517,24.99863],[93.2566,24.99736],[93.26091,24.99733],[93.2628,25.00066],[93.26195,25.00244],[93.25939,25.00286],[93.25748,25.00062],[93.25717,24.99992],[93.2566,24.99961],[93.25596,24.99953],[93.25532,24.99969],[93.25482,25.00006],[93.25471,25.00064],[93.25297,25.0028],[93.25132,25.00061],[93.2507,24.9999],[93.25014,24.99959],[93.24951,24.99939],[93.24886,24.99931],[93.2482,24.99933],[93.24757,24.99948],[93.24697,24.99972],[93.24645,25.00007],[93.2462,25.00061],[93.24868,25.0096],[93.25122,25.01245],[93.24836,25.01524],[93.25335,25.01778],[93.2573,25.01816],[93.25789,25.02163],[93.25514,25.02511],[93.25937,25.02849],[93.26334,25.03234],[93.26343,25.03533],[93.26245,25.03826],[93.26789,25.04051],[93.26899,25.04299],[93.26734,25.04522],[93.2677,25.04609],[93.28401,25.04792],[93.28638,25.04317],[93.29141,25.04345],[93.29649,25.04402],[93.29884,25.04681],[93.29958,25.04895],[93.30191,25.04828],[93.30194,25.04453],[93.30409,25.04433],[93.30374,25.05238],[93.30843,25.05485],[93.3056,25.06075],[93.3083,25.06694],[93.31029,25.06897],[93.31224,25.07429],[93.32186,25.08469],[93.32314,25.08799],[93.32902,25.09081],[93.33529,25.09214],[93.3387,25.1027],[93.33999,25.11072],[93.34387,25.11243],[93.34388,25.11761],[93.34597,25.12137],[93.34874,25.12168],[93.34658,25.12373],[93.34561,25.12614],[93.34844,25.13107],[93.34641,25.13398],[93.35054,25.14081],[93.34812,25.14978],[93.3484,25.15346],[93.34694,25.16018],[93.34873,25.16302],[93.35266,25.17808],[93.36041,25.18824],[93.36182,25.19188],[93.36813,25.19631],[93.37016,25.19985],[93.36918,25.20432],[93.37771,25.21235],[93.37911,25.21703],[93.38158,25.22011],[93.3844,25.22197],[93.38512,25.2248],[93.38723,25.22827],[93.38674,25.23863],[93.38834,25.24216],[93.39421,25.24653],[93.4032,25.25929],[93.40596,25.26028],[93.41169,25.25965],[93.42034,25.26244],[93.42293,25.26834],[93.42294,25.2741],[93.42605,25.27724],[93.43826,25.2827],[93.44444,25.28845],[93.45158,25.29088],[93.45958,25.29084],[93.4652,25.29515],[93.47363,25.30537],[93.47473,25.29577],[93.47423,25.28851],[93.47216,25.28152],[93.47631,25.27511],[93.48293,25.2727],[93.4871,25.27198],[93.49443,25.27476],[93.5039,25.27179],[93.51031,25.27162],[93.50367,25.2494],[93.50464,25.24013],[93.50791,25.23971],[93.51589,25.24075],[93.52007,25.24476],[93.52882,25.24432],[93.54067,25.24131],[93.54662,25.24442],[93.55415,25.24644],[93.56255,25.24248],[93.5695,25.23148],[93.57015,25.22832],[93.57423,25.2234],[93.57758,25.22154],[93.58103,25.22185],[93.58522,25.21814],[93.58741,25.21799],[93.58964,25.21577],[93.59133,25.20973],[93.59418,25.20694],[93.5922,25.20248],[93.59236,25.19972],[93.59644,25.2001],[93.60035,25.19818],[93.60361,25.20011],[93.60733,25.19783],[93.6119,25.20196],[93.62048,25.22067],[93.62825,25.2315],[93.63121,25.23866],[93.63744,25.24614],[93.64246,25.25573],[93.64291,25.26161],[93.64925,25.26483],[93.65072,25.26938],[93.65098,25.27474],[93.66498,25.29413],[93.66412,25.29994],[93.66548,25.30399],[93.67231,25.3072],[93.67334,25.31296],[93.67148,25.32441],[93.68331,25.32531],[93.6865,25.32688],[93.69085,25.34309],[93.69219,25.35727],[93.69939,25.35507],[93.71098,25.35372],[93.71744,25.35722],[93.71838,25.36598],[93.7225,25.3712],[93.73039,25.37597],[93.73918,25.38001],[93.74072,25.38503],[93.73948,25.39077],[93.7414,25.3955],[93.74608,25.4013],[93.75975,25.40968],[93.76382,25.41369],[93.78047,25.42024],[93.77993,25.42502],[93.78387,25.42746],[93.7875,25.4314],[93.7896,25.4389],[93.79315,25.44417],[93.79777,25.44943],[93.80184,25.45591],[93.80465,25.45892],[93.80842,25.46108],[93.81183,25.45903],[93.817,25.45861],[93.82235,25.46053],[93.82516,25.45492],[93.82677,25.44739],[93.83221,25.43648],[93.83328,25.42687],[93.8426,25.42717],[93.85364,25.42615],[93.86549,25.42415],[93.87212,25.42137],[93.88045,25.42107],[93.88924,25.42274],[93.89259,25.42155],[93.90283,25.41643],[93.90784,25.40973],[93.9129,25.40723],[93.91669,25.40409],[93.92216,25.39663],[93.92383,25.38979],[93.92293,25.38909],[93.92308,25.38604],[93.91678,25.38496],[93.90884,25.37667],[93.90763,25.3685],[93.90386,25.36559],[93.9024,25.35702],[93.89331,25.35068],[93.89213,25.34912],[93.8936,25.34487],[93.89307,25.33911],[93.88968,25.33714],[93.88964,25.33402],[93.896,25.33504],[93.89922,25.33252],[93.90596,25.3313],[93.90886,25.32971],[93.92096,25.32828],[93.92394,25.3245],[93.92737,25.31795],[93.93099,25.31378],[93.93673,25.31174],[93.94075,25.30157],[93.94735,25.29205],[93.94981,25.29],[93.9585,25.28958],[93.9555,25.28634],[93.94239,25.27826],[93.93092,25.2725],[93.92613,25.27115],[93.90543,25.27119],[93.89929,25.26782],[93.89528,25.26451],[93.89379,25.26221],[93.88771,25.25912],[93.88785,25.25669],[93.88077,25.25239],[93.86875,25.24351],[93.85538,25.22829],[93.84984,25.2271],[93.84589,25.22471],[93.84157,25.22336],[93.8361,25.22304],[93.83045,25.22087],[93.82415,25.21369],[93.81879,25.20652],[93.81827,25.19932],[93.81371,25.19508],[93.80573,25.18455],[93.8017,25.18482],[93.80033,25.17531],[93.7973,25.17489],[93.79657,25.17217],[93.79822,25.16948],[93.79517,25.16624],[93.7917,25.16604],[93.78341,25.15804],[93.78249,25.15498],[93.77891,25.15299],[93.77755,25.14988],[93.78089,25.14029],[93.78394,25.1254],[93.79001,25.12078],[93.7937,25.11602],[93.79598,25.1123],[93.79822,25.10599],[93.79984,25.09868],[93.79955,25.08624],[93.79925,25.08279],[93.80122,25.08039],[93.80055,25.07687],[93.80411,25.06049],[93.80705,25.05412],[93.81085,25.05035],[93.81415,25.04496],[93.81417,25.04122],[93.81812,25.03404],[93.82023,25.02819],[93.82101,25.02342],[93.81968,25.01678],[93.81685,25.01573],[93.81082,25.01782],[93.80454,25.01801],[93.79979,25.01637],[93.79561,25.01214],[93.79358,25.00689],[93.79515,25.00055],[93.79514,24.99803],[93.80057,24.99168],[93.79605,24.98788],[93.80126,24.98403],[93.80186,24.97763],[93.80086,24.96994],[93.79428,24.96232],[93.78692,24.96106],[93.78074,24.95726],[93.77339,24.95727],[93.77022,24.95347],[93.74792,24.94089],[93.73478,24.93715],[93.72599,24.93339],[93.72009,24.92586],[93.7114,24.91835],[93.70567,24.91082],[93.71014,24.89698],[93.71025,24.89195],[93.71316,24.88943],[93.71467,24.88566],[93.72048,24.88187],[93.72342,24.87683],[93.73065,24.87178],[93.73073,24.86299],[93.7365,24.85418],[93.72794,24.84793],[93.72082,24.83414],[93.72369,24.8291],[93.72369,24.82534],[93.71654,24.82034],[93.70795,24.8191],[93.70509,24.82037],[93.70223,24.8141],[93.69508,24.81412],[93.69221,24.81036],[93.68936,24.80911],[93.68792,24.80534],[93.6822,24.80285],[93.67934,24.79908],[93.67647,24.7991],[93.6736,24.79785],[93.66509,24.79276],[93.68712,24.707],[93.69424,24.65893],[93.69976,24.62027],[93.70028,24.61162]]]}}]}