{"type":"FeatureCollection","features":[{"type":"Feature","properties":{"id":"anugul","name":"Anugul","stateId":"odisha","stateName":"Odisha","censuscode":384,"type":"district"},"geometry":{"type":"Polygon","coordinates":[[[85.39504,21.18471],[85.39504,21.18471],[85.38733,21.17431],[85.38393,21.16973],[85.38134,21.16899],[85.36532,21.17085],[85.36132,21.16897],[85.35158,21.16849],[85.34518,21.17047],[85.34111,21.17918],[85.33992,21.17646],[85.33578,21.17605],[85.32101,21.16028],[85.3059,21.17251],[85.30114,21.17636],[85.2914,21.18066],[85.28536,21.17461],[85.27395,21.17391],[85.26898,21.16985],[85.26675,21.1632],[85.26602,21.15715],[85.26307,21.15219],[85.26122,21.14249],[85.25614,21.13338],[85.24438,21.12403],[85.25115,21.11403],[85.24209,21.101],[85.23346,21.07119],[85.22074,21.0721],[85.19557,21.08052],[85.18654,21.08037],[85.18007,21.07562],[85.17431,21.06482],[85.17298,21.06233],[85.16916,21.05749],[85.16801,21.05321],[85.16981,21.04891],[85.17335,21.04419],[85.17942,21.0414],[85.20114,21.03522],[85.21897,21.02235],[85.22993,21.01672],[85.24342,21.00586],[85.24988,21.00065],[85.25685,20.99341],[85.26255,20.98391],[85.26396,20.98],[85.26226,20.97674],[85.259,20.97363],[85.24996,20.96806],[85.24678,20.96458],[85.24493,20.95995],[85.24704,20.9499],[85.24798,20.94281],[85.24765,20.92966],[85.24386,20.91792],[85.24265,20.90719],[85.24338,20.90339],[85.24559,20.89991],[85.24991,20.89755],[85.25845,20.89511],[85.26095,20.8944],[85.26815,20.89065],[85.24956,20.88384],[85.25778,20.87868],[85.25953,20.87585],[85.26031,20.86837],[85.25881,20.84292],[85.25488,20.83533],[85.25458,20.83217],[85.25437,20.82992],[85.255,20.8234],[85.25591,20.81952],[85.25693,20.81519],[85.25734,20.81343],[85.25749,20.80744],[85.25639,20.80057],[85.25606,20.79856],[85.25705,20.79632],[85.24496,20.79499],[85.23739,20.79176],[85.23109,20.79327],[85.22572,20.79364],[85.22089,20.7927],[85.21806,20.78562],[85.21414,20.78539],[85.20974,20.78794],[85.20519,20.78938],[85.20181,20.78794],[85.19928,20.78333],[85.20123,20.77829],[85.20817,20.7706],[85.2101,20.76491],[85.20854,20.76],[85.20944,20.75564],[85.21459,20.75224],[85.21623,20.74915],[85.21117,20.74211],[85.20692,20.73622],[85.20489,20.72938],[85.20525,20.71851],[85.20271,20.71611],[85.19898,20.70842],[85.19717,20.69228],[85.19799,20.6883],[85.19803,20.68434],[85.19675,20.68144],[85.19708,20.67756],[85.18671,20.6724],[85.17288,20.66137],[85.16829,20.65896],[85.16918,20.66178],[85.16861,20.66474],[85.16492,20.67527],[85.16761,20.67904],[85.16679,20.6833],[85.1707,20.68875],[85.17228,20.69094],[85.17505,20.69673],[85.17558,20.70049],[85.17182,20.70421],[85.16663,20.70678],[85.16227,20.70785],[85.1592,20.71173],[85.15375,20.72268],[85.1538,20.73133],[85.14501,20.72924],[85.14071,20.7293],[85.13667,20.71858],[85.13549,20.7108],[85.13218,20.70622],[85.12538,20.69982],[85.12042,20.693],[85.1151,20.68177],[85.12508,20.66182],[85.12764,20.65207],[85.13702,20.63942],[85.13378,20.63382],[85.12964,20.61528],[85.12963,20.61525],[85.12959,20.61527],[85.12318,20.60994],[85.11998,20.60909],[85.09325,20.61084],[85.08972,20.60647],[85.08853,20.59651],[85.08179,20.59013],[85.07746,20.58121],[85.07345,20.58008],[85.0708,20.5825],[85.06844,20.58078],[85.06721,20.57704],[85.05789,20.57632],[85.04988,20.58245],[85.02715,20.58739],[85.00991,20.58447],[85.00005,20.58135],[84.99241,20.58258],[84.99173,20.57677],[84.98971,20.57076],[84.98644,20.56707],[84.9843,20.56779],[84.98093,20.57304],[84.97708,20.57404],[84.96661,20.57355],[84.95832,20.57597],[84.95127,20.58072],[84.94411,20.58126],[84.92653,20.57973],[84.91136,20.58107],[84.89813,20.58028],[84.89784,20.57525],[84.89564,20.56879],[84.89094,20.56412],[84.88157,20.55795],[84.87638,20.54688],[84.8682,20.5367],[84.86124,20.53126],[84.85163,20.52822],[84.84655,20.5337],[84.82549,20.56021],[84.80064,20.57923],[84.79435,20.58117],[84.78269,20.59798],[84.77838,20.60196],[84.76393,20.60888],[84.75165,20.6116],[84.74658,20.61324],[84.74171,20.61597],[84.73432,20.61785],[84.72025,20.61244],[84.71174,20.61169],[84.6377,20.62482],[84.62667,20.63148],[84.61835,20.63983],[84.60618,20.64988],[84.58862,20.67456],[84.58102,20.68142],[84.57176,20.68726],[84.54915,20.69518],[84.53582,20.69812],[84.52271,20.70547],[84.51225,20.71555],[84.48721,20.72715],[84.47692,20.73442],[84.46805,20.73773],[84.45725,20.7434],[84.43953,20.74292],[84.42648,20.74161],[84.41634,20.74612],[84.40863,20.74834],[84.39862,20.75354],[84.38369,20.75648],[84.37214,20.76284],[84.36314,20.77188],[84.35732,20.78153],[84.35628,20.79075],[84.36038,20.79829],[84.35909,20.80839],[84.36123,20.82687],[84.35731,20.83566],[84.35171,20.84159],[84.34298,20.84655],[84.33352,20.85381],[84.31861,20.86293],[84.26758,20.88932],[84.26884,20.89557],[84.26654,20.89924],[84.26718,20.90503],[84.27347,20.90947],[84.27093,20.91434],[84.27542,20.9184],[84.2829,20.92713],[84.2883,20.92876],[84.29483,20.93241],[84.3002,20.93582],[84.30451,20.93987],[84.30873,20.93761],[84.31296,20.93662],[84.3186,20.94508],[84.32697,20.94819],[84.33227,20.95217],[84.34037,20.95288],[84.34517,20.95532],[84.3537,20.95568],[84.36065,20.95869],[84.36532,20.95907],[84.36824,20.95533],[84.37259,20.95485],[84.37832,20.95861],[84.38514,20.9686],[84.39265,20.97212],[84.40168,20.9739],[84.40742,20.97897],[84.41188,20.99288],[84.41648,21.00156],[84.42197,21.00581],[84.43036,21.0086],[84.43596,21.01421],[84.43492,21.01972],[84.42885,21.02339],[84.41068,21.03072],[84.42152,21.03717],[84.43036,21.04093],[84.4422,21.03455],[84.44481,21.04039],[84.4514,21.04143],[84.45837,21.05615],[84.47137,21.07103],[84.47933,21.07869],[84.48516,21.08251],[84.49675,21.08069],[84.50256,21.08284],[84.50709,21.08826],[84.51418,21.08961],[84.52242,21.08798],[84.52906,21.08754],[84.53531,21.08859],[84.54482,21.07873],[84.55012,21.07435],[84.55582,21.07142],[84.56256,21.07185],[84.57185,21.06578],[84.58014,21.06421],[84.58932,21.06386],[84.59973,21.06652],[84.63102,21.08253],[84.63312,21.08013],[84.63764,21.08284],[84.65186,21.08437],[84.65605,21.08185],[84.66089,21.07664],[84.66537,21.07476],[84.66857,21.06993],[84.67887,21.0641],[84.6833,21.06416],[84.68424,21.07154],[84.67337,21.07919],[84.67095,21.08644],[84.67082,21.09544],[84.67234,21.10729],[84.67467,21.11606],[84.67688,21.12312],[84.68113,21.12852],[84.68313,21.14105],[84.68562,21.14899],[84.69229,21.15351],[84.70178,21.15538],[84.71119,21.1539],[84.71882,21.1506],[84.72561,21.14927],[84.72766,21.15237],[84.73011,21.15959],[84.73406,21.16469],[84.74481,21.17056],[84.74536,21.17086],[84.74905,21.16819],[84.7642,21.15012],[84.77956,21.1457],[84.79164,21.13876],[84.79547,21.13556],[84.80055,21.13353],[84.80445,21.13704],[84.80669,21.14083],[84.81288,21.13708],[84.8175,21.14096],[84.81918,21.1452],[84.8107,21.15594],[84.80541,21.156],[84.80117,21.159],[84.79985,21.16263],[84.79978,21.16684],[84.80726,21.16692],[84.82349,21.17256],[84.85141,21.16895],[84.85809,21.16663],[84.86568,21.16643],[84.88073,21.16514],[84.88419,21.15994],[84.88643,21.1572],[84.89122,21.15458],[84.90387,21.15171],[84.91017,21.14583],[84.92271,21.14208],[84.92891,21.14865],[84.93466,21.1525],[84.93654,21.15695],[84.93358,21.15861],[84.93323,21.162],[84.93415,21.16639],[84.9294,21.17057],[84.93299,21.17612],[84.92954,21.17841],[84.93043,21.18101],[84.9344,21.18075],[84.9401,21.17785],[84.95018,21.1757],[84.9552,21.16957],[84.95156,21.15962],[84.95262,21.15311],[84.95598,21.14847],[84.9631,21.14865],[84.96873,21.15442],[84.97399,21.16111],[84.9689,21.16435],[84.96611,21.16824],[84.97039,21.18086],[84.9706,21.18512],[84.97072,21.18738],[84.96866,21.19134],[84.94969,21.19501],[84.94363,21.19725],[84.94081,21.20345],[84.93962,21.21082],[84.93685,21.21805],[84.93317,21.22482],[84.93083,21.23172],[84.9195,21.24209],[84.90389,21.25329],[84.90185,21.2592],[84.90526,21.26363],[84.92161,21.27758],[84.96342,21.29861],[84.96955,21.29533],[84.98276,21.29005],[84.99228,21.28836],[84.9999,21.28965],[85.0078,21.29017],[85.01061,21.29635],[85.02938,21.29342],[85.03384,21.29123],[85.03746,21.29432],[85.03319,21.30152],[85.02796,21.30795],[85.01878,21.31009],[85.01668,21.31524],[85.01322,21.31766],[85.01155,21.32554],[85.01468,21.33108],[85.01427,21.33673],[85.00836,21.35059],[85.01057,21.35306],[85.0115,21.35585],[85.00906,21.35909],[85.00775,21.36391],[85.00786,21.36761],[85.0099,21.3733],[85.00789,21.37649],[85.00727,21.38069],[85.00808,21.38312],[85.00568,21.38682],[85.00433,21.3917],[84.99971,21.40029],[84.99599,21.41057],[84.99587,21.41507],[84.99937,21.42663],[85.00421,21.43965],[85.00724,21.44294],[85.01428,21.44187],[85.0212,21.44331],[85.02413,21.44647],[85.02542,21.44938],[85.02349,21.45558],[85.02431,21.45686],[85.02893,21.45446],[85.03862,21.45238],[85.06026,21.44243],[85.06348,21.44393],[85.06713,21.45104],[85.07481,21.455],[85.07751,21.45723],[85.09237,21.45612],[85.09647,21.45487],[85.10524,21.45554],[85.10816,21.45651],[85.12572,21.45359],[85.13183,21.45647],[85.14077,21.46217],[85.1478,21.45733],[85.15746,21.46038],[85.15955,21.46302],[85.16242,21.47005],[85.17649,21.48288],[85.1852,21.5018],[85.19978,21.51337],[85.20639,21.52042],[85.20617,21.52924],[85.20749,21.53135],[85.20925,21.53143],[85.21179,21.53275],[85.21203,21.54418],[85.21572,21.554],[85.21551,21.55574],[85.21377,21.55784],[85.20774,21.56022],[85.20507,21.56277],[85.2072,21.56668],[85.20094,21.57633],[85.2012,21.57899],[85.19552,21.58219],[85.19244,21.58478],[85.19116,21.58743],[85.18669,21.58872],[85.17581,21.58889],[85.16661,21.59104],[85.16287,21.58849],[85.15053,21.59402],[85.15518,21.6008],[85.15462,21.60466],[85.16718,21.61359],[85.1691,21.61611],[85.16908,21.62084],[85.17082,21.62232],[85.17678,21.62046],[85.18749,21.62353],[85.19151,21.624],[85.19185,21.62921],[85.19084,21.63491],[85.19245,21.63695],[85.1958,21.63811],[85.19728,21.64016],[85.19492,21.64318],[85.18398,21.64674],[85.18511,21.6485],[85.18543,21.65122],[85.18373,21.6543],[85.19147,21.65923],[85.19422,21.66314],[85.19751,21.65997],[85.20397,21.66112],[85.2078,21.66575],[85.21127,21.67481],[85.22153,21.67494],[85.22475,21.67603],[85.2482,21.67712],[85.25123,21.67596],[85.25755,21.65464],[85.26525,21.64361],[85.26652,21.64017],[85.26513,21.63167],[85.26555,21.62838],[85.26837,21.62351],[85.27766,21.61628],[85.27943,21.61279],[85.2792,21.60811],[85.28632,21.60181],[85.29136,21.60369],[85.29242,21.60215],[85.29351,21.59882],[85.28982,21.59651],[85.28652,21.59275],[85.28796,21.587],[85.29391,21.5774],[85.30513,21.56691],[85.30857,21.56586],[85.31111,21.56711],[85.31307,21.56658],[85.31384,21.56468],[85.30897,21.55935],[85.30821,21.55748],[85.30854,21.55553],[85.30289,21.55422],[85.3019,21.53925],[85.30334,21.53691],[85.30446,21.53173],[85.30819,21.53104],[85.31194,21.53398],[85.31746,21.53581],[85.32134,21.53414],[85.32443,21.53148],[85.32405,21.52847],[85.3228,21.52596],[85.32916,21.50996],[85.33057,21.49734],[85.33217,21.4928],[85.33151,21.48841],[85.33232,21.48374],[85.33393,21.48151],[85.33341,21.47955],[85.33107,21.47679],[85.32717,21.46899],[85.32518,21.46665],[85.31278,21.4601],[85.30881,21.44912],[85.30353,21.44684],[85.30007,21.4458],[85.29799,21.44594],[85.29467,21.44814],[85.29065,21.44755],[85.28667,21.45239],[85.28061,21.44957],[85.26856,21.45492],[85.26333,21.45454],[85.25935,21.45107],[85.26097,21.44538],[85.26285,21.44235],[85.27071,21.43919],[85.27535,21.42703],[85.28326,21.42445],[85.29029,21.41994],[85.30539,21.41391],[85.30884,21.40386],[85.30727,21.39483],[85.31592,21.39214],[85.33051,21.38279],[85.33114,21.37755],[85.33986,21.36995],[85.34206,21.36532],[85.34381,21.35882],[85.34149,21.35492],[85.33716,21.35086],[85.33492,21.34581],[85.33359,21.33799],[85.32941,21.32395],[85.3268,21.31946],[85.32304,21.32252],[85.31984,21.32789],[85.31593,21.32887],[85.31293,21.32132],[85.30884,21.31802],[85.29739,21.31396],[85.29682,21.30703],[85.29344,21.30512],[85.28998,21.30449],[85.28536,21.29985],[85.28312,21.299],[85.27888,21.3009],[85.27479,21.30158],[85.27373,21.29919],[85.27846,21.29281],[85.27878,21.28791],[85.27847,21.28501],[85.27509,21.28294],[85.27411,21.27508],[85.28121,21.26924],[85.28736,21.26543],[85.29046,21.2664],[85.29102,21.26929],[85.30036,21.27586],[85.31334,21.26383],[85.32076,21.26078],[85.34269,21.25739],[85.34967,21.25051],[85.3658,21.24293],[85.36907,21.24073],[85.38339,21.21578],[85.38263,21.20937],[85.38334,21.19876],[85.395,21.18475],[85.39504,21.18471]]]}}]}