{"type":"FeatureCollection","features":[{"type":"Feature","properties":{"id":"bargarh","name":"Bargarh","stateId":"odisha","stateName":"Odisha","censuscode":370,"type":"district"},"geometry":{"type":"Polygon","coordinates":[[[83.79986,21.56619],[83.80104,21.56481],[83.81527,21.53969],[83.82104,21.53494],[83.83407,21.52964],[83.84679,21.52729],[83.85059,21.51913],[83.85353,21.51325],[83.8644,21.4936],[83.8656,21.48731],[83.87263,21.47553],[83.87732,21.45442],[83.88679,21.4388],[83.88436,21.43306],[83.8839,21.42755],[83.87123,21.42456],[83.86722,21.422],[83.85513,21.42212],[83.84974,21.416],[83.84957,21.4102],[83.85167,21.40453],[83.86331,21.39927],[83.87288,21.3969],[83.88093,21.39007],[83.88034,21.38535],[83.88034,21.3803],[83.88231,21.36343],[83.88298,21.34951],[83.87839,21.34033],[83.87799,21.32331],[83.87162,21.31059],[83.87605,21.30412],[83.8784,21.29375],[83.88436,21.29295],[83.89154,21.29663],[83.89094,21.28947],[83.89157,21.28089],[83.89377,21.27549],[83.89826,21.27133],[83.90133,21.26425],[83.90502,21.2572],[83.91342,21.24599],[83.91421,21.23952],[83.91281,21.23012],[83.91122,21.22343],[83.90465,21.2045],[83.89586,21.17814],[83.89553,21.17818],[83.88751,21.17685],[83.87377,21.15788],[83.86253,21.13434],[83.86001,21.12393],[83.85177,21.10624],[83.84482,21.09736],[83.84177,21.09693],[83.8379,21.09869],[83.82705,21.10125],[83.82275,21.10324],[83.81577,21.1082],[83.80793,21.10988],[83.79968,21.11599],[83.79675,21.11959],[83.79201,21.1281],[83.78662,21.13507],[83.78813,21.1463],[83.78541,21.15208],[83.78223,21.15453],[83.77005,21.15497],[83.76386,21.14418],[83.75372,21.14125],[83.7489,21.14066],[83.74076,21.13236],[83.73516,21.13269],[83.72724,21.12865],[83.72543,21.1255],[83.72223,21.12258],[83.71813,21.12106],[83.70596,21.12218],[83.69453,21.11788],[83.68843,21.11711],[83.68452,21.12026],[83.68135,21.12473],[83.66683,21.12627],[83.65525,21.13004],[83.64083,21.13083],[83.61377,21.129],[83.60802,21.12633],[83.59965,21.11058],[83.59484,21.10629],[83.56892,21.08783],[83.56382,21.08514],[83.55687,21.08317],[83.5521,21.07699],[83.54304,21.07175],[83.53797,21.06978],[83.53153,21.0699],[83.52797,21.06642],[83.52473,21.0649],[83.52023,21.06431],[83.51544,21.06043],[83.5029,21.06347],[83.49973,21.06327],[83.49771,21.06178],[83.49781,21.05138],[83.4997,21.04755],[83.50032,21.04361],[83.49901,21.04165],[83.49596,21.04109],[83.49317,21.04187],[83.4844,21.04961],[83.48091,21.04859],[83.47348,21.05639],[83.46599,21.06002],[83.46236,21.05659],[83.45937,21.055],[83.45929,21.05495],[83.45249,21.05013],[83.44299,21.04688],[83.43674,21.03512],[83.43274,21.03197],[83.42779,21.03165],[83.41788,21.03651],[83.41149,21.0418],[83.40839,21.04745],[83.40779,21.05956],[83.40575,21.0624],[83.39814,21.06756],[83.39457,21.06948],[83.39031,21.0695],[83.38145,21.06325],[83.37532,21.06347],[83.36659,21.06724],[83.36282,21.06727],[83.35865,21.06959],[83.35704,21.06599],[83.35471,21.06307],[83.3489,21.05996],[83.34464,21.05849],[83.3386,21.05863],[83.3336,21.05566],[83.32921,21.05608],[83.32482,21.0554],[83.32037,21.0463],[83.32002,21.03937],[83.31355,21.03163],[83.3097,21.03095],[83.30573,21.02521],[83.30255,21.0231],[83.29698,21.01541],[83.30269,21.00848],[83.31233,21.00063],[83.31924,20.99806],[83.32305,20.99523],[83.32765,20.98709],[83.33008,20.9849],[83.33509,20.98418],[83.33863,20.98518],[83.34332,20.9878],[83.35374,20.99858],[83.35741,21.00137],[83.35789,21.0023],[83.35834,21.0027],[83.35879,21.00308],[83.35927,21.00343],[83.35976,21.00376],[83.36027,21.00406],[83.36078,21.00434],[83.3613,21.00459],[83.36183,21.00482],[83.36237,21.00501],[83.36291,21.00518],[83.36345,21.00532],[83.364,21.00544],[83.36455,21.00553],[83.3651,21.00559],[83.36565,21.00561],[83.3662,21.00561],[83.36675,21.00558],[83.3673,21.00553],[83.36784,21.00544],[83.36838,21.00533],[83.36893,21.00518],[83.36946,21.00501],[83.37,21.00482],[83.37053,21.0046],[83.37105,21.00434],[83.37156,21.00407],[83.37207,21.00377],[83.37255,21.00345],[83.37303,21.0031],[83.3735,21.00273],[83.37394,21.00234],[83.37437,21.00192],[83.37517,21.00135],[83.37573,20.99738],[83.37663,20.99645],[83.38627,20.99319],[83.38804,20.99047],[83.38762,20.98005],[83.38862,20.97571],[83.39084,20.9741],[83.39221,20.97094],[83.38812,20.96335],[83.38529,20.96071],[83.38427,20.95764],[83.38741,20.9554],[83.38352,20.9487],[83.38336,20.9433],[83.38902,20.94033],[83.39707,20.92665],[83.40725,20.91952],[83.41641,20.90973],[83.41788,20.90206],[83.41607,20.8981],[83.4132,20.89601],[83.39299,20.88827],[83.37379,20.88393],[83.36062,20.87846],[83.35562,20.87739],[83.35079,20.87643],[83.34418,20.88203],[83.33971,20.8846],[83.33305,20.88421],[83.33079,20.88259],[83.32873,20.87645],[83.32617,20.87389],[83.32282,20.86598],[83.32031,20.86318],[83.31451,20.8587],[83.312,20.85854],[83.30802,20.86],[83.3037,20.85303],[83.29806,20.85512],[83.29163,20.85578],[83.28894,20.85445],[83.28876,20.85157],[83.28554,20.84595],[83.28291,20.84409],[83.27978,20.84475],[83.28184,20.8541],[83.27888,20.86186],[83.27543,20.86802],[83.27751,20.87075],[83.27683,20.87444],[83.27369,20.88032],[83.26637,20.88731],[83.26248,20.89317],[83.25461,20.89926],[83.2582,20.90371],[83.253,20.91354],[83.25418,20.91931],[83.23272,20.93094],[83.22521,20.93382],[83.21949,20.93503],[83.21938,20.93291],[83.22112,20.93095],[83.22058,20.92759],[83.1943,20.89849],[83.19221,20.89923],[83.1821,20.89373],[83.17241,20.89129],[83.16606,20.88608],[83.1536,20.88542],[83.14778,20.88292],[83.14018,20.87453],[83.13253,20.86356],[83.13007,20.86299],[83.12155,20.86379],[83.11378,20.86877],[83.10477,20.87602],[83.10001,20.87259],[83.09539,20.86777],[83.09085,20.86119],[83.08265,20.85965],[83.06107,20.85995],[83.0503,20.85919],[83.04702,20.85667],[83.03121,20.85673],[83.02539,20.85746],[83.01807,20.86121],[83.01384,20.86097],[83.00595,20.8555],[83.00346,20.85221],[83.00129,20.85069],[83.00064,20.85082],[82.99345,20.84915],[82.98585,20.8502],[82.98362,20.85502],[82.98435,20.86739],[82.97677,20.87956],[82.97551,20.88646],[82.96746,20.8824],[82.96565,20.88647],[82.96888,20.89661],[82.96238,20.8987],[82.95545,20.89744],[82.94842,20.8918],[82.94517,20.88761],[82.92955,20.88781],[82.92808,20.89329],[82.92423,20.8989],[82.91965,20.90365],[82.91531,20.90607],[82.90619,20.90487],[82.9031,20.90739],[82.896,20.90716],[82.89111,20.91021],[82.88387,20.90117],[82.87942,20.89889],[82.86815,20.88572],[82.86003,20.87848],[82.84638,20.87279],[82.84053,20.86936],[82.83466,20.86443],[82.81754,20.8454],[82.81069,20.8396],[82.80406,20.83757],[82.79487,20.82606],[82.78533,20.81584],[82.77593,20.80735],[82.7706,20.79171],[82.76452,20.78146],[82.76109,20.77785],[82.7575,20.77538],[82.75452,20.77379],[82.74875,20.77302],[82.7474,20.76152],[82.74247,20.75218],[82.73803,20.73232],[82.73756,20.72543],[82.72956,20.72602],[82.71242,20.7305],[82.70611,20.72992],[82.70293,20.72569],[82.69085,20.72934],[82.68943,20.73479],[82.69019,20.73918],[82.69768,20.75241],[82.69845,20.75725],[82.69705,20.76605],[82.69163,20.77269],[82.69105,20.78594],[82.68684,20.82049],[82.68978,20.83196],[82.68776,20.84898],[82.6885,20.85787],[82.68556,20.87275],[82.68629,20.8835],[82.69469,20.89598],[82.69692,20.90185],[82.69716,20.91948],[82.70028,20.93136],[82.70137,20.94031],[82.68968,20.97238],[82.69146,21.00019],[82.69377,21.02171],[82.68278,21.03579],[82.67385,21.06013],[82.66866,21.06874],[82.6615,21.07647],[82.65189,21.07887],[82.64714,21.08142],[82.64285,21.08724],[82.6392,21.09006],[82.64271,21.09509],[82.65034,21.10085],[82.65238,21.10497],[82.64567,21.10955],[82.64445,21.11469],[82.64691,21.12006],[82.65266,21.12372],[82.6551,21.12801],[82.65195,21.13185],[82.64572,21.13465],[82.64142,21.13937],[82.64014,21.14567],[82.64328,21.15244],[82.65316,21.15472],[82.66939,21.15377],[82.69187,21.1611],[82.6993,21.15989],[82.7014,21.15585],[82.70786,21.15632],[82.71286,21.15795],[82.71878,21.15884],[82.72848,21.16201],[82.73458,21.16226],[82.74268,21.16095],[82.75962,21.16284],[82.76485,21.16167],[82.78942,21.14418],[82.79618,21.14244],[82.79908,21.14827],[82.80291,21.15375],[82.81112,21.15623],[82.81418,21.15981],[82.8198,21.16172],[82.84731,21.16655],[82.85445,21.16587],[82.85409,21.16137],[82.86134,21.16022],[82.86681,21.16051],[82.87099,21.1586],[82.87615,21.16297],[82.88017,21.1543],[82.88655,21.15234],[82.89474,21.15702],[82.90244,21.16306],[82.90962,21.16622],[82.91526,21.16353],[82.92173,21.1639],[82.92923,21.16148],[82.93531,21.16431],[82.94469,21.16444],[82.94963,21.16632],[82.95631,21.17305],[82.96337,21.17877],[82.96694,21.17713],[82.97092,21.16498],[82.97244,21.15908],[82.97891,21.15964],[82.98722,21.16079],[82.99072,21.15162],[83.00027,21.15763],[83.00641,21.15151],[83.01284,21.14921],[83.01502,21.14991],[83.01776,21.14875],[83.02318,21.14312],[83.0259,21.14158],[83.03683,21.13475],[83.03637,21.12947],[83.04003,21.12781],[83.04374,21.12466],[83.04788,21.1224],[83.05412,21.12368],[83.05868,21.12065],[83.06703,21.1194],[83.07164,21.1146],[83.07871,21.11158],[83.08887,21.11022],[83.09599,21.11098],[83.09938,21.10951],[83.10246,21.10786],[83.11556,21.11125],[83.12712,21.10464],[83.14126,21.10881],[83.14498,21.11339],[83.15601,21.12343],[83.16066,21.12933],[83.16865,21.13501],[83.17712,21.13508],[83.18388,21.13431],[83.19024,21.13562],[83.19735,21.13912],[83.20001,21.14302],[83.20097,21.16119],[83.20664,21.16551],[83.20732,21.17243],[83.20679,21.17757],[83.20927,21.18095],[83.21246,21.18754],[83.21727,21.19158],[83.21846,21.19468],[83.21481,21.20487],[83.2226,21.21896],[83.22163,21.22404],[83.22246,21.22714],[83.22629,21.22716],[83.22194,21.24385],[83.22138,21.25428],[83.22559,21.26351],[83.23213,21.27035],[83.23911,21.26873],[83.24967,21.27982],[83.25559,21.28069],[83.26453,21.27895],[83.26998,21.27602],[83.27492,21.27201],[83.27855,21.2839],[83.28178,21.28906],[83.28201,21.29396],[83.2799,21.2995],[83.26601,21.30548],[83.26133,21.31571],[83.26142,21.32291],[83.26808,21.33005],[83.263,21.33262],[83.26218,21.33522],[83.26785,21.34047],[83.27331,21.34872],[83.278,21.36251],[83.27674,21.37046],[83.27724,21.37828],[83.28335,21.37917],[83.28858,21.3784],[83.29445,21.37473],[83.30885,21.37113],[83.31679,21.36785],[83.32654,21.36145],[83.3418,21.35912],[83.38201,21.34336],[83.38381,21.34669],[83.39516,21.34236],[83.40105,21.34549],[83.40984,21.35185],[83.41163,21.35852],[83.40905,21.36171],[83.40134,21.36452],[83.40035,21.36856],[83.40351,21.37264],[83.40374,21.37564],[83.40027,21.38655],[83.40095,21.40275],[83.39684,21.40496],[83.38859,21.41286],[83.38113,21.42548],[83.37857,21.4316],[83.37733,21.43933],[83.37298,21.44305],[83.36813,21.44539],[83.35748,21.44718],[83.35451,21.45832],[83.35054,21.46804],[83.34917,21.47727],[83.34925,21.48846],[83.34281,21.49501],[83.34181,21.49865],[83.34308,21.50273],[83.34494,21.50571],[83.35307,21.51132],[83.35614,21.51903],[83.36144,21.53837],[83.37296,21.55271],[83.3741,21.55604],[83.37406,21.56233],[83.37049,21.57077],[83.36951,21.5755],[83.37536,21.60002],[83.38443,21.60764],[83.38788,21.61569],[83.39401,21.6183],[83.39701,21.62347],[83.40243,21.62713],[83.40899,21.62968],[83.41235,21.63473],[83.41579,21.63713],[83.4207,21.63924],[83.43123,21.64141],[83.43367,21.64647],[83.44839,21.6522],[83.45475,21.64755],[83.44855,21.63542],[83.44763,21.62967],[83.44859,21.62799],[83.44849,21.62107],[83.45709,21.61998],[83.45716,21.6164],[83.45587,21.61123],[83.45996,21.61033],[83.45992,21.6082],[83.47012,21.60854],[83.47705,21.62976],[83.48371,21.63029],[83.49168,21.62856],[83.49361,21.63617],[83.49048,21.64017],[83.49022,21.64259],[83.49021,21.64259],[83.50563,21.65323],[83.50981,21.65612],[83.52087,21.66664],[83.52715,21.67266],[83.53369,21.68469],[83.53762,21.69193],[83.54019,21.7029],[83.5423,21.71189],[83.54464,21.72583],[83.55989,21.74306],[83.58193,21.73803],[83.5987,21.73496],[83.62381,21.72708],[83.65643,21.72003],[83.66677,21.71278],[83.68417,21.70803],[83.69493,21.7016],[83.7054,21.68864],[83.71148,21.66657],[83.72348,21.64501],[83.72721,21.63074],[83.77243,21.59157],[83.79323,21.57394],[83.79986,21.56619]]]}}]}