{"type":"FeatureCollection","features":[{"type":"Feature","properties":{"id":"cuttack","name":"Cuttack","stateId":"odisha","stateName":"Odisha","censuscode":381,"type":"district"},"geometry":{"type":"MultiPolygon","coordinates":[[[[85.96567,20.67292],[85.96696,20.66697],[85.97217,20.6675],[85.97772,20.66682],[85.98162,20.66446],[85.9859,20.65968],[85.99109,20.64677],[85.99321,20.64392],[85.99577,20.64216],[86.0072,20.63977],[86.0114,20.62442],[86.024,20.61783],[86.03347,20.61041],[86.03675,20.60784],[86.04131,20.60057],[86.04751,20.5993],[86.04668,20.594],[86.04873,20.58977],[86.05418,20.58918],[86.06693,20.59437],[86.07501,20.59994],[86.07979,20.59753],[86.08285,20.59833],[86.08354,20.60898],[86.08628,20.61329],[86.09304,20.61789],[86.1033,20.61554],[86.11991,20.61744],[86.12658,20.62646],[86.13037,20.63008],[86.13525,20.63191],[86.14589,20.63368],[86.14947,20.64338],[86.15428,20.64374],[86.16818,20.65034],[86.16971,20.6454],[86.17614,20.64477],[86.17935,20.64666],[86.17753,20.65364],[86.17854,20.65645],[86.18159,20.65891],[86.18381,20.65835],[86.18573,20.6533],[86.18784,20.65027],[86.18962,20.65277],[86.18985,20.65571],[86.19291,20.65623],[86.19708,20.65127],[86.19643,20.64586],[86.19333,20.64231],[86.189,20.64166],[86.18466,20.6388],[86.17946,20.63856],[86.1756,20.63964],[86.17256,20.6393],[86.16882,20.64102],[86.16804,20.63894],[86.16981,20.63702],[86.17415,20.63583],[86.17772,20.63679],[86.18491,20.63585],[86.18876,20.63228],[86.18934,20.62379],[86.19516,20.62704],[86.20156,20.63203],[86.21031,20.63314],[86.21247,20.62918],[86.21437,20.61759],[86.21751,20.61774],[86.22169,20.61296],[86.23065,20.6102],[86.23724,20.61093],[86.24535,20.61087],[86.25496,20.60734],[86.261,20.59862],[86.26027,20.59349],[86.2628,20.58915],[86.27447,20.58774],[86.27388,20.58353],[86.28387,20.58394],[86.28175,20.57922],[86.28003,20.57429],[86.27789,20.56716],[86.274,20.56649],[86.26932,20.56568],[86.26384,20.56563],[86.26019,20.56284],[86.27265,20.56177],[86.27332,20.55925],[86.26794,20.55382],[86.26188,20.5487],[86.26035,20.54746],[86.25308,20.53838],[86.25416,20.53023],[86.26201,20.53101],[86.26599,20.52826],[86.26897,20.52317],[86.27689,20.52127],[86.27788,20.51727],[86.27611,20.51302],[86.27319,20.51121],[86.2727,20.50911],[86.27968,20.49547],[86.27391,20.48943],[86.27259,20.48804],[86.26932,20.48293],[86.26846,20.47937],[86.27178,20.46883],[86.27147,20.46231],[86.27249,20.45711],[86.27538,20.45423],[86.27475,20.45324],[86.2716,20.45273],[86.26839,20.45093],[86.27752,20.44788],[86.279,20.44598],[86.275,20.44403],[86.27334,20.44401],[86.27087,20.44144],[86.27451,20.43577],[86.27387,20.42641],[86.27698,20.42609],[86.27965,20.42469],[86.28028,20.42144],[86.27923,20.41799],[86.27717,20.41559],[86.27177,20.39842],[86.27491,20.39884],[86.27749,20.40168],[86.28083,20.40218],[86.28109,20.39729],[86.27757,20.39514],[86.2747,20.39443],[86.27189,20.39059],[86.26525,20.38857],[86.26345,20.38147],[86.25926,20.37953],[86.25614,20.37956],[86.25363,20.3781],[86.25137,20.37369],[86.25504,20.36654],[86.24811,20.36444],[86.23676,20.36399],[86.22903,20.36146],[86.21599,20.3626],[86.20968,20.36315],[86.20687,20.3634],[86.20208,20.36323],[86.19469,20.37209],[86.19032,20.37467],[86.17552,20.37767],[86.16863,20.37649],[86.15867,20.36998],[86.1473,20.36255],[86.14242,20.35833],[86.13718,20.35698],[86.11269,20.36162],[86.09316,20.36532],[86.0873,20.36731],[86.05541,20.39143],[86.05061,20.39309],[86.03582,20.39425],[86.02775,20.40129],[86.01813,20.38723],[86.01512,20.38118],[86.02585,20.35728],[86.02695,20.34942],[86.03417,20.34287],[86.0359,20.34004],[86.03087,20.33251],[86.03123,20.32532],[86.0346,20.31156],[86.03293,20.30482],[86.03086,20.30002],[86.03286,20.29681],[86.04265,20.29338],[86.04465,20.28806],[86.04701,20.28409],[86.04829,20.28432],[86.05098,20.27712],[86.05292,20.27465],[86.05548,20.27519],[86.05927,20.27283],[86.06506,20.27352],[86.06955,20.27158],[86.07201,20.26732],[86.07226,20.26687],[86.07368,20.26313],[86.07505,20.25949],[86.07659,20.25069],[86.07939,20.2456],[86.08558,20.2435],[86.08719,20.24308],[86.095,20.24174],[86.10107,20.23579],[86.12685,20.22608],[86.12959,20.2222],[86.13996,20.22076],[86.15152,20.22203],[86.15579,20.21109],[86.15163,20.20326],[86.14505,20.20003],[86.14229,20.19729],[86.14306,20.19496],[86.14826,20.19355],[86.151,20.19178],[86.15275,20.1895],[86.15376,20.182],[86.15287,20.17744],[86.14542,20.16799],[86.14807,20.16641],[86.14723,20.16286],[86.15282,20.16162],[86.14719,20.14952],[86.14684,20.14604],[86.1587,20.13708],[86.16054,20.1348],[86.16053,20.13077],[86.16052,20.1302],[86.15914,20.12565],[86.16168,20.12141],[86.16521,20.11786],[86.16718,20.11189],[86.16271,20.10567],[86.15748,20.09398],[86.15891,20.09107],[86.16299,20.08887],[86.16832,20.08396],[86.17072,20.07696],[86.17086,20.07364],[86.18278,20.06073],[86.18949,20.05346],[86.1895,20.05345],[86.18304,20.05072],[86.17739,20.05177],[86.17151,20.04915],[86.17019,20.04763],[86.1708,20.04106],[86.16074,20.04578],[86.15375,20.04243],[86.14772,20.04528],[86.13474,20.03944],[86.12889,20.04022],[86.12223,20.04217],[86.11984,20.04586],[86.12021,20.04867],[86.12236,20.05115],[86.1294,20.05622],[86.12842,20.06017],[86.1248,20.06182],[86.11759,20.06687],[86.10358,20.06747],[86.09698,20.06521],[86.0903,20.05993],[86.0891,20.06285],[86.08585,20.06698],[86.08205,20.06869],[86.07737,20.07824],[86.07736,20.08229],[86.08254,20.08455],[86.08947,20.08561],[86.09189,20.09168],[86.08522,20.10436],[86.08271,20.10632],[86.08268,20.10635],[86.07816,20.11201],[86.07472,20.11357],[86.07336,20.11562],[86.07297,20.11889],[86.07068,20.12249],[86.06765,20.12519],[86.06521,20.12546],[86.06341,20.12675],[86.05934,20.12516],[86.05287,20.13392],[86.04396,20.13415],[86.03984,20.13517],[86.04022,20.13796],[86.03633,20.14332],[86.04485,20.14221],[86.0489,20.14304],[86.05094,20.14632],[86.04892,20.15741],[86.05547,20.16252],[86.05487,20.16512],[86.04894,20.16936],[86.0495,20.1721],[86.04645,20.17412],[86.04572,20.17688],[86.04295,20.18009],[86.03745,20.17787],[86.03932,20.17702],[86.03945,20.17513],[86.0376,20.1723],[86.03485,20.17007],[86.03192,20.1699],[86.02784,20.1708],[86.02615,20.17571],[86.03092,20.1826],[86.03043,20.18495],[86.02868,20.18557],[86.02504,20.18445],[86.02167,20.18635],[86.01538,20.20854],[86.01177,20.20868],[86.00782,20.22411],[85.99987,20.22561],[85.99417,20.22865],[85.98246,20.23922],[85.97596,20.24054],[85.97297,20.24396],[85.96094,20.2521],[85.95408,20.26037],[85.95174,20.2682],[85.94583,20.26862],[85.94265,20.27052],[85.93875,20.26761],[85.9341,20.27262],[85.93931,20.28048],[85.9375,20.28699],[85.93075,20.28876],[85.92729,20.29213],[85.92211,20.30652],[85.91623,20.30974],[85.91443,20.31707],[85.91663,20.32046],[85.9177,20.32431],[85.92095,20.32347],[85.92185,20.31638],[85.92928,20.31015],[85.93177,20.31157],[85.9321,20.31521],[85.93073,20.32305],[85.92897,20.32838],[85.92296,20.33153],[85.9196,20.33456],[85.91889,20.3412],[85.91664,20.34565],[85.90966,20.34883],[85.90189,20.35108],[85.90091,20.3546],[85.90049,20.36753],[85.89922,20.36794],[85.8956,20.36214],[85.89446,20.3569],[85.89022,20.35664],[85.88565,20.35748],[85.88152,20.34903],[85.87627,20.34297],[85.87178,20.33966],[85.8704,20.33575],[85.87146,20.33239],[85.87882,20.33182],[85.87675,20.32913],[85.87695,20.32578],[85.88432,20.32526],[85.88045,20.31849],[85.88465,20.31569],[85.88904,20.31462],[85.89223,20.31245],[85.89012,20.30711],[85.88411,20.30266],[85.88509,20.29239],[85.88462,20.28704],[85.87748,20.28525],[85.87411,20.28631],[85.87171,20.28915],[85.86879,20.29828],[85.8647,20.30022],[85.85764,20.30045],[85.8455,20.30677],[85.83376,20.31146],[85.81938,20.31555],[85.81384,20.31922],[85.80674,20.32129],[85.80246,20.3208],[85.80231,20.32518],[85.79921,20.33644],[85.80582,20.35317],[85.81475,20.35836],[85.81978,20.36731],[85.81852,20.38831],[85.82181,20.39123],[85.82721,20.39292],[85.83087,20.40385],[85.82329,20.4077],[85.81682,20.42631],[85.81073,20.4274],[85.80752,20.43364],[85.80202,20.43391],[85.7989,20.42887],[85.7959,20.4264],[85.79476,20.42636],[85.78739,20.4328],[85.78276,20.42177],[85.78464,20.41622],[85.78864,20.41654],[85.78736,20.40951],[85.77616,20.40619],[85.77365,20.40315],[85.76784,20.41213],[85.75999,20.40428],[85.74696,20.40638],[85.74236,20.40474],[85.73706,20.40794],[85.73272,20.40895],[85.71584,20.39932],[85.71455,20.39662],[85.71468,20.39143],[85.70886,20.38703],[85.70586,20.37598],[85.70186,20.36627],[85.70181,20.36166],[85.69336,20.3465],[85.68431,20.34015],[85.68155,20.33521],[85.67898,20.32428],[85.6755,20.32719],[85.66902,20.33074],[85.6631,20.33129],[85.65874,20.3293],[85.65187,20.32375],[85.64772,20.32522],[85.64401,20.32294],[85.64005,20.31915],[85.63401,20.30986],[85.63342,20.30443],[85.63445,20.29798],[85.62675,20.29202],[85.61911,20.29668],[85.6095,20.2961],[85.60669,20.29842],[85.60276,20.29798],[85.59696,20.29848],[85.58466,20.30086],[85.57409,20.29964],[85.56721,20.30083],[85.5592,20.30993],[85.55313,20.31313],[85.54989,20.30755],[85.55277,20.30558],[85.55004,20.30421],[85.55063,20.30248],[85.53499,20.30245],[85.52988,20.30507],[85.52522,20.30365],[85.52211,20.29958],[85.52303,20.29335],[85.51966,20.29412],[85.51057,20.29087],[85.50221,20.29403],[85.49365,20.29609],[85.48449,20.29718],[85.47318,20.29539],[85.46152,20.29452],[85.45912,20.28641],[85.4566,20.28158],[85.45541,20.27559],[85.45665,20.26982],[85.45469,20.26655],[85.45032,20.2634],[85.44719,20.26393],[85.43762,20.26841],[85.43113,20.27294],[85.42195,20.27224],[85.40832,20.25611],[85.40357,20.25722],[85.39875,20.25954],[85.39622,20.27068],[85.39573,20.27725],[85.39127,20.27883],[85.3864,20.2819],[85.38292,20.28561],[85.3797,20.28188],[85.37133,20.27581],[85.36196,20.27487],[85.35501,20.27288],[85.34982,20.27221],[85.34361,20.27322],[85.33708,20.27215],[85.33508,20.28034],[85.33508,20.28035],[85.33588,20.28212],[85.34567,20.28416],[85.34665,20.28669],[85.34956,20.2895],[85.35194,20.29329],[85.35366,20.29848],[85.35616,20.30181],[85.35505,20.30671],[85.35467,20.31461],[85.35227,20.31675],[85.35095,20.31992],[85.35328,20.32378],[85.35385,20.3281],[85.35676,20.33016],[85.35466,20.33317],[85.35498,20.33553],[85.35927,20.33597],[85.35901,20.34156],[85.3612,20.34524],[85.36823,20.34878],[85.37209,20.34842],[85.37404,20.35054],[85.37503,20.35544],[85.3728,20.35568],[85.37136,20.36629],[85.36226,20.36443],[85.35457,20.36106],[85.34877,20.36085],[85.34204,20.35743],[85.27821,20.35775],[85.27072,20.3583],[85.25621,20.36572],[85.24667,20.36662],[85.23521,20.36886],[85.22575,20.3716],[85.2121,20.3736],[85.20801,20.37616],[85.2021,20.37808],[85.19419,20.37753],[85.18566,20.3756],[85.17322,20.37807],[85.16049,20.37822],[85.1488,20.38546],[85.13721,20.38798],[85.13379,20.39185],[85.1217,20.40185],[85.11809,20.40618],[85.10385,20.41072],[85.09366,20.41214],[85.08274,20.41522],[85.07652,20.4157],[85.07316,20.41963],[85.05223,20.42811],[85.04161,20.43426],[85.03662,20.44011],[85.02885,20.44447],[85.01426,20.44937],[84.99998,20.46047],[84.9456,20.49227],[84.9328,20.49714],[84.89443,20.49647],[84.88491,20.49912],[84.86474,20.51383],[84.85163,20.52822],[84.86124,20.53126],[84.8682,20.5367],[84.87638,20.54688],[84.88157,20.55795],[84.89094,20.56412],[84.89564,20.56879],[84.89784,20.57525],[84.89813,20.58028],[84.91136,20.58107],[84.92653,20.57973],[84.94411,20.58126],[84.95127,20.58072],[84.95832,20.57597],[84.96661,20.57355],[84.97708,20.57404],[84.98093,20.57304],[84.9843,20.56779],[84.98644,20.56707],[84.98971,20.57076],[84.99173,20.57677],[84.99241,20.58258],[85.00005,20.58135],[85.00991,20.58447],[85.02715,20.58739],[85.04988,20.58245],[85.05789,20.57632],[85.06721,20.57704],[85.06844,20.58078],[85.0708,20.5825],[85.07345,20.58008],[85.07746,20.58121],[85.08179,20.59013],[85.08853,20.59651],[85.08972,20.60647],[85.09325,20.61084],[85.11998,20.60909],[85.12318,20.60994],[85.12959,20.61527],[85.12963,20.61525],[85.139,20.60972],[85.1465,20.60929],[85.1509,20.60749],[85.1566,20.60902],[85.16059,20.60832],[85.16461,20.60387],[85.16872,20.60109],[85.1747,20.60038],[85.17952,20.59824],[85.19553,20.5825],[85.20077,20.57902],[85.20946,20.57502],[85.20921,20.57381],[85.20066,20.56745],[85.20203,20.56381],[85.20503,20.55983],[85.21274,20.55398],[85.21312,20.54781],[85.21891,20.54485],[85.22614,20.53917],[85.24039,20.52541],[85.24702,20.52055],[85.2525,20.51816],[85.27793,20.51426],[85.28292,20.50883],[85.28843,20.51134],[85.29311,20.51547],[85.30041,20.51198],[85.30714,20.50544],[85.31233,20.50456],[85.32035,20.50182],[85.33541,20.50354],[85.34246,20.4985],[85.34698,20.49658],[85.37073,20.49475],[85.379,20.49488],[85.38628,20.49866],[85.38981,20.49409],[85.39754,20.49163],[85.40036,20.48758],[85.40301,20.48607],[85.40741,20.48674],[85.41047,20.49047],[85.40589,20.50196],[85.40685,20.51003],[85.41903,20.50559],[85.43845,20.50008],[85.44784,20.49393],[85.45824,20.48518],[85.46313,20.4923],[85.46963,20.49809],[85.48342,20.50735],[85.48723,20.51678],[85.48563,20.52059],[85.49089,20.52045],[85.49338,20.52217],[85.5001,20.52393],[85.50391,20.53232],[85.51185,20.53545],[85.51455,20.53313],[85.51934,20.53339],[85.52712,20.53076],[85.53302,20.52825],[85.53888,20.52769],[85.55148,20.52354],[85.55831,20.52362],[85.56174,20.5202],[85.5664,20.52064],[85.57144,20.5156],[85.57487,20.51373],[85.57783,20.51406],[85.58966,20.51215],[85.59152,20.51762],[85.59352,20.51801],[85.59468,20.51938],[85.59285,20.52447],[85.59506,20.53033],[85.59879,20.53394],[85.59989,20.53613],[85.60133,20.53641],[85.60411,20.53512],[85.61212,20.53859],[85.61529,20.54174],[85.62985,20.54016],[85.63541,20.5403],[85.64178,20.54291],[85.64526,20.54658],[85.64906,20.54575],[85.64914,20.54886],[85.65054,20.55018],[85.6527,20.54798],[85.65616,20.54963],[85.65895,20.5499],[85.66127,20.55427],[85.66175,20.55962],[85.66524,20.56629],[85.67607,20.57325],[85.68472,20.58813],[85.68924,20.59329],[85.69368,20.59694],[85.70764,20.60274],[85.7108,20.60496],[85.71174,20.60899],[85.71584,20.61363],[85.71532,20.61623],[85.71253,20.61573],[85.70733,20.62302],[85.70899,20.62675],[85.71252,20.62092],[85.7182,20.62808],[85.71962,20.6313],[85.71929,20.63597],[85.72822,20.64099],[85.72977,20.64524],[85.73333,20.64394],[85.7386,20.64444],[85.74374,20.63818],[85.75148,20.63784],[85.75764,20.63492],[85.75623,20.64075],[85.75504,20.64277],[85.75543,20.64472],[85.75888,20.64581],[85.76259,20.64214],[85.7652,20.64957],[85.76419,20.65193],[85.7654,20.65757],[85.76724,20.66027],[85.77359,20.66028],[85.78292,20.66172],[85.78475,20.66315],[85.7888,20.67043],[85.79215,20.67255],[85.79739,20.66998],[85.80044,20.66575],[85.80616,20.66295],[85.80941,20.66021],[85.8137,20.66031],[85.81874,20.66165],[85.82581,20.66149],[85.83281,20.6671],[85.84511,20.66799],[85.86636,20.66759],[85.87473,20.66262],[85.87971,20.65798],[85.88436,20.65794],[85.88753,20.65941],[85.89403,20.667],[85.8965,20.67174],[85.90017,20.6759],[85.90614,20.6786],[85.9103,20.68287],[85.91241,20.69315],[85.91209,20.69793],[85.91195,20.69819],[85.91695,20.69925],[85.92205,20.6995],[85.92833,20.69769],[85.9338,20.69536],[85.94209,20.69024],[85.94616,20.68944],[85.95833,20.6838],[85.96265,20.67985],[85.96567,20.67292]]],[[[86.38937,19.96351],[86.3884,19.9631],[86.38603,19.96366],[86.3828,19.96607],[86.38051,19.96797],[86.37945,19.9714],[86.38058,19.97349],[86.38435,19.97865],[86.38746,19.98077],[86.38772,19.98138],[86.3885,19.98158],[86.39217,19.9844],[86.39893,19.9888],[86.4082,19.99487],[86.40867,19.99555],[86.41333,19.99894],[86.41835,20.00452],[86.41876,20.00563],[86.41953,20.00647],[86.42368,20.00996],[86.42634,20.01042],[86.42748,20.00946],[86.42745,20.00879],[86.42792,20.00854],[86.42823,20.00535],[86.42666,20.00204],[86.42579,20.00162],[86.4244,20.00053],[86.42184,19.99679],[86.41612,19.99239],[86.41099,19.98775],[86.41037,19.98686],[86.40826,19.98549],[86.4054,19.98366],[86.39711,19.97996],[86.39497,19.978],[86.3936,19.97693],[86.39148,19.97226],[86.3903,19.9655],[86.38937,19.96351]]],[[[86.43225,20.02324],[86.42753,20.02054],[86.42517,20.02109],[86.42401,20.02184],[86.42398,20.02363],[86.42418,20.02521],[86.42554,20.02975],[86.42604,20.03108],[86.4304,20.03785],[86.43174,20.03825],[86.43342,20.03839],[86.43428,20.03385],[86.43474,20.03134],[86.43434,20.02867],[86.43372,20.02457],[86.43271,20.02349],[86.43225,20.02324]]]]}}]}