{"type":"FeatureCollection","features":[{"type":"Feature","properties":{"id":"gajapati","name":"Gajapati","stateId":"odisha","stateName":"Odisha","censuscode":389,"type":"district"},"geometry":{"type":"Polygon","coordinates":[[[84.24107,19.57525],[84.24111,19.57524],[84.25137,19.57164],[84.25174,19.55239],[84.25317,19.53675],[84.25681,19.51716],[84.25994,19.51487],[84.25429,19.50501],[84.25328,19.50054],[84.25685,19.49694],[84.30496,19.49547],[84.3079,19.49933],[84.31552,19.51308],[84.31663,19.51691],[84.31879,19.52429],[84.31763,19.53342],[84.31787,19.53792],[84.32371,19.54455],[84.32475,19.55592],[84.33276,19.54851],[84.34378,19.54452],[84.35576,19.5432],[84.36047,19.54219],[84.36462,19.53857],[84.37223,19.54598],[84.37172,19.53938],[84.37422,19.5268],[84.37693,19.52066],[84.37508,19.50582],[84.37767,19.49913],[84.3811,19.49434],[84.37683,19.48822],[84.37483,19.48332],[84.37724,19.48003],[84.38279,19.47793],[84.38535,19.47602],[84.38716,19.46641],[84.3917,19.46591],[84.39503,19.46682],[84.39567,19.44815],[84.40729,19.44486],[84.4056,19.43784],[84.40109,19.42749],[84.39389,19.42651],[84.40274,19.41559],[84.40247,19.41339],[84.39829,19.41306],[84.39002,19.39106],[84.38252,19.38403],[84.38261,19.3809],[84.3953,19.36904],[84.40191,19.36767],[84.42346,19.3646],[84.44078,19.36254],[84.43091,19.35677],[84.42402,19.35045],[84.4199,19.34304],[84.41619,19.33332],[84.4191,19.32302],[84.41957,19.32136],[84.41915,19.3086],[84.42124,19.3045],[84.42839,19.29822],[84.42196,19.28518],[84.42137,19.27914],[84.4256,19.26652],[84.42534,19.26165],[84.41846,19.24973],[84.41031,19.24005],[84.40936,19.2376],[84.41088,19.22515],[84.40865,19.22209],[84.39978,19.21694],[84.39632,19.2118],[84.3953,19.20733],[84.39826,19.20026],[84.39059,19.19929],[84.38771,19.19699],[84.38592,19.19236],[84.38362,19.19601],[84.37072,19.19495],[84.36357,19.1921],[84.36084,19.18557],[84.36368,19.18071],[84.37014,19.17996],[84.36782,19.16239],[84.37376,19.15478],[84.37831,19.14601],[84.3908,19.14068],[84.37764,19.14033],[84.37632,19.13532],[84.3786,19.1313],[84.38745,19.12709],[84.38836,19.12537],[84.38686,19.12095],[84.38855,19.11631],[84.37927,19.10143],[84.38271,19.0915],[84.38252,19.08866],[84.38018,19.08505],[84.37618,19.082],[84.37196,19.07877],[84.36557,19.06656],[84.36242,19.05609],[84.35846,19.05299],[84.36151,19.04868],[84.36189,19.04279],[84.36067,19.03768],[84.3568,19.03155],[84.35192,19.02701],[84.35089,19.02226],[84.35363,19.01741],[84.36122,19.01122],[84.36522,19.00862],[84.36972,19.01014],[84.37353,19.00856],[84.37317,19.00067],[84.37531,18.99728],[84.37853,18.99315],[84.38248,18.99001],[84.38628,18.99119],[84.39364,19.00061],[84.39629,19.002],[84.39811,19.00452],[84.4018,19.00496],[84.40513,19.00064],[84.40554,18.99824],[84.4075,18.99625],[84.41559,18.99555],[84.41863,18.99001],[84.42174,18.986],[84.42592,18.98404],[84.42949,18.98384],[84.43198,18.98606],[84.43525,18.99157],[84.43525,18.99157],[84.43528,18.99154],[84.44203,18.98575],[84.44796,18.97588],[84.44505,18.97466],[84.44187,18.97211],[84.42763,18.95832],[84.42294,18.94703],[84.42448,18.9423],[84.42731,18.93872],[84.43673,18.92273],[84.42769,18.91394],[84.42533,18.90973],[84.41692,18.91715],[84.41352,18.91518],[84.41506,18.91018],[84.41808,18.90734],[84.41945,18.90302],[84.41718,18.89971],[84.4052,18.8952],[84.40135,18.89495],[84.39425,18.89893],[84.38584,18.90229],[84.38146,18.90307],[84.37715,18.90484],[84.37271,18.90529],[84.3723,18.90226],[84.37507,18.89838],[84.38161,18.89791],[84.38643,18.89454],[84.39349,18.89211],[84.39502,18.88676],[84.3936,18.88081],[84.39061,18.87838],[84.38547,18.88319],[84.38148,18.88559],[84.37875,18.88452],[84.36215,18.89198],[84.35885,18.89225],[84.35925,18.88685],[84.36126,18.88413],[84.36704,18.88098],[84.36873,18.88176],[84.37365,18.88079],[84.37898,18.87632],[84.37886,18.87248],[84.37675,18.86808],[84.36983,18.86019],[84.36575,18.86046],[84.36264,18.86176],[84.36153,18.86062],[84.35888,18.86002],[84.3544,18.86906],[84.3518,18.87184],[84.34722,18.87499],[84.34344,18.87578],[84.34184,18.87293],[84.34156,18.86707],[84.34158,18.86066],[84.34341,18.85054],[84.3455,18.84536],[84.35177,18.84187],[84.35261,18.83593],[84.3517,18.83186],[84.34988,18.83068],[84.34821,18.82743],[84.35154,18.82113],[84.33676,18.81819],[84.33699,18.81372],[84.34105,18.80427],[84.33968,18.80124],[84.33442,18.79889],[84.32319,18.79539],[84.32042,18.79141],[84.31996,18.78842],[84.31633,18.78766],[84.31465,18.79088],[84.31181,18.78994],[84.30786,18.79095],[84.2914,18.8],[84.28605,18.79885],[84.28282,18.79636],[84.28071,18.79167],[84.27569,18.78949],[84.27172,18.7897],[84.26641,18.78402],[84.25971,18.78167],[84.25353,18.78259],[84.23867,18.78927],[84.23821,18.79478],[84.23451,18.79631],[84.23182,18.79341],[84.22897,18.79561],[84.22423,18.7964],[84.21137,18.79176],[84.19789,18.78587],[84.19408,18.78871],[84.18906,18.78663],[84.18738,18.7781],[84.17459,18.77926],[84.17019,18.77769],[84.16575,18.7783],[84.16785,18.78143],[84.16691,18.78414],[84.16249,18.7851],[84.15894,18.78485],[84.15569,18.78086],[84.148,18.77679],[84.14258,18.77587],[84.13895,18.7739],[84.13554,18.77037],[84.13709,18.76198],[84.13054,18.75739],[84.12652,18.76213],[84.12169,18.76424],[84.1152,18.76389],[84.10833,18.76177],[84.09927,18.75434],[84.09641,18.7562],[84.0932,18.75428],[84.0894,18.75373],[84.08696,18.75519],[84.0855,18.75795],[84.07753,18.75883],[84.07341,18.76076],[84.06809,18.7717],[84.06624,18.7771],[84.06119,18.77738],[84.05683,18.77966],[84.05569,18.7834],[84.05735,18.7863],[84.05522,18.78885],[84.05557,18.79246],[84.04635,18.79639],[84.04193,18.79906],[84.0384,18.80437],[84.03834,18.80919],[84.03469,18.81112],[84.03136,18.81006],[84.02995,18.80755],[84.02728,18.80654],[84.02353,18.81031],[84.02014,18.80954],[84.01502,18.81309],[84.00761,18.81368],[83.99917,18.81354],[83.98998,18.80889],[83.97704,18.81269],[83.97169,18.81296],[83.96328,18.81191],[83.95887,18.80889],[83.95669,18.80589],[83.95137,18.80513],[83.94746,18.80544],[83.94427,18.80803],[83.94339,18.81196],[83.94126,18.81567],[83.93407,18.81536],[83.93032,18.81733],[83.92828,18.82036],[83.91544,18.82516],[83.90967,18.82569],[83.90623,18.82519],[83.90317,18.82364],[83.89834,18.81564],[83.89458,18.81418],[83.89306,18.8188],[83.89234,18.82657],[83.89093,18.82843],[83.88161,18.8265],[83.87789,18.82716],[83.87457,18.83217],[83.87204,18.84772],[83.86677,18.85168],[83.85567,18.85627],[83.85136,18.86003],[83.84479,18.87331],[83.8437,18.8777],[83.84438,18.8813],[83.84999,18.8968],[83.84931,18.90617],[83.84795,18.91258],[83.84539,18.91711],[83.84258,18.9178],[83.83074,18.91396],[83.82613,18.91561],[83.82461,18.91789],[83.82883,18.93043],[83.82657,18.93455],[83.82256,18.93848],[83.82108,18.94201],[83.82373,18.95706],[83.82244,18.96157],[83.81831,18.9732],[83.81573,18.97676],[83.81019,18.99014],[83.79882,19.00065],[83.79661,19.00661],[83.79596,19.01607],[83.80168,19.02769],[83.80787,19.03117],[83.81424,19.03132],[83.81806,19.02912],[83.82211,19.024],[83.8241,19.01871],[83.82825,19.01251],[83.83195,19.00862],[83.83609,19.00647],[83.8428,19.00801],[83.84692,19.00619],[83.85072,19.00327],[83.85273,19.00066],[83.85988,18.98376],[83.86291,18.9793],[83.87529,18.98313],[83.88091,18.98291],[83.88748,18.98167],[83.89353,18.98179],[83.89791,18.98352],[83.902,19.00065],[83.90956,19.01265],[83.91344,19.01738],[83.92274,19.0137],[83.92787,19.01393],[83.93332,19.01207],[83.9389,19.00764],[83.94562,19.00063],[83.94889,18.99279],[83.95205,18.98906],[83.95868,18.98603],[83.96325,18.98677],[83.96727,18.9886],[83.96987,18.99639],[83.96979,19.00062],[83.97425,19.00436],[83.97967,19.00745],[83.984,19.01144],[83.98791,19.02038],[83.98587,19.02491],[83.98089,19.03033],[83.96628,19.04266],[83.96528,19.04444],[83.96778,19.04786],[83.96373,19.05114],[83.96346,19.05436],[83.96533,19.05895],[83.97157,19.06548],[83.97688,19.06881],[83.98294,19.07081],[83.99029,19.06907],[83.9992,19.06574],[84.00183,19.06375],[84.00559,19.05874],[84.00904,19.05264],[84.01891,19.05076],[84.02271,19.05186],[84.02489,19.05402],[84.03016,19.05389],[84.03044,19.05765],[84.02856,19.06896],[84.0213,19.0699],[84.0185,19.07326],[84.01733,19.07721],[84.01886,19.0835],[84.01354,19.09343],[84.01612,19.11152],[84.01494,19.12768],[84.02043,19.12388],[84.02523,19.1252],[84.03024,19.12832],[84.03227,19.13095],[84.03055,19.13644],[84.02432,19.1415],[84.01531,19.14217],[84.01243,19.1412],[84.01085,19.14395],[84.00759,19.14558],[84.00466,19.14502],[83.99924,19.14961],[83.99614,19.15099],[83.98707,19.15887],[83.98459,19.16141],[83.98377,19.16355],[83.98961,19.16738],[83.99104,19.17406],[83.99113,19.18449],[83.99276,19.18667],[83.99623,19.18699],[83.99833,19.18797],[83.99794,19.19062],[83.99319,19.19445],[83.98794,19.2007],[83.98432,19.20515],[83.98298,19.2089],[83.98398,19.21299],[83.98826,19.21711],[83.99046,19.22269],[83.99029,19.22471],[83.99298,19.23081],[83.99444,19.23967],[83.99712,19.24473],[83.9993,19.24636],[84.00548,19.24803],[84.01101,19.25143],[84.01529,19.26558],[84.01594,19.27192],[84.01942,19.27662],[84.02169,19.28456],[84.01854,19.28893],[84.01617,19.29617],[84.01499,19.3048],[84.01665,19.31096],[84.01899,19.31518],[84.02714,19.32435],[84.02845,19.32758],[84.02692,19.33089],[84.02737,19.3362],[84.0291,19.33952],[84.03002,19.34535],[84.02647,19.35401],[84.02268,19.36075],[84.01959,19.37021],[84.01732,19.37408],[83.99938,19.38519],[83.99675,19.38318],[83.98931,19.3804],[83.98507,19.38094],[83.96913,19.3858],[83.96664,19.38841],[83.96431,19.39418],[83.96054,19.39547],[83.95037,19.39574],[83.94704,19.39754],[83.94584,19.41104],[83.94418,19.41979],[83.95324,19.43513],[83.96264,19.44863],[83.96489,19.45403],[83.96956,19.46013],[83.96992,19.4672],[83.97111,19.47198],[83.97632,19.48002],[83.97865,19.48549],[83.97248,19.49139],[83.96789,19.49401],[83.96081,19.49986],[83.96158,19.50603],[83.96965,19.51734],[83.97174,19.52332],[83.9772,19.53027],[83.97603,19.5335],[83.96593,19.54264],[83.9593,19.54613],[83.94716,19.54705],[83.944,19.5499],[83.93612,19.56612],[83.93443,19.57143],[83.93404,19.58105],[83.93517,19.59447],[83.93062,19.60872],[83.92779,19.62078],[83.92722,19.63029],[83.9432,19.63505],[83.95038,19.63398],[83.95571,19.63355],[83.9606,19.63111],[83.96802,19.6237],[83.97615,19.62055],[83.98467,19.62137],[83.99951,19.62588],[84.00411,19.62672],[84.01124,19.61758],[84.0123,19.62073],[84.01464,19.62338],[84.01922,19.62492],[84.02279,19.62493],[84.02886,19.63242],[84.03388,19.63196],[84.03915,19.62982],[84.04255,19.62661],[84.04787,19.62514],[84.06118,19.63015],[84.06879,19.6294],[84.07588,19.62338],[84.07907,19.62464],[84.08544,19.61708],[84.09064,19.61657],[84.09473,19.61743],[84.09174,19.62525],[84.09142,19.62762],[84.09274,19.62894],[84.11398,19.62688],[84.11951,19.63012],[84.12763,19.6329],[84.1315,19.63106],[84.13496,19.62779],[84.13906,19.61645],[84.14226,19.60361],[84.14648,19.59343],[84.15098,19.5867],[84.15575,19.58406],[84.15781,19.58142],[84.16205,19.57958],[84.16457,19.5808],[84.16714,19.58603],[84.17008,19.58771],[84.18257,19.58657],[84.20052,19.59103],[84.20504,19.59051],[84.20891,19.58879],[84.21581,19.58131],[84.22242,19.57624],[84.22773,19.57342],[84.23486,19.57159],[84.23883,19.57176],[84.24107,19.57525]]]}}]}