{"type":"FeatureCollection","features":[{"type":"Feature","properties":{"id":"ganjam","name":"Ganjam","stateId":"odisha","stateName":"Odisha","censuscode":388,"type":"district"},"geometry":{"type":"Polygon","coordinates":[[[84.94043,19.89703],[84.94157,19.89273],[84.94109,19.88813],[84.94019,19.88352],[84.93772,19.87834],[84.93627,19.87246],[84.9396,19.87022],[84.94617,19.86966],[84.95143,19.86835],[84.95603,19.86231],[84.9724,19.85281],[84.97883,19.83962],[84.98114,19.82904],[84.98433,19.82427],[84.99037,19.82256],[84.99999,19.81687],[85.00968,19.80261],[85.01509,19.80503],[85.02566,19.80767],[85.03122,19.80405],[85.03801,19.80676],[85.04418,19.8063],[85.05376,19.80141],[85.06527,19.7971],[85.0773,19.79146],[85.07895,19.78497],[85.08783,19.76668],[85.10255,19.7596],[85.11591,19.75534],[85.1286,19.74895],[85.14645,19.7283],[85.14648,19.7233],[85.1494,19.71754],[85.16233,19.70012],[85.16202,19.69625],[85.17093,19.6905],[85.17569,19.68239],[85.18436,19.67715],[85.18445,19.67551],[85.18445,19.67549],[85.18469,19.67117],[85.18084,19.61198],[85.17754,19.58075],[85.17732,19.55762],[85.16482,19.54739],[85.13891,19.5237],[85.1371,19.52088],[85.14085,19.51318],[85.15016,19.49784],[85.15928,19.48285],[85.17797,19.46377],[85.17742,19.4632],[85.17311,19.46018],[85.16299,19.45317],[85.13414,19.4319],[85.12708,19.42714],[85.09967,19.4034],[85.09659,19.39785],[85.09578,19.39539],[85.09525,19.38793],[85.09353,19.38314],[85.09231,19.37966],[85.09007,19.37748],[85.08507,19.37425],[85.08494,19.3738],[85.08088,19.37348],[85.07892,19.37226],[85.07619,19.3712],[85.0665,19.36537],[85.0633,19.36299],[85.05897,19.36179],[85.04842,19.35444],[85.03858,19.34934],[85.03416,19.34589],[85.03378,19.34521],[85.02718,19.34136],[85.02375,19.3383],[85.01986,19.33664],[85.01213,19.33101],[84.99707,19.32086],[84.9733,19.30749],[84.96714,19.30401],[84.96613,19.30313],[84.96517,19.30249],[84.96369,19.30139],[84.95539,19.29579],[84.95489,19.29534],[84.95316,19.29404],[84.95026,19.29257],[84.94192,19.2865],[84.93824,19.28414],[84.93254,19.27879],[84.93159,19.27782],[84.92818,19.27588],[84.9272,19.27479],[84.91503,19.2657],[84.9112,19.26171],[84.89089,19.24405],[84.89002,19.24364],[84.88646,19.23856],[84.88202,19.23487],[84.88063,19.23286],[84.87337,19.22678],[84.87151,19.22441],[84.87117,19.22368],[84.86997,19.22227],[84.86942,19.22166],[84.86647,19.21905],[84.86217,19.21536],[84.84952,19.20249],[84.84804,19.2005],[84.83924,19.19122],[84.83545,19.18546],[84.83311,19.18394],[84.82513,19.17465],[84.82482,19.17426],[84.82288,19.17138],[84.81596,19.16119],[84.80875,19.15328],[84.79963,19.13819],[84.79491,19.12657],[84.7939,19.12161],[84.79306,19.12049],[84.79039,19.11436],[84.78843,19.11119],[84.78245,19.09868],[84.78134,19.09736],[84.7802,19.09604],[84.77992,19.09551],[84.77633,19.08801],[84.76858,19.08002],[84.71892,19.10892],[84.70464,19.11767],[84.70541,19.11917],[84.70484,19.12448],[84.7009,19.12836],[84.701,19.13038],[84.70442,19.13396],[84.71355,19.15236],[84.71229,19.15779],[84.70914,19.15993],[84.70463,19.15907],[84.6992,19.16046],[84.68849,19.15852],[84.68514,19.16222],[84.68042,19.16563],[84.67638,19.16443],[84.6721,19.16547],[84.67037,19.15624],[84.67249,19.15346],[84.67299,19.14405],[84.6716,19.13695],[84.66828,19.13066],[84.66442,19.1302],[84.66054,19.13171],[84.65441,19.12917],[84.64881,19.13357],[84.6475,19.13103],[84.63646,19.12949],[84.63267,19.12706],[84.61653,19.12622],[84.60179,19.1323],[84.599,19.13259],[84.59883,19.12988],[84.60293,19.12398],[84.61009,19.10538],[84.61271,19.10145],[84.61679,19.09971],[84.62156,19.10115],[84.62393,19.09884],[84.62372,19.09405],[84.62697,19.08538],[84.63158,19.0833],[84.63859,19.0815],[84.64076,19.08352],[84.64188,19.08756],[84.65175,19.09332],[84.65585,19.09309],[84.66129,19.0899],[84.66673,19.07984],[84.67171,19.07522],[84.67033,19.07338],[84.66614,19.07257],[84.66165,19.06126],[84.65486,19.06502],[84.64398,19.06607],[84.64152,19.06446],[84.6372,19.05852],[84.63324,19.05922],[84.63257,19.0617],[84.63045,19.06459],[84.61988,19.06374],[84.61868,19.06264],[84.61952,19.05866],[84.62135,19.05565],[84.61663,19.05566],[84.61475,19.05433],[84.60767,19.04187],[84.60418,19.02871],[84.59731,19.02236],[84.59488,19.02196],[84.58532,19.02786],[84.58252,19.03612],[84.58086,19.04403],[84.5823,19.04646],[84.5853,19.07099],[84.58363,19.07342],[84.57779,19.06927],[84.57572,19.0695],[84.57515,19.07233],[84.57332,19.07389],[84.56692,19.06841],[84.56081,19.05629],[84.55492,19.05497],[84.54202,19.05422],[84.53869,19.05301],[84.53436,19.04759],[84.51715,19.04633],[84.51436,19.04431],[84.51034,19.03813],[84.50502,19.03375],[84.49666,19.02983],[84.48933,19.0188],[84.48511,19.01678],[84.4828,19.00495],[84.48297,19.00067],[84.48034,18.99159],[84.47894,18.99017],[84.47013,18.99222],[84.45948,18.99725],[84.45545,19.00066],[84.45136,19.00345],[84.44469,19.00634],[84.44028,19.01073],[84.43711,19.01004],[84.42949,19.01737],[84.42734,19.02136],[84.42244,19.02269],[84.42196,19.02119],[84.42273,19.01697],[84.42535,19.01385],[84.42735,19.0097],[84.43257,19.00421],[84.43341,19.00065],[84.43286,18.99804],[84.43373,18.99287],[84.43525,18.99157],[84.43525,18.99157],[84.43198,18.98606],[84.42949,18.98384],[84.42592,18.98404],[84.42174,18.986],[84.41863,18.99001],[84.41559,18.99555],[84.4075,18.99625],[84.40554,18.99824],[84.40513,19.00064],[84.4018,19.00496],[84.39811,19.00452],[84.39629,19.002],[84.39364,19.00061],[84.38628,18.99119],[84.38248,18.99001],[84.37853,18.99315],[84.37531,18.99728],[84.37317,19.00067],[84.37353,19.00856],[84.36972,19.01014],[84.36522,19.00862],[84.36122,19.01122],[84.35363,19.01741],[84.35089,19.02226],[84.35192,19.02701],[84.3568,19.03155],[84.36067,19.03768],[84.36189,19.04279],[84.36151,19.04868],[84.35846,19.05299],[84.36242,19.05609],[84.36557,19.06656],[84.37196,19.07877],[84.37618,19.082],[84.38018,19.08505],[84.38252,19.08866],[84.38271,19.0915],[84.37927,19.10143],[84.38855,19.11631],[84.38686,19.12095],[84.38836,19.12537],[84.38745,19.12709],[84.3786,19.1313],[84.37632,19.13532],[84.37764,19.14033],[84.3908,19.14068],[84.37831,19.14601],[84.37376,19.15478],[84.36782,19.16239],[84.37014,19.17996],[84.36368,19.18071],[84.36084,19.18557],[84.36357,19.1921],[84.37072,19.19495],[84.38362,19.19601],[84.38592,19.19236],[84.38771,19.19699],[84.39059,19.19929],[84.39826,19.20026],[84.3953,19.20733],[84.39632,19.2118],[84.39978,19.21694],[84.40865,19.22209],[84.41088,19.22515],[84.40936,19.2376],[84.41031,19.24005],[84.41846,19.24973],[84.42534,19.26165],[84.4256,19.26652],[84.42137,19.27914],[84.42196,19.28518],[84.42839,19.29822],[84.42124,19.3045],[84.41915,19.3086],[84.41957,19.32136],[84.4191,19.32302],[84.41619,19.33332],[84.4199,19.34304],[84.42402,19.35045],[84.43091,19.35677],[84.44078,19.36254],[84.42346,19.3646],[84.40191,19.36767],[84.3953,19.36904],[84.38261,19.3809],[84.38252,19.38403],[84.39002,19.39106],[84.39829,19.41306],[84.40247,19.41339],[84.40274,19.41559],[84.39389,19.42651],[84.40109,19.42749],[84.4056,19.43784],[84.40729,19.44486],[84.39567,19.44815],[84.39503,19.46682],[84.3917,19.46591],[84.38716,19.46641],[84.38535,19.47602],[84.38279,19.47793],[84.37724,19.48003],[84.37483,19.48332],[84.37683,19.48822],[84.3811,19.49434],[84.37767,19.49913],[84.37508,19.50582],[84.37693,19.52066],[84.37422,19.5268],[84.37172,19.53938],[84.37223,19.54598],[84.36462,19.53857],[84.36047,19.54219],[84.35576,19.5432],[84.34378,19.54452],[84.33276,19.54851],[84.32475,19.55592],[84.32371,19.54455],[84.31787,19.53792],[84.31763,19.53342],[84.31879,19.52429],[84.31663,19.51691],[84.31552,19.51308],[84.3079,19.49933],[84.30496,19.49547],[84.25685,19.49694],[84.25328,19.50054],[84.25429,19.50501],[84.25994,19.51487],[84.25681,19.51716],[84.25317,19.53675],[84.25174,19.55239],[84.25137,19.57164],[84.24111,19.57524],[84.24107,19.57525],[84.24107,19.57525],[84.23466,19.59701],[84.23587,19.60896],[84.2292,19.61599],[84.22722,19.62575],[84.22854,19.6276],[84.23632,19.62714],[84.23716,19.6279],[84.23701,19.63436],[84.23791,19.63627],[84.24446,19.63963],[84.24705,19.64188],[84.24087,19.66047],[84.23923,19.66301],[84.22745,19.66628],[84.22234,19.67424],[84.21892,19.67246],[84.21253,19.68059],[84.20088,19.68347],[84.20199,19.6901],[84.18974,19.70291],[84.20342,19.7304],[84.19175,19.73472],[84.18474,19.73586],[84.17522,19.7336],[84.16824,19.73065],[84.15844,19.7229],[84.15668,19.72503],[84.15993,19.72821],[84.162,19.73416],[84.15633,19.74541],[84.14994,19.75597],[84.13353,19.77621],[84.13285,19.77985],[84.1668,19.7859],[84.17251,19.78989],[84.17437,19.79226],[84.16858,19.80368],[84.17452,19.81132],[84.17411,19.81963],[84.18594,19.82126],[84.1913,19.8242],[84.20211,19.83467],[84.18526,19.8597],[84.18676,19.86069],[84.19528,19.85983],[84.21398,19.86435],[84.2348,19.86766],[84.2532,19.87167],[84.27812,19.87821],[84.29043,19.89352],[84.30789,19.90559],[84.31734,19.88666],[84.32131,19.87679],[84.33694,19.86502],[84.34445,19.86087],[84.34922,19.86063],[84.35616,19.86301],[84.36271,19.85371],[84.37295,19.84673],[84.38317,19.84165],[84.42426,19.83495],[84.43344,19.83726],[84.44148,19.83022],[84.44584,19.83039],[84.45102,19.83507],[84.44544,19.84061],[84.44597,19.84343],[84.45375,19.84748],[84.46061,19.85296],[84.46282,19.85896],[84.46196,19.86647],[84.45783,19.87068],[84.46252,19.87732],[84.46177,19.88575],[84.45808,19.9044],[84.45903,19.90786],[84.46342,19.91404],[84.46217,19.92766],[84.46998,19.93915],[84.46558,19.95242],[84.45725,19.95041],[84.45345,19.9503],[84.43384,19.95827],[84.42183,19.95463],[84.41565,19.95844],[84.41179,19.95671],[84.40609,19.95989],[84.40132,19.96046],[84.39825,19.95573],[84.39318,19.95509],[84.38858,19.9589],[84.38198,19.96225],[84.37725,19.96588],[84.37263,19.97287],[84.35945,19.9877],[84.35575,19.98909],[84.35178,19.98793],[84.34605,19.98118],[84.34015,19.97823],[84.33653,19.97742],[84.33174,19.97944],[84.32457,19.98781],[84.33079,19.99947],[84.33198,20.0006],[84.33093,20.00623],[84.33329,20.01058],[84.33751,20.01326],[84.34105,20.01205],[84.34116,20.01474],[84.34673,20.02502],[84.35623,20.03637],[84.36263,20.03027],[84.37142,20.03326],[84.39882,20.04756],[84.40502,20.04816],[84.41154,20.0507],[84.41552,20.05378],[84.41195,20.05799],[84.41114,20.06538],[84.40192,20.07254],[84.40103,20.07666],[84.40319,20.08731],[84.41049,20.0906],[84.41192,20.09368],[84.4113,20.09914],[84.41501,20.10422],[84.41516,20.11992],[84.41769,20.12272],[84.42615,20.12468],[84.42908,20.13091],[84.42757,20.13854],[84.42793,20.14501],[84.43258,20.1443],[84.44076,20.15057],[84.43568,20.15586],[84.43668,20.16532],[84.43311,20.16894],[84.43233,20.17674],[84.42923,20.18547],[84.43153,20.19055],[84.43568,20.19546],[84.43556,20.2024],[84.43755,20.20589],[84.44629,20.20675],[84.45368,20.19898],[84.45832,20.19168],[84.45873,20.18824],[84.45163,20.1818],[84.45311,20.17716],[84.45266,20.17343],[84.4533,20.1697],[84.47887,20.14642],[84.48613,20.14282],[84.49708,20.14442],[84.50264,20.14256],[84.50616,20.14048],[84.50814,20.14287],[84.50856,20.14884],[84.51055,20.153],[84.51791,20.15503],[84.52194,20.15483],[84.52489,20.14977],[84.52583,20.14604],[84.5301,20.14344],[84.5439,20.14251],[84.55216,20.14326],[84.56443,20.14078],[84.56447,20.14605],[84.56262,20.15105],[84.55948,20.15582],[84.55905,20.1611],[84.57575,20.16983],[84.58716,20.17389],[84.58554,20.18364],[84.58474,20.1909],[84.59011,20.18331],[84.59449,20.17985],[84.60051,20.17763],[84.60719,20.17919],[84.6338,20.19376],[84.64087,20.19951],[84.64815,20.20679],[84.6502,20.22352],[84.65246,20.23044],[84.65605,20.23569],[84.66351,20.24298],[84.66748,20.24908],[84.66751,20.25859],[84.66966,20.26678],[84.67363,20.27345],[84.68835,20.2776],[84.69674,20.28144],[84.70791,20.27902],[84.71532,20.27307],[84.73164,20.25222],[84.74392,20.24503],[84.75258,20.24292],[84.7601,20.24298],[84.76435,20.24656],[84.76955,20.2475],[84.77758,20.24292],[84.78087,20.23511],[84.7923,20.22924],[84.82043,20.22332],[84.82892,20.22251],[84.83486,20.21692],[84.83526,20.20831],[84.8266,20.18356],[84.82623,20.17021],[84.82779,20.16189],[84.82583,20.14202],[84.82217,20.12279],[84.82047,20.11742],[84.81476,20.11551],[84.80963,20.11572],[84.80381,20.11444],[84.80518,20.11025],[84.80875,20.10552],[84.8065,20.10078],[84.80061,20.09761],[84.79929,20.09447],[84.81104,20.06951],[84.8174,20.06276],[84.82794,20.05902],[84.83973,20.05077],[84.8569,20.03027],[84.85988,20.019],[84.86056,20.00836],[84.86305,20.00033],[84.87035,19.99881],[84.88829,19.99948],[84.89114,19.99646],[84.8947,19.99459],[84.90215,19.993],[84.90723,19.98157],[84.91038,19.97004],[84.9148,19.95863],[84.91856,19.94983],[84.92411,19.94134],[84.91796,19.92794],[84.90625,19.91422],[84.9068,19.91116],[84.91163,19.90526],[84.92667,19.90432],[84.93205,19.90483],[84.93453,19.90153],[84.94043,19.89707],[84.94043,19.89703]]]}}]}