{"type":"FeatureCollection","features":[{"type":"Feature","properties":{"id":"kalahandi","name":"Kalahandi","stateId":"odisha","stateName":"Odisha","censuscode":395,"type":"district"},"geometry":{"type":"Polygon","coordinates":[[[83.65261,20.38939],[83.65412,20.3872],[83.65792,20.38479],[83.66421,20.38352],[83.68684,20.37539],[83.69143,20.3731],[83.70125,20.37289],[83.70572,20.37031],[83.70569,20.36609],[83.70384,20.35832],[83.70419,20.35],[83.70744,20.33586],[83.71071,20.3301],[83.71215,20.32502],[83.71172,20.31504],[83.7128,20.30819],[83.71368,20.30381],[83.71708,20.296],[83.71931,20.28817],[83.71909,20.25486],[83.723,20.25299],[83.72579,20.24523],[83.72489,20.24293],[83.72046,20.23894],[83.72782,20.23218],[83.73581,20.2286],[83.74139,20.22438],[83.73922,20.2209],[83.73231,20.21307],[83.74013,20.21142],[83.75305,20.21077],[83.77124,20.20831],[83.77708,20.21021],[83.78084,20.21336],[83.78622,20.21256],[83.7918,20.19534],[83.7905,20.18893],[83.79119,20.18402],[83.79078,20.18073],[83.78252,20.17547],[83.77802,20.17347],[83.77594,20.164],[83.77393,20.16151],[83.76764,20.16483],[83.763,20.16541],[83.75272,20.16128],[83.74387,20.15412],[83.73414,20.1493],[83.72953,20.14326],[83.73147,20.1376],[83.73033,20.1329],[83.72761,20.12805],[83.72393,20.13105],[83.71954,20.13252],[83.71773,20.13003],[83.71973,20.12114],[83.71903,20.11579],[83.71588,20.11124],[83.71487,20.107],[83.711,20.10243],[83.70465,20.10252],[83.6965,20.10147],[83.69264,20.10241],[83.68769,20.10528],[83.67815,20.11259],[83.66439,20.10894],[83.65861,20.10587],[83.64854,20.09763],[83.6398,20.09183],[83.63566,20.08989],[83.63334,20.09126],[83.62911,20.0946],[83.618,20.09873],[83.6162,20.10263],[83.61363,20.10424],[83.60187,20.10389],[83.59942,20.10521],[83.59244,20.11191],[83.58937,20.11356],[83.58413,20.11467],[83.58489,20.10922],[83.58669,20.1045],[83.58934,20.1002],[83.58678,20.09846],[83.58343,20.09824],[83.58161,20.09668],[83.58444,20.09314],[83.57472,20.08767],[83.57316,20.08525],[83.57599,20.08129],[83.57388,20.07804],[83.5703,20.07617],[83.56905,20.07321],[83.56981,20.06895],[83.57251,20.06541],[83.56804,20.05671],[83.56565,20.05298],[83.56252,20.05046],[83.55512,20.05147],[83.55228,20.04737],[83.5509,20.04101],[83.55227,20.03832],[83.55044,20.03424],[83.5477,20.03096],[83.54437,20.02195],[83.53951,20.01892],[83.52803,20.01682],[83.52269,20.0136],[83.51198,20.00418],[83.51008,20.00067],[83.50629,19.99676],[83.50319,19.99193],[83.50279,19.98797],[83.50415,19.98324],[83.5036,19.97362],[83.50032,19.96602],[83.49617,19.95958],[83.49371,19.95941],[83.48519,19.9611],[83.48143,19.96353],[83.47452,19.96377],[83.47171,19.96533],[83.46314,19.96795],[83.45613,19.97182],[83.45229,19.97252],[83.44885,19.96884],[83.4472,19.96273],[83.44668,19.95634],[83.4475,19.9515],[83.44645,19.94868],[83.44421,19.9465],[83.44436,19.94068],[83.44294,19.93319],[83.43242,19.93062],[83.4267,19.92741],[83.4217,19.93398],[83.41784,19.93221],[83.40861,19.92335],[83.40732,19.92041],[83.40971,19.91886],[83.40902,19.91293],[83.41363,19.90912],[83.41359,19.903],[83.41501,19.89938],[83.42114,19.88997],[83.42232,19.8868],[83.42721,19.88086],[83.42731,19.87734],[83.42928,19.87457],[83.43063,19.86951],[83.42683,19.85736],[83.42625,19.84791],[83.42748,19.84445],[83.4361,19.83896],[83.43985,19.83377],[83.43832,19.82951],[83.43597,19.82692],[83.43564,19.82392],[83.43757,19.81465],[83.43853,19.81355],[83.43909,19.80658],[83.44092,19.80219],[83.44295,19.80041],[83.45115,19.7959],[83.45655,19.79698],[83.45937,19.79675],[83.45959,19.79415],[83.45622,19.79157],[83.45428,19.78817],[83.45679,19.76691],[83.45551,19.75308],[83.45638,19.7476],[83.4558,19.74],[83.44873,19.7327],[83.44674,19.71975],[83.43735,19.71418],[83.4339,19.70814],[83.43327,19.7041],[83.43091,19.69811],[83.42006,19.68714],[83.41512,19.68374],[83.40365,19.68186],[83.40034,19.67985],[83.39371,19.67277],[83.38625,19.66703],[83.37897,19.65154],[83.37898,19.64077],[83.37514,19.62995],[83.37476,19.62603],[83.37296,19.62399],[83.37429,19.62409],[83.37343,19.62018],[83.37537,19.61378],[83.37573,19.60335],[83.37337,19.59818],[83.37109,19.59783],[83.3678,19.59968],[83.36662,19.60279],[83.36269,19.60597],[83.35525,19.60535],[83.34126,19.59903],[83.33315,19.59616],[83.30306,19.59148],[83.29151,19.59657],[83.28965,19.5961],[83.28899,19.59437],[83.28688,19.59277],[83.28396,19.5957],[83.2729,19.60246],[83.27056,19.60246],[83.26756,19.60091],[83.26689,19.59866],[83.26977,19.58587],[83.26986,19.57936],[83.2671,19.57729],[83.25804,19.57539],[83.25605,19.57177],[83.25668,19.56699],[83.2641,19.56329],[83.26521,19.55834],[83.26374,19.55194],[83.26031,19.54808],[83.25268,19.54395],[83.25135,19.54129],[83.2554,19.53461],[83.25639,19.52924],[83.25125,19.51882],[83.24927,19.51658],[83.24814,19.50822],[83.24526,19.50587],[83.23952,19.50673],[83.23496,19.5065],[83.23148,19.5053],[83.22854,19.50328],[83.20962,19.4761],[83.20531,19.46349],[83.20618,19.45543],[83.20778,19.45127],[83.21254,19.44533],[83.21487,19.44366],[83.21816,19.44395],[83.2191,19.43969],[83.21818,19.43542],[83.21614,19.43387],[83.21304,19.43767],[83.20372,19.44027],[83.20364,19.4492],[83.20115,19.45565],[83.19669,19.46147],[83.19292,19.46355],[83.18808,19.46385],[83.18643,19.45578],[83.18532,19.44887],[83.1846,19.43538],[83.18552,19.42628],[83.183,19.42421],[83.17721,19.42807],[83.17248,19.42928],[83.16819,19.4321],[83.16488,19.44352],[83.15518,19.45706],[83.15031,19.46888],[83.14974,19.47401],[83.15809,19.48121],[83.15924,19.48547],[83.15626,19.48818],[83.15346,19.4929],[83.14744,19.49994],[83.1355,19.50916],[83.13065,19.5087],[83.12782,19.50577],[83.12661,19.50161],[83.12151,19.50086],[83.11686,19.50531],[83.10951,19.50904],[83.1145,19.51545],[83.10765,19.52525],[83.10341,19.52691],[83.10727,19.53682],[83.10734,19.53971],[83.10502,19.54253],[83.10371,19.54293],[83.09973,19.53913],[83.09441,19.54172],[83.09231,19.53959],[83.08914,19.54],[83.08522,19.54921],[83.08307,19.55192],[83.07984,19.55417],[83.07711,19.55987],[83.07352,19.56177],[83.07047,19.56224],[83.06591,19.56161],[83.05009,19.55826],[83.04679,19.55717],[83.04265,19.55307],[83.03899,19.55255],[83.03713,19.55024],[83.03603,19.54108],[83.02966,19.53318],[83.02624,19.52678],[83.02623,19.52251],[83.0276,19.51675],[83.02699,19.51237],[83.02309,19.50885],[83,19.49818],[82.99792,19.49514],[82.99377,19.49005],[82.99052,19.47477],[82.99367,19.4728],[82.99566,19.4703],[82.99699,19.46983],[82.99717,19.46689],[82.99652,19.46197],[82.99178,19.45269],[82.99177,19.44731],[82.97383,19.4483],[82.97166,19.44316],[82.96793,19.44293],[82.96375,19.43697],[82.96052,19.43707],[82.95735,19.43758],[82.95658,19.44531],[82.95452,19.4471],[82.94842,19.44759],[82.94273,19.44621],[82.93941,19.44974],[82.93771,19.44899],[82.93437,19.44529],[82.93066,19.44352],[82.92864,19.44157],[82.92457,19.4352],[82.9248,19.4323],[82.92719,19.42925],[82.93318,19.4285],[82.93629,19.41622],[82.93691,19.40766],[82.93823,19.40498],[82.94044,19.40192],[82.94813,19.39956],[82.953,19.39057],[82.95171,19.38013],[82.94971,19.37938],[82.9473,19.37398],[82.94775,19.36345],[82.94958,19.35973],[82.95581,19.35677],[82.95794,19.35104],[82.95753,19.3445],[82.95574,19.33525],[82.95752,19.32493],[82.94528,19.31557],[82.93767,19.31104],[82.94046,19.30753],[82.93951,19.30318],[82.93495,19.29823],[82.9284,19.29799],[82.92307,19.30351],[82.91884,19.30458],[82.90492,19.28513],[82.90912,19.28273],[82.9063,19.2756],[82.89974,19.27],[82.90227,19.26574],[82.90043,19.26146],[82.89912,19.25965],[82.89209,19.25889],[82.89077,19.2543],[82.89489,19.24636],[82.89954,19.24008],[82.90119,19.23657],[82.90227,19.22936],[82.90062,19.22556],[82.89527,19.21748],[82.89672,19.21535],[82.89586,19.20985],[82.89205,19.20084],[82.88863,19.19589],[82.8862,19.18991],[82.88238,19.18806],[82.87886,19.18402],[82.87885,19.18405],[82.87521,19.19159],[82.87275,19.19394],[82.87314,19.19768],[82.87248,19.19963],[82.86351,19.2061],[82.85664,19.20353],[82.85662,19.20352],[82.85619,19.20561],[82.85239,19.20476],[82.85038,19.20597],[82.84829,19.20867],[82.84854,19.21375],[82.84662,19.2239],[82.84311,19.22987],[82.83903,19.23493],[82.83558,19.23599],[82.83088,19.23546],[82.82868,19.23596],[82.82609,19.2381],[82.82403,19.23469],[82.82195,19.233],[82.81818,19.231],[82.81336,19.22972],[82.81025,19.23031],[82.80555,19.23683],[82.81731,19.25176],[82.81825,19.256],[82.82568,19.25572],[82.82708,19.25656],[82.82677,19.25854],[82.83026,19.26856],[82.83123,19.27421],[82.82944,19.28181],[82.83257,19.28729],[82.83326,19.29103],[82.83795,19.29381],[82.8387,19.29749],[82.84043,19.29965],[82.84416,19.30223],[82.84139,19.30696],[82.85207,19.30915],[82.84666,19.31649],[82.84654,19.31851],[82.85007,19.32092],[82.84929,19.32337],[82.84389,19.32332],[82.84085,19.32206],[82.83782,19.32495],[82.83437,19.32191],[82.83136,19.32388],[82.82639,19.3218],[82.81353,19.32854],[82.80786,19.33005],[82.8001,19.32884],[82.7912,19.33342],[82.78918,19.33653],[82.78728,19.34212],[82.78119,19.34381],[82.77964,19.34136],[82.77357,19.34127],[82.77066,19.33722],[82.77309,19.33394],[82.76585,19.32953],[82.75729,19.32799],[82.75452,19.33781],[82.75083,19.33892],[82.74766,19.34414],[82.74303,19.34915],[82.73541,19.34636],[82.72754,19.34625],[82.72644,19.35042],[82.72658,19.354],[82.7211,19.35308],[82.71504,19.35841],[82.71427,19.36877],[82.71756,19.37112],[82.71684,19.37362],[82.71418,19.37766],[82.70998,19.38041],[82.70861,19.38332],[82.70789,19.38837],[82.71235,19.39202],[82.71228,19.39613],[82.70941,19.3996],[82.71169,19.40151],[82.7158,19.40316],[82.71513,19.40756],[82.71315,19.41281],[82.71081,19.41291],[82.70834,19.4151],[82.70945,19.4186],[82.69951,19.41488],[82.69361,19.41698],[82.69016,19.42057],[82.68954,19.42509],[82.68211,19.43623],[82.67954,19.43374],[82.67597,19.43295],[82.67441,19.44043],[82.66533,19.44253],[82.66288,19.44552],[82.66187,19.44884],[82.66178,19.45508],[82.65651,19.45594],[82.65242,19.45782],[82.65068,19.4608],[82.64914,19.47695],[82.64217,19.48235],[82.63696,19.48044],[82.63406,19.48235],[82.63532,19.48972],[82.63769,19.49087],[82.64539,19.50717],[82.64278,19.51058],[82.63484,19.51289],[82.62769,19.51292],[82.62298,19.51752],[82.61864,19.51906],[82.6156,19.51751],[82.60834,19.52025],[82.60946,19.52462],[82.61391,19.52528],[82.6158,19.52893],[82.6174,19.53323],[82.61699,19.53838],[82.61143,19.53752],[82.60799,19.53915],[82.60195,19.54054],[82.59723,19.53897],[82.5936,19.54003],[82.58906,19.53954],[82.58507,19.54592],[82.57782,19.54168],[82.56908,19.54296],[82.56828,19.54708],[82.56809,19.55754],[82.56904,19.56468],[82.56726,19.5683],[82.5642,19.57118],[82.55912,19.57239],[82.55921,19.57931],[82.54929,19.57935],[82.54797,19.57655],[82.54477,19.57575],[82.5366,19.57632],[82.53198,19.58156],[82.5312,19.58422],[82.53299,19.58649],[82.53714,19.58901],[82.53875,19.59383],[82.54248,19.59433],[82.54992,19.60978],[82.54804,19.61155],[82.54146,19.61312],[82.54142,19.61641],[82.53812,19.61891],[82.53368,19.62484],[82.52754,19.62727],[82.52809,19.62998],[82.53561,19.63328],[82.5483,19.64134],[82.55745,19.64416],[82.55797,19.64622],[82.57216,19.67273],[82.57554,19.67589],[82.57841,19.67999],[82.56844,19.68326],[82.56755,19.68934],[82.56795,19.69609],[82.57038,19.70234],[82.56941,19.70767],[82.57357,19.71036],[82.57429,19.71305],[82.56921,19.71444],[82.56801,19.71982],[82.56471,19.72047],[82.56407,19.72649],[82.56876,19.73431],[82.57157,19.73333],[82.57392,19.73357],[82.58194,19.73727],[82.58755,19.74299],[82.59338,19.7457],[82.6032,19.74641],[82.60118,19.75247],[82.60087,19.75738],[82.5982,19.76142],[82.59859,19.76771],[82.59271,19.77649],[82.6028,19.77853],[82.60593,19.7806],[82.60666,19.78671],[82.61093,19.78899],[82.61579,19.79057],[82.62652,19.79155],[82.63062,19.79476],[82.63499,19.8016],[82.63655,19.80919],[82.64393,19.81342],[82.64943,19.81914],[82.65337,19.83078],[82.66174,19.83095],[82.66766,19.82915],[82.67677,19.83064],[82.69096,19.82918],[82.69816,19.83122],[82.70607,19.83232],[82.71033,19.8365],[82.7135,19.84354],[82.71234,19.85004],[82.71863,19.854],[82.72147,19.86751],[82.72511,19.87621],[82.71697,19.87552],[82.71398,19.8839],[82.7103,19.8912],[82.70813,19.89864],[82.70909,19.90607],[82.70802,19.91192],[82.71348,19.91654],[82.71185,19.92363],[82.71392,19.93212],[82.71408,19.93881],[82.7182,19.94473],[82.71915,19.94974],[82.71704,19.95193],[82.71851,19.98844],[82.71506,19.99539],[82.7082,19.99802],[82.7056,19.99788],[82.70482,19.99784],[82.70835,20.00242],[82.72304,20.02155],[82.73082,20.02159],[82.73866,20.02429],[82.74826,20.04186],[82.74004,20.04891],[82.73923,20.05214],[82.75642,20.05559],[82.7688,20.07513],[82.7816,20.08702],[82.79037,20.10157],[82.81154,20.09933],[82.81529,20.10175],[82.81806,20.10859],[82.82127,20.11303],[82.81732,20.12865],[82.82089,20.15222],[82.8214,20.1556],[82.82502,20.16546],[82.82503,20.1655],[82.83146,20.1671],[82.83963,20.16707],[82.85332,20.16207],[82.86138,20.16283],[82.86902,20.15935],[82.87726,20.15835],[82.88439,20.1585],[82.90138,20.14883],[82.90922,20.14784],[82.91129,20.14846],[82.91182,20.16179],[82.91433,20.16654],[82.92309,20.17231],[82.92676,20.17758],[82.9324,20.17927],[82.94639,20.17348],[82.95546,20.17642],[82.95998,20.17596],[82.96905,20.17906],[82.97335,20.17795],[82.97765,20.17799],[82.9807,20.17495],[82.98371,20.17364],[82.99058,20.17391],[82.99305,20.17494],[82.99646,20.17299],[82.99979,20.17437],[83.01345,20.17044],[83.01764,20.17104],[83.02449,20.17439],[83.03019,20.17842],[83.03415,20.18495],[83.03888,20.18134],[83.04205,20.1808],[83.04671,20.18441],[83.05101,20.18659],[83.05498,20.18643],[83.05927,20.18486],[83.06879,20.1896],[83.07621,20.19066],[83.08059,20.1915],[83.08396,20.19003],[83.08642,20.19394],[83.08713,20.19689],[83.09101,20.19865],[83.09492,20.19661],[83.10168,20.19138],[83.12152,20.19482],[83.1283,20.19393],[83.1361,20.18063],[83.13983,20.17852],[83.14558,20.17023],[83.15835,20.1722],[83.1736,20.17104],[83.1837,20.17278],[83.19001,20.17628],[83.19581,20.18119],[83.20422,20.19405],[83.20955,20.19754],[83.22201,20.20109],[83.22643,20.20496],[83.23185,20.21895],[83.2404,20.23029],[83.23569,20.24606],[83.23625,20.2521],[83.23912,20.25667],[83.24313,20.26037],[83.24914,20.26316],[83.26263,20.26666],[83.2698,20.26988],[83.28537,20.28091],[83.29044,20.28732],[83.30036,20.30349],[83.30479,20.30555],[83.31474,20.30529],[83.3249,20.30803],[83.34386,20.31676],[83.34947,20.31655],[83.35521,20.31505],[83.36039,20.31502],[83.36329,20.31857],[83.36607,20.33739],[83.37047,20.34267],[83.38564,20.34502],[83.39139,20.35085],[83.39561,20.35701],[83.40502,20.36284],[83.41226,20.37251],[83.41453,20.37835],[83.41831,20.39429],[83.42355,20.40334],[83.42919,20.40765],[83.45015,20.41915],[83.45214,20.42149],[83.45891,20.42938],[83.47238,20.43978],[83.48778,20.45402],[83.48998,20.45277],[83.49181,20.45325],[83.49496,20.44732],[83.49661,20.43984],[83.49659,20.43397],[83.49393,20.42953],[83.49087,20.41571],[83.49079,20.40984],[83.49198,20.4061],[83.49461,20.40503],[83.49684,20.40741],[83.50016,20.41397],[83.50246,20.41576],[83.50832,20.41543],[83.51529,20.41336],[83.51914,20.41295],[83.52052,20.40815],[83.52346,20.40568],[83.53031,20.40383],[83.53998,20.39934],[83.54463,20.39835],[83.54997,20.40183],[83.55687,20.40017],[83.55867,20.3969],[83.56589,20.39455],[83.56812,20.3893],[83.57124,20.38823],[83.5718,20.37779],[83.57528,20.36752],[83.5772,20.36508],[83.58183,20.3652],[83.58722,20.36299],[83.59338,20.3629],[83.6083,20.3556],[83.62517,20.35067],[83.6271,20.35263],[83.62771,20.36378],[83.63012,20.36856],[83.63706,20.36965],[83.6416,20.36626],[83.6461,20.36866],[83.6513,20.36516],[83.65537,20.36768],[83.65646,20.37021],[83.65338,20.37322],[83.65246,20.3759],[83.6528,20.37972],[83.64885,20.38606],[83.65012,20.38825],[83.65261,20.38939]]]}}]}