{"type":"FeatureCollection","features":[{"type":"Feature","properties":{"id":"kandhamal","name":"Kandhamal","stateId":"odisha","stateName":"Odisha","censuscode":390,"type":"district"},"geometry":{"type":"Polygon","coordinates":[[[84.51286,20.39809],[84.51245,20.39423],[84.5155,20.38515],[84.51951,20.38341],[84.52091,20.38146],[84.5198,20.37247],[84.50385,20.36482],[84.49184,20.35503],[84.48546,20.35094],[84.48754,20.34233],[84.4894,20.33871],[84.50619,20.33483],[84.51007,20.33963],[84.51301,20.34007],[84.51283,20.33239],[84.51164,20.32816],[84.51647,20.3208],[84.52227,20.32816],[84.52643,20.32888],[84.53288,20.32438],[84.53924,20.3252],[84.54402,20.32678],[84.54649,20.32178],[84.55343,20.28753],[84.552,20.28335],[84.54582,20.27485],[84.54717,20.26865],[84.54783,20.25863],[84.54552,20.25256],[84.54747,20.24447],[84.55381,20.23366],[84.57656,20.20585],[84.58474,20.1909],[84.58554,20.18364],[84.58716,20.17389],[84.57575,20.16983],[84.55905,20.1611],[84.55948,20.15582],[84.56262,20.15105],[84.56447,20.14605],[84.56443,20.14078],[84.55216,20.14326],[84.5439,20.14251],[84.5301,20.14344],[84.52583,20.14604],[84.52489,20.14977],[84.52194,20.15483],[84.51791,20.15503],[84.51055,20.153],[84.50856,20.14884],[84.50814,20.14287],[84.50616,20.14048],[84.50264,20.14256],[84.49708,20.14442],[84.48613,20.14282],[84.47887,20.14642],[84.4533,20.1697],[84.45266,20.17343],[84.45311,20.17716],[84.45163,20.1818],[84.45873,20.18824],[84.45832,20.19168],[84.45368,20.19898],[84.44629,20.20675],[84.43755,20.20589],[84.43556,20.2024],[84.43568,20.19546],[84.43153,20.19055],[84.42923,20.18547],[84.43233,20.17674],[84.43311,20.16894],[84.43668,20.16532],[84.43568,20.15586],[84.44076,20.15057],[84.43258,20.1443],[84.42793,20.14501],[84.42757,20.13854],[84.42908,20.13091],[84.42615,20.12468],[84.41769,20.12272],[84.41516,20.11992],[84.41501,20.10422],[84.4113,20.09914],[84.41192,20.09368],[84.41049,20.0906],[84.40319,20.08731],[84.40103,20.07666],[84.40192,20.07254],[84.41114,20.06538],[84.41195,20.05799],[84.41552,20.05378],[84.41154,20.0507],[84.40502,20.04816],[84.39882,20.04756],[84.37142,20.03326],[84.36263,20.03027],[84.35623,20.03637],[84.34673,20.02502],[84.34116,20.01474],[84.34105,20.01205],[84.33751,20.01326],[84.33329,20.01058],[84.33093,20.00623],[84.33198,20.0006],[84.33079,19.99947],[84.32457,19.98781],[84.33174,19.97944],[84.33653,19.97742],[84.34015,19.97823],[84.34605,19.98118],[84.35178,19.98793],[84.35575,19.98909],[84.35945,19.9877],[84.37263,19.97287],[84.37725,19.96588],[84.38198,19.96225],[84.38858,19.9589],[84.39318,19.95509],[84.39825,19.95573],[84.40132,19.96046],[84.40609,19.95989],[84.41179,19.95671],[84.41565,19.95844],[84.42183,19.95463],[84.43384,19.95827],[84.45345,19.9503],[84.45725,19.95041],[84.46558,19.95242],[84.46998,19.93915],[84.46217,19.92766],[84.46342,19.91404],[84.45903,19.90786],[84.45808,19.9044],[84.46177,19.88575],[84.46252,19.87732],[84.45783,19.87068],[84.46196,19.86647],[84.46282,19.85896],[84.46061,19.85296],[84.45375,19.84748],[84.44597,19.84343],[84.44544,19.84061],[84.45102,19.83507],[84.44584,19.83039],[84.44148,19.83022],[84.43344,19.83726],[84.42426,19.83495],[84.38317,19.84165],[84.37295,19.84673],[84.36271,19.85371],[84.35616,19.86301],[84.34922,19.86063],[84.34445,19.86087],[84.33694,19.86502],[84.32131,19.87679],[84.31734,19.88666],[84.30789,19.90559],[84.29043,19.89352],[84.27812,19.87821],[84.2532,19.87167],[84.2348,19.86766],[84.21398,19.86435],[84.19528,19.85983],[84.18676,19.86069],[84.18526,19.8597],[84.20211,19.83467],[84.1913,19.8242],[84.18594,19.82126],[84.17411,19.81963],[84.17452,19.81132],[84.16858,19.80368],[84.17437,19.79226],[84.17251,19.78989],[84.1668,19.7859],[84.13285,19.77985],[84.13353,19.77621],[84.14994,19.75597],[84.15633,19.74541],[84.162,19.73416],[84.15993,19.72821],[84.15668,19.72503],[84.15844,19.7229],[84.16824,19.73065],[84.17522,19.7336],[84.18474,19.73586],[84.19175,19.73472],[84.20342,19.7304],[84.18974,19.70291],[84.20199,19.6901],[84.20088,19.68347],[84.21253,19.68059],[84.21892,19.67246],[84.22234,19.67424],[84.22745,19.66628],[84.23923,19.66301],[84.24087,19.66047],[84.24705,19.64188],[84.24446,19.63963],[84.23791,19.63627],[84.23701,19.63436],[84.23716,19.6279],[84.23632,19.62714],[84.22854,19.6276],[84.22722,19.62575],[84.2292,19.61599],[84.23587,19.60896],[84.23466,19.59701],[84.24107,19.57525],[84.24107,19.57525],[84.23883,19.57176],[84.23486,19.57159],[84.22773,19.57342],[84.22242,19.57624],[84.21581,19.58131],[84.20891,19.58879],[84.20504,19.59051],[84.20052,19.59103],[84.18257,19.58657],[84.17008,19.58771],[84.16714,19.58603],[84.16457,19.5808],[84.16205,19.57958],[84.15781,19.58142],[84.15575,19.58406],[84.15098,19.5867],[84.14648,19.59343],[84.14226,19.60361],[84.13906,19.61645],[84.13496,19.62779],[84.1315,19.63106],[84.12763,19.6329],[84.11951,19.63012],[84.11398,19.62688],[84.09274,19.62894],[84.09142,19.62762],[84.09174,19.62525],[84.09473,19.61743],[84.09064,19.61657],[84.08544,19.61708],[84.07907,19.62464],[84.07588,19.62338],[84.06879,19.6294],[84.06118,19.63015],[84.04787,19.62514],[84.04255,19.62661],[84.03915,19.62982],[84.03388,19.63196],[84.02886,19.63242],[84.02279,19.62493],[84.01922,19.62492],[84.01464,19.62338],[84.0123,19.62073],[84.01124,19.61758],[84.00411,19.62672],[83.99951,19.62588],[83.98467,19.62137],[83.97615,19.62055],[83.96802,19.6237],[83.9606,19.63111],[83.95571,19.63355],[83.95038,19.63398],[83.9432,19.63505],[83.93986,19.64308],[83.93548,19.65612],[83.92814,19.65983],[83.92654,19.66289],[83.93034,19.66553],[83.9381,19.66866],[83.93723,19.67103],[83.93272,19.67681],[83.92581,19.67644],[83.92057,19.67917],[83.91624,19.67775],[83.91261,19.67408],[83.90462,19.67233],[83.88077,19.67244],[83.874,19.67408],[83.86417,19.68017],[83.85845,19.68452],[83.855,19.68833],[83.8492,19.69787],[83.84567,19.70634],[83.84354,19.70959],[83.83718,19.70903],[83.83083,19.70946],[83.82115,19.71273],[83.81404,19.71696],[83.80877,19.71681],[83.79266,19.71158],[83.78114,19.71179],[83.77277,19.71419],[83.7691,19.71294],[83.76769,19.70833],[83.76614,19.69416],[83.76648,19.69192],[83.7638,19.67948],[83.76119,19.67465],[83.75082,19.66634],[83.74428,19.658],[83.74053,19.6545],[83.73443,19.65447],[83.73174,19.65615],[83.72894,19.65863],[83.72404,19.66838],[83.71993,19.67232],[83.71038,19.67771],[83.70097,19.68621],[83.69469,19.68825],[83.68953,19.68746],[83.67521,19.68019],[83.6714,19.67652],[83.66964,19.67243],[83.66328,19.66404],[83.65799,19.66239],[83.65522,19.65929],[83.64928,19.65792],[83.64106,19.66648],[83.63751,19.67236],[83.63773,19.67847],[83.64332,19.6902],[83.64553,19.69821],[83.64487,19.70362],[83.63441,19.71817],[83.633,19.73097],[83.62828,19.7425],[83.6256,19.74435],[83.61901,19.7461],[83.61351,19.74854],[83.61084,19.75172],[83.61001,19.75482],[83.61015,19.75788],[83.61271,19.76185],[83.6185,19.7669],[83.62098,19.77127],[83.62235,19.77789],[83.61893,19.79461],[83.61901,19.79864],[83.62158,19.80561],[83.61954,19.81501],[83.61656,19.81703],[83.60823,19.81809],[83.60588,19.82726],[83.60441,19.831],[83.60245,19.83291],[83.5981,19.82826],[83.589,19.82269],[83.58003,19.8283],[83.56758,19.833],[83.55892,19.83781],[83.54843,19.84107],[83.54527,19.8428],[83.5423,19.84707],[83.539,19.85728],[83.53696,19.8578],[83.5313,19.85556],[83.52904,19.85765],[83.52985,19.86283],[83.528,19.87436],[83.52862,19.87701],[83.534,19.88437],[83.54172,19.89869],[83.5448,19.90133],[83.55239,19.90557],[83.55693,19.91179],[83.55949,19.91696],[83.56242,19.92468],[83.56256,19.92865],[83.55783,19.92964],[83.55383,19.93248],[83.55037,19.93658],[83.54398,19.94201],[83.5304,19.94953],[83.5114,19.95586],[83.50576,19.95662],[83.49617,19.95958],[83.50032,19.96602],[83.5036,19.97362],[83.50415,19.98324],[83.50279,19.98797],[83.50319,19.99193],[83.50629,19.99676],[83.51008,20.00067],[83.51198,20.00418],[83.52269,20.0136],[83.52803,20.01682],[83.53951,20.01892],[83.54437,20.02195],[83.5477,20.03096],[83.55044,20.03424],[83.55227,20.03832],[83.5509,20.04101],[83.55228,20.04737],[83.55512,20.05147],[83.56252,20.05046],[83.56565,20.05298],[83.56804,20.05671],[83.57251,20.06541],[83.56981,20.06895],[83.56905,20.07321],[83.5703,20.07617],[83.57388,20.07804],[83.57599,20.08129],[83.57316,20.08525],[83.57472,20.08767],[83.58444,20.09314],[83.58161,20.09668],[83.58343,20.09824],[83.58678,20.09846],[83.58934,20.1002],[83.58669,20.1045],[83.58489,20.10922],[83.58413,20.11467],[83.58937,20.11356],[83.59244,20.11191],[83.59942,20.10521],[83.60187,20.10389],[83.61363,20.10424],[83.6162,20.10263],[83.618,20.09873],[83.62911,20.0946],[83.63334,20.09126],[83.63566,20.08989],[83.6398,20.09183],[83.64854,20.09763],[83.65861,20.10587],[83.66439,20.10894],[83.67815,20.11259],[83.68769,20.10528],[83.69264,20.10241],[83.6965,20.10147],[83.70465,20.10252],[83.711,20.10243],[83.71487,20.107],[83.71588,20.11124],[83.71903,20.11579],[83.71973,20.12114],[83.71773,20.13003],[83.71954,20.13252],[83.72393,20.13105],[83.72761,20.12805],[83.73033,20.1329],[83.73147,20.1376],[83.72953,20.14326],[83.73414,20.1493],[83.74387,20.15412],[83.75272,20.16128],[83.763,20.16541],[83.76764,20.16483],[83.77393,20.16151],[83.77594,20.164],[83.77802,20.17347],[83.78252,20.17547],[83.79078,20.18073],[83.79119,20.18402],[83.7905,20.18893],[83.7918,20.19534],[83.78622,20.21256],[83.78084,20.21336],[83.77708,20.21021],[83.77124,20.20831],[83.75305,20.21077],[83.74013,20.21142],[83.73231,20.21307],[83.73922,20.2209],[83.74139,20.22438],[83.73581,20.2286],[83.72782,20.23218],[83.72046,20.23894],[83.72489,20.24293],[83.72579,20.24523],[83.723,20.25299],[83.71909,20.25486],[83.71931,20.28817],[83.71708,20.296],[83.71368,20.30381],[83.7128,20.30819],[83.71172,20.31504],[83.71215,20.32502],[83.71071,20.3301],[83.70744,20.33586],[83.70419,20.35],[83.70384,20.35832],[83.70569,20.36609],[83.70572,20.37031],[83.70125,20.37289],[83.69143,20.3731],[83.68684,20.37539],[83.66421,20.38352],[83.65792,20.38479],[83.65412,20.3872],[83.65261,20.38939],[83.65432,20.39041],[83.66045,20.40363],[83.66116,20.40781],[83.65832,20.41311],[83.65976,20.41664],[83.66329,20.41786],[83.6656,20.42024],[83.66631,20.42288],[83.66599,20.42301],[83.67016,20.42474],[83.67534,20.42873],[83.68023,20.42907],[83.68391,20.42457],[83.68592,20.41964],[83.68993,20.41642],[83.69548,20.4161],[83.70977,20.42476],[83.71335,20.42824],[83.71549,20.43032],[83.72225,20.43466],[83.72933,20.4331],[83.73595,20.42567],[83.74639,20.42219],[83.75122,20.42409],[83.75057,20.42843],[83.75504,20.42795],[83.76062,20.42514],[83.76589,20.41829],[83.77017,20.41441],[83.77889,20.41199],[83.78273,20.41336],[83.78276,20.42467],[83.78768,20.44313],[83.79332,20.43894],[83.79448,20.43523],[83.80114,20.43285],[83.80971,20.43218],[83.81287,20.43329],[83.8152,20.43627],[83.81137,20.44565],[83.81188,20.44978],[83.81458,20.4521],[83.81926,20.4518],[83.82672,20.44995],[83.82968,20.45126],[83.82446,20.45636],[83.8185,20.45955],[83.81411,20.46288],[83.81146,20.47941],[83.80921,20.48591],[83.80947,20.48889],[83.80964,20.49077],[83.80811,20.49541],[83.80045,20.50352],[83.79769,20.50644],[83.79632,20.50969],[83.80641,20.511],[83.8147,20.52073],[83.81879,20.52393],[83.82564,20.53461],[83.82277,20.54324],[83.82377,20.54745],[83.83021,20.54719],[83.84006,20.54326],[83.84273,20.54439],[83.85119,20.55668],[83.85429,20.55908],[83.85607,20.56336],[83.85544,20.56844],[83.85838,20.57223],[83.87274,20.57903],[83.88059,20.58002],[83.89456,20.58012],[83.91161,20.57839],[83.91479,20.58024],[83.91294,20.58719],[83.91377,20.59195],[83.91564,20.59908],[83.91741,20.6028],[83.92024,20.60604],[83.9189,20.60831],[83.9182,20.6095],[83.91753,20.61373],[83.91713,20.61633],[83.91987,20.61672],[83.92428,20.61053],[83.9284,20.60748],[83.93494,20.60463],[83.93804,20.60327],[83.93481,20.59977],[83.93269,20.59412],[83.9343,20.5892],[83.93821,20.58569],[83.94319,20.58253],[83.94979,20.58097],[83.97252,20.58626],[83.97882,20.5848],[83.98556,20.5814],[83.98964,20.57788],[83.99613,20.57229],[84.00057,20.57033],[84.00699,20.56961],[84.01367,20.57056],[84.01622,20.57092],[84.0326,20.57959],[84.03638,20.58519],[84.04456,20.59049],[84.05605,20.59552],[84.0745,20.59815],[84.08476,20.59179],[84.09686,20.59781],[84.10404,20.59918],[84.11815,20.58793],[84.13453,20.58978],[84.14568,20.58395],[84.14755,20.58454],[84.15308,20.58927],[84.15467,20.59336],[84.15977,20.59718],[84.1686,20.60144],[84.17838,20.60457],[84.18888,20.59075],[84.19449,20.59198],[84.21008,20.59053],[84.2215,20.58717],[84.2302,20.59014],[84.23593,20.59513],[84.2454,20.59939],[84.24981,20.60136],[84.25608,20.60514],[84.25746,20.61136],[84.26169,20.61244],[84.26427,20.61659],[84.26559,20.6241],[84.27471,20.6404],[84.28271,20.64275],[84.28308,20.64513],[84.28049,20.64981],[84.2818,20.65713],[84.27835,20.67444],[84.28576,20.68177],[84.29496,20.68874],[84.30359,20.69276],[84.31909,20.69443],[84.32695,20.69255],[84.33418,20.68912],[84.33974,20.68288],[84.3427,20.67461],[84.35594,20.67284],[84.35898,20.67616],[84.36076,20.67381],[84.36011,20.66895],[84.37476,20.64469],[84.37122,20.63808],[84.38567,20.60223],[84.3852,20.59966],[84.38026,20.59512],[84.38469,20.5845],[84.38266,20.57628],[84.38594,20.569],[84.38359,20.56006],[84.38406,20.55636],[84.39051,20.54476],[84.39142,20.53673],[84.39319,20.53134],[84.39794,20.52734],[84.40901,20.52342],[84.41767,20.52156],[84.42291,20.52044],[84.43064,20.51487],[84.43531,20.50857],[84.43589,20.50248],[84.43208,20.49518],[84.4274,20.4882],[84.4292,20.48345],[84.43992,20.47715],[84.45023,20.46728],[84.45543,20.46786],[84.46548,20.44171],[84.45805,20.4296],[84.46089,20.42133],[84.46079,20.413],[84.46075,20.41009],[84.46065,20.40239],[84.4629,20.3968],[84.46908,20.39211],[84.48744,20.38668],[84.48947,20.39205],[84.49765,20.39714],[84.50415,20.39896],[84.50906,20.39871],[84.51286,20.39809]]]}}]}