{"type":"FeatureCollection","features":[{"type":"Feature","properties":{"id":"kendujhar","name":"Kendujhar","stateId":"odisha","stateName":"Odisha","censuscode":375,"type":"district"},"geometry":{"type":"Polygon","coordinates":[[[85.67791,22.05538],[85.67477,22.04708],[85.67615,22.04277],[85.66547,22.03555],[85.66399,22.03252],[85.66686,22.02239],[85.67182,22.01307],[85.67702,22.01353],[85.68096,22.00971],[85.68744,22.00814],[85.69313,22.00941],[85.69858,22.00912],[85.70384,22.00726],[85.70479,22.00103],[85.70458,21.99856],[85.70168,21.99217],[85.70381,21.98983],[85.70546,21.98565],[85.71546,21.98468],[85.73073,21.98888],[85.73334,21.99013],[85.73601,21.99264],[85.73975,21.99316],[85.74642,21.98851],[85.74795,21.9779],[85.75526,21.97712],[85.75885,21.97417],[85.76247,21.97266],[85.76738,21.97289],[85.76904,21.96702],[85.77353,21.96541],[85.77643,21.96342],[85.77781,21.96009],[85.77804,21.95732],[85.7828,21.95854],[85.78761,21.96155],[85.78888,21.95676],[85.79474,21.95401],[85.79582,21.95137],[85.79549,21.93628],[85.79627,21.92757],[85.79467,21.92293],[85.79407,21.91651],[85.79084,21.90919],[85.79064,21.90601],[85.80556,21.8872],[85.80559,21.88379],[85.8034,21.87776],[85.80331,21.87441],[85.80664,21.86174],[85.81292,21.8479],[85.81268,21.84293],[85.81109,21.83695],[85.80807,21.83081],[85.8115,21.82184],[85.81106,21.81199],[85.8228,21.80736],[85.83005,21.80594],[85.83583,21.80874],[85.83942,21.80954],[85.85672,21.80158],[85.86143,21.80109],[85.86329,21.79957],[85.86405,21.79683],[85.86988,21.79585],[85.87286,21.79773],[85.88318,21.79401],[85.88753,21.78783],[85.88886,21.78454],[85.89623,21.78134],[85.90342,21.77315],[85.90643,21.76736],[85.91366,21.77062],[85.91967,21.76314],[85.92522,21.76457],[85.93128,21.76285],[85.941,21.76219],[85.94415,21.75799],[85.95107,21.75407],[85.95509,21.74803],[85.95909,21.7474],[85.96837,21.74104],[85.9719,21.73956],[85.97593,21.74183],[85.97848,21.74016],[85.98017,21.74024],[85.98274,21.74261],[85.99085,21.74337],[85.99591,21.74469],[85.99603,21.74075],[85.99997,21.74403],[86.00583,21.74516],[86.00839,21.74309],[86.01171,21.7436],[86.0144,21.74568],[86.01817,21.74485],[86.01969,21.74218],[86.02007,21.73608],[86.02157,21.72911],[86.02429,21.72495],[86.02776,21.72313],[86.02804,21.71074],[86.02542,21.69894],[86.02828,21.69198],[86.03387,21.68857],[86.03841,21.69078],[86.04055,21.69633],[86.04038,21.70029],[86.04286,21.70411],[86.04655,21.70509],[86.05138,21.71405],[86.0539,21.70896],[86.0581,21.69393],[86.06106,21.68821],[86.06659,21.68565],[86.07071,21.68629],[86.07254,21.68782],[86.07373,21.69098],[86.07804,21.69226],[86.0822,21.68951],[86.08379,21.68499],[86.0816,21.67786],[86.0741,21.66577],[86.07633,21.64513],[86.08088,21.63535],[86.0806,21.62888],[86.0706,21.61461],[86.06764,21.60496],[86.06208,21.59687],[86.05484,21.58892],[86.05218,21.58033],[86.04825,21.57346],[86.04272,21.57253],[86.03778,21.56944],[86.03116,21.56679],[86.02702,21.56272],[86.01906,21.55854],[86.02122,21.54891],[86.01022,21.53223],[86.03472,21.51886],[86.05421,21.51113],[86.06091,21.50679],[86.07729,21.50147],[86.09196,21.49408],[86.10056,21.49057],[86.12147,21.4772],[86.12973,21.47101],[86.13515,21.46584],[86.13846,21.46145],[86.1391,21.45401],[86.14222,21.45021],[86.14675,21.447],[86.15355,21.43887],[86.15982,21.42928],[86.16184,21.42459],[86.16374,21.42007],[86.15806,21.41191],[86.15116,21.40735],[86.14229,21.40323],[86.13182,21.38797],[86.12985,21.38283],[86.12177,21.36917],[86.12379,21.36507],[86.12335,21.36034],[86.10959,21.34976],[86.10974,21.34703],[86.11119,21.34413],[86.10922,21.3338],[86.105,21.32608],[86.0993,21.32094],[86.09418,21.31139],[86.09695,21.30596],[86.10227,21.3041],[86.10878,21.30359],[86.10978,21.29226],[86.11317,21.28666],[86.11721,21.28181],[86.1176,21.27594],[86.12071,21.2719],[86.13043,21.26638],[86.13547,21.2655],[86.13861,21.26589],[86.13961,21.26934],[86.13874,21.28103],[86.14422,21.27923],[86.14784,21.27944],[86.14903,21.28318],[86.15127,21.28665],[86.15999,21.29221],[86.16283,21.29074],[86.16236,21.28422],[86.16565,21.28094],[86.17293,21.27799],[86.19038,21.27324],[86.19602,21.27436],[86.1996,21.2783],[86.20479,21.28196],[86.21055,21.28284],[86.21046,21.28564],[86.21152,21.28972],[86.21529,21.29332],[86.21982,21.30647],[86.22074,21.31241],[86.22486,21.31694],[86.22653,21.32237],[86.23033,21.32835],[86.23563,21.32736],[86.25216,21.34512],[86.25137,21.34936],[86.25529,21.35138],[86.27148,21.36663],[86.27229,21.37083],[86.27005,21.37913],[86.2786,21.37986],[86.28614,21.37517],[86.29392,21.36129],[86.29964,21.35495],[86.31965,21.34631],[86.3298,21.33996],[86.34858,21.32502],[86.35859,21.31965],[86.36098,21.31461],[86.36179,21.30019],[86.35782,21.28688],[86.35749,21.28164],[86.35945,21.27636],[86.365,21.26845],[86.36565,21.26455],[86.37337,21.26057],[86.37533,21.25546],[86.37533,21.24918],[86.37132,21.23856],[86.37131,21.23854],[86.35443,21.2359],[86.35321,21.23461],[86.35488,21.22828],[86.35575,21.22078],[86.35493,21.21723],[86.35601,21.21363],[86.35598,21.21002],[86.35296,21.20551],[86.35069,21.19181],[86.34451,21.19023],[86.34329,21.18924],[86.34485,21.18698],[86.34038,21.1796],[86.33374,21.17994],[86.33087,21.17921],[86.32856,21.17691],[86.32618,21.17602],[86.3265,21.17998],[86.32275,21.18075],[86.32066,21.17503],[86.31693,21.17365],[86.31451,21.1706],[86.31101,21.16975],[86.30764,21.17],[86.30661,21.17378],[86.29946,21.17591],[86.29308,21.17567],[86.29307,21.17136],[86.28744,21.16886],[86.28582,21.16611],[86.2858,21.16151],[86.27591,21.15052],[86.27448,21.14678],[86.27384,21.14265],[86.27561,21.13812],[86.28311,21.13734],[86.28739,21.13372],[86.29125,21.12817],[86.29316,21.12161],[86.29017,21.11949],[86.29031,21.1182],[86.29124,21.11775],[86.29466,21.11884],[86.30551,21.11436],[86.31075,21.11132],[86.30736,21.10653],[86.30575,21.10249],[86.3066,21.09801],[86.30944,21.0959],[86.30763,21.09256],[86.30708,21.08755],[86.3169,21.08102],[86.31894,21.07825],[86.32066,21.07356],[86.32189,21.06642],[86.32527,21.06616],[86.32656,21.05948],[86.32166,21.05291],[86.31549,21.05657],[86.3132,21.04101],[86.30528,21.02325],[86.30685,21.02087],[86.30689,21.01692],[86.30445,21.01556],[86.2957,21.0189],[86.29002,21.01846],[86.28093,21.02351],[86.27895,21.02616],[86.26663,21.0365],[86.26201,21.03913],[86.24786,21.03781],[86.23613,21.03924],[86.22704,21.0452],[86.224,21.04883],[86.21849,21.05254],[86.21387,21.05441],[86.20864,21.05615],[86.19785,21.05557],[86.19238,21.05643],[86.17835,21.06128],[86.16256,21.06354],[86.14891,21.07094],[86.14164,21.07376],[86.13495,21.07409],[86.13238,21.06772],[86.12941,21.06507],[86.12357,21.06674],[86.12056,21.06653],[86.11703,21.06433],[86.11023,21.05786],[86.09585,21.0507],[86.09377,21.04457],[86.09142,21.03098],[86.08987,21.02689],[86.092,21.02366],[86.08967,21.01816],[86.08522,21.01642],[86.0823,21.01405],[86.0711,21.01683],[86.05995,21.02181],[86.05303,21.02114],[86.04833,21.02399],[86.04465,21.029],[86.04349,21.03336],[86.03827,21.03905],[86.03773,21.04271],[86.03566,21.04676],[86.03558,21.05321],[86.03803,21.059],[86.03362,21.06249],[86.03371,21.06523],[86.03164,21.06887],[86.02898,21.07035],[86.0287,21.07302],[86.03267,21.07993],[86.0353,21.0901],[86.03747,21.09309],[86.04845,21.09869],[86.05182,21.10869],[86.05602,21.11654],[86.06149,21.12003],[86.06596,21.12155],[86.07356,21.12787],[86.07765,21.1392],[86.07675,21.14803],[86.07744,21.15619],[86.08153,21.16288],[86.08785,21.16342],[86.08905,21.16588],[86.08718,21.16795],[86.08245,21.16819],[86.07811,21.16732],[86.07403,21.16395],[86.06791,21.16265],[86.06366,21.15887],[86.0604,21.1589],[86.05609,21.16035],[86.04604,21.15429],[86.03883,21.15652],[86.03506,21.14874],[86.03035,21.14694],[86.02995,21.14518],[86.03168,21.14393],[86.03281,21.14144],[86.02385,21.13725],[86.022,21.13799],[86.02177,21.14089],[86.01527,21.14075],[86.00959,21.14254],[86.00532,21.1408],[85.99996,21.1412],[85.99529,21.14149],[85.99435,21.13698],[85.98935,21.13896],[85.98696,21.13806],[85.98407,21.1392],[85.97892,21.14402],[85.97578,21.13972],[85.97281,21.13759],[85.96872,21.13689],[85.96698,21.13884],[85.96533,21.1391],[85.96387,21.13773],[85.96595,21.13307],[85.96442,21.13244],[85.96234,21.1337],[85.96039,21.1291],[85.94893,21.1291],[85.9466,21.13344],[85.94505,21.13205],[85.9431,21.12794],[85.94043,21.12865],[85.94117,21.13366],[85.93725,21.13608],[85.93501,21.13608],[85.93333,21.13464],[85.93195,21.1314],[85.93192,21.12144],[85.92312,21.1021],[85.92216,21.09753],[85.91888,21.09405],[85.91038,21.08992],[85.90428,21.09008],[85.88768,21.08609],[85.88255,21.08712],[85.87641,21.0857],[85.86469,21.08877],[85.85961,21.09157],[85.84994,21.09517],[85.84387,21.09492],[85.83922,21.09601],[85.83609,21.0924],[85.82984,21.09036],[85.82297,21.09062],[85.81569,21.09452],[85.80924,21.10447],[85.79799,21.10342],[85.79335,21.10407],[85.78792,21.1006],[85.78415,21.10056],[85.78194,21.10164],[85.77972,21.10414],[85.77583,21.10382],[85.77471,21.10616],[85.77476,21.11222],[85.7699,21.11626],[85.76923,21.12179],[85.76992,21.12531],[85.76928,21.12773],[85.76712,21.13099],[85.76593,21.14303],[85.76389,21.14612],[85.75801,21.14888],[85.75188,21.14789],[85.74821,21.14381],[85.74146,21.13855],[85.73677,21.13861],[85.72857,21.1433],[85.72325,21.16059],[85.71956,21.16348],[85.71436,21.16526],[85.70957,21.16796],[85.70698,21.17105],[85.70684,21.17815],[85.71051,21.18148],[85.70622,21.18309],[85.69409,21.18004],[85.68745,21.18527],[85.68447,21.18534],[85.68322,21.18249],[85.67987,21.17824],[85.67326,21.17179],[85.66517,21.16614],[85.65125,21.16456],[85.63809,21.16542],[85.63085,21.16053],[85.61752,21.14181],[85.61113,21.13711],[85.60005,21.13729],[85.55866,21.16087],[85.5528,21.162],[85.551,21.16474],[85.54872,21.16633],[85.54385,21.16244],[85.53419,21.14799],[85.50156,21.11369],[85.49785,21.11334],[85.47857,21.12181],[85.47417,21.1225],[85.46333,21.12718],[85.46077,21.13227],[85.44146,21.14981],[85.42674,21.16187],[85.42412,21.16668],[85.41874,21.16867],[85.41662,21.17153],[85.41197,21.17266],[85.40437,21.17606],[85.39504,21.18471],[85.395,21.18475],[85.38334,21.19876],[85.38263,21.20937],[85.38339,21.21578],[85.36907,21.24073],[85.3658,21.24293],[85.34967,21.25051],[85.34269,21.25739],[85.32076,21.26078],[85.31334,21.26383],[85.30036,21.27586],[85.29102,21.26929],[85.29046,21.2664],[85.28736,21.26543],[85.28121,21.26924],[85.27411,21.27508],[85.27509,21.28294],[85.27847,21.28501],[85.27878,21.28791],[85.27846,21.29281],[85.27373,21.29919],[85.27479,21.30158],[85.27888,21.3009],[85.28312,21.299],[85.28536,21.29985],[85.28998,21.30449],[85.29344,21.30512],[85.29682,21.30703],[85.29739,21.31396],[85.30884,21.31802],[85.31293,21.32132],[85.31593,21.32887],[85.31984,21.32789],[85.32304,21.32252],[85.3268,21.31946],[85.32941,21.32395],[85.33359,21.33799],[85.33492,21.34581],[85.33716,21.35086],[85.34149,21.35492],[85.34381,21.35882],[85.34206,21.36532],[85.33986,21.36995],[85.33114,21.37755],[85.33051,21.38279],[85.31592,21.39214],[85.30727,21.39483],[85.30884,21.40386],[85.30539,21.41391],[85.29029,21.41994],[85.28326,21.42445],[85.27535,21.42703],[85.27071,21.43919],[85.26285,21.44235],[85.26097,21.44538],[85.25935,21.45107],[85.26333,21.45454],[85.26856,21.45492],[85.28061,21.44957],[85.28667,21.45239],[85.29065,21.44755],[85.29467,21.44814],[85.29799,21.44594],[85.30007,21.4458],[85.30353,21.44684],[85.30881,21.44912],[85.31278,21.4601],[85.32518,21.46665],[85.32717,21.46899],[85.33107,21.47679],[85.33341,21.47955],[85.33393,21.48151],[85.33232,21.48374],[85.33151,21.48841],[85.33217,21.4928],[85.33057,21.49734],[85.32916,21.50996],[85.3228,21.52596],[85.32405,21.52847],[85.32443,21.53148],[85.32134,21.53414],[85.31746,21.53581],[85.31194,21.53398],[85.30819,21.53104],[85.30446,21.53173],[85.30334,21.53691],[85.3019,21.53925],[85.30289,21.55422],[85.30854,21.55553],[85.30821,21.55748],[85.30897,21.55935],[85.31384,21.56468],[85.31307,21.56658],[85.31111,21.56711],[85.30857,21.56586],[85.30513,21.56691],[85.29391,21.5774],[85.28796,21.587],[85.28652,21.59275],[85.28982,21.59651],[85.29351,21.59882],[85.29242,21.60215],[85.29136,21.60369],[85.28632,21.60181],[85.2792,21.60811],[85.27943,21.61279],[85.27766,21.61628],[85.26837,21.62351],[85.26555,21.62838],[85.26513,21.63167],[85.26652,21.64017],[85.26525,21.64361],[85.25755,21.65464],[85.25123,21.67596],[85.2482,21.67712],[85.22475,21.67603],[85.22153,21.67494],[85.21127,21.67481],[85.2078,21.66575],[85.20397,21.66112],[85.19751,21.65997],[85.19422,21.66314],[85.19039,21.66915],[85.18864,21.67893],[85.1931,21.68674],[85.19416,21.69237],[85.18699,21.70807],[85.18745,21.7105],[85.1899,21.71736],[85.20183,21.72784],[85.20868,21.73541],[85.21364,21.73844],[85.21555,21.74108],[85.21594,21.74379],[85.21438,21.74532],[85.20972,21.74605],[85.20807,21.75013],[85.20465,21.76803],[85.20741,21.77178],[85.21069,21.77264],[85.21205,21.77538],[85.21217,21.78341],[85.21407,21.79066],[85.2274,21.80954],[85.22998,21.82056],[85.23093,21.82213],[85.23686,21.81455],[85.24028,21.81144],[85.24049,21.80676],[85.24152,21.80372],[85.24408,21.80359],[85.25752,21.81196],[85.26496,21.81405],[85.27437,21.81905],[85.27652,21.82567],[85.27922,21.8297],[85.28209,21.83374],[85.28567,21.83593],[85.2919,21.83678],[85.2944,21.83348],[85.29577,21.82819],[85.29744,21.827],[85.30382,21.82606],[85.30916,21.8209],[85.31187,21.81985],[85.31746,21.81872],[85.32324,21.82061],[85.33527,21.82675],[85.33928,21.82468],[85.34374,21.82731],[85.3459,21.82982],[85.34879,21.83386],[85.35262,21.84385],[85.35679,21.84663],[85.36026,21.85194],[85.35923,21.86371],[85.36089,21.87506],[85.3604,21.87881],[85.36696,21.88197],[85.37047,21.89317],[85.36837,21.89776],[85.37601,21.90713],[85.37725,21.90969],[85.3742,21.93379],[85.37219,21.93733],[85.36902,21.94],[85.35514,21.94278],[85.34748,21.95057],[85.3395,21.95126],[85.32494,21.95384],[85.31647,21.95822],[85.31243,21.95849],[85.30749,21.95702],[85.29954,21.95222],[85.28399,21.95513],[85.27967,21.95703],[85.2749,21.95967],[85.27266,21.96176],[85.26562,21.97233],[85.26263,21.97534],[85.25282,21.9828],[85.24559,21.9899],[85.23665,21.99669],[85.23359,22.00069],[85.23723,22.00402],[85.24733,22.01625],[85.2528,22.02912],[85.26237,22.04615],[85.26625,22.05652],[85.27172,22.06392],[85.27622,22.07261],[85.28042,22.08374],[85.28716,22.09127],[85.29368,22.0968],[85.30633,22.11067],[85.31594,22.117],[85.32159,22.11944],[85.32924,22.12858],[85.34472,22.12833],[85.35159,22.13059],[85.35978,22.1242],[85.36434,22.12322],[85.36758,22.12507],[85.36793,22.12837],[85.36485,22.1364],[85.36428,22.14154],[85.36913,22.15016],[85.36863,22.15363],[85.36941,22.15814],[85.37557,22.15879],[85.37839,22.15601],[85.38552,22.15527],[85.39155,22.15592],[85.39654,22.15871],[85.40062,22.16218],[85.40855,22.16012],[85.41647,22.15967],[85.42398,22.15696],[85.44192,22.14779],[85.46314,22.13943],[85.47131,22.13487],[85.47785,22.12782],[85.48553,22.12546],[85.49193,22.12019],[85.51179,22.11518],[85.52093,22.11194],[85.53025,22.10679],[85.53482,22.10252],[85.53957,22.10055],[85.54212,22.09817],[85.54341,22.09407],[85.5456,22.09037],[85.55468,22.09234],[85.5604,22.0946],[85.5663,22.08869],[85.57227,22.09083],[85.57715,22.08985],[85.58829,22.08481],[85.5928,22.08064],[85.59712,22.07827],[85.60267,22.07856],[85.60779,22.08017],[85.60961,22.08307],[85.61333,22.08561],[85.61461,22.08278],[85.61711,22.08064],[85.62559,22.08168],[85.63224,22.08348],[85.63725,22.08538],[85.64238,22.08961],[85.64603,22.09406],[85.65061,22.09412],[85.65404,22.09065],[85.65632,22.08515],[85.66131,22.08167],[85.66348,22.07813],[85.67071,22.07045],[85.67355,22.06492],[85.67832,22.06361],[85.67791,22.05538]]]}}]}