{"type":"FeatureCollection","features":[{"type":"Feature","properties":{"id":"khordha","name":"Khordha","stateId":"odisha","stateName":"Odisha","censuscode":386,"type":"district"},"geometry":{"type":"Polygon","coordinates":[[[86.08268,20.10635],[86.08266,20.10634],[86.07955,20.10647],[86.07347,20.10975],[86.0634,20.10897],[86.05914,20.10749],[86.0571,20.10545],[86.05345,20.10643],[86.04875,20.10598],[86.0428,20.10796],[86.03283,20.10726],[86.02089,20.10158],[86.01559,20.10511],[86.0128,20.11451],[86.00781,20.11619],[86.00325,20.11011],[85.99995,20.11034],[85.9954,20.10666],[85.98927,20.11095],[85.96875,20.1161],[85.96046,20.1202],[85.9552,20.11158],[85.95146,20.11946],[85.94804,20.11923],[85.94552,20.11721],[85.94672,20.11348],[85.94204,20.11349],[85.93628,20.11537],[85.93251,20.11387],[85.92735,20.11398],[85.92157,20.11744],[85.91616,20.12068],[85.91099,20.12273],[85.9047,20.12804],[85.90419,20.12318],[85.90012,20.11258],[85.89131,20.11164],[85.88559,20.11002],[85.87551,20.12229],[85.87959,20.12857],[85.88759,20.13101],[85.89058,20.13476],[85.89871,20.14014],[85.90222,20.14469],[85.8949,20.1598],[85.8894,20.17639],[85.8768,20.18443],[85.8703,20.18727],[85.8677,20.19031],[85.86083,20.19141],[85.85381,20.19353],[85.85755,20.17893],[85.85633,20.17558],[85.84548,20.17472],[85.8437,20.1823],[85.84055,20.1957],[85.83602,20.18797],[85.83379,20.17922],[85.83088,20.17519],[85.82921,20.17038],[85.82909,20.16886],[85.82853,20.16167],[85.82722,20.15841],[85.81991,20.15842],[85.81265,20.15935],[85.81125,20.15911],[85.80656,20.15829],[85.80423,20.15397],[85.80187,20.15121],[85.80008,20.15045],[85.79678,20.15085],[85.78331,20.15699],[85.78319,20.16086],[85.78528,20.16179],[85.78576,20.16389],[85.78373,20.16654],[85.78113,20.16738],[85.77891,20.16749],[85.77131,20.16785],[85.76561,20.1666],[85.76418,20.16509],[85.76265,20.16138],[85.76307,20.15759],[85.7644,20.15441],[85.76322,20.15197],[85.75117,20.15041],[85.74693,20.14699],[85.73328,20.15129],[85.72531,20.14267],[85.72464,20.13837],[85.72582,20.13409],[85.72462,20.13119],[85.7227,20.12961],[85.72013,20.1333],[85.71906,20.13776],[85.72033,20.14019],[85.72022,20.14204],[85.70766,20.14454],[85.70005,20.15118],[85.69423,20.15177],[85.68944,20.14901],[85.68386,20.13938],[85.68324,20.13167],[85.6779,20.12295],[85.67812,20.11678],[85.67744,20.11211],[85.68419,20.10597],[85.68726,20.09803],[85.69249,20.09507],[85.68292,20.09231],[85.67762,20.08681],[85.67615,20.08199],[85.67779,20.07926],[85.68161,20.07746],[85.68147,20.07424],[85.68028,20.07153],[85.67589,20.06903],[85.66971,20.06788],[85.66433,20.06505],[85.65865,20.06435],[85.65354,20.06555],[85.65003,20.07001],[85.64849,20.07494],[85.65044,20.09097],[85.65242,20.09632],[85.64724,20.09817],[85.63348,20.09998],[85.63337,20.09723],[85.64545,20.08821],[85.64639,20.08284],[85.64339,20.08314],[85.64284,20.07948],[85.64082,20.07602],[85.63948,20.07372],[85.62806,20.06854],[85.62416,20.06593],[85.62054,20.05871],[85.61865,20.04866],[85.6174,20.04199],[85.62026,20.036],[85.62221,20.03611],[85.624,20.02988],[85.63126,20.02454],[85.62387,20.01305],[85.62402,20.00973],[85.61973,20.00032],[85.61789,19.99129],[85.61466,19.99555],[85.61137,20.00064],[85.61514,20.01384],[85.61766,20.01806],[85.6147,20.01937],[85.60923,20.01682],[85.60516,20.01256],[85.6029,20.00731],[85.59686,20.00027],[85.59479,19.99492],[85.5912,19.99763],[85.59093,20.00049],[85.59035,20.00281],[85.58192,20.00846],[85.57924,20.01877],[85.57721,20.02142],[85.57293,20.02379],[85.57004,20.01985],[85.56899,20.01791],[85.56572,20.01183],[85.56404,20.00674],[85.56656,20.00398],[85.56651,20.00067],[85.56725,19.99264],[85.56962,19.98418],[85.56978,19.97645],[85.5646,19.9805],[85.56139,19.97823],[85.56033,19.97367],[85.56438,19.97048],[85.56965,19.96872],[85.56785,19.95361],[85.56535,19.94948],[85.56145,19.94944],[85.55526,19.95261],[85.55485,19.96137],[85.55304,19.96235],[85.54772,19.95593],[85.53446,19.96691],[85.53616,19.97503],[85.53168,19.97731],[85.52566,19.97524],[85.51976,19.96902],[85.51546,19.95464],[85.50721,19.95026],[85.50254,19.94546],[85.50438,19.9431],[85.50975,19.94593],[85.5198,19.94188],[85.51988,19.93682],[85.50903,19.93308],[85.51038,19.92577],[85.52298,19.92944],[85.52881,19.94109],[85.53344,19.94009],[85.5369,19.93674],[85.53624,19.92784],[85.55108,19.92248],[85.5669,19.91677],[85.56376,19.90677],[85.57017,19.90432],[85.56933,19.894],[85.56801,19.87768],[85.56736,19.86975],[85.56723,19.86897],[85.56672,19.86599],[85.56479,19.85458],[85.55382,19.85747],[85.55374,19.85766],[85.55253,19.85899],[85.55232,19.86093],[85.55243,19.86285],[85.55262,19.8658],[85.55407,19.86804],[85.55685,19.86941],[85.55774,19.86958],[85.5589,19.86961],[85.56129,19.8732],[85.55663,19.87576],[85.5515,19.87589],[85.54944,19.87594],[85.54476,19.87795],[85.54381,19.87845],[85.54305,19.87995],[85.54162,19.88184],[85.54069,19.8828],[85.53558,19.88639],[85.53135,19.88747],[85.52846,19.88803],[85.52482,19.88697],[85.51863,19.88794],[85.51432,19.88718],[85.51075,19.88777],[85.5079,19.88696],[85.5034,19.88869],[85.50237,19.88841],[85.49797,19.88725],[85.49514,19.88651],[85.49068,19.88667],[85.4887,19.88583],[85.4875,19.88513],[85.48625,19.88456],[85.48552,19.8841],[85.48405,19.88397],[85.47936,19.88571],[85.4792,19.88663],[85.47872,19.88684],[85.47856,19.88805],[85.47833,19.88915],[85.47581,19.89154],[85.47102,19.89098],[85.47069,19.89007],[85.46771,19.88844],[85.46245,19.88835],[85.46131,19.88886],[85.44973,19.88634],[85.44384,19.88729],[85.44309,19.88773],[85.44052,19.88925],[85.44025,19.8899],[85.43589,19.89255],[85.4323,19.89299],[85.42853,19.89346],[85.42745,19.89304],[85.42683,19.89214],[85.4263,19.89106],[85.42116,19.88894],[85.41938,19.88588],[85.4162,19.88434],[85.41379,19.88471],[85.41026,19.88649],[85.40683,19.88569],[85.4064,19.88479],[85.40641,19.881],[85.40643,19.87587],[85.40395,19.87219],[85.40324,19.87148],[85.40275,19.8715],[85.40243,19.87086],[85.39812,19.86743],[85.39682,19.86656],[85.39584,19.86411],[85.39583,19.86135],[85.39631,19.86115],[85.39635,19.85996],[85.39572,19.85869],[85.38883,19.85416],[85.3884,19.85325],[85.38637,19.85103],[85.38488,19.84547],[85.38335,19.844],[85.38164,19.84219],[85.37655,19.83897],[85.37479,19.83867],[85.36789,19.8375],[85.36452,19.83692],[85.36195,19.83621],[85.36009,19.8357],[85.35971,19.83551],[85.35924,19.83528],[85.35339,19.83241],[85.34423,19.8279],[85.34098,19.81965],[85.3409,19.81037],[85.3392,19.80905],[85.33867,19.80883],[85.33376,19.80676],[85.33355,19.80622],[85.33186,19.80526],[85.32809,19.80089],[85.32592,19.80005],[85.31385,19.79708],[85.31134,19.79745],[85.30884,19.79818],[85.30094,19.79754],[85.2948,19.79354],[85.29037,19.79065],[85.2885,19.79008],[85.27987,19.79038],[85.27821,19.79017],[85.27762,19.79],[85.27484,19.78863],[85.27351,19.78776],[85.27163,19.78653],[85.26898,19.78479],[85.26617,19.78296],[85.26519,19.78272],[85.26003,19.78492],[85.25611,19.78414],[85.25502,19.78354],[85.25335,19.78065],[85.25329,19.77909],[85.25353,19.77789],[85.25399,19.77723],[85.25465,19.7767],[85.25541,19.77608],[85.25636,19.77558],[85.25692,19.77262],[85.25687,19.77124],[85.25555,19.76982],[85.24953,19.76652],[85.24562,19.76438],[85.24455,19.7635],[85.24281,19.76208],[85.24208,19.76073],[85.24182,19.75927],[85.24164,19.75459],[85.24399,19.7477],[85.2437,19.74532],[85.24254,19.74288],[85.24189,19.74124],[85.2391,19.74419],[85.233,19.74717],[85.23274,19.74809],[85.22931,19.74978],[85.21973,19.74561],[85.21951,19.74497],[85.2186,19.74409],[85.21696,19.74194],[85.21594,19.74059],[85.21498,19.73851],[85.21395,19.73228],[85.21341,19.73066],[85.21141,19.72917],[85.21012,19.72599],[85.20912,19.72511],[85.20369,19.723],[85.20046,19.72229],[85.19543,19.71768],[85.19445,19.71596],[85.19297,19.71235],[85.19127,19.70817],[85.19119,19.70109],[85.19202,19.69996],[85.19224,19.69938],[85.19285,19.69778],[85.1943,19.69372],[85.20036,19.68974],[85.2043,19.68887],[85.20553,19.68791],[85.206,19.68743],[85.20625,19.6865],[85.20607,19.6843],[85.20574,19.68339],[85.20504,19.68277],[85.20238,19.68195],[85.19458,19.67836],[85.18868,19.67685],[85.18447,19.67549],[85.18445,19.67549],[85.18445,19.67551],[85.18436,19.67715],[85.17569,19.68239],[85.17093,19.6905],[85.16202,19.69625],[85.16233,19.70012],[85.1494,19.71754],[85.14648,19.7233],[85.14645,19.7283],[85.1286,19.74895],[85.11591,19.75534],[85.10255,19.7596],[85.08783,19.76668],[85.07895,19.78497],[85.0773,19.79146],[85.06527,19.7971],[85.05376,19.80141],[85.04418,19.8063],[85.03801,19.80676],[85.03122,19.80405],[85.02566,19.80767],[85.01509,19.80503],[85.00968,19.80261],[84.99999,19.81687],[84.99037,19.82256],[84.98433,19.82427],[84.98114,19.82904],[84.97883,19.83962],[84.9724,19.85281],[84.95603,19.86231],[84.95143,19.86835],[84.94617,19.86966],[84.9396,19.87022],[84.93627,19.87246],[84.93772,19.87834],[84.94019,19.88352],[84.94109,19.88813],[84.94157,19.89273],[84.94043,19.89703],[84.94639,19.89817],[84.95022,19.89946],[84.95271,19.90103],[84.95956,19.89979],[84.9756,19.90487],[84.98446,19.90531],[84.99392,19.90343],[85.00003,19.90304],[85.01021,19.89966],[85.0169,19.90173],[85.02295,19.90484],[85.02892,19.90326],[85.05619,19.91475],[85.07398,19.92],[85.09096,19.92396],[85.09851,19.93051],[85.12798,19.93326],[85.1383,19.92353],[85.15502,19.91578],[85.16732,19.9045],[85.17675,19.90684],[85.18112,19.90926],[85.18588,19.90661],[85.19689,19.90724],[85.21029,19.91183],[85.22448,19.91152],[85.23421,19.90924],[85.24544,19.90545],[85.25821,19.90877],[85.26788,19.91238],[85.27166,19.91703],[85.27761,19.91259],[85.29311,19.92068],[85.32133,19.92611],[85.33191,19.92564],[85.33462,19.93502],[85.34313,19.94115],[85.3501,19.94256],[85.35744,19.95342],[85.36366,19.95816],[85.37556,19.95176],[85.38454,19.95005],[85.38501,19.94001],[85.39024,19.93936],[85.39531,19.93973],[85.39762,19.9391],[85.39893,19.93307],[85.40384,19.92958],[85.42153,19.92691],[85.42251,19.93414],[85.42498,19.93755],[85.43132,19.93805],[85.43647,19.94017],[85.44098,19.94589],[85.44652,19.95525],[85.45408,19.96408],[85.45727,19.97307],[85.4537,19.98102],[85.44785,19.98767],[85.44173,19.99047],[85.44092,19.99427],[85.43318,19.99299],[85.42385,19.99333],[85.41691,19.99496],[85.41695,20.00066],[85.41824,20.00383],[85.42164,20.00353],[85.42536,20.00643],[85.42634,20.01136],[85.42907,20.01393],[85.43198,20.01842],[85.43515,20.02704],[85.4309,20.02784],[85.4264,20.02718],[85.42218,20.02411],[85.41743,20.02695],[85.41522,20.0251],[85.41513,20.0206],[85.41364,20.02212],[85.41345,20.02421],[85.41365,20.02796],[85.4142,20.0313],[85.41215,20.0334],[85.40751,20.03173],[85.40357,20.03316],[85.39998,20.03338],[85.39699,20.03634],[85.3981,20.03989],[85.39571,20.0408],[85.39431,20.04471],[85.39442,20.04747],[85.39229,20.04773],[85.38707,20.05592],[85.38613,20.06157],[85.38098,20.0715],[85.38353,20.07905],[85.38098,20.08107],[85.38101,20.0842],[85.38523,20.08975],[85.39098,20.08982],[85.39637,20.08842],[85.39992,20.09188],[85.40262,20.09602],[85.40457,20.11278],[85.40674,20.11583],[85.41442,20.12282],[85.41452,20.12751],[85.40599,20.13573],[85.39982,20.13981],[85.39669,20.13698],[85.39559,20.13399],[85.39244,20.13548],[85.39003,20.13851],[85.38866,20.14335],[85.39012,20.14789],[85.38798,20.15036],[85.38698,20.15454],[85.38469,20.15582],[85.38339,20.15264],[85.38328,20.14989],[85.38007,20.15],[85.3754,20.14539],[85.36266,20.14575],[85.3563,20.14516],[85.35798,20.1531],[85.36203,20.15682],[85.36405,20.16594],[85.36748,20.16867],[85.37037,20.17271],[85.37038,20.17777],[85.36884,20.18067],[85.36596,20.18313],[85.36309,20.18557],[85.3584,20.18767],[85.3518,20.18828],[85.34892,20.18461],[85.34774,20.18171],[85.33335,20.18011],[85.3241,20.17308],[85.32087,20.17121],[85.31253,20.16641],[85.31484,20.15841],[85.31484,20.15593],[85.31233,20.15409],[85.30179,20.15363],[85.29782,20.15157],[85.29498,20.15369],[85.29116,20.15079],[85.27111,20.14635],[85.26758,20.14326],[85.25879,20.13271],[85.25605,20.13262],[85.25179,20.13082],[85.24848,20.12829],[85.24482,20.12428],[85.24102,20.11448],[85.23251,20.11837],[85.22954,20.12206],[85.22765,20.12617],[85.2177,20.12818],[85.21445,20.13215],[85.21503,20.13701],[85.2146,20.14107],[85.21591,20.1447],[85.21104,20.14975],[85.20732,20.15154],[85.20587,20.15453],[85.21207,20.15845],[85.21465,20.16471],[85.21324,20.16853],[85.20983,20.17086],[85.20423,20.17216],[85.20397,20.18045],[85.20204,20.18364],[85.20152,20.19019],[85.21189,20.19875],[85.21347,20.20155],[85.21398,20.20972],[85.21627,20.2135],[85.21905,20.21708],[85.22688,20.22307],[85.23018,20.22019],[85.23582,20.20996],[85.24013,20.20797],[85.24451,20.208],[85.25174,20.21079],[85.25666,20.21457],[85.25585,20.22113],[85.25635,20.22635],[85.27421,20.22692],[85.28004,20.22644],[85.29715,20.22825],[85.30872,20.22947],[85.31382,20.23269],[85.3195,20.23102],[85.32417,20.23085],[85.32638,20.24209],[85.32904,20.24521],[85.33466,20.24428],[85.34063,20.24507],[85.34312,20.25106],[85.34282,20.25346],[85.33876,20.25425],[85.3306,20.255],[85.32743,20.25373],[85.32767,20.25961],[85.33128,20.26464],[85.33042,20.2747],[85.33173,20.27814],[85.33503,20.28033],[85.33508,20.28034],[85.33708,20.27215],[85.34361,20.27322],[85.34982,20.27221],[85.35501,20.27288],[85.36196,20.27487],[85.37133,20.27581],[85.3797,20.28188],[85.38292,20.28561],[85.3864,20.2819],[85.39127,20.27883],[85.39573,20.27725],[85.39622,20.27068],[85.39875,20.25954],[85.40357,20.25722],[85.40832,20.25611],[85.42195,20.27224],[85.43113,20.27294],[85.43762,20.26841],[85.44719,20.26393],[85.45032,20.2634],[85.45469,20.26655],[85.45665,20.26982],[85.45541,20.27559],[85.4566,20.28158],[85.45912,20.28641],[85.46152,20.29452],[85.47318,20.29539],[85.48449,20.29718],[85.49365,20.29609],[85.50221,20.29403],[85.51057,20.29087],[85.51966,20.29412],[85.52303,20.29335],[85.52211,20.29958],[85.52522,20.30365],[85.52988,20.30507],[85.53499,20.30245],[85.55063,20.30248],[85.55004,20.30421],[85.55277,20.30558],[85.54989,20.30755],[85.55313,20.31313],[85.5592,20.30993],[85.56721,20.30083],[85.57409,20.29964],[85.58466,20.30086],[85.59696,20.29848],[85.60276,20.29798],[85.60669,20.29842],[85.6095,20.2961],[85.61911,20.29668],[85.62675,20.29202],[85.63445,20.29798],[85.63342,20.30443],[85.63401,20.30986],[85.64005,20.31915],[85.64401,20.32294],[85.64772,20.32522],[85.65187,20.32375],[85.65874,20.3293],[85.6631,20.33129],[85.66902,20.33074],[85.6755,20.32719],[85.67898,20.32428],[85.68155,20.33521],[85.68431,20.34015],[85.69336,20.3465],[85.70181,20.36166],[85.70186,20.36627],[85.70586,20.37598],[85.70886,20.38703],[85.71468,20.39143],[85.71455,20.39662],[85.71584,20.39932],[85.73272,20.40895],[85.73706,20.40794],[85.74236,20.40474],[85.74696,20.40638],[85.75999,20.40428],[85.76784,20.41213],[85.77365,20.40315],[85.77616,20.40619],[85.78736,20.40951],[85.78864,20.41654],[85.78464,20.41622],[85.78276,20.42177],[85.78739,20.4328],[85.79476,20.42636],[85.7959,20.4264],[85.7989,20.42887],[85.80202,20.43391],[85.80752,20.43364],[85.81073,20.4274],[85.81682,20.42631],[85.82329,20.4077],[85.83087,20.40385],[85.82721,20.39292],[85.82181,20.39123],[85.81852,20.38831],[85.81978,20.36731],[85.81475,20.35836],[85.80582,20.35317],[85.79921,20.33644],[85.80231,20.32518],[85.80246,20.3208],[85.80674,20.32129],[85.81384,20.31922],[85.81938,20.31555],[85.83376,20.31146],[85.8455,20.30677],[85.85764,20.30045],[85.8647,20.30022],[85.86879,20.29828],[85.87171,20.28915],[85.87411,20.28631],[85.87748,20.28525],[85.88462,20.28704],[85.88509,20.29239],[85.88411,20.30266],[85.89012,20.30711],[85.89223,20.31245],[85.88904,20.31462],[85.88465,20.31569],[85.88045,20.31849],[85.88432,20.32526],[85.87695,20.32578],[85.87675,20.32913],[85.87882,20.33182],[85.87146,20.33239],[85.8704,20.33575],[85.87178,20.33966],[85.87627,20.34297],[85.88152,20.34903],[85.88565,20.35748],[85.89022,20.35664],[85.89446,20.3569],[85.8956,20.36214],[85.89922,20.36794],[85.90049,20.36753],[85.90091,20.3546],[85.90189,20.35108],[85.90966,20.34883],[85.91664,20.34565],[85.91889,20.3412],[85.9196,20.33456],[85.92296,20.33153],[85.92897,20.32838],[85.93073,20.32305],[85.9321,20.31521],[85.93177,20.31157],[85.92928,20.31015],[85.92185,20.31638],[85.92095,20.32347],[85.9177,20.32431],[85.91663,20.32046],[85.91443,20.31707],[85.91623,20.30974],[85.92211,20.30652],[85.92729,20.29213],[85.93075,20.28876],[85.9375,20.28699],[85.93931,20.28048],[85.9341,20.27262],[85.93875,20.26761],[85.94265,20.27052],[85.94583,20.26862],[85.95174,20.2682],[85.95408,20.26037],[85.96094,20.2521],[85.97297,20.24396],[85.97596,20.24054],[85.98246,20.23922],[85.99417,20.22865],[85.99987,20.22561],[86.00782,20.22411],[86.01177,20.20868],[86.01538,20.20854],[86.02167,20.18635],[86.02504,20.18445],[86.02868,20.18557],[86.03043,20.18495],[86.03092,20.1826],[86.02615,20.17571],[86.02784,20.1708],[86.03192,20.1699],[86.03485,20.17007],[86.0376,20.1723],[86.03945,20.17513],[86.03932,20.17702],[86.03745,20.17787],[86.04295,20.18009],[86.04572,20.17688],[86.04645,20.17412],[86.0495,20.1721],[86.04894,20.16936],[86.05487,20.16512],[86.05547,20.16252],[86.04892,20.15741],[86.05094,20.14632],[86.0489,20.14304],[86.04485,20.14221],[86.03633,20.14332],[86.04022,20.13796],[86.03984,20.13517],[86.04396,20.13415],[86.05287,20.13392],[86.05934,20.12516],[86.06341,20.12675],[86.06521,20.12546],[86.06765,20.12519],[86.07068,20.12249],[86.07297,20.11889],[86.07336,20.11562],[86.07472,20.11357],[86.07816,20.11201],[86.08268,20.10635]]]}}]}