{"type":"FeatureCollection","features":[{"type":"Feature","properties":{"id":"koraput","name":"Koraput","stateId":"odisha","stateName":"Odisha","censuscode":398,"type":"district"},"geometry":{"type":"Polygon","coordinates":[[[82.22658,19.21901],[82.22861,19.21898],[82.22971,19.22135],[82.23757,19.22307],[82.24031,19.22459],[82.24198,19.22659],[82.24792,19.22301],[82.25058,19.22049],[82.25309,19.21591],[82.25368,19.21484],[82.25913,19.21108],[82.26713,19.20995],[82.27255,19.20445],[82.27954,19.20094],[82.28318,19.2041],[82.28927,19.1985],[82.29456,19.19144],[82.29815,19.19221],[82.30067,19.19823],[82.30999,19.20047],[82.31434,19.20068],[82.32259,19.19724],[82.32279,19.20289],[82.3237,19.20522],[82.32362,19.21183],[82.32494,19.21511],[82.32779,19.21819],[82.3296,19.21784],[82.33242,19.21729],[82.33738,19.21363],[82.33863,19.20755],[82.34101,19.2054],[82.34516,19.20497],[82.35068,19.20543],[82.35844,19.20154],[82.36375,19.20128],[82.36718,19.20398],[82.37385,19.19845],[82.37831,19.19902],[82.38022,19.2034],[82.38849,19.20621],[82.3923,19.20844],[82.39695,19.2091],[82.39983,19.20804],[82.40199,19.20598],[82.40363,19.2044],[82.4055,19.20088],[82.40438,19.19227],[82.4047,19.1885],[82.40907,19.18402],[82.41459,19.18494],[82.41818,19.17992],[82.42312,19.17659],[82.43083,19.1725],[82.43252,19.1716],[82.43618,19.17081],[82.44152,19.1721],[82.44721,19.17687],[82.4558,19.17609],[82.45846,19.17871],[82.46007,19.18235],[82.46221,19.18314],[82.46606,19.18216],[82.46766,19.17984],[82.47062,19.17777],[82.47467,19.17706],[82.47897,19.17956],[82.48485,19.17918],[82.4898,19.1802],[82.4941,19.18243],[82.50136,19.18782],[82.517,19.20252],[82.52048,19.20255],[82.52288,19.20159],[82.52448,19.19955],[82.52726,19.19849],[82.52837,19.20028],[82.53006,19.20303],[82.5323,19.20419],[82.5348,19.20332],[82.5405,19.19808],[82.54414,19.19645],[82.55051,19.1957],[82.55315,19.19713],[82.54877,19.20574],[82.55147,19.20551],[82.55553,19.20359],[82.55952,19.2017],[82.5676,19.19972],[82.57226,19.20075],[82.57366,19.20338],[82.57363,19.21147],[82.57689,19.21031],[82.57777,19.20056],[82.57868,19.19788],[82.58192,19.19553],[82.58494,19.19639],[82.58968,19.20154],[82.59178,19.20031],[82.59308,19.19239],[82.60029,19.19061],[82.60323,19.18781],[82.60622,19.18234],[82.60892,19.18183],[82.61388,19.18349],[82.61628,19.18262],[82.61739,19.17534],[82.61705,19.16258],[82.61812,19.15797],[82.62162,19.15359],[82.6255,19.15022],[82.63141,19.15094],[82.63745,19.14836],[82.64017,19.14895],[82.64273,19.15157],[82.64327,19.15936],[82.63927,19.1722],[82.63933,19.17532],[82.64469,19.17761],[82.65494,19.18762],[82.66236,19.18621],[82.66706,19.18428],[82.66948,19.18452],[82.67957,19.19591],[82.68157,19.19458],[82.68336,19.18766],[82.68683,19.18677],[82.69013,19.18754],[82.69356,19.18978],[82.69665,19.18999],[82.7019,19.18881],[82.70416,19.1883],[82.70721,19.18594],[82.70811,19.17821],[82.71264,19.1774],[82.72387,19.17343],[82.72595,19.17146],[82.72341,19.16994],[82.72384,19.16736],[82.72649,19.16438],[82.72369,19.15975],[82.73171,19.15969],[82.73694,19.15743],[82.74176,19.15987],[82.7417,19.17108],[82.74333,19.17509],[82.74631,19.17898],[82.7515,19.18237],[82.75645,19.18329],[82.75804,19.18088],[82.75886,19.17342],[82.76732,19.17152],[82.77408,19.16625],[82.78106,19.16731],[82.78675,19.17134],[82.78963,19.17064],[82.79295,19.16755],[82.79567,19.16336],[82.79483,19.16053],[82.79257,19.15856],[82.7929,19.15607],[82.80175,19.14947],[82.81076,19.15968],[82.81214,19.16562],[82.81824,19.17038],[82.82164,19.167],[82.81961,19.15777],[82.82451,19.15171],[82.82984,19.14793],[82.83125,19.15057],[82.83039,19.16091],[82.8297,19.1641],[82.82706,19.16699],[82.82636,19.17077],[82.82812,19.17607],[82.82869,19.18019],[82.83514,19.17905],[82.83715,19.18316],[82.83741,19.18562],[82.83623,19.18932],[82.83732,19.19068],[82.84064,19.19245],[82.84264,19.20003],[82.85335,19.19432],[82.85636,19.19518],[82.85664,19.20353],[82.86351,19.2061],[82.87248,19.19963],[82.87314,19.19768],[82.87275,19.19394],[82.87521,19.19159],[82.87885,19.18405],[82.87884,19.184],[82.88438,19.18527],[82.88701,19.18191],[82.89456,19.17763],[82.89689,19.17382],[82.89932,19.17469],[82.89965,19.16752],[82.90495,19.16209],[82.90468,19.1587],[82.91012,19.16015],[82.91305,19.15981],[82.91388,19.15971],[82.91631,19.16031],[82.91887,19.16255],[82.92364,19.16374],[82.93178,19.16028],[82.9346,19.16132],[82.94031,19.16176],[82.94358,19.16087],[82.94721,19.15914],[82.9505,19.15476],[82.96843,19.1612],[82.97266,19.1646],[82.97707,19.17196],[82.97953,19.17365],[82.98238,19.1713],[82.98104,19.16245],[82.98088,19.15946],[82.9808,19.15278],[82.98404,19.13315],[82.98657,19.13402],[82.98884,19.13186],[82.99024,19.12945],[82.99999,19.12493],[83.00672,19.11892],[83.00952,19.11473],[83.01019,19.11031],[83.01025,19.10453],[83.01031,19.09827],[83.01466,19.09433],[83.02578,19.09052],[83.02823,19.08666],[83.03087,19.0805],[83.03033,19.07785],[83.02356,19.07349],[83.02145,19.06958],[83.02149,19.06728],[83.02307,19.06422],[83.02865,19.05897],[83.03179,19.05716],[83.04101,19.05467],[83.04824,19.05406],[83.05387,19.05138],[83.06375,19.04419],[83.06893,19.04666],[83.07102,19.04937],[83.07325,19.05832],[83.0703,19.06472],[83.07341,19.06952],[83.07618,19.08094],[83.08684,19.08669],[83.09113,19.09121],[83.09249,19.09282],[83.10039,19.10872],[83.10433,19.11185],[83.10989,19.1099],[83.1133,19.10267],[83.11925,19.09299],[83.12105,19.09121],[83.12694,19.09118],[83.13086,19.09366],[83.133,19.09821],[83.1343,19.11278],[83.13596,19.12147],[83.13618,19.13048],[83.13757,19.13669],[83.14297,19.13639],[83.14786,19.13454],[83.15317,19.12616],[83.1566,19.12416],[83.16102,19.12324],[83.16349,19.12557],[83.16706,19.13312],[83.17264,19.14062],[83.18087,19.14513],[83.18404,19.14442],[83.18454,19.14083],[83.18242,19.13325],[83.18049,19.12934],[83.17488,19.12505],[83.169,19.12132],[83.17065,19.11743],[83.1751,19.11375],[83.18125,19.11224],[83.18622,19.11434],[83.19475,19.12757],[83.20058,19.13267],[83.20205,19.13788],[83.20044,19.13892],[83.19237,19.14121],[83.18968,19.14595],[83.19177,19.14857],[83.19595,19.14921],[83.20086,19.14874],[83.20465,19.14949],[83.20597,19.15203],[83.20506,19.15462],[83.1994,19.1642],[83.20217,19.16699],[83.20651,19.16644],[83.22079,19.16172],[83.22412,19.16339],[83.22732,19.16782],[83.23165,19.17085],[83.23598,19.17011],[83.24483,19.16459],[83.24972,19.16274],[83.2599,19.16417],[83.25841,19.15832],[83.256,19.1547],[83.252,19.14937],[83.2437,19.14184],[83.24263,19.13736],[83.24493,19.12877],[83.2441,19.12649],[83.23445,19.12294],[83.22884,19.12269],[83.2256,19.12442],[83.22386,19.1284],[83.22364,19.13539],[83.21997,19.13529],[83.20767,19.13032],[83.20557,19.12752],[83.20536,19.12247],[83.19867,19.11747],[83.19625,19.11348],[83.19301,19.11116],[83.17718,19.09158],[83.18014,19.09023],[83.18386,19.09208],[83.18919,19.09288],[83.19078,19.09055],[83.19001,19.08249],[83.19494,19.07485],[83.19572,19.07079],[83.194,19.06376],[83.19131,19.06014],[83.19122,19.05647],[83.19363,19.0521],[83.19403,19.04888],[83.19342,19.04329],[83.19009,19.03345],[83.19023,19.01489],[83.19512,19.00515],[83.20108,19.00006],[83.20248,18.99406],[83.20402,18.97787],[83.20658,18.9757],[83.23963,18.96975],[83.24154,18.97264],[83.2407,18.9878],[83.23971,18.9927],[83.24075,19.00012],[83.23931,19.01387],[83.23881,19.0233],[83.24028,19.02446],[83.24972,19.02738],[83.25708,19.03217],[83.26005,19.03532],[83.26503,19.04566],[83.26697,19.04968],[83.26935,19.05651],[83.26745,19.0617],[83.26358,19.06509],[83.26263,19.06998],[83.26768,19.08293],[83.26923,19.08691],[83.27437,19.10421],[83.27733,19.11419],[83.281,19.12201],[83.28317,19.12321],[83.2846,19.124],[83.28531,19.12439],[83.28587,19.11976],[83.28612,19.11776],[83.28729,19.11443],[83.28825,19.11413],[83.29256,19.11643],[83.29935,19.12142],[83.30256,19.11446],[83.31062,19.11611],[83.31944,19.11335],[83.324,19.1103],[83.3286,19.10093],[83.33216,19.10057],[83.33683,19.10157],[83.34107,19.10138],[83.34105,19.08485],[83.34553,19.07887],[83.34612,19.07537],[83.34603,19.07151],[83.34325,19.06092],[83.34454,19.05465],[83.34658,19.0513],[83.35419,19.05132],[83.36067,19.05061],[83.36363,19.04953],[83.36432,19.04621],[83.36237,19.04167],[83.3536,19.03443],[83.35057,19.02908],[83.34908,19.02369],[83.34844,19.01682],[83.3428,19.0145],[83.34055,19.00764],[83.3385,19.00622],[83.33793,19.00476],[83.3386,19.00037],[83.33905,18.99788],[83.33702,18.99599],[83.33322,18.99662],[83.32427,18.9982],[83.31568,18.99874],[83.31313,18.99746],[83.31218,18.99478],[83.31559,18.99105],[83.31698,18.98816],[83.31746,18.98464],[83.32119,18.97447],[83.32767,18.96919],[83.33342,18.96684],[83.33477,18.96521],[83.3335,18.96081],[83.33386,18.95805],[83.3349,18.95579],[83.33675,18.95472],[83.3389,18.95371],[83.34031,18.95127],[83.34088,18.94724],[83.33899,18.94556],[83.32906,18.94395],[83.32637,18.94153],[83.32674,18.93636],[83.32778,18.93375],[83.32989,18.93119],[83.33688,18.92487],[83.34241,18.92379],[83.34693,18.92417],[83.34922,18.92637],[83.34744,18.93415],[83.34738,18.93984],[83.3477,18.94115],[83.35113,18.9431],[83.35265,18.95317],[83.35286,18.96419],[83.35361,18.96499],[83.36225,18.96236],[83.36672,18.96263],[83.36892,18.96132],[83.36869,18.95604],[83.37175,18.94588],[83.37528,18.94146],[83.38809,18.93129],[83.38751,18.92952],[83.38419,18.92579],[83.3817,18.9248],[83.37886,18.92509],[83.37193,18.93078],[83.37062,18.93804],[83.36309,18.94099],[83.35688,18.94179],[83.35577,18.94009],[83.35446,18.93482],[83.35554,18.92896],[83.35804,18.92391],[83.36438,18.91283],[83.3684,18.9092],[83.37502,18.90839],[83.38471,18.91051],[83.38885,18.90987],[83.39176,18.90775],[83.39111,18.90529],[83.38232,18.9],[83.38035,18.8979],[83.38176,18.89398],[83.38678,18.88837],[83.39355,18.8836],[83.39326,18.88137],[83.39569,18.87914],[83.40214,18.87633],[83.40965,18.87521],[83.41372,18.87348],[83.4192,18.86751],[83.4186,18.86495],[83.41663,18.86263],[83.41469,18.86186],[83.40774,18.86181],[83.40574,18.86076],[83.40482,18.85739],[83.40661,18.84174],[83.4042,18.83891],[83.39439,18.83398],[83.39102,18.83427],[83.38424,18.83015],[83.38073,18.82941],[83.37017,18.84027],[83.36679,18.84017],[83.36139,18.83567],[83.35802,18.82981],[83.35149,18.82597],[83.33615,18.8189],[83.33296,18.81603],[83.33121,18.81278],[83.33048,18.80975],[83.33096,18.80647],[83.3262,18.80404],[83.32198,18.80399],[83.31216,18.80704],[83.30829,18.80608],[83.30005,18.80071],[83.28745,18.79777],[83.28321,18.79354],[83.27788,18.78347],[83.27712,18.77895],[83.27922,18.77552],[83.27968,18.77139],[83.27787,18.76803],[83.27407,18.76522],[83.26733,18.76581],[83.26338,18.76702],[83.25307,18.76628],[83.24753,18.76695],[83.23728,18.7723],[83.23069,18.77408],[83.22738,18.77396],[83.22504,18.7717],[83.22531,18.7671],[83.22987,18.76019],[83.23069,18.7568],[83.23099,18.75616],[83.23034,18.75324],[83.22834,18.75024],[83.22246,18.7454],[83.22055,18.74268],[83.21479,18.72572],[83.21307,18.72409],[83.21133,18.7278],[83.20858,18.72725],[83.20684,18.72762],[83.20574,18.73275],[83.20395,18.7333],[83.19998,18.73078],[83.19722,18.73123],[83.19461,18.73346],[83.19202,18.73367],[83.17479,18.72421],[83.17185,18.72185],[83.17473,18.71508],[83.17566,18.70995],[83.17529,18.70657],[83.17319,18.70092],[83.16459,18.70457],[83.15817,18.70273],[83.15494,18.70089],[83.15028,18.67502],[83.14704,18.66905],[83.14042,18.66927],[83.13106,18.66202],[83.12506,18.65977],[83.11489,18.66327],[83.10592,18.66107],[83.09644,18.66524],[83.09214,18.664],[83.08869,18.66008],[83.08673,18.65513],[83.08665,18.64784],[83.08809,18.64098],[83.09414,18.63021],[83.0933,18.62712],[83.08767,18.61613],[83.08387,18.61178],[83.07902,18.6102],[83.07735,18.6139],[83.07759,18.61699],[83.07489,18.62112],[83.07222,18.62265],[83.06116,18.62346],[83.05776,18.62215],[83.05252,18.61472],[83.05027,18.61039],[83.04921,18.60502],[83.05701,18.60355],[83.06022,18.60137],[83.06207,18.59479],[83.05924,18.59139],[83.05288,18.5865],[83.05016,18.58563],[83.04464,18.58589],[83.04188,18.58404],[83.03927,18.58012],[83.03499,18.57629],[83.03359,18.57264],[83.04184,18.56664],[83.04062,18.55627],[83.04837,18.55328],[83.05326,18.54774],[83.05932,18.54334],[83.06551,18.54312],[83.07961,18.55092],[83.09518,18.54951],[83.09746,18.54638],[83.09664,18.54123],[83.09046,18.53564],[83.08131,18.52322],[83.07697,18.51055],[83.07328,18.50608],[83.06853,18.50294],[83.06336,18.49665],[83.05997,18.48603],[83.05205,18.48065],[83.04521,18.47169],[83.04234,18.46933],[83.03492,18.46549],[83.03275,18.46226],[83.02464,18.45624],[83.02362,18.45299],[83.02626,18.44898],[83.03304,18.44526],[83.04055,18.44479],[83.04551,18.44345],[83.04722,18.44066],[83.0464,18.43534],[83.04152,18.43197],[83.04375,18.42872],[83.04566,18.42759],[83.05082,18.42694],[83.05677,18.4335],[83.06647,18.43771],[83.06803,18.43728],[83.07029,18.42955],[83.06883,18.42791],[83.06866,18.42217],[83.06351,18.4168],[83.06405,18.41306],[83.06726,18.40773],[83.07195,18.40443],[83.07406,18.40189],[83.07472,18.401],[83.07405,18.39814],[83.06444,18.38601],[83.06163,18.38405],[83.04775,18.37883],[83.04521,18.37858],[83.04012,18.38199],[83.032,18.38517],[83.02829,18.39218],[83.02542,18.3932],[83.01985,18.38691],[83.01172,18.38561],[83.00538,18.38355],[83.00112,18.38351],[83.0002,18.38368],[82.99587,18.37819],[82.99437,18.3746],[82.98945,18.37451],[82.98667,18.36969],[82.98471,18.36362],[82.97705,18.36627],[82.96806,18.36592],[82.96031,18.36303],[82.95377,18.35914],[82.94098,18.36003],[82.93586,18.36963],[82.92833,18.36837],[82.92341,18.36503],[82.91994,18.366],[82.91666,18.36805],[82.91104,18.36452],[82.9068,18.36791],[82.90013,18.37546],[82.89318,18.38717],[82.8992,18.40075],[82.89904,18.40711],[82.89661,18.41474],[82.89287,18.42123],[82.88761,18.42311],[82.88533,18.4203],[82.87826,18.41467],[82.87122,18.41638],[82.86423,18.41925],[82.85689,18.42345],[82.85317,18.4182],[82.84804,18.42019],[82.84524,18.42269],[82.84401,18.43263],[82.8384,18.4345],[82.827,18.44172],[82.8266,18.44687],[82.80742,18.44772],[82.80023,18.44146],[82.79537,18.43507],[82.78448,18.42802],[82.78447,18.42386],[82.78672,18.41784],[82.78988,18.41262],[82.78945,18.40783],[82.79566,18.40821],[82.80157,18.40338],[82.79576,18.39861],[82.79504,18.393],[82.79591,18.38659],[82.78926,18.38095],[82.78622,18.37935],[82.79251,18.36262],[82.77975,18.34817],[82.77538,18.33958],[82.77017,18.33631],[82.76682,18.33568],[82.76277,18.33831],[82.75936,18.33682],[82.75898,18.33179],[82.75474,18.32834],[82.74614,18.32839],[82.74112,18.32639],[82.74266,18.32175],[82.73365,18.32006],[82.72559,18.32328],[82.71925,18.32129],[82.71088,18.31693],[82.70884,18.30827],[82.70644,18.30476],[82.70208,18.30581],[82.69868,18.30555],[82.69013,18.30125],[82.68094,18.30066],[82.67329,18.29908],[82.66719,18.29506],[82.66485,18.28726],[82.6606,18.28063],[82.65748,18.27233],[82.65323,18.26558],[82.65596,18.25325],[82.65369,18.24898],[82.64556,18.24347],[82.64005,18.23708],[82.63528,18.23728],[82.62878,18.24488],[82.6218,18.24793],[82.61942,18.25233],[82.6202,18.25499],[82.61787,18.25772],[82.60916,18.26048],[82.60665,18.26292],[82.59758,18.26516],[82.59705,18.27054],[82.59562,18.27419],[82.59156,18.27496],[82.58912,18.2785],[82.59265,18.28161],[82.59683,18.28344],[82.59677,18.28673],[82.59397,18.28934],[82.59594,18.29315],[82.59869,18.29615],[82.5993,18.30031],[82.5962,18.31038],[82.59106,18.30914],[82.58814,18.30938],[82.58479,18.31512],[82.58641,18.31766],[82.59161,18.31972],[82.5943,18.32421],[82.59802,18.32778],[82.60404,18.32422],[82.61049,18.32558],[82.61217,18.32869],[82.60866,18.33906],[82.60592,18.34191],[82.60484,18.34914],[82.60747,18.35069],[82.6162,18.34995],[82.61961,18.35473],[82.61698,18.35949],[82.614,18.36106],[82.60689,18.36225],[82.60594,18.36446],[82.60762,18.3682],[82.60601,18.37081],[82.60918,18.37427],[82.60882,18.37693],[82.60733,18.37983],[82.60195,18.3787],[82.59748,18.38531],[82.58912,18.38702],[82.58565,18.38549],[82.58387,18.38804],[82.5789,18.39234],[82.57352,18.39213],[82.56433,18.39663],[82.56003,18.3952],[82.55775,18.39163],[82.55065,18.39715],[82.54347,18.39765],[82.54061,18.40154],[82.54091,18.40489],[82.54863,18.40994],[82.54886,18.4115],[82.54528,18.41227],[82.54421,18.41638],[82.54798,18.42492],[82.55342,18.4253],[82.55433,18.43217],[82.55851,18.43453],[82.55935,18.44192],[82.56205,18.44567],[82.5584,18.4469],[82.55602,18.4498],[82.55249,18.4493],[82.54663,18.45117],[82.54728,18.44609],[82.54388,18.44465],[82.54137,18.44206],[82.53844,18.4423],[82.53706,18.44833],[82.53766,18.45093],[82.53498,18.45528],[82.53145,18.45373],[82.52948,18.45507],[82.5287,18.45848],[82.53145,18.46073],[82.5244,18.46382],[82.52602,18.46722],[82.53003,18.4697],[82.53577,18.47614],[82.53397,18.47846],[82.52926,18.48028],[82.53578,18.48563],[82.53273,18.49073],[82.52778,18.4904],[82.52831,18.49514],[82.53274,18.49766],[82.53029,18.50485],[82.53215,18.50715],[82.53138,18.51178],[82.52576,18.51348],[82.52252,18.51147],[82.51565,18.5159],[82.51242,18.51331],[82.51026,18.50956],[82.5074,18.50958],[82.50644,18.51386],[82.4897,18.52284],[82.48397,18.53714],[82.48606,18.53927],[82.49354,18.54144],[82.48984,18.5462],[82.48224,18.54455],[82.46166,18.52476],[82.45819,18.51916],[82.44539,18.50505],[82.4374,18.4929],[82.43736,18.49279],[82.43094,18.49394],[82.42741,18.49556],[82.42141,18.49878],[82.4165,18.50372],[82.40694,18.51755],[82.40471,18.52749],[82.41038,18.55392],[82.4141,18.55753],[82.41692,18.56436],[82.42475,18.56121],[82.43141,18.55733],[82.43512,18.56021],[82.43462,18.56426],[82.44068,18.56452],[82.44423,18.56905],[82.44728,18.59937],[82.44153,18.60039],[82.43618,18.60249],[82.42955,18.60352],[82.42392,18.60581],[82.41909,18.60488],[82.41035,18.59502],[82.40048,18.60849],[82.39556,18.61316],[82.38403,18.61426],[82.37763,18.61675],[82.37183,18.62088],[82.36552,18.62328],[82.35895,18.62228],[82.33807,18.60041],[82.33045,18.59961],[82.32614,18.59509],[82.31908,18.58208],[82.31498,18.5782],[82.30718,18.57786],[82.30075,18.57897],[82.2925,18.58246],[82.28136,18.58716],[82.27521,18.58698],[82.26903,18.5868],[82.26501,18.58787],[82.25832,18.59642],[82.25708,18.60258],[82.25438,18.60226],[82.25562,18.61325],[82.24699,18.60934],[82.24317,18.61115],[82.24199,18.62107],[82.23824,18.62159],[82.2329,18.62479],[82.23057,18.63464],[82.23472,18.64146],[82.23246,18.64453],[82.234,18.65001],[82.22526,18.66886],[82.22225,18.66725],[82.21769,18.65934],[82.21178,18.65135],[82.20383,18.65349],[82.20118,18.65078],[82.192,18.63072],[82.17606,18.63307],[82.17557,18.63895],[82.16618,18.64707],[82.16682,18.65119],[82.16325,18.66539],[82.16123,18.66889],[82.15377,18.66001],[82.14837,18.65944],[82.14335,18.67044],[82.13993,18.67361],[82.13544,18.67587],[82.13665,18.67925],[82.14276,18.6821],[82.14745,18.69194],[82.14407,18.69759],[82.1427,18.70229],[82.13358,18.70435],[82.12728,18.70738],[82.13022,18.71101],[82.13054,18.71375],[82.13022,18.72275],[82.11679,18.72671],[82.1111,18.72615],[82.10462,18.73028],[82.09643,18.73682],[82.09292,18.73929],[82.09302,18.73953],[82.09485,18.75374],[82.0895,18.76266],[82.0928,18.76519],[82.09939,18.76299],[82.11382,18.76526],[82.12202,18.7675],[82.13717,18.7645],[82.13626,18.77115],[82.13877,18.77692],[82.1471,18.77638],[82.15356,18.78012],[82.1581,18.78554],[82.15978,18.79063],[82.16731,18.79494],[82.16923,18.79777],[82.16701,18.80188],[82.16239,18.80311],[82.16418,18.80674],[82.16909,18.81037],[82.16993,18.81176],[82.16674,18.81599],[82.16638,18.81825],[82.17301,18.83696],[82.16982,18.8446],[82.17047,18.85182],[82.16608,18.85867],[82.16931,18.86444],[82.17085,18.87218],[82.16624,18.87612],[82.17115,18.87859],[82.17846,18.88424],[82.1788,18.89824],[82.18077,18.90193],[82.1852,18.90354],[82.19342,18.90362],[82.20677,18.9122],[82.2218,18.91879],[82.2329,18.91592],[82.23572,18.91338],[82.23926,18.91191],[82.24232,18.91196],[82.24758,18.91715],[82.23465,19.00049],[82.23303,19.02105],[82.23045,19.02757],[82.20205,19.06657],[82.20479,19.07421],[82.21651,19.08485],[82.21917,19.09207],[82.22005,19.09685],[82.21854,19.09855],[82.20781,19.09847],[82.20647,19.10045],[82.20742,19.1061],[82.20482,19.10741],[82.20943,19.12201],[82.20766,19.12371],[82.19895,19.12254],[82.18415,19.13126],[82.17774,19.11907],[82.17274,19.1209],[82.1677,19.13265],[82.16909,19.13592],[82.17447,19.13831],[82.17606,19.14001],[82.17264,19.14562],[82.17379,19.14929],[82.17782,19.14979],[82.17989,19.14866],[82.1827,19.15138],[82.1803,19.15379],[82.17292,19.15658],[82.17205,19.16076],[82.17551,19.16301],[82.1794,19.16005],[82.18261,19.15889],[82.18475,19.16111],[82.18669,19.165],[82.18614,19.16761],[82.18088,19.17088],[82.17903,19.17438],[82.18307,19.17574],[82.1825,19.17968],[82.17728,19.18278],[82.18127,19.19039],[82.17271,19.19339],[82.16593,19.19922],[82.16359,19.20256],[82.16906,19.21441],[82.16902,19.21445],[82.16908,19.21445],[82.17302,19.21338],[82.17991,19.21484],[82.17956,19.22283],[82.20722,19.22931],[82.20816,19.23334],[82.21336,19.23785],[82.21667,19.23955],[82.21976,19.23886],[82.22194,19.23626],[82.22155,19.23029],[82.22634,19.22186],[82.22658,19.21901]]]}}]}