{"type":"FeatureCollection","features":[{"type":"Feature","properties":{"id":"malkangiri","name":"Malkangiri","stateId":"odisha","stateName":"Odisha","censuscode":399,"type":"district"},"geometry":{"type":"Polygon","coordinates":[[[82.43736,18.49279],[82.43513,18.48477],[82.42861,18.47768],[82.42047,18.47245],[82.40564,18.4594],[82.39057,18.43951],[82.38896,18.43425],[82.38591,18.42981],[82.38005,18.42799],[82.37533,18.42501],[82.37431,18.42084],[82.3696,18.41774],[82.3743,18.41119],[82.38081,18.40596],[82.38321,18.40069],[82.38356,18.39097],[82.38673,18.38604],[82.39276,18.38035],[82.39276,18.37706],[82.38941,18.37463],[82.38714,18.36961],[82.38803,18.36539],[82.38469,18.36124],[82.37782,18.35832],[82.36849,18.35166],[82.3649,18.34155],[82.35857,18.33689],[82.35379,18.3298],[82.34477,18.3281],[82.3428,18.32511],[82.34937,18.31866],[82.35127,18.31536],[82.35713,18.31418],[82.36292,18.31704],[82.36633,18.31627],[82.37361,18.32446],[82.37757,18.32577],[82.38347,18.32603],[82.38885,18.32734],[82.39273,18.32674],[82.39679,18.31927],[82.40138,18.31451],[82.39571,18.3087],[82.39379,18.29719],[82.39062,18.2924],[82.38028,18.28222],[82.37544,18.27906],[82.35203,18.27974],[82.34528,18.27432],[82.34229,18.2604],[82.3402,18.25491],[82.34044,18.24827],[82.33941,18.2415],[82.33864,18.23949],[82.33093,18.23628],[82.32973,18.23061],[82.33516,18.22441],[82.34125,18.22397],[82.32816,18.20923],[82.31453,18.20385],[82.31787,18.19759],[82.31667,18.1895],[82.31874,18.18284],[82.32776,18.17968],[82.33324,18.17469],[82.34148,18.17171],[82.35007,18.17173],[82.35719,18.17014],[82.36743,18.15749],[82.37363,18.14805],[82.37278,18.14325],[82.37025,18.13759],[82.36605,18.13351],[82.35335,18.14298],[82.34674,18.14631],[82.34185,18.15072],[82.34383,18.13562],[82.33878,18.12737],[82.34097,18.11545],[82.34066,18.10255],[82.34317,18.09833],[82.34905,18.09553],[82.35166,18.09095],[82.35213,18.08348],[82.35045,18.07979],[82.35171,18.07632],[82.34546,18.05762],[82.34487,18.05579],[82.3383,18.04894],[82.33344,18.05121],[82.33471,18.05503],[82.33035,18.05868],[82.32817,18.05708],[82.32583,18.05703],[82.32427,18.05519],[82.32154,18.05369],[82.3255,18.04454],[82.32175,18.04329],[82.31816,18.04694],[82.31408,18.04632],[82.31294,18.04812],[82.31487,18.05348],[82.30957,18.05252],[82.30502,18.05462],[82.30133,18.06279],[82.30492,18.06602],[82.30642,18.0704],[82.29628,18.06899],[82.29359,18.06784],[82.29154,18.06422],[82.28746,18.06337],[82.27547,18.05671],[82.27364,18.0515],[82.27314,18.04746],[82.27074,18.04475],[82.2667,18.04332],[82.27476,18.03417],[82.27748,18.02843],[82.27935,18.01918],[82.27908,18.00628],[82.27742,18.00055],[82.27583,17.995],[82.26965,17.99096],[82.26177,17.98874],[82.25028,17.9883],[82.24689,17.99243],[82.24553,18.00051],[82.23936,18.0022],[82.23154,18.00136],[82.22673,18.00265],[82.21632,18.00916],[82.20548,18.01711],[82.19958,18.01736],[82.19364,18.01575],[82.18597,18.01896],[82.1828,18.02388],[82.18548,18.02926],[82.18169,18.03394],[82.17228,18.04993],[82.16887,18.05191],[82.15583,18.04871],[82.15082,18.05184],[82.14091,18.0439],[82.13894,18.04916],[82.13775,18.05692],[82.13561,18.05924],[82.12783,18.05943],[82.12178,18.06604],[82.1191,18.06587],[82.11649,18.06224],[82.10087,18.06095],[82.09767,18.06559],[82.08857,18.06862],[82.08072,18.07378],[82.07839,18.06859],[82.07291,18.06652],[82.06748,18.06658],[82.06951,18.06213],[82.07398,18.05946],[82.07416,18.05708],[82.06824,18.05328],[82.05939,18.05262],[82.05369,18.05373],[82.04115,18.05983],[82.03838,18.06463],[82.03316,18.06597],[82.02529,18.06321],[82.01515,18.05728],[82.0101,18.05289],[82.01325,18.04243],[82.01064,18.03636],[82.01019,18.03179],[82.00001,18.02993],[81.9974,18.02845],[81.99441,18.0224],[81.98899,18.01941],[81.9816,18.01379],[81.97259,18.00798],[81.96567,18.00519],[81.96031,18.00022],[81.94464,17.9922],[81.93324,17.98899],[81.92224,17.98798],[81.91311,17.98157],[81.90782,17.97666],[81.89363,17.97392],[81.88269,17.96792],[81.85537,17.95885],[81.84826,17.95812],[81.84189,17.95907],[81.82834,17.95349],[81.80959,17.9441],[81.80259,17.93768],[81.79788,17.92942],[81.79457,17.92166],[81.791,17.91779],[81.78432,17.91282],[81.7708,17.90464],[81.76686,17.90141],[81.7349,17.88214],[81.71175,17.86917],[81.70785,17.87775],[81.70646,17.88354],[81.69685,17.89277],[81.6918,17.88745],[81.68632,17.88555],[81.67662,17.88637],[81.67162,17.88487],[81.66551,17.88077],[81.66127,17.87615],[81.65763,17.87043],[81.65458,17.86424],[81.65472,17.85485],[81.65136,17.84728],[81.64514,17.84427],[81.64004,17.83843],[81.63257,17.83242],[81.62429,17.83],[81.61973,17.82335],[81.60832,17.82342],[81.60253,17.82708],[81.58344,17.83527],[81.57732,17.83579],[81.57317,17.8336],[81.56251,17.82428],[81.5343,17.81876],[81.51988,17.81443],[81.50489,17.81433],[81.49441,17.81045],[81.48974,17.81068],[81.48727,17.81254],[81.48314,17.81782],[81.48127,17.82569],[81.47865,17.83096],[81.47539,17.8327],[81.46799,17.83247],[81.44611,17.82304],[81.44241,17.8235],[81.43446,17.82901],[81.42795,17.82831],[81.42288,17.82415],[81.42299,17.81784],[81.41779,17.81257],[81.4113,17.81304],[81.40284,17.81582],[81.39351,17.81429],[81.39162,17.82182],[81.3915,17.82824],[81.39295,17.83345],[81.40184,17.84347],[81.40587,17.85128],[81.40656,17.85441],[81.39837,17.86703],[81.39802,17.8697],[81.39898,17.88186],[81.4023,17.89269],[81.40433,17.89511],[81.4075,17.89604],[81.41223,17.89615],[81.42016,17.89297],[81.43162,17.88503],[81.43869,17.88231],[81.44301,17.88254],[81.44575,17.88358],[81.44875,17.88677],[81.45124,17.89279],[81.45217,17.90084],[81.45675,17.91061],[81.45656,17.91473],[81.4547,17.91786],[81.45441,17.92475],[81.45293,17.92966],[81.4537,17.93372],[81.46326,17.95409],[81.47541,17.96242],[81.4817,17.97283],[81.48488,17.97515],[81.48576,17.97751],[81.48512,17.9814],[81.4815,17.99077],[81.48294,17.99616],[81.48612,18.00098],[81.48735,18.01115],[81.48591,18.0274],[81.48229,18.0359],[81.48988,18.05728],[81.50305,18.06536],[81.50355,18.07603],[81.50524,18.08005],[81.51702,18.09972],[81.5191,18.11118],[81.52023,18.13648],[81.52415,18.14717],[81.53008,18.15553],[81.53095,18.16447],[81.52319,18.17934],[81.51724,18.18123],[81.51357,18.18495],[81.51309,18.19094],[81.51711,18.19962],[81.51946,18.20905],[81.53117,18.23445],[81.53406,18.24359],[81.53196,18.2557],[81.53624,18.2661],[81.54775,18.26913],[81.55635,18.26917],[81.57588,18.28026],[81.58229,18.28822],[81.59452,18.2992],[81.59877,18.30037],[81.60166,18.3083],[81.60514,18.30914],[81.61439,18.30647],[81.62414,18.30789],[81.62967,18.31078],[81.6359,18.31194],[81.64041,18.31508],[81.65504,18.31858],[81.66694,18.3182],[81.66865,18.32285],[81.66072,18.33186],[81.65743,18.33805],[81.66107,18.34372],[81.66636,18.34633],[81.68904,18.34811],[81.70749,18.35066],[81.72578,18.35032],[81.74535,18.35136],[81.7532,18.3525],[81.75503,18.36263],[81.76382,18.39333],[81.76862,18.40689],[81.77034,18.41835],[81.77564,18.42182],[81.8058,18.4468],[81.83715,18.47597],[81.85253,18.48856],[81.85782,18.49606],[81.85716,18.5076],[81.86124,18.51431],[81.86615,18.52003],[81.87115,18.52424],[81.879,18.52457],[81.88358,18.52839],[81.88687,18.53326],[81.89079,18.53616],[81.90502,18.53539],[81.90848,18.53951],[81.90614,18.54472],[81.90583,18.54968],[81.90793,18.556],[81.90898,18.56412],[81.91678,18.57118],[81.92457,18.56598],[81.92838,18.56427],[81.93803,18.56498],[81.94444,18.56469],[81.95171,18.56243],[81.9551,18.56614],[81.95176,18.57314],[81.95395,18.58188],[81.96271,18.59367],[81.95705,18.59648],[81.94665,18.59872],[81.93789,18.6033],[81.93438,18.61012],[81.92118,18.61978],[81.90808,18.62643],[81.89653,18.6278],[81.89543,18.63119],[81.89635,18.64415],[81.89815,18.65023],[81.8935,18.65707],[81.9013,18.66063],[81.90296,18.65871],[81.91302,18.65317],[81.91727,18.64778],[81.92368,18.64263],[81.94371,18.63975],[81.95559,18.63569],[81.95648,18.63965],[81.95422,18.64733],[81.95405,18.65321],[81.95552,18.66253],[81.95977,18.66779],[81.96877,18.67453],[81.96322,18.68701],[81.96529,18.69018],[81.96905,18.69265],[81.97199,18.69458],[81.9758,18.69738],[81.98416,18.70192],[82,18.70448],[82.00585,18.70724],[82.01811,18.71738],[82.02372,18.72032],[82.04185,18.7256],[82.04761,18.72386],[82.05755,18.72441],[82.05989,18.71868],[82.06612,18.71935],[82.06723,18.72462],[82.0694,18.72484],[82.07551,18.72395],[82.0821,18.71995],[82.08671,18.71896],[82.08861,18.72959],[82.09292,18.73929],[82.09643,18.73682],[82.10462,18.73028],[82.1111,18.72615],[82.11679,18.72671],[82.13022,18.72275],[82.13054,18.71375],[82.13022,18.71101],[82.12728,18.70738],[82.13358,18.70435],[82.1427,18.70229],[82.14407,18.69759],[82.14745,18.69194],[82.14276,18.6821],[82.13665,18.67925],[82.13544,18.67587],[82.13993,18.67361],[82.14335,18.67044],[82.14837,18.65944],[82.15377,18.66001],[82.16123,18.66889],[82.16325,18.66539],[82.16682,18.65119],[82.16618,18.64707],[82.17557,18.63895],[82.17606,18.63307],[82.192,18.63072],[82.20118,18.65078],[82.20383,18.65349],[82.21178,18.65135],[82.21769,18.65934],[82.22225,18.66725],[82.22526,18.66886],[82.234,18.65001],[82.23246,18.64453],[82.23472,18.64146],[82.23057,18.63464],[82.2329,18.62479],[82.23824,18.62159],[82.24199,18.62107],[82.24317,18.61115],[82.24699,18.60934],[82.25562,18.61325],[82.25438,18.60226],[82.25708,18.60258],[82.25832,18.59642],[82.26501,18.58787],[82.26903,18.5868],[82.27521,18.58698],[82.28136,18.58716],[82.2925,18.58246],[82.30075,18.57897],[82.30718,18.57786],[82.31498,18.5782],[82.31908,18.58208],[82.32614,18.59509],[82.33045,18.59961],[82.33807,18.60041],[82.35895,18.62228],[82.36552,18.62328],[82.37183,18.62088],[82.37763,18.61675],[82.38403,18.61426],[82.39556,18.61316],[82.40048,18.60849],[82.41035,18.59502],[82.41909,18.60488],[82.42392,18.60581],[82.42955,18.60352],[82.43618,18.60249],[82.44153,18.60039],[82.44728,18.59937],[82.44423,18.56905],[82.44068,18.56452],[82.43462,18.56426],[82.43512,18.56021],[82.43141,18.55733],[82.42475,18.56121],[82.41692,18.56436],[82.4141,18.55753],[82.41038,18.55392],[82.40471,18.52749],[82.40694,18.51755],[82.4165,18.50372],[82.42141,18.49878],[82.42741,18.49556],[82.43094,18.49394],[82.43736,18.49279]]]}}]}