{"type":"FeatureCollection","features":[{"type":"Feature","properties":{"id":"nayagarh","name":"Nayagarh","stateId":"odisha","stateName":"Odisha","censuscode":385,"type":"district"},"geometry":{"type":"Polygon","coordinates":[[[84.85163,20.52822],[84.86474,20.51383],[84.88491,20.49912],[84.89443,20.49647],[84.9328,20.49714],[84.9456,20.49227],[84.99998,20.46047],[85.01426,20.44937],[85.02885,20.44447],[85.03662,20.44011],[85.04161,20.43426],[85.05223,20.42811],[85.07316,20.41963],[85.07652,20.4157],[85.08274,20.41522],[85.09366,20.41214],[85.10385,20.41072],[85.11809,20.40618],[85.1217,20.40185],[85.13379,20.39185],[85.13721,20.38798],[85.1488,20.38546],[85.16049,20.37822],[85.17322,20.37807],[85.18566,20.3756],[85.19419,20.37753],[85.2021,20.37808],[85.20801,20.37616],[85.2121,20.3736],[85.22575,20.3716],[85.23521,20.36886],[85.24667,20.36662],[85.25621,20.36572],[85.27072,20.3583],[85.27821,20.35775],[85.34204,20.35743],[85.34877,20.36085],[85.35457,20.36106],[85.36226,20.36443],[85.37136,20.36629],[85.3728,20.35568],[85.37503,20.35544],[85.37404,20.35054],[85.37209,20.34842],[85.36823,20.34878],[85.3612,20.34524],[85.35901,20.34156],[85.35927,20.33597],[85.35498,20.33553],[85.35466,20.33317],[85.35676,20.33016],[85.35385,20.3281],[85.35328,20.32378],[85.35095,20.31992],[85.35227,20.31675],[85.35467,20.31461],[85.35505,20.30671],[85.35616,20.30181],[85.35366,20.29848],[85.35194,20.29329],[85.34956,20.2895],[85.34665,20.28669],[85.34567,20.28416],[85.33588,20.28212],[85.33508,20.28035],[85.33508,20.28034],[85.33503,20.28033],[85.33173,20.27814],[85.33042,20.2747],[85.33128,20.26464],[85.32767,20.25961],[85.32743,20.25373],[85.3306,20.255],[85.33876,20.25425],[85.34282,20.25346],[85.34312,20.25106],[85.34063,20.24507],[85.33466,20.24428],[85.32904,20.24521],[85.32638,20.24209],[85.32417,20.23085],[85.3195,20.23102],[85.31382,20.23269],[85.30872,20.22947],[85.29715,20.22825],[85.28004,20.22644],[85.27421,20.22692],[85.25635,20.22635],[85.25585,20.22113],[85.25666,20.21457],[85.25174,20.21079],[85.24451,20.208],[85.24013,20.20797],[85.23582,20.20996],[85.23018,20.22019],[85.22688,20.22307],[85.21905,20.21708],[85.21627,20.2135],[85.21398,20.20972],[85.21347,20.20155],[85.21189,20.19875],[85.20152,20.19019],[85.20204,20.18364],[85.20397,20.18045],[85.20423,20.17216],[85.20983,20.17086],[85.21324,20.16853],[85.21465,20.16471],[85.21207,20.15845],[85.20587,20.15453],[85.20732,20.15154],[85.21104,20.14975],[85.21591,20.1447],[85.2146,20.14107],[85.21503,20.13701],[85.21445,20.13215],[85.2177,20.12818],[85.22765,20.12617],[85.22954,20.12206],[85.23251,20.11837],[85.24102,20.11448],[85.24482,20.12428],[85.24848,20.12829],[85.25179,20.13082],[85.25605,20.13262],[85.25879,20.13271],[85.26758,20.14326],[85.27111,20.14635],[85.29116,20.15079],[85.29498,20.15369],[85.29782,20.15157],[85.30179,20.15363],[85.31233,20.15409],[85.31484,20.15593],[85.31484,20.15841],[85.31253,20.16641],[85.32087,20.17121],[85.3241,20.17308],[85.33335,20.18011],[85.34774,20.18171],[85.34892,20.18461],[85.3518,20.18828],[85.3584,20.18767],[85.36309,20.18557],[85.36596,20.18313],[85.36884,20.18067],[85.37038,20.17777],[85.37037,20.17271],[85.36748,20.16867],[85.36405,20.16594],[85.36203,20.15682],[85.35798,20.1531],[85.3563,20.14516],[85.36266,20.14575],[85.3754,20.14539],[85.38007,20.15],[85.38328,20.14989],[85.38339,20.15264],[85.38469,20.15582],[85.38698,20.15454],[85.38798,20.15036],[85.39012,20.14789],[85.38866,20.14335],[85.39003,20.13851],[85.39244,20.13548],[85.39559,20.13399],[85.39669,20.13698],[85.39982,20.13981],[85.40599,20.13573],[85.41452,20.12751],[85.41442,20.12282],[85.40674,20.11583],[85.40457,20.11278],[85.40262,20.09602],[85.39992,20.09188],[85.39637,20.08842],[85.39098,20.08982],[85.38523,20.08975],[85.38101,20.0842],[85.38098,20.08107],[85.38353,20.07905],[85.38098,20.0715],[85.38613,20.06157],[85.38707,20.05592],[85.39229,20.04773],[85.39442,20.04747],[85.39431,20.04471],[85.39571,20.0408],[85.3981,20.03989],[85.39699,20.03634],[85.39998,20.03338],[85.40357,20.03316],[85.40751,20.03173],[85.41215,20.0334],[85.4142,20.0313],[85.41365,20.02796],[85.41345,20.02421],[85.41364,20.02212],[85.41513,20.0206],[85.41522,20.0251],[85.41743,20.02695],[85.42218,20.02411],[85.4264,20.02718],[85.4309,20.02784],[85.43515,20.02704],[85.43198,20.01842],[85.42907,20.01393],[85.42634,20.01136],[85.42536,20.00643],[85.42164,20.00353],[85.41824,20.00383],[85.41695,20.00066],[85.41691,19.99496],[85.42385,19.99333],[85.43318,19.99299],[85.44092,19.99427],[85.44173,19.99047],[85.44785,19.98767],[85.4537,19.98102],[85.45727,19.97307],[85.45408,19.96408],[85.44652,19.95525],[85.44098,19.94589],[85.43647,19.94017],[85.43132,19.93805],[85.42498,19.93755],[85.42251,19.93414],[85.42153,19.92691],[85.40384,19.92958],[85.39893,19.93307],[85.39762,19.9391],[85.39531,19.93973],[85.39024,19.93936],[85.38501,19.94001],[85.38454,19.95005],[85.37556,19.95176],[85.36366,19.95816],[85.35744,19.95342],[85.3501,19.94256],[85.34313,19.94115],[85.33462,19.93502],[85.33191,19.92564],[85.32133,19.92611],[85.29311,19.92068],[85.27761,19.91259],[85.27166,19.91703],[85.26788,19.91238],[85.25821,19.90877],[85.24544,19.90545],[85.23421,19.90924],[85.22448,19.91152],[85.21029,19.91183],[85.19689,19.90724],[85.18588,19.90661],[85.18112,19.90926],[85.17675,19.90684],[85.16732,19.9045],[85.15502,19.91578],[85.1383,19.92353],[85.12798,19.93326],[85.09851,19.93051],[85.09096,19.92396],[85.07398,19.92],[85.05619,19.91475],[85.02892,19.90326],[85.02295,19.90484],[85.0169,19.90173],[85.01021,19.89966],[85.00003,19.90304],[84.99392,19.90343],[84.98446,19.90531],[84.9756,19.90487],[84.95956,19.89979],[84.95271,19.90103],[84.95022,19.89946],[84.94639,19.89817],[84.94043,19.89703],[84.94043,19.89707],[84.93453,19.90153],[84.93205,19.90483],[84.92667,19.90432],[84.91163,19.90526],[84.9068,19.91116],[84.90625,19.91422],[84.91796,19.92794],[84.92411,19.94134],[84.91856,19.94983],[84.9148,19.95863],[84.91038,19.97004],[84.90723,19.98157],[84.90215,19.993],[84.8947,19.99459],[84.89114,19.99646],[84.88829,19.99948],[84.87035,19.99881],[84.86305,20.00033],[84.86056,20.00836],[84.85988,20.019],[84.8569,20.03027],[84.83973,20.05077],[84.82794,20.05902],[84.8174,20.06276],[84.81104,20.06951],[84.79929,20.09447],[84.80061,20.09761],[84.8065,20.10078],[84.80875,20.10552],[84.80518,20.11025],[84.80381,20.11444],[84.80963,20.11572],[84.81476,20.11551],[84.82047,20.11742],[84.82217,20.12279],[84.82583,20.14202],[84.82779,20.16189],[84.82623,20.17021],[84.8266,20.18356],[84.83526,20.20831],[84.83486,20.21692],[84.82892,20.22251],[84.82043,20.22332],[84.7923,20.22924],[84.78087,20.23511],[84.77758,20.24292],[84.76955,20.2475],[84.76435,20.24656],[84.7601,20.24298],[84.75258,20.24292],[84.74392,20.24503],[84.73164,20.25222],[84.71532,20.27307],[84.70791,20.27902],[84.69674,20.28144],[84.68835,20.2776],[84.67363,20.27345],[84.66966,20.26678],[84.66751,20.25859],[84.66748,20.24908],[84.66351,20.24298],[84.65605,20.23569],[84.65246,20.23044],[84.6502,20.22352],[84.64815,20.20679],[84.64087,20.19951],[84.6338,20.19376],[84.60719,20.17919],[84.60051,20.17763],[84.59449,20.17985],[84.59011,20.18331],[84.58474,20.1909],[84.57656,20.20585],[84.55381,20.23366],[84.54747,20.24447],[84.54552,20.25256],[84.54783,20.25863],[84.54717,20.26865],[84.54582,20.27485],[84.552,20.28335],[84.55343,20.28753],[84.54649,20.32178],[84.54402,20.32678],[84.53924,20.3252],[84.53288,20.32438],[84.52643,20.32888],[84.52227,20.32816],[84.51647,20.3208],[84.51164,20.32816],[84.51283,20.33239],[84.51301,20.34007],[84.51007,20.33963],[84.50619,20.33483],[84.4894,20.33871],[84.48754,20.34233],[84.48546,20.35094],[84.49184,20.35503],[84.50385,20.36482],[84.5198,20.37247],[84.52091,20.38146],[84.51951,20.38341],[84.5155,20.38515],[84.51245,20.39423],[84.51286,20.39809],[84.5129,20.39852],[84.51859,20.4064],[84.52121,20.40518],[84.52501,20.40585],[84.52779,20.40938],[84.53158,20.41108],[84.53581,20.41226],[84.5404,20.41258],[84.54293,20.4152],[84.54352,20.41916],[84.54697,20.422],[84.55192,20.42283],[84.55527,20.42046],[84.55732,20.4169],[84.56169,20.41292],[84.56996,20.41454],[84.59474,20.42482],[84.60145,20.42214],[84.60567,20.42235],[84.62216,20.43434],[84.63461,20.4306],[84.64082,20.42695],[84.64753,20.42513],[84.66392,20.42555],[84.67055,20.42751],[84.67516,20.42995],[84.67819,20.43479],[84.68372,20.43706],[84.68618,20.43927],[84.69238,20.44222],[84.69246,20.44485],[84.68913,20.44847],[84.6897,20.45048],[84.69259,20.45229],[84.69283,20.45739],[84.6848,20.46295],[84.68757,20.46585],[84.6939,20.4696],[84.69985,20.49884],[84.7049,20.50316],[84.71259,20.50786],[84.71644,20.52102],[84.72064,20.52574],[84.72992,20.52946],[84.73675,20.53407],[84.73919,20.53909],[84.74465,20.54049],[84.76422,20.53222],[84.77094,20.53137],[84.7771,20.53585],[84.78193,20.54843],[84.78837,20.54953],[84.79069,20.55644],[84.7963,20.5603],[84.79351,20.57608],[84.79435,20.58117],[84.80064,20.57923],[84.82549,20.56021],[84.84655,20.5337],[84.85163,20.52822]]]}}]}