{"type":"FeatureCollection","features":[{"type":"Feature","properties":{"id":"rayagada","name":"Rayagada","stateId":"odisha","stateName":"Odisha","censuscode":396,"type":"district"},"geometry":{"type":"Polygon","coordinates":[[[83.49617,19.95958],[83.50576,19.95662],[83.5114,19.95586],[83.5304,19.94953],[83.54398,19.94201],[83.55037,19.93658],[83.55383,19.93248],[83.55783,19.92964],[83.56256,19.92865],[83.56242,19.92468],[83.55949,19.91696],[83.55693,19.91179],[83.55239,19.90557],[83.5448,19.90133],[83.54172,19.89869],[83.534,19.88437],[83.52862,19.87701],[83.528,19.87436],[83.52985,19.86283],[83.52904,19.85765],[83.5313,19.85556],[83.53696,19.8578],[83.539,19.85728],[83.5423,19.84707],[83.54527,19.8428],[83.54843,19.84107],[83.55892,19.83781],[83.56758,19.833],[83.58003,19.8283],[83.589,19.82269],[83.5981,19.82826],[83.60245,19.83291],[83.60441,19.831],[83.60588,19.82726],[83.60823,19.81809],[83.61656,19.81703],[83.61954,19.81501],[83.62158,19.80561],[83.61901,19.79864],[83.61893,19.79461],[83.62235,19.77789],[83.62098,19.77127],[83.6185,19.7669],[83.61271,19.76185],[83.61015,19.75788],[83.61001,19.75482],[83.61084,19.75172],[83.61351,19.74854],[83.61901,19.7461],[83.6256,19.74435],[83.62828,19.7425],[83.633,19.73097],[83.63441,19.71817],[83.64487,19.70362],[83.64553,19.69821],[83.64332,19.6902],[83.63773,19.67847],[83.63751,19.67236],[83.64106,19.66648],[83.64928,19.65792],[83.65522,19.65929],[83.65799,19.66239],[83.66328,19.66404],[83.66964,19.67243],[83.6714,19.67652],[83.67521,19.68019],[83.68953,19.68746],[83.69469,19.68825],[83.70097,19.68621],[83.71038,19.67771],[83.71993,19.67232],[83.72404,19.66838],[83.72894,19.65863],[83.73174,19.65615],[83.73443,19.65447],[83.74053,19.6545],[83.74428,19.658],[83.75082,19.66634],[83.76119,19.67465],[83.7638,19.67948],[83.76648,19.69192],[83.76614,19.69416],[83.76769,19.70833],[83.7691,19.71294],[83.77277,19.71419],[83.78114,19.71179],[83.79266,19.71158],[83.80877,19.71681],[83.81404,19.71696],[83.82115,19.71273],[83.83083,19.70946],[83.83718,19.70903],[83.84354,19.70959],[83.84567,19.70634],[83.8492,19.69787],[83.855,19.68833],[83.85845,19.68452],[83.86417,19.68017],[83.874,19.67408],[83.88077,19.67244],[83.90462,19.67233],[83.91261,19.67408],[83.91624,19.67775],[83.92057,19.67917],[83.92581,19.67644],[83.93272,19.67681],[83.93723,19.67103],[83.9381,19.66866],[83.93034,19.66553],[83.92654,19.66289],[83.92814,19.65983],[83.93548,19.65612],[83.93986,19.64308],[83.9432,19.63505],[83.92722,19.63029],[83.92779,19.62078],[83.93062,19.60872],[83.93517,19.59447],[83.93404,19.58105],[83.93443,19.57143],[83.93612,19.56612],[83.944,19.5499],[83.94716,19.54705],[83.9593,19.54613],[83.96593,19.54264],[83.97603,19.5335],[83.9772,19.53027],[83.97174,19.52332],[83.96965,19.51734],[83.96158,19.50603],[83.96081,19.49986],[83.96789,19.49401],[83.97248,19.49139],[83.97865,19.48549],[83.97632,19.48002],[83.97111,19.47198],[83.96992,19.4672],[83.96956,19.46013],[83.96489,19.45403],[83.96264,19.44863],[83.95324,19.43513],[83.94418,19.41979],[83.94584,19.41104],[83.94704,19.39754],[83.95037,19.39574],[83.96054,19.39547],[83.96431,19.39418],[83.96664,19.38841],[83.96913,19.3858],[83.98507,19.38094],[83.98931,19.3804],[83.99675,19.38318],[83.99938,19.38519],[84.01732,19.37408],[84.01959,19.37021],[84.02268,19.36075],[84.02647,19.35401],[84.03002,19.34535],[84.0291,19.33952],[84.02737,19.3362],[84.02692,19.33089],[84.02845,19.32758],[84.02714,19.32435],[84.01899,19.31518],[84.01665,19.31096],[84.01499,19.3048],[84.01617,19.29617],[84.01854,19.28893],[84.02169,19.28456],[84.01942,19.27662],[84.01594,19.27192],[84.01529,19.26558],[84.01101,19.25143],[84.00548,19.24803],[83.9993,19.24636],[83.99712,19.24473],[83.99444,19.23967],[83.99298,19.23081],[83.99029,19.22471],[83.99046,19.22269],[83.98826,19.21711],[83.98398,19.21299],[83.98298,19.2089],[83.98432,19.20515],[83.98794,19.2007],[83.99319,19.19445],[83.99794,19.19062],[83.99833,19.18797],[83.99623,19.18699],[83.99276,19.18667],[83.99113,19.18449],[83.99104,19.17406],[83.98961,19.16738],[83.98377,19.16355],[83.98459,19.16141],[83.98707,19.15887],[83.99614,19.15099],[83.99924,19.14961],[84.00466,19.14502],[84.00759,19.14558],[84.01085,19.14395],[84.01243,19.1412],[84.01531,19.14217],[84.02432,19.1415],[84.03055,19.13644],[84.03227,19.13095],[84.03024,19.12832],[84.02523,19.1252],[84.02043,19.12388],[84.01494,19.12768],[84.01612,19.11152],[84.01354,19.09343],[84.01886,19.0835],[84.01733,19.07721],[84.0185,19.07326],[84.0213,19.0699],[84.02856,19.06896],[84.03044,19.05765],[84.03016,19.05389],[84.02489,19.05402],[84.02271,19.05186],[84.01891,19.05076],[84.00904,19.05264],[84.00559,19.05874],[84.00183,19.06375],[83.9992,19.06574],[83.99029,19.06907],[83.98294,19.07081],[83.97688,19.06881],[83.97157,19.06548],[83.96533,19.05895],[83.96346,19.05436],[83.96373,19.05114],[83.96778,19.04786],[83.96528,19.04444],[83.96628,19.04266],[83.98089,19.03033],[83.98587,19.02491],[83.98791,19.02038],[83.984,19.01144],[83.97967,19.00745],[83.97425,19.00436],[83.96979,19.00062],[83.96987,18.99639],[83.96727,18.9886],[83.96325,18.98677],[83.95868,18.98603],[83.95205,18.98906],[83.94889,18.99279],[83.94562,19.00063],[83.9389,19.00764],[83.93332,19.01207],[83.92787,19.01393],[83.92274,19.0137],[83.91344,19.01738],[83.90956,19.01265],[83.902,19.00065],[83.89791,18.98352],[83.89353,18.98179],[83.88748,18.98167],[83.88091,18.98291],[83.87529,18.98313],[83.86291,18.9793],[83.85988,18.98376],[83.85273,19.00066],[83.85072,19.00327],[83.84692,19.00619],[83.8428,19.00801],[83.83609,19.00647],[83.83195,19.00862],[83.82825,19.01251],[83.8241,19.01871],[83.82211,19.024],[83.81806,19.02912],[83.81424,19.03132],[83.80787,19.03117],[83.80168,19.02769],[83.79596,19.01607],[83.79469,19.01662],[83.79363,19.01704],[83.79252,19.01734],[83.79141,19.01758],[83.79029,19.01782],[83.78915,19.01804],[83.78802,19.01819],[83.78654,19.01825],[83.78539,19.01813],[83.7843,19.01776],[83.7833,19.0172],[83.7824,19.01649],[83.78159,19.0157],[83.78087,19.01484],[83.78025,19.0139],[83.77971,19.01292],[83.77923,19.01191],[83.77878,19.01089],[83.77832,19.00987],[83.77786,19.00884],[83.77709,19.00803],[83.77615,19.00733],[83.77515,19.00668],[83.77406,19.00621],[83.7729,19.00586],[83.77173,19.00557],[83.77056,19.0053],[83.7694,19.00503],[83.76824,19.00472],[83.76712,19.00431],[83.76612,19.00372],[83.76545,19.00281],[83.76462,19.00216],[83.7635,19.00186],[83.76237,19.00162],[83.76122,19.00141],[83.76009,19.00158],[83.75895,19.00153],[83.75829,19.00067],[83.75692,18.99892],[83.74876,18.99213],[83.74725,18.98671],[83.74941,18.97535],[83.75366,18.97153],[83.7567,18.96676],[83.75605,18.9597],[83.75806,18.95272],[83.7629,18.95039],[83.76917,18.95296],[83.77295,18.94479],[83.77758,18.94136],[83.78484,18.9275],[83.78777,18.91619],[83.7851,18.91285],[83.77899,18.90976],[83.7782,18.91004],[83.77522,18.91081],[83.77055,18.91498],[83.76387,18.9251],[83.75353,18.92657],[83.74986,18.93152],[83.74912,18.93865],[83.74764,18.94242],[83.7442,18.94731],[83.73774,18.96846],[83.73515,18.97436],[83.73398,18.98382],[83.72459,18.99077],[83.71909,18.99318],[83.71647,18.99203],[83.71342,18.99346],[83.71254,19.00021],[83.7124,19.00068],[83.71206,19.0035],[83.7127,19.00765],[83.7171,19.01014],[83.72247,19.01033],[83.72754,19.01249],[83.73091,19.02008],[83.72896,19.0216],[83.72451,19.02262],[83.70752,19.02319],[83.70472,19.02462],[83.70185,19.02927],[83.69207,19.05201],[83.68406,19.0605],[83.67441,19.07247],[83.67029,19.0745],[83.66737,19.07774],[83.66453,19.08293],[83.66578,19.09008],[83.66515,19.09572],[83.65793,19.10802],[83.6556,19.11017],[83.65546,19.11385],[83.65355,19.11663],[83.65239,19.12119],[83.65395,19.12239],[83.65742,19.12272],[83.65839,19.12629],[83.6571,19.12976],[83.65322,19.13098],[83.64097,19.13229],[83.63751,19.13484],[83.6361,19.13934],[83.63785,19.1526],[83.63617,19.15755],[83.63093,19.16142],[83.62882,19.1597],[83.6279,19.15643],[83.63039,19.1525],[83.62679,19.14969],[83.62176,19.14164],[83.61828,19.13876],[83.61289,19.13885],[83.6082,19.13552],[83.60199,19.12816],[83.60135,19.12333],[83.60199,19.11843],[83.60446,19.11306],[83.61209,19.10076],[83.61212,19.09609],[83.60755,19.0927],[83.60091,19.09278],[83.59533,19.09096],[83.59214,19.08763],[83.5899,19.08355],[83.58951,19.0707],[83.58851,19.0631],[83.5865,19.05775],[83.57508,19.0602],[83.56878,19.05832],[83.56538,19.05931],[83.56416,19.06376],[83.56484,19.0679],[83.5681,19.07186],[83.56841,19.07412],[83.56269,19.086],[83.55921,19.08572],[83.55416,19.08171],[83.55258,19.07728],[83.55259,19.06996],[83.55922,19.0583],[83.56003,19.05513],[83.55546,19.0529],[83.55051,19.04479],[83.54353,19.0383],[83.54257,19.03657],[83.54084,19.02735],[83.54086,19.02044],[83.53915,19.01342],[83.52307,19.01289],[83.51236,19.01804],[83.50317,19.01904],[83.5007,19.02596],[83.50039,19.0319],[83.50132,19.03472],[83.50706,19.035],[83.51169,19.03413],[83.51594,19.02991],[83.52143,19.03271],[83.52098,19.03824],[83.51784,19.04408],[83.51756,19.04799],[83.51849,19.05589],[83.51623,19.05779],[83.51392,19.06218],[83.51314,19.07262],[83.51063,19.07251],[83.50811,19.06991],[83.50408,19.06336],[83.50139,19.06095],[83.50026,19.0628],[83.48818,19.07429],[83.48593,19.07804],[83.48474,19.08311],[83.481,19.08555],[83.47978,19.08054],[83.47804,19.07812],[83.47523,19.07767],[83.4716,19.07918],[83.46716,19.07746],[83.46602,19.07493],[83.4669,19.07129],[83.46512,19.06761],[83.46446,19.06392],[83.47104,19.06044],[83.47056,19.05179],[83.47322,19.04405],[83.48513,19.03342],[83.48574,19.02909],[83.48289,19.01945],[83.48443,19.01201],[83.48237,19.00826],[83.47962,19.00693],[83.4753,19.00686],[83.46626,19.01003],[83.46107,19.01038],[83.45796,19.0098],[83.4563,19.00755],[83.456,19.00387],[83.45688,19.00055],[83.45802,18.99038],[83.46551,18.99047],[83.46808,18.98876],[83.46611,18.98046],[83.46674,18.97844],[83.46928,18.97592],[83.47005,18.9716],[83.47008,18.96724],[83.46329,18.95363],[83.45903,18.9525],[83.45466,18.95367],[83.45048,18.95576],[83.44781,18.95823],[83.44429,18.96587],[83.44074,18.96938],[83.42264,18.9858],[83.41659,18.98781],[83.41923,18.99663],[83.41839,19.0005],[83.41665,19.00407],[83.41472,19.00297],[83.41245,19.00108],[83.41013,19.00304],[83.40921,19.00425],[83.40385,19.0037],[83.40077,19.007],[83.39658,19.00787],[83.39253,19.00513],[83.38503,19.00257],[83.37531,19.00147],[83.37015,19.00257],[83.36583,19.01395],[83.3628,19.01719],[83.35417,19.01768],[83.34874,19.01694],[83.34844,19.01682],[83.34908,19.02369],[83.35057,19.02908],[83.3536,19.03443],[83.36237,19.04167],[83.36432,19.04621],[83.36363,19.04953],[83.36067,19.05061],[83.35419,19.05132],[83.34658,19.0513],[83.34454,19.05465],[83.34325,19.06092],[83.34603,19.07151],[83.34612,19.07537],[83.34553,19.07887],[83.34105,19.08485],[83.34107,19.10138],[83.33683,19.10157],[83.33216,19.10057],[83.3286,19.10093],[83.324,19.1103],[83.31944,19.11335],[83.31062,19.11611],[83.30256,19.11446],[83.29935,19.12142],[83.29256,19.11643],[83.28825,19.11413],[83.28729,19.11443],[83.28612,19.11776],[83.28587,19.11976],[83.28531,19.12439],[83.2846,19.124],[83.28317,19.12321],[83.281,19.12201],[83.27733,19.11419],[83.27437,19.10421],[83.26923,19.08691],[83.26768,19.08293],[83.26263,19.06998],[83.26358,19.06509],[83.26745,19.0617],[83.26935,19.05651],[83.26697,19.04968],[83.26503,19.04566],[83.26005,19.03532],[83.25708,19.03217],[83.24972,19.02738],[83.24028,19.02446],[83.23881,19.0233],[83.23931,19.01387],[83.24075,19.00012],[83.23971,18.9927],[83.2407,18.9878],[83.24154,18.97264],[83.23963,18.96975],[83.20658,18.9757],[83.20402,18.97787],[83.20248,18.99406],[83.20108,19.00006],[83.19512,19.00515],[83.19023,19.01489],[83.19009,19.03345],[83.19342,19.04329],[83.19403,19.04888],[83.19363,19.0521],[83.19122,19.05647],[83.19131,19.06014],[83.194,19.06376],[83.19572,19.07079],[83.19494,19.07485],[83.19001,19.08249],[83.19078,19.09055],[83.18919,19.09288],[83.18386,19.09208],[83.18014,19.09023],[83.17718,19.09158],[83.19301,19.11116],[83.19625,19.11348],[83.19867,19.11747],[83.20536,19.12247],[83.20557,19.12752],[83.20767,19.13032],[83.21997,19.13529],[83.22364,19.13539],[83.22386,19.1284],[83.2256,19.12442],[83.22884,19.12269],[83.23445,19.12294],[83.2441,19.12649],[83.24493,19.12877],[83.24263,19.13736],[83.2437,19.14184],[83.252,19.14937],[83.256,19.1547],[83.25841,19.15832],[83.2599,19.16417],[83.24972,19.16274],[83.24483,19.16459],[83.23598,19.17011],[83.23165,19.17085],[83.22732,19.16782],[83.22412,19.16339],[83.22079,19.16172],[83.20651,19.16644],[83.20217,19.16699],[83.1994,19.1642],[83.20506,19.15462],[83.20597,19.15203],[83.20465,19.14949],[83.20086,19.14874],[83.19595,19.14921],[83.19177,19.14857],[83.18968,19.14595],[83.19237,19.14121],[83.20044,19.13892],[83.20205,19.13788],[83.20058,19.13267],[83.19475,19.12757],[83.18622,19.11434],[83.18125,19.11224],[83.1751,19.11375],[83.17065,19.11743],[83.169,19.12132],[83.17488,19.12505],[83.18049,19.12934],[83.18242,19.13325],[83.18454,19.14083],[83.18404,19.14442],[83.18087,19.14513],[83.17264,19.14062],[83.16706,19.13312],[83.16349,19.12557],[83.16102,19.12324],[83.1566,19.12416],[83.15317,19.12616],[83.14786,19.13454],[83.14297,19.13639],[83.13757,19.13669],[83.13618,19.13048],[83.13596,19.12147],[83.1343,19.11278],[83.133,19.09821],[83.13086,19.09366],[83.12694,19.09118],[83.12105,19.09121],[83.11925,19.09299],[83.1133,19.10267],[83.10989,19.1099],[83.10433,19.11185],[83.10039,19.10872],[83.09249,19.09282],[83.09113,19.09121],[83.08684,19.08669],[83.07618,19.08094],[83.07341,19.06952],[83.0703,19.06472],[83.07325,19.05832],[83.07102,19.04937],[83.06893,19.04666],[83.06375,19.04419],[83.05387,19.05138],[83.04824,19.05406],[83.04101,19.05467],[83.03179,19.05716],[83.02865,19.05897],[83.02307,19.06422],[83.02149,19.06728],[83.02145,19.06958],[83.02356,19.07349],[83.03033,19.07785],[83.03087,19.0805],[83.02823,19.08666],[83.02578,19.09052],[83.01466,19.09433],[83.01031,19.09827],[83.01025,19.10453],[83.01019,19.11031],[83.00952,19.11473],[83.00672,19.11892],[82.99999,19.12493],[82.99024,19.12945],[82.98884,19.13186],[82.98657,19.13402],[82.98404,19.13315],[82.9808,19.15278],[82.98088,19.15946],[82.98104,19.16245],[82.98238,19.1713],[82.97953,19.17365],[82.97707,19.17196],[82.97266,19.1646],[82.96843,19.1612],[82.9505,19.15476],[82.94721,19.15914],[82.94358,19.16087],[82.94031,19.16176],[82.9346,19.16132],[82.93178,19.16028],[82.92364,19.16374],[82.91887,19.16255],[82.91631,19.16031],[82.91388,19.15971],[82.91305,19.15981],[82.91012,19.16015],[82.90468,19.1587],[82.90495,19.16209],[82.89965,19.16752],[82.89932,19.17469],[82.89689,19.17382],[82.89456,19.17763],[82.88701,19.18191],[82.88438,19.18527],[82.87884,19.184],[82.87885,19.18405],[82.87886,19.18402],[82.88238,19.18806],[82.8862,19.18991],[82.88863,19.19589],[82.89205,19.20084],[82.89586,19.20985],[82.89672,19.21535],[82.89527,19.21748],[82.90062,19.22556],[82.90227,19.22936],[82.90119,19.23657],[82.89954,19.24008],[82.89489,19.24636],[82.89077,19.2543],[82.89209,19.25889],[82.89912,19.25965],[82.90043,19.26146],[82.90227,19.26574],[82.89974,19.27],[82.9063,19.2756],[82.90912,19.28273],[82.90492,19.28513],[82.91884,19.30458],[82.92307,19.30351],[82.9284,19.29799],[82.93495,19.29823],[82.93951,19.30318],[82.94046,19.30753],[82.93767,19.31104],[82.94528,19.31557],[82.95752,19.32493],[82.95574,19.33525],[82.95753,19.3445],[82.95794,19.35104],[82.95581,19.35677],[82.94958,19.35973],[82.94775,19.36345],[82.9473,19.37398],[82.94971,19.37938],[82.95171,19.38013],[82.953,19.39057],[82.94813,19.39956],[82.94044,19.40192],[82.93823,19.40498],[82.93691,19.40766],[82.93629,19.41622],[82.93318,19.4285],[82.92719,19.42925],[82.9248,19.4323],[82.92457,19.4352],[82.92864,19.44157],[82.93066,19.44352],[82.93437,19.44529],[82.93771,19.44899],[82.93941,19.44974],[82.94273,19.44621],[82.94842,19.44759],[82.95452,19.4471],[82.95658,19.44531],[82.95735,19.43758],[82.96052,19.43707],[82.96375,19.43697],[82.96793,19.44293],[82.97166,19.44316],[82.97383,19.4483],[82.99177,19.44731],[82.99178,19.45269],[82.99652,19.46197],[82.99717,19.46689],[82.99699,19.46983],[82.99566,19.4703],[82.99367,19.4728],[82.99052,19.47477],[82.99377,19.49005],[82.99792,19.49514],[83,19.49818],[83.02309,19.50885],[83.02699,19.51237],[83.0276,19.51675],[83.02623,19.52251],[83.02624,19.52678],[83.02966,19.53318],[83.03603,19.54108],[83.03713,19.55024],[83.03899,19.55255],[83.04265,19.55307],[83.04679,19.55717],[83.05009,19.55826],[83.06591,19.56161],[83.07047,19.56224],[83.07352,19.56177],[83.07711,19.55987],[83.07984,19.55417],[83.08307,19.55192],[83.08522,19.54921],[83.08914,19.54],[83.09231,19.53959],[83.09441,19.54172],[83.09973,19.53913],[83.10371,19.54293],[83.10502,19.54253],[83.10734,19.53971],[83.10727,19.53682],[83.10341,19.52691],[83.10765,19.52525],[83.1145,19.51545],[83.10951,19.50904],[83.11686,19.50531],[83.12151,19.50086],[83.12661,19.50161],[83.12782,19.50577],[83.13065,19.5087],[83.1355,19.50916],[83.14744,19.49994],[83.15346,19.4929],[83.15626,19.48818],[83.15924,19.48547],[83.15809,19.48121],[83.14974,19.47401],[83.15031,19.46888],[83.15518,19.45706],[83.16488,19.44352],[83.16819,19.4321],[83.17248,19.42928],[83.17721,19.42807],[83.183,19.42421],[83.18552,19.42628],[83.1846,19.43538],[83.18532,19.44887],[83.18643,19.45578],[83.18808,19.46385],[83.19292,19.46355],[83.19669,19.46147],[83.20115,19.45565],[83.20364,19.4492],[83.20372,19.44027],[83.21304,19.43767],[83.21614,19.43387],[83.21818,19.43542],[83.2191,19.43969],[83.21816,19.44395],[83.21487,19.44366],[83.21254,19.44533],[83.20778,19.45127],[83.20618,19.45543],[83.20531,19.46349],[83.20962,19.4761],[83.22854,19.50328],[83.23148,19.5053],[83.23496,19.5065],[83.23952,19.50673],[83.24526,19.50587],[83.24814,19.50822],[83.24927,19.51658],[83.25125,19.51882],[83.25639,19.52924],[83.2554,19.53461],[83.25135,19.54129],[83.25268,19.54395],[83.26031,19.54808],[83.26374,19.55194],[83.26521,19.55834],[83.2641,19.56329],[83.25668,19.56699],[83.25605,19.57177],[83.25804,19.57539],[83.2671,19.57729],[83.26986,19.57936],[83.26977,19.58587],[83.26689,19.59866],[83.26756,19.60091],[83.27056,19.60246],[83.2729,19.60246],[83.28396,19.5957],[83.28688,19.59277],[83.28899,19.59437],[83.28965,19.5961],[83.29151,19.59657],[83.30306,19.59148],[83.33315,19.59616],[83.34126,19.59903],[83.35525,19.60535],[83.36269,19.60597],[83.36662,19.60279],[83.3678,19.59968],[83.37109,19.59783],[83.37337,19.59818],[83.37573,19.60335],[83.37537,19.61378],[83.37343,19.62018],[83.37429,19.62409],[83.37296,19.62399],[83.37476,19.62603],[83.37514,19.62995],[83.37898,19.64077],[83.37897,19.65154],[83.38625,19.66703],[83.39371,19.67277],[83.40034,19.67985],[83.40365,19.68186],[83.41512,19.68374],[83.42006,19.68714],[83.43091,19.69811],[83.43327,19.7041],[83.4339,19.70814],[83.43735,19.71418],[83.44674,19.71975],[83.44873,19.7327],[83.4558,19.74],[83.45638,19.7476],[83.45551,19.75308],[83.45679,19.76691],[83.45428,19.78817],[83.45622,19.79157],[83.45959,19.79415],[83.45937,19.79675],[83.45655,19.79698],[83.45115,19.7959],[83.44295,19.80041],[83.44092,19.80219],[83.43909,19.80658],[83.43853,19.81355],[83.43757,19.81465],[83.43564,19.82392],[83.43597,19.82692],[83.43832,19.82951],[83.43985,19.83377],[83.4361,19.83896],[83.42748,19.84445],[83.42625,19.84791],[83.42683,19.85736],[83.43063,19.86951],[83.42928,19.87457],[83.42731,19.87734],[83.42721,19.88086],[83.42232,19.8868],[83.42114,19.88997],[83.41501,19.89938],[83.41359,19.903],[83.41363,19.90912],[83.40902,19.91293],[83.40971,19.91886],[83.40732,19.92041],[83.40861,19.92335],[83.41784,19.93221],[83.4217,19.93398],[83.4267,19.92741],[83.43242,19.93062],[83.44294,19.93319],[83.44436,19.94068],[83.44421,19.9465],[83.44645,19.94868],[83.4475,19.9515],[83.44668,19.95634],[83.4472,19.96273],[83.44885,19.96884],[83.45229,19.97252],[83.45613,19.97182],[83.46314,19.96795],[83.47171,19.96533],[83.47452,19.96377],[83.48143,19.96353],[83.48519,19.9611],[83.49371,19.95941],[83.49617,19.95958]]]}}]}