{"type":"FeatureCollection","features":[{"type":"Feature","properties":{"id":"sambalpur","name":"Sambalpur","stateId":"odisha","stateName":"Odisha","censuscode":372,"type":"district"},"geometry":{"type":"Polygon","coordinates":[[[84.67989,21.7345],[84.67732,21.73408],[84.67461,21.73536],[84.66449,21.73612],[84.65996,21.73646],[84.65209,21.73956],[84.64537,21.7393],[84.63898,21.73692],[84.63834,21.7328],[84.64316,21.72418],[84.63932,21.7045],[84.62774,21.69472],[84.61881,21.69447],[84.59609,21.69745],[84.57875,21.69999],[84.57042,21.69859],[84.56338,21.69153],[84.55923,21.68263],[84.55692,21.68162],[84.54478,21.67672],[84.5378,21.67563],[84.51344,21.68345],[84.50551,21.67936],[84.50162,21.67202],[84.49722,21.65281],[84.49247,21.64651],[84.49148,21.6377],[84.50129,21.62801],[84.51714,21.61916],[84.5276,21.62262],[84.53177,21.61771],[84.53706,21.61405],[84.54149,21.60839],[84.5388,21.6047],[84.54106,21.60159],[84.54657,21.59857],[84.55313,21.59183],[84.56189,21.5889],[84.56964,21.58516],[84.57308,21.57926],[84.575,21.57239],[84.55223,21.57998],[84.54752,21.57995],[84.53997,21.5786],[84.53735,21.57408],[84.54478,21.56962],[84.53895,21.5662],[84.52978,21.5686],[84.52436,21.5625],[84.51788,21.5603],[84.51165,21.55929],[84.50842,21.54557],[84.50468,21.53684],[84.49442,21.52481],[84.4904,21.51646],[84.4852,21.51109],[84.48413,21.50578],[84.49257,21.50498],[84.49962,21.50118],[84.50219,21.49576],[84.49667,21.4927],[84.49232,21.4863],[84.47952,21.48014],[84.48488,21.47565],[84.49139,21.47334],[84.48845,21.46219],[84.49006,21.45441],[84.49406,21.44499],[84.49247,21.4385],[84.48507,21.43219],[84.48224,21.42408],[84.48771,21.41738],[84.49315,21.41243],[84.49,21.40377],[84.48256,21.39295],[84.48669,21.39006],[84.49387,21.38745],[84.49648,21.38323],[84.49529,21.37525],[84.49432,21.3717],[84.49133,21.36764],[84.49459,21.36515],[84.50031,21.36296],[84.50507,21.36401],[84.506,21.36822],[84.50365,21.3716],[84.50202,21.37552],[84.51238,21.37106],[84.51579,21.37125],[84.51888,21.37142],[84.52237,21.37841],[84.53768,21.38071],[84.54918,21.37189],[84.54777,21.35969],[84.55507,21.35192],[84.55801,21.34299],[84.56277,21.33223],[84.56557,21.32591],[84.57021,21.32071],[84.57046,21.31656],[84.56931,21.30904],[84.5716,21.29857],[84.57267,21.27863],[84.57357,21.26168],[84.57001,21.2582],[84.56802,21.25458],[84.57104,21.25108],[84.57646,21.25165],[84.58767,21.25766],[84.59586,21.25821],[84.60185,21.25861],[84.60637,21.26169],[84.61084,21.26864],[84.61437,21.27093],[84.61586,21.2719],[84.63249,21.27553],[84.63545,21.27872],[84.6378,21.28126],[84.63964,21.28599],[84.64377,21.28899],[84.64794,21.29015],[84.64951,21.29581],[84.65437,21.29989],[84.66767,21.30353],[84.66797,21.30647],[84.66472,21.30915],[84.66559,21.31161],[84.6726,21.31526],[84.69194,21.32027],[84.70076,21.31953],[84.70894,21.31762],[84.7173,21.31496],[84.72353,21.30796],[84.73572,21.29993],[84.74127,21.29018],[84.74614,21.28625],[84.75312,21.28188],[84.76257,21.27597],[84.76636,21.27226],[84.76086,21.26406],[84.75837,21.25769],[84.7611,21.25429],[84.77241,21.25218],[84.76899,21.24447],[84.76443,21.24047],[84.76141,21.23311],[84.76129,21.22436],[84.74978,21.23182],[84.74419,21.23199],[84.73846,21.22831],[84.7317,21.22594],[84.72849,21.22402],[84.72461,21.21733],[84.72224,21.2058],[84.72672,21.20493],[84.72659,21.20125],[84.7303,21.198],[84.73534,21.196],[84.74135,21.19664],[84.74451,21.18632],[84.74864,21.18103],[84.74424,21.17326],[84.74481,21.17056],[84.73406,21.16469],[84.73011,21.15959],[84.72766,21.15237],[84.72561,21.14927],[84.71882,21.1506],[84.71119,21.1539],[84.70178,21.15538],[84.69229,21.15351],[84.68562,21.14899],[84.68313,21.14105],[84.68113,21.12852],[84.67688,21.12312],[84.67467,21.11606],[84.67234,21.10729],[84.67082,21.09544],[84.67095,21.08644],[84.67337,21.07919],[84.68424,21.07154],[84.6833,21.06416],[84.67887,21.0641],[84.66857,21.06993],[84.66537,21.07476],[84.66089,21.07664],[84.65605,21.08185],[84.65186,21.08437],[84.63764,21.08284],[84.63312,21.08013],[84.63102,21.08253],[84.59973,21.06652],[84.58932,21.06386],[84.58014,21.06421],[84.57185,21.06578],[84.56256,21.07185],[84.55582,21.07142],[84.55012,21.07435],[84.54482,21.07873],[84.53531,21.08859],[84.52906,21.08754],[84.52242,21.08798],[84.51418,21.08961],[84.50709,21.08826],[84.50256,21.08284],[84.49675,21.08069],[84.48516,21.08251],[84.47933,21.07869],[84.47137,21.07103],[84.45837,21.05615],[84.4514,21.04143],[84.44481,21.04039],[84.4422,21.03455],[84.43036,21.04093],[84.42152,21.03717],[84.41068,21.03072],[84.42885,21.02339],[84.43492,21.01972],[84.43596,21.01421],[84.43036,21.0086],[84.42197,21.00581],[84.41648,21.00156],[84.41188,20.99288],[84.40742,20.97897],[84.40168,20.9739],[84.39265,20.97212],[84.38514,20.9686],[84.37832,20.95861],[84.37259,20.95485],[84.36824,20.95533],[84.36532,20.95907],[84.36065,20.95869],[84.3537,20.95568],[84.34517,20.95532],[84.34037,20.95288],[84.33227,20.95217],[84.32697,20.94819],[84.3186,20.94508],[84.31296,20.93662],[84.30873,20.93761],[84.30451,20.93987],[84.3002,20.93582],[84.29483,20.93241],[84.2883,20.92876],[84.2829,20.92713],[84.27527,20.92384],[84.26577,20.92508],[84.24173,20.92614],[84.23599,20.92886],[84.22786,20.93549],[84.22043,20.94381],[84.21509,20.95375],[84.21282,20.9639],[84.19467,20.97662],[84.17428,20.9739],[84.16883,20.97626],[84.16097,20.97566],[84.15934,20.98002],[84.15635,20.98306],[84.15593,20.98536],[84.15861,20.99227],[84.1557,21.00148],[84.14732,21.01317],[84.14832,21.02755],[84.14799,21.03558],[84.1355,21.03612],[84.11426,21.03874],[84.09059,21.04699],[84.0815,21.04949],[84.07069,21.0509],[84.05518,21.04942],[84.04832,21.04411],[84.04202,21.04989],[84.03539,21.0547],[84.02743,21.0557],[84.02021,21.05522],[84.0177,21.06011],[84.00084,21.07051],[83.99914,21.07108],[83.99583,21.0764],[83.99361,21.0783],[83.99095,21.07923],[83.99168,21.0831],[83.99338,21.08666],[83.99248,21.09049],[83.99334,21.09766],[83.99469,21.10186],[83.99171,21.11299],[83.98822,21.11487],[83.98529,21.11819],[83.98682,21.12973],[83.98604,21.13474],[83.97459,21.13838],[83.96772,21.14295],[83.96132,21.14595],[83.95185,21.14795],[83.95107,21.15222],[83.94206,21.15559],[83.93481,21.15929],[83.90731,21.17679],[83.89586,21.17814],[83.90465,21.2045],[83.91122,21.22343],[83.91281,21.23012],[83.91421,21.23952],[83.91342,21.24599],[83.90502,21.2572],[83.90133,21.26425],[83.89826,21.27133],[83.89377,21.27549],[83.89157,21.28089],[83.89094,21.28947],[83.89154,21.29663],[83.88436,21.29295],[83.8784,21.29375],[83.87605,21.30412],[83.87162,21.31059],[83.87799,21.32331],[83.87839,21.34033],[83.88298,21.34951],[83.88231,21.36343],[83.88034,21.3803],[83.88034,21.38535],[83.88093,21.39007],[83.87288,21.3969],[83.86331,21.39927],[83.85167,21.40453],[83.84957,21.4102],[83.84974,21.416],[83.85513,21.42212],[83.86722,21.422],[83.87123,21.42456],[83.8839,21.42755],[83.88436,21.43306],[83.88679,21.4388],[83.87732,21.45442],[83.87263,21.47553],[83.8656,21.48731],[83.8644,21.4936],[83.85353,21.51325],[83.85059,21.51913],[83.84679,21.52729],[83.83407,21.52964],[83.82104,21.53494],[83.81527,21.53969],[83.80104,21.56481],[83.79986,21.56619],[83.8002,21.5664],[83.80673,21.57434],[83.81065,21.58068],[83.81459,21.59108],[83.82345,21.59417],[83.84623,21.58567],[83.86006,21.58707],[83.86766,21.58457],[83.87354,21.58037],[83.87907,21.57756],[83.88589,21.57499],[83.89422,21.57367],[83.9012,21.57358],[83.91075,21.57521],[83.92042,21.57639],[83.93133,21.57703],[83.94106,21.57668],[83.96413,21.57111],[83.97367,21.57748],[83.9813,21.59533],[83.97387,21.65456],[83.96853,21.69115],[83.97313,21.70318],[83.9732,21.7087],[83.96112,21.71344],[83.95392,21.71748],[83.94891,21.7203],[83.9442,21.7276],[83.95261,21.7353],[83.95343,21.74274],[83.95568,21.74553],[83.96246,21.74803],[83.96661,21.75178],[83.96889,21.75541],[83.96989,21.76569],[83.97247,21.76618],[83.97732,21.76016],[83.98432,21.75703],[83.98742,21.75188],[83.99086,21.75179],[83.99533,21.756],[83.99934,21.76613],[84.00074,21.76856],[84.00547,21.77184],[84.01498,21.78614],[84.01926,21.78437],[84.02292,21.78142],[84.02764,21.78101],[84.02976,21.77626],[84.03079,21.77126],[84.03238,21.76787],[84.03524,21.76203],[84.0387,21.75908],[84.04409,21.76142],[84.04925,21.7657],[84.06351,21.77416],[84.06884,21.77429],[84.07471,21.77303],[84.08341,21.7738],[84.09009,21.77593],[84.10175,21.78325],[84.11524,21.78896],[84.12176,21.7863],[84.13139,21.7853],[84.1386,21.78234],[84.14509,21.77884],[84.15329,21.77917],[84.16213,21.7688],[84.16843,21.76473],[84.17649,21.76058],[84.18062,21.75865],[84.1838,21.75717],[84.19016,21.75421],[84.19855,21.75462],[84.20654,21.76112],[84.21181,21.75931],[84.21631,21.76149],[84.2212,21.76642],[84.23063,21.76523],[84.2344,21.76273],[84.23765,21.76273],[84.24089,21.76402],[84.24503,21.76636],[84.24741,21.76881],[84.25495,21.76418],[84.2612,21.76557],[84.26617,21.76377],[84.26833,21.7603],[84.27282,21.75898],[84.28652,21.762],[84.29099,21.76611],[84.29175,21.77419],[84.296,21.77757],[84.29497,21.78533],[84.29679,21.79578],[84.30098,21.79975],[84.30477,21.80458],[84.31107,21.8101],[84.31407,21.81748],[84.31461,21.82095],[84.31545,21.82637],[84.31962,21.8303],[84.32607,21.83436],[84.32985,21.84143],[84.32719,21.85652],[84.33007,21.86592],[84.33421,21.87483],[84.34745,21.89636],[84.35292,21.90933],[84.35465,21.91402],[84.35561,21.92122],[84.35596,21.92384],[84.35898,21.92854],[84.36513,21.93251],[84.36513,21.94126],[84.37722,21.95445],[84.37562,21.97466],[84.38128,21.9815],[84.38818,21.98701],[84.39329,21.99229],[84.38862,22.00035],[84.39042,22.02157],[84.38922,22.02409],[84.38561,22.02549],[84.37668,22.02731],[84.36938,22.02743],[84.35762,22.03652],[84.35029,22.03268],[84.34572,22.03493],[84.33787,22.03064],[84.32228,22.03707],[84.31447,22.03711],[84.29954,22.03367],[84.29631,22.03155],[84.29196,22.01933],[84.2897,22.01682],[84.27469,22.01365],[84.26966,22.01407],[84.26963,22.01407],[84.26767,22.0426],[84.27359,22.05779],[84.2698,22.06205],[84.26656,22.07642],[84.26993,22.08193],[84.27122,22.09255],[84.26801,22.10426],[84.26968,22.10568],[84.27248,22.10582],[84.27891,22.10783],[84.27923,22.11349],[84.27811,22.12108],[84.29928,22.11646],[84.30319,22.11757],[84.31567,22.12384],[84.32598,22.12442],[84.34034,22.13114],[84.34736,22.13539],[84.36632,22.14905],[84.38412,22.14722],[84.38712,22.14828],[84.40575,22.16239],[84.40974,22.16356],[84.41233,22.16642],[84.42115,22.17227],[84.44254,22.17895],[84.47814,22.18857],[84.48288,22.16551],[84.4855,22.15675],[84.4888,22.15232],[84.49142,22.1435],[84.49655,22.13557],[84.5011,22.11299],[84.50138,22.10598],[84.49693,22.09841],[84.49962,22.0941],[84.5019,22.08731],[84.51287,22.08631],[84.51448,22.08438],[84.51437,22.08074],[84.50974,22.06849],[84.51372,22.05319],[84.53,22.0446],[84.52454,22.03118],[84.51568,22.02598],[84.51095,22.0194],[84.50821,22.01094],[84.51053,22.00027],[84.50968,21.99126],[84.50396,21.978],[84.5036,21.97028],[84.5081,21.96025],[84.5109,21.96081],[84.51291,21.96475],[84.51601,21.96588],[84.51882,21.97335],[84.52465,21.97175],[84.52902,21.97359],[84.53013,21.96554],[84.53005,21.95857],[84.52252,21.95623],[84.52062,21.94519],[84.52199,21.93617],[84.53025,21.92762],[84.52257,21.92292],[84.51277,21.92084],[84.50609,21.91782],[84.50022,21.91843],[84.49685,21.91539],[84.49588,21.90754],[84.49784,21.90353],[84.51524,21.90001],[84.5226,21.89451],[84.52856,21.88842],[84.5314,21.88207],[84.52722,21.87348],[84.53762,21.86359],[84.53884,21.86049],[84.53149,21.85019],[84.52955,21.84199],[84.52655,21.8272],[84.53042,21.82206],[84.52867,21.81322],[84.53353,21.81103],[84.54803,21.80085],[84.56533,21.79155],[84.56894,21.78715],[84.56952,21.7814],[84.5665,21.7752],[84.55696,21.76926],[84.55907,21.76704],[84.56851,21.76767],[84.57347,21.76676],[84.58092,21.76247],[84.59362,21.75772],[84.5978,21.75985],[84.61372,21.76471],[84.61977,21.76392],[84.63447,21.7604],[84.63951,21.76606],[84.64602,21.76729],[84.65476,21.76664],[84.66432,21.76347],[84.67171,21.75923],[84.67771,21.75383],[84.68099,21.74695],[84.67846,21.73623],[84.67989,21.7345]]]}}]}