{"type":"FeatureCollection","features":[{"type":"Feature","properties":{"id":"subarnapur","name":"Subarnapur","stateId":"odisha","stateName":"Odisha","censuscode":392,"type":"district"},"geometry":{"type":"Polygon","coordinates":[[[83.89586,21.17814],[83.90731,21.17679],[83.93481,21.15929],[83.94206,21.15559],[83.95107,21.15222],[83.95185,21.14795],[83.96132,21.14595],[83.96772,21.14295],[83.97459,21.13838],[83.98604,21.13474],[83.98682,21.12973],[83.98529,21.11819],[83.98822,21.11487],[83.99171,21.11299],[83.99469,21.10186],[83.99334,21.09766],[83.99248,21.09049],[83.99338,21.08666],[83.99168,21.0831],[83.99095,21.07923],[83.99361,21.0783],[83.99583,21.0764],[83.99914,21.07108],[84.00084,21.07051],[84.0177,21.06011],[84.02021,21.05522],[84.02743,21.0557],[84.03539,21.0547],[84.04202,21.04989],[84.04832,21.04411],[84.05518,21.04942],[84.07069,21.0509],[84.0815,21.04949],[84.09059,21.04699],[84.11426,21.03874],[84.1355,21.03612],[84.14799,21.03558],[84.14832,21.02755],[84.14732,21.01317],[84.1557,21.00148],[84.15861,20.99227],[84.15593,20.98536],[84.15635,20.98306],[84.15934,20.98002],[84.16097,20.97566],[84.16883,20.97626],[84.17428,20.9739],[84.19467,20.97662],[84.21282,20.9639],[84.21509,20.95375],[84.22043,20.94381],[84.22786,20.93549],[84.23599,20.92886],[84.24173,20.92614],[84.26577,20.92508],[84.27527,20.92384],[84.2829,20.92713],[84.27542,20.9184],[84.27093,20.91434],[84.27347,20.90947],[84.26718,20.90503],[84.26654,20.89924],[84.26884,20.89557],[84.26758,20.88932],[84.25632,20.89489],[84.24758,20.89835],[84.23906,20.90059],[84.22994,20.90245],[84.21787,20.9017],[84.20625,20.89804],[84.19592,20.89344],[84.1822,20.88433],[84.16027,20.87485],[84.15122,20.87003],[84.14095,20.86288],[84.12999,20.85382],[84.1129,20.84561],[84.09645,20.8417],[84.08038,20.83989],[84.0606,20.83487],[84.05499,20.82829],[84.04691,20.82674],[84.03846,20.82718],[84.02708,20.83633],[84.01442,20.83885],[84.00064,20.84015],[83.99126,20.8421],[83.9701,20.8405],[83.95473,20.84014],[83.94723,20.84167],[83.94055,20.84099],[83.93479,20.83881],[83.92295,20.83237],[83.90482,20.81902],[83.89867,20.81607],[83.89097,20.81416],[83.88247,20.81372],[83.86968,20.81435],[83.85189,20.82334],[83.84516,20.82375],[83.83654,20.82161],[83.82941,20.81837],[83.82252,20.81408],[83.80647,20.80806],[83.78816,20.80252],[83.7812,20.79887],[83.77584,20.79401],[83.76336,20.775],[83.76611,20.76602],[83.76626,20.7597],[83.76526,20.75366],[83.76211,20.748],[83.76074,20.74201],[83.7605,20.73176],[83.76198,20.72938],[83.75943,20.71553],[83.7567,20.71128],[83.75475,20.71037],[83.74752,20.70385],[83.7442,20.69748],[83.74129,20.68141],[83.73938,20.67482],[83.72812,20.65635],[83.72469,20.64852],[83.71869,20.64019],[83.71892,20.63345],[83.73321,20.62492],[83.7348,20.62231],[83.73487,20.61235],[83.73149,20.60622],[83.72474,20.59987],[83.71872,20.59575],[83.71277,20.58953],[83.70897,20.58256],[83.69245,20.56635],[83.68907,20.56062],[83.68395,20.5578],[83.67774,20.5566],[83.67311,20.55455],[83.65256,20.54002],[83.64793,20.53743],[83.64202,20.53572],[83.62976,20.53408],[83.62294,20.53117],[83.61142,20.52819],[83.60637,20.52991],[83.60636,20.52994],[83.59821,20.53538],[83.59546,20.54198],[83.59558,20.54998],[83.59703,20.55675],[83.60023,20.56652],[83.60246,20.5695],[83.60314,20.57307],[83.60116,20.5757],[83.60073,20.57782],[83.60187,20.58378],[83.60133,20.58931],[83.59818,20.59895],[83.59586,20.60361],[83.59798,20.60632],[83.60395,20.61022],[83.6072,20.61824],[83.61084,20.61898],[83.62249,20.63056],[83.6239,20.63945],[83.62649,20.64105],[83.62951,20.64447],[83.62839,20.64992],[83.62978,20.65771],[83.63264,20.66233],[83.63743,20.66571],[83.64011,20.67098],[83.64111,20.67528],[83.64026,20.68],[83.64666,20.6849],[83.65092,20.68691],[83.65323,20.68916],[83.65813,20.70026],[83.66165,20.70377],[83.6662,20.70586],[83.66901,20.71168],[83.67057,20.72232],[83.67011,20.72674],[83.67408,20.73253],[83.67777,20.7422],[83.67553,20.74593],[83.67017,20.74671],[83.65871,20.74598],[83.65339,20.7519],[83.65224,20.75626],[83.65922,20.76115],[83.65887,20.76971],[83.65603,20.773],[83.6502,20.77443],[83.64119,20.7706],[83.6377,20.77179],[83.63823,20.78383],[83.63623,20.79685],[83.63141,20.79918],[83.62543,20.79877],[83.61989,20.80047],[83.61763,20.80356],[83.60494,20.80111],[83.59946,20.80115],[83.59754,20.80266],[83.60076,20.80581],[83.60133,20.80883],[83.59819,20.81562],[83.5973,20.82236],[83.61109,20.81835],[83.61618,20.81783],[83.62414,20.81601],[83.62612,20.82065],[83.62595,20.82268],[83.6256,20.82674],[83.61959,20.83231],[83.60658,20.83631],[83.59582,20.84123],[83.58934,20.84289],[83.57556,20.84727],[83.57476,20.84987],[83.57385,20.85283],[83.57553,20.86429],[83.57979,20.87348],[83.58651,20.87958],[83.59468,20.88463],[83.60382,20.89297],[83.61703,20.90001],[83.62086,20.90369],[83.62188,20.90873],[83.62081,20.91262],[83.61782,20.91453],[83.61556,20.91762],[83.61797,20.92515],[83.61721,20.92798],[83.61413,20.92999],[83.61129,20.93337],[83.61744,20.93635],[83.62018,20.94714],[83.62683,20.95361],[83.63135,20.96132],[83.63773,20.9688],[83.63813,20.97266],[83.64176,20.98011],[83.64114,20.98234],[83.63601,20.98486],[83.62584,20.98547],[83.61411,20.98384],[83.59761,20.98155],[83.59179,20.98022],[83.58,20.97544],[83.57529,20.97509],[83.54761,20.98062],[83.53636,20.98494],[83.53293,20.98502],[83.51902,20.98166],[83.51354,20.98198],[83.50936,20.9829],[83.50435,20.98624],[83.49604,20.99426],[83.49244,20.99572],[83.48935,20.99699],[83.47512,20.99622],[83.47094,20.9976],[83.46759,21.0009],[83.46124,21.00914],[83.46003,21.01029],[83.45652,21.01364],[83.45072,21.01914],[83.45015,21.0233],[83.45945,21.0494],[83.45939,21.05456],[83.45929,21.05495],[83.45937,21.055],[83.46236,21.05659],[83.46599,21.06002],[83.47348,21.05639],[83.48091,21.04859],[83.4844,21.04961],[83.49317,21.04187],[83.49596,21.04109],[83.49901,21.04165],[83.50032,21.04361],[83.4997,21.04755],[83.49781,21.05138],[83.49771,21.06178],[83.49973,21.06327],[83.5029,21.06347],[83.51544,21.06043],[83.52023,21.06431],[83.52473,21.0649],[83.52797,21.06642],[83.53153,21.0699],[83.53797,21.06978],[83.54304,21.07175],[83.5521,21.07699],[83.55687,21.08317],[83.56382,21.08514],[83.56892,21.08783],[83.59484,21.10629],[83.59965,21.11058],[83.60802,21.12633],[83.61377,21.129],[83.64083,21.13083],[83.65525,21.13004],[83.66683,21.12627],[83.68135,21.12473],[83.68452,21.12026],[83.68843,21.11711],[83.69453,21.11788],[83.70596,21.12218],[83.71813,21.12106],[83.72223,21.12258],[83.72543,21.1255],[83.72724,21.12865],[83.73516,21.13269],[83.74076,21.13236],[83.7489,21.14066],[83.75372,21.14125],[83.76386,21.14418],[83.77005,21.15497],[83.78223,21.15453],[83.78541,21.15208],[83.78813,21.1463],[83.78662,21.13507],[83.79201,21.1281],[83.79675,21.11959],[83.79968,21.11599],[83.80793,21.10988],[83.81577,21.1082],[83.82275,21.10324],[83.82705,21.10125],[83.8379,21.09869],[83.84177,21.09693],[83.84482,21.09736],[83.85177,21.10624],[83.86001,21.12393],[83.86253,21.13434],[83.87377,21.15788],[83.88751,21.17685],[83.89553,21.17818],[83.89586,21.17814]]]}}]}