{"type":"FeatureCollection","features":[{"type":"Feature","properties":{"id":"sundargarh","name":"Sundargarh","stateId":"odisha","stateName":"Odisha","censuscode":374,"type":"district"},"geometry":{"type":"Polygon","coordinates":[[[84.00952,22.52286],[84.01666,22.5223],[84.02255,22.52369],[84.02616,22.52308],[84.03174,22.51824],[84.04008,22.51411],[84.05764,22.51441],[84.0646,22.5122],[84.06748,22.50709],[84.07369,22.50432],[84.07599,22.50163],[84.07407,22.50021],[84.07863,22.49628],[84.08621,22.49096],[84.09473,22.48706],[84.10687,22.48249],[84.10988,22.48344],[84.11046,22.48147],[84.1091,22.47946],[84.11309,22.47601],[84.12482,22.47359],[84.13255,22.47577],[84.1361,22.47567],[84.13765,22.47219],[84.14188,22.47313],[84.14441,22.46929],[84.14447,22.4594],[84.14218,22.45127],[84.14006,22.44754],[84.14284,22.42294],[84.14926,22.41767],[84.15943,22.40324],[84.1821,22.39127],[84.19036,22.38604],[84.20103,22.3742],[84.23304,22.37653],[84.24734,22.3769],[84.25345,22.37613],[84.2583,22.37285],[84.26776,22.35616],[84.27306,22.35031],[84.28012,22.34758],[84.29188,22.34462],[84.29609,22.33984],[84.32148,22.34146],[84.3256,22.34303],[84.33083,22.34147],[84.34085,22.34546],[84.34524,22.34466],[84.3518,22.34661],[84.36013,22.34767],[84.36594,22.3476],[84.36854,22.3511],[84.37425,22.35213],[84.37883,22.35162],[84.38441,22.34849],[84.39468,22.349],[84.40131,22.34644],[84.42592,22.35338],[84.43289,22.35142],[84.43264,22.35464],[84.43826,22.36261],[84.43399,22.36457],[84.43373,22.36723],[84.44888,22.3756],[84.45465,22.38166],[84.46243,22.37781],[84.47959,22.38529],[84.48438,22.38627],[84.487,22.38983],[84.48251,22.39277],[84.48274,22.39612],[84.48126,22.40429],[84.48346,22.40854],[84.48805,22.40825],[84.50855,22.41788],[84.51261,22.41876],[84.52776,22.41747],[84.53339,22.4226],[84.54741,22.42317],[84.55005,22.41978],[84.57889,22.4256],[84.5958,22.42798],[84.60069,22.43145],[84.60203,22.42755],[84.62037,22.43021],[84.63222,22.43022],[84.63879,22.43128],[84.66829,22.41661],[84.67603,22.41899],[84.67949,22.41761],[84.68818,22.41761],[84.69817,22.41522],[84.718,22.41662],[84.73279,22.41936],[84.7505,22.41749],[84.75933,22.44471],[84.78467,22.44625],[84.79788,22.44555],[84.80787,22.44644],[84.8144,22.44959],[84.81706,22.444],[84.81708,22.43798],[84.81929,22.43437],[84.83502,22.43194],[84.83821,22.4327],[84.83914,22.42917],[84.84233,22.43033],[84.84605,22.43681],[84.84796,22.43765],[84.85438,22.4372],[84.86192,22.43478],[84.87029,22.43732],[84.87781,22.44101],[84.88184,22.44397],[84.8831,22.44603],[84.88437,22.44531],[84.88603,22.435],[84.88806,22.43226],[84.88856,22.42907],[84.88681,22.42042],[84.90034,22.42085],[84.91426,22.42249],[84.92295,22.42623],[84.92641,22.42884],[84.92469,22.43141],[84.92394,22.4372],[84.93187,22.43945],[84.93791,22.44248],[84.94729,22.45025],[84.9538,22.4539],[84.95896,22.4556],[84.95987,22.44836],[84.95896,22.44231],[84.9611,22.44175],[84.96378,22.44471],[84.96676,22.44657],[84.98431,22.45377],[85.00062,22.46111],[85.00699,22.46121],[85.02808,22.46996],[85.03457,22.47105],[85.03804,22.47263],[85.03977,22.47977],[85.04192,22.48014],[85.04379,22.47793],[85.0487,22.47979],[85.0532,22.48024],[85.05787,22.48227],[85.06894,22.48127],[85.07966,22.47575],[85.08008,22.46956],[85.07738,22.46405],[85.07755,22.4588],[85.06694,22.45241],[85.0635,22.44762],[85.0646,22.44265],[85.06936,22.43901],[85.07012,22.42616],[85.07454,22.42103],[85.08104,22.41643],[85.08369,22.41129],[85.08364,22.40602],[85.08711,22.39846],[85.08951,22.38148],[85.0843,22.3722],[85.08147,22.36404],[85.08192,22.35883],[85.08049,22.35166],[85.08633,22.34747],[85.0886,22.34442],[85.09938,22.34419],[85.09688,22.32799],[85.09233,22.32011],[85.09438,22.31723],[85.10155,22.31554],[85.10764,22.31748],[85.11413,22.31837],[85.12043,22.31737],[85.11858,22.30823],[85.12124,22.30356],[85.12085,22.29367],[85.11475,22.29266],[85.11169,22.29432],[85.10498,22.29111],[85.08876,22.28091],[85.07693,22.27535],[85.07585,22.27078],[85.07633,22.26351],[85.08073,22.25417],[85.07848,22.24896],[85.07453,22.24668],[85.07589,22.23392],[85.06895,22.21943],[85.06522,22.20924],[85.05336,22.1891],[85.05602,22.18264],[85.05421,22.17765],[85.04788,22.17401],[85.03966,22.1642],[85.03446,22.16071],[85.03183,22.15735],[85.03262,22.15181],[85.03674,22.14584],[85.03758,22.14075],[85.03379,22.12597],[85.03072,22.12135],[85.03017,22.11541],[85.02591,22.11182],[85.00008,22.10138],[84.9923,22.09601],[84.98992,22.09492],[84.98695,22.09469],[84.98626,22.08812],[84.98749,22.08587],[84.99388,22.0802],[85.00005,22.08068],[85.00877,22.0834],[85.01364,22.08659],[85.01545,22.0941],[85.0205,22.09716],[85.02639,22.10681],[85.03355,22.10458],[85.0376,22.10593],[85.04156,22.11157],[85.05031,22.11414],[85.07585,22.11059],[85.08262,22.10645],[85.09048,22.10393],[85.10182,22.10294],[85.10539,22.09962],[85.10608,22.08806],[85.11085,22.0863],[85.11532,22.08356],[85.11664,22.0794],[85.11966,22.07463],[85.12524,22.07004],[85.13176,22.07268],[85.1414,22.0747],[85.14719,22.0771],[85.15524,22.07621],[85.16189,22.07404],[85.16415,22.07056],[85.16531,22.06551],[85.17009,22.05662],[85.17353,22.05231],[85.17714,22.05182],[85.17614,22.05672],[85.17071,22.06882],[85.17593,22.06969],[85.17879,22.07179],[85.18308,22.07032],[85.18545,22.06839],[85.18978,22.05855],[85.19333,22.05636],[85.19863,22.05478],[85.21705,22.04684],[85.22091,22.04095],[85.22018,22.03085],[85.22012,22.01999],[85.22119,22.01442],[85.22464,22.0104],[85.22842,22.00718],[85.23723,22.00402],[85.23359,22.00069],[85.23665,21.99669],[85.24559,21.9899],[85.25282,21.9828],[85.26263,21.97534],[85.26562,21.97233],[85.27266,21.96176],[85.2749,21.95967],[85.27967,21.95703],[85.28399,21.95513],[85.29954,21.95222],[85.30749,21.95702],[85.31243,21.95849],[85.31647,21.95822],[85.32494,21.95384],[85.3395,21.95126],[85.34748,21.95057],[85.35514,21.94278],[85.36902,21.94],[85.37219,21.93733],[85.3742,21.93379],[85.37725,21.90969],[85.37601,21.90713],[85.36837,21.89776],[85.37047,21.89317],[85.36696,21.88197],[85.3604,21.87881],[85.36089,21.87506],[85.35923,21.86371],[85.36026,21.85194],[85.35679,21.84663],[85.35262,21.84385],[85.34879,21.83386],[85.3459,21.82982],[85.34374,21.82731],[85.33928,21.82468],[85.33527,21.82675],[85.32324,21.82061],[85.31746,21.81872],[85.31187,21.81985],[85.30916,21.8209],[85.30382,21.82606],[85.29744,21.827],[85.29577,21.82819],[85.2944,21.83348],[85.2919,21.83678],[85.28567,21.83593],[85.28209,21.83374],[85.27922,21.8297],[85.27652,21.82567],[85.27437,21.81905],[85.26496,21.81405],[85.25752,21.81196],[85.24408,21.80359],[85.24152,21.80372],[85.24049,21.80676],[85.24028,21.81144],[85.23686,21.81455],[85.23093,21.82213],[85.22998,21.82056],[85.2274,21.80954],[85.21407,21.79066],[85.21217,21.78341],[85.21205,21.77538],[85.21069,21.77264],[85.20741,21.77178],[85.20465,21.76803],[85.20807,21.75013],[85.20972,21.74605],[85.21438,21.74532],[85.21594,21.74379],[85.21555,21.74108],[85.21364,21.73844],[85.20868,21.73541],[85.20183,21.72784],[85.1899,21.71736],[85.18745,21.7105],[85.18699,21.70807],[85.19416,21.69237],[85.1931,21.68674],[85.18864,21.67893],[85.19039,21.66915],[85.19422,21.66314],[85.19147,21.65923],[85.18373,21.6543],[85.18543,21.65122],[85.18511,21.6485],[85.18398,21.64674],[85.19492,21.64318],[85.19728,21.64016],[85.1958,21.63811],[85.19245,21.63695],[85.19084,21.63491],[85.19185,21.62921],[85.19151,21.624],[85.18749,21.62353],[85.17678,21.62046],[85.17082,21.62232],[85.16908,21.62084],[85.1691,21.61611],[85.16718,21.61359],[85.15462,21.60466],[85.15518,21.6008],[85.15053,21.59402],[85.1375,21.59694],[85.1307,21.59768],[85.12022,21.59606],[85.11361,21.59316],[85.10794,21.59272],[85.10276,21.59551],[85.09953,21.59869],[85.09527,21.60126],[85.08815,21.60339],[85.08451,21.60194],[85.077,21.60146],[85.06852,21.59744],[85.05601,21.58976],[85.05199,21.58888],[85.03684,21.60656],[85.04024,21.61805],[85.04029,21.62186],[85.03728,21.62297],[85.03369,21.62567],[85.03142,21.62886],[85.03039,21.63185],[85.03095,21.6351],[85.03336,21.64086],[85.03024,21.64744],[85.03081,21.66321],[85.02773,21.67153],[85.00967,21.67663],[85.0004,21.68199],[84.99381,21.67749],[84.98742,21.68117],[84.98352,21.67588],[84.9802,21.6732],[84.97438,21.67562],[84.9706,21.68088],[84.96404,21.68271],[84.96001,21.68279],[84.95703,21.67797],[84.95726,21.66985],[84.95513,21.6647],[84.94264,21.65984],[84.92612,21.66861],[84.91725,21.6703],[84.90879,21.66894],[84.90186,21.65901],[84.88487,21.65716],[84.86591,21.65235],[84.85938,21.65268],[84.85837,21.65924],[84.84473,21.65789],[84.83311,21.6592],[84.82162,21.66201],[84.81124,21.66282],[84.80047,21.66546],[84.79323,21.66838],[84.78712,21.65246],[84.78588,21.64548],[84.78681,21.64001],[84.79195,21.63863],[84.79521,21.63659],[84.79339,21.63184],[84.78824,21.62919],[84.78257,21.62504],[84.76633,21.62312],[84.75929,21.62466],[84.75565,21.62807],[84.75616,21.64705],[84.75138,21.66116],[84.75172,21.66717],[84.74889,21.66857],[84.74454,21.66645],[84.74487,21.67245],[84.74913,21.68143],[84.74598,21.6841],[84.73979,21.68663],[84.73112,21.69483],[84.72618,21.70278],[84.72382,21.70996],[84.72064,21.71493],[84.71388,21.71036],[84.70666,21.7074],[84.69795,21.70666],[84.69181,21.71356],[84.68505,21.72829],[84.67989,21.7345],[84.67846,21.73623],[84.68099,21.74695],[84.67771,21.75383],[84.67171,21.75923],[84.66432,21.76347],[84.65476,21.76664],[84.64602,21.76729],[84.63951,21.76606],[84.63447,21.7604],[84.61977,21.76392],[84.61372,21.76471],[84.5978,21.75985],[84.59362,21.75772],[84.58092,21.76247],[84.57347,21.76676],[84.56851,21.76767],[84.55907,21.76704],[84.55696,21.76926],[84.5665,21.7752],[84.56952,21.7814],[84.56894,21.78715],[84.56533,21.79155],[84.54803,21.80085],[84.53353,21.81103],[84.52867,21.81322],[84.53042,21.82206],[84.52655,21.8272],[84.52955,21.84199],[84.53149,21.85019],[84.53884,21.86049],[84.53762,21.86359],[84.52722,21.87348],[84.5314,21.88207],[84.52856,21.88842],[84.5226,21.89451],[84.51524,21.90001],[84.49784,21.90353],[84.49588,21.90754],[84.49685,21.91539],[84.50022,21.91843],[84.50609,21.91782],[84.51277,21.92084],[84.52257,21.92292],[84.53025,21.92762],[84.52199,21.93617],[84.52062,21.94519],[84.52252,21.95623],[84.53005,21.95857],[84.53013,21.96554],[84.52902,21.97359],[84.52465,21.97175],[84.51882,21.97335],[84.51601,21.96588],[84.51291,21.96475],[84.5109,21.96081],[84.5081,21.96025],[84.5036,21.97028],[84.50396,21.978],[84.50968,21.99126],[84.51053,22.00027],[84.50821,22.01094],[84.51095,22.0194],[84.51568,22.02598],[84.52454,22.03118],[84.53,22.0446],[84.51372,22.05319],[84.50974,22.06849],[84.51437,22.08074],[84.51448,22.08438],[84.51287,22.08631],[84.5019,22.08731],[84.49962,22.0941],[84.49693,22.09841],[84.50138,22.10598],[84.5011,22.11299],[84.49655,22.13557],[84.49142,22.1435],[84.4888,22.15232],[84.4855,22.15675],[84.48288,22.16551],[84.47814,22.18857],[84.44254,22.17895],[84.42115,22.17227],[84.41233,22.16642],[84.40974,22.16356],[84.40575,22.16239],[84.38712,22.14828],[84.38412,22.14722],[84.36632,22.14905],[84.34736,22.13539],[84.34034,22.13114],[84.32598,22.12442],[84.31567,22.12384],[84.30319,22.11757],[84.29928,22.11646],[84.27811,22.12108],[84.27923,22.11349],[84.27891,22.10783],[84.27248,22.10582],[84.26968,22.10568],[84.26801,22.10426],[84.27122,22.09255],[84.26993,22.08193],[84.26656,22.07642],[84.2698,22.06205],[84.27359,22.05779],[84.26767,22.0426],[84.26963,22.01407],[84.26963,22.01403],[84.26928,22.00743],[84.26525,22.00731],[84.26225,22.00629],[84.25877,22.00029],[84.25596,21.99711],[84.25434,21.99235],[84.24688,21.98274],[84.24229,21.97945],[84.2332,21.97494],[84.22697,21.97527],[84.22242,21.97681],[84.20738,21.97752],[84.20329,21.98404],[84.1992,21.9868],[84.17833,21.99514],[84.17179,21.99903],[84.16494,21.99922],[84.15971,21.99805],[84.15634,21.99806],[84.15425,21.99912],[84.14906,21.99825],[84.14691,21.99873],[84.14552,22.00025],[84.13225,22.00305],[84.12808,22.00393],[84.12453,22.00616],[84.12183,22.01105],[84.12131,22.01106],[84.11621,22.00906],[84.11315,22.00342],[84.11294,22.00026],[84.1121,21.99833],[84.11011,21.99328],[84.10533,21.99737],[84.10192,21.99662],[84.09824,21.99749],[84.09488,21.99905],[84.09364,21.99898],[84.09042,21.99051],[84.07471,21.99112],[84.07289,21.98965],[84.07365,21.98224],[84.08609,21.98059],[84.08771,21.97151],[84.08945,21.96704],[84.08889,21.96092],[84.08182,21.95643],[84.07986,21.95028],[84.07988,21.94284],[84.0787,21.93716],[84.0672,21.93539],[84.06312,21.93871],[84.05996,21.93761],[84.05605,21.93879],[84.05175,21.94372],[84.04928,21.94841],[84.03767,21.94969],[84.02926,21.9528],[84.02008,21.94335],[84.0161,21.93536],[84.00718,21.92358],[84.00072,21.91887],[83.981,21.90628],[83.97839,21.90711],[83.97268,21.91315],[83.96688,21.92594],[83.96126,21.94132],[83.95742,21.94268],[83.93709,21.94464],[83.92776,21.94213],[83.91861,21.94424],[83.90889,21.94374],[83.89676,21.94627],[83.89514,21.9408],[83.88069,21.92393],[83.85438,21.92266],[83.86502,21.91063],[83.86127,21.90859],[83.8555,21.90317],[83.84863,21.90214],[83.84051,21.89488],[83.83491,21.8959],[83.82993,21.87802],[83.8224,21.88535],[83.81656,21.88315],[83.81508,21.87042],[83.81129,21.86124],[83.81438,21.85522],[83.80064,21.86888],[83.78856,21.85802],[83.78255,21.85629],[83.76879,21.83922],[83.76086,21.83612],[83.74583,21.8201],[83.73401,21.80434],[83.73173,21.79496],[83.72499,21.78989],[83.72189,21.78639],[83.71988,21.78653],[83.71477,21.78858],[83.69574,21.79121],[83.69138,21.79337],[83.69084,21.79868],[83.68695,21.80362],[83.6827,21.80642],[83.67602,21.80865],[83.66886,21.80865],[83.65749,21.8122],[83.65157,21.81282],[83.64782,21.81532],[83.64319,21.81663],[83.63137,21.83775],[83.6295,21.84347],[83.62962,21.84831],[83.61964,21.8462],[83.61302,21.84578],[83.61331,21.8391],[83.61252,21.8353],[83.60844,21.83239],[83.60025,21.83124],[83.59289,21.82558],[83.58481,21.82933],[83.58065,21.83241],[83.58202,21.83534],[83.5866,21.83986],[83.59158,21.84633],[83.59304,21.85036],[83.59116,21.85551],[83.57864,21.87456],[83.58041,21.87904],[83.58523,21.88246],[83.58384,21.88881],[83.58701,21.8919],[83.59045,21.89361],[83.59031,21.89672],[83.58864,21.90007],[83.59038,21.90121],[83.59975,21.90339],[83.60643,21.90864],[83.60759,21.91347],[83.59489,21.92872],[83.56049,21.93474],[83.56109,21.93883],[83.56486,21.94646],[83.55663,21.95291],[83.5423,21.96599],[83.54162,21.97872],[83.54258,21.98212],[83.54725,21.98779],[83.54796,21.99568],[83.55054,21.99681],[83.55378,22.00072],[83.55211,22.00183],[83.55386,22.00578],[83.55569,22.00913],[83.54601,22.01678],[83.54114,22.02467],[83.53982,22.03101],[83.5396,22.03642],[83.54129,22.0458],[83.54551,22.05772],[83.55014,22.06173],[83.55811,22.05798],[83.57276,22.05916],[83.59064,22.05733],[83.59306,22.05795],[83.5977,22.06172],[83.60744,22.06789],[83.59632,22.0787],[83.5902,22.08283],[83.58083,22.09112],[83.57196,22.09627],[83.56606,22.09779],[83.5644,22.10227],[83.56632,22.10614],[83.57289,22.11512],[83.57445,22.11598],[83.59967,22.14223],[83.60945,22.15408],[83.61307,22.15985],[83.61897,22.17935],[83.6264,22.19854],[83.63343,22.20804],[83.65286,22.22675],[83.66169,22.22606],[83.66455,22.22696],[83.67173,22.23413],[83.67986,22.23961],[83.68616,22.24279],[83.70011,22.24768],[83.70754,22.24806],[83.72611,22.24545],[83.75274,22.24344],[83.75988,22.24509],[83.76391,22.25259],[83.76887,22.25637],[83.77292,22.25823],[83.77839,22.25956],[83.78179,22.26956],[83.78563,22.27671],[83.7957,22.28245],[83.79788,22.28683],[83.80072,22.28988],[83.8046,22.29169],[83.80474,22.29183],[83.80506,22.29215],[83.81187,22.29208],[83.82307,22.29341],[83.8265,22.29466],[83.82787,22.29824],[83.82719,22.30726],[83.82772,22.31243],[83.82957,22.31781],[83.83226,22.32179],[83.83649,22.32611],[83.85008,22.32852],[83.85464,22.333],[83.86038,22.34096],[83.86806,22.34594],[83.87121,22.34578],[83.87421,22.3432],[83.879,22.34111],[83.904,22.34188],[83.91238,22.35479],[83.92257,22.36184],[83.92632,22.36196],[83.93107,22.35967],[83.93661,22.35847],[83.95027,22.36066],[83.95934,22.36342],[83.96364,22.36327],[83.97399,22.36008],[83.98522,22.36733],[83.99238,22.36859],[83.99997,22.37147],[84.0044,22.37078],[84.00819,22.3719],[84.01122,22.3699],[84.00867,22.37807],[84.00866,22.38259],[84.01599,22.39362],[84.01695,22.3983],[84.01949,22.4011],[84.02144,22.40628],[84.02574,22.40897],[84.02915,22.41235],[84.03298,22.42127],[84.03098,22.42435],[84.03971,22.4282],[84.04701,22.43507],[84.0484,22.44009],[84.0465,22.45086],[84.04855,22.46622],[84.04574,22.47098],[84.04165,22.47201],[84.03083,22.4728],[84.02869,22.47415],[84.02251,22.48449],[84.02003,22.4873],[84.0041,22.4928],[84,22.49602],[83.99747,22.49642],[83.98772,22.50074],[83.98313,22.50422],[83.98087,22.51113],[83.9815,22.51596],[83.9836,22.52038],[83.98713,22.52398],[83.99287,22.52746],[84,22.52936],[84.00133,22.53079],[84.00952,22.52286]]]}}]}