{"type":"FeatureCollection","features":[{"type":"Feature","properties":{"id":"longleng","name":"Longleng","stateId":"nagaland","stateName":"Nagaland","censuscode":268,"type":"district"},"geometry":{"type":"Polygon","coordinates":[[[94.90402,26.43888],[94.90319,26.43684],[94.9036,26.43514],[94.90532,26.43405],[94.90565,26.43163],[94.90547,26.43017],[94.9054,26.42778],[94.9031,26.42744],[94.90099,26.42691],[94.89958,26.42538],[94.89878,26.4238],[94.89899,26.42212],[94.90161,26.42002],[94.90201,26.41814],[94.90303,26.41638],[94.90646,26.41421],[94.90679,26.41178],[94.90864,26.41013],[94.90896,26.40936],[94.90948,26.40857],[94.90993,26.40539],[94.90967,26.4032],[94.91049,26.40146],[94.91164,26.4008],[94.91581,26.39966],[94.91766,26.39801],[94.91821,26.39574],[94.91735,26.39361],[94.91697,26.39217],[94.91831,26.38965],[94.92085,26.38682],[94.92169,26.38526],[94.92082,26.38313],[94.91865,26.38039],[94.91698,26.37834],[94.91656,26.37653],[94.91661,26.37524],[94.91696,26.37299],[94.91693,26.37173],[94.91182,26.37222],[94.91091,26.37332],[94.9105,26.37306],[94.90539,26.37093],[94.90059,26.37138],[94.89236,26.37567],[94.88185,26.37711],[94.87417,26.37784],[94.87023,26.37735],[94.86123,26.37514],[94.8538,26.37804],[94.8468,26.38045],[94.83695,26.38751],[94.82829,26.39227],[94.82367,26.3984],[94.82043,26.40395],[94.81636,26.40652],[94.81298,26.41078],[94.80833,26.41253],[94.80239,26.41572],[94.79761,26.42055],[94.79193,26.4259],[94.78857,26.42621],[94.78422,26.43056],[94.77891,26.435],[94.77449,26.43454],[94.77178,26.44048],[94.76978,26.44417],[94.76799,26.44959],[94.76427,26.45519],[94.76043,26.45555],[94.75476,26.45696],[94.749,26.45751],[94.74149,26.45559],[94.73765,26.45596],[94.73355,26.45416],[94.73133,26.45174],[94.7218,26.44915],[94.71742,26.44912],[94.7095,26.44394],[94.70772,26.4483],[94.70862,26.45292],[94.70332,26.46555],[94.70222,26.46816],[94.69374,26.47572],[94.69262,26.47928],[94.69642,26.49279],[94.69692,26.49948],[94.6943,26.5063],[94.69143,26.52383],[94.70275,26.53829],[94.71403,26.54947],[94.72868,26.56742],[94.73085,26.57389],[94.7312,26.5827],[94.73554,26.58845],[94.73706,26.5952],[94.73448,26.60427],[94.72492,26.61003],[94.72361,26.61479],[94.72469,26.6204],[94.72087,26.62628],[94.71171,26.63642],[94.68959,26.64169],[94.67947,26.64671],[94.67469,26.64682],[94.6704,26.64803],[94.67316,26.65164],[94.69605,26.66341],[94.70036,26.66737],[94.70978,26.67411],[94.7189,26.67967],[94.72019,26.68413],[94.72641,26.69404],[94.72721,26.6967],[94.73771,26.69859],[94.7478,26.69772],[94.75253,26.70158],[94.75213,26.71602],[94.75124,26.72194],[94.74664,26.73],[94.74935,26.73303],[94.75603,26.72845],[94.76004,26.72826],[94.75853,26.73353],[94.75452,26.73861],[94.74038,26.74836],[94.74005,26.75584],[94.73808,26.76363],[94.74203,26.76835],[94.74273,26.77343],[94.74616,26.77692],[94.75109,26.77444],[94.75446,26.76907],[94.75671,26.76702],[94.7597,26.76889],[94.76038,26.77137],[94.7627,26.77468],[94.76867,26.77813],[94.76942,26.78586],[94.77346,26.7897],[94.786,26.7933],[94.79114,26.79616],[94.79908,26.79407],[94.80462,26.79493],[94.80929,26.7947],[94.81436,26.79124],[94.81346,26.78651],[94.81693,26.7832],[94.81844,26.77936],[94.8087,26.7757],[94.80215,26.77453],[94.79726,26.7716],[94.79826,26.76741],[94.80532,26.76886],[94.80732,26.76693],[94.80602,26.76311],[94.8033,26.76113],[94.81086,26.74457],[94.81337,26.74264],[94.81726,26.74291],[94.82086,26.7406],[94.82687,26.73151],[94.8278,26.72801],[94.83534,26.71968],[94.83607,26.71739],[94.82841,26.71086],[94.81611,26.69674],[94.8091,26.69546],[94.80799,26.6917],[94.80552,26.69122],[94.79809,26.69361],[94.78976,26.69819],[94.78517,26.69825],[94.78495,26.69387],[94.79089,26.68709],[94.79176,26.68342],[94.78887,26.67849],[94.7859,26.67558],[94.785,26.67067],[94.78662,26.66718],[94.78652,26.66447],[94.7831,26.65592],[94.78694,26.65504],[94.79068,26.65048],[94.79005,26.64229],[94.79134,26.63471],[94.79534,26.6298],[94.80171,26.63027],[94.80657,26.62877],[94.81273,26.62451],[94.83278,26.62151],[94.83929,26.61932],[94.84705,26.61423],[94.85863,26.61037],[94.86614,26.61195],[94.87572,26.60946],[94.87999,26.60951],[94.88423,26.61196],[94.8903,26.61076],[94.89073,26.60518],[94.89464,26.60297],[94.89127,26.5943],[94.88907,26.59151],[94.89607,26.59222],[94.88496,26.58054],[94.88419,26.57518],[94.88621,26.56967],[94.88893,26.56526],[94.88672,26.56305],[94.89177,26.55976],[94.88801,26.55415],[94.88913,26.55002],[94.89248,26.54561],[94.89419,26.53297],[94.89737,26.52586],[94.89543,26.52227],[94.89509,26.51692],[94.8952,26.51282],[94.89734,26.50778],[94.8991,26.50424],[94.89471,26.49711],[94.89443,26.49233],[94.89756,26.48401],[94.89385,26.47891],[94.89864,26.47043],[94.90205,26.46627],[94.90511,26.45784],[94.90211,26.44532],[94.90305,26.43951],[94.90402,26.43888]]]}}]}