{"type":"FeatureCollection","features":[{"type":"Feature","properties":{"id":"mon","name":"Mon","stateId":"nagaland","stateName":"Nagaland","censuscode":261,"type":"district"},"geometry":{"type":"Polygon","coordinates":[[[95.2373,26.67984],[95.23417,26.67662],[95.23134,26.67116],[95.22772,26.66662],[95.22439,26.66107],[95.21913,26.65421],[95.21449,26.64924],[95.20948,26.64508],[95.20581,26.6427],[95.19664,26.64095],[95.19092,26.64132],[95.18169,26.63687],[95.17395,26.62779],[95.17106,26.62369],[95.15797,26.61686],[95.15437,26.61313],[95.15336,26.60321],[95.1521,26.59547],[95.15181,26.59123],[95.15263,26.58724],[95.15581,26.58041],[95.15408,26.57439],[95.14833,26.56817],[95.14407,26.56147],[95.14397,26.55659],[95.13811,26.55407],[95.13342,26.55596],[95.12639,26.55598],[95.12427,26.55023],[95.12089,26.54658],[95.11437,26.54163],[95.11861,26.53326],[95.12031,26.52808],[95.12031,26.52339],[95.11266,26.51231],[95.10638,26.50908],[95.10302,26.50651],[95.10414,26.5027],[95.10192,26.49678],[95.0955,26.49209],[95.09051,26.48821],[95.08742,26.48428],[95.08352,26.47956],[95.07992,26.47537],[95.07552,26.47128],[95.06788,26.47183],[95.06248,26.47537],[95.05732,26.47688],[95.05426,26.47397],[95.04922,26.47172],[95.04502,26.47323],[95.04275,26.48143],[95.03396,26.4806],[95.02173,26.47697],[95.01968,26.47739],[95.01887,26.48138],[95.00631,26.4781],[94.99986,26.47805],[94.99161,26.48124],[94.98798,26.48149],[94.98627,26.48062],[94.97907,26.47341],[94.96729,26.46668],[94.96365,26.45928],[94.94332,26.44789],[94.94314,26.44779],[94.94125,26.44444],[94.93582,26.43978],[94.91837,26.43397],[94.91156,26.43401],[94.90402,26.43888],[94.90305,26.43951],[94.90211,26.44532],[94.90511,26.45784],[94.90205,26.46627],[94.89864,26.47043],[94.89385,26.47891],[94.89756,26.48401],[94.89443,26.49233],[94.89471,26.49711],[94.8991,26.50424],[94.89734,26.50778],[94.8952,26.51282],[94.89509,26.51692],[94.89543,26.52227],[94.89737,26.52586],[94.89419,26.53297],[94.89248,26.54561],[94.88913,26.55002],[94.88801,26.55415],[94.89177,26.55976],[94.88672,26.56305],[94.88893,26.56526],[94.88621,26.56967],[94.88419,26.57518],[94.88496,26.58054],[94.89607,26.59222],[94.88907,26.59151],[94.89127,26.5943],[94.89464,26.60297],[94.89073,26.60518],[94.8903,26.61076],[94.88423,26.61196],[94.87999,26.60951],[94.87572,26.60946],[94.86614,26.61195],[94.85863,26.61037],[94.84705,26.61423],[94.83929,26.61932],[94.83278,26.62151],[94.81273,26.62451],[94.80657,26.62877],[94.80171,26.63027],[94.79534,26.6298],[94.79134,26.63471],[94.79005,26.64229],[94.79068,26.65048],[94.78694,26.65504],[94.7831,26.65592],[94.78652,26.66447],[94.78662,26.66718],[94.785,26.67067],[94.7859,26.67558],[94.78887,26.67849],[94.79176,26.68342],[94.79089,26.68709],[94.78495,26.69387],[94.78517,26.69825],[94.78976,26.69819],[94.79809,26.69361],[94.80552,26.69122],[94.80799,26.6917],[94.8091,26.69546],[94.81611,26.69674],[94.82841,26.71086],[94.83607,26.71739],[94.83534,26.71968],[94.8278,26.72801],[94.82687,26.73151],[94.82086,26.7406],[94.81726,26.74291],[94.81337,26.74264],[94.81086,26.74457],[94.8033,26.76113],[94.80602,26.76311],[94.80732,26.76693],[94.80532,26.76886],[94.79826,26.76741],[94.79726,26.7716],[94.80215,26.77453],[94.8087,26.7757],[94.81844,26.77936],[94.81693,26.7832],[94.81346,26.78651],[94.81436,26.79124],[94.80929,26.7947],[94.80462,26.79493],[94.79908,26.79407],[94.79114,26.79616],[94.79532,26.79844],[94.80257,26.80076],[94.8057,26.8069],[94.80199,26.80852],[94.79702,26.81325],[94.80708,26.81594],[94.80955,26.81799],[94.81343,26.81947],[94.81543,26.82472],[94.81581,26.83152],[94.8171,26.83619],[94.82148,26.83959],[94.82213,26.84403],[94.82151,26.84919],[94.8267,26.85403],[94.83267,26.85743],[94.83689,26.86317],[94.8392,26.86872],[94.84626,26.8715],[94.85197,26.87605],[94.85378,26.88004],[94.85946,26.88799],[94.86579,26.90163],[94.86908,26.9046],[94.87012,26.90973],[94.88202,26.92142],[94.8867,26.92716],[94.89496,26.93202],[94.90177,26.93502],[94.90929,26.93694],[94.91434,26.93723],[94.91847,26.93979],[94.92425,26.94498],[94.92864,26.94675],[94.93405,26.93316],[94.93898,26.93257],[94.94165,26.93387],[94.94753,26.93479],[94.95772,26.93812],[94.96458,26.93519],[94.96717,26.93072],[94.96835,26.92602],[94.97105,26.92288],[94.97464,26.92211],[94.98003,26.91912],[94.98602,26.91272],[94.98979,26.9123],[94.9924,26.91285],[94.99154,26.91738],[94.99343,26.92062],[94.99983,26.91873],[95.00614,26.91931],[95.0169,26.91877],[95.02168,26.9198],[95.02888,26.92691],[95.03838,26.93287],[95.05497,26.93524],[95.06566,26.94253],[95.08717,26.94705],[95.11037,26.96118],[95.11354,26.96659],[95.11383,26.97186],[95.11727,26.97796],[95.1267,26.98118],[95.13731,26.98783],[95.1431,26.99256],[95.1498,26.99407],[95.15483,27.00028],[95.19587,27.03716],[95.19613,27.02669],[95.19816,27.014],[95.19793,27.00985],[95.20037,27.00037],[95.20009,26.99348],[95.19654,26.99195],[95.19545,26.98411],[95.20067,26.97966],[95.208,26.97879],[95.21018,26.97671],[95.20545,26.97626],[95.20677,26.97291],[95.20899,26.96915],[95.21525,26.96442],[95.21387,26.96217],[95.20904,26.95941],[95.20695,26.95664],[95.20871,26.95479],[95.2136,26.95282],[95.20942,26.9507],[95.21234,26.93736],[95.21458,26.93095],[95.21719,26.92818],[95.22569,26.92839],[95.22944,26.92458],[95.23196,26.92007],[95.23405,26.91452],[95.23404,26.91268],[95.23204,26.91181],[95.23216,26.90875],[95.23417,26.90355],[95.23384,26.8998],[95.23138,26.89224],[95.23389,26.88473],[95.22997,26.87955],[95.21789,26.88078],[95.21289,26.87952],[95.21141,26.87565],[95.20647,26.87179],[95.18455,26.85877],[95.1858,26.85357],[95.19306,26.84508],[95.19561,26.84351],[95.19733,26.84328],[95.19772,26.84542],[95.20423,26.84282],[95.20859,26.84459],[95.2064,26.84015],[95.2005,26.83676],[95.19902,26.83381],[95.20053,26.82676],[95.20255,26.8226],[95.20349,26.81515],[95.20677,26.8055],[95.21503,26.79216],[95.22146,26.78729],[95.22733,26.78608],[95.23486,26.783],[95.24011,26.78287],[95.24157,26.78062],[95.24476,26.78102],[95.24238,26.77819],[95.23451,26.77405],[95.23149,26.7714],[95.23313,26.76741],[95.23301,26.76562],[95.22902,26.76217],[95.22389,26.75542],[95.21991,26.75352],[95.21907,26.74925],[95.22117,26.74521],[95.22076,26.74111],[95.21665,26.73499],[95.21593,26.72899],[95.22795,26.71748],[95.22938,26.71049],[95.23582,26.7058],[95.23339,26.69068],[95.23566,26.68507],[95.23565,26.68178],[95.2373,26.67984]]]}}]}