{"type":"FeatureCollection","features":[{"type":"Feature","properties":{"id":"peren","name":"Peren","stateId":"nagaland","stateName":"Nagaland","censuscode":271,"type":"district"},"geometry":{"type":"Polygon","coordinates":[[[93.93507,25.64648],[93.93688,25.64565],[93.93696,25.64399],[93.93684,25.64281],[93.9357,25.64197],[93.93453,25.64089],[93.93337,25.6398],[93.93337,25.63743],[93.93503,25.63586],[93.93676,25.63499],[93.93866,25.63316],[93.93861,25.63032],[93.9368,25.62811],[93.93457,25.62689],[93.93429,25.62431],[93.93343,25.6213],[93.93002,25.61876],[93.92445,25.61808],[93.92388,25.61766],[93.92114,25.61648],[93.91754,25.61467],[93.91658,25.61309],[93.91638,25.61122],[93.91594,25.60722],[93.9161,25.60626],[93.91659,25.60124],[93.91768,25.59924],[93.91903,25.59722],[93.92662,25.59251],[93.93276,25.59125],[93.93641,25.59115],[93.93895,25.59045],[93.94265,25.58846],[93.94243,25.58397],[93.94416,25.57836],[93.94803,25.57303],[93.94816,25.56946],[93.94705,25.56648],[93.94366,25.55944],[93.94311,25.5586],[93.94291,25.55869],[93.92953,25.56068],[93.91875,25.55935],[93.91653,25.56204],[93.91035,25.56287],[93.90429,25.56278],[93.89967,25.56408],[93.89549,25.56394],[93.89141,25.5638],[93.87783,25.55738],[93.86172,25.55296],[93.8518,25.5541],[93.84371,25.55716],[93.83601,25.55855],[93.83299,25.55686],[93.83277,25.55191],[93.82457,25.55151],[93.82286,25.54367],[93.81923,25.5399],[93.81544,25.54097],[93.80737,25.54006],[93.77904,25.53364],[93.77138,25.53641],[93.77019,25.53589],[93.77053,25.53163],[93.7685,25.52632],[93.76771,25.5209],[93.76885,25.51331],[93.76382,25.51109],[93.76531,25.4955],[93.76886,25.49235],[93.77289,25.49342],[93.78795,25.50204],[93.79674,25.49992],[93.80351,25.49455],[93.80707,25.49106],[93.81332,25.48022],[93.80842,25.46108],[93.80465,25.45892],[93.80184,25.45591],[93.79777,25.44943],[93.79315,25.44417],[93.7896,25.4389],[93.7875,25.4314],[93.78387,25.42746],[93.77993,25.42502],[93.78047,25.42024],[93.76382,25.41369],[93.75975,25.40968],[93.74608,25.4013],[93.7414,25.3955],[93.73948,25.39077],[93.74072,25.38503],[93.73918,25.38001],[93.73039,25.37597],[93.7225,25.3712],[93.71838,25.36598],[93.71744,25.35722],[93.71098,25.35372],[93.69939,25.35507],[93.69219,25.35727],[93.69085,25.34309],[93.6865,25.32688],[93.68331,25.32531],[93.67148,25.32441],[93.67334,25.31296],[93.67231,25.3072],[93.66548,25.30399],[93.66412,25.29994],[93.66498,25.29413],[93.65098,25.27474],[93.65072,25.26938],[93.64925,25.26483],[93.64291,25.26161],[93.64246,25.25573],[93.63744,25.24614],[93.63121,25.23866],[93.62825,25.2315],[93.62048,25.22067],[93.6119,25.20196],[93.60733,25.19783],[93.60361,25.20011],[93.60035,25.19818],[93.59644,25.2001],[93.59236,25.19972],[93.5922,25.20248],[93.59418,25.20694],[93.59133,25.20973],[93.58964,25.21577],[93.58741,25.21799],[93.58522,25.21814],[93.58103,25.22185],[93.57758,25.22154],[93.57423,25.2234],[93.57015,25.22832],[93.5695,25.23148],[93.56255,25.24248],[93.55415,25.24644],[93.54662,25.24442],[93.54067,25.24131],[93.52882,25.24432],[93.52007,25.24476],[93.51589,25.24075],[93.50791,25.23971],[93.50464,25.24013],[93.50367,25.2494],[93.51031,25.27162],[93.5039,25.27179],[93.49443,25.27476],[93.4871,25.27198],[93.48293,25.2727],[93.47631,25.27511],[93.47216,25.28152],[93.47423,25.28851],[93.47473,25.29577],[93.47363,25.30537],[93.4676,25.30992],[93.46276,25.31598],[93.45635,25.32139],[93.45762,25.32619],[93.46159,25.33272],[93.45758,25.33706],[93.45156,25.34035],[93.45342,25.34427],[93.46201,25.355],[93.46594,25.35786],[93.47792,25.37599],[93.47699,25.38213],[93.47364,25.38924],[93.46693,25.39921],[93.46301,25.40712],[93.46516,25.41203],[93.4649,25.41956],[93.46165,25.43088],[93.45667,25.43814],[93.44341,25.44683],[93.4348,25.45101],[93.42735,25.45151],[93.42188,25.45106],[93.41698,25.44905],[93.4028,25.45548],[93.39581,25.46043],[93.39035,25.46549],[93.39181,25.47052],[93.39095,25.47437],[93.39123,25.47777],[93.39043,25.48196],[93.38704,25.48665],[93.38631,25.4897],[93.38299,25.49392],[93.37179,25.49751],[93.37113,25.50153],[93.36687,25.50425],[93.36502,25.50653],[93.36682,25.50926],[93.3647,25.51257],[93.36006,25.51673],[93.35759,25.52408],[93.35421,25.52761],[93.3502,25.53011],[93.35237,25.53398],[93.34926,25.53476],[93.34463,25.53252],[93.34045,25.53374],[93.33582,25.54187],[93.33183,25.54328],[93.33345,25.54549],[93.34133,25.55132],[93.34555,25.55757],[93.34838,25.55968],[93.35446,25.56164],[93.36077,25.55686],[93.36423,25.55707],[93.36603,25.55967],[93.36522,25.56618],[93.36949,25.56667],[93.37348,25.56556],[93.37604,25.56744],[93.3769,25.57014],[93.37655,25.57371],[93.38275,25.57256],[93.3848,25.57431],[93.38509,25.57759],[93.38317,25.57919],[93.38246,25.58114],[93.39068,25.58548],[93.39012,25.59111],[93.40026,25.59265],[93.40689,25.59283],[93.4093,25.59676],[93.40971,25.60045],[93.40728,25.60285],[93.4077,25.60579],[93.40912,25.60805],[93.41232,25.61004],[93.41685,25.61123],[93.41494,25.613],[93.41837,25.6174],[93.42252,25.61859],[93.4276,25.6278],[93.4311,25.62552],[93.43424,25.62619],[93.43915,25.62865],[93.43925,25.63072],[93.44159,25.63109],[93.44446,25.63434],[93.44685,25.63511],[93.44997,25.63122],[93.45204,25.63378],[93.45939,25.62941],[93.46199,25.62966],[93.46126,25.63283],[93.45865,25.6347],[93.45719,25.63688],[93.46076,25.63783],[93.46561,25.64046],[93.46857,25.64003],[93.47482,25.64054],[93.47598,25.64424],[93.48339,25.642],[93.48364,25.64799],[93.48725,25.6467],[93.49076,25.64967],[93.49024,25.6522],[93.49396,25.65148],[93.49996,25.65274],[93.50211,25.65823],[93.50832,25.66301],[93.51023,25.66722],[93.52034,25.67986],[93.51943,25.68216],[93.5169,25.68426],[93.52278,25.68939],[93.526,25.69586],[93.52859,25.68995],[93.53061,25.68888],[93.53803,25.69936],[93.5436,25.69786],[93.54389,25.69928],[93.54923,25.69791],[93.55363,25.69797],[93.55717,25.69456],[93.55907,25.68953],[93.56935,25.68067],[93.57222,25.67556],[93.57823,25.67238],[93.58495,25.67135],[93.58626,25.66991],[93.5869,25.66675],[93.58883,25.66658],[93.59275,25.66668],[93.59792,25.6649],[93.60508,25.66339],[93.61222,25.6663],[93.61743,25.66938],[93.61985,25.66917],[93.62242,25.66585],[93.62407,25.66305],[93.629,25.6635],[93.6343,25.66746],[93.6383,25.67285],[93.64516,25.67313],[93.65356,25.67416],[93.65994,25.67448],[93.66439,25.67498],[93.67236,25.67649],[93.67651,25.67877],[93.68892,25.68077],[93.69906,25.6843],[93.7027,25.68177],[93.70473,25.67805],[93.71069,25.67443],[93.71334,25.6764],[93.71604,25.67882],[93.72044,25.67887],[93.72233,25.67826],[93.7249,25.67494],[93.72703,25.67209],[93.73183,25.66681],[93.73642,25.66419],[93.74053,25.66603],[93.74038,25.66914],[93.73834,25.67286],[93.73329,25.68038],[93.73637,25.6863],[93.73524,25.69392],[93.73794,25.69634],[93.74302,25.69367],[93.74937,25.68913],[93.75672,25.68494],[93.76542,25.68417],[93.77722,25.68489],[93.78963,25.68688],[93.79809,25.68834],[93.80722,25.69151],[93.81384,25.69401],[93.82384,25.69622],[93.83505,25.6961],[93.83892,25.69576],[93.84322,25.69493],[93.85092,25.68938],[93.85894,25.68689],[93.86837,25.68384],[93.87549,25.67303],[93.87864,25.67053],[93.88207,25.66624],[93.88706,25.6627],[93.89252,25.65912],[93.89595,25.65925],[93.90253,25.65689],[93.90813,25.65462],[93.91345,25.65414],[93.91944,25.65095],[93.92616,25.6499],[93.93448,25.64562],[93.93507,25.64648]]]}}]}