{"type":"FeatureCollection","features":[{"type":"Feature","properties":{"id":"phek","name":"Phek","stateId":"nagaland","stateName":"Nagaland","censuscode":266,"type":"district"},"geometry":{"type":"Polygon","coordinates":[[[94.71548,25.75764],[94.72022,25.75038],[94.7195,25.74198],[94.71994,25.73696],[94.72125,25.72706],[94.71967,25.72513],[94.72486,25.72095],[94.72917,25.72227],[94.72842,25.72567],[94.72569,25.72699],[94.72709,25.72867],[94.72596,25.73155],[94.72279,25.73385],[94.72299,25.73996],[94.72743,25.74128],[94.72598,25.74745],[94.73056,25.74877],[94.72967,25.7531],[94.73527,25.75401],[94.73711,25.75862],[94.74156,25.76208],[94.74194,25.76715],[94.74329,25.77026],[94.75148,25.77371],[94.75295,25.77868],[94.75473,25.77982],[94.75739,25.78022],[94.77154,25.77936],[94.78847,25.77642],[94.80673,25.76783],[94.83371,25.75243],[94.83724,25.74586],[94.85778,25.72412],[94.86124,25.71657],[94.85893,25.6854],[94.85264,25.66219],[94.85033,25.64998],[94.84983,25.63356],[94.85378,25.61869],[94.85483,25.61057],[94.85565,25.60925],[94.86192,25.60936],[94.87141,25.60629],[94.87469,25.59857],[94.88162,25.58814],[94.88732,25.58614],[94.88604,25.58065],[94.89022,25.57507],[94.89541,25.5704],[94.90248,25.56415],[94.9033,25.56008],[94.88614,25.55843],[94.85584,25.55643],[94.85137,25.5564],[94.84178,25.54886],[94.83521,25.54362],[94.83227,25.53987],[94.82815,25.53152],[94.82795,25.52612],[94.82718,25.52124],[94.82366,25.51407],[94.82042,25.51032],[94.81857,25.50683],[94.81696,25.49998],[94.81386,25.49307],[94.8108,25.48851],[94.80419,25.48652],[94.79544,25.48691],[94.78815,25.4844],[94.78285,25.48339],[94.77728,25.4775],[94.77107,25.47452],[94.76541,25.47568],[94.76288,25.47869],[94.76069,25.48477],[94.75503,25.4853],[94.75377,25.48116],[94.7499,25.4758],[94.74486,25.47243],[94.73757,25.4701],[94.72928,25.46803],[94.72019,25.46581],[94.71301,25.46437],[94.70083,25.462],[94.69406,25.46154],[94.68706,25.45893],[94.68085,25.45317],[94.66818,25.44883],[94.66439,25.44888],[94.65717,25.45055],[94.6549,25.45211],[94.64668,25.45516],[94.63144,25.45924],[94.62384,25.46269],[94.60602,25.47609],[94.59589,25.47994],[94.59343,25.48184],[94.58938,25.48346],[94.58577,25.48616],[94.58356,25.49059],[94.57319,25.49899],[94.56679,25.50036],[94.55604,25.50657],[94.55763,25.51815],[94.55991,25.5245],[94.55693,25.5287],[94.56213,25.53349],[94.55853,25.53954],[94.56156,25.54334],[94.56006,25.55434],[94.56335,25.56177],[94.5591,25.56183],[94.56025,25.5722],[94.55444,25.57968],[94.5583,25.58798],[94.56389,25.59646],[94.56565,25.59796],[94.56737,25.60165],[94.57155,25.60517],[94.57568,25.61422],[94.57726,25.62009],[94.58253,25.62834],[94.58926,25.63411],[94.59332,25.63648],[94.59394,25.63768],[94.58572,25.64044],[94.57487,25.63858],[94.57602,25.64221],[94.57558,25.64671],[94.58015,25.65127],[94.58084,25.65449],[94.58401,25.65565],[94.58224,25.6591],[94.5844,25.66388],[94.58618,25.66567],[94.58415,25.66873],[94.58694,25.67114],[94.58878,25.67513],[94.59576,25.68078],[94.59444,25.68515],[94.58587,25.68579],[94.58183,25.6871],[94.57745,25.68992],[94.57187,25.69158],[94.56685,25.68616],[94.56393,25.67476],[94.55106,25.66137],[94.55061,25.65641],[94.54357,25.65151],[94.53837,25.64505],[94.53039,25.64412],[94.5295,25.63657],[94.52702,25.63829],[94.52304,25.63742],[94.51334,25.6245],[94.50972,25.62392],[94.5075,25.62093],[94.50662,25.61297],[94.5042,25.61101],[94.50066,25.61406],[94.49876,25.61285],[94.49813,25.61054],[94.49227,25.60838],[94.48995,25.61272],[94.49002,25.61386],[94.47291,25.61574],[94.44814,25.59523],[94.44668,25.59218],[94.44314,25.59016],[94.43662,25.59003],[94.42889,25.5869],[94.42452,25.57566],[94.42124,25.57018],[94.42396,25.56718],[94.42522,25.55561],[94.42442,25.54708],[94.4191,25.53682],[94.41562,25.53612],[94.40972,25.53772],[94.40333,25.5351],[94.38738,25.53081],[94.36353,25.51577],[94.3279,25.50271],[94.31956,25.49365],[94.31241,25.48884],[94.30786,25.48819],[94.30152,25.48904],[94.29791,25.49514],[94.28967,25.50397],[94.28568,25.50616],[94.27878,25.49991],[94.27309,25.49747],[94.26589,25.49693],[94.2562,25.49793],[94.25102,25.4936],[94.2307,25.49289],[94.22811,25.49058],[94.22196,25.49136],[94.21886,25.49423],[94.21385,25.49485],[94.21182,25.49744],[94.21194,25.5028],[94.20591,25.50629],[94.20591,25.5086],[94.19829,25.51744],[94.18979,25.52547],[94.18921,25.52933],[94.19299,25.53689],[94.19396,25.54712],[94.19481,25.54772],[94.19886,25.5528],[94.19408,25.56494],[94.19508,25.57185],[94.20176,25.586],[94.20706,25.59384],[94.21041,25.59749],[94.21494,25.60943],[94.21412,25.61346],[94.21259,25.61392],[94.21069,25.61679],[94.21199,25.63183],[94.2144,25.63207],[94.21699,25.63363],[94.22101,25.65197],[94.22056,25.65658],[94.21834,25.65858],[94.21742,25.66872],[94.21564,25.67465],[94.21835,25.68232],[94.21986,25.68486],[94.22753,25.69267],[94.23106,25.69861],[94.2325,25.71077],[94.238,25.72324],[94.25047,25.74442],[94.25901,25.75638],[94.26369,25.76504],[94.26906,25.7794],[94.27862,25.79643],[94.28154,25.80064],[94.28922,25.80309],[94.29669,25.80921],[94.29745,25.81336],[94.29606,25.8155],[94.29581,25.8208],[94.2989,25.82622],[94.29929,25.82956],[94.30658,25.84145],[94.30658,25.84261],[94.31076,25.84838],[94.31134,25.85127],[94.31998,25.86765],[94.32043,25.87139],[94.3228,25.87544],[94.32363,25.88177],[94.3354,25.89452],[94.33988,25.90224],[94.3392,25.91013],[94.34029,25.91669],[94.34385,25.92039],[94.35393,25.92379],[94.35478,25.92254],[94.35936,25.92106],[94.37052,25.92259],[94.37753,25.91911],[94.39685,25.90678],[94.42793,25.89674],[94.4422,25.88784],[94.44659,25.88254],[94.44996,25.87604],[94.45053,25.86999],[94.45503,25.85727],[94.4589,25.8529],[94.46512,25.84213],[94.46867,25.83062],[94.47095,25.82964],[94.47934,25.83081],[94.49254,25.83095],[94.49699,25.82957],[94.50478,25.8225],[94.51392,25.81848],[94.51716,25.81525],[94.51944,25.81647],[94.52141,25.82045],[94.52421,25.82189],[94.53043,25.82092],[94.54635,25.80902],[94.54596,25.80124],[94.5417,25.79415],[94.53674,25.78343],[94.54233,25.78004],[94.54524,25.7805],[94.55881,25.77712],[94.56757,25.7769],[94.59188,25.77952],[94.59296,25.77883],[94.59765,25.77912],[94.60279,25.77699],[94.6038,25.77503],[94.61015,25.77671],[94.61345,25.77925],[94.61884,25.77585],[94.62416,25.76974],[94.63151,25.76734],[94.63995,25.76711],[94.64478,25.77],[94.64815,25.77392],[94.65461,25.77605],[94.66306,25.77525],[94.68859,25.76288],[94.70177,25.75827],[94.71217,25.75706],[94.71548,25.75764]]]}}]}