{"type":"FeatureCollection","features":[{"type":"Feature","properties":{"id":"tuensang","name":"Tuensang","stateId":"nagaland","stateName":"Nagaland","censuscode":267,"type":"district"},"geometry":{"type":"Polygon","coordinates":[[[95.07552,26.47128],[95.07494,26.46697],[95.07145,26.46304],[95.06828,26.4603],[95.06668,26.45518],[95.06578,26.4504],[95.06586,26.44399],[95.07118,26.44399],[95.07452,26.44601],[95.08106,26.44681],[95.08645,26.44556],[95.08997,26.4408],[95.09624,26.43293],[95.09937,26.42955],[95.10091,26.42617],[95.10557,26.42348],[95.10805,26.41722],[95.10705,26.41227],[95.10518,26.4085],[95.10479,26.40453],[95.1043,26.39993],[95.1041,26.3947],[95.12097,26.39144],[95.12433,26.38887],[95.13014,26.38399],[95.13501,26.38119],[95.13522,26.37658],[95.13385,26.36902],[95.13117,26.36004],[95.12898,26.35537],[95.12752,26.34799],[95.13087,26.33982],[95.13268,26.3359],[95.12675,26.32922],[95.12724,26.32398],[95.12793,26.31864],[95.12856,26.31493],[95.12907,26.3105],[95.13038,26.30063],[95.13068,26.29584],[95.12997,26.2898],[95.13028,26.28574],[95.1289,26.28196],[95.12622,26.27822],[95.1204,26.27262],[95.11981,26.26811],[95.12179,26.26194],[95.124,26.25748],[95.12782,26.25344],[95.12874,26.24936],[95.12738,26.24577],[95.12484,26.23904],[95.12197,26.23575],[95.12028,26.23189],[95.12218,26.22617],[95.12741,26.22265],[95.13224,26.21878],[95.1396,26.21126],[95.14152,26.20735],[95.13722,26.20236],[95.13319,26.2008],[95.12729,26.19628],[95.12366,26.18975],[95.12671,26.18708],[95.12477,26.17583],[95.12194,26.16946],[95.11916,26.16535],[95.117,26.16205],[95.11578,26.15611],[95.11942,26.14819],[95.1227,26.14218],[95.12677,26.13002],[95.12425,26.12436],[95.12208,26.1207],[95.11976,26.11505],[95.11942,26.10277],[95.12211,26.09722],[95.12555,26.094],[95.13033,26.09329],[95.13688,26.09553],[95.14305,26.0939],[95.14678,26.09086],[95.15043,26.08782],[95.15625,26.08907],[95.16471,26.09191],[95.16976,26.08967],[95.17576,26.08514],[95.17891,26.08265],[95.18411,26.07751],[95.18443,26.07317],[95.1823,26.06733],[95.17904,26.06414],[95.17626,26.06039],[95.17175,26.05459],[95.16677,26.05061],[95.16429,26.04623],[95.1639,26.03739],[95.16369,26.0317],[95.16341,26.02782],[95.16134,26.02424],[95.1476,26.01165],[95.14134,26.00371],[95.13936,25.99932],[95.13531,25.99703],[95.13023,25.99296],[95.12665,25.98814],[95.1162,25.98063],[95.10878,25.96856],[95.10513,25.96103],[95.09201,25.95439],[95.08714,25.95049],[95.07762,25.94378],[95.0721,25.94197],[95.06418,25.94065],[95.05608,25.93997],[95.05174,25.9375],[95.04864,25.93222],[95.04357,25.92779],[95.03538,25.9281],[95.03451,25.9245],[95.03503,25.92006],[95.03178,25.9174],[95.0267,25.91288],[95.02053,25.90303],[95.01999,25.90173],[95.01875,25.89873],[95.01796,25.89405],[95.01893,25.88754],[95.02079,25.88058],[95.01303,25.88051],[95.00427,25.87948],[94.99841,25.87788],[94.99254,25.8736],[94.98682,25.87307],[94.98175,25.87302],[94.9779,25.87582],[94.97668,25.8781],[94.97361,25.88486],[94.97338,25.89055],[94.96841,25.89642],[94.96092,25.89606],[94.95381,25.89648],[94.9495,25.9004],[94.94261,25.90511],[94.936,25.91734],[94.93669,25.9232],[94.93951,25.92697],[94.93943,25.9313],[94.93597,25.93486],[94.93318,25.93648],[94.9312,25.93991],[94.92859,25.94312],[94.92502,25.9432],[94.92117,25.94087],[94.91957,25.93994],[94.91356,25.93702],[94.90501,25.93784],[94.9,25.93832],[94.8892,25.93774],[94.8808,25.93989],[94.879,25.93979],[94.87383,25.93894],[94.86874,25.93619],[94.86401,25.93395],[94.85721,25.93191],[94.85255,25.92777],[94.84834,25.92494],[94.84513,25.92551],[94.84467,25.92664],[94.84534,25.92981],[94.84611,25.93135],[94.84826,25.93438],[94.84959,25.9356],[94.85207,25.93644],[94.85416,25.93894],[94.85482,25.94211],[94.85681,25.94381],[94.85905,25.94764],[94.85848,25.95039],[94.86261,25.95511],[94.86433,25.95711],[94.86578,25.96182],[94.86794,25.96754],[94.87096,25.97292],[94.87257,25.97654],[94.87276,25.97813],[94.87774,25.98494],[94.87805,25.9876],[94.88147,25.99132],[94.88195,25.99289],[94.88209,25.99665],[94.885,25.99853],[94.88913,25.99813],[94.89323,25.99747],[94.8943,25.99899],[94.8938,25.99984],[94.89073,26.00418],[94.88106,26.01077],[94.88039,26.01262],[94.87953,26.01232],[94.87825,26.01375],[94.87452,26.01373],[94.87116,26.0133],[94.86441,26.01582],[94.86439,26.01919],[94.8599,26.02337],[94.85633,26.0282],[94.85376,26.03107],[94.85128,26.03467],[94.84723,26.03544],[94.84425,26.03123],[94.84403,26.02938],[94.83931,26.02796],[94.83521,26.02835],[94.82399,26.02455],[94.82034,26.0245],[94.81835,26.02296],[94.81606,26.02129],[94.81328,26.01536],[94.80721,26.01189],[94.80174,26.01107],[94.79517,26.00846],[94.78854,26.00532],[94.7851,26.00645],[94.78107,26.01034],[94.76575,26.01961],[94.75758,26.0212],[94.74952,26.02116],[94.74599,26.01906],[94.74031,26.01637],[94.73686,26.0175],[94.7341,26.01938],[94.7316,26.02097],[94.72425,26.02193],[94.71467,26.01907],[94.70916,26.01528],[94.70522,26.01215],[94.70155,26.01142],[94.69683,26.01186],[94.69267,26.01199],[94.68711,26.01036],[94.68357,26.01069],[94.6772,26.01237],[94.67152,26.01719],[94.67835,26.02777],[94.68588,26.03557],[94.6945,26.04102],[94.69904,26.04499],[94.70544,26.05185],[94.70208,26.0635],[94.70089,26.06764],[94.69627,26.07248],[94.69337,26.08857],[94.6901,26.0978],[94.69049,26.10321],[94.68869,26.11753],[94.68938,26.1291],[94.69176,26.13783],[94.70161,26.14922],[94.7035,26.15587],[94.70447,26.17205],[94.70029,26.1712],[94.6979,26.18124],[94.69308,26.19288],[94.68221,26.19932],[94.6747,26.20752],[94.66871,26.20878],[94.6616,26.20248],[94.65599,26.2039],[94.6477,26.21331],[94.6425,26.21797],[94.63468,26.20751],[94.62997,26.20297],[94.62253,26.19879],[94.61391,26.19713],[94.60933,26.19766],[94.60589,26.19859],[94.59698,26.20499],[94.58856,26.21375],[94.58728,26.21852],[94.58849,26.22077],[94.5889,26.22809],[94.58805,26.23568],[94.57938,26.23851],[94.57679,26.24291],[94.56539,26.25578],[94.56489,26.2613],[94.56599,26.26419],[94.5663,26.27013],[94.56514,26.27906],[94.56767,26.28356],[94.5725,26.28903],[94.58399,26.29009],[94.58891,26.29982],[94.59381,26.29833],[94.59744,26.30315],[94.59986,26.30848],[94.61111,26.31915],[94.62361,26.32753],[94.62892,26.32996],[94.63149,26.33367],[94.63466,26.33428],[94.64185,26.33402],[94.64998,26.33982],[94.65289,26.34094],[94.65441,26.34764],[94.65619,26.34824],[94.65481,26.35271],[94.65502,26.35611],[94.65693,26.36137],[94.66511,26.36901],[94.6656,26.37149],[94.66225,26.37612],[94.66635,26.37858],[94.67036,26.37828],[94.67348,26.38269],[94.67837,26.3843],[94.68866,26.39737],[94.69,26.40315],[94.69246,26.40496],[94.69365,26.40716],[94.69787,26.41032],[94.7008,26.41058],[94.70606,26.41242],[94.70554,26.41938],[94.70624,26.42503],[94.71131,26.43949],[94.7095,26.44394],[94.71742,26.44912],[94.7218,26.44915],[94.73133,26.45174],[94.73355,26.45416],[94.73765,26.45596],[94.74149,26.45559],[94.749,26.45751],[94.75476,26.45696],[94.76043,26.45555],[94.76427,26.45519],[94.76799,26.44959],[94.76978,26.44417],[94.77178,26.44048],[94.77449,26.43454],[94.77891,26.435],[94.78422,26.43056],[94.78857,26.42621],[94.79193,26.4259],[94.79761,26.42055],[94.80239,26.41572],[94.80833,26.41253],[94.81298,26.41078],[94.81636,26.40652],[94.82043,26.40395],[94.82367,26.3984],[94.82829,26.39227],[94.83695,26.38751],[94.8468,26.38045],[94.8538,26.37804],[94.86123,26.37514],[94.87023,26.37735],[94.87417,26.37784],[94.88185,26.37711],[94.89236,26.37567],[94.90059,26.37138],[94.90539,26.37093],[94.9105,26.37306],[94.91091,26.37332],[94.91182,26.37222],[94.91693,26.37173],[94.91696,26.37299],[94.91661,26.37524],[94.91656,26.37653],[94.91698,26.37834],[94.91865,26.38039],[94.92082,26.38313],[94.92169,26.38526],[94.92085,26.38682],[94.91831,26.38965],[94.91697,26.39217],[94.91735,26.39361],[94.91821,26.39574],[94.91766,26.39801],[94.91581,26.39966],[94.91164,26.4008],[94.91049,26.40146],[94.90967,26.4032],[94.90993,26.40539],[94.90948,26.40857],[94.90896,26.40936],[94.90864,26.41013],[94.90679,26.41178],[94.90646,26.41421],[94.90303,26.41638],[94.90201,26.41814],[94.90161,26.42002],[94.89899,26.42212],[94.89878,26.4238],[94.89958,26.42538],[94.90099,26.42691],[94.9031,26.42744],[94.9054,26.42778],[94.90547,26.43017],[94.90565,26.43163],[94.90532,26.43405],[94.9036,26.43514],[94.90319,26.43684],[94.90402,26.43888],[94.91156,26.43401],[94.91837,26.43397],[94.93582,26.43978],[94.94125,26.44444],[94.94314,26.44779],[94.94332,26.44789],[94.96365,26.45928],[94.96729,26.46668],[94.97907,26.47341],[94.98627,26.48062],[94.98798,26.48149],[94.99161,26.48124],[94.99986,26.47805],[95.00631,26.4781],[95.01887,26.48138],[95.01968,26.47739],[95.02173,26.47697],[95.03396,26.4806],[95.04275,26.48143],[95.04502,26.47323],[95.04922,26.47172],[95.05426,26.47397],[95.05732,26.47688],[95.06248,26.47537],[95.06788,26.47183],[95.07552,26.47128]]]}}]}