{"type":"FeatureCollection","features":[{"type":"Feature","properties":{"id":"karaikal","name":"Karaikal","stateId":"puducherry","stateName":"Puducherry","censuscode":637,"type":"district"},"geometry":{"type":"Polygon","coordinates":[[[79.76528,10.99681],[79.76963,10.99519],[79.77754,10.9959],[79.78225,10.99453],[79.78934,10.99491],[79.7914,10.9926],[79.791,10.98637],[79.79433,10.9833],[79.80049,10.98272],[79.80416,10.98519],[79.80673,10.98878],[79.80745,10.99392],[79.809,10.99633],[79.8135,10.99848],[79.8145,11.0003],[79.81851,11.00163],[79.81964,11.0003],[79.82161,10.99831],[79.82689,10.9975],[79.8291,10.99841],[79.8301,11.0003],[79.83098,11.0026],[79.84187,11.00211],[79.84199,11.00028],[79.84153,10.99497],[79.85158,10.99233],[79.85249,10.98798],[79.85247,10.97008],[79.85273,10.96749],[79.85207,10.92725],[79.85192,10.91553],[79.85109,10.91007],[79.85044,10.9087],[79.84441,10.9061],[79.84418,10.90565],[79.84432,10.90451],[79.84525,10.90385],[79.84526,10.90339],[79.84895,10.90142],[79.84861,10.87985],[79.84701,10.87779],[79.84427,10.87821],[79.84234,10.87788],[79.83766,10.87654],[79.83551,10.87377],[79.83567,10.87125],[79.83751,10.87108],[79.83807,10.87122],[79.83988,10.87143],[79.84345,10.87253],[79.84525,10.87368],[79.84779,10.87259],[79.84885,10.87079],[79.84976,10.84812],[79.84896,10.83567],[79.84896,10.83279],[79.84948,10.827],[79.83722,10.8267],[79.8308,10.82966],[79.82913,10.83134],[79.83114,10.83395],[79.83069,10.84431],[79.82946,10.84838],[79.82562,10.84694],[79.82331,10.84359],[79.82048,10.84922],[79.81407,10.85141],[79.81052,10.855],[79.8085,10.8612],[79.80965,10.86433],[79.81301,10.85932],[79.81679,10.86019],[79.82076,10.86284],[79.82554,10.86444],[79.82482,10.86822],[79.82082,10.87302],[79.81462,10.8736],[79.80691,10.87723],[79.80913,10.87943],[79.82292,10.87917],[79.82873,10.87997],[79.82633,10.88297],[79.82011,10.88664],[79.80978,10.88549],[79.80564,10.8884],[79.80217,10.88901],[79.79757,10.88677],[79.79292,10.89122],[79.78977,10.88868],[79.78426,10.88817],[79.78464,10.89097],[79.78733,10.8934],[79.79221,10.89432],[79.79363,10.89711],[79.79043,10.90498],[79.77846,10.90682],[79.77771,10.89854],[79.77421,10.89549],[79.76912,10.89623],[79.77139,10.90203],[79.76643,10.90478],[79.76518,10.91057],[79.76255,10.90842],[79.76299,10.90259],[79.76027,10.89729],[79.75866,10.89863],[79.75944,10.90589],[79.75902,10.90978],[79.76207,10.9121],[79.76019,10.91469],[79.74406,10.91275],[79.74557,10.91759],[79.74275,10.91887],[79.74308,10.92219],[79.74107,10.9233],[79.73837,10.92047],[79.73676,10.92105],[79.73798,10.92597],[79.72637,10.92843],[79.72517,10.93033],[79.72748,10.93265],[79.72756,10.93437],[79.72135,10.93409],[79.7215,10.93626],[79.72561,10.93639],[79.72479,10.93863],[79.72559,10.94194],[79.73013,10.94315],[79.73296,10.94575],[79.73734,10.94747],[79.73832,10.95056],[79.73627,10.95578],[79.73263,10.95353],[79.73192,10.94937],[79.72643,10.9508],[79.72143,10.9504],[79.72033,10.95349],[79.71993,10.96082],[79.72097,10.96281],[79.7207,10.96705],[79.72856,10.96748],[79.73253,10.96852],[79.73799,10.96584],[79.74377,10.9676],[79.74878,10.96343],[79.74974,10.95644],[79.7572,10.95894],[79.76264,10.95865],[79.76283,10.96459],[79.76165,10.96976],[79.757,10.97107],[79.7552,10.97389],[79.75619,10.97674],[79.75837,10.97854],[79.76087,10.9823],[79.75657,10.98137],[79.75524,10.98458],[79.74721,10.98626],[79.74867,10.99052],[79.74688,10.99659],[79.74717,11.00034],[79.74888,11.00228],[79.75422,11.00436],[79.76008,11.00033],[79.76528,10.99681]]]}}]}