{"type":"FeatureCollection","features":[{"type":"Feature","properties":{"id":"puducherry","name":"Puducherry","stateId":"puducherry","stateName":"Puducherry","censuscode":635,"type":"district"},"geometry":{"type":"MultiPolygon","coordinates":[[[[79.70533,12.01531],[79.70559,12.01048],[79.71026,12.00689],[79.71657,12.00033],[79.71644,12.00033],[79.71848,11.9943],[79.72075,11.99163],[79.72481,11.99048],[79.7275,11.9899],[79.73186,11.98972],[79.73475,11.99075],[79.73987,11.9922],[79.74204,11.99427],[79.74377,12.00031],[79.74391,12.00032],[79.74957,12.00861],[79.76458,12.00048],[79.76756,11.99382],[79.76739,11.99049],[79.76404,11.98673],[79.7601,11.98521],[79.75737,11.98139],[79.75311,11.98139],[79.75038,11.97795],[79.74188,11.97681],[79.73704,11.98174],[79.73284,11.98316],[79.73065,11.98174],[79.72944,11.96955],[79.74859,11.96157],[79.74859,11.95167],[79.75194,11.94176],[79.75166,11.92461],[79.75197,11.92157],[79.75561,11.92157],[79.75591,11.92386],[79.76259,11.92957],[79.76228,11.93224],[79.76288,11.9433],[79.77319,11.94483],[79.77926,11.94902],[79.78048,11.9536],[79.78442,11.95589],[79.78684,11.96085],[79.78775,11.96123],[79.79079,11.96047],[79.79383,11.96085],[79.79838,11.95819],[79.80264,11.95286],[79.80537,11.95705],[79.80672,11.96222],[79.80748,11.97153],[79.81031,11.97637],[79.81294,11.97802],[79.81476,11.97878],[79.81962,11.97764],[79.82106,11.97373],[79.82137,11.96979],[79.82318,11.96104],[79.8261,11.95705],[79.82929,11.95517],[79.83309,11.95495],[79.8405,11.95459],[79.84052,11.95225],[79.83949,11.9513],[79.83407,11.93388],[79.82865,11.91646],[79.82324,11.89903],[79.81789,11.87583],[79.81461,11.85844],[79.80924,11.83812],[79.80813,11.83409],[79.80705,11.84159],[79.80931,11.84483],[79.80625,11.84642],[79.80316,11.8497],[79.80142,11.85299],[79.79703,11.85485],[79.79374,11.8534],[79.78236,11.85503],[79.78066,11.84788],[79.77884,11.84706],[79.77571,11.83757],[79.77337,11.83664],[79.76741,11.83898],[79.76254,11.84721],[79.76394,11.85034],[79.76551,11.85049],[79.76678,11.85615],[79.76917,11.85674],[79.77094,11.86498],[79.77012,11.87234],[79.76619,11.87344],[79.765,11.87501],[79.75881,11.87419],[79.75859,11.86811],[79.75463,11.86433],[79.75362,11.84948],[79.74297,11.84678],[79.74555,11.86132],[79.73335,11.86278],[79.73316,11.86204],[79.72186,11.86148],[79.71897,11.85268],[79.71281,11.86679],[79.70858,11.86823],[79.71083,11.88771],[79.7056,11.88838],[79.69714,11.88766],[79.69546,11.88492],[79.69347,11.88387],[79.68823,11.88424],[79.68599,11.88411],[79.68626,11.88089],[79.67414,11.87994],[79.67414,11.88637],[79.67542,11.89157],[79.68326,11.89052],[79.68378,11.88891],[79.69097,11.89361],[79.69492,11.89355],[79.69571,11.89623],[79.69501,11.90044],[79.69886,11.90175],[79.69735,11.90613],[79.69487,11.90773],[79.69787,11.91898],[79.71762,11.91683],[79.71758,11.91275],[79.70672,11.91207],[79.70661,11.89273],[79.71683,11.8909],[79.71948,11.88895],[79.72343,11.88832],[79.73049,11.88935],[79.73202,11.89122],[79.73111,11.90105],[79.73261,11.90361],[79.74,11.9059],[79.71911,11.92731],[79.72102,11.94302],[79.71147,11.94673],[79.7096,11.9456],[79.70952,11.94022],[79.71108,11.93439],[79.71284,11.93097],[79.70777,11.93548],[79.707,11.93876],[79.70523,11.94045],[79.69912,11.94148],[79.69315,11.95075],[79.69263,11.95357],[79.69643,11.95759],[79.69806,11.96072],[79.70038,11.95942],[79.70162,11.96152],[79.70807,11.96504],[79.71648,11.96645],[79.71687,11.97069],[79.71019,11.97527],[79.71413,11.98427],[79.71396,11.9863],[79.70969,11.98934],[79.70486,11.98985],[79.7018,11.98819],[79.69905,11.98894],[79.69602,11.98704],[79.69238,11.98817],[79.68833,11.98655],[79.686,11.98893],[79.68024,11.98169],[79.67629,11.98701],[79.67446,11.9912],[79.66607,11.98614],[79.65904,11.98732],[79.65717,11.98991],[79.65912,12.00037],[79.65922,12.00036],[79.65916,12.00675],[79.66182,12.00741],[79.66212,12.01132],[79.66717,12.0124],[79.67411,12.01101],[79.67805,12.0205],[79.6837,12.02142],[79.68632,12.02575],[79.69126,12.027],[79.69382,12.0334],[79.70637,12.03161],[79.70724,12.02525],[79.70533,12.01531]],[[79.77058,11.89404],[79.77247,11.88671],[79.77179,11.88288],[79.77394,11.88256],[79.77357,11.87619],[79.77851,11.87823],[79.7799,11.87792],[79.78066,11.87321],[79.77974,11.86834],[79.77837,11.86607],[79.77955,11.86237],[79.7845,11.86195],[79.78973,11.87575],[79.79649,11.88959],[79.79776,11.89347],[79.79763,11.89749],[79.78996,11.89538],[79.78388,11.8984],[79.78147,11.90178],[79.77439,11.90344],[79.77109,11.90091],[79.7724,11.899],[79.77058,11.89404]]],[[[79.73872,11.84277],[79.75493,11.83752],[79.7634,11.8325],[79.76449,11.83116],[79.76447,11.82284],[79.77353,11.82199],[79.77423,11.82561],[79.78033,11.83182],[79.78226,11.83207],[79.78544,11.8311],[79.78906,11.82795],[79.79269,11.8261],[79.79404,11.82619],[79.79569,11.82778],[79.79638,11.82725],[79.79701,11.82311],[79.80188,11.82899],[79.80079,11.83004],[79.79588,11.83185],[79.79366,11.83194],[79.79345,11.83286],[79.79795,11.83405],[79.79841,11.83715],[79.79946,11.83752],[79.80115,11.83394],[79.80576,11.83134],[79.80756,11.8321],[79.79778,11.79748],[79.7951,11.78486],[79.784,11.78721],[79.78366,11.784],[79.78107,11.7822],[79.78086,11.77997],[79.7743,11.78134],[79.7701,11.78129],[79.77072,11.7868],[79.76991,11.79043],[79.76345,11.79042],[79.76222,11.78952],[79.75779,11.78247],[79.75689,11.77784],[79.75515,11.7742],[79.74178,11.77883],[79.72865,11.78065],[79.7245,11.78261],[79.7228,11.78557],[79.72086,11.78405],[79.7125,11.7893],[79.71386,11.79376],[79.71838,11.79604],[79.72287,11.7966],[79.72348,11.79848],[79.72318,11.80158],[79.72575,11.80206],[79.72522,11.80505],[79.72669,11.80893],[79.73336,11.80819],[79.73652,11.80859],[79.73298,11.81313],[79.73342,11.82185],[79.73159,11.82418],[79.73273,11.83329],[79.72931,11.83673],[79.7302,11.8378],[79.73424,11.83957],[79.73884,11.83933],[79.73872,11.84277]]],[[[79.62767,12.03044],[79.63544,12.02901],[79.63962,12.02978],[79.65084,12.02788],[79.65429,12.02379],[79.65316,12.02065],[79.65087,12.0173],[79.64865,12.00597],[79.6444,12.0056],[79.64338,12.00037],[79.64263,11.99741],[79.63658,11.99643],[79.63625,11.99247],[79.64048,11.99022],[79.63794,11.97712],[79.64156,11.97327],[79.64169,11.96972],[79.64561,11.96931],[79.64848,11.96645],[79.64912,11.9603],[79.64742,11.95688],[79.64881,11.95318],[79.6453,11.95256],[79.64369,11.95327],[79.64315,11.94638],[79.64347,11.94472],[79.6454,11.94199],[79.65241,11.94308],[79.65405,11.94628],[79.65817,11.94793],[79.65723,11.9449],[79.65921,11.94407],[79.65928,11.94137],[79.6613,11.94047],[79.66131,11.93754],[79.66514,11.93616],[79.66686,11.93745],[79.66866,11.93714],[79.67101,11.93434],[79.67128,11.93285],[79.66924,11.92295],[79.67192,11.92227],[79.67249,11.91475],[79.67034,11.91444],[79.67003,11.91697],[79.66145,11.91607],[79.66287,11.91404],[79.66272,11.91135],[79.6568,11.91287],[79.65597,11.90732],[79.64954,11.90656],[79.64447,11.90756],[79.64198,11.90468],[79.64175,11.90118],[79.63303,11.90086],[79.62653,11.9024],[79.62801,11.90439],[79.62953,11.91612],[79.62918,11.91946],[79.62734,11.92161],[79.62007,11.92443],[79.61994,11.93987],[79.62052,11.94405],[79.62476,11.94324],[79.62943,11.94408],[79.6296,11.94804],[79.62854,11.95351],[79.63005,11.95641],[79.62854,11.96803],[79.6184,11.97014],[79.6272,11.97528],[79.62602,11.9807],[79.61943,11.98276],[79.61905,11.9873],[79.62497,11.98796],[79.62746,11.99812],[79.62212,11.99804],[79.61969,12.00039],[79.62055,12.00515],[79.62048,12.00935],[79.62231,12.01429],[79.62937,12.02083],[79.62767,12.03044]]],[[[79.62934,11.88215],[79.63624,11.88055],[79.63669,11.88674],[79.64256,11.88607],[79.64207,11.88085],[79.64985,11.88033],[79.64859,11.8773],[79.64936,11.87464],[79.64923,11.87028],[79.65658,11.8708],[79.66017,11.86673],[79.66291,11.8668],[79.66426,11.86029],[79.65824,11.85527],[79.65579,11.85164],[79.65314,11.85007],[79.65016,11.84903],[79.6455,11.84917],[79.63987,11.85041],[79.63346,11.85292],[79.62681,11.85239],[79.62903,11.86723],[79.61961,11.86761],[79.62041,11.86335],[79.61966,11.86038],[79.61236,11.86238],[79.61238,11.86015],[79.60242,11.85651],[79.60311,11.86633],[79.60102,11.87037],[79.60071,11.87256],[79.60052,11.87538],[79.60149,11.87771],[79.59977,11.8798],[79.60198,11.88258],[79.60853,11.87725],[79.61941,11.8838],[79.62282,11.89012],[79.63135,11.88808],[79.62934,11.88215]]],[[[79.85903,12.00761],[79.85786,12.00458],[79.84227,12.01064],[79.8409,12.01325],[79.84484,12.02653],[79.84446,12.03193],[79.84572,12.03828],[79.85004,12.0502],[79.87503,12.04331],[79.87239,12.03681],[79.86817,12.03072],[79.86474,12.022],[79.86128,12.01521],[79.85986,12.01329],[79.85991,12.01034],[79.85903,12.00761]]],[[[79.68894,11.97189],[79.68823,11.96697],[79.68553,11.96258],[79.6851,11.96018],[79.68414,11.96232],[79.68486,11.95307],[79.67572,11.94793],[79.67179,11.94754],[79.66417,11.9503],[79.65994,11.94899],[79.6553,11.9536],[79.6544,11.95855],[79.66114,11.95741],[79.66125,11.96211],[79.66253,11.96204],[79.66255,11.96818],[79.67849,11.96723],[79.68004,11.97231],[79.68894,11.97189]]],[[[79.67002,11.81491],[79.65876,11.81313],[79.6463,11.8162],[79.647,11.81975],[79.64093,11.82266],[79.64371,11.82525],[79.64607,11.83441],[79.64661,11.84243],[79.64878,11.84361],[79.65105,11.84311],[79.65788,11.84116],[79.66134,11.8387],[79.65954,11.83195],[79.6593,11.82823],[79.66014,11.82625],[79.67079,11.82281],[79.67002,11.81491]]],[[[79.69054,11.80274],[79.67574,11.80155],[79.67536,11.80626],[79.676,11.81371],[79.68337,11.81216],[79.68831,11.81179],[79.69057,11.80745],[79.69054,11.80274]]],[[[79.80412,12.02036],[79.80342,12.01689],[79.79311,12.01727],[79.79088,12.01851],[79.79151,12.02698],[79.7975,12.02555],[79.80412,12.0253],[79.80707,12.02418],[79.80665,12.02187],[79.80412,12.02036]]],[[[79.70173,11.82025],[79.70398,11.81205],[79.69333,11.81275],[79.69394,11.82106],[79.70173,11.82025]]]]}}]}