{"type":"FeatureCollection","features":[{"type":"Feature","properties":{"id":"central","name":"Central","stateId":"nct-of-delhi","stateName":"NCT of Delhi","censuscode":95,"type":"district"},"geometry":{"type":"Polygon","coordinates":[[[77.26042,28.62286],[77.25705,28.62268],[77.24232,28.63196],[77.23747,28.6322],[77.23218,28.63573],[77.22051,28.64111],[77.20081,28.63912],[77.19679,28.63577],[77.19054,28.63237],[77.1877,28.62608],[77.18672,28.62564],[77.18691,28.62599],[77.18082,28.63172],[77.18078,28.63348],[77.18327,28.64053],[77.1838,28.64638],[77.18253,28.64817],[77.18825,28.65106],[77.18707,28.65367],[77.18588,28.65785],[77.18692,28.66024],[77.19589,28.65908],[77.20003,28.65719],[77.20597,28.65828],[77.21509,28.65022],[77.22144,28.64967],[77.22558,28.64777],[77.23154,28.64788],[77.23409,28.65055],[77.24042,28.65066],[77.24262,28.65201],[77.25299,28.65374],[77.25774,28.64241],[77.2579,28.63519],[77.25723,28.63156],[77.25889,28.62403],[77.26042,28.62286]]]}}]}