{"type":"FeatureCollection","features":[{"type":"Feature","properties":{"id":"east","name":"East","stateId":"nct-of-delhi","stateName":"NCT of Delhi","censuscode":93,"type":"district"},"geometry":{"type":"Polygon","coordinates":[[[77.30482,28.57678],[77.29593,28.58194],[77.28989,28.58578],[77.2835,28.5883],[77.27671,28.59245],[77.27586,28.59737],[77.27133,28.60025],[77.26558,28.60738],[77.26455,28.60747],[77.26445,28.60802],[77.26245,28.61456],[77.26273,28.61851],[77.26267,28.62114],[77.26042,28.62286],[77.25889,28.62403],[77.25723,28.63156],[77.2579,28.63519],[77.25774,28.64241],[77.25299,28.65374],[77.25144,28.65742],[77.25066,28.66244],[77.25057,28.66299],[77.26212,28.66319],[77.28538,28.67279],[77.30437,28.67344],[77.31189,28.67028],[77.31779,28.67334],[77.32807,28.67386],[77.328,28.67239],[77.32773,28.66653],[77.32771,28.66616],[77.32556,28.6578],[77.32554,28.65638],[77.32554,28.65573],[77.32544,28.64591],[77.32319,28.64121],[77.3213,28.63919],[77.32367,28.63774],[77.324,28.63743],[77.32603,28.63544],[77.33105,28.63056],[77.33633,28.62799],[77.34056,28.62593],[77.34431,28.62151],[77.34717,28.61641],[77.34762,28.61201],[77.34625,28.60339],[77.3432,28.60123],[77.33789,28.5994],[77.32697,28.59448],[77.32337,28.59397],[77.31996,28.59349],[77.31716,28.59144],[77.31556,28.58955],[77.31516,28.58907],[77.30491,28.57696],[77.30482,28.57678]]]}}]}