{"type":"FeatureCollection","features":[{"type":"Feature","properties":{"id":"north-west","name":"North West","stateId":"nct-of-delhi","stateName":"NCT of Delhi","censuscode":90,"type":"district"},"geometry":{"type":"Polygon","coordinates":[[[77.17093,28.66833],[77.16689,28.67303],[77.15494,28.67381],[77.15266,28.67607],[77.11951,28.67514],[77.11127,28.67697],[77.09836,28.68758],[77.08623,28.68045],[77.07976,28.68592],[77.07606,28.68487],[77.07153,28.68742],[77.0638,28.68333],[77.05813,28.68684],[77.04472,28.68659],[77.026,28.68986],[77.0109,28.68235],[76.99864,28.68113],[76.97816,28.69553],[76.96372,28.69481],[76.96409,28.69537],[76.9645,28.70021],[76.96086,28.70461],[76.95117,28.71189],[76.96061,28.73132],[76.95915,28.73636],[76.96027,28.74151],[76.9574,28.746],[76.94817,28.7545],[76.95658,28.76891],[76.95397,28.77341],[76.95234,28.78264],[76.95312,28.79],[76.94751,28.79839],[76.9474,28.80405],[76.95237,28.81557],[76.95829,28.81255],[76.96585,28.81491],[76.96811,28.82522],[76.97093,28.82656],[76.98066,28.81998],[76.9838,28.82071],[76.98968,28.83157],[76.99364,28.83396],[76.99987,28.83402],[77.01677,28.83011],[77.02895,28.83189],[77.03484,28.8311],[77.04171,28.83161],[77.04786,28.8476],[77.05999,28.868],[77.07592,28.8678],[77.08041,28.8748],[77.08612,28.87932],[77.09361,28.8694],[77.10973,28.86722],[77.11741,28.86322],[77.11998,28.86089],[77.13884,28.86013],[77.14536,28.85323],[77.14586,28.84743],[77.14407,28.83945],[77.14946,28.8364],[77.15265,28.8372],[77.16093,28.84317],[77.1699,28.85215],[77.17491,28.85535],[77.19399,28.857],[77.19721,28.86152],[77.20384,28.86004],[77.21,28.85963],[77.21515,28.85759],[77.21819,28.8549],[77.22181,28.8496],[77.22094,28.83996],[77.22764,28.82995],[77.22393,28.80816],[77.20488,28.81002],[77.20469,28.79696],[77.20717,28.78995],[77.21052,28.78652],[77.18934,28.76741],[77.18263,28.76729],[77.17985,28.75837],[77.16594,28.74728],[77.16603,28.74334],[77.16647,28.74039],[77.1695,28.73814],[77.17675,28.73104],[77.18621,28.72464],[77.19488,28.72052],[77.21435,28.71659],[77.21998,28.71471],[77.22092,28.70619],[77.21811,28.69858],[77.2141,28.69457],[77.20417,28.68848],[77.20159,28.68745],[77.19224,28.68892],[77.18702,28.68883],[77.18254,28.68941],[77.17822,28.68243],[77.17659,28.67255],[77.17093,28.66833]]]}}]}