{"type":"FeatureCollection","features":[{"type":"Feature","properties":{"id":"north-east","name":"North East","stateId":"nct-of-delhi","stateName":"NCT of Delhi","censuscode":92,"type":"district"},"geometry":{"type":"Polygon","coordinates":[[[77.25066,28.66244],[77.25021,28.66266],[77.24684,28.66359],[77.24223,28.66975],[77.24341,28.70033],[77.24448,28.70265],[77.24602,28.73389],[77.23118,28.74744],[77.2231,28.7588],[77.21536,28.77148],[77.21488,28.77607],[77.21329,28.78031],[77.21434,28.78352],[77.21868,28.78185],[77.2233,28.7811],[77.22426,28.78131],[77.22642,28.7818],[77.22852,28.78228],[77.23047,28.78228],[77.23382,28.78227],[77.23493,28.78227],[77.23232,28.77838],[77.22733,28.77633],[77.23114,28.77255],[77.23701,28.76859],[77.23926,28.76707],[77.24538,28.75802],[77.24821,28.75385],[77.2487,28.75373],[77.25609,28.75197],[77.25868,28.75215],[77.26341,28.7474],[77.26208,28.74011],[77.26637,28.73454],[77.27013,28.73272],[77.27657,28.73388],[77.28133,28.73278],[77.28706,28.72899],[77.29089,28.72462],[77.29105,28.72437],[77.29462,28.71851],[77.29385,28.71356],[77.29509,28.70703],[77.30312,28.70434],[77.30581,28.70761],[77.31167,28.71129],[77.31643,28.71223],[77.32738,28.71176],[77.3337,28.71042],[77.33187,28.70637],[77.33003,28.6982],[77.33112,28.69422],[77.33775,28.68638],[77.33729,28.67969],[77.33578,28.67739],[77.33555,28.67704],[77.32807,28.67389],[77.32807,28.67386],[77.31779,28.67334],[77.31189,28.67028],[77.30437,28.67344],[77.28538,28.67279],[77.26212,28.66319],[77.25057,28.66299],[77.25066,28.66244]]]}}]}