{"type":"FeatureCollection","features":[{"type":"Feature","properties":{"id":"south-west","name":"South West","stateId":"nct-of-delhi","stateName":"NCT of Delhi","censuscode":97,"type":"district"},"geometry":{"type":"Polygon","coordinates":[[[77.18253,28.64817],[77.1838,28.64638],[77.18327,28.64053],[77.18078,28.63348],[77.18082,28.63172],[77.18691,28.62599],[77.18672,28.62564],[77.17229,28.59951],[77.17233,28.59754],[77.17354,28.59329],[77.17701,28.58842],[77.18266,28.58523],[77.19466,28.58183],[77.20139,28.58063],[77.21301,28.57689],[77.21379,28.57526],[77.21397,28.56738],[77.19922,28.5612],[77.19599,28.55556],[77.1902,28.54823],[77.18993,28.54395],[77.19075,28.54035],[77.19082,28.53739],[77.18719,28.53338],[77.18062,28.52768],[77.18108,28.52374],[77.18112,28.52177],[77.17862,28.51745],[77.16877,28.5084],[77.15298,28.49925],[77.14314,28.49053],[77.13466,28.48676],[77.12727,28.48465],[77.12099,28.4829],[77.11541,28.48279],[77.11505,28.48279],[77.11738,28.48852],[77.11321,28.49212],[77.10002,28.50012],[77.09568,28.50554],[77.08219,28.51497],[77.07717,28.51534],[77.06664,28.50857],[77.05845,28.50995],[77.05134,28.51368],[77.04284,28.52307],[77.02931,28.52801],[77.02534,28.52807],[77.01578,28.53752],[77.00989,28.53676],[77.00562,28.53166],[77.00787,28.5269],[77.01466,28.52348],[77.02105,28.51885],[77.02059,28.51277],[77.01519,28.50919],[76.99991,28.51454],[76.98617,28.51858],[76.9781,28.52235],[76.95422,28.50843],[76.9428,28.51085],[76.93223,28.51408],[76.91802,28.50974],[76.907,28.51261],[76.90327,28.51099],[76.89634,28.50608],[76.88889,28.50391],[76.88333,28.50925],[76.88899,28.51885],[76.88586,28.52326],[76.86877,28.5368],[76.86631,28.5427],[76.84717,28.5519],[76.84251,28.57742],[76.84464,28.58632],[76.85986,28.58502],[76.86445,28.58725],[76.87056,28.59741],[76.88766,28.63253],[76.90341,28.62762],[76.90701,28.62767],[76.91375,28.63281],[76.9201,28.63269],[76.93341,28.6235],[76.93572,28.6241],[76.94367,28.63249],[76.92798,28.64813],[76.92728,28.65213],[76.93292,28.66408],[76.93955,28.66928],[76.95208,28.66994],[76.95219,28.6655],[76.95757,28.6621],[76.96283,28.66395],[76.96883,28.66231],[76.97892,28.65608],[76.98828,28.65216],[76.997,28.64765],[77.00385,28.63843],[77.00793,28.63384],[77.012,28.62982],[77.01996,28.62939],[77.02531,28.62715],[77.02868,28.62488],[77.03408,28.6203],[77.03686,28.6151],[77.03824,28.61278],[77.05478,28.61309],[77.06064,28.61729],[77.07585,28.61815],[77.08578,28.61833],[77.09174,28.61844],[77.10777,28.61231],[77.11304,28.61357],[77.12017,28.62013],[77.13048,28.63258],[77.13838,28.63448],[77.14426,28.63809],[77.15208,28.64348],[77.16397,28.64486],[77.17253,28.64677],[77.18175,28.64927],[77.18253,28.64817]]]}}]}