{"type":"FeatureCollection","features":[{"type":"Feature","properties":{"id":"east-garo-hills","name":"East Garo Hills","stateId":"meghalaya","stateName":"Meghalaya","censuscode":294,"type":"district"},"geometry":{"type":"Polygon","coordinates":[[[91.03234,25.88749],[91.0322,25.8793],[91.0296,25.86607],[91.02491,25.86078],[91.01821,25.85852],[91.0162,25.85665],[91.01581,25.8483],[91.01176,25.83772],[91.00465,25.82528],[91.00383,25.82172],[91.00153,25.81923],[91.00002,25.81875],[90.99723,25.81687],[90.99343,25.81104],[90.98674,25.80472],[90.98282,25.80199],[90.97896,25.79758],[90.97304,25.79358],[90.96874,25.78097],[90.96025,25.77775],[90.95375,25.77196],[90.94687,25.76989],[90.94366,25.76335],[90.94431,25.75603],[90.94644,25.75252],[90.95121,25.75219],[90.95526,25.75454],[90.95707,25.7542],[90.96048,25.75098],[90.96459,25.74946],[90.96884,25.75018],[90.97432,25.75249],[90.97837,25.75091],[90.98205,25.74827],[90.9854,25.74399],[90.97871,25.73758],[90.973,25.72572],[90.96599,25.72082],[90.96291,25.71563],[90.95764,25.71033],[90.95451,25.69437],[90.94853,25.68855],[90.94166,25.6839],[90.93414,25.67656],[90.92984,25.66835],[90.9206,25.65671],[90.91514,25.65386],[90.91387,25.64616],[90.91112,25.6404],[90.90508,25.63719],[90.89711,25.63539],[90.89146,25.62892],[90.88801,25.62332],[90.88299,25.61907],[90.88269,25.61051],[90.87813,25.60735],[90.87506,25.60328],[90.87017,25.60077],[90.86528,25.60013],[90.85207,25.59027],[90.84628,25.59062],[90.8407,25.58777],[90.83285,25.58963],[90.82039,25.58566],[90.81957,25.57877],[90.81534,25.57667],[90.81315,25.57813],[90.81134,25.58355],[90.80458,25.58594],[90.80273,25.58133],[90.79721,25.5773],[90.79582,25.57223],[90.7926,25.57193],[90.78704,25.58242],[90.7819,25.58516],[90.77948,25.57886],[90.77588,25.57367],[90.77487,25.56783],[90.76943,25.56159],[90.77021,25.55727],[90.7694,25.55387],[90.76169,25.55148],[90.75291,25.54733],[90.73317,25.53271],[90.70467,25.50675],[90.68197,25.48115],[90.66185,25.4518],[90.65838,25.43768],[90.64743,25.41558],[90.64249,25.41494],[90.63465,25.4183],[90.60792,25.42443],[90.58283,25.42098],[90.57421,25.42726],[90.55467,25.43316],[90.52174,25.43289],[90.50483,25.43821],[90.48938,25.44639],[90.47888,25.45342],[90.4633,25.45086],[90.44942,25.45081],[90.43875,25.45334],[90.40804,25.45801],[90.36832,25.45423],[90.35925,25.45753],[90.35211,25.45913],[90.33419,25.46039],[90.32286,25.46537],[90.32556,25.47344],[90.33449,25.48409],[90.34714,25.49384],[90.40594,25.55127],[90.40962,25.60025],[90.41483,25.61101],[90.42003,25.6321],[90.4353,25.67184],[90.43564,25.67967],[90.44455,25.69569],[90.44097,25.7035],[90.40981,25.75043],[90.4025,25.76692],[90.39732,25.79357],[90.39465,25.79852],[90.37829,25.80254],[90.34367,25.80205],[90.34185,25.80443],[90.34533,25.82785],[90.35238,25.83167],[90.37078,25.83076],[90.38292,25.83408],[90.38687,25.84056],[90.38536,25.86741],[90.41751,25.92221],[90.42565,25.95272],[90.39964,25.94924],[90.38427,25.94614],[90.36438,25.94098],[90.33199,25.93034],[90.32046,25.92959],[90.29613,25.93216],[90.22835,25.92531],[90.1849,25.90092],[90.17356,25.90816],[90.16266,25.91364],[90.15473,25.92363],[90.13915,25.93416],[90.11508,25.95406],[90.11794,25.95739],[90.12282,25.96121],[90.12416,25.95767],[90.12739,25.95711],[90.13261,25.95872],[90.13823,25.95776],[90.14417,25.95808],[90.15154,25.96442],[90.15753,25.96464],[90.15775,25.96372],[90.15861,25.96015],[90.16251,25.95819],[90.16762,25.95729],[90.17259,25.95731],[90.17676,25.95868],[90.18021,25.957],[90.18462,25.94693],[90.18659,25.94438],[90.18975,25.9455],[90.19353,25.95316],[90.19806,25.95692],[90.21251,25.96149],[90.21518,25.95555],[90.21681,25.95381],[90.23142,25.95505],[90.28182,25.96305],[90.29058,25.96379],[90.3283,25.97425],[90.33303,25.98256],[90.33392,25.98835],[90.34089,25.99002],[90.34331,25.9967],[90.34884,26.00108],[90.35063,26.00279],[90.36897,26.01015],[90.38475,26.01147],[90.39131,26.01108],[90.39789,26.01392],[90.40043,26.01396],[90.40123,26.01205],[90.40413,26.00909],[90.41149,26.00738],[90.41496,26.00568],[90.41785,26.00112],[90.4204,25.99665],[90.42133,25.99214],[90.43249,25.98885],[90.45097,25.99632],[90.46138,25.99937],[90.46178,26.00113],[90.46295,26.00302],[90.46916,26.007],[90.47476,26.01238],[90.48115,26.01504],[90.48508,26.01379],[90.49343,26.00941],[90.49619,26.00628],[90.50175,26.00342],[90.50396,26.00113],[90.50953,25.99578],[90.51733,25.98213],[90.52781,25.96965],[90.53358,25.96161],[90.53819,25.95778],[90.53851,25.9454],[90.53746,25.93605],[90.53591,25.93231],[90.52988,25.92804],[90.52221,25.90917],[90.51478,25.89992],[90.51622,25.89602],[90.52169,25.89626],[90.52914,25.90078],[90.53727,25.90856],[90.54285,25.91522],[90.55049,25.91963],[90.55702,25.92887],[90.56691,25.93531],[90.57502,25.93877],[90.57642,25.94374],[90.57646,25.94788],[90.58248,25.95776],[90.58613,25.95952],[90.59093,25.95364],[90.59552,25.95183],[90.60558,25.9515],[90.60902,25.94666],[90.63261,25.93714],[90.61116,25.9193],[90.61009,25.912],[90.61167,25.90774],[90.61432,25.90717],[90.61777,25.89923],[90.62836,25.89861],[90.63028,25.90107],[90.63251,25.90626],[90.63042,25.91098],[90.63091,25.9167],[90.64139,25.92303],[90.65755,25.92935],[90.67373,25.93394],[90.6792,25.93616],[90.6896,25.95047],[90.71663,25.95184],[90.72127,25.95436],[90.72419,25.94882],[90.7289,25.9484],[90.73579,25.95221],[90.74378,25.95455],[90.74431,25.95483],[90.74707,25.9563],[90.75094,25.95695],[90.74953,25.95227],[90.74812,25.95025],[90.74729,25.94906],[90.74819,25.94614],[90.74377,25.94054],[90.7476,25.93242],[90.75095,25.93196],[90.75417,25.93371],[90.7561,25.93359],[90.74964,25.92157],[90.74398,25.91485],[90.74579,25.91257],[90.74889,25.91193],[90.75351,25.91888],[90.7624,25.92127],[90.76107,25.91619],[90.76115,25.9107],[90.77245,25.90814],[90.78147,25.9079],[90.7819,25.91392],[90.78511,25.92086],[90.79512,25.93535],[90.80052,25.94107],[90.81211,25.94679],[90.81332,25.95175],[90.81802,25.95008],[90.82386,25.94801],[90.82728,25.94468],[90.83141,25.94701],[90.83566,25.94485],[90.83959,25.94683],[90.84013,25.93778],[90.84322,25.93801],[90.84443,25.94274],[90.84663,25.94438],[90.86017,25.94389],[90.87294,25.94195],[90.87623,25.94248],[90.87577,25.94627],[90.8786,25.94867],[90.88357,25.9458],[90.88478,25.95019],[90.88633,25.9513],[90.8917,25.94316],[90.89571,25.9386],[90.89977,25.93701],[90.90036,25.93491],[90.8987,25.93105],[90.90449,25.92913],[90.9158,25.91983],[90.91935,25.91458],[90.92239,25.91283],[90.91958,25.92766],[90.91918,25.94268],[90.92162,25.94268],[90.93536,25.93918],[90.93794,25.94065],[90.94078,25.94427],[90.94605,25.94707],[90.94884,25.93862],[90.95709,25.93621],[90.96116,25.93344],[90.96388,25.92719],[90.9701,25.90483],[90.97049,25.89613],[90.96979,25.89049],[90.97063,25.88667],[90.9745,25.88716],[90.97856,25.88893],[90.98796,25.88942],[91.00003,25.88815],[91.00447,25.88596],[91.01685,25.88378],[91.02373,25.88673],[91.0288,25.88783],[91.0314,25.88801],[91.03234,25.88749]]]}}]}