{"type":"FeatureCollection","features":[{"type":"Feature","properties":{"id":"jaintia-hills","name":"Jaintia Hills","stateId":"meghalaya","stateName":"Meghalaya","censuscode":299,"type":"district"},"geometry":{"type":"Polygon","coordinates":[[[92.66161,25.57945],[92.66152,25.56794],[92.65824,25.56099],[92.65076,25.55762],[92.64583,25.54422],[92.64554,25.53505],[92.6385,25.52617],[92.62846,25.51985],[92.62247,25.51339],[92.61045,25.51027],[92.60646,25.50579],[92.59445,25.50077],[92.59039,25.49722],[92.58192,25.49287],[92.57647,25.48815],[92.56869,25.47849],[92.56742,25.47284],[92.56824,25.46519],[92.56998,25.4625],[92.57232,25.46178],[92.58314,25.47059],[92.58628,25.46527],[92.59452,25.46869],[92.59898,25.46932],[92.6022,25.46181],[92.60057,25.45471],[92.60098,25.45154],[92.60194,25.45006],[92.6053,25.44785],[92.60633,25.44602],[92.60608,25.43957],[92.60852,25.42801],[92.60773,25.42483],[92.60776,25.4162],[92.60985,25.4142],[92.61256,25.41377],[92.61552,25.41507],[92.61862,25.41966],[92.62138,25.42135],[92.62937,25.42265],[92.63004,25.42461],[92.62926,25.42823],[92.63004,25.43226],[92.63339,25.43075],[92.63866,25.42643],[92.63866,25.42026],[92.63994,25.41797],[92.64032,25.41722],[92.64235,25.41713],[92.65125,25.42925],[92.65499,25.43293],[92.65435,25.42152],[92.65757,25.41326],[92.66077,25.40793],[92.66437,25.40693],[92.66773,25.41164],[92.67162,25.41427],[92.67445,25.4147],[92.6807,25.40611],[92.6888,25.40194],[92.69414,25.3975],[92.70098,25.38529],[92.70352,25.38411],[92.71032,25.38361],[92.71349,25.38202],[92.71694,25.37681],[92.71868,25.37246],[92.72114,25.37236],[92.72195,25.37295],[92.726,25.37789],[92.73537,25.37993],[92.73759,25.37869],[92.73664,25.37125],[92.74111,25.36421],[92.74062,25.36207],[92.74114,25.36115],[92.7462,25.35856],[92.74874,25.35553],[92.7506,25.3518],[92.75166,25.34588],[92.75923,25.33725],[92.76103,25.33267],[92.76374,25.33298],[92.76994,25.33689],[92.7729,25.33699],[92.7829,25.33166],[92.7848,25.3299],[92.78845,25.31496],[92.78516,25.30888],[92.78424,25.30535],[92.78732,25.29801],[92.78922,25.28888],[92.7926,25.28412],[92.7926,25.28251],[92.78951,25.27586],[92.78248,25.27326],[92.77985,25.2711],[92.77014,25.26629],[92.77655,25.2603],[92.77706,25.25789],[92.76501,25.24672],[92.77063,25.23756],[92.77257,25.23061],[92.78661,25.22873],[92.79465,25.22333],[92.80337,25.2188],[92.80471,25.21662],[92.80385,25.21454],[92.79872,25.21076],[92.79319,25.20966],[92.78805,25.20686],[92.77986,25.20044],[92.76796,25.20212],[92.76375,25.20121],[92.75921,25.2014],[92.75486,25.20274],[92.75201,25.20473],[92.74748,25.20515],[92.74236,25.20049],[92.73368,25.20063],[92.72454,25.19663],[92.71658,25.1916],[92.70498,25.18797],[92.6943,25.17883],[92.688,25.1798],[92.68322,25.17953],[92.67981,25.18058],[92.67743,25.1797],[92.67263,25.17567],[92.66729,25.17458],[92.66473,25.17288],[92.66336,25.17051],[92.6612,25.15978],[92.65991,25.15665],[92.65611,25.15166],[92.6516,25.14994],[92.64865,25.1502],[92.64445,25.14872],[92.6384,25.14278],[92.63281,25.13513],[92.63117,25.12941],[92.63035,25.1226],[92.62507,25.11627],[92.62201,25.11528],[92.61043,25.1217],[92.60356,25.12261],[92.59885,25.12233],[92.59486,25.12592],[92.58212,25.12952],[92.57948,25.12967],[92.56849,25.12776],[92.56596,25.12895],[92.55831,25.12765],[92.55365,25.12841],[92.54361,25.13273],[92.54044,25.135],[92.53613,25.13213],[92.53069,25.13455],[92.52796,25.13768],[92.52519,25.13777],[92.52572,25.12332],[92.53072,25.11958],[92.53181,25.11763],[92.53352,25.10988],[92.54127,25.10184],[92.5434,25.09731],[92.5385,25.09703],[92.53247,25.10169],[92.52699,25.10358],[92.51027,25.10323],[92.49962,25.10593],[92.48484,25.10587],[92.48484,25.10587],[92.48484,25.10587],[92.48084,25.09822],[92.48026,25.09355],[92.48068,25.08365],[92.47705,25.07606],[92.47512,25.06861],[92.4714,25.06471],[92.468,25.0592],[92.46647,25.05499],[92.46416,25.0534],[92.46302,25.05358],[92.46252,25.05367],[92.46034,25.05249],[92.46064,25.04742],[92.46334,25.04798],[92.46513,25.04506],[92.46373,25.03496],[92.46024,25.03302],[92.45729,25.03287],[92.45469,25.03446],[92.45151,25.0388],[92.44702,25.0399],[92.44702,25.0399],[92.44227,25.03771],[92.43839,25.03162],[92.43242,25.0308],[92.42534,25.02952],[92.41834,25.03386],[92.4114,25.03258],[92.40476,25.03301],[92.39701,25.03814],[92.39233,25.04138],[92.38679,25.04345],[92.37915,25.04361],[92.3727,25.04459],[92.36794,25.04891],[92.35991,25.04754],[92.35218,25.04778],[92.3479,25.04994],[92.34551,25.05509],[92.34638,25.06105],[92.34696,25.06593],[92.34546,25.07053],[92.34405,25.07748],[92.33649,25.08189],[92.33163,25.08232],[92.32669,25.08041],[92.32106,25.07533],[92.31611,25.07279],[92.31155,25.07124],[92.30511,25.07114],[92.30035,25.07148],[92.2932,25.07399],[92.28645,25.07614],[92.28158,25.07811],[92.27721,25.08071],[92.27195,25.08223],[92.265,25.08474],[92.25547,25.08841],[92.24712,25.09082],[92.24017,25.09386],[92.23243,25.09655],[92.22516,25.10167],[92.21601,25.10832],[92.21233,25.1111],[92.21806,25.11447],[92.2257,25.1145],[92.22777,25.11793],[92.2223,25.12107],[92.20979,25.12365],[92.20275,25.12479],[92.19816,25.12875],[92.19487,25.13407],[92.1907,25.13541],[92.18734,25.1326],[92.19123,25.12747],[92.19285,25.12169],[92.1869,25.12095],[92.17896,25.12272],[92.1715,25.12666],[92.16682,25.12972],[92.16125,25.13276],[92.15279,25.13706],[92.14266,25.14091],[92.13859,25.1427],[92.13762,25.15624],[92.12547,25.16531],[92.11473,25.1696],[92.10787,25.17291],[92.1024,25.17496],[92.09694,25.17665],[92.09046,25.17987],[92.0845,25.18328],[92.07764,25.1856],[92.06522,25.18726],[92.06036,25.18597],[92.05463,25.18296],[92.04958,25.18167],[92.04241,25.18417],[92.03835,25.1846],[92.0332,25.18259],[92.02922,25.18293],[92.01985,25.18684],[92.01918,25.18712],[92.01901,25.18781],[92.02282,25.19016],[92.02498,25.19677],[92.02416,25.20135],[92.01923,25.20414],[92.01322,25.2061],[92.0105,25.20803],[92.00524,25.21709],[91.99998,25.22275],[91.99825,25.2306],[91.99127,25.23903],[91.98794,25.24506],[91.98817,25.25041],[91.98511,25.25559],[91.98885,25.27477],[91.99306,25.28014],[91.99998,25.2867],[92.00561,25.29245],[92.00731,25.29648],[92.0108,25.29847],[92.01141,25.30002],[92.0151,25.30164],[92.01705,25.30137],[92.02361,25.30885],[92.0251,25.30971],[92.03383,25.31041],[92.03512,25.31286],[92.0395,25.31401],[92.04223,25.31687],[92.05089,25.31932],[92.05461,25.31849],[92.05667,25.31496],[92.0592,25.31405],[92.06396,25.31645],[92.0703,25.31737],[92.08406,25.31099],[92.0882,25.30804],[92.09525,25.31206],[92.09682,25.31214],[92.10252,25.3057],[92.11175,25.30331],[92.11617,25.30701],[92.11809,25.31395],[92.11772,25.31827],[92.12299,25.32861],[92.12247,25.33028],[92.11829,25.33171],[92.11545,25.33721],[92.11525,25.34228],[92.11616,25.34563],[92.11282,25.3491],[92.11185,25.35133],[92.11206,25.35468],[92.11316,25.35695],[92.11432,25.36037],[92.11346,25.37131],[92.11464,25.37854],[92.1128,25.38364],[92.10515,25.39495],[92.10506,25.39673],[92.11361,25.40268],[92.11483,25.40507],[92.11571,25.41027],[92.11078,25.4253],[92.10578,25.43197],[92.10616,25.44051],[92.10213,25.44472],[92.09948,25.45033],[92.09963,25.45287],[92.10512,25.45727],[92.11256,25.46556],[92.11307,25.47],[92.10895,25.48067],[92.10119,25.48575],[92.0997,25.48867],[92.09921,25.49229],[92.10163,25.49964],[92.10406,25.50221],[92.10237,25.51014],[92.10284,25.51263],[92.10843,25.51899],[92.11393,25.53624],[92.11644,25.54232],[92.11359,25.54758],[92.10996,25.55041],[92.10909,25.55312],[92.10968,25.56113],[92.1167,25.57414],[92.12169,25.57864],[92.12354,25.58184],[92.12393,25.59042],[92.12502,25.59378],[92.12789,25.59613],[92.1271,25.59836],[92.12391,25.60166],[92.12401,25.6031],[92.13502,25.61518],[92.14227,25.62542],[92.13869,25.62837],[92.13905,25.63459],[92.13612,25.64066],[92.13834,25.64052],[92.13898,25.64013],[92.14076,25.63906],[92.14417,25.63916],[92.15025,25.64206],[92.15263,25.64878],[92.15678,25.64521],[92.15858,25.64714],[92.15853,25.65152],[92.15357,25.6636],[92.15545,25.66933],[92.16081,25.66969],[92.16209,25.67161],[92.16228,25.67017],[92.16604,25.66763],[92.17133,25.66471],[92.17252,25.66518],[92.17652,25.66852],[92.18635,25.67943],[92.18948,25.68171],[92.19354,25.68459],[92.19564,25.68439],[92.19847,25.68523],[92.19986,25.68462],[92.20163,25.68556],[92.20311,25.688],[92.21219,25.69417],[92.22648,25.71221],[92.23056,25.71445],[92.23418,25.71335],[92.23539,25.70829],[92.23629,25.70705],[92.23838,25.70661],[92.24958,25.70917],[92.2551,25.70832],[92.25723,25.70893],[92.26237,25.70853],[92.27202,25.70911],[92.28611,25.71402],[92.28947,25.71406],[92.29507,25.71546],[92.30758,25.72126],[92.30975,25.72428],[92.31298,25.72421],[92.3154,25.7228],[92.31914,25.72193],[92.33498,25.72333],[92.34046,25.72495],[92.3495,25.73001],[92.35325,25.73294],[92.36442,25.73458],[92.36975,25.7385],[92.36897,25.74045],[92.3729,25.74453],[92.38654,25.7516],[92.38838,25.75052],[92.38575,25.74837],[92.38496,25.74548],[92.38638,25.74279],[92.38837,25.74114],[92.39355,25.74063],[92.39616,25.7395],[92.40618,25.7417],[92.41213,25.74114],[92.41778,25.7385],[92.41384,25.73539],[92.41463,25.73195],[92.41413,25.73096],[92.41834,25.72767],[92.42271,25.72744],[92.43336,25.72992],[92.43451,25.72942],[92.44334,25.71881],[92.43778,25.71356],[92.43097,25.71124],[92.42854,25.70839],[92.43284,25.70222],[92.43465,25.69319],[92.43343,25.68897],[92.43561,25.68549],[92.44174,25.68608],[92.44129,25.68717],[92.44433,25.68559],[92.45256,25.68454],[92.45651,25.68216],[92.46113,25.68089],[92.46669,25.68038],[92.47278,25.67285],[92.47588,25.67121],[92.48256,25.66178],[92.48946,25.64787],[92.49441,25.63399],[92.49905,25.62482],[92.50282,25.62078],[92.51165,25.61504],[92.51838,25.6179],[92.53433,25.61375],[92.54151,25.61557],[92.54558,25.61204],[92.5543,25.61162],[92.55868,25.60975],[92.55966,25.60672],[92.55722,25.60364],[92.55827,25.59397],[92.55735,25.59056],[92.56193,25.58048],[92.56195,25.57202],[92.56568,25.566],[92.57052,25.5622],[92.57345,25.55815],[92.57705,25.55737],[92.58235,25.55749],[92.58842,25.5507],[92.59441,25.55163],[92.60352,25.55507],[92.60443,25.55876],[92.60963,25.56342],[92.61342,25.56318],[92.62203,25.56597],[92.62702,25.56568],[92.62978,25.56714],[92.63148,25.56832],[92.63415,25.57243],[92.63506,25.57653],[92.64155,25.58501],[92.64926,25.58998],[92.6521,25.59036],[92.65438,25.5898],[92.65851,25.58667],[92.66139,25.58267],[92.66161,25.57945]]]}}]}