{"type":"FeatureCollection","features":[{"type":"Feature","properties":{"id":"south-garo-hills","name":"South Garo Hills","stateId":"meghalaya","stateName":"Meghalaya","censuscode":295,"type":"district"},"geometry":{"type":"Polygon","coordinates":[[[90.97256,25.17201],[90.95847,25.16973],[90.94777,25.16878],[90.93768,25.16712],[90.9276,25.16439],[90.91691,25.16254],[90.91147,25.16148],[90.90181,25.16406],[90.89454,25.1656],[90.87982,25.16144],[90.87231,25.15909],[90.85773,25.15908],[90.844,25.16126],[90.83725,25.16152],[90.82244,25.16296],[90.81177,25.16679],[90.80394,25.17183],[90.79878,25.178],[90.79307,25.1818],[90.78302,25.1832],[90.77798,25.18169],[90.77438,25.17749],[90.76975,25.16957],[90.76337,25.16461],[90.75563,25.16451],[90.74432,25.16463],[90.74316,25.15685],[90.73497,25.15412],[90.72962,25.15937],[90.72359,25.16425],[90.71773,25.16426],[90.71144,25.16128],[90.70412,25.15947],[90.69639,25.15918],[90.68694,25.16591],[90.68282,25.16938],[90.67781,25.16696],[90.67137,25.17183],[90.66968,25.17785],[90.66788,25.18406],[90.65801,25.19258],[90.65427,25.18512],[90.64664,25.17897],[90.63981,25.1777],[90.6392,25.17263],[90.63306,25.17191],[90.62254,25.17195],[90.61508,25.17337],[90.59951,25.17315],[90.57621,25.17155],[90.56125,25.17006],[90.54944,25.17034],[90.52249,25.16822],[90.51326,25.1679],[90.50005,25.16373],[90.49285,25.16109],[90.48742,25.1592],[90.48312,25.15607],[90.47542,25.1536],[90.4697,25.15225],[90.46047,25.15175],[90.45565,25.15014],[90.44744,25.14324],[90.43827,25.14517],[90.4328,25.14608],[90.42351,25.14964],[90.41853,25.15082],[90.41228,25.1555],[90.40112,25.15785],[90.39217,25.15888],[90.38641,25.15969],[90.38023,25.16122],[90.36901,25.16636],[90.36089,25.17021],[90.35497,25.17362],[90.35103,25.17708],[90.3453,25.18141],[90.33892,25.18771],[90.33458,25.19116],[90.32679,25.18869],[90.31768,25.18736],[90.31184,25.18663],[90.30379,25.18713],[90.29423,25.18887],[90.28799,25.193],[90.27827,25.19744],[90.26967,25.19604],[90.26314,25.19493],[90.25766,25.19566],[90.24974,25.19995],[90.24264,25.20198],[90.23647,25.20324],[90.23077,25.21777],[90.23209,25.23466],[90.25042,25.25298],[90.25851,25.27685],[90.25864,25.30763],[90.26428,25.32069],[90.28411,25.33958],[90.29793,25.35292],[90.31148,25.3648],[90.31646,25.38385],[90.30645,25.41795],[90.31025,25.43463],[90.32286,25.46537],[90.33419,25.46039],[90.35211,25.45913],[90.35925,25.45753],[90.36832,25.45423],[90.40804,25.45801],[90.43875,25.45334],[90.44942,25.45081],[90.4633,25.45086],[90.47888,25.45342],[90.48938,25.44639],[90.50483,25.43821],[90.52174,25.43289],[90.55467,25.43316],[90.57421,25.42726],[90.58283,25.42098],[90.60792,25.42443],[90.63465,25.4183],[90.64249,25.41494],[90.64743,25.41558],[90.65838,25.43768],[90.66185,25.4518],[90.68197,25.48115],[90.70467,25.50675],[90.73317,25.53271],[90.75291,25.54733],[90.76169,25.55148],[90.7694,25.55387],[90.7674,25.55045],[90.77141,25.5434],[90.78035,25.54031],[90.78345,25.53541],[90.78405,25.52655],[90.79059,25.51065],[90.79317,25.50738],[90.7919,25.50172],[90.79223,25.49594],[90.7954,25.49023],[90.79477,25.48575],[90.78997,25.47891],[90.7774,25.47529],[90.7749,25.47167],[90.77677,25.46822],[90.78447,25.46899],[90.78807,25.46789],[90.78738,25.46405],[90.78003,25.45272],[90.76833,25.45562],[90.76217,25.45462],[90.76032,25.45094],[90.76328,25.44903],[90.76464,25.44582],[90.76062,25.4394],[90.76032,25.43147],[90.76246,25.42528],[90.76652,25.42039],[90.76629,25.41246],[90.76489,25.4047],[90.76563,25.39747],[90.7537,25.3915],[90.75198,25.38695],[90.75219,25.38019],[90.7594,25.37595],[90.76192,25.37093],[90.7677,25.3675],[90.78619,25.36485],[90.79329,25.36941],[90.80093,25.36785],[90.80889,25.36774],[90.81435,25.3648],[90.81525,25.36431],[90.81718,25.36011],[90.82199,25.35872],[90.82623,25.35907],[90.83373,25.35722],[90.84008,25.35746],[90.84453,25.35105],[90.8409,25.34026],[90.84258,25.33583],[90.84269,25.31211],[90.84714,25.30669],[90.85529,25.301],[90.85697,25.29697],[90.86006,25.29296],[90.8669,25.29327],[90.8791,25.29205],[90.89435,25.29517],[90.90345,25.29622],[90.91225,25.28932],[90.91738,25.2853],[90.92234,25.27446],[90.9285,25.2666],[90.93954,25.26187],[90.9482,25.26029],[90.95481,25.25572],[90.96168,25.24605],[90.96233,25.23409],[90.96035,25.23039],[90.95574,25.22765],[90.9562,25.22185],[90.95268,25.21793],[90.95269,25.2142],[90.95845,25.21152],[90.96218,25.20337],[90.97147,25.20066],[90.97437,25.19103],[90.97256,25.17201]]]}}]}