{"type":"FeatureCollection","features":[{"type":"Feature","properties":{"id":"aligarh","name":"Aligarh","stateId":"uttar-pradesh","stateName":"Uttar Pradesh","censuscode":143,"type":"district"},"geometry":{"type":"Polygon","coordinates":[[[78.48602,28.12402],[78.49316,28.12193],[78.5003,28.11638],[78.50386,28.11025],[78.50421,28.09325],[78.50808,28.09144],[78.5098,28.0877],[78.52708,28.081],[78.53573,28.07511],[78.55006,28.06312],[78.5587,28.06626],[78.56521,28.0714],[78.56949,28.07165],[78.5721,28.07476],[78.57695,28.07805],[78.58325,28.0805],[78.58924,28.08188],[78.59368,28.07991],[78.58969,28.06806],[78.60179,28.06435],[78.60661,28.06078],[78.61639,28.05581],[78.60591,28.05216],[78.61145,28.04884],[78.61459,28.04516],[78.61534,28.04217],[78.62059,28.03883],[78.6144,28.03541],[78.60877,28.02975],[78.59988,28.00096],[78.59443,27.99436],[78.60031,27.98023],[78.59909,27.97607],[78.5956,27.97277],[78.59001,27.96989],[78.58523,27.96198],[78.58705,27.95646],[78.58053,27.95104],[78.57004,27.94049],[78.57578,27.93688],[78.5686,27.92633],[78.5558,27.91412],[78.55222,27.90913],[78.54667,27.90827],[78.54033,27.90605],[78.53286,27.90904],[78.53062,27.90403],[78.53469,27.89976],[78.5347,27.8968],[78.52211,27.89338],[78.5173,27.88673],[78.51434,27.88088],[78.51409,27.87729],[78.51178,27.87609],[78.51066,27.8738],[78.50776,27.87089],[78.50934,27.86693],[78.49998,27.8578],[78.49763,27.85811],[78.49482,27.85745],[78.49382,27.85464],[78.50566,27.84731],[78.51427,27.84037],[78.5104,27.83301],[78.51067,27.82989],[78.51542,27.82838],[78.51593,27.82455],[78.51457,27.81948],[78.51785,27.81741],[78.51825,27.81457],[78.51725,27.81147],[78.50931,27.80023],[78.50388,27.79845],[78.49591,27.80086],[78.49346,27.80303],[78.48939,27.80279],[78.48689,27.80571],[78.47875,27.8076],[78.47841,27.80808],[78.4747,27.81322],[78.46595,27.82746],[78.44851,27.81783],[78.44177,27.81143],[78.42802,27.79559],[78.41822,27.78676],[78.40763,27.78298],[78.398,27.77692],[78.3881,27.76763],[78.38211,27.75168],[78.3756,27.74445],[78.36499,27.74223],[78.34297,27.73722],[78.33341,27.73409],[78.32482,27.72766],[78.31936,27.71906],[78.30735,27.70718],[78.29313,27.70457],[78.27362,27.69019],[78.26771,27.67726],[78.25967,27.67653],[78.24858,27.68789],[78.24854,27.68812],[78.24667,27.69889],[78.24645,27.69907],[78.24093,27.70351],[78.2344,27.70519],[78.22765,27.7086],[78.21551,27.72013],[78.20423,27.73018],[78.20425,27.73038],[78.20495,27.7371],[78.21884,27.7547],[78.21803,27.76094],[78.21781,27.76102],[78.20422,27.76584],[78.1825,27.76173],[78.17244,27.76428],[78.17218,27.76474],[78.16895,27.77039],[78.16894,27.7704],[78.16218,27.77417],[78.15119,27.77009],[78.13996,27.76803],[78.13495,27.77211],[78.12551,27.77457],[78.11835,27.77026],[78.10465,27.76807],[78.08842,27.76898],[78.07723,27.77133],[78.07722,27.77173],[78.07688,27.78052],[78.07662,27.78079],[78.06996,27.78777],[78.06171,27.78684],[78.05353,27.78132],[78.04738,27.77234],[78.04144,27.76896],[78.03366,27.77079],[78.03062,27.77378],[78.02395,27.7715],[78.02281,27.76524],[78.01923,27.7628],[78.01527,27.75238],[78.01728,27.74461],[78.01736,27.74432],[78.02536,27.73731],[78.02563,27.73707],[78.02566,27.73496],[78.02138,27.7316],[78.01228,27.73231],[78.01045,27.72803],[78.01039,27.72788],[78.01322,27.72525],[78.01709,27.7186],[78.01736,27.71814],[78.01593,27.71041],[78.00615,27.70257],[78.00574,27.69567],[78.01026,27.68782],[78.01052,27.68738],[78.01783,27.67738],[78.01811,27.677],[78.016,27.66705],[78.00873,27.65042],[78.00267,27.64236],[77.99623,27.63189],[77.99417,27.62121],[77.99414,27.62103],[78.00328,27.61275],[78.00345,27.6126],[78.00518,27.6073],[78.00004,27.60034],[77.99301,27.60135],[77.9928,27.6018],[77.98991,27.60811],[77.98984,27.60813],[77.98442,27.60979],[77.97717,27.60483],[77.96713,27.59459],[77.96109,27.59801],[77.96109,27.59831],[77.96113,27.60811],[77.96087,27.60824],[77.95469,27.61124],[77.94538,27.6069],[77.93647,27.59631],[77.92413,27.59332],[77.90003,27.58627],[77.89768,27.58391],[77.89762,27.58385],[77.89717,27.58441],[77.89148,27.58695],[77.88858,27.58627],[77.88425,27.58298],[77.88025,27.5778],[77.87679,27.57598],[77.8721,27.57534],[77.86983,27.57642],[77.86816,27.57875],[77.86545,27.58637],[77.85739,27.59745],[77.8549,27.60214],[77.85512,27.60718],[77.86252,27.61677],[77.86296,27.62255],[77.86166,27.62666],[77.85559,27.63802],[77.85092,27.65325],[77.84532,27.65681],[77.84202,27.66009],[77.84001,27.65703],[77.83336,27.66193],[77.83134,27.66949],[77.82857,27.67115],[77.82295,27.67196],[77.8206,27.66845],[77.81813,27.66753],[77.81403,27.66973],[77.79413,27.68414],[77.79305,27.68852],[77.79672,27.69136],[77.80011,27.69748],[77.80052,27.70258],[77.79787,27.70642],[77.79846,27.71334],[77.79993,27.71732],[77.79983,27.72254],[77.79668,27.72679],[77.79655,27.72903],[77.79687,27.73332],[77.80178,27.74314],[77.8057,27.74775],[77.81007,27.75024],[77.81569,27.75156],[77.82194,27.75217],[77.82865,27.75175],[77.83421,27.75278],[77.83479,27.7551],[77.83137,27.76104],[77.82701,27.76531],[77.82216,27.77469],[77.81766,27.77863],[77.81571,27.78452],[77.81391,27.79063],[77.81394,27.79642],[77.81441,27.80146],[77.81626,27.80732],[77.81605,27.81311],[77.80698,27.82334],[77.80356,27.82283],[77.79743,27.82399],[77.78377,27.83969],[77.78438,27.84507],[77.80559,27.85667],[77.80905,27.86064],[77.80496,27.86177],[77.79757,27.86146],[77.77797,27.86525],[77.77447,27.86641],[77.7716,27.8691],[77.76905,27.87202],[77.7648,27.88243],[77.76377,27.88698],[77.76604,27.89651],[77.76527,27.9007],[77.76151,27.90405],[77.7542,27.90661],[77.74862,27.91147],[77.74415,27.92361],[77.7413,27.92699],[77.73727,27.92994],[77.73219,27.93227],[77.71458,27.94289],[77.70718,27.94493],[77.70231,27.94532],[77.68753,27.94096],[77.67868,27.9416],[77.67337,27.94463],[77.66832,27.95006],[77.66343,27.95904],[77.66093,27.96144],[77.65592,27.96395],[77.64431,27.96475],[77.64104,27.9604],[77.63851,27.95518],[77.62989,27.94348],[77.6262,27.93581],[77.62253,27.93296],[77.61668,27.93279],[77.60857,27.93714],[77.6046,27.93515],[77.59476,27.93534],[77.58973,27.93441],[77.58802,27.93317],[77.58568,27.92961],[77.58268,27.92806],[77.57484,27.92827],[77.57126,27.92656],[77.5696,27.92465],[77.57005,27.9177],[77.56823,27.91481],[77.56432,27.91254],[77.55994,27.91193],[77.55674,27.91234],[77.55037,27.91436],[77.54568,27.91696],[77.53547,27.91934],[77.53287,27.92076],[77.52842,27.92618],[77.54059,27.93611],[77.54539,27.94359],[77.5466,27.95206],[77.54521,27.95984],[77.53828,27.96055],[77.52429,27.95979],[77.51987,27.96251],[77.51886,27.96763],[77.52271,27.97175],[77.53597,27.97832],[77.54145,27.98315],[77.54454,27.98762],[77.52945,28.00085],[77.52121,28.00456],[77.5187,28.01203],[77.51585,28.01666],[77.51111,28.0217],[77.5068,28.02496],[77.50452,28.02862],[77.49906,28.03364],[77.48846,28.03848],[77.48699,28.04343],[77.49222,28.05198],[77.49227,28.05504],[77.48622,28.06765],[77.48112,28.07309],[77.47942,28.07807],[77.49111,28.07834],[77.49659,28.07766],[77.50095,28.07573],[77.50737,28.07613],[77.51826,28.07987],[77.52587,28.07669],[77.53888,28.08077],[77.54922,28.07875],[77.55454,28.07946],[77.57255,28.07936],[77.57635,28.08119],[77.58375,28.09099],[77.59205,28.09605],[77.59577,28.09661],[77.59765,28.0985],[77.60246,28.10122],[77.60865,28.10838],[77.61463,28.10133],[77.61524,28.10204],[77.61929,28.09448],[77.62341,28.09724],[77.63233,28.09808],[77.63484,28.09756],[77.64164,28.09371],[77.6442,28.09377],[77.64689,28.09697],[77.6485,28.10175],[77.65346,28.10384],[77.65829,28.11195],[77.66223,28.11093],[77.6653,28.10926],[77.67387,28.10847],[77.6756,28.10334],[77.68411,28.09479],[77.69018,28.08611],[77.69717,28.07891],[77.7006,28.078],[77.70593,28.08118],[77.71256,28.08063],[77.71422,28.07899],[77.71747,28.07952],[77.72186,28.08205],[77.72673,28.08239],[77.73687,28.08847],[77.73124,28.1033],[77.73271,28.10635],[77.7375,28.11056],[77.73911,28.11513],[77.73931,28.1157],[77.73629,28.12329],[77.74285,28.12616],[77.74726,28.13025],[77.74971,28.135],[77.74716,28.14248],[77.76149,28.15143],[77.76593,28.151],[77.76533,28.14426],[77.77032,28.13694],[77.77166,28.13223],[77.77406,28.12862],[77.77692,28.12695],[77.7855,28.13709],[77.79029,28.13876],[77.79507,28.13782],[77.80023,28.13758],[77.80744,28.13982],[77.81401,28.13984],[77.81286,28.1477],[77.80977,28.15297],[77.81754,28.154],[77.82065,28.15587],[77.82558,28.15712],[77.82908,28.16154],[77.83331,28.16186],[77.83661,28.16413],[77.83766,28.16618],[77.84245,28.17034],[77.84545,28.17162],[77.85097,28.1642],[77.85205,28.15911],[77.84789,28.15798],[77.85383,28.14889],[77.85244,28.14486],[77.8481,28.14049],[77.84453,28.13311],[77.85084,28.1272],[77.86079,28.13124],[77.8665,28.13194],[77.87007,28.13021],[77.87512,28.12353],[77.89667,28.1088],[77.90643,28.10703],[77.91435,28.10078],[77.91951,28.09354],[77.92814,28.09623],[77.9395,28.08822],[77.9373,28.07976],[77.93923,28.07664],[77.94519,28.07764],[77.95084,28.08038],[77.95863,28.07909],[77.96388,28.08272],[77.96775,28.08137],[77.97077,28.07848],[77.97361,28.07743],[77.97647,28.07878],[77.98196,28.07994],[77.98716,28.08019],[77.99431,28.07495],[78.00008,28.07329],[78.0048,28.07765],[78.00451,28.08929],[78.02357,28.10247],[78.03363,28.11017],[78.03593,28.12095],[78.05001,28.12952],[78.06706,28.1256],[78.07418,28.12638],[78.07995,28.12238],[78.08234,28.11807],[78.08798,28.11891],[78.09441,28.11709],[78.10311,28.12301],[78.10468,28.12074],[78.09987,28.11079],[78.10193,28.10749],[78.1079,28.10782],[78.11815,28.11383],[78.12386,28.11432],[78.12906,28.10707],[78.13758,28.10386],[78.14335,28.09423],[78.14442,28.08815],[78.13813,28.07771],[78.13961,28.07444],[78.14379,28.07109],[78.1515,28.06881],[78.15993,28.06909],[78.16906,28.0761],[78.17695,28.08535],[78.18027,28.086],[78.18475,28.08401],[78.19144,28.08386],[78.1984,28.086],[78.20676,28.09319],[78.22084,28.10849],[78.22375,28.10858],[78.23178,28.09956],[78.23405,28.09846],[78.23836,28.09973],[78.23992,28.10208],[78.24903,28.10605],[78.25161,28.10832],[78.25309,28.11407],[78.2603,28.11567],[78.2737,28.11405],[78.27985,28.11723],[78.28237,28.11956],[78.29018,28.12185],[78.29604,28.12156],[78.29961,28.11708],[78.30672,28.11811],[78.3219,28.12414],[78.32801,28.12832],[78.33186,28.12713],[78.33612,28.12951],[78.33982,28.13589],[78.34473,28.13613],[78.34716,28.13906],[78.35209,28.14857],[78.3593,28.15178],[78.36401,28.1495],[78.3689,28.1518],[78.37167,28.14816],[78.37517,28.14522],[78.38087,28.14297],[78.386,28.1397],[78.38795,28.1348],[78.38652,28.12788],[78.39268,28.12375],[78.3925,28.12074],[78.38614,28.10645],[78.38933,28.10333],[78.39483,28.10581],[78.40298,28.11447],[78.41395,28.10734],[78.41407,28.10311],[78.41831,28.0984],[78.4239,28.09894],[78.42879,28.09382],[78.43515,28.09778],[78.44031,28.1022],[78.45166,28.09754],[78.4617,28.0975],[78.47384,28.11048],[78.48602,28.12402]]]}}]}