{"type":"FeatureCollection","features":[{"type":"Feature","properties":{"id":"allahabad","name":"Allahabad","stateId":"uttar-pradesh","stateName":"Uttar Pradesh","censuscode":175,"type":"district"},"geometry":{"type":"Polygon","coordinates":[[[81.94597,25.74001],[81.95736,25.73855],[81.96639,25.74],[81.97031,25.73837],[81.97273,25.73617],[81.97759,25.73508],[81.98182,25.73558],[81.98554,25.73853],[81.98539,25.74091],[81.98894,25.74755],[81.99757,25.74468],[82,25.74521],[82.00486,25.74591],[82.00735,25.74582],[82.01046,25.7458],[82.01242,25.74567],[82.01342,25.74553],[82.01467,25.74468],[82.01787,25.74416],[82.01953,25.74358],[82.02116,25.74308],[82.02284,25.74195],[82.02394,25.74066],[82.0258,25.73929],[82.02632,25.73902],[82.02791,25.73755],[82.02963,25.73643],[82.0323,25.73374],[82.03396,25.7322],[82.03591,25.72984],[82.03757,25.72818],[82.03986,25.72514],[82.04,25.72331],[82.03918,25.7225],[82.03532,25.71829],[82.03236,25.71598],[82.02845,25.71155],[82.02675,25.70913],[82.0265,25.7086],[82.02517,25.7082],[82.02378,25.70808],[82.0227,25.70785],[82.02137,25.70739],[82.01682,25.70559],[82.01512,25.70461],[82.01366,25.70357],[82.01291,25.70264],[82.01209,25.70144],[82.01115,25.6981],[82.01236,25.69678],[82.01325,25.69649],[82.01553,25.69649],[82.01894,25.69674],[82.02084,25.69657],[82.02292,25.69721],[82.02483,25.69699],[82.02717,25.69624],[82.02807,25.69608],[82.02983,25.69528],[82.0311,25.69448],[82.03434,25.6927],[82.03611,25.69156],[82.03732,25.69104],[82.03916,25.6907],[82.04194,25.68985],[82.04321,25.68962],[82.04707,25.68825],[82.04878,25.68774],[82.05163,25.68597],[82.05379,25.68529],[82.05747,25.68386],[82.0593,25.68352],[82.06095,25.68341],[82.0645,25.68088],[82.06533,25.6802],[82.06736,25.67899],[82.06755,25.67842],[82.06724,25.67589],[82.06649,25.67393],[82.06416,25.66887],[82.06372,25.6679],[82.06102,25.66288],[82.06058,25.66035],[82.06154,25.65921],[82.06305,25.65887],[82.06577,25.65876],[82.06806,25.65854],[82.07033,25.65843],[82.07197,25.65797],[82.07444,25.6577],[82.07786,25.6569],[82.07983,25.65667],[82.08154,25.65656],[82.08338,25.65611],[82.0854,25.65594],[82.0859,25.65652],[82.08691,25.65808],[82.08723,25.6594],[82.08829,25.65992],[82.08937,25.66003],[82.09013,25.66039],[82.09089,25.6605],[82.09221,25.66084],[82.09418,25.66051],[82.09475,25.66005],[82.09659,25.66017],[82.09798,25.66006],[82.1007,25.6595],[82.10387,25.65795],[82.1052,25.65715],[82.10596,25.65645],[82.10717,25.65577],[82.1085,25.65457],[82.11066,25.65406],[82.11235,25.6551],[82.11355,25.65568],[82.11779,25.6585],[82.11887,25.65913],[82.12038,25.6596],[82.12316,25.66214],[82.12392,25.66271],[82.12455,25.66334],[82.12481,25.66398],[82.12442,25.66478],[82.12429,25.66593],[82.12397,25.66697],[82.12359,25.66771],[82.1232,25.66995],[82.12307,25.67196],[82.12294,25.67248],[82.12192,25.6746],[82.12211,25.67725],[82.12204,25.67771],[82.12299,25.67972],[82.12425,25.68105],[82.12614,25.68174],[82.1281,25.68203],[82.13159,25.68193],[82.13349,25.6821],[82.13589,25.68193],[82.13766,25.68211],[82.14095,25.68322],[82.14228,25.68385],[82.14405,25.68437],[82.14513,25.68409],[82.14697,25.68385],[82.1481,25.68346],[82.14949,25.68312],[82.15064,25.68266],[82.15191,25.68232],[82.15614,25.68238],[82.1559,25.68089],[82.15608,25.67912],[82.15564,25.67688],[82.1552,25.67556],[82.15444,25.67406],[82.15242,25.67096],[82.15205,25.6705],[82.15072,25.66992],[82.14964,25.66974],[82.14623,25.66864],[82.14515,25.66847],[82.14369,25.66812],[82.14307,25.66788],[82.14263,25.66737],[82.14168,25.66558],[82.14004,25.66173],[82.13929,25.65943],[82.13866,25.65753],[82.13918,25.65696],[82.14082,25.65593],[82.14126,25.65553],[82.1426,25.65472],[82.14342,25.65392],[82.14406,25.65306],[82.14488,25.65226],[82.14419,25.65151],[82.14286,25.65145],[82.14203,25.65157],[82.14109,25.65179],[82.14051,25.65202],[82.13943,25.65162],[82.13741,25.65115],[82.13584,25.65016],[82.13394,25.64942],[82.1328,25.6481],[82.13154,25.64717],[82.1306,25.64699],[82.12895,25.64728],[82.12635,25.64733],[82.12534,25.64726],[82.12408,25.64693],[82.12281,25.64646],[82.12218,25.64582],[82.12168,25.64496],[82.12099,25.64341],[82.1234,25.63979],[82.12663,25.63647],[82.12829,25.63492],[82.13081,25.63298],[82.13253,25.63212],[82.13348,25.63154],[82.13506,25.62965],[82.13685,25.6269],[82.13735,25.62506],[82.13825,25.62293],[82.13958,25.62064],[82.14085,25.61909],[82.14186,25.61823],[82.14281,25.6172],[82.14492,25.61422],[82.14631,25.61284],[82.14809,25.61084],[82.14872,25.60992],[82.15005,25.60848],[82.15126,25.60676],[82.15361,25.60171],[82.15437,25.60085],[82.15539,25.60022],[82.15734,25.60016],[82.15918,25.59988],[82.16178,25.59972],[82.16298,25.59983],[82.1664,25.59984],[82.16797,25.59956],[82.16867,25.59962],[82.17019,25.59916],[82.17152,25.59801],[82.17196,25.59669],[82.17254,25.59445],[82.17305,25.59175],[82.17363,25.58946],[82.17407,25.58831],[82.17534,25.5863],[82.17686,25.58498],[82.17972,25.58297],[82.18263,25.58131],[82.18402,25.58097],[82.18567,25.58121],[82.18629,25.58144],[82.18737,25.58213],[82.19033,25.58317],[82.19198,25.58358],[82.19382,25.58369],[82.19647,25.58444],[82.19831,25.58468],[82.20032,25.5848],[82.20096,25.58469],[82.20179,25.58181],[82.20185,25.58049],[82.20211,25.57882],[82.20206,25.5759],[82.20282,25.57451],[82.20452,25.5744],[82.20572,25.57498],[82.20749,25.57642],[82.20813,25.57711],[82.20882,25.57833],[82.21014,25.58011],[82.21203,25.58327],[82.21228,25.58402],[82.2131,25.58568],[82.21399,25.58695],[82.21486,25.58805],[82.21639,25.58868],[82.21701,25.5888],[82.21948,25.58915],[82.22068,25.58898],[82.22194,25.58874],[82.22372,25.58864],[82.22871,25.58784],[82.23315,25.5863],[82.23536,25.58567],[82.23713,25.58493],[82.23922,25.58418],[82.24119,25.58332],[82.24283,25.5831],[82.24441,25.58212],[82.24587,25.58138],[82.24852,25.58086],[82.25087,25.57938],[82.25232,25.5795],[82.25088,25.57598],[82.24993,25.57472],[82.24923,25.57357],[82.24702,25.57029],[82.24652,25.56937],[82.24608,25.56816],[82.24551,25.56718],[82.24703,25.56597],[82.24925,25.56483],[82.25102,25.56432],[82.25285,25.56403],[82.2545,25.56398],[82.25577,25.56375],[82.25886,25.56381],[82.26291,25.5648],[82.26468,25.56434],[82.26607,25.56365],[82.26822,25.56171],[82.27044,25.55929],[82.27158,25.55815],[82.27202,25.55781],[82.27354,25.55723],[82.27531,25.55643],[82.27771,25.55557],[82.28113,25.5546],[82.28246,25.55414],[82.28373,25.55351],[82.28474,25.55323],[82.28601,25.55231],[82.28682,25.55099],[82.28727,25.54984],[82.2881,25.54834],[82.28835,25.54691],[82.28899,25.54565],[82.28962,25.54392],[82.29195,25.54386],[82.29341,25.5441],[82.29569,25.54548],[82.29689,25.54588],[82.30023,25.54756],[82.30156,25.54831],[82.30358,25.54911],[82.30491,25.5494],[82.30611,25.54963],[82.30693,25.54963],[82.30908,25.54935],[82.31029,25.5493],[82.31281,25.54889],[82.31826,25.54689],[82.32161,25.54517],[82.32483,25.54385],[82.32603,25.54328],[82.32692,25.54236],[82.33028,25.538],[82.33129,25.53685],[82.3304,25.53604],[82.32857,25.53386],[82.32737,25.53259],[82.32719,25.5319],[82.3273,25.53024],[82.32851,25.52598],[82.32915,25.52466],[82.32978,25.52403],[82.33143,25.52184],[82.33231,25.52111],[82.33452,25.51782],[82.33599,25.51645],[82.33668,25.51536],[82.33763,25.51421],[82.3389,25.51318],[82.33946,25.51237],[82.33871,25.51019],[82.33619,25.50461],[82.33423,25.50243],[82.33246,25.50065],[82.33145,25.49828],[82.32918,25.49834],[82.32798,25.49966],[82.3274,25.50069],[82.32589,25.50276],[82.32475,25.50512],[82.32399,25.5065],[82.32328,25.50856],[82.32221,25.51109],[82.32089,25.51454],[82.31936,25.51758],[82.31765,25.52138],[82.31638,25.52241],[82.31538,25.52275],[82.31323,25.52246],[82.31139,25.5224],[82.30912,25.52211],[82.30767,25.52182],[82.30577,25.5217],[82.30425,25.52141],[82.3026,25.52124],[82.29933,25.51997],[82.29825,25.51922],[82.29762,25.51853],[82.29667,25.51703],[82.29598,25.51571],[82.29597,25.51428],[82.29661,25.51353],[82.29801,25.51255],[82.30002,25.51164],[82.30268,25.51107],[82.30395,25.51073],[82.30591,25.51044],[82.30812,25.50987],[82.30887,25.50958],[82.31065,25.50866],[82.3116,25.50832],[82.31254,25.50769],[82.31324,25.50746],[82.31413,25.50671],[82.31533,25.50539],[82.31635,25.50413],[82.31716,25.50275],[82.31729,25.50143],[82.31698,25.50092],[82.3154,25.49919],[82.31243,25.49735],[82.31104,25.49636],[82.30953,25.49584],[82.3075,25.4955],[82.30611,25.49544],[82.30542,25.49533],[82.30378,25.49555],[82.3008,25.49624],[82.29973,25.49663],[82.29828,25.49738],[82.29695,25.49819],[82.29328,25.49991],[82.29031,25.50013],[82.28898,25.50007],[82.28822,25.49978],[82.28684,25.49806],[82.28469,25.49403],[82.284,25.49133],[82.28406,25.49012],[82.28387,25.4884],[82.28394,25.48753],[82.28496,25.48576],[82.28552,25.48506],[82.28647,25.48438],[82.28812,25.48277],[82.28982,25.4822],[82.29191,25.48232],[82.29286,25.48226],[82.29438,25.48261],[82.29671,25.48295],[82.29918,25.48342],[82.30221,25.48423],[82.30404,25.48458],[82.30531,25.48452],[82.3072,25.48475],[82.30853,25.48452],[82.30992,25.48384],[82.31176,25.48176],[82.31232,25.48073],[82.31251,25.47919],[82.31258,25.47752],[82.3129,25.47591],[82.3129,25.47338],[82.31271,25.4716],[82.31221,25.46832],[82.31077,25.46228],[82.31064,25.46114],[82.31146,25.45993],[82.31286,25.45941],[82.31507,25.45884],[82.32075,25.45679],[82.32183,25.45684],[82.32322,25.45616],[82.32404,25.45466],[82.32429,25.4538],[82.32493,25.45259],[82.32607,25.44932],[82.32765,25.44909],[82.32872,25.44943],[82.33181,25.4495],[82.33421,25.44973],[82.33517,25.44961],[82.33592,25.44962],[82.337,25.44893],[82.33757,25.44829],[82.3382,25.4472],[82.34047,25.44353],[82.34193,25.44169],[82.34326,25.43894],[82.34409,25.43692],[82.34484,25.43497],[82.34567,25.43342],[82.34662,25.43181],[82.34845,25.42934],[82.34972,25.42733],[82.3506,25.42538],[82.35211,25.42297],[82.35268,25.41975],[82.35332,25.41877],[82.35143,25.41441],[82.35081,25.41319],[82.34903,25.41026],[82.34816,25.40854],[82.34664,25.40624],[82.3455,25.40468],[82.34304,25.40255],[82.34159,25.40089],[82.34071,25.40077],[82.33667,25.40129],[82.33502,25.40134],[82.33268,25.40151],[82.33067,25.40185],[82.33029,25.40116],[82.32795,25.39559],[82.32732,25.39381],[82.3272,25.39283],[82.32594,25.39346],[82.32499,25.39363],[82.32127,25.39587],[82.32,25.39638],[82.31893,25.39701],[82.31779,25.3973],[82.31489,25.39172],[82.3142,25.38994],[82.31339,25.38821],[82.31256,25.38624],[82.31433,25.38603],[82.31515,25.38609],[82.31697,25.38598],[82.31969,25.38431],[82.32008,25.38351],[82.31996,25.38259],[82.31857,25.37856],[82.31719,25.37621],[82.31573,25.37448],[82.3146,25.37356],[82.31365,25.37316],[82.31106,25.37103],[82.3093,25.37016],[82.30886,25.36947],[82.30842,25.36913],[82.30842,25.36816],[82.30892,25.36695],[82.31,25.36574],[82.3112,25.36391],[82.31277,25.36206],[82.31379,25.3604],[82.31606,25.35701],[82.31664,25.35524],[82.31645,25.35288],[82.31658,25.35184],[82.31747,25.34793],[82.3181,25.34564],[82.31892,25.34431],[82.3193,25.343],[82.3193,25.34035],[82.31874,25.33828],[82.31659,25.3338],[82.31477,25.33161],[82.31452,25.33104],[82.31395,25.33018],[82.31231,25.32861],[82.31111,25.32805],[82.30872,25.32787],[82.30676,25.32793],[82.30569,25.32809],[82.30424,25.32637],[82.30335,25.32493],[82.30228,25.32205],[82.30228,25.32142],[82.30198,25.32074],[82.30185,25.3186],[82.30287,25.31464],[82.30318,25.31407],[82.30375,25.31263],[82.30337,25.31136],[82.30331,25.31085],[82.30218,25.30821],[82.30142,25.3074],[82.30042,25.30654],[82.29966,25.30596],[82.29739,25.30469],[82.29675,25.30423],[82.29468,25.30343],[82.2936,25.30256],[82.29165,25.30061],[82.2904,25.29986],[82.28919,25.29968],[82.28673,25.29957],[82.28509,25.29956],[82.28345,25.29927],[82.28055,25.29806],[82.27721,25.29611],[82.27538,25.29523],[82.27362,25.29455],[82.27255,25.29397],[82.2716,25.29385],[82.26939,25.29333],[82.26712,25.29316],[82.26472,25.29246],[82.26403,25.29246],[82.26358,25.29183],[82.26309,25.29068],[82.26214,25.28947],[82.26094,25.28757],[82.259,25.28492],[82.25855,25.28372],[82.25586,25.27946],[82.2551,25.27664],[82.25453,25.27526],[82.25258,25.27388],[82.251,25.2741],[82.24898,25.27427],[82.24211,25.27426],[82.24003,25.27403],[82.238,25.2742],[82.23498,25.27471],[82.23232,25.27482],[82.2305,25.27464],[82.22577,25.27493],[82.22242,25.27555],[82.22161,25.27337],[82.2201,25.26785],[82.21941,25.26554],[82.21879,25.26388],[82.21779,25.26152],[82.21704,25.25933],[82.21464,25.25387],[82.21245,25.24979],[82.21081,25.24806],[82.20994,25.24633],[82.20899,25.24495],[82.20786,25.24352],[82.20648,25.24138],[82.20547,25.24],[82.20295,25.23707],[82.20163,25.23534],[82.19949,25.23275],[82.19667,25.22597],[82.19598,25.2236],[82.19548,25.22102],[82.19474,25.21619],[82.19634,25.20665],[82.19691,25.20419],[82.19804,25.2016],[82.19926,25.1985],[82.20184,25.19425],[82.20329,25.19253],[82.20488,25.19041],[82.20836,25.18743],[82.21119,25.18582],[82.21611,25.18365],[82.22065,25.18273],[82.22639,25.18194],[82.22885,25.18172],[82.23281,25.18087],[82.23566,25.18058],[82.23792,25.18047],[82.24372,25.18077],[82.24883,25.18083],[82.25425,25.18107],[82.25765,25.18108],[82.26042,25.1816],[82.26288,25.18252],[82.26628,25.18287],[82.26899,25.18213],[82.26948,25.18072],[82.26947,25.17952],[82.26891,25.17573],[82.26904,25.17441],[82.26892,25.17182],[82.26949,25.16918],[82.26956,25.16774],[82.2695,25.16619],[82.26968,25.16459],[82.26995,25.16338],[82.27026,25.1624],[82.2707,25.1616],[82.27152,25.16109],[82.27335,25.16023],[82.27594,25.15993],[82.27933,25.15931],[82.28034,25.15931],[82.28192,25.15897],[82.28432,25.15794],[82.28609,25.15662],[82.28715,25.15553],[82.28816,25.15426],[82.28911,25.15335],[82.29019,25.15174],[82.29113,25.15054],[82.29246,25.14991],[82.29554,25.15089],[82.29687,25.15244],[82.29832,25.15387],[82.29907,25.15479],[82.30001,25.1564],[82.30082,25.15704],[82.30177,25.15646],[82.30228,25.15359],[82.30203,25.151],[82.3011,25.14824],[82.29946,25.14566],[82.29845,25.14457],[82.29751,25.14267],[82.29758,25.13957],[82.29751,25.13739],[82.29683,25.13537],[82.29677,25.13474],[82.29803,25.13285],[82.30086,25.13096],[82.30238,25.13003],[82.30382,25.12894],[82.30483,25.12791],[82.30528,25.12585],[82.30572,25.12303],[82.30554,25.11918],[82.30517,25.11723],[82.30391,25.11171],[82.30442,25.10941],[82.30505,25.10809],[82.30631,25.10654],[82.30789,25.10517],[82.30972,25.10367],[82.31211,25.10207],[82.31325,25.10098],[82.31703,25.09678],[82.31798,25.09437],[82.321,25.09121],[82.32397,25.08851],[82.32567,25.08685],[82.32656,25.08552],[82.32705,25.08369],[82.32807,25.08087],[82.32832,25.07909],[82.32801,25.0769],[82.32744,25.07569],[82.32568,25.07379],[82.32297,25.07143],[82.32191,25.06999],[82.31888,25.06665],[82.31624,25.06255],[82.3153,25.06134],[82.31379,25.06059],[82.31164,25.06007],[82.30925,25.05971],[82.30749,25.05902],[82.30685,25.05793],[82.30635,25.05643],[82.30554,25.05539],[82.3044,25.05458],[82.29943,25.05422],[82.2981,25.05381],[82.29716,25.05295],[82.29678,25.05219],[82.29665,25.05161],[82.29678,25.05057],[82.29715,25.04959],[82.29873,25.04746],[82.30094,25.04491],[82.30219,25.04376],[82.30332,25.04225],[82.30615,25.03652],[82.30671,25.0345],[82.30709,25.03142],[82.30784,25.02759],[82.30783,25.02451],[82.30675,25.02172],[82.30523,25.01949],[82.30296,25.01732],[82.29816,25.01317],[82.29501,25.01004],[82.29173,25.00748],[82.29023,25.0058],[82.28965,25.00396],[82.28934,25.00195],[82.28928,25.0007],[82.27554,24.98337],[82.27093,24.97673],[82.26815,24.96934],[82.26457,24.96659],[82.25188,24.96568],[82.24181,24.96346],[82.23122,24.94832],[82.23196,24.94041],[82.23033,24.93565],[82.2258,24.93319],[82.21126,24.93835],[82.2039,24.9303],[82.19921,24.91569],[82.19321,24.91315],[82.18865,24.91423],[82.18128,24.90788],[82.18175,24.90259],[82.16901,24.89053],[82.16623,24.88949],[82.16049,24.88976],[82.15814,24.89298],[82.15029,24.8967],[82.14788,24.90118],[82.14458,24.90496],[82.13549,24.90206],[82.13501,24.89567],[82.13834,24.88371],[82.13519,24.88014],[82.13395,24.8749],[82.13105,24.87184],[82.12361,24.86675],[82.11868,24.87192],[82.11191,24.87547],[82.11276,24.86811],[82.1122,24.86408],[82.10343,24.86475],[82.10256,24.86118],[82.10365,24.85882],[82.10184,24.85319],[82.1074,24.85112],[82.11666,24.85414],[82.12009,24.84695],[82.10554,24.8418],[82.09861,24.84052],[82.0985,24.83581],[82.08427,24.83269],[82.09312,24.82729],[82.10172,24.81901],[82.10566,24.81211],[82.10826,24.8073],[82.1029,24.80771],[82.09797,24.81323],[82.09013,24.81943],[82.0791,24.82224],[82.07344,24.82074],[82.06475,24.82537],[82.05058,24.83151],[82.04546,24.83023],[82.03255,24.84188],[82.01315,24.84791],[82.00619,24.84466],[81.99981,24.84373],[81.98371,24.83967],[81.97632,24.84107],[81.97325,24.83862],[81.96979,24.82893],[81.9674,24.82782],[81.96543,24.82934],[81.96313,24.83643],[81.95598,24.83978],[81.95094,24.83919],[81.94547,24.84723],[81.94294,24.84862],[81.94003,24.85364],[81.93498,24.85794],[81.93665,24.8702],[81.93194,24.87341],[81.92341,24.87491],[81.92167,24.87753],[81.91839,24.87754],[81.91456,24.88065],[81.91096,24.88124],[81.90473,24.88961],[81.90709,24.89641],[81.90675,24.90227],[81.91071,24.90857],[81.91861,24.91757],[81.92035,24.92799],[81.91793,24.93421],[81.91243,24.93932],[81.90929,24.97006],[81.90667,24.97233],[81.90677,24.97388],[81.90997,24.97983],[81.90887,24.98183],[81.90284,24.98439],[81.90318,24.98808],[81.90758,24.99624],[81.9083,25.00042],[81.90832,25.00422],[81.90681,25.00659],[81.89978,25.01044],[81.89769,25.01008],[81.89659,25.00795],[81.89696,25.00652],[81.89996,25.00203],[81.90236,25.00044],[81.90144,24.99679],[81.89894,24.99335],[81.89607,24.99039],[81.89449,24.9898],[81.89165,24.99063],[81.88974,24.99646],[81.88187,24.99911],[81.87672,24.99919],[81.87517,24.99711],[81.87289,24.99735],[81.87206,25.00053],[81.85772,25.00295],[81.85465,25.00405],[81.84841,25.0119],[81.84331,25.0152],[81.83774,25.01624],[81.8,25.0069],[81.79757,25.00703],[81.78845,25.01207],[81.78708,25.01449],[81.77972,25.0201],[81.75813,25.02846],[81.75579,25.03046],[81.75482,25.03257],[81.74986,25.03379],[81.74657,25.03589],[81.74561,25.03876],[81.74284,25.03995],[81.74345,25.04133],[81.74076,25.04552],[81.72477,25.04975],[81.72218,25.04404],[81.72175,25.03686],[81.71849,25.03593],[81.71372,25.0347],[81.69391,25.03896],[81.69026,25.04055],[81.69208,25.04756],[81.69144,25.05353],[81.68617,25.06143],[81.68421,25.06273],[81.67975,25.06299],[81.67237,25.06069],[81.67059,25.06188],[81.66878,25.06819],[81.66828,25.0749],[81.66707,25.07645],[81.66488,25.07534],[81.66146,25.07175],[81.65519,25.07176],[81.65436,25.06727],[81.65255,25.06507],[81.64396,25.05851],[81.64038,25.0582],[81.63361,25.05918],[81.63027,25.05364],[81.62563,25.05383],[81.61688,25.05558],[81.61272,25.05744],[81.61107,25.05973],[81.61162,25.06106],[81.61395,25.06125],[81.6169,25.06001],[81.61808,25.06139],[81.61649,25.06351],[81.61232,25.06622],[81.61116,25.06851],[81.60284,25.07361],[81.60217,25.07647],[81.60429,25.0785],[81.61281,25.07966],[81.61788,25.08183],[81.62325,25.09072],[81.62926,25.09175],[81.62992,25.09503],[81.63423,25.09656],[81.63769,25.09641],[81.64005,25.09816],[81.64035,25.09995],[81.63104,25.10791],[81.63374,25.11447],[81.63346,25.11711],[81.63169,25.11859],[81.62516,25.11927],[81.62323,25.1165],[81.62142,25.10988],[81.61848,25.10836],[81.61478,25.10259],[81.61265,25.09632],[81.60962,25.09686],[81.6112,25.1091],[81.61022,25.11266],[81.6107,25.11415],[81.59942,25.11962],[81.59987,25.12398],[81.60255,25.12613],[81.60053,25.133],[81.60259,25.13462],[81.60759,25.13645],[81.61271,25.13943],[81.61844,25.14379],[81.62065,25.14323],[81.62349,25.14056],[81.62606,25.14287],[81.62735,25.1457],[81.62809,25.15225],[81.62742,25.15626],[81.6258,25.1605],[81.62285,25.16167],[81.62191,25.16712],[81.61842,25.17024],[81.61655,25.16936],[81.61519,25.16717],[81.61546,25.16465],[81.61392,25.16222],[81.61135,25.16248],[81.60957,25.16396],[81.60826,25.16263],[81.605,25.16214],[81.59021,25.16484],[81.59038,25.1669],[81.59646,25.18035],[81.59404,25.18319],[81.58564,25.18785],[81.5801,25.18949],[81.57485,25.19229],[81.56688,25.18573],[81.55748,25.18312],[81.55721,25.18518],[81.54836,25.18419],[81.54244,25.18477],[81.54648,25.1893],[81.52676,25.1941],[81.52099,25.19385],[81.52011,25.20537],[81.52195,25.22171],[81.5212,25.22677],[81.52623,25.22653],[81.52602,25.23458],[81.54204,25.23462],[81.54501,25.23384],[81.55674,25.23568],[81.5588,25.23702],[81.56443,25.23875],[81.56403,25.24104],[81.55834,25.25024],[81.55606,25.25769],[81.55423,25.271],[81.55282,25.27322],[81.54941,25.28651],[81.55012,25.29007],[81.55008,25.29003],[81.55021,25.29027],[81.55217,25.29283],[81.57442,25.30829],[81.59291,25.32031],[81.59388,25.32075],[81.59861,25.32292],[81.61452,25.33932],[81.62403,25.34595],[81.63624,25.3506],[81.65605,25.35385],[81.66783,25.35439],[81.68226,25.35485],[81.69202,25.35516],[81.71843,25.35257],[81.73277,25.35006],[81.7437,25.34814],[81.7445,25.34792],[81.75661,25.34459],[81.75724,25.34433],[81.75998,25.34315],[81.76158,25.34229],[81.78089,25.32747],[81.78508,25.32245],[81.78898,25.31928],[81.79515,25.31884],[81.80331,25.3227],[81.80618,25.32524],[81.81123,25.33154],[81.81357,25.33621],[81.81645,25.34197],[81.81491,25.34779],[81.81313,25.35112],[81.80386,25.36154],[81.80211,25.36402],[81.79541,25.37351],[81.79546,25.37692],[81.79994,25.38561],[81.81912,25.40895],[81.82335,25.41144],[81.82322,25.4124],[81.81908,25.42037],[81.81631,25.42329],[81.80692,25.43514],[81.80621,25.44187],[81.80763,25.4425],[81.80707,25.45282],[81.80598,25.46139],[81.80158,25.46936],[81.80124,25.47083],[81.79798,25.46977],[81.78196,25.47013],[81.77216,25.47209],[81.76016,25.47692],[81.75384,25.48138],[81.73979,25.49298],[81.72875,25.50903],[81.72411,25.51138],[81.6915,25.50741],[81.68207,25.50751],[81.67317,25.50954],[81.66693,25.51348],[81.66245,25.52105],[81.65518,25.53072],[81.65361,25.53414],[81.65182,25.55276],[81.65264,25.56968],[81.6489,25.57856],[81.63299,25.58811],[81.62432,25.59253],[81.61436,25.59285],[81.6134,25.6086],[81.60729,25.6128],[81.60851,25.6166],[81.61139,25.61909],[81.61949,25.62301],[81.62149,25.62475],[81.62226,25.64221],[81.62059,25.64449],[81.61065,25.64928],[81.6113,25.64624],[81.61038,25.6444],[81.60581,25.64665],[81.60428,25.64859],[81.60543,25.65296],[81.60295,25.65494],[81.60393,25.65811],[81.60625,25.65928],[81.60817,25.66234],[81.60941,25.66488],[81.60907,25.66728],[81.61146,25.66736],[81.62115,25.66429],[81.63295,25.66314],[81.63825,25.66376],[81.64287,25.66197],[81.64303,25.65933],[81.63778,25.65343],[81.63811,25.65206],[81.64124,25.64858],[81.64595,25.6446],[81.64471,25.64184],[81.63741,25.64034],[81.63554,25.63906],[81.63518,25.63704],[81.63602,25.63441],[81.63859,25.6299],[81.64547,25.62244],[81.64783,25.62108],[81.65133,25.61692],[81.65568,25.61708],[81.65653,25.61347],[81.65971,25.61195],[81.66373,25.6132],[81.66661,25.61546],[81.66709,25.61735],[81.67737,25.62451],[81.68198,25.62988],[81.68513,25.631],[81.68683,25.6313],[81.68992,25.63041],[81.69823,25.63324],[81.70377,25.63357],[81.70787,25.63257],[81.71353,25.62826],[81.72189,25.62477],[81.72719,25.62487],[81.73376,25.63072],[81.73529,25.6355],[81.73507,25.63791],[81.72721,25.64221],[81.72361,25.64396],[81.722,25.6471],[81.72152,25.65123],[81.7227,25.65991],[81.71759,25.65895],[81.6991,25.66045],[81.69663,25.66209],[81.6972,25.66704],[81.70045,25.67051],[81.70329,25.67145],[81.71141,25.67324],[81.71711,25.67071],[81.71907,25.67056],[81.72408,25.67421],[81.72736,25.67435],[81.7347,25.672],[81.74323,25.67035],[81.7476,25.66861],[81.75088,25.66852],[81.75288,25.67117],[81.75603,25.67901],[81.75748,25.6858],[81.75729,25.69193],[81.75677,25.69308],[81.74843,25.69559],[81.74525,25.69809],[81.75758,25.71639],[81.75528,25.71907],[81.75288,25.72577],[81.75329,25.73002],[81.75477,25.73353],[81.75791,25.73574],[81.76591,25.73821],[81.77149,25.74176],[81.77771,25.74445],[81.79327,25.74877],[81.80028,25.74928],[81.80596,25.74875],[81.81014,25.74683],[81.82755,25.74179],[81.82454,25.73099],[81.82516,25.72531],[81.82725,25.72504],[81.83304,25.72709],[81.84328,25.72545],[81.8467,25.73115],[81.85578,25.72451],[81.8611,25.72237],[81.86158,25.71772],[81.8652,25.71562],[81.86627,25.71586],[81.87069,25.72278],[81.87846,25.72198],[81.88138,25.72051],[81.88197,25.71781],[81.88148,25.71655],[81.88662,25.71205],[81.88998,25.71087],[81.89156,25.71157],[81.89465,25.71842],[81.9022,25.71348],[81.90783,25.71208],[81.91759,25.71388],[81.91717,25.71933],[81.91855,25.72112],[81.92283,25.7231],[81.925,25.72708],[81.92562,25.72949],[81.92431,25.73516],[81.92728,25.74373],[81.93189,25.7514],[81.93415,25.75065],[81.94243,25.7421],[81.94597,25.74001]]]}}]}