{"type":"FeatureCollection","features":[{"type":"Feature","properties":{"id":"banda","name":"Banda","stateId":"uttar-pradesh","stateName":"Uttar Pradesh","censuscode":170,"type":"district"},"geometry":{"type":"MultiPolygon","coordinates":[[[[80.54884,25.84395],[80.53574,25.83521],[80.5297,25.83386],[80.51395,25.83307],[80.50437,25.83437],[80.48173,25.83343],[80.47135,25.83068],[80.46429,25.82233],[80.46531,25.81822],[80.46926,25.81009],[80.4723,25.80611],[80.48092,25.80046],[80.49396,25.78977],[80.49904,25.7865],[80.52333,25.77675],[80.53159,25.77576],[80.54444,25.77715],[80.5764,25.78297],[80.58017,25.78007],[80.57977,25.77307],[80.57977,25.77307],[80.57469,25.76152],[80.55741,25.73811],[80.55574,25.73464],[80.56023,25.72626],[80.57015,25.7211],[80.57764,25.7172],[80.58192,25.71544],[80.58538,25.71403],[80.59126,25.71027],[80.59978,25.70749],[80.59978,25.70749],[80.60713,25.70652],[80.60713,25.70652],[80.6134,25.70735],[80.62117,25.70706],[80.62935,25.7044],[80.65416,25.70181],[80.67107,25.69533],[80.67107,25.69533],[80.67715,25.6938],[80.67819,25.69352],[80.69444,25.69134],[80.69444,25.69134],[80.71207,25.68303],[80.71207,25.68303],[80.71995,25.68074],[80.73235,25.68145],[80.743,25.68067],[80.75732,25.68206],[80.76741,25.68414],[80.78447,25.69025],[80.79645,25.69578],[80.80476,25.70091],[80.81114,25.70607],[80.81448,25.70878],[80.81979,25.71556],[80.82205,25.71844],[80.82205,25.71844],[80.8281,25.72375],[80.83586,25.72744],[80.84522,25.72362],[80.84782,25.71968],[80.85163,25.70045],[80.85574,25.69247],[80.85769,25.68868],[80.85769,25.68868],[80.85921,25.68066],[80.86285,25.67584],[80.86979,25.6737],[80.87978,25.67426],[80.88589,25.67555],[80.90241,25.67697],[80.90241,25.67697],[80.92001,25.68123],[80.93183,25.68602],[80.93667,25.68716],[80.94323,25.68526],[80.94704,25.68096],[80.9476,25.68031],[80.9476,25.68031],[80.94965,25.67469],[80.94965,25.67469],[80.95053,25.66888],[80.95053,25.66888],[80.95052,25.66869],[80.95027,25.66276],[80.94725,25.64758],[80.94725,25.64758],[80.94531,25.64214],[80.94486,25.6341],[80.94486,25.6341],[80.94563,25.62693],[80.94788,25.62081],[80.95879,25.608],[80.96574,25.60733],[80.96574,25.60733],[80.97131,25.60852],[80.9737,25.61073],[80.98053,25.61464],[80.99997,25.62135],[81.01963,25.63285],[81.01963,25.63285],[81.02548,25.63407],[81.02548,25.63407],[81.03055,25.63276],[81.03496,25.62891],[81.03734,25.62607],[81.03897,25.62229],[81.03948,25.6177],[81.03948,25.6177],[81.03944,25.61727],[81.03894,25.61223],[81.03383,25.59224],[81.03383,25.59224],[81.02602,25.58375],[81.00648,25.57626],[81.00268,25.57377],[81.00003,25.5711],[81.00138,25.56347],[81.01315,25.55451],[81.02116,25.54543],[81.02218,25.54425],[81.02164,25.54263],[81.02164,25.54263],[81.01998,25.53822],[81.01998,25.53822],[81.01692,25.53594],[81.00828,25.53443],[81.01309,25.5263],[81.01601,25.52347],[81.01893,25.52065],[81.02284,25.51565],[81.02284,25.51565],[81.02441,25.50837],[81.02632,25.50698],[81.02632,25.50698],[81.0268,25.50384],[81.0268,25.50384],[81.02496,25.50155],[81.01722,25.497],[81.01103,25.49741],[81.0119,25.49152],[81.00782,25.48878],[80.99999,25.48635],[80.99879,25.47586],[80.99422,25.47479],[80.99211,25.47655],[80.98877,25.47758],[80.98785,25.47722],[80.9857,25.47401],[80.98328,25.46289],[80.98328,25.46289],[80.98065,25.46291],[80.97823,25.46532],[80.9754,25.46589],[80.96545,25.46411],[80.96241,25.46486],[80.95818,25.46802],[80.95199,25.4675],[80.94845,25.46973],[80.94369,25.4693],[80.9394,25.46602],[80.93755,25.4629],[80.93792,25.45719],[80.93792,25.45719],[80.93533,25.45003],[80.93533,25.45003],[80.93307,25.44735],[80.93071,25.44214],[80.92705,25.44032],[80.91568,25.43882],[80.90983,25.44171],[80.90718,25.44108],[80.90647,25.44007],[80.90917,25.43582],[80.90917,25.43582],[80.90824,25.43196],[80.90824,25.43196],[80.9014,25.42639],[80.88768,25.41993],[80.88566,25.4065],[80.88566,25.4065],[80.88595,25.40439],[80.88595,25.40439],[80.8834,25.40247],[80.87548,25.40085],[80.87411,25.39239],[80.86684,25.38176],[80.86436,25.37413],[80.86436,25.37413],[80.86202,25.3723],[80.8544,25.36995],[80.85349,25.37042],[80.85113,25.36546],[80.84511,25.35933],[80.84095,25.3576],[80.83369,25.34844],[80.83115,25.34698],[80.82315,25.34794],[80.81788,25.34695],[80.81674,25.34263],[80.81674,25.34263],[80.81511,25.34191],[80.81116,25.34202],[80.80282,25.33617],[80.80091,25.33876],[80.80063,25.34281],[80.79627,25.34136],[80.79309,25.33456],[80.78854,25.3356],[80.78648,25.33101],[80.77999,25.32984],[80.77017,25.331],[80.77084,25.32409],[80.76648,25.3231],[80.76285,25.32524],[80.75899,25.32415],[80.75938,25.32166],[80.7626,25.31797],[80.76248,25.3152],[80.75797,25.30473],[80.7602,25.30564],[80.76614,25.3],[80.77706,25.29654],[80.77876,25.29432],[80.77876,25.29432],[80.78264,25.28316],[80.78264,25.28316],[80.78745,25.27421],[80.80633,25.2662],[80.81188,25.26276],[80.81114,25.25835],[80.80734,25.24898],[80.80367,25.2455],[80.79993,25.24625],[80.79465,25.25082],[80.79318,25.25209],[80.79057,25.25569],[80.78292,25.26208],[80.77746,25.25971],[80.77181,25.25643],[80.7684,25.25433],[80.76151,25.2528],[80.76151,25.2528],[80.75654,25.25273],[80.75147,25.25128],[80.74851,25.24623],[80.74766,25.23915],[80.74855,25.23602],[80.74793,25.23289],[80.75185,25.22891],[80.75459,25.22945],[80.75833,25.2287],[80.76357,25.22582],[80.76983,25.22367],[80.77268,25.22522],[80.77268,25.22522],[80.77754,25.22648],[80.7842,25.22314],[80.78744,25.22294],[80.79329,25.22033],[80.79387,25.21646],[80.79782,25.21644],[80.79252,25.21085],[80.78136,25.20566],[80.77631,25.20652],[80.76953,25.20655],[80.76729,25.20536],[80.75689,25.19059],[80.75343,25.1873],[80.74714,25.18558],[80.73895,25.18488],[80.73572,25.18784],[80.73139,25.19035],[80.72025,25.18939],[80.71436,25.18481],[80.7122,25.17912],[80.71481,25.17432],[80.71481,25.17432],[80.71596,25.16391],[80.70835,25.15824],[80.70835,25.15824],[80.69741,25.15608],[80.69741,25.15608],[80.69346,25.15435],[80.69394,25.14974],[80.69027,25.14506],[80.68894,25.14166],[80.68868,25.13062],[80.69402,25.12719],[80.69378,25.12139],[80.69833,25.10305],[80.70014,25.09982],[80.70356,25.09695],[80.70649,25.09668],[80.70679,25.09666],[80.70679,25.09666],[80.71002,25.09508],[80.71097,25.09388],[80.71193,25.09268],[80.71211,25.08862],[80.70845,25.08533],[80.70469,25.08286],[80.70469,25.08286],[80.70157,25.08389],[80.70306,25.07992],[80.70699,25.07751],[80.71779,25.07378],[80.722,25.06814],[80.722,25.06814],[80.72258,25.06381],[80.72258,25.0638],[80.72258,25.0638],[80.71913,25.06331],[80.71765,25.06237],[80.71765,25.06237],[80.71349,25.05747],[80.71349,25.05747],[80.70625,25.05759],[80.70616,25.05759],[80.70616,25.05759],[80.69504,25.05482],[80.68644,25.05061],[80.68171,25.0502],[80.68171,25.0502],[80.68171,25.0502],[80.68322,25.05855],[80.68007,25.06059],[80.68007,25.06059],[80.67996,25.06324],[80.67996,25.06335],[80.67996,25.06335],[80.68238,25.0641],[80.68605,25.06912],[80.68713,25.0718],[80.68743,25.07783],[80.67645,25.08274],[80.67487,25.08025],[80.67426,25.07653],[80.67237,25.0744],[80.66446,25.07044],[80.66188,25.07246],[80.65869,25.08351],[80.64962,25.08912],[80.6446,25.08993],[80.6446,25.08993],[80.6446,25.08993],[80.64339,25.09352],[80.6425,25.09315],[80.64208,25.08977],[80.64208,25.08977],[80.63679,25.08926],[80.63333,25.09152],[80.63169,25.09116],[80.63012,25.08935],[80.63045,25.08526],[80.63045,25.08526],[80.62819,25.08555],[80.62599,25.08962],[80.61663,25.09455],[80.61663,25.09455],[80.61471,25.09752],[80.60951,25.10035],[80.60951,25.10035],[80.61499,25.10246],[80.62146,25.10248],[80.62323,25.10715],[80.62293,25.1098],[80.62639,25.11174],[80.6274,25.11614],[80.63046,25.11796],[80.63046,25.11796],[80.63285,25.11737],[80.6394,25.11575],[80.64056,25.11922],[80.63618,25.12622],[80.63397,25.13155],[80.63313,25.13359],[80.63064,25.13198],[80.62638,25.13333],[80.62415,25.13404],[80.61651,25.12887],[80.61432,25.13148],[80.61366,25.13227],[80.61366,25.13227],[80.61398,25.14519],[80.60781,25.15136],[80.60278,25.15113],[80.59922,25.13719],[80.59922,25.13719],[80.59827,25.13072],[80.59893,25.12748],[80.60574,25.12406],[80.60856,25.12123],[80.60856,25.12123],[80.6092,25.11971],[80.60962,25.11873],[80.60962,25.11873],[80.60457,25.11793],[80.59953,25.11391],[80.59594,25.10502],[80.60002,25.09194],[80.60251,25.0889],[80.60816,25.0867],[80.60816,25.0867],[80.60816,25.0867],[80.61202,25.07838],[80.6149,25.07217],[80.6149,25.07217],[80.61544,25.06906],[80.61544,25.06905],[80.61491,25.06815],[80.61491,25.06815],[80.61266,25.06861],[80.61266,25.06861],[80.60408,25.07414],[80.60253,25.07605],[80.60136,25.07748],[80.59686,25.08029],[80.59571,25.08181],[80.58927,25.08275],[80.58827,25.0829],[80.58827,25.0829],[80.5868,25.0842],[80.58076,25.08174],[80.57617,25.08121],[80.57377,25.08311],[80.57377,25.08311],[80.57057,25.08737],[80.56923,25.0847],[80.56929,25.07521],[80.56929,25.07521],[80.56811,25.07093],[80.56349,25.06683],[80.56055,25.06523],[80.55673,25.06525],[80.55487,25.06392],[80.55154,25.06359],[80.54694,25.06559],[80.54355,25.06871],[80.54015,25.07183],[80.53623,25.07297],[80.52711,25.07783],[80.52327,25.08436],[80.52238,25.09168],[80.521,25.09412],[80.51762,25.09691],[80.51003,25.10001],[80.50927,25.10009],[80.50283,25.10081],[80.50024,25.0981],[80.50024,25.0981],[80.49203,25.09869],[80.48979,25.09792],[80.48842,25.09745],[80.48842,25.09745],[80.48422,25.09811],[80.48258,25.09769],[80.48282,25.09492],[80.48571,25.09227],[80.4954,25.08768],[80.50244,25.08793],[80.50588,25.08728],[80.50588,25.08728],[80.50809,25.08545],[80.50809,25.08545],[80.50724,25.08164],[80.50653,25.07846],[80.50263,25.07545],[80.50112,25.07493],[80.49869,25.0741],[80.50818,25.06687],[80.51022,25.06326],[80.5104,25.05877],[80.50829,25.05468],[80.5068,25.05331],[80.50532,25.05193],[80.50345,25.05115],[80.50125,25.05024],[80.50227,25.04125],[80.50403,25.04],[80.50445,25.03942],[80.50757,25.04073],[80.51379,25.0403],[80.52037,25.0378],[80.52513,25.03748],[80.52816,25.03602],[80.53631,25.03423],[80.53896,25.03227],[80.5451,25.03122],[80.54848,25.03175],[80.54964,25.02973],[80.54899,25.0255],[80.54386,25.01768],[80.54582,25.01056],[80.54941,25.00738],[80.55059,25.00482],[80.5503,25.00265],[80.53983,25.00137],[80.53369,25.00196],[80.53029,25.00284],[80.52444,25.0079],[80.52147,25.00871],[80.52,25.00411],[80.51638,25.00376],[80.50937,25.00532],[80.50674,25.00518],[80.50129,25.00257],[80.50182,25.00004],[80.49507,24.993],[80.48479,24.98947],[80.48136,24.98532],[80.48048,24.98223],[80.48132,24.97628],[80.46985,24.9771],[80.46032,24.98261],[80.45985,24.98821],[80.46478,24.99586],[80.46625,25.0001],[80.46299,25.0041],[80.45807,25.00534],[80.45256,25.00725],[80.44954,25.01012],[80.44914,25.0137],[80.44651,25.01599],[80.44796,25.01839],[80.444,25.0222],[80.44176,25.02253],[80.43351,25.01986],[80.43289,25.0223],[80.43364,25.02656],[80.44455,25.03582],[80.45095,25.03995],[80.45435,25.04119],[80.45678,25.03982],[80.46671,25.03685],[80.46793,25.03481],[80.47282,25.03172],[80.47831,25.03108],[80.48515,25.03291],[80.49292,25.0298],[80.495,25.03022],[80.49727,25.03067],[80.50125,25.03403],[80.50174,25.03752],[80.49935,25.04194],[80.49391,25.04322],[80.49391,25.04322],[80.49384,25.04322],[80.49121,25.04316],[80.49028,25.04251],[80.48708,25.04027],[80.48708,25.04027],[80.485,25.03981],[80.485,25.03981],[80.48137,25.03949],[80.48137,25.03949],[80.47824,25.04059],[80.46951,25.05388],[80.46951,25.05388],[80.46806,25.06558],[80.46401,25.0697],[80.46105,25.06465],[80.45404,25.06171],[80.45227,25.06405],[80.45271,25.06668],[80.45032,25.06915],[80.45032,25.06915],[80.4497,25.07186],[80.45149,25.0732],[80.45322,25.07603],[80.45235,25.07715],[80.44983,25.07687],[80.44983,25.07687],[80.44879,25.07792],[80.44316,25.07683],[80.441,25.07424],[80.44037,25.07266],[80.43924,25.0698],[80.43924,25.0698],[80.43757,25.0684],[80.43757,25.0684],[80.43256,25.06736],[80.43256,25.06736],[80.43079,25.06717],[80.41798,25.07257],[80.41743,25.07023],[80.41483,25.0593],[80.41383,25.05759],[80.4133,25.05669],[80.41074,25.0568],[80.40552,25.06146],[80.40552,25.06146],[80.40612,25.06512],[80.40219,25.06786],[80.3975,25.06405],[80.3975,25.06405],[80.39445,25.06313],[80.39219,25.06118],[80.39152,25.05751],[80.39152,25.05751],[80.38729,25.05179],[80.38729,25.05179],[80.37527,25.05469],[80.37379,25.05358],[80.3743,25.04891],[80.37209,25.04356],[80.37555,25.04193],[80.38324,25.04148],[80.3871,25.04024],[80.3871,25.04024],[80.38822,25.03746],[80.38845,25.03475],[80.38845,25.03475],[80.38828,25.03459],[80.38634,25.03267],[80.38276,25.03246],[80.3809,25.03055],[80.37978,25.02861],[80.38037,25.02504],[80.38415,25.02386],[80.38891,25.02353],[80.38891,25.02353],[80.39106,25.01456],[80.39716,25.0108],[80.3954,25.00831],[80.39351,25.00733],[80.39019,25.00561],[80.38083,25.00421],[80.38083,25.00421],[80.37723,25.01475],[80.37723,25.01475],[80.37686,25.01971],[80.37583,25.02128],[80.36685,25.02193],[80.36306,25.02035],[80.36058,25.01573],[80.36058,25.01573],[80.35594,25.01233],[80.35594,25.01233],[80.35256,25.01533],[80.34598,25.01679],[80.33694,25.00129],[80.33537,25.00019],[80.33391,24.99897],[80.33391,24.99897],[80.33288,24.99892],[80.33237,24.99888],[80.33184,24.99884],[80.33133,24.99881],[80.33081,24.99879],[80.3303,24.99876],[80.32978,24.99876],[80.32926,24.99875],[80.32874,24.99876],[80.32874,24.99876],[80.32823,24.99876],[80.32771,24.99877],[80.3272,24.9988],[80.32668,24.99882],[80.32617,24.99886],[80.32617,24.99886],[80.32566,24.99889],[80.32514,24.99894],[80.32463,24.99899],[80.32411,24.99905],[80.3236,24.99912],[80.3231,24.99919],[80.3231,24.99919],[80.32259,24.99927],[80.32209,24.99936],[80.32209,24.99936],[80.32074,25.00017],[80.32074,25.00017],[80.32033,25.00215],[80.30695,25.01186],[80.29717,25.01695],[80.28701,25.01744],[80.28647,25.01746],[80.28647,25.01746],[80.2749,25.02604],[80.27525,25.0274],[80.27877,25.02997],[80.28284,25.03483],[80.28579,25.03977],[80.28741,25.04847],[80.28741,25.04847],[80.28916,25.05252],[80.28956,25.05582],[80.28956,25.05582],[80.30052,25.05274],[80.30328,25.05096],[80.30835,25.04402],[80.3114,25.0431],[80.31373,25.04361],[80.31448,25.04378],[80.31857,25.04742],[80.31865,25.04749],[80.31865,25.04749],[80.33176,25.05101],[80.33255,25.05485],[80.33506,25.05739],[80.33927,25.05523],[80.34007,25.05291],[80.34657,25.05433],[80.35017,25.05356],[80.35307,25.05437],[80.35401,25.06136],[80.34814,25.0639],[80.34516,25.06712],[80.34777,25.07103],[80.34999,25.07892],[80.35005,25.08926],[80.35167,25.09151],[80.35274,25.09299],[80.3687,25.09971],[80.37335,25.10811],[80.37688,25.11114],[80.37372,25.11677],[80.3648,25.12011],[80.36196,25.1219],[80.35924,25.12535],[80.3556,25.12577],[80.3567,25.13644],[80.35938,25.14064],[80.36424,25.14417],[80.37054,25.14547],[80.38154,25.15093],[80.38878,25.15653],[80.39488,25.15864],[80.39488,25.15864],[80.41171,25.16081],[80.4236,25.16106],[80.4307,25.16798],[80.43182,25.16991],[80.43052,25.17712],[80.42742,25.18483],[80.42628,25.18767],[80.42112,25.19363],[80.41978,25.19517],[80.41978,25.19517],[80.41831,25.19968],[80.41769,25.20159],[80.41455,25.20644],[80.4124,25.20976],[80.4124,25.20976],[80.40983,25.21666],[80.40723,25.23866],[80.39888,25.24137],[80.3911,25.23763],[80.38949,25.23399],[80.3862,25.2332],[80.3862,25.2332],[80.37105,25.24249],[80.36859,25.24454],[80.36588,25.24679],[80.36176,25.25205],[80.35991,25.25589],[80.35746,25.26519],[80.34915,25.27422],[80.34845,25.27439],[80.34584,25.27503],[80.32907,25.27604],[80.32801,25.2761],[80.32801,25.2761],[80.3262,25.27648],[80.32019,25.27776],[80.32019,25.27776],[80.3122,25.28448],[80.3122,25.28448],[80.31125,25.28674],[80.31084,25.29255],[80.31084,25.29255],[80.31731,25.30144],[80.31996,25.32978],[80.31801,25.33683],[80.31183,25.34805],[80.31183,25.34805],[80.31085,25.35382],[80.3136,25.35762],[80.31685,25.35927],[80.32149,25.36779],[80.31946,25.37662],[80.31946,25.37662],[80.31899,25.38284],[80.31729,25.38736],[80.31683,25.38784],[80.30592,25.40053],[80.30357,25.40326],[80.30357,25.40326],[80.2979,25.40821],[80.29467,25.41013],[80.29257,25.41137],[80.28199,25.42051],[80.26947,25.42164],[80.26413,25.42417],[80.26173,25.41893],[80.26173,25.41893],[80.26065,25.41423],[80.25555,25.40693],[80.25563,25.40285],[80.25343,25.40036],[80.23482,25.4061],[80.22224,25.39968],[80.22224,25.39968],[80.21959,25.3994],[80.21959,25.3994],[80.21066,25.40218],[80.2061,25.406],[80.20653,25.40812],[80.20546,25.41039],[80.20407,25.41093],[80.20216,25.41166],[80.19967,25.40814],[80.19914,25.40447],[80.19705,25.40187],[80.19737,25.38467],[80.19737,25.38467],[80.19609,25.37911],[80.19081,25.37697],[80.18021,25.37614],[80.17487,25.3744],[80.16735,25.37309],[80.16731,25.36165],[80.16731,25.36165],[80.16131,25.35825],[80.16131,25.35825],[80.15313,25.35556],[80.14528,25.35118],[80.14087,25.34578],[80.13521,25.33608],[80.13144,25.33389],[80.13144,25.33389],[80.12727,25.33814],[80.11511,25.33962],[80.10422,25.34701],[80.10422,25.34701],[80.1122,25.35675],[80.11703,25.36139],[80.12435,25.375],[80.1282,25.37798],[80.1282,25.37798],[80.1387,25.37982],[80.14158,25.38373],[80.13317,25.38609],[80.13058,25.38682],[80.13058,25.38682],[80.13065,25.38966],[80.13262,25.39548],[80.13445,25.39803],[80.13812,25.39669],[80.1431,25.39624],[80.14359,25.3962],[80.14359,25.3962],[80.15017,25.39763],[80.14777,25.40734],[80.141,25.41077],[80.13765,25.41021],[80.13038,25.4063],[80.12364,25.40634],[80.12114,25.40744],[80.12087,25.41099],[80.12184,25.41462],[80.1246,25.41939],[80.13045,25.42695],[80.13861,25.45161],[80.13942,25.45634],[80.13942,25.45634],[80.14475,25.45819],[80.14959,25.45753],[80.17371,25.44844],[80.19071,25.44204],[80.19524,25.44943],[80.19387,25.467],[80.20041,25.47876],[80.20589,25.48359],[80.2112,25.47003],[80.22427,25.47056],[80.22205,25.47486],[80.21902,25.47728],[80.21902,25.47728],[80.2201,25.48232],[80.21255,25.48776],[80.21255,25.48777],[80.21118,25.49297],[80.2141,25.49458],[80.2184,25.49449],[80.22315,25.50053],[80.2223,25.50411],[80.22433,25.50741],[80.21855,25.51276],[80.21997,25.52393],[80.22013,25.5252],[80.21426,25.52716],[80.20644,25.52687],[80.20644,25.52687],[80.2083,25.53097],[80.2083,25.53097],[80.20906,25.53578],[80.21452,25.55418],[80.21686,25.55677],[80.22499,25.55712],[80.23102,25.55896],[80.23307,25.55958],[80.2395,25.56698],[80.24191,25.57503],[80.25264,25.58733],[80.25264,25.58733],[80.26083,25.58693],[80.26192,25.58536],[80.26454,25.58415],[80.26831,25.58372],[80.27111,25.582],[80.27752,25.58088],[80.27974,25.58388],[80.28355,25.59656],[80.28796,25.60312],[80.29064,25.6071],[80.2885,25.60967],[80.28464,25.6116],[80.27628,25.61999],[80.28327,25.62675],[80.28849,25.62852],[80.29756,25.63006],[80.30169,25.63095],[80.31732,25.64498],[80.30963,25.67319],[80.30601,25.67718],[80.30435,25.68158],[80.30435,25.68158],[80.3041,25.69319],[80.3041,25.69319],[80.31424,25.7043],[80.32092,25.70864],[80.32592,25.70911],[80.33573,25.70747],[80.34936,25.70044],[80.35113,25.70506],[80.35113,25.70506],[80.34746,25.71664],[80.34452,25.72015],[80.33761,25.72599],[80.33405,25.72756],[80.32954,25.7317],[80.32891,25.73234],[80.32923,25.73562],[80.32926,25.7359],[80.32926,25.7359],[80.32853,25.7396],[80.32591,25.74281],[80.31465,25.75185],[80.30505,25.76112],[80.29152,25.76555],[80.27623,25.76782],[80.27071,25.77132],[80.27071,25.77132],[80.26821,25.77729],[80.26773,25.78075],[80.26299,25.78286],[80.26299,25.78286],[80.26361,25.78486],[80.26183,25.78708],[80.24422,25.79215],[80.23565,25.79296],[80.23565,25.79296],[80.2336,25.79415],[80.23147,25.79753],[80.23403,25.80103],[80.23885,25.80445],[80.24554,25.80644],[80.25284,25.81002],[80.25666,25.80897],[80.25666,25.80897],[80.26226,25.80563],[80.27035,25.81288],[80.278,25.81819],[80.278,25.81819],[80.28182,25.81454],[80.28703,25.81283],[80.29461,25.81744],[80.29796,25.81995],[80.29303,25.83073],[80.29097,25.83521],[80.29097,25.83521],[80.29508,25.8399],[80.30161,25.84327],[80.30161,25.84327],[80.30722,25.84494],[80.31305,25.84533],[80.32697,25.84366],[80.33164,25.84558],[80.33326,25.84968],[80.33326,25.84968],[80.34533,25.86586],[80.34533,25.86586],[80.35007,25.86588],[80.35111,25.86748],[80.35258,25.86974],[80.34967,25.89525],[80.35021,25.89874],[80.35124,25.89953],[80.3655,25.90532],[80.38942,25.91062],[80.40014,25.90901],[80.40189,25.90874],[80.40189,25.90874],[80.40835,25.90699],[80.40836,25.90699],[80.40887,25.90697],[80.42073,25.90649],[80.43866,25.90311],[80.43866,25.90311],[80.45688,25.89858],[80.45688,25.89858],[80.47111,25.89201],[80.50643,25.87795],[80.50643,25.87795],[80.51335,25.87659],[80.53214,25.87461],[80.54066,25.87195],[80.54678,25.86918],[80.55314,25.86862],[80.55314,25.86862],[80.55644,25.86671],[80.55644,25.86671],[80.55668,25.86216],[80.55364,25.85522],[80.552,25.84893],[80.54884,25.84395]],[[80.4801,25.07011],[80.47771,25.06665],[80.48036,25.0619],[80.48292,25.05557],[80.48756,25.05625],[80.48993,25.05951],[80.49047,25.0651],[80.4901,25.06736],[80.48554,25.0729],[80.48539,25.07386],[80.48197,25.07208],[80.4801,25.07011]]],[[[80.44802,24.99631],[80.4408,24.99509],[80.438,25.00015],[80.43848,25.00165],[80.44101,25.00259],[80.44229,25.0042],[80.44947,25.0052],[80.45732,25.00409],[80.4564,25.00239],[80.45292,25.00206],[80.45118,25.00023],[80.44802,24.99631]]]]}}]}