{"type":"FeatureCollection","features":[{"type":"Feature","properties":{"id":"basti","name":"Basti","stateId":"uttar-pradesh","stateName":"Uttar Pradesh","censuscode":185,"type":"district"},"geometry":{"type":"Polygon","coordinates":[[[82.90483,27.02114],[82.9003,27.01617],[82.89319,26.99578],[82.89315,26.99549],[82.89285,26.99326],[82.89287,26.9904],[82.89569,26.99099],[82.89913,26.99341],[82.90221,26.99271],[82.90487,26.98998],[82.90514,26.98979],[82.90531,26.98693],[82.90538,26.98616],[82.90523,26.98603],[82.90106,26.98255],[82.90587,26.9815],[82.90597,26.98136],[82.90887,26.97838],[82.91329,26.97139],[82.91333,26.97134],[82.91519,26.95871],[82.91101,26.95097],[82.9075,26.95022],[82.90694,26.93927],[82.90882,26.93783],[82.91056,26.9365],[82.91099,26.93635],[82.91639,26.93947],[82.9212,26.93883],[82.92674,26.93449],[82.92631,26.92914],[82.92485,26.92975],[82.92336,26.92601],[82.91582,26.92339],[82.9027,26.92624],[82.87839,26.93489],[82.86612,26.93929],[82.86018,26.93544],[82.86069,26.93084],[82.86943,26.92277],[82.86728,26.9183],[82.85592,26.91934],[82.8498,26.91623],[82.84854,26.91055],[82.86228,26.89246],[82.86812,26.88748],[82.86717,26.8818],[82.86117,26.87483],[82.84354,26.86008],[82.83823,26.85345],[82.83661,26.84962],[82.83994,26.84193],[82.84806,26.83662],[82.85855,26.82856],[82.88673,26.79537],[82.8891,26.79137],[82.89345,26.78918],[82.90991,26.79048],[82.92593,26.79308],[82.93162,26.79132],[82.93591,26.78609],[82.9358,26.78131],[82.92943,26.77159],[82.9345,26.76073],[82.94305,26.75809],[82.9491,26.75411],[82.95247,26.74945],[82.95377,26.74345],[82.96342,26.73986],[82.97961,26.73137],[82.97978,26.72576],[82.97125,26.72022],[82.96993,26.71629],[82.98191,26.70291],[82.98309,26.69663],[82.98173,26.69096],[82.97274,26.68322],[82.97175,26.6802],[82.9726,26.67292],[82.98056,26.6633],[82.97897,26.6522],[82.97266,26.64937],[82.96119,26.64904],[82.95655,26.65514],[82.9525,26.67146],[82.94742,26.67744],[82.94034,26.67671],[82.93492,26.67299],[82.93433,26.6695],[82.93717,26.66393],[82.93654,26.65879],[82.93314,26.65334],[82.92408,26.6513],[82.91674,26.64794],[82.91276,26.64406],[82.91363,26.63742],[82.9242,26.62996],[82.92633,26.62468],[82.92579,26.61898],[82.92232,26.615],[82.91602,26.61659],[82.9074,26.62015],[82.90154,26.61897],[82.90182,26.60993],[82.90239,26.60557],[82.90267,26.59697],[82.89968,26.59132],[82.88363,26.57056],[82.87924,26.55834],[82.8794,26.55034],[82.88186,26.54006],[82.87774,26.53825],[82.8735,26.53758],[82.86907,26.53967],[82.85533,26.54891],[82.84893,26.55104],[82.84086,26.55657],[82.83879,26.56339],[82.8144,26.57429],[82.80994,26.57468],[82.79692,26.57235],[82.78723,26.56892],[82.78195,26.56423],[82.77342,26.5607],[82.76535,26.55832],[82.75571,26.56054],[82.75006,26.56021],[82.73897,26.5573],[82.72847,26.55354],[82.71357,26.5551],[82.71033,26.55744],[82.707,26.56633],[82.69955,26.56704],[82.69325,26.56962],[82.68755,26.57427],[82.68733,26.58247],[82.6849,26.58563],[82.67167,26.59324],[82.66797,26.59678],[82.66496,26.60465],[82.65054,26.60717],[82.64181,26.60165],[82.63261,26.60071],[82.62287,26.60063],[82.61175,26.60074],[82.59994,26.60273],[82.59521,26.60175],[82.58632,26.60392],[82.57951,26.60407],[82.57235,26.61092],[82.56813,26.61191],[82.54407,26.62496],[82.50817,26.63462],[82.49667,26.63966],[82.48801,26.64453],[82.47852,26.65226],[82.47852,26.65226],[82.47163,26.65767],[82.46385,26.65893],[82.44596,26.65783],[82.42717,26.65263],[82.41391,26.64542],[82.40417,26.64801],[82.39331,26.65231],[82.38236,26.65774],[82.36705,26.67056],[82.35289,26.68529],[82.32678,26.70912],[82.31811,26.72283],[82.31474,26.72493],[82.28562,26.73591],[82.2765,26.74501],[82.27167,26.74737],[82.26709,26.74743],[82.26283,26.74503],[82.25791,26.74359],[82.24997,26.7477],[82.24119,26.74789],[82.23617,26.7522],[82.233,26.76236],[82.22845,26.76772],[82.22344,26.77777],[82.22652,26.79809],[82.22497,26.80731],[82.23799,26.81838],[82.24893,26.81221],[82.25321,26.8115],[82.2563,26.81473],[82.25499,26.81798],[82.2513,26.81806],[82.24888,26.82243],[82.24645,26.83553],[82.24248,26.84256],[82.24006,26.85119],[82.24229,26.85486],[82.23364,26.86346],[82.23273,26.8682],[82.23982,26.87578],[82.24447,26.88231],[82.25021,26.89444],[82.25123,26.90061],[82.24823,26.90507],[82.23631,26.91403],[82.23987,26.92749],[82.24367,26.93449],[82.25057,26.9336],[82.26178,26.94183],[82.27258,26.93762],[82.27622,26.93721],[82.27827,26.94041],[82.278,26.94315],[82.284,26.94675],[82.28695,26.94593],[82.29145,26.94648],[82.29088,26.95016],[82.2954,26.95714],[82.30042,26.96361],[82.31163,26.9689],[82.31676,26.97697],[82.32113,26.97576],[82.3269,26.97014],[82.32912,26.96623],[82.32923,26.95563],[82.33273,26.95155],[82.33956,26.94695],[82.34573,26.94076],[82.35577,26.93322],[82.35984,26.93131],[82.36405,26.93102],[82.367,26.93246],[82.36949,26.93218],[82.374,26.93693],[82.37897,26.93728],[82.38166,26.94061],[82.38707,26.94118],[82.3893,26.94308],[82.39121,26.94766],[82.39875,26.94673],[82.43746,26.92721],[82.44006,26.92738],[82.44277,26.92858],[82.44615,26.93301],[82.44785,26.93099],[82.45481,26.92837],[82.45498,26.92476],[82.45921,26.92123],[82.46833,26.91631],[82.47347,26.91234],[82.4807,26.90434],[82.48724,26.9051],[82.49816,26.91513],[82.50233,26.9209],[82.50375,26.92702],[82.50387,26.93845],[82.51164,26.94287],[82.51441,26.94909],[82.52017,26.95222],[82.53415,26.9519],[82.53904,26.95262],[82.54866,26.95762],[82.5514,26.96267],[82.55725,26.96332],[82.56346,26.96507],[82.56408,26.97373],[82.56586,26.9766],[82.56576,26.98052],[82.56432,26.98418],[82.56447,26.98845],[82.56811,26.98852],[82.57217,26.98756],[82.57799,26.99253],[82.58533,26.99606],[82.58644,27.00036],[82.59068,27.00167],[82.59743,27.00047],[82.6058,27.00028],[82.61475,27.00122],[82.6166,27.00424],[82.61662,27.00427],[82.59784,27.01239],[82.58386,27.01725],[82.5788,27.01901],[82.57873,27.019],[82.57495,27.01875],[82.5723,27.02089],[82.57222,27.02094],[82.57222,27.02095],[82.57242,27.0223],[82.57288,27.02555],[82.57196,27.0261],[82.57053,27.02696],[82.57341,27.03071],[82.57436,27.03195],[82.57265,27.03425],[82.57282,27.03551],[82.5759,27.03688],[82.57597,27.03691],[82.57519,27.03849],[82.56726,27.04531],[82.56705,27.04549],[82.56705,27.04642],[82.56705,27.04826],[82.56873,27.05041],[82.56867,27.05284],[82.5633,27.05293],[82.56328,27.05293],[82.55873,27.05716],[82.55885,27.05746],[82.56029,27.06122],[82.56018,27.06386],[82.56011,27.06551],[82.56091,27.06734],[82.56095,27.06744],[82.56188,27.06788],[82.56296,27.06839],[82.56798,27.06682],[82.56849,27.06712],[82.5696,27.06776],[82.56847,27.07372],[82.56845,27.07375],[82.56754,27.07537],[82.56818,27.07517],[82.56795,27.08103],[82.56764,27.08906],[82.56459,27.09582],[82.56436,27.09969],[82.56796,27.1045],[82.57627,27.1067],[82.57777,27.1071],[82.58256,27.10528],[82.58871,27.09966],[82.59512,27.09652],[82.59554,27.09672],[82.60341,27.10043],[82.60547,27.10032],[82.60756,27.10021],[82.61101,27.10003],[82.6175,27.09596],[82.6227,27.0991],[82.62254,27.10158],[82.62226,27.10765],[82.62602,27.11114],[82.62645,27.11154],[82.62818,27.12042],[82.63062,27.12424],[82.63795,27.12578],[82.64327,27.12486],[82.65179,27.11957],[82.65768,27.12103],[82.66763,27.12518],[82.67286,27.12473],[82.67959,27.1225],[82.69509,27.11231],[82.70531,27.10571],[82.70796,27.104],[82.7138,27.10341],[82.71689,27.1031],[82.72231,27.10255],[82.72388,27.10269],[82.73857,27.10402],[82.74688,27.10792],[82.75864,27.10516],[82.75914,27.10504],[82.7788,27.09112],[82.78263,27.08869],[82.78677,27.08474],[82.79872,27.07404],[82.81412,27.06725],[82.85673,27.04845],[82.8669,27.04279],[82.87642,27.03749],[82.88125,27.03481],[82.88995,27.02999],[82.90483,27.02114]]]}}]}