{"type":"FeatureCollection","features":[{"type":"Feature","properties":{"id":"bijnor","name":"Bijnor","stateId":"uttar-pradesh","stateName":"Uttar Pradesh","censuscode":134,"type":"district"},"geometry":{"type":"Polygon","coordinates":[[[78.90836,29.45018],[78.91269,29.45018],[78.93217,29.45416],[78.9353,29.45018],[78.91949,29.44584],[78.91275,29.4407],[78.90878,29.41758],[78.90291,29.41043],[78.89948,29.40299],[78.89508,29.39881],[78.88501,29.39258],[78.88243,29.38637],[78.87823,29.38713],[78.87483,29.38861],[78.87245,29.38789],[78.87112,29.38549],[78.87226,29.38331],[78.87199,29.38168],[78.86902,29.3796],[78.85259,29.37393],[78.84851,29.37544],[78.84474,29.37536],[78.84405,29.37059],[78.84693,29.36834],[78.84845,29.36542],[78.84658,29.36368],[78.84101,29.36219],[78.84098,29.36219],[78.83611,29.36245],[78.82637,29.36405],[78.82395,29.36632],[78.82317,29.3743],[78.82721,29.37936],[78.82381,29.37872],[78.82117,29.3769],[78.81996,29.37428],[78.81902,29.36716],[78.80934,29.34965],[78.80228,29.34614],[78.80226,29.34441],[78.8038,29.34189],[78.80484,29.33745],[78.81003,29.33233],[78.80951,29.33098],[78.80344,29.32901],[78.80093,29.32329],[78.79345,29.32597],[78.79659,29.33695],[78.79459,29.34046],[78.79301,29.33753],[78.79117,29.33629],[78.78172,29.33467],[78.77804,29.33507],[78.77596,29.33722],[78.77744,29.33975],[78.77565,29.34141],[78.76952,29.34378],[78.75914,29.33736],[78.75818,29.33494],[78.75373,29.3299],[78.75359,29.32664],[78.74688,29.32578],[78.74368,29.32833],[78.74042,29.32819],[78.73981,29.32541],[78.73777,29.324],[78.73799,29.31915],[78.74068,29.31298],[78.7394,29.31151],[78.73316,29.31349],[78.73179,29.31245],[78.72618,29.31336],[78.72589,29.31138],[78.73285,29.30631],[78.73961,29.30681],[78.74344,29.30502],[78.75094,29.30033],[78.7588,29.29671],[78.77311,29.28734],[78.77756,29.28392],[78.77886,29.27992],[78.77067,29.28067],[78.76724,29.28027],[78.76502,29.27868],[78.76206,29.27881],[78.75389,29.28265],[78.75134,29.27931],[78.74689,29.27649],[78.73931,29.2771],[78.7343,29.27599],[78.73194,29.27648],[78.73154,29.27489],[78.72896,29.27413],[78.72761,29.27165],[78.72484,29.26992],[78.72312,29.26748],[78.71665,29.26836],[78.71177,29.26721],[78.70864,29.26799],[78.70699,29.26723],[78.70576,29.26116],[78.70014,29.25901],[78.69667,29.25641],[78.69469,29.2531],[78.698,29.24962],[78.69866,29.24724],[78.69212,29.23724],[78.68231,29.23003],[78.68008,29.22627],[78.68285,29.22372],[78.68634,29.22031],[78.68495,29.21692],[78.67915,29.20881],[78.68148,29.20663],[78.68906,29.20872],[78.69473,29.21229],[78.69982,29.21778],[78.7033,29.21651],[78.70162,29.2153],[78.70408,29.21229],[78.70254,29.20715],[78.69751,29.20346],[78.6915,29.20055],[78.69039,29.20312],[78.68513,29.2038],[78.68152,29.1986],[78.67376,29.19741],[78.67028,29.19323],[78.6655,29.19146],[78.66102,29.18448],[78.66055,29.18115],[78.66172,29.17873],[78.66391,29.1797],[78.66992,29.17799],[78.66968,29.17332],[78.66512,29.16893],[78.66184,29.16673],[78.65286,29.17352],[78.65046,29.17347],[78.6458,29.16983],[78.63862,29.16125],[78.64284,29.15662],[78.65419,29.15243],[78.66103,29.15175],[78.66519,29.15381],[78.66434,29.14379],[78.65967,29.13946],[78.65521,29.13316],[78.64715,29.12651],[78.64101,29.12496],[78.6374,29.12648],[78.63606,29.12577],[78.63438,29.12314],[78.62126,29.11528],[78.61954,29.11202],[78.62242,29.10741],[78.62739,29.10144],[78.62107,29.09707],[78.61654,29.09174],[78.61035,29.09286],[78.60685,29.09065],[78.60202,29.08442],[78.59058,29.08722],[78.58753,29.08639],[78.58015,29.08916],[78.57639,29.08926],[78.57738,29.08302],[78.57307,29.08286],[78.5715,29.08096],[78.56635,29.0809],[78.55985,29.07515],[78.554,29.077],[78.55031,29.07683],[78.54925,29.07893],[78.5438,29.07979],[78.53527,29.07998],[78.5326,29.07888],[78.52515,29.06978],[78.51639,29.05906],[78.51481,29.06045],[78.51244,29.06112],[78.50852,29.05874],[78.50565,29.0543],[78.49911,29.06082],[78.4934,29.06426],[78.48847,29.06069],[78.47757,29.0642],[78.47365,29.06503],[78.47192,29.06435],[78.46875,29.06625],[78.46718,29.06433],[78.46003,29.05919],[78.45573,29.05699],[78.45107,29.05719],[78.44882,29.0542],[78.44766,29.05034],[78.44473,29.05051],[78.44364,29.04827],[78.43593,29.0444],[78.43202,29.0449],[78.42543,29.0415],[78.42155,29.03755],[78.41731,29.03882],[78.41542,29.03854],[78.40944,29.03169],[78.40372,29.03083],[78.39567,29.03723],[78.39364,29.0354],[78.39149,29.03404],[78.38921,29.03501],[78.38511,29.0349],[78.38084,29.03379],[78.37693,29.03101],[78.36691,29.02935],[78.35313,29.04291],[78.34114,29.04884],[78.33705,29.04257],[78.33515,29.04161],[78.33102,29.04228],[78.32761,29.04025],[78.32357,29.03903],[78.31808,29.03918],[78.31376,29.0402],[78.30953,29.03958],[78.30732,29.04364],[78.31158,29.04796],[78.3051,29.05116],[78.29828,29.04158],[78.29451,29.03975],[78.29298,29.04094],[78.28935,29.04004],[78.28734,29.04225],[78.28216,29.04415],[78.28052,29.04615],[78.27697,29.04838],[78.26907,29.04654],[78.26578,29.04725],[78.2589,29.04326],[78.25399,29.04456],[78.24908,29.04406],[78.24382,29.04541],[78.24018,29.04055],[78.23419,29.04086],[78.22746,29.04517],[78.2254,29.04878],[78.21582,29.05112],[78.21507,29.05374],[78.21092,29.05569],[78.20671,29.05041],[78.19309,29.06],[78.1837,29.06226],[78.18095,29.0608],[78.17659,29.05654],[78.17304,29.057],[78.1704,29.06048],[78.16474,29.0585],[78.16296,29.05585],[78.16037,29.05398],[78.15842,29.05841],[78.16009,29.07037],[78.14776,29.07748],[78.143,29.07893],[78.13447,29.07756],[78.11864,29.07919],[78.11029,29.08087],[78.10592,29.08345],[78.1161,29.09718],[78.11803,29.10687],[78.11778,29.11091],[78.1115,29.11789],[78.11048,29.12121],[78.1093,29.14016],[78.11178,29.14807],[78.11926,29.15946],[78.12514,29.16184],[78.13314,29.16297],[78.13591,29.16528],[78.13792,29.17031],[78.14125,29.17527],[78.14267,29.18],[78.14228,29.18526],[78.14025,29.19141],[78.12706,29.20537],[78.12735,29.21228],[78.12601,29.2176],[78.12824,29.22154],[78.12757,29.22327],[78.13021,29.22995],[78.12965,29.23569],[78.13156,29.23812],[78.13236,29.24194],[78.13718,29.2534],[78.13701,29.26036],[78.13483,29.26582],[78.12764,29.28149],[78.12146,29.28844],[78.11897,29.29891],[78.11311,29.3107],[78.11199,29.31836],[78.10984,29.32371],[78.10524,29.32675],[78.10049,29.3316],[78.09493,29.33582],[78.09156,29.3373],[78.08829,29.34095],[78.08516,29.35576],[78.08343,29.35777],[78.07996,29.35901],[78.06819,29.35915],[78.06539,29.36132],[78.06171,29.37043],[78.05105,29.37727],[78.05086,29.38285],[78.04894,29.3889],[78.05166,29.39255],[78.06533,29.40194],[78.06567,29.40394],[78.06423,29.40838],[78.06255,29.41112],[78.05664,29.41117],[78.05397,29.41206],[78.04947,29.41917],[78.04447,29.425],[78.0378,29.42994],[78.03423,29.43499],[78.03233,29.44791],[78.02933,29.45276],[78.01696,29.46215],[78.02074,29.46471],[78.02081,29.46702],[78.0191,29.46948],[78.01764,29.47026],[78.00904,29.46826],[78.00764,29.46893],[78.00398,29.47394],[78.00002,29.47557],[77.99635,29.48183],[77.99519,29.4854],[77.99353,29.49327],[77.99394,29.50791],[77.99437,29.52367],[77.99594,29.53784],[77.99725,29.53939],[78.00001,29.54025],[78.00616,29.54949],[78.01554,29.55048],[78.02864,29.54899],[78.03128,29.54842],[78.04459,29.54606],[78.04891,29.54699],[78.05029,29.55581],[78.04927,29.55962],[78.05471,29.56627],[78.05283,29.56969],[78.04936,29.57215],[78.04859,29.57524],[78.05185,29.58235],[78.05602,29.58745],[78.06281,29.59242],[78.07136,29.59597],[78.08039,29.59578],[78.0853,29.59427],[78.09063,29.5939],[78.09419,29.59616],[78.10085,29.60766],[78.1028,29.61913],[78.10641,29.62239],[78.10902,29.62496],[78.10969,29.62514],[78.11919,29.62754],[78.12134,29.63105],[78.12703,29.63952],[78.14624,29.65287],[78.15143,29.67045],[78.17823,29.67388],[78.19457,29.68589],[78.20467,29.70092],[78.20591,29.7044],[78.23365,29.71195],[78.24378,29.69841],[78.27721,29.72111],[78.29442,29.73665],[78.31545,29.75189],[78.34433,29.79049],[78.34452,29.79043],[78.35112,29.78685],[78.36385,29.78055],[78.39858,29.76814],[78.41101,29.76641],[78.42097,29.76771],[78.42517,29.76668],[78.4369,29.75591],[78.44472,29.75237],[78.46475,29.74638],[78.47733,29.74525],[78.48617,29.7427],[78.50016,29.7356],[78.50277,29.71914],[78.51282,29.70954],[78.5144,29.70592],[78.51855,29.68809],[78.51996,29.68502],[78.51973,29.67116],[78.52014,29.6671],[78.52209,29.66266],[78.5217,29.65383],[78.52396,29.64487],[78.53019,29.63332],[78.5379,29.62394],[78.53979,29.61854],[78.54297,29.6181],[78.57361,29.58788],[78.58886,29.5747],[78.61762,29.55592],[78.62753,29.55198],[78.63385,29.547],[78.65194,29.54188],[78.66276,29.53479],[78.6889,29.51544],[78.69775,29.50762],[78.70569,29.50296],[78.72062,29.5035],[78.73896,29.50278],[78.74388,29.4998],[78.7514,29.49904],[78.75462,29.49529],[78.7781,29.47784],[78.78708,29.47499],[78.79783,29.47008],[78.80929,29.46999],[78.82371,29.46387],[78.82902,29.46261],[78.83611,29.46373],[78.84239,29.46255],[78.85845,29.45768],[78.87808,29.45362],[78.88778,29.454],[78.89503,29.45186],[78.90247,29.45156],[78.90836,29.45018]]]}}]}