{"type":"FeatureCollection","features":[{"type":"Feature","properties":{"id":"chitrakoot","name":"Chitrakoot","stateId":"uttar-pradesh","stateName":"Uttar Pradesh","censuscode":171,"type":"district"},"geometry":{"type":"Polygon","coordinates":[[[81.19266,25.45238],[81.19151,25.44981],[81.18392,25.44335],[81.16078,25.43164],[81.15148,25.4255],[81.14935,25.41606],[81.14973,25.40223],[81.15145,25.39698],[81.15361,25.39522],[81.15843,25.3881],[81.16372,25.38335],[81.17641,25.37633],[81.18368,25.37378],[81.20243,25.36522],[81.21823,25.36065],[81.22458,25.36084],[81.23095,25.35965],[81.24971,25.35453],[81.2513,25.35277],[81.25765,25.33373],[81.265,25.32549],[81.26899,25.32382],[81.27546,25.32395],[81.27785,25.32467],[81.2821,25.33166],[81.28514,25.33474],[81.29164,25.33791],[81.31583,25.34553],[81.32499,25.3473],[81.343,25.34658],[81.35973,25.34287],[81.36447,25.34091],[81.38662,25.33472],[81.39738,25.32973],[81.3998,25.32734],[81.40161,25.32346],[81.40334,25.31469],[81.40327,25.31022],[81.40043,25.30192],[81.39801,25.29799],[81.38641,25.28461],[81.38568,25.28241],[81.38487,25.27661],[81.38921,25.27189],[81.394,25.27056],[81.40816,25.26992],[81.42674,25.26759],[81.43695,25.26534],[81.45411,25.25978],[81.45998,25.25863],[81.46663,25.25979],[81.4691,25.26389],[81.47204,25.26489],[81.48743,25.26557],[81.49202,25.26648],[81.49578,25.26795],[81.50169,25.26738],[81.5076,25.26796],[81.51857,25.27064],[81.53195,25.27749],[81.54056,25.28377],[81.54563,25.28629],[81.55008,25.29003],[81.55012,25.29007],[81.54941,25.28651],[81.55282,25.27322],[81.55423,25.271],[81.55606,25.25769],[81.55834,25.25024],[81.56403,25.24104],[81.56443,25.23875],[81.5588,25.23702],[81.55674,25.23568],[81.54501,25.23384],[81.54204,25.23462],[81.52602,25.23458],[81.52623,25.22653],[81.5212,25.22677],[81.52195,25.22171],[81.52011,25.20537],[81.52099,25.19385],[81.52676,25.1941],[81.54648,25.1893],[81.54244,25.18477],[81.54177,25.18408],[81.54097,25.18194],[81.53166,25.18228],[81.5285,25.18375],[81.52128,25.18441],[81.51802,25.18354],[81.51622,25.18147],[81.51554,25.17505],[81.51625,25.17277],[81.51918,25.1702],[81.5357,25.16316],[81.53844,25.15988],[81.53728,25.15787],[81.52837,25.15021],[81.52715,25.14838],[81.5336,25.14409],[81.53306,25.14019],[81.52687,25.1391],[81.52407,25.14189],[81.51932,25.14494],[81.51339,25.14775],[81.50904,25.14938],[81.50383,25.14887],[81.50042,25.14529],[81.49836,25.13845],[81.49894,25.13158],[81.49801,25.13077],[81.49292,25.13089],[81.48856,25.13423],[81.48583,25.13495],[81.48307,25.13464],[81.48127,25.13365],[81.48016,25.13152],[81.48043,25.12957],[81.48653,25.12446],[81.4861,25.11763],[81.4901,25.11387],[81.49401,25.11242],[81.50154,25.10722],[81.51159,25.10709],[81.51596,25.10339],[81.51541,25.1019],[81.51125,25.09829],[81.50893,25.09741],[81.50264,25.09827],[81.50578,25.09262],[81.50299,25.0787],[81.5006,25.0785],[81.49481,25.08068],[81.4935,25.07418],[81.49208,25.07153],[81.48956,25.07248],[81.48576,25.07583],[81.4814,25.07751],[81.47374,25.07841],[81.46665,25.08333],[81.46619,25.08591],[81.46721,25.08954],[81.44476,25.09269],[81.43316,25.09597],[81.42919,25.09811],[81.42151,25.1005],[81.41144,25.10292],[81.40922,25.10427],[81.40875,25.10564],[81.41137,25.10808],[81.41526,25.10852],[81.41984,25.1088],[81.43555,25.10713],[81.44383,25.10756],[81.44672,25.10696],[81.44747,25.10851],[81.44694,25.11052],[81.44276,25.11845],[81.43752,25.12604],[81.43861,25.13012],[81.43616,25.1301],[81.4281,25.13208],[81.42622,25.13166],[81.42443,25.12877],[81.42168,25.12817],[81.40859,25.13027],[81.4102,25.1273],[81.41504,25.12161],[81.41461,25.11989],[81.41269,25.11865],[81.40893,25.11822],[81.40592,25.11819],[81.39961,25.11961],[81.3974,25.12073],[81.39559,25.12542],[81.39338,25.12661],[81.3949,25.13041],[81.39275,25.13154],[81.38736,25.1309],[81.38266,25.13522],[81.37526,25.13387],[81.37287,25.13431],[81.37292,25.13574],[81.37483,25.13817],[81.37399,25.14069],[81.37089,25.14215],[81.3656,25.14875],[81.3639,25.15407],[81.36177,25.15789],[81.35929,25.16033],[81.35781,25.16376],[81.35299,25.16187],[81.34444,25.16274],[81.33944,25.16595],[81.33834,25.16887],[81.32803,25.16444],[81.32135,25.15993],[81.31912,25.14903],[81.31935,25.14536],[81.32063,25.14262],[81.32517,25.13706],[81.32436,25.13148],[81.32514,25.12449],[81.32861,25.11886],[81.33057,25.11716],[81.33136,25.11482],[81.32689,25.11511],[81.32666,25.11327],[81.32535,25.11245],[81.32303,25.11271],[81.32138,25.11384],[81.3203,25.11984],[81.31841,25.12044],[81.31675,25.12226],[81.31717,25.12799],[81.31533,25.1298],[81.31494,25.13157],[81.31639,25.13526],[81.31326,25.13947],[81.31267,25.14169],[81.31538,25.15605],[81.31479,25.16236],[81.31326,25.16383],[81.30095,25.16434],[81.29971,25.16316],[81.29305,25.16167],[81.28985,25.16185],[81.28359,25.16534],[81.27982,25.16528],[81.27751,25.16408],[81.27703,25.16153],[81.28228,25.15473],[81.28316,25.14978],[81.27894,25.1448],[81.27396,25.14123],[81.26983,25.14071],[81.26958,25.14028],[81.2681,25.13754],[81.27051,25.12745],[81.2652,25.125],[81.26653,25.12001],[81.2663,25.11324],[81.26452,25.11093],[81.25646,25.10812],[81.25403,25.10194],[81.25481,25.09966],[81.25711,25.09711],[81.26041,25.09497],[81.26275,25.08911],[81.26746,25.08372],[81.26135,25.07546],[81.2683,25.07204],[81.27053,25.06926],[81.26989,25.06489],[81.26359,25.05726],[81.26434,25.05216],[81.26171,25.05087],[81.2606,25.04902],[81.25587,25.03794],[81.25087,25.03275],[81.2475,25.02781],[81.24429,25.02575],[81.23896,25.01455],[81.23136,25.00778],[81.2285,25.0037],[81.22482,25.00091],[81.21959,24.99815],[81.21895,24.99812],[81.21843,24.99827],[81.21799,24.99864],[81.21728,24.99937],[81.21679,24.99957],[81.21561,24.99998],[81.21465,25.00019],[81.21405,24.99988],[81.21338,24.99956],[81.21309,24.99926],[81.21207,24.99401],[81.20996,24.99218],[81.2156,24.98775],[81.21955,24.98327],[81.22097,24.97813],[81.22054,24.97422],[81.20951,24.96674],[81.20824,24.96333],[81.21231,24.95933],[81.21423,24.95459],[81.21462,24.95058],[81.21261,24.94698],[81.21422,24.93575],[81.21571,24.93377],[81.2197,24.93275],[81.22081,24.93104],[81.2192,24.92912],[81.2155,24.92762],[81.21071,24.92433],[81.2077,24.92346],[81.20401,24.92552],[81.19263,24.92573],[81.20124,24.93111],[81.20649,24.93056],[81.20717,24.93127],[81.19662,24.94154],[81.18884,24.94594],[81.18481,24.95144],[81.18036,24.94998],[81.17789,24.95322],[81.17241,24.95623],[81.16965,24.95497],[81.16778,24.95119],[81.16511,24.94218],[81.16599,24.93914],[81.16421,24.9363],[81.16368,24.92845],[81.16057,24.92586],[81.15935,24.9237],[81.1591,24.92023],[81.16069,24.91612],[81.16051,24.91277],[81.15632,24.91417],[81.1509,24.91386],[81.14827,24.91293],[81.14148,24.90206],[81.14107,24.897],[81.14241,24.89034],[81.14061,24.88858],[81.13634,24.89012],[81.13082,24.89519],[81.12494,24.89831],[81.12109,24.90199],[81.1189,24.90716],[81.11565,24.90862],[81.11199,24.90916],[81.10689,24.91489],[81.10472,24.91898],[81.10268,24.92023],[81.09768,24.92093],[81.09307,24.93079],[81.08975,24.93218],[81.08869,24.9348],[81.09065,24.9441],[81.0894,24.94662],[81.08462,24.94866],[81.06561,24.94951],[81.05901,24.95167],[81.05535,24.95158],[81.0513,24.94902],[81.03486,24.95133],[81.03137,24.94872],[81.0281,24.94835],[81.02956,24.94476],[81.02897,24.94245],[81.02742,24.94137],[81.02517,24.9428],[81.0177,24.95067],[81.01533,24.94899],[81.02074,24.94009],[81.02347,24.93643],[81.02931,24.93464],[81.02946,24.9335],[81.02615,24.93192],[81.02496,24.92884],[81.02282,24.92798],[81.02007,24.92961],[81.01687,24.92884],[81.00817,24.93657],[81.00489,24.93595],[80.9994,24.93348],[80.99264,24.92894],[80.98917,24.92601],[80.98607,24.9295],[80.98745,24.93443],[80.98041,24.93594],[80.97383,24.93496],[80.96655,24.92858],[80.96337,24.92206],[80.95925,24.92336],[80.96103,24.93577],[80.96037,24.93921],[80.95798,24.94271],[80.95298,24.94345],[80.95201,24.94701],[80.95486,24.95322],[80.95491,24.95744],[80.95302,24.96431],[80.95066,24.96743],[80.94499,24.96879],[80.94191,24.9664],[80.93664,24.96398],[80.92977,24.96286],[80.92413,24.96107],[80.91967,24.95856],[80.90543,24.95299],[80.90247,24.95017],[80.90145,24.94674],[80.90934,24.93964],[80.91092,24.93645],[80.90818,24.93587],[80.9061,24.93798],[80.90297,24.93873],[80.89684,24.94372],[80.89297,24.94516],[80.88936,24.94447],[80.88499,24.94133],[80.88313,24.937],[80.86475,24.93222],[80.84904,24.93181],[80.84302,24.93078],[80.83712,24.93469],[80.82894,24.93283],[80.82354,24.93415],[80.81031,24.94068],[80.81103,24.95314],[80.79976,24.96011],[80.79806,24.96337],[80.7981,24.96797],[80.80174,24.96984],[80.80693,24.97107],[80.81464,24.97121],[80.82072,24.96987],[80.82678,24.96984],[80.82924,24.97869],[80.83286,24.98226],[80.84454,24.9823],[80.85322,24.9897],[80.85634,24.99434],[80.85843,24.99934],[80.85009,25.00869],[80.84824,25.0164],[80.83731,25.02614],[80.83486,25.03534],[80.84341,25.03583],[80.84934,25.04742],[80.85506,25.04942],[80.86398,25.05861],[80.87886,25.0672],[80.88331,25.07569],[80.87304,25.08047],[80.87247,25.08429],[80.87555,25.09015],[80.87946,25.09437],[80.88123,25.09869],[80.8805,25.10542],[80.87478,25.11553],[80.87323,25.11975],[80.8741,25.12162],[80.87726,25.12401],[80.88103,25.12998],[80.88369,25.14052],[80.89353,25.1361],[80.89671,25.13734],[80.89857,25.14245],[80.90987,25.15408],[80.9132,25.1564],[80.91385,25.16057],[80.90425,25.16733],[80.89732,25.17076],[80.89445,25.17324],[80.88636,25.19164],[80.87784,25.1847],[80.87246,25.1839],[80.87144,25.18525],[80.86866,25.18663],[80.85688,25.18605],[80.84939,25.1895],[80.84458,25.1887],[80.84344,25.18649],[80.84417,25.18143],[80.84939,25.17128],[80.85058,25.16725],[80.85016,25.16398],[80.84572,25.15636],[80.84212,25.14167],[80.84036,25.13747],[80.84304,25.12859],[80.84601,25.12359],[80.84168,25.10936],[80.83593,25.10639],[80.83218,25.11072],[80.8314,25.11384],[80.82976,25.11611],[80.82992,25.11892],[80.82963,25.12167],[80.82688,25.12661],[80.81784,25.12675],[80.81596,25.12915],[80.81651,25.13687],[80.81144,25.13957],[80.80783,25.14245],[80.80613,25.14227],[80.80192,25.13835],[80.79892,25.13876],[80.79437,25.13399],[80.79193,25.1344],[80.79039,25.13311],[80.7849,25.14086],[80.78225,25.14263],[80.77429,25.13691],[80.7678,25.1366],[80.75909,25.13771],[80.74866,25.13341],[80.74631,25.1306],[80.74369,25.13122],[80.74027,25.13653],[80.74052,25.13835],[80.73688,25.13889],[80.73594,25.14339],[80.73128,25.14476],[80.72586,25.14257],[80.72354,25.14263],[80.723,25.13926],[80.71883,25.13442],[80.70914,25.13406],[80.70785,25.13311],[80.70668,25.12735],[80.70908,25.12402],[80.71567,25.12342],[80.72552,25.12492],[80.73064,25.12199],[80.73357,25.11889],[80.72812,25.11327],[80.7272,25.10004],[80.7287,25.09741],[80.73343,25.09398],[80.7375,25.09333],[80.74165,25.09736],[80.75397,25.09544],[80.7575,25.09381],[80.76026,25.09146],[80.75922,25.09034],[80.75932,25.08718],[80.77523,25.08166],[80.78418,25.08037],[80.78781,25.07396],[80.78957,25.06565],[80.78643,25.05997],[80.78411,25.05779],[80.77411,25.05722],[80.76384,25.05866],[80.75961,25.06008],[80.75227,25.0584],[80.74175,25.05851],[80.73738,25.06158],[80.73537,25.06787],[80.72259,25.0638],[80.72258,25.0638],[80.72258,25.0638],[80.72258,25.06381],[80.722,25.06814],[80.722,25.06814],[80.71779,25.07378],[80.70699,25.07751],[80.70306,25.07992],[80.70157,25.08389],[80.70469,25.08286],[80.70469,25.08286],[80.70845,25.08533],[80.71211,25.08862],[80.71193,25.09268],[80.71097,25.09388],[80.71002,25.09508],[80.70679,25.09666],[80.70679,25.09666],[80.70649,25.09668],[80.70356,25.09695],[80.70014,25.09982],[80.69833,25.10305],[80.69378,25.12139],[80.69402,25.12719],[80.68868,25.13062],[80.68894,25.14166],[80.69027,25.14506],[80.69394,25.14974],[80.69346,25.15435],[80.69741,25.15608],[80.69741,25.15608],[80.70835,25.15824],[80.70835,25.15824],[80.71596,25.16391],[80.71481,25.17432],[80.71481,25.17432],[80.7122,25.17912],[80.71436,25.18481],[80.72025,25.18939],[80.73139,25.19035],[80.73572,25.18784],[80.73895,25.18488],[80.74714,25.18558],[80.75343,25.1873],[80.75689,25.19059],[80.76729,25.20536],[80.76953,25.20655],[80.77631,25.20652],[80.78136,25.20566],[80.79252,25.21085],[80.79782,25.21644],[80.79387,25.21646],[80.79329,25.22033],[80.78744,25.22294],[80.7842,25.22314],[80.77754,25.22648],[80.77268,25.22522],[80.77268,25.22522],[80.76983,25.22367],[80.76357,25.22582],[80.75833,25.2287],[80.75459,25.22945],[80.75185,25.22891],[80.74793,25.23289],[80.74855,25.23602],[80.74766,25.23915],[80.74851,25.24623],[80.75147,25.25128],[80.75654,25.25273],[80.76151,25.2528],[80.76151,25.2528],[80.7684,25.25433],[80.77181,25.25643],[80.77746,25.25971],[80.78292,25.26208],[80.79057,25.25569],[80.79318,25.25209],[80.79465,25.25082],[80.79993,25.24625],[80.80367,25.2455],[80.80734,25.24898],[80.81114,25.25835],[80.81188,25.26276],[80.80633,25.2662],[80.78745,25.27421],[80.78264,25.28316],[80.78264,25.28316],[80.77876,25.29432],[80.77876,25.29432],[80.77706,25.29654],[80.76614,25.3],[80.7602,25.30564],[80.75797,25.30473],[80.76248,25.3152],[80.7626,25.31797],[80.75938,25.32166],[80.75899,25.32415],[80.76285,25.32524],[80.76648,25.3231],[80.77084,25.32409],[80.77017,25.331],[80.77999,25.32984],[80.78648,25.33101],[80.78854,25.3356],[80.79309,25.33456],[80.79627,25.34136],[80.80063,25.34281],[80.80091,25.33876],[80.80282,25.33617],[80.81116,25.34202],[80.81511,25.34191],[80.81674,25.34263],[80.81674,25.34263],[80.81788,25.34695],[80.82315,25.34794],[80.83115,25.34698],[80.83369,25.34844],[80.84095,25.3576],[80.84511,25.35933],[80.85113,25.36546],[80.85349,25.37042],[80.8544,25.36995],[80.86202,25.3723],[80.86436,25.37413],[80.86436,25.37413],[80.86684,25.38176],[80.87411,25.39239],[80.87548,25.40085],[80.8834,25.40247],[80.88595,25.40439],[80.88595,25.40439],[80.88566,25.4065],[80.88566,25.4065],[80.88768,25.41993],[80.9014,25.42639],[80.90824,25.43196],[80.90824,25.43196],[80.90917,25.43582],[80.90917,25.43582],[80.90647,25.44007],[80.90718,25.44108],[80.90983,25.44171],[80.91568,25.43882],[80.92705,25.44032],[80.93071,25.44214],[80.93307,25.44735],[80.93533,25.45003],[80.93533,25.45003],[80.93792,25.45719],[80.93792,25.45719],[80.93755,25.4629],[80.9394,25.46602],[80.94369,25.4693],[80.94845,25.46973],[80.95199,25.4675],[80.95818,25.46802],[80.96241,25.46486],[80.96545,25.46411],[80.9754,25.46589],[80.97823,25.46532],[80.98065,25.46291],[80.98328,25.46289],[80.98328,25.46289],[80.9857,25.47401],[80.98785,25.47722],[80.98877,25.47758],[80.99211,25.47655],[80.99422,25.47479],[80.99879,25.47586],[80.99999,25.48635],[81.00782,25.48878],[81.0119,25.49152],[81.01103,25.49741],[81.01722,25.497],[81.02496,25.50155],[81.0268,25.50384],[81.0268,25.50384],[81.02632,25.50698],[81.02632,25.50698],[81.02441,25.50837],[81.02284,25.51565],[81.02284,25.51565],[81.01893,25.52065],[81.01601,25.52347],[81.01309,25.5263],[81.00828,25.53443],[81.01692,25.53594],[81.01998,25.53822],[81.01998,25.53822],[81.02164,25.54263],[81.02164,25.54263],[81.02218,25.54425],[81.02227,25.54414],[81.0266,25.53916],[81.03529,25.53242],[81.04558,25.52687],[81.05128,25.52482],[81.0628,25.52131],[81.06804,25.52081],[81.0865,25.51646],[81.09431,25.51713],[81.09967,25.5168],[81.11641,25.51397],[81.12731,25.50974],[81.15062,25.50527],[81.15474,25.50405],[81.16013,25.50136],[81.16509,25.49781],[81.17421,25.49475],[81.18348,25.48976],[81.19138,25.4875],[81.19561,25.47756],[81.19629,25.46035],[81.19266,25.45238]]]}}]}