{"type":"FeatureCollection","features":[{"type":"Feature","properties":{"id":"deoria","name":"Deoria","stateId":"uttar-pradesh","stateName":"Uttar Pradesh","censuscode":190,"type":"district"},"geometry":{"type":"Polygon","coordinates":[[[84.05803,26.54778],[84.05804,26.54768],[84.05699,26.54084],[84.05225,26.5383],[84.04005,26.5329],[84.02927,26.52942],[84.02371,26.52936],[84.00993,26.52234],[84.00788,26.52236],[84.00759,26.5247],[83.99954,26.52746],[83.99284,26.52877],[83.98343,26.52924],[83.9798,26.52674],[83.97738,26.52314],[83.97578,26.51825],[83.97464,26.50905],[83.97178,26.50591],[83.96541,26.5055],[83.9549,26.50749],[83.95197,26.51077],[83.95277,26.51319],[83.95509,26.5157],[83.9485,26.51856],[83.94424,26.52172],[83.93975,26.52206],[83.92391,26.5175],[83.91148,26.51533],[83.9101,26.51096],[83.91101,26.50769],[83.91604,26.50403],[83.91671,26.49765],[83.9142,26.49162],[83.91245,26.46956],[83.91074,26.4646],[83.91223,26.45834],[83.91147,26.44755],[83.91732,26.44681],[83.92821,26.44285],[83.94524,26.43902],[83.95546,26.43546],[83.97046,26.43451],[83.9911,26.432],[83.99262,26.43227],[83.99961,26.44501],[84.00178,26.445],[84.01084,26.44098],[84.0182,26.44237],[84.02015,26.44585],[84.02525,26.43938],[84.02409,26.43686],[84.02554,26.42933],[84.02966,26.42625],[84.03091,26.42245],[84.0423,26.41122],[84.03968,26.41044],[84.0453,26.40529],[84.04737,26.40785],[84.04997,26.40593],[84.05039,26.403],[84.05409,26.40274],[84.0542,26.40154],[84.06408,26.3995],[84.06419,26.39772],[84.0709,26.39175],[84.0706,26.38756],[84.0797,26.38438],[84.08107,26.38196],[84.0863,26.38146],[84.08792,26.38322],[84.08965,26.38372],[84.09025,26.38716],[84.09677,26.38762],[84.09879,26.38502],[84.10136,26.38793],[84.10561,26.38542],[84.12425,26.38508],[84.12582,26.38277],[84.13749,26.38175],[84.13983,26.37972],[84.16306,26.37372],[84.16539,26.37582],[84.18041,26.37155],[84.17865,26.36014],[84.17626,26.35781],[84.17621,26.33571],[84.1858,26.32011],[84.19072,26.31467],[84.18842,26.30941],[84.18049,26.30132],[84.1777,26.29051],[84.17992,26.28428],[84.1786,26.27487],[84.1771,26.27133],[84.17994,26.26815],[84.18029,26.26538],[84.17655,26.26168],[84.17257,26.25902],[84.16633,26.25857],[84.16406,26.25537],[84.16463,26.2502],[84.16826,26.24356],[84.1662,26.24179],[84.16239,26.24293],[84.15428,26.2593],[84.15034,26.25538],[84.1349,26.25908],[84.1327,26.25645],[84.1219,26.25954],[84.12128,26.2542],[84.11887,26.25072],[84.12164,26.24731],[84.11939,26.23946],[84.11029,26.24069],[84.10929,26.23691],[84.10122,26.23784],[84.10032,26.23165],[84.09633,26.23415],[84.08845,26.22945],[84.09082,26.22472],[84.08907,26.22204],[84.08828,26.21883],[84.0826,26.21864],[84.08251,26.22249],[84.0673,26.22435],[84.06621,26.22281],[84.05838,26.22316],[84.05574,26.22778],[84.04257,26.22967],[84.04012,26.23324],[84.04029,26.23664],[84.03296,26.23716],[84.02947,26.23919],[84.02735,26.23634],[84.02309,26.23815],[84.02048,26.23823],[84.01944,26.23635],[84.01986,26.23336],[84.01449,26.23162],[84.01715,26.22287],[84.01841,26.22149],[84.02572,26.21918],[84.02943,26.22122],[84.03321,26.21734],[84.02985,26.2118],[84.02795,26.20687],[84.02844,26.2036],[84.03217,26.20208],[84.03252,26.19851],[84.02937,26.19515],[84.02395,26.19502],[84.01793,26.19714],[84.01103,26.18772],[84.01297,26.17829],[84.01193,26.17583],[84.02271,26.1646],[84.0286,26.16168],[84.03179,26.16297],[84.03674,26.16058],[84.03728,26.15725],[84.0362,26.15066],[84.03252,26.15177],[84.02702,26.14276],[84.04248,26.13513],[84.05126,26.12922],[84.05409,26.1181],[84.05072,26.11817],[84.05247,26.11485],[84.05107,26.1093],[84.05396,26.10401],[84.05707,26.10153],[84.05788,26.0974],[84.05594,26.09079],[84.04973,26.09405],[84.04711,26.09333],[84.03873,26.0963],[84.01834,26.11323],[84.00765,26.1111],[83.9999,26.11588],[83.99251,26.11649],[83.9803,26.11611],[83.97659,26.12241],[83.97152,26.12779],[83.96417,26.1317],[83.95766,26.13154],[83.95015,26.12924],[83.94148,26.12569],[83.93384,26.12259],[83.92509,26.12089],[83.91753,26.12121],[83.908,26.1229],[83.89864,26.127],[83.89053,26.13559],[83.88199,26.14292],[83.86721,26.16504],[83.86767,26.174],[83.8668,26.18043],[83.86361,26.18502],[83.85122,26.18963],[83.84068,26.19174],[83.83441,26.18914],[83.82707,26.18819],[83.8185,26.1888],[83.81117,26.19066],[83.80112,26.19596],[83.80142,26.20934],[83.79923,26.21457],[83.79514,26.21886],[83.79044,26.22953],[83.78137,26.23121],[83.76875,26.24012],[83.75834,26.24968],[83.75661,26.25306],[83.75062,26.25694],[83.75097,26.25993],[83.74672,26.26193],[83.74183,26.26236],[83.73131,26.25991],[83.71553,26.25743],[83.70915,26.25407],[83.70285,26.24888],[83.69374,26.24321],[83.68603,26.2407],[83.67063,26.23811],[83.66615,26.23573],[83.65899,26.22594],[83.6417,26.2231],[83.63473,26.22295],[83.63459,26.233],[83.63542,26.2395],[83.63765,26.24656],[83.64109,26.26985],[83.64377,26.2748],[83.66453,26.28242],[83.66882,26.28548],[83.67108,26.28866],[83.67213,26.30014],[83.67003,26.3091],[83.6674,26.31391],[83.66318,26.31763],[83.65828,26.31903],[83.64886,26.31428],[83.63127,26.2999],[83.62373,26.29768],[83.62132,26.29945],[83.62511,26.31601],[83.62693,26.3182],[83.63212,26.31949],[83.63915,26.32274],[83.63988,26.32704],[83.63675,26.32841],[83.63277,26.32759],[83.62545,26.32238],[83.62367,26.3222],[83.622,26.3238],[83.61999,26.32873],[83.61674,26.33016],[83.61284,26.3334],[83.62046,26.342],[83.61346,26.34404],[83.60667,26.34457],[83.60194,26.3465],[83.60294,26.35053],[83.60714,26.3556],[83.61168,26.35936],[83.61483,26.36351],[83.61436,26.36616],[83.61142,26.36878],[83.5903,26.35759],[83.58546,26.35946],[83.58117,26.36415],[83.57951,26.37293],[83.58106,26.37782],[83.5868,26.38951],[83.58658,26.3945],[83.58439,26.39748],[83.57843,26.39699],[83.56645,26.39262],[83.55318,26.39225],[83.54896,26.38862],[83.55044,26.38679],[83.56367,26.38456],[83.56667,26.38182],[83.56829,26.37798],[83.57175,26.37472],[83.57025,26.37127],[83.56101,26.37604],[83.55803,26.37534],[83.55213,26.35975],[83.5483,26.35404],[83.54367,26.35372],[83.53977,26.3575],[83.53731,26.36335],[83.53466,26.37447],[83.53579,26.38372],[83.53115,26.38467],[83.5214,26.38158],[83.51613,26.3812],[83.51389,26.38309],[83.51627,26.38626],[83.52744,26.39436],[83.52791,26.39833],[83.5244,26.4002],[83.51146,26.39869],[83.50345,26.39877],[83.49813,26.39069],[83.49452,26.38906],[83.48999,26.39162],[83.48798,26.39615],[83.488,26.40213],[83.49241,26.40611],[83.51074,26.41603],[83.49867,26.42234],[83.49929,26.43107],[83.49863,26.43452],[83.49215,26.44097],[83.4817,26.4571],[83.4797,26.46163],[83.48229,26.46262],[83.49076,26.46078],[83.4938,26.46188],[83.49402,26.46596],[83.49066,26.47197],[83.48923,26.47622],[83.48957,26.48024],[83.49238,26.48611],[83.49558,26.48998],[83.50051,26.4942],[83.5073,26.4947],[83.51557,26.49388],[83.51738,26.49866],[83.53083,26.49363],[83.5345,26.4949],[83.54152,26.49965],[83.54389,26.49748],[83.54631,26.48917],[83.55007,26.4889],[83.55354,26.49162],[83.55529,26.49582],[83.55582,26.50031],[83.55188,26.50683],[83.55484,26.50978],[83.5589,26.51014],[83.56522,26.50827],[83.57144,26.50963],[83.5748,26.51201],[83.57994,26.51278],[83.59171,26.51158],[83.59742,26.51258],[83.60199,26.51461],[83.60404,26.51905],[83.60421,26.52984],[83.61018,26.53866],[83.61085,26.54222],[83.60904,26.54653],[83.61124,26.549],[83.61224,26.55148],[83.61617,26.55333],[83.61707,26.55879],[83.61582,26.5643],[83.61656,26.5681],[83.62105,26.57128],[83.62668,26.56757],[83.63031,26.57408],[83.6303,26.57615],[83.62716,26.57992],[83.63121,26.58137],[83.6308,26.58556],[83.63166,26.59022],[83.63016,26.59384],[83.62151,26.60051],[83.62002,26.60418],[83.62086,26.6101],[83.61969,26.61371],[83.61986,26.61601],[83.62348,26.61609],[83.6285,26.61835],[83.63426,26.62239],[83.63188,26.64185],[83.63306,26.64531],[83.63037,26.64782],[83.63034,26.6515],[83.63167,26.65701],[83.63171,26.65702],[83.64137,26.65817],[83.64863,26.65763],[83.65499,26.65813],[83.65596,26.66335],[83.66454,26.68035],[83.6662,26.68132],[83.67072,26.68159],[83.67718,26.68907],[83.67932,26.69583],[83.68334,26.69996],[83.68884,26.69901],[83.69153,26.70005],[83.69953,26.69701],[83.69934,26.69048],[83.69722,26.68428],[83.69702,26.68115],[83.70708,26.68184],[83.71147,26.68504],[83.71592,26.68641],[83.72339,26.68642],[83.722,26.69123],[83.72303,26.69498],[83.72541,26.69593],[83.73317,26.6957],[83.7394,26.69459],[83.74494,26.69151],[83.74935,26.69141],[83.75422,26.6935],[83.75866,26.69818],[83.76113,26.70198],[83.76735,26.6976],[83.7736,26.70113],[83.77731,26.70187],[83.78229,26.70745],[83.7917,26.70713],[83.79413,26.71305],[83.80143,26.71389],[83.80421,26.72109],[83.80674,26.7236],[83.80763,26.72579],[83.80757,26.72739],[83.80746,26.73057],[83.81235,26.74664],[83.8156,26.74635],[83.81787,26.74614],[83.8248,26.74482],[83.8321,26.74343],[83.8361,26.74266],[83.83893,26.74471],[83.83968,26.74901],[83.83943,26.75435],[83.84289,26.75703],[83.85091,26.74782],[83.85537,26.74614],[83.86213,26.74607],[83.87457,26.74751],[83.87992,26.74158],[83.88666,26.73746],[83.89002,26.73361],[83.8918,26.72823],[83.89696,26.71936],[83.89754,26.71484],[83.8957,26.70845],[83.89755,26.70518],[83.90502,26.70178],[83.90444,26.69609],[83.90694,26.69106],[83.91122,26.69031],[83.91403,26.6884],[83.9159,26.68627],[83.91755,26.68531],[83.92128,26.68435],[83.92323,26.68136],[83.92556,26.6794],[83.92722,26.67823],[83.9326,26.67616],[83.93713,26.67715],[83.94862,26.67447],[83.95438,26.67524],[83.95738,26.67287],[83.96101,26.6713],[83.96007,26.66415],[83.96319,26.65561],[83.96778,26.64859],[83.96867,26.64121],[83.96643,26.63161],[83.9669,26.62709],[83.96985,26.62343],[83.98262,26.61593],[83.98798,26.61055],[83.99001,26.6036],[83.99499,26.5928],[83.99959,26.5925],[84.00226,26.5928],[84.0076,26.58696],[84.00759,26.58364],[84.01104,26.57629],[84.01847,26.5749],[84.03128,26.56914],[84.03706,26.56108],[84.04087,26.55859],[84.04274,26.55625],[84.04865,26.55554],[84.04817,26.55022],[84.055,26.54844],[84.05803,26.54778]]]}}]}