{"type":"FeatureCollection","features":[{"type":"Feature","properties":{"id":"etah","name":"Etah","stateId":"uttar-pradesh","stateName":"Uttar Pradesh","censuscode":201,"type":"district"},"geometry":{"type":"Polygon","coordinates":[[[79.1776,27.58357],[79.18338,27.58204],[79.19007,27.58294],[79.20365,27.58183],[79.21651,27.57819],[79.22058,27.5764],[79.22359,27.57379],[79.22657,27.55359],[79.22719,27.54782],[79.22557,27.54314],[79.22603,27.53578],[79.2369,27.52724],[79.24506,27.52594],[79.25271,27.52145],[79.27057,27.52089],[79.2744,27.51704],[79.27511,27.5107],[79.27183,27.50656],[79.26885,27.49438],[79.2588,27.49205],[79.2535,27.48507],[79.2481,27.4733],[79.2527,27.46832],[79.25537,27.46367],[79.25327,27.45425],[79.26067,27.44467],[79.2602,27.43781],[79.26062,27.42994],[79.25679,27.42175],[79.25518,27.42051],[79.24868,27.41732],[79.23365,27.41648],[79.22841,27.41353],[79.23791,27.40258],[79.24391,27.39972],[79.25224,27.3912],[79.25731,27.3722],[79.26147,27.36323],[79.26753,27.35279],[79.26865,27.34701],[79.26446,27.34343],[79.2558,27.33943],[79.25348,27.33712],[79.25083,27.33062],[79.25017,27.32903],[79.24052,27.32433],[79.23357,27.32649],[79.23058,27.32789],[79.22932,27.32944],[79.22195,27.32761],[79.21631,27.32896],[79.21157,27.33252],[79.20744,27.33753],[79.19735,27.34499],[79.19674,27.3566],[79.19335,27.36101],[79.18386,27.36466],[79.17838,27.36985],[79.1733,27.37737],[79.17085,27.37938],[79.16745,27.38074],[79.15578,27.3779],[79.1469,27.37666],[79.1425,27.38065],[79.14195,27.38537],[79.13939,27.3911],[79.1355,27.39599],[79.12729,27.40285],[79.12291,27.40495],[79.11743,27.40583],[79.11682,27.40844],[79.11924,27.4136],[79.11451,27.41394],[79.1126,27.42211],[79.11278,27.42829],[79.1096,27.43227],[79.09832,27.42856],[79.08404,27.42182],[79.079,27.42137],[79.06352,27.4171],[79.05757,27.41881],[79.02352,27.42926],[79.0154,27.42786],[79.00613,27.42975],[79.0016,27.43245],[79.00001,27.43259],[78.99654,27.42857],[78.99363,27.4292],[78.98862,27.42898],[78.97917,27.42535],[78.97628,27.42016],[78.96767,27.42062],[78.96492,27.41939],[78.95952,27.41916],[78.95932,27.42502],[78.95804,27.42747],[78.95128,27.42536],[78.94091,27.43019],[78.93994,27.43251],[78.9405,27.43528],[78.93646,27.43609],[78.93714,27.44504],[78.93941,27.44749],[78.93894,27.4494],[78.9361,27.45002],[78.92827,27.44527],[78.92374,27.45036],[78.90682,27.46436],[78.90641,27.46575],[78.89494,27.4693],[78.89075,27.46942],[78.88825,27.46838],[78.88303,27.46007],[78.88417,27.45682],[78.87926,27.45188],[78.87338,27.44256],[78.87348,27.43775],[78.87269,27.43632],[78.86332,27.43069],[78.86228,27.42608],[78.86054,27.42385],[78.85483,27.42024],[78.85004,27.41557],[78.84146,27.41106],[78.83973,27.40947],[78.84219,27.40556],[78.83999,27.39962],[78.84563,27.39972],[78.84976,27.39716],[78.85467,27.39164],[78.85527,27.39006],[78.85234,27.38594],[78.85127,27.38266],[78.84455,27.37587],[78.84513,27.37296],[78.83738,27.36492],[78.83648,27.36094],[78.83278,27.35902],[78.82571,27.35357],[78.82015,27.3518],[78.80901,27.35551],[78.80451,27.35152],[78.79939,27.34893],[78.79259,27.34771],[78.78302,27.34716],[78.78072,27.33625],[78.77838,27.33633],[78.775,27.33482],[78.77332,27.33607],[78.76317,27.33894],[78.75461,27.3459],[78.74847,27.33916],[78.74156,27.33474],[78.73628,27.33355],[78.73386,27.33571],[78.73272,27.33673],[78.73037,27.34029],[78.72649,27.34243],[78.72094,27.34369],[78.7197,27.34886],[78.71999,27.36546],[78.71706,27.37581],[78.70456,27.37888],[78.69578,27.38011],[78.68653,27.38382],[78.68369,27.38803],[78.67976,27.39167],[78.67686,27.39258],[78.67563,27.3948],[78.67745,27.39743],[78.67538,27.40273],[78.67304,27.41399],[78.67131,27.41679],[78.664,27.4188],[78.64551,27.41964],[78.64447,27.42173],[78.64374,27.42759],[78.64141,27.43243],[78.64485,27.43672],[78.64982,27.45343],[78.6505,27.45979],[78.66084,27.47174],[78.66557,27.4737],[78.6657,27.48122],[78.66414,27.48622],[78.66154,27.49019],[78.65646,27.49003],[78.65161,27.49183],[78.64668,27.48901],[78.63612,27.49048],[78.63077,27.48934],[78.62582,27.49728],[78.62419,27.50234],[78.62053,27.50291],[78.62023,27.50418],[78.61842,27.50583],[78.60712,27.50968],[78.59813,27.50674],[78.59986,27.50011],[78.59443,27.49389],[78.59234,27.49414],[78.58931,27.49054],[78.58795,27.48165],[78.58819,27.47701],[78.58651,27.47507],[78.58339,27.47407],[78.56936,27.47361],[78.56431,27.47073],[78.56078,27.46447],[78.55765,27.46272],[78.55561,27.45841],[78.55608,27.45632],[78.54514,27.44153],[78.54291,27.44156],[78.53883,27.44387],[78.53509,27.44855],[78.52428,27.4499],[78.52235,27.45578],[78.51985,27.45905],[78.51605,27.46228],[78.5137,27.46254],[78.50851,27.45867],[78.50585,27.45535],[78.50923,27.44056],[78.49618,27.42925],[78.49231,27.42444],[78.48698,27.4241],[78.48085,27.42488],[78.47716,27.42863],[78.47253,27.4284],[78.46722,27.42546],[78.46607,27.42067],[78.46784,27.41573],[78.47292,27.40889],[78.47523,27.40244],[78.4853,27.39404],[78.48852,27.39301],[78.49157,27.39343],[78.49216,27.38608],[78.48499,27.382],[78.48469,27.37854],[78.48667,27.3714],[78.49044,27.36532],[78.48797,27.36102],[78.48424,27.35777],[78.48428,27.35632],[78.49019,27.35335],[78.48714,27.34882],[78.47905,27.34181],[78.47555,27.34468],[78.47238,27.34906],[78.47052,27.35551],[78.45836,27.37256],[78.45093,27.37143],[78.44666,27.37004],[78.43798,27.3606],[78.43329,27.36095],[78.41243,27.3689],[78.40767,27.36809],[78.40036,27.37085],[78.39772,27.36752],[78.39207,27.36678],[78.38794,27.35774],[78.38785,27.34687],[78.38517,27.34169],[78.38512,27.3377],[78.37548,27.33301],[78.37148,27.33202],[78.36703,27.33484],[78.3654,27.34111],[78.36556,27.34319],[78.36084,27.34527],[78.35351,27.3471],[78.34524,27.33973],[78.33943,27.33238],[78.3351,27.33042],[78.32386,27.33715],[78.32188,27.33595],[78.32012,27.33244],[78.32045,27.32514],[78.31522,27.31734],[78.3113,27.3131],[78.305,27.31074],[78.30033,27.30807],[78.29112,27.30988],[78.28846,27.31041],[78.28602,27.31269],[78.28597,27.31278],[78.28281,27.31851],[78.28102,27.32398],[78.28091,27.32423],[78.27982,27.33087],[78.27878,27.33726],[78.28197,27.34119],[78.28552,27.34563],[78.28573,27.34863],[78.28589,27.3513],[78.28955,27.35437],[78.28769,27.36062],[78.28739,27.36163],[78.28936,27.36648],[78.28886,27.37192],[78.29392,27.3741],[78.29376,27.37804],[78.29376,27.37804],[78.29376,27.37806],[78.29686,27.38224],[78.29552,27.38344],[78.29355,27.38518],[78.28732,27.38438],[78.28732,27.3844],[78.28729,27.3844],[78.28716,27.38599],[78.28688,27.38867],[78.28067,27.39331],[78.27186,27.38878],[78.26871,27.38997],[78.26598,27.38983],[78.26054,27.39333],[78.2604,27.39339],[78.25065,27.39144],[78.2505,27.39159],[78.2461,27.39532],[78.24279,27.39935],[78.24277,27.39937],[78.23914,27.40165],[78.23256,27.40284],[78.23238,27.40287],[78.22853,27.40414],[78.22602,27.40584],[78.22324,27.40424],[78.21716,27.40071],[78.20894,27.40161],[78.19804,27.40278],[78.19803,27.4028],[78.19566,27.41589],[78.19864,27.42026],[78.20092,27.42943],[78.20058,27.43297],[78.20032,27.43297],[78.19747,27.433],[78.19311,27.42905],[78.18947,27.42701],[78.18452,27.42637],[78.18124,27.42698],[78.18115,27.42741],[78.1801,27.4326],[78.18426,27.44529],[78.18983,27.4546],[78.19169,27.45557],[78.19302,27.45625],[78.195,27.45632],[78.19784,27.45643],[78.2003,27.45982],[78.19992,27.46015],[78.19685,27.46286],[78.19688,27.46304],[78.19714,27.46468],[78.1974,27.46633],[78.19972,27.47054],[78.20234,27.47531],[78.20211,27.47612],[78.20173,27.4774],[78.20273,27.47885],[78.20322,27.47957],[78.20821,27.48294],[78.20907,27.48987],[78.20882,27.49023],[78.20864,27.49051],[78.20427,27.49704],[78.20603,27.50067],[78.20507,27.50496],[78.20676,27.50842],[78.21277,27.50649],[78.21589,27.50762],[78.22015,27.51278],[78.21794,27.51859],[78.21776,27.51882],[78.2142,27.52344],[78.21426,27.52347],[78.22296,27.52878],[78.22926,27.52489],[78.23239,27.52666],[78.23783,27.52573],[78.24076,27.52604],[78.24458,27.52808],[78.2463,27.52664],[78.2464,27.52656],[78.24839,27.52206],[78.24856,27.52167],[78.25201,27.51897],[78.25473,27.51802],[78.26417,27.52665],[78.26726,27.52534],[78.2702,27.52693],[78.27323,27.52557],[78.27778,27.52852],[78.27786,27.53037],[78.28396,27.53603],[78.28357,27.53637],[78.27889,27.54049],[78.27189,27.54849],[78.27198,27.54855],[78.28029,27.55482],[78.28244,27.55353],[78.28618,27.55435],[78.2862,27.55435],[78.29151,27.54451],[78.29176,27.54404],[78.29674,27.54653],[78.29814,27.54634],[78.30429,27.55096],[78.31434,27.54326],[78.3187,27.54704],[78.31319,27.55665],[78.31418,27.55895],[78.3199,27.56426],[78.31821,27.57002],[78.31837,27.57285],[78.3208,27.57432],[78.3283,27.57505],[78.33226,27.57702],[78.33337,27.57875],[78.33386,27.58262],[78.3377,27.58269],[78.3378,27.58269],[78.33863,27.58038],[78.33878,27.57996],[78.34446,27.57809],[78.34899,27.5748],[78.35227,27.57366],[78.36307,27.57377],[78.36582,27.56965],[78.36611,27.56922],[78.36071,27.56163],[78.3606,27.56148],[78.36348,27.55913],[78.36751,27.56082],[78.37216,27.56613],[78.38296,27.567],[78.38689,27.56637],[78.39299,27.57157],[78.39272,27.57202],[78.38897,27.57844],[78.38897,27.57844],[78.39189,27.58263],[78.39723,27.588],[78.39919,27.58835],[78.39933,27.58838],[78.39991,27.58614],[78.39999,27.58583],[78.40714,27.58001],[78.41406,27.58045],[78.41629,27.58048],[78.42244,27.58828],[78.43606,27.59117],[78.44636,27.59585],[78.4506,27.59927],[78.45227,27.60509],[78.45375,27.60641],[78.45783,27.6074],[78.46036,27.61036],[78.46603,27.61227],[78.46942,27.61772],[78.47108,27.61863],[78.48762,27.61229],[78.49138,27.61346],[78.49787,27.618],[78.50058,27.61664],[78.50563,27.62276],[78.50565,27.62444],[78.50539,27.62483],[78.50088,27.6315],[78.50088,27.63156],[78.50151,27.63566],[78.49911,27.6402],[78.50075,27.64365],[78.506,27.64648],[78.50552,27.64863],[78.50898,27.65401],[78.50671,27.65879],[78.5104,27.66378],[78.51002,27.66778],[78.51537,27.66834],[78.51544,27.66973],[78.51516,27.66985],[78.51148,27.67134],[78.50809,27.67411],[78.50802,27.67441],[78.50558,27.68473],[78.51332,27.68752],[78.51426,27.69087],[78.5187,27.69387],[78.51829,27.69424],[78.50923,27.70227],[78.50774,27.70478],[78.50774,27.70479],[78.51111,27.7089],[78.52832,27.7236],[78.52802,27.72404],[78.52677,27.72585],[78.52514,27.72822],[78.519,27.73374],[78.5146,27.73993],[78.51845,27.74313],[78.52351,27.74556],[78.52637,27.74958],[78.53604,27.75372],[78.53605,27.75853],[78.53043,27.76913],[78.53706,27.77402],[78.53916,27.7781],[78.55218,27.78488],[78.55553,27.78351],[78.56677,27.76728],[78.57682,27.76749],[78.58919,27.7697],[78.60031,27.76932],[78.60388,27.76581],[78.60392,27.75724],[78.60586,27.74778],[78.60995,27.74454],[78.61545,27.74279],[78.62219,27.74345],[78.63702,27.74053],[78.64396,27.74113],[78.6511,27.74654],[78.65663,27.74658],[78.6613,27.74414],[78.66729,27.73816],[78.67569,27.73492],[78.68283,27.73939],[78.68717,27.7402],[78.68878,27.73068],[78.69023,27.72656],[78.69842,27.71505],[78.69457,27.71244],[78.69322,27.70418],[78.69675,27.69926],[78.69759,27.68583],[78.7033,27.68159],[78.70678,27.6732],[78.70947,27.67125],[78.72098,27.67103],[78.72364,27.66781],[78.72582,27.662],[78.73736,27.64956],[78.73907,27.64577],[78.74397,27.64235],[78.74409,27.63523],[78.74874,27.63597],[78.75229,27.63181],[78.7581,27.63028],[78.76533,27.6296],[78.77873,27.63334],[78.77779,27.63029],[78.78526,27.62914],[78.79296,27.61959],[78.79822,27.6183],[78.80253,27.61169],[78.80767,27.60791],[78.80971,27.60151],[78.81643,27.60442],[78.82421,27.60308],[78.82904,27.60679],[78.84099,27.60098],[78.85985,27.59385],[78.86057,27.59187],[78.85968,27.58469],[78.85721,27.58131],[78.85898,27.57808],[78.86159,27.57822],[78.86544,27.57704],[78.87321,27.57848],[78.87382,27.58067],[78.87124,27.58485],[78.87463,27.59002],[78.87919,27.58959],[78.88253,27.5882],[78.88735,27.58825],[78.89139,27.58673],[78.89448,27.58215],[78.89502,27.5769],[78.89834,27.56842],[78.89299,27.55701],[78.89104,27.5477],[78.90503,27.54936],[78.91433,27.55834],[78.91906,27.55991],[78.92887,27.55881],[78.93336,27.5606],[78.94039,27.56671],[78.94943,27.57122],[78.95406,27.5708],[78.95913,27.56435],[78.96265,27.56291],[78.96566,27.56402],[78.96878,27.56791],[78.97387,27.58062],[78.97432,27.58775],[78.97764,27.59244],[78.9834,27.59785],[78.9803,27.61483],[78.97887,27.62094],[78.97875,27.63626],[78.97933,27.64852],[78.98272,27.65589],[78.99369,27.66025],[79.01026,27.653],[79.01719,27.64753],[79.01726,27.63834],[79.01733,27.62915],[79.02017,27.61753],[79.02711,27.61022],[79.03955,27.60233],[79.05063,27.59259],[79.0596,27.58774],[79.06925,27.58474],[79.08166,27.58113],[79.08925,27.57689],[79.09618,27.56958],[79.10246,27.55736],[79.1073,27.55309],[79.11349,27.55252],[79.12585,27.55504],[79.14023,27.56369],[79.14913,27.56926],[79.16013,27.56993],[79.16903,27.5761],[79.1776,27.58357]]]}}]}