{"type":"FeatureCollection","features":[{"type":"Feature","properties":{"id":"gautam-buddha-nagar","name":"Gautam Buddha Nagar","stateId":"uttar-pradesh","stateName":"Uttar Pradesh","censuscode":141,"type":"district"},"geometry":{"type":"Polygon","coordinates":[[[77.69833,28.27996],[77.6965,28.27841],[77.67803,28.26443],[77.68005,28.25988],[77.68271,28.25592],[77.68277,28.25249],[77.68284,28.24906],[77.68673,28.24798],[77.70222,28.2482],[77.70809,28.24498],[77.70805,28.24022],[77.70327,28.22932],[77.70341,28.22915],[77.70194,28.22819],[77.69765,28.21612],[77.6972,28.20525],[77.69945,28.18813],[77.70281,28.18132],[77.7042,28.17987],[77.70388,28.17957],[77.70751,28.16824],[77.70823,28.1681],[77.70931,28.16616],[77.71654,28.17123],[77.71829,28.18154],[77.72197,28.19189],[77.73085,28.20059],[77.73471,28.20122],[77.75228,28.19289],[77.75951,28.18556],[77.76479,28.17877],[77.75776,28.17525],[77.75004,28.17399],[77.74495,28.16992],[77.73932,28.16012],[77.73681,28.15665],[77.73108,28.152],[77.72967,28.15115],[77.72958,28.14521],[77.72091,28.14385],[77.71002,28.13969],[77.70698,28.12993],[77.70714,28.12078],[77.70146,28.11441],[77.69444,28.1103],[77.68229,28.10498],[77.67517,28.10462],[77.67387,28.10847],[77.6653,28.10926],[77.66223,28.11093],[77.65829,28.11195],[77.65346,28.10384],[77.6485,28.10175],[77.64689,28.09697],[77.6442,28.09377],[77.64164,28.09371],[77.63484,28.09756],[77.63233,28.09808],[77.62341,28.09724],[77.61929,28.09448],[77.61524,28.10204],[77.61463,28.10133],[77.60865,28.10838],[77.60246,28.10122],[77.59765,28.0985],[77.59577,28.09661],[77.59205,28.09605],[77.58375,28.09099],[77.57635,28.08119],[77.57255,28.07936],[77.55454,28.07946],[77.54922,28.07875],[77.53888,28.08077],[77.52587,28.07669],[77.51826,28.07987],[77.50737,28.07613],[77.50095,28.07573],[77.49659,28.07766],[77.49111,28.07834],[77.47942,28.07807],[77.47828,28.08034],[77.4825,28.09806],[77.48422,28.09863],[77.48766,28.10231],[77.49223,28.10219],[77.49545,28.09172],[77.49957,28.08961],[77.50174,28.09234],[77.50318,28.0966],[77.5027,28.1025],[77.50084,28.10704],[77.50887,28.11692],[77.50914,28.12169],[77.50796,28.13001],[77.49744,28.13311],[77.49673,28.13576],[77.49935,28.13872],[77.50478,28.14014],[77.50589,28.1542],[77.50844,28.15734],[77.52114,28.15921],[77.52125,28.15924],[77.54134,28.16457],[77.55198,28.17597],[77.54755,28.1852],[77.53978,28.18727],[77.53041,28.18606],[77.51525,28.1898],[77.51109,28.18152],[77.50168,28.17943],[77.50019,28.1874],[77.49872,28.20633],[77.50719,28.20735],[77.52017,28.20066],[77.52242,28.19601],[77.52873,28.19611],[77.53291,28.20149],[77.53122,28.21171],[77.52667,28.21572],[77.52522,28.22409],[77.54529,28.23484],[77.55089,28.24205],[77.54848,28.24873],[77.53471,28.24775],[77.52193,28.24866],[77.52127,28.24889],[77.52029,28.24923],[77.51173,28.25218],[77.49675,28.2561],[77.47695,28.26408],[77.47449,28.2718],[77.48192,28.27557],[77.49777,28.27347],[77.50243,28.27498],[77.50449,28.28697],[77.5039,28.29461],[77.50553,28.30139],[77.49161,28.31798],[77.48332,28.32225],[77.47567,28.32832],[77.4735,28.33238],[77.47619,28.33558],[77.49497,28.34458],[77.50404,28.35263],[77.50187,28.36388],[77.49573,28.37406],[77.4794,28.38868],[77.47668,28.39406],[77.48373,28.39818],[77.48443,28.40789],[77.47859,28.41192],[77.46597,28.41538],[77.46135,28.41926],[77.45388,28.42337],[77.44587,28.42602],[77.43819,28.43847],[77.4357,28.44896],[77.4281,28.45021],[77.42805,28.45022],[77.41818,28.45003],[77.40769,28.45307],[77.40474,28.45723],[77.40993,28.46114],[77.4078,28.46561],[77.39807,28.46727],[77.38591,28.47062],[77.38309,28.47254],[77.37926,28.47515],[77.37402,28.48012],[77.37388,28.48737],[77.37039,28.49233],[77.3531,28.49809],[77.34765,28.50346],[77.34676,28.51017],[77.34415,28.51475],[77.3439,28.5152],[77.34292,28.51616],[77.34044,28.51859],[77.3365,28.52376],[77.33145,28.53036],[77.32483,28.536],[77.32063,28.53821],[77.31439,28.54375],[77.31301,28.54497],[77.30514,28.55573],[77.30376,28.56126],[77.30363,28.57426],[77.30482,28.57678],[77.30491,28.57696],[77.31516,28.58907],[77.31556,28.58955],[77.31716,28.59144],[77.31996,28.59349],[77.32337,28.59397],[77.32697,28.59448],[77.33789,28.5994],[77.3432,28.60123],[77.34625,28.60339],[77.34762,28.61201],[77.34717,28.61641],[77.34431,28.62151],[77.34056,28.62593],[77.33633,28.62799],[77.33105,28.63056],[77.32603,28.63544],[77.324,28.63743],[77.32367,28.63774],[77.3213,28.63919],[77.32319,28.64121],[77.32544,28.64591],[77.32554,28.65573],[77.32554,28.65638],[77.32556,28.6578],[77.32771,28.66616],[77.32773,28.66653],[77.328,28.67239],[77.32807,28.67386],[77.32807,28.67389],[77.33555,28.67704],[77.33578,28.67739],[77.33729,28.67969],[77.33729,28.67969],[77.3407,28.67793],[77.34259,28.67525],[77.35531,28.67448],[77.3583,28.67606],[77.36435,28.67691],[77.36608,28.68003],[77.36816,28.67956],[77.37406,28.68157],[77.3795,28.68142],[77.38341,28.67786],[77.38714,28.67674],[77.39558,28.68026],[77.40107,28.68074],[77.40695,28.6788],[77.4111,28.67387],[77.40842,28.66979],[77.40395,28.66533],[77.39959,28.65459],[77.40225,28.64962],[77.40063,28.63821],[77.40103,28.63543],[77.40456,28.63203],[77.40575,28.6287],[77.41912,28.62701],[77.42716,28.6235],[77.4361,28.62082],[77.44306,28.62169],[77.4493,28.62489],[77.46385,28.63236],[77.46812,28.63026],[77.47119,28.62674],[77.47523,28.62545],[77.4825,28.62934],[77.48655,28.63269],[77.49958,28.64091],[77.50369,28.64449],[77.50634,28.64478],[77.51409,28.64016],[77.51775,28.64129],[77.51946,28.64533],[77.52187,28.64713],[77.52492,28.64692],[77.52845,28.64526],[77.52902,28.64313],[77.53303,28.64085],[77.53557,28.64027],[77.54074,28.63524],[77.54291,28.63146],[77.54948,28.63266],[77.55213,28.63046],[77.55053,28.62717],[77.55671,28.62094],[77.56407,28.6163],[77.56665,28.61642],[77.5731,28.62418],[77.57616,28.62639],[77.57927,28.62606],[77.59723,28.61657],[77.60418,28.61046],[77.60821,28.60221],[77.60902,28.59578],[77.61016,28.59384],[77.62272,28.58079],[77.62517,28.57551],[77.63414,28.5788],[77.63923,28.58217],[77.64413,28.58756],[77.65552,28.59496],[77.6578,28.59414],[77.66345,28.59033],[77.67048,28.58318],[77.67603,28.57606],[77.67874,28.56312],[77.68099,28.55836],[77.68358,28.55541],[77.68853,28.55186],[77.69077,28.54772],[77.69129,28.54676],[77.69247,28.5382],[77.69533,28.52997],[77.69125,28.52773],[77.68892,28.52518],[77.68824,28.5189],[77.69013,28.51269],[77.69031,28.50834],[77.67379,28.50226],[77.67245,28.49917],[77.67252,28.49592],[77.66865,28.49345],[77.66069,28.49129],[77.6583,28.48664],[77.65755,28.48519],[77.65344,28.48457],[77.65269,28.48463],[77.64872,28.48493],[77.6471,28.48344],[77.6471,28.48344],[77.64417,28.48075],[77.63912,28.47823],[77.63961,28.47558],[77.64219,28.46172],[77.63812,28.43533],[77.64387,28.42743],[77.64512,28.42203],[77.64319,28.40897],[77.64813,28.39987],[77.65926,28.39306],[77.66678,28.39611],[77.66896,28.41844],[77.67147,28.42848],[77.68176,28.4334],[77.68852,28.42689],[77.68674,28.41136],[77.67869,28.39178],[77.68263,28.3756],[77.69174,28.37123],[77.69424,28.37065],[77.69492,28.36356],[77.69642,28.35272],[77.69715,28.34816],[77.69592,28.34471],[77.68886,28.34232],[77.68372,28.34053],[77.67602,28.33756],[77.6748,28.33412],[77.67419,28.33182],[77.67423,28.33011],[77.67999,28.33248],[77.68897,28.33604],[77.69481,28.33498],[77.69749,28.32987],[77.69693,28.32472],[77.69701,28.32072],[77.69056,28.32006],[77.68348,28.31881],[77.68293,28.31366],[77.68372,28.30567],[77.68445,28.30111],[77.68521,28.2954],[77.68722,28.29143],[77.69757,28.29043],[77.70338,28.29052],[77.70474,28.28654],[77.70204,28.28407],[77.70101,28.28454],[77.69825,28.28239],[77.69833,28.27996]]]}}]}