{"type":"FeatureCollection","features":[{"type":"Feature","properties":{"id":"ghazipur","name":"Ghazipur","stateId":"uttar-pradesh","stateName":"Uttar Pradesh","censuscode":195,"type":"district"},"geometry":{"type":"Polygon","coordinates":[[[83.73262,25.85627],[83.72953,25.8521],[83.73022,25.84875],[83.73214,25.8474],[83.7349,25.84643],[83.74333,25.84601],[83.7438,25.85323],[83.74536,25.85556],[83.74808,25.85586],[83.74967,25.85354],[83.74973,25.85055],[83.74738,25.84393],[83.74739,25.84134],[83.75396,25.83348],[83.75946,25.82834],[83.76387,25.8258],[83.76622,25.82306],[83.77962,25.814],[83.78767,25.8076],[83.79144,25.80719],[83.80087,25.81185],[83.80309,25.80975],[83.80283,25.80636],[83.79945,25.80183],[83.80353,25.79837],[83.8069,25.79694],[83.81266,25.7927],[83.81681,25.78684],[83.82005,25.78517],[83.81944,25.78294],[83.81265,25.77744],[83.81183,25.77492],[83.81305,25.7729],[83.81589,25.77313],[83.82145,25.77671],[83.83448,25.78814],[83.83827,25.77975],[83.84243,25.77973],[83.843,25.78247],[83.83991,25.7885],[83.84048,25.79119],[83.84343,25.79062],[83.84901,25.78627],[83.85172,25.78611],[83.85456,25.78893],[83.85589,25.79229],[83.8552,25.79512],[83.85787,25.79633],[83.86088,25.79513],[83.8631,25.79284],[83.86988,25.77783],[83.87828,25.77529],[83.88075,25.77195],[83.8837,25.76297],[83.89603,25.7601],[83.90312,25.75642],[83.90342,25.75802],[83.90892,25.76425],[83.91707,25.75896],[83.9112,25.75465],[83.91013,25.75201],[83.9126,25.74873],[83.91535,25.74784],[83.91913,25.74953],[83.92521,25.75565],[83.92683,25.76622],[83.93023,25.76669],[83.93999,25.76152],[83.94584,25.7573],[83.95073,25.75639],[83.95117,25.75451],[83.94931,25.75038],[83.955,25.74752],[83.95554,25.74587],[83.95425,25.74384],[83.95041,25.74162],[83.94965,25.73921],[83.95093,25.73655],[83.95316,25.73428],[83.96028,25.73105],[83.9628,25.72916],[83.96153,25.72612],[83.95956,25.72518],[83.95637,25.7264],[83.95337,25.72146],[83.94973,25.72258],[83.94233,25.72287],[83.93657,25.70932],[83.94009,25.70726],[83.95329,25.7027],[83.954,25.69015],[83.95333,25.68609],[83.95596,25.68805],[83.96138,25.69025],[83.96338,25.68969],[83.96391,25.68824],[83.96115,25.68089],[83.95888,25.67817],[83.95454,25.67584],[83.94803,25.67546],[83.94472,25.66834],[83.94424,25.66333],[83.94233,25.65939],[83.93727,25.65588],[83.93623,25.64787],[83.93294,25.64044],[83.92752,25.63723],[83.92358,25.63612],[83.92289,25.63319],[83.92941,25.61989],[83.93583,25.61661],[83.93788,25.61266],[83.94167,25.60372],[83.946,25.59016],[83.94299,25.58795],[83.94524,25.58134],[83.94344,25.58004],[83.9404,25.58033],[83.93858,25.58182],[83.93555,25.58713],[83.93373,25.5864],[83.93416,25.57757],[83.93352,25.56844],[83.9308,25.56612],[83.92942,25.55979],[83.92549,25.55656],[83.922,25.55241],[83.90784,25.52985],[83.90468,25.52636],[83.90123,25.52354],[83.89651,25.52129],[83.89089,25.51954],[83.88534,25.51949],[83.88136,25.51847],[83.87662,25.50971],[83.87966,25.50128],[83.87513,25.49159],[83.87282,25.48871],[83.86819,25.48729],[83.86331,25.48294],[83.8595,25.47182],[83.85626,25.46909],[83.84217,25.46106],[83.83773,25.45958],[83.83306,25.45932],[83.83094,25.4601],[83.82314,25.46639],[83.82073,25.46597],[83.81862,25.464],[83.81511,25.45659],[83.81395,25.45178],[83.81633,25.45134],[83.81874,25.45233],[83.8222,25.45199],[83.82696,25.45105],[83.82989,25.44968],[83.83882,25.44918],[83.84175,25.44826],[83.84588,25.44434],[83.8478,25.44023],[83.84773,25.4369],[83.84674,25.43502],[83.83857,25.43171],[83.83246,25.43136],[83.82902,25.43572],[83.826,25.43543],[83.81131,25.43096],[83.80509,25.43089],[83.80274,25.42972],[83.80108,25.42826],[83.81157,25.42503],[83.8136,25.42264],[83.81164,25.41623],[83.80773,25.4091],[83.80496,25.40639],[83.79063,25.39685],[83.77903,25.39831],[83.77355,25.39776],[83.77183,25.39671],[83.77061,25.38925],[83.77027,25.38603],[83.7581,25.39015],[83.75808,25.39486],[83.76032,25.39649],[83.76722,25.39861],[83.76641,25.39931],[83.7617,25.40226],[83.75907,25.40306],[83.75647,25.40241],[83.75036,25.39867],[83.74897,25.39829],[83.74621,25.39897],[83.74332,25.4074],[83.74089,25.40866],[83.73783,25.40429],[83.73553,25.39657],[83.73369,25.39574],[83.72643,25.39788],[83.72378,25.3973],[83.71785,25.39331],[83.71237,25.38422],[83.70978,25.38392],[83.70732,25.38626],[83.70466,25.3944],[83.70296,25.39415],[83.70115,25.39182],[83.69777,25.38389],[83.68466,25.37975],[83.68359,25.37644],[83.68518,25.3748],[83.69621,25.3722],[83.69734,25.36936],[83.69465,25.36751],[83.68737,25.36465],[83.68059,25.36264],[83.67745,25.36252],[83.67315,25.36495],[83.66859,25.36905],[83.66629,25.36725],[83.66856,25.36192],[83.66717,25.36108],[83.66454,25.36171],[83.65859,25.366],[83.65804,25.36348],[83.65896,25.35962],[83.65859,25.35715],[83.65378,25.35568],[83.6519,25.35249],[83.65494,25.34526],[83.65276,25.34306],[83.65085,25.33918],[83.64712,25.33821],[83.64019,25.34011],[83.63833,25.34129],[83.63685,25.33919],[83.63734,25.33597],[83.63674,25.33431],[83.63313,25.33299],[83.63075,25.32758],[83.62841,25.32663],[83.623,25.32971],[83.619,25.33064],[83.61559,25.33035],[83.61156,25.32961],[83.59642,25.32446],[83.59224,25.32292],[83.58917,25.32039],[83.58719,25.31531],[83.58624,25.31469],[83.5806,25.31564],[83.57774,25.30816],[83.57254,25.30618],[83.57125,25.30769],[83.57263,25.31387],[83.56925,25.3141],[83.56267,25.31209],[83.55959,25.31191],[83.55585,25.31386],[83.54784,25.31565],[83.54302,25.3132],[83.542,25.31603],[83.53234,25.31992],[83.53321,25.32289],[83.53294,25.32789],[83.53855,25.34434],[83.54769,25.34529],[83.5493,25.34762],[83.54293,25.35559],[83.54049,25.35983],[83.53759,25.36223],[83.53169,25.37243],[83.53011,25.37797],[83.53146,25.38289],[83.53621,25.39091],[83.52084,25.3965],[83.50456,25.40634],[83.45588,25.44294],[83.44393,25.45317],[83.43363,25.46356],[83.42572,25.47481],[83.41943,25.48198],[83.41368,25.48689],[83.40836,25.48553],[83.39716,25.48897],[83.38071,25.48784],[83.37547,25.48406],[83.37086,25.48293],[83.36559,25.4803],[83.352,25.47074],[83.34889,25.46976],[83.34029,25.46344],[83.33479,25.46231],[83.32958,25.46291],[83.3184,25.46772],[83.30677,25.47518],[83.29962,25.48344],[83.2949,25.49465],[83.28858,25.50359],[83.28417,25.50675],[83.26782,25.51519],[83.2595,25.51812],[83.24813,25.52357],[83.24193,25.52509],[83.23557,25.52569],[83.23035,25.52519],[83.22162,25.5264],[83.21398,25.52898],[83.20725,25.52975],[83.20049,25.53186],[83.19496,25.52957],[83.19063,25.5263],[83.18652,25.52182],[83.17972,25.51031],[83.17971,25.51034],[83.17402,25.52348],[83.17017,25.52255],[83.16702,25.52265],[83.16392,25.52143],[83.15893,25.51731],[83.15864,25.51501],[83.15992,25.51189],[83.15826,25.50686],[83.15947,25.50437],[83.15931,25.50276],[83.15705,25.50275],[83.15214,25.50597],[83.14105,25.50611],[83.13227,25.50795],[83.11832,25.521],[83.11233,25.52423],[83.10794,25.52498],[83.10239,25.52476],[83.09953,25.52337],[83.0986,25.52011],[83.1035,25.51136],[83.10709,25.50827],[83.11385,25.50537],[83.11538,25.50294],[83.11577,25.49989],[83.11498,25.49726],[83.11234,25.49413],[83.10962,25.49343],[83.10738,25.49489],[83.10313,25.50126],[83.09763,25.50329],[83.09734,25.50104],[83.09352,25.49403],[83.09114,25.49171],[83.08914,25.49168],[83.08702,25.49372],[83.07639,25.51309],[83.07072,25.52115],[83.06435,25.52846],[83.06534,25.53161],[83.07151,25.53428],[83.07605,25.53532],[83.07773,25.538],[83.07584,25.54544],[83.07233,25.55071],[83.07915,25.55607],[83.08296,25.56975],[83.09077,25.57351],[83.08762,25.58905],[83.0795,25.58577],[83.07246,25.59062],[83.06887,25.59481],[83.07113,25.59707],[83.07738,25.59872],[83.07823,25.60474],[83.07761,25.61307],[83.0744,25.61685],[83.07053,25.61902],[83.06743,25.62222],[83.06461,25.63138],[83.06697,25.64451],[83.0672,25.65146],[83.07304,25.6496],[83.08269,25.65023],[83.08802,25.6489],[83.08942,25.65704],[83.09546,25.65632],[83.09946,25.65449],[83.10691,25.6552],[83.12113,25.65353],[83.12483,25.65187],[83.13099,25.64358],[83.13591,25.63989],[83.14052,25.63725],[83.14858,25.63634],[83.1517,25.63836],[83.15202,25.64634],[83.14823,25.65323],[83.15113,25.65727],[83.15472,25.66084],[83.16032,25.66358],[83.1654,25.66213],[83.16889,25.65968],[83.17123,25.66005],[83.17243,25.66411],[83.17499,25.66672],[83.17351,25.67185],[83.17964,25.67315],[83.18525,25.67278],[83.18708,25.68734],[83.1914,25.69694],[83.19448,25.70023],[83.20038,25.70176],[83.21284,25.70084],[83.21682,25.70119],[83.21849,25.70318],[83.22186,25.70124],[83.22757,25.69932],[83.23097,25.70226],[83.23443,25.70198],[83.23744,25.70499],[83.24207,25.70596],[83.24117,25.70936],[83.23413,25.71703],[83.23243,25.72166],[83.22932,25.72383],[83.2238,25.7258],[83.21501,25.73189],[83.21502,25.73533],[83.22105,25.74892],[83.21884,25.75269],[83.21777,25.7596],[83.21143,25.76157],[83.20847,25.758],[83.19693,25.76217],[83.19137,25.76558],[83.19164,25.7704],[83.19329,25.77457],[83.1958,25.77736],[83.19825,25.7768],[83.20284,25.7722],[83.20641,25.77095],[83.21103,25.7718],[83.21958,25.76956],[83.21861,25.76498],[83.2195,25.76153],[83.22149,25.75943],[83.22477,25.75961],[83.22858,25.76122],[83.23108,25.7632],[83.23289,25.76611],[83.23535,25.76567],[83.23828,25.76776],[83.24007,25.76475],[83.24706,25.76424],[83.25058,25.77063],[83.26052,25.77257],[83.26371,25.77481],[83.26873,25.77623],[83.27143,25.77218],[83.27544,25.77425],[83.2764,25.76786],[83.2799,25.76608],[83.28222,25.76198],[83.28604,25.75979],[83.28614,25.75549],[83.30597,25.75567],[83.30426,25.76287],[83.30056,25.7674],[83.30632,25.77559],[83.30682,25.77921],[83.30565,25.78387],[83.31591,25.78614],[83.31788,25.79416],[83.3229,25.79581],[83.31759,25.80174],[83.32236,25.8077],[83.32543,25.81294],[83.33016,25.8131],[83.33499,25.81068],[83.34039,25.80957],[83.34615,25.81413],[83.3533,25.81455],[83.36384,25.80813],[83.36624,25.80109],[83.37091,25.79781],[83.37551,25.79774],[83.37919,25.79843],[83.38289,25.80373],[83.3862,25.81223],[83.3814,25.81563],[83.38733,25.8183],[83.39234,25.81627],[83.39598,25.82237],[83.40235,25.8217],[83.404,25.82902],[83.39961,25.83024],[83.402,25.83681],[83.40829,25.8358],[83.40805,25.83999],[83.42264,25.84294],[83.42926,25.84571],[83.43378,25.83806],[83.43761,25.83737],[83.43924,25.83964],[83.44952,25.83885],[83.45809,25.84503],[83.45996,25.84949],[83.4633,25.8495],[83.46526,25.84648],[83.48049,25.8374],[83.48477,25.84004],[83.48697,25.84276],[83.48928,25.85404],[83.49468,25.85608],[83.49931,25.8567],[83.5023,25.8609],[83.50821,25.8635],[83.52225,25.86432],[83.54742,25.86329],[83.55268,25.86367],[83.55562,25.86523],[83.56036,25.86929],[83.57261,25.87214],[83.57763,25.87654],[83.58467,25.87516],[83.58753,25.87914],[83.59717,25.87824],[83.5967,25.88255],[83.6058,25.87976],[83.61044,25.88117],[83.61521,25.87966],[83.6196,25.8719],[83.62697,25.87379],[83.63426,25.86619],[83.63385,25.87982],[83.6347,25.88474],[83.63704,25.8905],[83.6438,25.89068],[83.64769,25.89368],[83.64836,25.89419],[83.65978,25.89111],[83.66837,25.88441],[83.67228,25.87843],[83.67612,25.87498],[83.67968,25.87325],[83.68631,25.8732],[83.68784,25.86806],[83.69544,25.86891],[83.70017,25.86831],[83.70005,25.86596],[83.70333,25.86562],[83.70383,25.86244],[83.72032,25.86595],[83.72634,25.86649],[83.72781,25.86456],[83.72732,25.86228],[83.7217,25.85944],[83.72052,25.85734],[83.72058,25.85424],[83.72291,25.85408],[83.72783,25.85647],[83.73113,25.85721],[83.73262,25.85627]]]}}]}