{"type":"FeatureCollection","features":[{"type":"Feature","properties":{"id":"gorakhpur","name":"Gorakhpur","stateId":"uttar-pradesh","stateName":"Uttar Pradesh","censuscode":188,"type":"district"},"geometry":{"type":"Polygon","coordinates":[[[83.54469,26.88041],[83.53988,26.8638],[83.53119,26.86105],[83.52899,26.85926],[83.52839,26.85409],[83.53145,26.85221],[83.54905,26.84502],[83.54861,26.83933],[83.5604,26.83588],[83.56172,26.82539],[83.56556,26.82242],[83.56666,26.81984],[83.57038,26.81653],[83.57593,26.81581],[83.57887,26.81445],[83.59311,26.79408],[83.59488,26.78944],[83.59218,26.78442],[83.59109,26.77914],[83.59304,26.77403],[83.59275,26.76972],[83.58716,26.7689],[83.5862,26.76114],[83.59656,26.75814],[83.60682,26.75733],[83.60987,26.75839],[83.61428,26.75559],[83.61842,26.75549],[83.6203,26.75315],[83.61791,26.74878],[83.61467,26.74716],[83.61317,26.74507],[83.61191,26.73485],[83.61404,26.73107],[83.61854,26.72725],[83.62384,26.72583],[83.62355,26.7133],[83.6209,26.71255],[83.61945,26.70342],[83.6167,26.703],[83.62159,26.69734],[83.62444,26.69178],[83.62652,26.67956],[83.62632,26.67324],[83.62503,26.66761],[83.6317,26.65713],[83.63167,26.65701],[83.63034,26.6515],[83.63037,26.64782],[83.63306,26.64531],[83.63188,26.64185],[83.63426,26.62239],[83.6285,26.61835],[83.62348,26.61609],[83.61986,26.61601],[83.61969,26.61371],[83.62086,26.6101],[83.62002,26.60418],[83.62151,26.60051],[83.63016,26.59384],[83.63166,26.59022],[83.6308,26.58556],[83.63121,26.58137],[83.62716,26.57992],[83.6303,26.57615],[83.63031,26.57408],[83.62668,26.56757],[83.62105,26.57128],[83.61656,26.5681],[83.61582,26.5643],[83.61707,26.55879],[83.61617,26.55333],[83.61224,26.55148],[83.61124,26.549],[83.60904,26.54653],[83.61085,26.54222],[83.61018,26.53866],[83.60421,26.52984],[83.60404,26.51905],[83.60199,26.51461],[83.59742,26.51258],[83.59171,26.51158],[83.57994,26.51278],[83.5748,26.51201],[83.57144,26.50963],[83.56522,26.50827],[83.5589,26.51014],[83.55484,26.50978],[83.55188,26.50683],[83.55582,26.50031],[83.55529,26.49582],[83.55354,26.49162],[83.55007,26.4889],[83.54631,26.48917],[83.54389,26.49748],[83.54152,26.49965],[83.5345,26.4949],[83.53083,26.49363],[83.51738,26.49866],[83.51557,26.49388],[83.5073,26.4947],[83.50051,26.4942],[83.49558,26.48998],[83.49238,26.48611],[83.48957,26.48024],[83.48923,26.47622],[83.49066,26.47197],[83.49402,26.46596],[83.4938,26.46188],[83.49076,26.46078],[83.48229,26.46262],[83.4797,26.46163],[83.4817,26.4571],[83.49215,26.44097],[83.49863,26.43452],[83.49929,26.43107],[83.49867,26.42234],[83.51074,26.41603],[83.49241,26.40611],[83.488,26.40213],[83.48798,26.39615],[83.48999,26.39162],[83.49452,26.38906],[83.49813,26.39069],[83.50345,26.39877],[83.51146,26.39869],[83.5244,26.4002],[83.52791,26.39833],[83.52744,26.39436],[83.51627,26.38626],[83.51389,26.38309],[83.51613,26.3812],[83.5214,26.38158],[83.53115,26.38467],[83.53579,26.38372],[83.53466,26.37447],[83.53731,26.36335],[83.53977,26.3575],[83.54367,26.35372],[83.5483,26.35404],[83.55213,26.35975],[83.55803,26.37534],[83.56101,26.37604],[83.57025,26.37127],[83.57175,26.37472],[83.56829,26.37798],[83.56667,26.38182],[83.56367,26.38456],[83.55044,26.38679],[83.54896,26.38862],[83.55318,26.39225],[83.56645,26.39262],[83.57843,26.39699],[83.58439,26.39748],[83.58658,26.3945],[83.5868,26.38951],[83.58106,26.37782],[83.57951,26.37293],[83.58117,26.36415],[83.58546,26.35946],[83.5903,26.35759],[83.61142,26.36878],[83.61436,26.36616],[83.61483,26.36351],[83.61168,26.35936],[83.60714,26.3556],[83.60294,26.35053],[83.60194,26.3465],[83.60667,26.34457],[83.61346,26.34404],[83.62046,26.342],[83.61284,26.3334],[83.61674,26.33016],[83.61999,26.32873],[83.622,26.3238],[83.62367,26.3222],[83.62545,26.32238],[83.63277,26.32759],[83.63675,26.32841],[83.63988,26.32704],[83.63915,26.32274],[83.63212,26.31949],[83.62693,26.3182],[83.62511,26.31601],[83.62132,26.29945],[83.62373,26.29768],[83.63127,26.2999],[83.64886,26.31428],[83.65828,26.31903],[83.66318,26.31763],[83.6674,26.31391],[83.67003,26.3091],[83.67213,26.30014],[83.67108,26.28866],[83.66882,26.28548],[83.66453,26.28242],[83.64377,26.2748],[83.64109,26.26985],[83.63765,26.24656],[83.63542,26.2395],[83.63459,26.233],[83.63473,26.22295],[83.62887,26.21775],[83.61859,26.22615],[83.60928,26.23225],[83.6119,26.23858],[83.61818,26.24539],[83.60646,26.2455],[83.60318,26.24951],[83.59184,26.24864],[83.58268,26.25146],[83.57902,26.24886],[83.57195,26.25199],[83.56501,26.25626],[83.55785,26.2618],[83.53437,26.27706],[83.50943,26.27824],[83.50803,26.27714],[83.48655,26.28064],[83.4778,26.28082],[83.45854,26.27812],[83.44843,26.27278],[83.44084,26.27071],[83.42922,26.27156],[83.41841,26.27403],[83.40106,26.28414],[83.40131,26.2962],[83.39006,26.30504],[83.36335,26.32898],[83.35345,26.33414],[83.3439,26.34344],[83.33979,26.34852],[83.33729,26.34999],[83.33156,26.3457],[83.32719,26.34504],[83.31908,26.34999],[83.31133,26.34918],[83.30473,26.35012],[83.29625,26.35362],[83.28826,26.35827],[83.25231,26.38225],[83.23116,26.39311],[83.22302,26.39484],[83.19615,26.39497],[83.18487,26.39758],[83.1694,26.39574],[83.16341,26.39661],[83.14785,26.39149],[83.13498,26.38484],[83.12752,26.38707],[83.12183,26.39035],[83.11349,26.39155],[83.0983,26.39239],[83.09399,26.39156],[83.09072,26.38917],[83.08701,26.39047],[83.08363,26.39307],[83.08155,26.39633],[83.07737,26.40003],[83.0708,26.40784],[83.08207,26.4154],[83.08244,26.42167],[83.08816,26.42069],[83.09149,26.42474],[83.09605,26.42512],[83.09825,26.43197],[83.09428,26.43452],[83.09727,26.4392],[83.09891,26.44628],[83.09804,26.45414],[83.0863,26.46834],[83.08883,26.47468],[83.09213,26.47947],[83.09679,26.48377],[83.10854,26.4888],[83.14146,26.49499],[83.15099,26.50012],[83.16866,26.50601],[83.17045,26.50498],[83.17228,26.50127],[83.17499,26.49824],[83.18478,26.4927],[83.18635,26.4892],[83.19003,26.48894],[83.19344,26.49173],[83.19661,26.49755],[83.19763,26.50313],[83.19637,26.51289],[83.19735,26.51674],[83.20201,26.52006],[83.2054,26.52409],[83.20133,26.52866],[83.19093,26.53208],[83.18713,26.53016],[83.18298,26.52662],[83.17776,26.52704],[83.17143,26.53038],[83.16527,26.53504],[83.15854,26.53889],[83.15488,26.54219],[83.14919,26.55525],[83.14122,26.56224],[83.14297,26.56512],[83.14575,26.56676],[83.14505,26.57181],[83.14245,26.5769],[83.13981,26.57947],[83.13917,26.59024],[83.13727,26.59501],[83.13063,26.59685],[83.12522,26.59674],[83.12016,26.59394],[83.1178,26.5995],[83.11317,26.6044],[83.1099,26.61028],[83.10934,26.61567],[83.11254,26.61915],[83.11602,26.62096],[83.11919,26.62138],[83.12124,26.62043],[83.12794,26.62376],[83.13176,26.63016],[83.13518,26.633],[83.13557,26.63674],[83.13206,26.63802],[83.13228,26.64067],[83.13462,26.64713],[83.13262,26.6505],[83.13256,26.65486],[83.12877,26.65902],[83.12386,26.65927],[83.10809,26.65804],[83.10324,26.65858],[83.10244,26.66225],[83.10489,26.66584],[83.10691,26.67148],[83.1161,26.6808],[83.1172,26.68396],[83.11438,26.68653],[83.11101,26.68622],[83.10748,26.68286],[83.10374,26.68218],[83.10049,26.68342],[83.09629,26.68816],[83.0924,26.68904],[83.09027,26.69046],[83.09005,26.69913],[83.08564,26.70047],[83.09006,26.71487],[83.09421,26.71921],[83.09822,26.71981],[83.10154,26.71824],[83.10356,26.71458],[83.10958,26.71182],[83.11,26.71337],[83.10809,26.71932],[83.10792,26.723],[83.11015,26.72342],[83.11775,26.72084],[83.12042,26.72195],[83.12127,26.72529],[83.12977,26.72806],[83.13391,26.72793],[83.13465,26.73051],[83.13276,26.73452],[83.13761,26.73892],[83.1426,26.74189],[83.14549,26.74605],[83.14214,26.75561],[83.14491,26.75896],[83.1445,26.76729],[83.14263,26.77026],[83.13801,26.77281],[83.13618,26.77721],[83.13427,26.77777],[83.13231,26.77638],[83.13093,26.76832],[83.12866,26.76624],[83.12295,26.76465],[83.11767,26.76409],[83.1128,26.76646],[83.11253,26.77438],[83.11535,26.77819],[83.11319,26.79006],[83.10579,26.79855],[83.10029,26.80775],[83.10397,26.8083],[83.11007,26.81082],[83.11477,26.81189],[83.12068,26.81884],[83.12555,26.83007],[83.1206,26.83416],[83.12115,26.83744],[83.12029,26.84111],[83.12285,26.8471],[83.12781,26.84784],[83.13269,26.85735],[83.13505,26.86437],[83.13394,26.86747],[83.13628,26.87001],[83.13638,26.87289],[83.13451,26.87585],[83.13428,26.87918],[83.13746,26.8872],[83.13947,26.88968],[83.14519,26.88404],[83.15182,26.87525],[83.15757,26.8718],[83.16124,26.87349],[83.16583,26.88036],[83.16882,26.88102],[83.1754,26.87659],[83.20792,26.88103],[83.2173,26.88415],[83.21598,26.88942],[83.21778,26.89501],[83.21609,26.89878],[83.2143,26.90078],[83.2088,26.90406],[83.20534,26.90772],[83.20825,26.90952],[83.21538,26.90716],[83.21977,26.9072],[83.22192,26.90917],[83.22297,26.91141],[83.22186,26.91531],[83.21962,26.91788],[83.21003,26.92544],[83.21148,26.92787],[83.2119,26.93115],[83.2104,26.93544],[83.2116,26.93712],[83.21465,26.93691],[83.22034,26.93229],[83.22568,26.93366],[83.22751,26.93683],[83.22735,26.94073],[83.22557,26.94279],[83.21645,26.94852],[83.20877,26.94461],[83.20611,26.94224],[83.20236,26.94083],[83.19917,26.94092],[83.19603,26.94457],[83.19621,26.94727],[83.20308,26.94818],[83.20809,26.95242],[83.20884,26.95437],[83.20595,26.95889],[83.19633,26.96772],[83.20564,26.96721],[83.21074,26.96812],[83.21569,26.96999],[83.21955,26.9726],[83.22638,26.97892],[83.22729,26.98318],[83.22655,26.98684],[83.222,26.9929],[83.22107,26.99373],[83.21352,27.00056],[83.21696,27.0138],[83.21681,27.01644],[83.21594,27.01715],[83.20981,27.01741],[83.20693,27.01705],[83.19666,27.01293],[83.18731,27.00719],[83.18705,27.00708],[83.17448,27.00186],[83.16856,27.00045],[83.17527,27.00702],[83.17529,27.00829],[83.17256,27.00992],[83.17156,27.01052],[83.16918,27.01007],[83.16617,27.0095],[83.16478,27.01016],[83.16479,27.01026],[83.16509,27.01446],[83.16406,27.01482],[83.15981,27.01299],[83.15863,27.01145],[83.15924,27.0105],[83.16271,27.00512],[83.16224,27.00357],[83.16087,27.00278],[83.15858,27.00402],[83.15463,27.01006],[83.15454,27.01011],[83.15303,27.01095],[83.15225,27.00976],[83.1481,27.00349],[83.14668,27.00339],[83.14432,27.00485],[83.14296,27.00844],[83.14354,27.00996],[83.14396,27.01107],[83.14372,27.01683],[83.14599,27.01875],[83.14967,27.01974],[83.14989,27.02238],[83.14643,27.02323],[83.14255,27.02121],[83.14171,27.02077],[83.13993,27.02195],[83.14144,27.02502],[83.14462,27.02815],[83.14801,27.03149],[83.1515,27.03754],[83.15072,27.04049],[83.147,27.03974],[83.14432,27.04075],[83.14087,27.0442],[83.13311,27.0466],[83.132,27.04926],[83.13316,27.05287],[83.13459,27.05458],[83.14017,27.05468],[83.14179,27.05258],[83.14194,27.05051],[83.14426,27.04795],[83.14935,27.04978],[83.15138,27.05205],[83.15124,27.05481],[83.14953,27.05569],[83.14799,27.05843],[83.139,27.06424],[83.13878,27.06586],[83.14151,27.0714],[83.14068,27.07527],[83.13789,27.07962],[83.13215,27.0843],[83.13085,27.08627],[83.12955,27.0921],[83.13055,27.09744],[83.12753,27.10167],[83.12719,27.10215],[83.12699,27.10577],[83.12528,27.1066],[83.12297,27.10974],[83.12352,27.11158],[83.12521,27.11304],[83.13032,27.11228],[83.13844,27.10856],[83.14254,27.10924],[83.1463,27.11167],[83.14843,27.11578],[83.14747,27.11947],[83.13742,27.1291],[83.13431,27.13352],[83.13018,27.14136],[83.13285,27.14107],[83.1633,27.12867],[83.17081,27.1017],[83.17774,27.08749],[83.19654,27.08739],[83.20285,27.08119],[83.20885,27.07077],[83.22872,27.06871],[83.24331,27.07282],[83.25007,27.07195],[83.26404,27.06421],[83.2752,27.06692],[83.28502,27.06147],[83.28463,27.05008],[83.30478,27.04736],[83.31757,27.04948],[83.32281,27.05342],[83.32481,27.0668],[83.33321,27.08161],[83.34148,27.09127],[83.34841,27.09324],[83.3558,27.08894],[83.3608,27.0801],[83.37806,27.07624],[83.38921,27.08988],[83.4002,27.08974],[83.40363,27.08764],[83.40219,27.07223],[83.37226,27.044],[83.35937,27.01099],[83.34363,26.99018],[83.33137,26.98097],[83.33948,26.9693],[83.36193,26.96818],[83.36611,26.97866],[83.37905,26.97921],[83.40349,26.97565],[83.43358,26.98015],[83.44249,26.9794],[83.44699,26.97516],[83.44401,26.9676],[83.44661,26.96129],[83.45878,26.96341],[83.46797,26.95815],[83.4735,26.95003],[83.47368,26.94543],[83.47792,26.93191],[83.4784,26.92316],[83.48603,26.92078],[83.50206,26.91813],[83.5084,26.91357],[83.52891,26.8915],[83.54469,26.88041]]]}}]}