{"type":"FeatureCollection","features":[{"type":"Feature","properties":{"id":"hamirpur","name":"Hamirpur","stateId":"uttar-pradesh","stateName":"Uttar Pradesh","censuscode":168,"type":"district"},"geometry":{"type":"Polygon","coordinates":[[[79.97738,26.06912],[79.99313,26.06685],[80.00001,26.06874],[80.01274,26.06752],[80.02754,26.06965],[80.04208,26.07254],[80.05341,26.07536],[80.06508,26.07846],[80.07559,26.07982],[80.08822,26.07952],[80.09528,26.07788],[80.10348,26.07063],[80.10806,26.06385],[80.11329,26.0546],[80.11434,26.04594],[80.11207,26.0339],[80.10846,26.02455],[80.10436,26.01894],[80.09672,26.01235],[80.09044,26.01079],[80.08598,26.00827],[80.08366,26.00514],[80.08398,26.00024],[80.08488,25.99857],[80.0969,25.99158],[80.11177,25.98762],[80.11644,25.98736],[80.12931,25.98071],[80.1362,25.97554],[80.14167,25.96712],[80.14902,25.96222],[80.1673,25.95456],[80.19534,25.94802],[80.20774,25.92392],[80.21068,25.92012],[80.21427,25.91735],[80.2368,25.92245],[80.24643,25.92487],[80.26417,25.93089],[80.27163,25.93068],[80.27888,25.92541],[80.28479,25.91913],[80.29541,25.89983],[80.30131,25.8934],[80.30821,25.88911],[80.31448,25.88725],[80.3226,25.88795],[80.34684,25.89618],[80.35021,25.89874],[80.34967,25.89525],[80.35258,25.86974],[80.35111,25.86748],[80.35007,25.86588],[80.34533,25.86586],[80.34533,25.86586],[80.33326,25.84968],[80.33326,25.84968],[80.33164,25.84558],[80.32697,25.84366],[80.31305,25.84533],[80.30722,25.84494],[80.30161,25.84327],[80.30161,25.84327],[80.29508,25.8399],[80.29097,25.83521],[80.29097,25.83521],[80.29303,25.83073],[80.29796,25.81995],[80.29461,25.81744],[80.28703,25.81283],[80.28182,25.81454],[80.278,25.81819],[80.278,25.81819],[80.27035,25.81288],[80.26226,25.80563],[80.25666,25.80897],[80.25666,25.80897],[80.25284,25.81002],[80.24554,25.80644],[80.23885,25.80445],[80.23403,25.80103],[80.23147,25.79753],[80.2336,25.79415],[80.23565,25.79296],[80.23565,25.79296],[80.24422,25.79215],[80.26183,25.78708],[80.26361,25.78486],[80.26299,25.78286],[80.26299,25.78286],[80.26773,25.78075],[80.26821,25.77729],[80.27071,25.77132],[80.27071,25.77132],[80.27623,25.76782],[80.29152,25.76555],[80.30505,25.76112],[80.31465,25.75185],[80.32591,25.74281],[80.32853,25.7396],[80.32926,25.7359],[80.32926,25.7359],[80.32923,25.73562],[80.32891,25.73234],[80.32954,25.7317],[80.33405,25.72756],[80.33761,25.72599],[80.34452,25.72015],[80.34746,25.71664],[80.35113,25.70506],[80.35113,25.70506],[80.34936,25.70044],[80.33573,25.70747],[80.32592,25.70911],[80.32092,25.70864],[80.31424,25.7043],[80.3041,25.69319],[80.3041,25.69319],[80.30435,25.68158],[80.30435,25.68158],[80.30601,25.67718],[80.30963,25.67319],[80.31732,25.64498],[80.30169,25.63095],[80.29756,25.63006],[80.28849,25.62852],[80.28327,25.62675],[80.27628,25.61999],[80.28464,25.6116],[80.2885,25.60967],[80.29064,25.6071],[80.28796,25.60312],[80.28355,25.59656],[80.27974,25.58388],[80.27752,25.58088],[80.27111,25.582],[80.26831,25.58372],[80.26454,25.58415],[80.26192,25.58536],[80.26083,25.58693],[80.25264,25.58733],[80.25264,25.58733],[80.24191,25.57503],[80.2395,25.56698],[80.23307,25.55958],[80.23102,25.55896],[80.22499,25.55712],[80.21686,25.55677],[80.21452,25.55418],[80.20906,25.53578],[80.2083,25.53097],[80.2083,25.53097],[80.20644,25.52687],[80.20644,25.52687],[80.21426,25.52716],[80.22013,25.5252],[80.21997,25.52393],[80.21855,25.51276],[80.22433,25.50741],[80.2223,25.50411],[80.22315,25.50053],[80.2184,25.49449],[80.2141,25.49458],[80.21118,25.49297],[80.21255,25.48777],[80.21255,25.48776],[80.2201,25.48232],[80.21902,25.47728],[80.21902,25.47728],[80.22205,25.47486],[80.22427,25.47056],[80.2112,25.47003],[80.20589,25.48359],[80.20041,25.47876],[80.19387,25.467],[80.19524,25.44943],[80.19071,25.44204],[80.17371,25.44844],[80.14959,25.45753],[80.14475,25.45819],[80.13942,25.45634],[80.13942,25.45634],[80.13861,25.45161],[80.13045,25.42695],[80.1246,25.41939],[80.12184,25.41462],[80.12087,25.41099],[80.12114,25.40744],[80.12111,25.40742],[80.11229,25.40246],[80.10712,25.4009],[80.10408,25.40173],[80.09922,25.40486],[80.09679,25.40808],[80.09111,25.41259],[80.08199,25.41499],[80.07612,25.41895],[80.07065,25.42466],[80.0669,25.42448],[80.06396,25.42687],[80.05544,25.42596],[80.0523,25.42421],[80.03071,25.43195],[80.02747,25.43618],[80.02788,25.44051],[80.02433,25.44428],[80.02504,25.44999],[80.03102,25.45707],[80.03255,25.46462],[80.036,25.47171],[80.03732,25.47852],[80.0356,25.49168],[80.01886,25.48634],[80.01288,25.48625],[80.0002,25.48892],[79.99706,25.49122],[79.99919,25.49454],[79.99777,25.49537],[79.99746,25.49822],[80.00436,25.5065],[80.00933,25.51083],[80.00801,25.52003],[80.00112,25.52712],[80.0002,25.532],[79.99401,25.53457],[79.98488,25.53503],[79.98423,25.53526],[79.98275,25.53577],[79.99462,25.54286],[80.0002,25.54884],[80.01177,25.55169],[80.01471,25.5539],[80.01228,25.55574],[80.01289,25.56835],[80.01542,25.57341],[80.01607,25.57415],[80.02131,25.58022],[80.02598,25.58832],[80.01675,25.58887],[80.00761,25.59449],[80.0002,25.60608],[80.00112,25.61234],[80.00142,25.61657],[80.0002,25.6174],[79.99401,25.61749],[79.99188,25.61869],[79.9802,25.63084],[79.96903,25.63709],[79.96758,25.6377],[79.95756,25.64188],[79.95512,25.64243],[79.95299,25.64197],[79.94954,25.63368],[79.9482,25.63209],[79.94487,25.62816],[79.94467,25.62614],[79.94924,25.62052],[79.95798,25.61252],[79.95615,25.60737],[79.95398,25.60447],[79.94834,25.59696],[79.94824,25.59567],[79.94256,25.59236],[79.93809,25.59171],[79.93048,25.59235],[79.92429,25.59465],[79.91383,25.59658],[79.90815,25.59391],[79.90511,25.58995],[79.90064,25.58737],[79.90075,25.58571],[79.89831,25.58359],[79.89649,25.58],[79.89314,25.57798],[79.87942,25.57737],[79.87396,25.57677],[79.87143,25.57548],[79.86636,25.5694],[79.86474,25.56489],[79.86373,25.55771],[79.85948,25.54749],[79.85756,25.54546],[79.85198,25.54417],[79.84863,25.54656],[79.83097,25.54921],[79.82732,25.54883],[79.82438,25.54699],[79.82297,25.53834],[79.82683,25.53346],[79.82877,25.52712],[79.82796,25.52491],[79.82289,25.52177],[79.82097,25.51873],[79.81874,25.51422],[79.8143,25.49903],[79.81329,25.49783],[79.80924,25.49718],[79.80416,25.49865],[79.80496,25.50463],[79.79665,25.50628],[79.78299,25.51341],[79.78143,25.51405],[79.77218,25.51692],[79.7669,25.52161],[79.76548,25.52409],[79.76465,25.53255],[79.76312,25.53605],[79.75746,25.52592],[79.75555,25.51662],[79.75322,25.51634],[79.74174,25.52285],[79.7392,25.52561],[79.74404,25.5386],[79.74434,25.54237],[79.74352,25.54669],[79.7422,25.54816],[79.73763,25.54954],[79.73001,25.55339],[79.72716,25.55974],[79.71415,25.56643],[79.69885,25.56097],[79.69804,25.55793],[79.7018,25.55555],[79.70292,25.55426],[79.70313,25.55242],[79.70161,25.55048],[79.6936,25.54688],[79.68843,25.54576],[79.67382,25.54527],[79.67037,25.54628],[79.66904,25.54922],[79.6663,25.55143],[79.66305,25.55142],[79.66082,25.5504],[79.65941,25.54635],[79.66003,25.54175],[79.66522,25.5378],[79.66594,25.53513],[79.6623,25.52933],[79.66628,25.52151],[79.6664,25.51286],[79.66366,25.51194],[79.65601,25.51107],[79.64703,25.51006],[79.6442,25.50895],[79.64126,25.50646],[79.64168,25.5037],[79.6429,25.50186],[79.64554,25.50122],[79.64656,25.49984],[79.64636,25.49846],[79.64403,25.4968],[79.64312,25.49376],[79.64455,25.49174],[79.64486,25.48778],[79.64477,25.48585],[79.64234,25.48419],[79.63788,25.48399],[79.62935,25.48627],[79.62753,25.48618],[79.62095,25.48257],[79.61557,25.48274],[79.60775,25.4887],[79.60743,25.49192],[79.60469,25.4944],[79.60417,25.49597],[79.60011,25.49734],[79.59565,25.49705],[79.59333,25.49529],[79.58879,25.48764],[79.58472,25.49048],[79.58047,25.48872],[79.57703,25.48605],[79.57671,25.48569],[79.57117,25.47931],[79.56641,25.47654],[79.5656,25.47727],[79.56418,25.47763],[79.56265,25.47947],[79.56224,25.48168],[79.56444,25.49126],[79.53979,25.49201],[79.53777,25.49017],[79.53667,25.48575],[79.53506,25.48316],[79.5308,25.48177],[79.52593,25.48378],[79.52397,25.4927],[79.52213,25.49435],[79.52031,25.49481],[79.51676,25.49406],[79.51535,25.49231],[79.51384,25.48798],[79.51233,25.48659],[79.50725,25.48759],[79.49719,25.49289],[79.49252,25.49389],[79.48392,25.48963],[79.47751,25.49439],[79.47506,25.49798],[79.47249,25.50064],[79.46691,25.50642],[79.45952,25.50455],[79.45373,25.50563],[79.44347,25.50955],[79.43365,25.50565],[79.42696,25.50452],[79.42167,25.50791],[79.41375,25.51119],[79.40876,25.51522],[79.40408,25.51769],[79.40155,25.51658],[79.3982,25.51702],[79.389,25.52184],[79.3987,25.52921],[79.40539,25.53644],[79.40878,25.54146],[79.41046,25.54536],[79.40981,25.5492],[79.40746,25.55342],[79.40241,25.56351],[79.40226,25.56718],[79.4062,25.57077],[79.41694,25.57303],[79.41815,25.57387],[79.42076,25.57724],[79.41992,25.58092],[79.418,25.58312],[79.41328,25.58339],[79.39665,25.57808],[79.39116,25.57698],[79.38919,25.57723],[79.38578,25.58133],[79.38071,25.59062],[79.37926,25.59516],[79.37468,25.60266],[79.37455,25.60961],[79.37832,25.62037],[79.37617,25.62401],[79.36736,25.63246],[79.36158,25.64031],[79.36067,25.64308],[79.36159,25.64646],[79.36791,25.64893],[79.37492,25.64979],[79.38133,25.6479],[79.39532,25.64726],[79.40138,25.64865],[79.40392,25.65006],[79.40602,25.65262],[79.40362,25.65695],[79.38725,25.65922],[79.38243,25.66213],[79.37919,25.66525],[79.37841,25.66905],[79.38481,25.67806],[79.3872,25.68292],[79.3874,25.6851],[79.38617,25.68775],[79.37522,25.69508],[79.37385,25.69641],[79.37286,25.69912],[79.37261,25.70503],[79.37405,25.71553],[79.38144,25.72223],[79.39351,25.72948],[79.39995,25.7362],[79.40073,25.73831],[79.40012,25.7405],[79.39811,25.74126],[79.38463,25.74281],[79.37552,25.74628],[79.37415,25.74819],[79.37374,25.75037],[79.3746,25.76058],[79.36716,25.76725],[79.3654,25.76801],[79.36372,25.77026],[79.36355,25.77198],[79.36433,25.77433],[79.36984,25.77635],[79.37458,25.77654],[79.38396,25.77474],[79.38913,25.77493],[79.39521,25.77631],[79.3989,25.77823],[79.40056,25.78005],[79.40199,25.78366],[79.4019,25.7883],[79.40076,25.79308],[79.39796,25.79621],[79.39982,25.806],[79.40276,25.80821],[79.40903,25.80995],[79.41903,25.80796],[79.42971,25.80253],[79.43571,25.79726],[79.44025,25.79113],[79.4447,25.78811],[79.45016,25.78679],[79.45408,25.78693],[79.46022,25.78843],[79.46386,25.79132],[79.46541,25.7947],[79.46591,25.80043],[79.46503,25.80606],[79.45996,25.81587],[79.45907,25.81961],[79.45982,25.8239],[79.46417,25.82955],[79.47992,25.84335],[79.48571,25.84686],[79.49445,25.85413],[79.50182,25.85803],[79.50308,25.85829],[79.50798,25.85636],[79.51816,25.84662],[79.52878,25.83705],[79.53127,25.83369],[79.5342,25.82574],[79.53582,25.82469],[79.53756,25.82181],[79.54164,25.81965],[79.54486,25.81956],[79.54979,25.82048],[79.55392,25.82245],[79.55592,25.82645],[79.56227,25.83437],[79.56532,25.84048],[79.5744,25.85038],[79.57627,25.85335],[79.57699,25.85552],[79.57592,25.86094],[79.57345,25.86486],[79.57101,25.867],[79.56609,25.8678],[79.55717,25.86691],[79.5438,25.86256],[79.53591,25.86269],[79.53151,25.86423],[79.52788,25.86719],[79.52515,25.87152],[79.52286,25.88061],[79.52336,25.88549],[79.52529,25.88897],[79.52792,25.89199],[79.5339,25.89514],[79.53921,25.89538],[79.5428,25.89455],[79.5436,25.8931],[79.55589,25.89069],[79.56553,25.88858],[79.57276,25.88558],[79.57528,25.88527],[79.58586,25.88815],[79.59827,25.89538],[79.61322,25.89828],[79.61513,25.89957],[79.61682,25.90278],[79.61659,25.90507],[79.61382,25.91096],[79.60752,25.91722],[79.60629,25.91958],[79.606,25.9224],[79.60807,25.92605],[79.61076,25.92873],[79.61954,25.93156],[79.62161,25.93223],[79.62516,25.93248],[79.63063,25.93076],[79.64072,25.92446],[79.65042,25.91242],[79.65305,25.91084],[79.65447,25.90767],[79.65697,25.90587],[79.66175,25.90421],[79.66579,25.90394],[79.67375,25.90902],[79.67888,25.91436],[79.68207,25.92168],[79.68657,25.92783],[79.68911,25.92861],[79.6932,25.92684],[79.69763,25.92261],[79.70397,25.91496],[79.70778,25.90706],[79.71009,25.90565],[79.71332,25.90527],[79.71774,25.90586],[79.72408,25.90791],[79.73287,25.91229],[79.73775,25.91322],[79.74027,25.91279],[79.75181,25.90658],[79.75546,25.90149],[79.75932,25.89248],[79.76299,25.87952],[79.76763,25.87293],[79.77246,25.87024],[79.77496,25.86838],[79.7747,25.86781],[79.77646,25.8675],[79.77865,25.86592],[79.78043,25.86676],[79.78344,25.86512],[79.78672,25.86514],[79.78891,25.86391],[79.80218,25.86354],[79.80584,25.86424],[79.81203,25.8687],[79.81465,25.87475],[79.81453,25.88388],[79.81012,25.90299],[79.81085,25.90908],[79.81492,25.91092],[79.82227,25.91244],[79.82534,25.91086],[79.82856,25.9064],[79.82973,25.90002],[79.84065,25.88623],[79.84345,25.88384],[79.85313,25.88022],[79.85817,25.87954],[79.8662,25.88018],[79.87033,25.88168],[79.86553,25.89572],[79.86442,25.90195],[79.86389,25.91732],[79.86675,25.93564],[79.8651,25.93837],[79.852,25.94705],[79.8447,25.953],[79.84581,25.96034],[79.84795,25.96382],[79.8508,25.97153],[79.85549,25.97302],[79.87305,25.9716],[79.87618,25.96989],[79.876,25.96657],[79.87325,25.96391],[79.86571,25.95924],[79.86256,25.95532],[79.86254,25.95313],[79.86403,25.9522],[79.8697,25.9504],[79.87943,25.94999],[79.88084,25.95129],[79.88508,25.96059],[79.88828,25.96347],[79.89261,25.96512],[79.89904,25.96433],[79.90236,25.96216],[79.90355,25.96214],[79.91227,25.97006],[79.92262,25.964],[79.92401,25.96465],[79.93442,25.97496],[79.93672,25.98029],[79.92981,25.98762],[79.93012,25.99111],[79.93403,25.99851],[79.93594,25.99911],[79.94372,25.99814],[79.94634,26.00015],[79.95445,26.00687],[79.95695,26.0151],[79.95718,26.02269],[79.95366,26.02401],[79.95198,26.02591],[79.94934,26.02626],[79.94648,26.0256],[79.93756,26.01824],[79.93708,26.01653],[79.92997,26.01196],[79.92085,26.01034],[79.91354,26.01167],[79.91309,26.01279],[79.91646,26.02515],[79.91938,26.02846],[79.92379,26.03005],[79.93033,26.03021],[79.94153,26.0277],[79.94602,26.0296],[79.94613,26.03164],[79.94413,26.03708],[79.94435,26.04214],[79.94696,26.05078],[79.94728,26.05398],[79.94648,26.05731],[79.93694,26.06667],[79.93761,26.06949],[79.9341,26.07138],[79.93301,26.07378],[79.93322,26.07828],[79.93223,26.07967],[79.92245,26.08775],[79.92158,26.0908],[79.92481,26.09157],[79.92675,26.09443],[79.93471,26.11669],[79.93921,26.12479],[79.93779,26.14825],[79.93796,26.15182],[79.93993,26.15783],[79.94284,26.16],[79.95298,26.16211],[79.9615,26.16081],[79.96535,26.15766],[79.96634,26.15524],[79.96798,26.15351],[79.97023,26.14422],[79.9714,26.13371],[79.96985,26.12751],[79.96754,26.12252],[79.96564,26.11293],[79.9608,26.09794],[79.95715,26.08266],[79.95806,26.07814],[79.95942,26.07619],[79.96237,26.0742],[79.96948,26.07072],[79.97738,26.06912]]]}}]}