{"type":"FeatureCollection","features":[{"type":"Feature","properties":{"id":"jalaun","name":"Jalaun","stateId":"uttar-pradesh","stateName":"Uttar Pradesh","censuscode":165,"type":"district"},"geometry":{"type":"Polygon","coordinates":[[[79.5037,26.36376],[79.50543,26.35891],[79.50814,26.35654],[79.51367,26.3483],[79.51619,26.3465],[79.52629,26.34256],[79.54139,26.34862],[79.54509,26.35229],[79.55463,26.35953],[79.56013,26.36173],[79.57044,26.36094],[79.57498,26.3548],[79.57436,26.34928],[79.57143,26.3419],[79.56943,26.33889],[79.56466,26.3355],[79.55361,26.33053],[79.54184,26.3232],[79.53578,26.32106],[79.53251,26.31913],[79.53018,26.31709],[79.52896,26.31437],[79.52777,26.30477],[79.53016,26.29786],[79.53719,26.2871],[79.5421,26.2812],[79.54912,26.27521],[79.56764,26.26828],[79.57908,26.26285],[79.58094,26.2576],[79.5835,26.25631],[79.60173,26.25133],[79.62729,26.24854],[79.64068,26.24515],[79.64621,26.24464],[79.65221,26.2423],[79.65538,26.23768],[79.65576,26.23345],[79.64854,26.22291],[79.64732,26.21836],[79.64713,26.21457],[79.64778,26.21292],[79.65048,26.21071],[79.65577,26.20974],[79.65858,26.20822],[79.6726,26.20385],[79.68499,26.19849],[79.6997,26.19452],[79.70923,26.19377],[79.71376,26.19256],[79.73024,26.18419],[79.74288,26.18294],[79.75842,26.18402],[79.76586,26.18301],[79.76805,26.18114],[79.76976,26.17588],[79.76977,26.16973],[79.76904,26.16697],[79.76549,26.16285],[79.76166,26.15897],[79.75898,26.15463],[79.74566,26.1444],[79.74406,26.14002],[79.74495,26.13463],[79.77229,26.1256],[79.77742,26.12061],[79.78689,26.10841],[79.79007,26.10684],[79.79814,26.10576],[79.81207,26.10211],[79.82762,26.1007],[79.83903,26.101],[79.84844,26.10392],[79.85968,26.11257],[79.86498,26.11425],[79.86808,26.11447],[79.88063,26.10444],[79.88304,26.10372],[79.88711,26.09975],[79.899,26.09277],[79.91439,26.08918],[79.92158,26.0908],[79.92245,26.08775],[79.93223,26.07967],[79.93322,26.07828],[79.93301,26.07378],[79.9341,26.07138],[79.93761,26.06949],[79.93694,26.06667],[79.94648,26.05731],[79.94728,26.05398],[79.94696,26.05078],[79.94435,26.04214],[79.94413,26.03708],[79.94613,26.03164],[79.94602,26.0296],[79.94153,26.0277],[79.93033,26.03021],[79.92379,26.03005],[79.91938,26.02846],[79.91646,26.02515],[79.91309,26.01279],[79.91354,26.01167],[79.92085,26.01034],[79.92997,26.01196],[79.93708,26.01653],[79.93756,26.01824],[79.94648,26.0256],[79.94934,26.02626],[79.95198,26.02591],[79.95366,26.02401],[79.95718,26.02269],[79.95695,26.0151],[79.95445,26.00687],[79.94634,26.00015],[79.94372,25.99814],[79.93594,25.99911],[79.93403,25.99851],[79.93012,25.99111],[79.92981,25.98762],[79.93672,25.98029],[79.93442,25.97496],[79.92401,25.96465],[79.92262,25.964],[79.91227,25.97006],[79.90355,25.96214],[79.90236,25.96216],[79.89904,25.96433],[79.89261,25.96512],[79.88828,25.96347],[79.88508,25.96059],[79.88084,25.95129],[79.87943,25.94999],[79.8697,25.9504],[79.86403,25.9522],[79.86254,25.95313],[79.86256,25.95532],[79.86571,25.95924],[79.87325,25.96391],[79.876,25.96657],[79.87618,25.96989],[79.87305,25.9716],[79.85549,25.97302],[79.8508,25.97153],[79.84795,25.96382],[79.84581,25.96034],[79.8447,25.953],[79.852,25.94705],[79.8651,25.93837],[79.86675,25.93564],[79.86389,25.91732],[79.86442,25.90195],[79.86553,25.89572],[79.87033,25.88168],[79.8662,25.88018],[79.85817,25.87954],[79.85313,25.88022],[79.84345,25.88384],[79.84065,25.88623],[79.82973,25.90002],[79.82856,25.9064],[79.82534,25.91086],[79.82227,25.91244],[79.81492,25.91092],[79.81085,25.90908],[79.81012,25.90299],[79.81453,25.88388],[79.81465,25.87475],[79.81203,25.8687],[79.80584,25.86424],[79.80218,25.86354],[79.78891,25.86391],[79.78672,25.86514],[79.78344,25.86512],[79.78043,25.86676],[79.77865,25.86592],[79.77646,25.8675],[79.7747,25.86781],[79.77496,25.86838],[79.77246,25.87024],[79.76763,25.87293],[79.76299,25.87952],[79.75932,25.89248],[79.75546,25.90149],[79.75181,25.90658],[79.74027,25.91279],[79.73775,25.91322],[79.73287,25.91229],[79.72408,25.90791],[79.71774,25.90586],[79.71332,25.90527],[79.71009,25.90565],[79.70778,25.90706],[79.70397,25.91496],[79.69763,25.92261],[79.6932,25.92684],[79.68911,25.92861],[79.68657,25.92783],[79.68207,25.92168],[79.67888,25.91436],[79.67375,25.90902],[79.66579,25.90394],[79.66175,25.90421],[79.65697,25.90587],[79.65447,25.90767],[79.65305,25.91084],[79.65042,25.91242],[79.64072,25.92446],[79.63063,25.93076],[79.62516,25.93248],[79.62161,25.93223],[79.61954,25.93156],[79.61076,25.92873],[79.60807,25.92605],[79.606,25.9224],[79.60629,25.91958],[79.60752,25.91722],[79.61382,25.91096],[79.61659,25.90507],[79.61682,25.90278],[79.61513,25.89957],[79.61322,25.89828],[79.59827,25.89538],[79.58586,25.88815],[79.57528,25.88527],[79.57276,25.88558],[79.56553,25.88858],[79.55589,25.89069],[79.5436,25.8931],[79.5428,25.89455],[79.53921,25.89538],[79.5339,25.89514],[79.52792,25.89199],[79.52529,25.88897],[79.52336,25.88549],[79.52286,25.88061],[79.52515,25.87152],[79.52788,25.86719],[79.53151,25.86423],[79.53591,25.86269],[79.5438,25.86256],[79.55717,25.86691],[79.56609,25.8678],[79.57101,25.867],[79.57345,25.86486],[79.57592,25.86094],[79.57699,25.85552],[79.57627,25.85335],[79.5744,25.85038],[79.56532,25.84048],[79.56227,25.83437],[79.55592,25.82645],[79.55392,25.82245],[79.54979,25.82048],[79.54486,25.81956],[79.54164,25.81965],[79.53756,25.82181],[79.53582,25.82469],[79.5342,25.82574],[79.53127,25.83369],[79.52878,25.83705],[79.51816,25.84662],[79.50798,25.85636],[79.50308,25.85829],[79.50182,25.85803],[79.49445,25.85413],[79.48571,25.84686],[79.47992,25.84335],[79.46417,25.82955],[79.45982,25.8239],[79.45907,25.81961],[79.45996,25.81587],[79.46503,25.80606],[79.46591,25.80043],[79.46541,25.7947],[79.46386,25.79132],[79.46022,25.78843],[79.45408,25.78693],[79.45016,25.78679],[79.4447,25.78811],[79.44025,25.79113],[79.43571,25.79726],[79.42971,25.80253],[79.41903,25.80796],[79.40903,25.80995],[79.40276,25.80821],[79.39982,25.806],[79.39796,25.79621],[79.38715,25.78906],[79.3839,25.7861],[79.38181,25.78584],[79.38127,25.78814],[79.37822,25.78667],[79.36989,25.78628],[79.36088,25.78808],[79.34589,25.7851],[79.34329,25.78363],[79.33436,25.77435],[79.32801,25.77095],[79.32005,25.76953],[79.3173,25.77224],[79.31557,25.77576],[79.31257,25.7786],[79.30711,25.78197],[79.29731,25.78543],[79.29182,25.79214],[79.29471,25.79756],[79.29949,25.8023],[79.30189,25.80859],[79.30199,25.81215],[79.29591,25.81558],[79.28971,25.81598],[79.28148,25.81334],[79.27589,25.80247],[79.27387,25.79624],[79.26607,25.79233],[79.26267,25.79379],[79.2552,25.79793],[79.24756,25.80442],[79.24355,25.80675],[79.23838,25.80769],[79.23763,25.80355],[79.23318,25.80156],[79.23106,25.79801],[79.22636,25.79477],[79.21363,25.78988],[79.21142,25.79023],[79.20747,25.79239],[79.2023,25.79346],[79.20137,25.79461],[79.18716,25.80131],[79.1737,25.8056],[79.16709,25.80707],[79.15129,25.80896],[79.1369,25.81239],[79.13382,25.81356],[79.12744,25.81841],[79.1209,25.8211],[79.11781,25.82444],[79.11813,25.82485],[79.12314,25.83457],[79.12724,25.84621],[79.1217,25.84745],[79.12115,25.84871],[79.12363,25.85283],[79.12719,25.8655],[79.1188,25.86756],[79.11709,25.86642],[79.11487,25.86385],[79.1166,25.86068],[79.11553,25.85931],[79.11467,25.85415],[79.10875,25.85631],[79.09978,25.85821],[79.09797,25.86127],[79.10485,25.87637],[79.10526,25.8816],[79.10818,25.89082],[79.10174,25.89172],[79.09516,25.88982],[79.08715,25.89084],[79.07804,25.89032],[79.07795,25.88768],[79.07476,25.87623],[79.07402,25.86916],[79.07445,25.86704],[79.07798,25.86564],[79.07814,25.86225],[79.07762,25.86071],[79.07591,25.85922],[79.07161,25.86051],[79.06852,25.86031],[79.06652,25.85624],[79.06368,25.85632],[79.04839,25.86278],[79.04066,25.86765],[79.04087,25.8711],[79.04461,25.87979],[79.03506,25.88731],[79.03296,25.89254],[79.03231,25.89783],[79.03027,25.90242],[79.03079,25.90369],[79.03331,25.90339],[79.03954,25.90054],[79.04805,25.89928],[79.04712,25.89419],[79.04907,25.89279],[79.05322,25.89168],[79.05493,25.89184],[79.05665,25.89303],[79.05648,25.90245],[79.05815,25.90657],[79.06182,25.90724],[79.07053,25.90684],[79.08017,25.90409],[79.0822,25.90465],[79.08317,25.90803],[79.08633,25.91529],[79.0859,25.91639],[79.07342,25.92083],[79.04229,25.92732],[79.041,25.93238],[79.03857,25.93509],[79.01888,25.94019],[79.0176,25.93831],[79.01507,25.93661],[79.00795,25.93427],[79.00383,25.93338],[79.00163,25.93512],[79.00001,25.93532],[78.99798,25.93546],[78.98903,25.94041],[78.97948,25.94326],[78.97096,25.93805],[78.96542,25.93615],[78.94975,25.94672],[78.94273,25.94907],[78.93538,25.95008],[78.93379,25.95347],[78.93346,25.95999],[78.9375,25.9662],[78.93914,25.97088],[78.93412,25.97234],[78.93162,25.97543],[78.93258,25.97887],[78.93521,25.98107],[78.93902,25.9801],[78.94421,25.97987],[78.94748,25.98093],[78.95121,25.98525],[78.95191,25.9878],[78.95133,25.99278],[78.95413,25.99611],[78.95462,25.99962],[78.95417,26.00072],[78.95245,26.00345],[78.95337,26.00845],[78.95845,26.01441],[78.95855,26.02037],[78.95424,26.0256],[78.95238,26.03149],[78.95669,26.03334],[78.96073,26.03657],[78.96953,26.04535],[78.97628,26.05369],[78.9839,26.05441],[78.98679,26.05921],[78.9906,26.06828],[78.99416,26.0706],[79.00001,26.06917],[79.00524,26.06846],[79.00728,26.07162],[79.00929,26.07288],[79.01129,26.07632],[79.01035,26.08112],[79.01252,26.0846],[79.01165,26.08883],[79.00865,26.09122],[79,26.08977],[78.99827,26.09042],[78.97999,26.1032],[78.97793,26.1068],[78.97865,26.11478],[78.97738,26.11794],[78.97468,26.12014],[78.96627,26.1244],[78.96279,26.12735],[78.95254,26.132],[78.95083,26.13363],[78.95392,26.13555],[78.96046,26.13708],[78.96851,26.14875],[78.97353,26.15026],[78.97883,26.14988],[78.99444,26.14503],[78.99786,26.1452],[79,26.14654],[79.00281,26.14726],[79.00892,26.14947],[79.00914,26.15474],[79.01062,26.15921],[79.01163,26.16744],[79.00423,26.16998],[79.00001,26.17175],[78.98399,26.18726],[78.98561,26.18996],[78.98916,26.19287],[78.99229,26.19513],[79,26.19844],[79.0027,26.19492],[79.0048,26.19345],[79.01059,26.19124],[79.02125,26.19133],[79.0232,26.19193],[79.02331,26.19262],[79.02084,26.19586],[79.01865,26.19725],[79.01816,26.19941],[79.02889,26.20304],[79.029,26.20413],[79.02648,26.20699],[79.02701,26.21029],[79.02558,26.21815],[79.02514,26.21853],[79.0225,26.22162],[79.01052,26.22655],[79.00751,26.22591],[79,26.22633],[78.99848,26.22617],[78.99505,26.22901],[78.99271,26.23165],[78.99164,26.23474],[78.99257,26.23745],[79,26.24285],[79.00987,26.24617],[79.01869,26.24623],[79.0265,26.24281],[79.03198,26.23237],[79.03515,26.22783],[79.0379,26.22653],[79.04256,26.22599],[79.04887,26.22373],[79.05436,26.22801],[79.06048,26.22657],[79.0636,26.22685],[79.06536,26.22735],[79.06389,26.23409],[79.06487,26.23635],[79.06947,26.23814],[79.071,26.24138],[79.06679,26.24836],[79.06386,26.2486],[79.06026,26.24769],[79.05726,26.24814],[79.05526,26.24984],[79.0537,26.25474],[79.05054,26.2544],[79.04628,26.25731],[79.04537,26.26143],[79.05514,26.25975],[79.0569,26.26041],[79.05515,26.26503],[79.06165,26.27404],[79.06627,26.27824],[79.07245,26.27707],[79.07565,26.28205],[79.07706,26.2822],[79.08046,26.27967],[79.08392,26.28157],[79.08608,26.28165],[79.0871,26.27892],[79.08711,26.27478],[79.08498,26.27326],[79.08448,26.26963],[79.08559,26.26804],[79.08802,26.26705],[79.09195,26.26686],[79.09475,26.27811],[79.0915,26.28834],[79.09239,26.29151],[79.0961,26.29347],[79.1002,26.29847],[79.09992,26.30288],[79.10227,26.30637],[79.10641,26.30908],[79.10998,26.30828],[79.1172,26.30306],[79.12303,26.30757],[79.12757,26.30936],[79.13504,26.31047],[79.1357,26.31581],[79.12645,26.32076],[79.12419,26.32291],[79.12412,26.32951],[79.13272,26.32557],[79.1355,26.32608],[79.13579,26.32792],[79.13347,26.33236],[79.13528,26.33434],[79.14107,26.33719],[79.14224,26.33938],[79.13987,26.34032],[79.13169,26.33915],[79.12801,26.34546],[79.1251,26.34799],[79.11707,26.3489],[79.11374,26.35039],[79.11189,26.35392],[79.10886,26.3495],[79.10491,26.35002],[79.10521,26.35398],[79.10151,26.35455],[79.09268,26.35411],[79.08525,26.35709],[79.08525,26.36042],[79.08772,26.36728],[79.09761,26.37152],[79.09897,26.37378],[79.097,26.37753],[79.0981,26.3826],[79.0955,26.38547],[79.08924,26.39989],[79.09536,26.4122],[79.10047,26.41113],[79.10121,26.41053],[79.10557,26.40698],[79.10922,26.40611],[79.12345,26.40997],[79.12578,26.4115],[79.12538,26.4186],[79.12769,26.42726],[79.13187,26.43501],[79.13535,26.43918],[79.15316,26.4393],[79.15776,26.43846],[79.17203,26.4341],[79.1805,26.42976],[79.18362,26.42952],[79.18742,26.43073],[79.19237,26.42502],[79.19605,26.42513],[79.20771,26.43082],[79.21023,26.43246],[79.21451,26.4381],[79.21894,26.43198],[79.22615,26.42772],[79.23286,26.42764],[79.24639,26.42747],[79.25153,26.42778],[79.26938,26.43258],[79.27658,26.43568],[79.28734,26.4417],[79.29268,26.44241],[79.29973,26.43924],[79.30265,26.43613],[79.30672,26.42569],[79.31197,26.41665],[79.32779,26.4069],[79.33175,26.40587],[79.34168,26.40138],[79.36496,26.40567],[79.37254,26.4082],[79.39482,26.41811],[79.42211,26.42544],[79.43632,26.43149],[79.45402,26.43409],[79.45848,26.4341],[79.4743,26.43111],[79.47642,26.43005],[79.4821,26.4249],[79.48626,26.41968],[79.48843,26.41495],[79.49124,26.40656],[79.49039,26.39622],[79.49083,26.38894],[79.49382,26.38107],[79.50274,26.36777],[79.50266,26.3653],[79.5037,26.36376]]]}}]}