{"type":"FeatureCollection","features":[{"type":"Feature","properties":{"id":"jaunpur","name":"Jaunpur","stateId":"uttar-pradesh","stateName":"Uttar Pradesh","censuscode":194,"type":"district"},"geometry":{"type":"Polygon","coordinates":[[[82.6823,26.15122],[82.68027,26.14351],[82.67018,26.14393],[82.66874,26.14062],[82.6709,26.13486],[82.67463,26.12959],[82.67267,26.12351],[82.67563,26.12092],[82.67919,26.12002],[82.68226,26.11618],[82.68247,26.11181],[82.68082,26.1066],[82.684,26.10299],[82.69179,26.09769],[82.70008,26.09798],[82.70726,26.09387],[82.70812,26.0897],[82.70732,26.08444],[82.70115,26.07126],[82.70138,26.06752],[82.70943,26.06263],[82.71508,26.05198],[82.71086,26.04942],[82.70351,26.04736],[82.70195,26.04445],[82.70165,26.04024],[82.70657,26.03947],[82.71896,26.04232],[82.72162,26.04202],[82.72203,26.03455],[82.71588,26.03297],[82.71507,26.03105],[82.70691,26.0264],[82.70898,26.0239],[82.72463,26.02646],[82.73304,26.02485],[82.72893,26.01081],[82.72872,26.0007],[82.72779,26.00011],[82.72626,25.99735],[82.72645,25.99522],[82.7272,25.99304],[82.72727,25.99195],[82.72776,25.9893],[82.72859,25.98792],[82.72991,25.9862],[82.73201,25.98401],[82.73314,25.98304],[82.73517,25.982],[82.73459,25.98051],[82.7346,25.97942],[82.7349,25.97763],[82.73496,25.97609],[82.73566,25.97339],[82.73635,25.96959],[82.73793,25.96816],[82.7413,25.96689],[82.74465,25.96545],[82.74522,25.96476],[82.74603,25.96108],[82.74868,25.95407],[82.74962,25.95068],[82.75051,25.94867],[82.75095,25.94665],[82.75145,25.94573],[82.75436,25.9425],[82.75474,25.94095],[82.75441,25.93878],[82.75321,25.93659],[82.75364,25.93447],[82.75511,25.93394],[82.75979,25.93261],[82.76112,25.93129],[82.75984,25.92974],[82.75845,25.9275],[82.75756,25.92515],[82.75825,25.92394],[82.7623,25.92393],[82.76388,25.92307],[82.76528,25.92002],[82.76495,25.91772],[82.76469,25.91467],[82.76481,25.91341],[82.7655,25.91169],[82.76677,25.90898],[82.76835,25.90611],[82.7698,25.90386],[82.77087,25.90184],[82.77181,25.89868],[82.77364,25.89437],[82.7725,25.89357],[82.7718,25.8934],[82.76996,25.8934],[82.76736,25.89324],[82.76691,25.88967],[82.76734,25.88761],[82.7674,25.88473],[82.76759,25.88267],[82.76961,25.88203],[82.77069,25.88208],[82.77411,25.88202],[82.7755,25.8811],[82.7722,25.87651],[82.77067,25.87404],[82.76692,25.87019],[82.76583,25.86847],[82.76475,25.866],[82.76449,25.86405],[82.76461,25.86135],[82.76518,25.85911],[82.76572,25.85776],[82.76593,25.85723],[82.76611,25.85597],[82.76719,25.85223],[82.76826,25.85096],[82.76756,25.84959],[82.76559,25.84769],[82.76432,25.84632],[82.76094,25.84149],[82.76005,25.8404],[82.75853,25.83839],[82.75808,25.83691],[82.76155,25.83293],[82.76345,25.83132],[82.76636,25.82948],[82.76858,25.82855],[82.772,25.82786],[82.77555,25.82739],[82.78049,25.82652],[82.78321,25.82593],[82.78543,25.82588],[82.78669,25.82512],[82.78726,25.82179],[82.78751,25.82087],[82.78839,25.8188],[82.7906,25.81597],[82.79224,25.81534],[82.79364,25.81511],[82.7956,25.81292],[82.79666,25.81206],[82.79882,25.8101],[82.8035,25.80549],[82.80539,25.80382],[82.80773,25.80204],[82.80931,25.80215],[82.80829,25.80013],[82.80835,25.79893],[82.80816,25.79789],[82.80695,25.79515],[82.80657,25.79366],[82.80618,25.79109],[82.80611,25.78828],[82.8068,25.78726],[82.80825,25.78606],[82.80997,25.78487],[82.8125,25.78378],[82.81447,25.78282],[82.8168,25.78146],[82.81807,25.78056],[82.81977,25.77874],[82.82079,25.77691],[82.82338,25.77276],[82.82502,25.77139],[82.82629,25.77066],[82.8292,25.7692],[82.83073,25.76836],[82.83548,25.76612],[82.83808,25.76552],[82.84024,25.76526],[82.84386,25.76496],[82.84818,25.7642],[82.853,25.76477],[82.85422,25.76559],[82.85606,25.76664],[82.85759,25.76722],[82.85924,25.76797],[82.8633,25.76913],[82.86444,25.7693],[82.86552,25.76936],[82.86851,25.77045],[82.87103,25.76976],[82.87356,25.7698],[82.8761,25.76996],[82.88097,25.76876],[82.88501,25.76837],[82.8876,25.76793],[82.89025,25.76779],[82.89448,25.76968],[82.89594,25.77046],[82.89701,25.7709],[82.89917,25.7727],[82.89967,25.77258],[82.90099,25.77182],[82.90364,25.77012],[82.90596,25.76826],[82.90893,25.76656],[82.9117,25.76463],[82.91461,25.76386],[82.917,25.76273],[82.92047,25.76017],[82.92273,25.7587],[82.92432,25.75799],[82.92691,25.75704],[82.92906,25.75649],[82.93083,25.75595],[82.93114,25.75265],[82.931,25.7504],[82.9294,25.7477],[82.92584,25.74313],[82.92476,25.74129],[82.92374,25.739],[82.92436,25.73599],[82.9246,25.73413],[82.92554,25.73023],[82.92895,25.73009],[82.93098,25.73015],[82.93358,25.73083],[82.93421,25.72971],[82.93382,25.72483],[82.93609,25.72138],[82.93772,25.71806],[82.9405,25.71503],[82.94163,25.71231],[82.94245,25.70896],[82.94421,25.70565],[82.94592,25.70417],[82.9482,25.70375],[82.95138,25.70367],[82.95595,25.70424],[82.95671,25.70419],[82.96026,25.70424],[82.9628,25.7036],[82.96463,25.70206],[82.96623,25.70004],[82.97076,25.69483],[82.97456,25.69163],[82.97739,25.68879],[82.97973,25.68698],[82.98212,25.6834],[82.98275,25.6826],[82.9854,25.67969],[82.98583,25.67934],[82.98934,25.68179],[82.99074,25.68299],[82.99359,25.68442],[82.99537,25.68506],[82.9972,25.68556],[82.99815,25.68611],[82.99904,25.68649],[83,25.68956],[83.0017,25.69523],[83.00143,25.69862],[83.00435,25.70823],[83.00858,25.71255],[83.00995,25.71098],[83.01246,25.71026],[83.01325,25.7079],[83.01612,25.70659],[83.01741,25.704],[83.02096,25.70527],[83.02428,25.70408],[83.02965,25.70466],[83.03237,25.69738],[83.04126,25.70072],[83.04068,25.6924],[83.04309,25.6892],[83.05264,25.68708],[83.05553,25.68273],[83.05836,25.68178],[83.06563,25.68278],[83.07483,25.68278],[83.07815,25.68142],[83.07992,25.67761],[83.07816,25.67056],[83.06547,25.6613],[83.06466,25.65826],[83.06505,25.65493],[83.0672,25.65146],[83.06697,25.64451],[83.06461,25.63138],[83.06743,25.62222],[83.07053,25.61902],[83.0744,25.61685],[83.07761,25.61307],[83.07823,25.60474],[83.07738,25.59872],[83.07113,25.59707],[83.06887,25.59481],[83.07246,25.59062],[83.0795,25.58577],[83.08762,25.58905],[83.09077,25.57351],[83.08296,25.56975],[83.07915,25.55607],[83.07233,25.55071],[83.06762,25.55547],[83.06347,25.5561],[83.05947,25.5538],[83.05289,25.54446],[83.04799,25.54068],[83.04419,25.53969],[83.04128,25.54259],[83.02937,25.57059],[83.02603,25.57472],[83.02177,25.5754],[83.0169,25.57092],[83.00797,25.55926],[83.00561,25.55348],[83.00991,25.55383],[83.01201,25.55157],[83.01152,25.54835],[83.00878,25.54667],[83.00594,25.54648],[83,25.55082],[82.99591,25.55235],[82.99167,25.55327],[82.99015,25.5537],[82.988,25.55405],[82.98363,25.55396],[82.98255,25.55378],[82.98013,25.55136],[82.97955,25.55019],[82.97929,25.54854],[82.97846,25.54688],[82.9752,25.54283],[82.97419,25.54128],[82.97355,25.53991],[82.97245,25.53696],[82.97162,25.53527],[82.96912,25.53182],[82.96505,25.52683],[82.9632,25.52526],[82.96225,25.52489],[82.96112,25.52481],[82.95801,25.52438],[82.9544,25.52474],[82.95156,25.52548],[82.9491,25.5265],[82.94645,25.5278],[82.945,25.53023],[82.94522,25.53536],[82.94477,25.53691],[82.94657,25.54115],[82.94677,25.54298],[82.94583,25.54535],[82.94457,25.54699],[82.94262,25.55032],[82.94162,25.55178],[82.94074,25.55387],[82.93961,25.5562],[82.93885,25.55846],[82.93785,25.56021],[82.9376,25.56125],[82.93659,25.56445],[82.93516,25.56614],[82.93395,25.56738],[82.93067,25.56938],[82.92992,25.57003],[82.92897,25.57039],[82.926,25.5707],[82.92498,25.57043],[82.9234,25.5698],[82.92162,25.56936],[82.92036,25.56879],[82.91619,25.5698],[82.91429,25.56987],[82.91182,25.56919],[82.90885,25.56886],[82.90613,25.56933],[82.90499,25.56928],[82.90385,25.5694],[82.90164,25.56934],[82.89691,25.56958],[82.89481,25.56907],[82.89298,25.56792],[82.89164,25.56775],[82.8893,25.56729],[82.88235,25.56575],[82.87981,25.56569],[82.87716,25.56719],[82.87647,25.56931],[82.87573,25.57105],[82.87384,25.57415],[82.87188,25.57703],[82.87107,25.57795],[82.86684,25.57997],[82.86551,25.57928],[82.86423,25.57818],[82.86291,25.57674],[82.85973,25.57255],[82.85693,25.56742],[82.8568,25.5669],[82.85578,25.56495],[82.85483,25.56351],[82.85407,25.56351],[82.85256,25.56328],[82.85047,25.56351],[82.84965,25.56379],[82.84737,25.56495],[82.84548,25.56546],[82.8434,25.56673],[82.84151,25.56759],[82.84049,25.56771],[82.83904,25.56771],[82.83821,25.56598],[82.8382,25.56391],[82.83858,25.56207],[82.83845,25.56126],[82.83838,25.56005],[82.83863,25.55701],[82.83842,25.55413],[82.83811,25.55361],[82.8371,25.55275],[82.83419,25.55165],[82.83153,25.55172],[82.83077,25.55223],[82.82837,25.55114],[82.82698,25.55108],[82.82508,25.55148],[82.82274,25.55148],[82.81648,25.55212],[82.81314,25.55263],[82.81137,25.55332],[82.80991,25.55344],[82.80896,25.55327],[82.80782,25.55293],[82.807,25.55212],[82.80586,25.55063],[82.80472,25.55137],[82.80441,25.55195],[82.80264,25.55269],[82.80151,25.55286],[82.80036,25.55263],[82.79872,25.55178],[82.79789,25.55114],[82.79663,25.54953],[82.79599,25.54786],[82.79504,25.54585],[82.79485,25.54499],[82.79414,25.54274],[82.79357,25.54218],[82.79244,25.54217],[82.79168,25.54211],[82.79086,25.54229],[82.78852,25.54338],[82.78782,25.54361],[82.78619,25.54361],[82.78574,25.54338],[82.7851,25.5412],[82.7849,25.5393],[82.78433,25.53556],[82.78343,25.53321],[82.78274,25.53171],[82.78222,25.53079],[82.78166,25.5301],[82.7809,25.52941],[82.77969,25.52889],[82.77786,25.52878],[82.77482,25.52895],[82.77356,25.52919],[82.77167,25.52988],[82.77009,25.53062],[82.76895,25.53131],[82.76801,25.53217],[82.76675,25.53315],[82.76529,25.53459],[82.76442,25.53569],[82.76322,25.53735],[82.76095,25.5412],[82.75786,25.54161],[82.75704,25.54155],[82.75501,25.5416],[82.75147,25.54206],[82.75028,25.5427],[82.74831,25.54345],[82.74785,25.54445],[82.74456,25.54533],[82.74342,25.54597],[82.74253,25.5462],[82.74171,25.54603],[82.74026,25.54597],[82.73855,25.54609],[82.73684,25.5461],[82.73451,25.54547],[82.72798,25.54186],[82.72678,25.5414],[82.72615,25.54105],[82.72431,25.53962],[82.72304,25.53836],[82.72184,25.53635],[82.71792,25.53446],[82.71532,25.53291],[82.71399,25.53148],[82.71399,25.53072],[82.71487,25.52975],[82.71582,25.52924],[82.71796,25.52704],[82.71999,25.5252],[82.72143,25.52445],[82.7239,25.52296],[82.72477,25.52134],[82.72559,25.51893],[82.72533,25.51537],[82.72533,25.51324],[82.72577,25.51065],[82.72583,25.50865],[82.72544,25.50479],[82.72492,25.50341],[82.72397,25.50209],[82.72036,25.50077],[82.71854,25.5002],[82.71689,25.49981],[82.716,25.50045],[82.71448,25.49694],[82.71378,25.49476],[82.71187,25.48959],[82.71067,25.48568],[82.71066,25.48252],[82.7111,25.48142],[82.71338,25.48079],[82.71678,25.47941],[82.72019,25.47716],[82.72524,25.47428],[82.72618,25.47376],[82.72852,25.47243],[82.73003,25.47191],[82.73123,25.47162],[82.73262,25.4715],[82.73584,25.47098],[82.73635,25.47081],[82.73659,25.46777],[82.73628,25.46541],[82.7362,25.46323],[82.73639,25.46208],[82.73531,25.4615],[82.73374,25.46127],[82.73139,25.46105],[82.72932,25.46111],[82.72431,25.46077],[82.72173,25.46038],[82.71383,25.45976],[82.71048,25.45907],[82.70744,25.45827],[82.70587,25.45753],[82.70542,25.45701],[82.70598,25.4546],[82.70592,25.45379],[82.70535,25.45184],[82.70478,25.45109],[82.70415,25.45052],[82.70301,25.4488],[82.70281,25.44823],[82.70269,25.44713],[82.7047,25.44667],[82.70578,25.44667],[82.70742,25.44706],[82.70862,25.447],[82.70969,25.4454],[82.71057,25.44493],[82.71342,25.44413],[82.71676,25.44211],[82.71783,25.44125],[82.71903,25.43998],[82.71978,25.43854],[82.72041,25.43475],[82.72015,25.43348],[82.71838,25.43302],[82.71277,25.43264],[82.71087,25.4324],[82.70398,25.4323],[82.7026,25.43236],[82.69994,25.43213],[82.69874,25.43214],[82.69595,25.43197],[82.69254,25.4314],[82.68856,25.42991],[82.68741,25.42583],[82.68513,25.419],[82.68468,25.41699],[82.68469,25.41538],[82.68449,25.41279],[82.68455,25.4117],[82.6848,25.41009],[82.68543,25.4086],[82.68624,25.40716],[82.68807,25.40451],[82.68832,25.40348],[82.68895,25.40227],[82.69015,25.40031],[82.69115,25.39887],[82.69311,25.39686],[82.6938,25.39588],[82.69373,25.39451],[82.69373,25.3945],[82.69297,25.39375],[82.69114,25.3952],[82.68939,25.39594],[82.68294,25.39825],[82.67916,25.39918],[82.67638,25.39958],[82.67468,25.3997],[82.67089,25.39971],[82.66893,25.39954],[82.66552,25.3996],[82.66311,25.39954],[82.65466,25.39904],[82.64778,25.39795],[82.6467,25.39732],[82.6455,25.39692],[82.64473,25.39646],[82.64297,25.39577],[82.63843,25.39451],[82.63621,25.39405],[82.63324,25.39377],[82.63242,25.39342],[82.62788,25.39262],[82.62668,25.39257],[82.62516,25.39269],[82.62106,25.39327],[82.61973,25.39361],[82.61872,25.39401],[82.61746,25.39533],[82.61702,25.39603],[82.61696,25.39844],[82.61715,25.3993],[82.6186,25.40068],[82.6198,25.402],[82.62082,25.40286],[82.62164,25.40372],[82.62335,25.4039],[82.62492,25.40384],[82.62751,25.40314],[82.63047,25.40153],[82.63238,25.40078],[82.63452,25.40049],[82.6354,25.40055],[82.63698,25.40095],[82.63843,25.40192],[82.63932,25.40399],[82.6392,25.40595],[82.63876,25.40693],[82.63762,25.40807],[82.6356,25.40917],[82.63371,25.41009],[82.62954,25.41165],[82.62582,25.41234],[82.62368,25.41315],[82.61995,25.41551],[82.61711,25.41677],[82.61396,25.41724],[82.6108,25.41706],[82.60878,25.41649],[82.60625,25.41592],[82.60447,25.41575],[82.60284,25.41535],[82.60113,25.41535],[82.59917,25.41719],[82.59848,25.41909],[82.59956,25.42178],[82.60101,25.42386],[82.6026,25.42581],[82.60456,25.42759],[82.60614,25.42932],[82.60898,25.43258],[82.61196,25.4362],[82.61278,25.43746],[82.61368,25.44045],[82.61393,25.44321],[82.61292,25.44575],[82.61166,25.44764],[82.6104,25.44816],[82.60907,25.44914],[82.60654,25.4504],[82.60408,25.45058],[82.60244,25.45046],[82.60067,25.45046],[82.59675,25.45013],[82.5953,25.45018],[82.59392,25.45047],[82.5922,25.45092],[82.58886,25.45202],[82.58558,25.4526],[82.58273,25.45214],[82.5809,25.4514],[82.58014,25.44847],[82.58019,25.44507],[82.58108,25.44077],[82.58209,25.43812],[82.58259,25.43525],[82.58271,25.4322],[82.5829,25.43042],[82.58284,25.42898],[82.58239,25.42686],[82.58125,25.42295],[82.58011,25.42053],[82.57821,25.41737],[82.57739,25.41612],[82.57599,25.41542],[82.57366,25.41474],[82.5717,25.41485],[82.57057,25.41514],[82.56887,25.41721],[82.56798,25.41899],[82.56634,25.42336],[82.56591,25.43164],[82.56559,25.43359],[82.56566,25.43543],[82.56548,25.43968],[82.56529,25.44267],[82.56491,25.44669],[82.56339,25.44985],[82.56157,25.45238],[82.5603,25.45439],[82.55904,25.45589],[82.55444,25.45957],[82.55248,25.46055],[82.54698,25.46181],[82.54528,25.46176],[82.54345,25.46216],[82.54205,25.46211],[82.54161,25.45854],[82.54198,25.45527],[82.54243,25.45377],[82.54281,25.45325],[82.54382,25.45279],[82.54616,25.45204],[82.54843,25.45153],[82.54938,25.45101],[82.55228,25.44906],[82.55411,25.44761],[82.55424,25.44715],[82.5543,25.44492],[82.55392,25.44302],[82.55341,25.44118],[82.55253,25.43951],[82.5507,25.43825],[82.54621,25.43699],[82.54457,25.43671],[82.54065,25.43676],[82.53794,25.43728],[82.53357,25.43843],[82.53137,25.43929],[82.5294,25.44044],[82.5279,25.44108],[82.52511,25.44136],[82.52227,25.44124],[82.51975,25.44131],[82.51488,25.44166],[82.51368,25.44418],[82.51406,25.44521],[82.51457,25.44705],[82.51494,25.44999],[82.5147,25.4516],[82.51432,25.45286],[82.51299,25.45533],[82.51217,25.45625],[82.51072,25.45884],[82.50952,25.45952],[82.50908,25.46119],[82.50902,25.46292],[82.50908,25.46567],[82.50826,25.46774],[82.50763,25.4686],[82.50668,25.47016],[82.50618,25.47068],[82.50567,25.47211],[82.50428,25.4736],[82.50308,25.47464],[82.50105,25.47573],[82.49904,25.47625],[82.49475,25.477],[82.49355,25.47694],[82.49171,25.47671],[82.48975,25.47579],[82.48709,25.47498],[82.48508,25.47401],[82.48223,25.47182],[82.48008,25.47091],[82.47793,25.4701],[82.47642,25.4693],[82.47186,25.46763],[82.4708,25.46751],[82.46991,25.46797],[82.46966,25.46849],[82.46815,25.47073],[82.46587,25.4728],[82.46631,25.47395],[82.46675,25.47435],[82.46796,25.47504],[82.46972,25.47671],[82.47111,25.47821],[82.47313,25.47935],[82.47516,25.48004],[82.47553,25.48061],[82.47908,25.4828],[82.47977,25.48367],[82.4799,25.48498],[82.47965,25.48613],[82.47769,25.48717],[82.47446,25.48786],[82.46928,25.48872],[82.46688,25.48866],[82.46485,25.48889],[82.46025,25.49027],[82.45632,25.49125],[82.45292,25.49245],[82.45102,25.49372],[82.45001,25.49423],[82.44913,25.49498],[82.44906,25.49584],[82.44868,25.49705],[82.44742,25.49929],[82.44741,25.50129],[82.44723,25.5028],[82.44742,25.50601],[82.44735,25.50802],[82.44754,25.50963],[82.44748,25.51084],[82.4476,25.51205],[82.44761,25.51366],[82.44723,25.51515],[82.44458,25.51693],[82.44306,25.51705],[82.44028,25.51692],[82.43711,25.51664],[82.43465,25.51607],[82.433,25.51624],[82.43067,25.51629],[82.42909,25.51617],[82.42738,25.51629],[82.42631,25.51589],[82.42573,25.51468],[82.42536,25.51422],[82.4251,25.51377],[82.42409,25.51152],[82.4229,25.5098],[82.42176,25.50847],[82.42087,25.50778],[82.41929,25.50698],[82.41746,25.50582],[82.41626,25.50531],[82.41461,25.50421],[82.41469,25.5037],[82.41505,25.50284],[82.41639,25.50117],[82.41702,25.49985],[82.41778,25.49865],[82.41816,25.49813],[82.41898,25.49732],[82.41747,25.49542],[82.41531,25.4937],[82.41424,25.49243],[82.41355,25.49146],[82.41279,25.49065],[82.41229,25.49031],[82.41197,25.49214],[82.41077,25.49422],[82.40912,25.49669],[82.40792,25.49818],[82.40735,25.49961],[82.40595,25.50197],[82.40425,25.50398],[82.40318,25.50558],[82.40204,25.50702],[82.40027,25.51191],[82.39982,25.51398],[82.39951,25.51604],[82.39893,25.51817],[82.39799,25.51943],[82.39757,25.51997],[82.39713,25.52054],[82.39666,25.52137],[82.39344,25.52041],[82.39325,25.5196],[82.39307,25.51817],[82.39318,25.51685],[82.39376,25.5149],[82.39351,25.51352],[82.3923,25.51299],[82.39149,25.51311],[82.3868,25.51478],[82.38585,25.51517],[82.3839,25.51627],[82.3808,25.51781],[82.38023,25.51793],[82.37916,25.51758],[82.37745,25.51741],[82.3746,25.51844],[82.37296,25.51878],[82.37144,25.51826],[82.37012,25.51746],[82.37093,25.51619],[82.37391,25.51379],[82.37549,25.5127],[82.37638,25.51177],[82.37682,25.50954],[82.3765,25.50873],[82.37587,25.50816],[82.3748,25.50781],[82.37347,25.5078],[82.3719,25.50792],[82.36664,25.50844],[82.36367,25.50947],[82.36216,25.51027],[82.35956,25.51108],[82.3571,25.51164],[82.35526,25.51227],[82.35438,25.51268],[82.35261,25.51445],[82.35217,25.51532],[82.3514,25.5175],[82.35071,25.52043],[82.3502,25.52394],[82.35026,25.52445],[82.34976,25.52698],[82.34931,25.52813],[82.34791,25.52905],[82.34665,25.53014],[82.34172,25.53358],[82.34008,25.53432],[82.3378,25.53479],[82.33559,25.53593],[82.33477,25.5361],[82.33363,25.53593],[82.33185,25.53604],[82.3304,25.53604],[82.33129,25.53685],[82.33028,25.538],[82.32692,25.54236],[82.32603,25.54328],[82.32483,25.54385],[82.32161,25.54517],[82.31826,25.54689],[82.31281,25.54889],[82.31029,25.5493],[82.30908,25.54935],[82.30693,25.54963],[82.30611,25.54963],[82.30491,25.5494],[82.30358,25.54911],[82.30156,25.54831],[82.30023,25.54756],[82.29689,25.54588],[82.29569,25.54548],[82.29341,25.5441],[82.29195,25.54386],[82.28962,25.54392],[82.28899,25.54565],[82.28835,25.54691],[82.2881,25.54834],[82.28727,25.54984],[82.28682,25.55099],[82.28601,25.55231],[82.28474,25.55323],[82.28373,25.55351],[82.28246,25.55414],[82.28113,25.5546],[82.27771,25.55557],[82.27531,25.55643],[82.27354,25.55723],[82.27202,25.55781],[82.27158,25.55815],[82.27044,25.55929],[82.26822,25.56171],[82.26607,25.56365],[82.26468,25.56434],[82.26291,25.5648],[82.25886,25.56381],[82.25577,25.56375],[82.2545,25.56398],[82.25285,25.56403],[82.25102,25.56432],[82.24925,25.56483],[82.24703,25.56597],[82.24551,25.56718],[82.24608,25.56816],[82.24652,25.56937],[82.24702,25.57029],[82.24923,25.57357],[82.24993,25.57472],[82.25088,25.57598],[82.25232,25.5795],[82.25087,25.57938],[82.24852,25.58086],[82.24587,25.58138],[82.24441,25.58212],[82.24283,25.5831],[82.24119,25.58332],[82.23922,25.58418],[82.23713,25.58493],[82.23536,25.58567],[82.23315,25.5863],[82.22871,25.58784],[82.22372,25.58864],[82.22194,25.58874],[82.22068,25.58898],[82.21948,25.58915],[82.21701,25.5888],[82.21639,25.58868],[82.21486,25.58805],[82.21399,25.58695],[82.2131,25.58568],[82.21228,25.58402],[82.21203,25.58327],[82.21014,25.58011],[82.20882,25.57833],[82.20813,25.57711],[82.20749,25.57642],[82.20572,25.57498],[82.20452,25.5744],[82.20282,25.57451],[82.20206,25.5759],[82.20211,25.57882],[82.20185,25.58049],[82.20179,25.58181],[82.20096,25.58469],[82.20032,25.5848],[82.19831,25.58468],[82.19647,25.58444],[82.19382,25.58369],[82.19198,25.58358],[82.19033,25.58317],[82.18737,25.58213],[82.18629,25.58144],[82.18567,25.58121],[82.18402,25.58097],[82.18263,25.58131],[82.17972,25.58297],[82.17686,25.58498],[82.17534,25.5863],[82.17407,25.58831],[82.17363,25.58946],[82.17305,25.59175],[82.17254,25.59445],[82.17196,25.59669],[82.17152,25.59801],[82.17019,25.59916],[82.16867,25.59962],[82.16797,25.59956],[82.1664,25.59984],[82.16298,25.59983],[82.16178,25.59972],[82.15918,25.59988],[82.15734,25.60016],[82.15539,25.60022],[82.15437,25.60085],[82.15361,25.60171],[82.15126,25.60676],[82.15005,25.60848],[82.14872,25.60992],[82.14809,25.61084],[82.14631,25.61284],[82.14492,25.61422],[82.14281,25.6172],[82.14186,25.61823],[82.14085,25.61909],[82.13958,25.62064],[82.13825,25.62293],[82.13735,25.62506],[82.13685,25.6269],[82.13506,25.62965],[82.13348,25.63154],[82.13253,25.63212],[82.13081,25.63298],[82.12829,25.63492],[82.12663,25.63647],[82.1234,25.63979],[82.12099,25.64341],[82.12168,25.64496],[82.12218,25.64582],[82.12281,25.64646],[82.12408,25.64693],[82.12534,25.64726],[82.12635,25.64733],[82.12895,25.64728],[82.1306,25.64699],[82.13154,25.64717],[82.1328,25.6481],[82.13394,25.64942],[82.13584,25.65016],[82.13741,25.65115],[82.13943,25.65162],[82.14051,25.65202],[82.14109,25.65179],[82.14203,25.65157],[82.14286,25.65145],[82.14419,25.65151],[82.14488,25.65226],[82.14406,25.65306],[82.14342,25.65392],[82.1426,25.65472],[82.14126,25.65553],[82.14082,25.65593],[82.13918,25.65696],[82.13866,25.65753],[82.13929,25.65943],[82.14004,25.66173],[82.14168,25.66558],[82.14263,25.66737],[82.14307,25.66788],[82.14369,25.66812],[82.14515,25.66847],[82.14623,25.66864],[82.14964,25.66974],[82.15072,25.66992],[82.15205,25.6705],[82.15242,25.67096],[82.15444,25.67406],[82.1552,25.67556],[82.15564,25.67688],[82.15608,25.67912],[82.15867,25.67959],[82.16095,25.68018],[82.16259,25.68156],[82.16404,25.68329],[82.16504,25.68588],[82.16543,25.68829],[82.16736,25.69537],[82.16762,25.69703],[82.1683,25.69905],[82.16912,25.70232],[82.17083,25.70428],[82.17203,25.70491],[82.17411,25.70543],[82.17538,25.70481],[82.17786,25.70326],[82.17944,25.70212],[82.18103,25.70119],[82.18381,25.70068],[82.1845,25.70344],[82.18627,25.70569],[82.18645,25.70638],[82.18785,25.70862],[82.1893,25.71133],[82.19017,25.71409],[82.19049,25.71587],[82.19118,25.71869],[82.19149,25.7207],[82.19155,25.72271],[82.1913,25.72461],[82.19097,25.72616],[82.19116,25.72851],[82.19192,25.73042],[82.19273,25.7322],[82.19368,25.73353],[82.19456,25.73519],[82.19532,25.73617],[82.19676,25.73934],[82.19677,25.74002],[82.19512,25.74082],[82.19372,25.74283],[82.19346,25.74518],[82.19156,25.7484],[82.19016,25.75185],[82.18914,25.75322],[82.18775,25.75541],[82.18685,25.75736],[82.18622,25.75914],[82.18608,25.7611],[82.1857,25.76213],[82.18761,25.76236],[82.19463,25.7622],[82.19691,25.76278],[82.19691,25.76508],[82.1962,25.76692],[82.19532,25.76807],[82.19373,25.76916],[82.19278,25.76932],[82.18942,25.76811],[82.18816,25.76776],[82.18663,25.76765],[82.18499,25.76856],[82.18378,25.77092],[82.18225,25.77333],[82.18142,25.7762],[82.18085,25.77757],[82.18116,25.77872],[82.17933,25.78068],[82.17749,25.78159],[82.17621,25.78268],[82.17444,25.784],[82.17316,25.78561],[82.17209,25.78675],[82.17094,25.78778],[82.16973,25.79019],[82.17099,25.79629],[82.17256,25.79974],[82.173,25.80025],[82.1749,25.80095],[82.17878,25.80033],[82.18105,25.8001],[82.18188,25.79993],[82.1832,25.80189],[82.18256,25.8039],[82.18174,25.80546],[82.18009,25.80769],[82.18033,25.80901],[82.18033,25.81085],[82.18064,25.81251],[82.17975,25.81579],[82.17905,25.81682],[82.17847,25.81797],[82.17689,25.82044],[82.17708,25.82251],[82.17858,25.82475],[82.17973,25.8259],[82.18327,25.82907],[82.18492,25.82977],[82.18669,25.82914],[82.19043,25.8284],[82.19277,25.82754],[82.19684,25.82537],[82.19988,25.82302],[82.20274,25.82095],[82.20407,25.82021],[82.20514,25.81975],[82.20724,25.81941],[82.2082,25.81981],[82.20876,25.8208],[82.20845,25.8228],[82.20742,25.82637],[82.20787,25.82769],[82.20925,25.82924],[82.21255,25.82988],[82.21362,25.83017],[82.21445,25.83086],[82.21482,25.83143],[82.21666,25.83374],[82.21697,25.83587],[82.21754,25.83782],[82.21849,25.83828],[82.22178,25.83709],[82.22603,25.83628],[82.22648,25.83595],[82.22895,25.83497],[82.23269,25.83371],[82.23447,25.83257],[82.23821,25.83119],[82.24353,25.83063],[82.24492,25.83137],[82.25126,25.83213],[82.25589,25.83249],[82.25855,25.83358],[82.25988,25.83514],[82.26488,25.83911],[82.26298,25.8402],[82.26462,25.84169],[82.26716,25.84366],[82.26836,25.84498],[82.27044,25.84705],[82.27286,25.84677],[82.27425,25.84493],[82.27489,25.84373],[82.27679,25.84177],[82.27881,25.84212],[82.2802,25.84419],[82.28027,25.84643],[82.28103,25.84903],[82.28457,25.85264],[82.28489,25.8546],[82.2869,25.85702],[82.28931,25.85931],[82.29095,25.86283],[82.29146,25.86409],[82.29209,25.86714],[82.29221,25.86972],[82.29203,25.87272],[82.2917,25.87478],[82.29094,25.87783],[82.29138,25.87949],[82.29372,25.88225],[82.296,25.88433],[82.29663,25.88605],[82.29663,25.88772],[82.29638,25.8895],[82.29624,25.8903],[82.29643,25.89173],[82.30049,25.89364],[82.30499,25.89589],[82.3069,25.89692],[82.30866,25.89744],[82.31183,25.89934],[82.31354,25.89992],[82.31614,25.90084],[82.31969,25.9012],[82.32115,25.90142],[82.3242,25.90114],[82.32546,25.90091],[82.32851,25.90057],[82.33212,25.90029],[82.3339,25.90023],[82.33504,25.90104],[82.33542,25.9019],[82.33541,25.90287],[82.33669,25.90362],[82.3377,25.90396],[82.33922,25.90397],[82.34011,25.90546],[82.34042,25.90736],[82.34201,25.90851],[82.3436,25.91024],[82.34416,25.91184],[82.34537,25.91374],[82.34663,25.91495],[82.34917,25.91494],[82.35019,25.91409],[82.35177,25.91115],[82.35273,25.90892],[82.35387,25.90771],[82.35533,25.90592],[82.3559,25.90547],[82.35775,25.90523],[82.3585,25.90725],[82.359,25.90794],[82.36021,25.90799],[82.36263,25.90777],[82.36376,25.90753],[82.36503,25.90799],[82.36661,25.90942],[82.36871,25.91075],[82.37117,25.91218],[82.37282,25.91298],[82.37473,25.91356],[82.376,25.91327],[82.37797,25.91188],[82.3793,25.91068],[82.38018,25.90976],[82.38196,25.90878],[82.38342,25.90826],[82.38513,25.90814],[82.38849,25.90878],[82.39261,25.90906],[82.39464,25.90953],[82.3961,25.91062],[82.39571,25.91223],[82.39521,25.91343],[82.3947,25.91383],[82.39331,25.9147],[82.39141,25.91659],[82.39014,25.91751],[82.38899,25.91872],[82.38861,25.92045],[82.39007,25.925],[82.39229,25.92966],[82.39355,25.93426],[82.39292,25.93421],[82.39184,25.93374],[82.38798,25.93317],[82.3848,25.93305],[82.38246,25.93242],[82.38099,25.93219],[82.3794,25.93329],[82.38011,25.93668],[82.38022,25.93846],[82.37991,25.93961],[82.37338,25.94099],[82.37192,25.94105],[82.36931,25.94134],[82.36881,25.94122],[82.36405,25.94105],[82.36303,25.94123],[82.36126,25.94209],[82.35961,25.94404],[82.35891,25.94456],[82.35796,25.94582],[82.35668,25.94806],[82.35606,25.94996],[82.35593,25.95088],[82.35605,25.95346],[82.3492,25.95513],[82.34755,25.95587],[82.34722,25.958],[82.34786,25.95978],[82.3495,25.96151],[82.35211,25.96289],[82.35363,25.96295],[82.3575,25.96278],[82.35966,25.96307],[82.36251,25.96428],[82.36442,25.96543],[82.36543,25.96704],[82.36562,25.96807],[82.36568,25.97008],[82.36606,25.97175],[82.36859,25.97899],[82.36936,25.97997],[82.371,25.98158],[82.37424,25.98015],[82.37653,25.97825],[82.37868,25.97802],[82.38065,25.97814],[82.38294,25.97756],[82.38737,25.9771],[82.38986,25.97653],[82.39493,25.97567],[82.39702,25.9751],[82.39931,25.97389],[82.40236,25.97337],[82.40432,25.97285],[82.40825,25.9732],[82.4113,25.97405],[82.41187,25.9744],[82.41358,25.97612],[82.41568,25.9779],[82.41885,25.97784],[82.42184,25.97755],[82.42349,25.97779],[82.42525,25.97945],[82.42634,25.98134],[82.42786,25.98237],[82.43014,25.9826],[82.43129,25.98134],[82.4368,25.98128],[82.43693,25.9849],[82.43731,25.98691],[82.43458,25.98736],[82.43231,25.98754],[82.43033,25.98793],[82.42811,25.99012],[82.42741,25.99253],[82.42702,25.99517],[82.42811,25.9969],[82.4295,25.9989],[82.4311,26.00091],[82.43233,26.00882],[82.43656,26.00737],[82.44498,26.00536],[82.45563,26.00468],[82.47747,26.00487],[82.48477,26.00091],[82.48459,25.99972],[82.48579,25.99857],[82.48656,25.99593],[82.48662,25.99438],[82.48732,25.99226],[82.48744,25.99008],[82.48751,25.98308],[82.48776,25.98153],[82.48795,25.97785],[82.48827,25.97401],[82.48871,25.97275],[82.48915,25.97223],[82.49207,25.97234],[82.49417,25.97263],[82.49823,25.97372],[82.5,25.97435],[82.50191,25.97504],[82.50324,25.9759],[82.5054,25.9771],[82.50647,25.9778],[82.50801,25.979],[82.50959,25.98049],[82.50985,25.98118],[82.51086,25.98238],[82.51118,25.98348],[82.51067,25.9852],[82.50864,25.9864],[82.50724,25.98698],[82.50572,25.98744],[82.50401,25.98888],[82.50388,25.99059],[82.50579,25.99278],[82.5068,25.99415],[82.50756,25.99479],[82.50896,25.99559],[82.51049,25.99622],[82.5141,25.99679],[82.51544,25.99679],[82.51709,25.9972],[82.51924,25.99794],[82.52083,25.99857],[82.52324,26.00029],[82.52382,26.00091],[82.52196,26.01199],[82.51876,26.01336],[82.5137,26.01388],[82.50979,26.0158],[82.51318,26.02428],[82.51666,26.02769],[82.51642,26.0312],[82.50537,26.03975],[82.49109,26.04236],[82.48584,26.04184],[82.48304,26.03936],[82.47927,26.03795],[82.46673,26.04434],[82.46714,26.05367],[82.46316,26.05393],[82.46499,26.06265],[82.47447,26.06247],[82.47723,26.06443],[82.47887,26.07063],[82.47688,26.07564],[82.47224,26.07433],[82.46713,26.07421],[82.46179,26.07754],[82.45373,26.0842],[82.4495,26.09037],[82.44717,26.09636],[82.43732,26.09803],[82.43706,26.10268],[82.43998,26.10648],[82.4434,26.10818],[82.44595,26.11203],[82.44439,26.12493],[82.44499,26.13265],[82.44799,26.13428],[82.45481,26.13449],[82.46173,26.13372],[82.47776,26.13048],[82.48332,26.14204],[82.48809,26.14387],[82.49469,26.13615],[82.49785,26.13392],[82.50323,26.13375],[82.5081,26.1361],[82.51211,26.13959],[82.51792,26.13799],[82.52015,26.13949],[82.52165,26.14279],[82.52455,26.14355],[82.52753,26.14304],[82.53102,26.14473],[82.536,26.14576],[82.54014,26.14459],[82.54273,26.13774],[82.55099,26.13448],[82.55539,26.13527],[82.55856,26.13494],[82.56052,26.1329],[82.56473,26.13128],[82.56987,26.1311],[82.5754,26.13967],[82.56661,26.14149],[82.56477,26.14427],[82.56637,26.14804],[82.57131,26.14828],[82.57696,26.15012],[82.57708,26.1526],[82.57247,26.15463],[82.57339,26.16011],[82.57167,26.16341],[82.57836,26.16625],[82.58245,26.1672],[82.58292,26.17309],[82.58133,26.17829],[82.58201,26.18341],[82.58443,26.18796],[82.59197,26.17834],[82.59571,26.17803],[82.59892,26.18114],[82.59753,26.18553],[82.60086,26.19607],[82.60671,26.19524],[82.61101,26.19337],[82.61584,26.19049],[82.61922,26.18682],[82.6201,26.18275],[82.62342,26.18162],[82.62678,26.18147],[82.6262,26.1749],[82.62745,26.17136],[82.63275,26.17021],[82.64424,26.17419],[82.65076,26.17526],[82.65384,26.17389],[82.65267,26.17052],[82.64723,26.16765],[82.64295,26.16641],[82.64006,26.16278],[82.64187,26.15948],[82.64664,26.15935],[82.65197,26.16194],[82.65802,26.1661],[82.6662,26.16443],[82.67186,26.16163],[82.67621,26.15626],[82.6823,26.15122]]]}}]}