{"type":"FeatureCollection","features":[{"type":"Feature","properties":{"id":"jhansi","name":"Jhansi","stateId":"uttar-pradesh","stateName":"Uttar Pradesh","censuscode":166,"type":"district"},"geometry":{"type":"Polygon","coordinates":[[[79.39796,25.79621],[79.40076,25.79308],[79.4019,25.7883],[79.40199,25.78366],[79.40056,25.78005],[79.3989,25.77823],[79.39521,25.77631],[79.38913,25.77493],[79.38396,25.77474],[79.37458,25.77654],[79.36984,25.77635],[79.36433,25.77433],[79.36355,25.77198],[79.36372,25.77026],[79.3654,25.76801],[79.36716,25.76725],[79.3746,25.76058],[79.37374,25.75037],[79.37415,25.74819],[79.37552,25.74628],[79.38463,25.74281],[79.39811,25.74126],[79.40012,25.7405],[79.40073,25.73831],[79.39995,25.7362],[79.39351,25.72948],[79.38144,25.72223],[79.37405,25.71553],[79.37261,25.70503],[79.37286,25.69912],[79.37385,25.69641],[79.37522,25.69508],[79.38617,25.68775],[79.3874,25.6851],[79.3872,25.68292],[79.38481,25.67806],[79.37841,25.66905],[79.37919,25.66525],[79.38243,25.66213],[79.38725,25.65922],[79.40362,25.65695],[79.40602,25.65262],[79.40392,25.65006],[79.40138,25.64865],[79.39532,25.64726],[79.38133,25.6479],[79.37492,25.64979],[79.36791,25.64893],[79.36159,25.64646],[79.36067,25.64308],[79.36158,25.64031],[79.36736,25.63246],[79.37617,25.62401],[79.37832,25.62037],[79.37455,25.60961],[79.37468,25.60266],[79.37926,25.59516],[79.38071,25.59062],[79.38578,25.58133],[79.38919,25.57723],[79.39116,25.57698],[79.39665,25.57808],[79.41328,25.58339],[79.418,25.58312],[79.41992,25.58092],[79.42076,25.57724],[79.41815,25.57387],[79.41694,25.57303],[79.4062,25.57077],[79.40226,25.56718],[79.40241,25.56351],[79.40746,25.55342],[79.40981,25.5492],[79.41046,25.54536],[79.40878,25.54146],[79.40539,25.53644],[79.3987,25.52921],[79.389,25.52184],[79.38899,25.52183],[79.38642,25.51795],[79.38388,25.51062],[79.38249,25.50977],[79.37836,25.49948],[79.37154,25.49288],[79.36724,25.49016],[79.36258,25.48526],[79.36968,25.46488],[79.36832,25.46224],[79.36666,25.45974],[79.36088,25.45497],[79.34199,25.44146],[79.33269,25.43131],[79.33253,25.42822],[79.34045,25.40858],[79.34038,25.4018],[79.33709,25.40022],[79.32456,25.39901],[79.31749,25.39074],[79.31372,25.38508],[79.30327,25.37736],[79.29954,25.37596],[79.29484,25.35837],[79.28751,25.34844],[79.28073,25.34367],[79.27723,25.33893],[79.27708,25.33704],[79.28054,25.32478],[79.28416,25.3221],[79.27521,25.31383],[79.26776,25.30532],[79.2656,25.29345],[79.26361,25.28681],[79.26444,25.28008],[79.26388,25.27722],[79.26409,25.27457],[79.26658,25.26931],[79.26704,25.26655],[79.26956,25.26284],[79.27324,25.26152],[79.27872,25.26161],[79.28546,25.26611],[79.29407,25.27617],[79.29537,25.28535],[79.30594,25.27089],[79.31154,25.26053],[79.31765,25.25705],[79.3223,25.25653],[79.32635,25.2582],[79.33101,25.26198],[79.33955,25.2714],[79.34218,25.27084],[79.34553,25.26832],[79.34773,25.26789],[79.35217,25.25944],[79.34892,25.2538],[79.3485,25.25121],[79.3479,25.23824],[79.34889,25.23426],[79.34874,25.22565],[79.34713,25.22326],[79.33958,25.22716],[79.33839,25.22723],[79.33672,25.22507],[79.34251,25.21804],[79.35456,25.20942],[79.35096,25.20517],[79.34017,25.19602],[79.33414,25.20368],[79.33336,25.20599],[79.33266,25.20904],[79.33294,25.2176],[79.33056,25.21792],[79.32251,25.21476],[79.31836,25.21464],[79.31616,25.21835],[79.30806,25.2226],[79.30541,25.22959],[79.30092,25.23534],[79.29159,25.24162],[79.28614,25.24295],[79.28117,25.24325],[79.28175,25.24032],[79.28579,25.23343],[79.28906,25.22229],[79.28863,25.21948],[79.2872,25.21686],[79.28557,25.20579],[79.28532,25.19867],[79.28635,25.19257],[79.29106,25.18463],[79.29627,25.18145],[79.29831,25.17908],[79.30942,25.17053],[79.31629,25.16032],[79.32209,25.14709],[79.32142,25.14617],[79.31322,25.13512],[79.31073,25.12855],[79.30848,25.12606],[79.29862,25.12648],[79.28967,25.12873],[79.28403,25.11548],[79.28129,25.1169],[79.27747,25.12137],[79.27622,25.12145],[79.26754,25.11732],[79.26556,25.11923],[79.26202,25.12566],[79.26956,25.13636],[79.26944,25.13711],[79.26584,25.13911],[79.26684,25.14214],[79.26669,25.14846],[79.26349,25.15246],[79.25809,25.15639],[79.25333,25.15714],[79.24331,25.15613],[79.23265,25.15334],[79.22711,25.14975],[79.22136,25.14356],[79.22997,25.1408],[79.23144,25.13837],[79.23154,25.13601],[79.23234,25.13542],[79.24502,25.13801],[79.24727,25.13792],[79.249,25.13612],[79.25101,25.13598],[79.24513,25.12652],[79.24556,25.12192],[79.24758,25.1154],[79.24711,25.11305],[79.24583,25.11157],[79.24232,25.11266],[79.23342,25.11761],[79.23022,25.11845],[79.22755,25.11618],[79.22587,25.11339],[79.22113,25.11168],[79.21808,25.10965],[79.2138,25.10896],[79.21454,25.11958],[79.20537,25.12337],[79.20359,25.12685],[79.20377,25.13322],[79.20417,25.1381],[79.20116,25.13883],[79.19754,25.14082],[79.19642,25.14452],[79.19512,25.14608],[79.1923,25.14629],[79.18853,25.14278],[79.18473,25.14111],[79.17579,25.14048],[79.17418,25.13751],[79.17394,25.1347],[79.17621,25.12675],[79.18728,25.12401],[79.18672,25.11288],[79.18153,25.11421],[79.17976,25.11365],[79.17626,25.10704],[79.16401,25.10709],[79.15221,25.11177],[79.14558,25.11358],[79.14075,25.10623],[79.13653,25.10595],[79.13171,25.10703],[79.12822,25.10857],[79.12219,25.11296],[79.13248,25.12438],[79.13212,25.12473],[79.11519,25.13884],[79.12599,25.15353],[79.12783,25.15931],[79.12662,25.15857],[79.11451,25.16327],[79.10997,25.16631],[79.09797,25.17135],[79.09612,25.17344],[79.09583,25.17885],[79.09463,25.18294],[79.0917,25.18763],[79.07763,25.17287],[79.07145,25.16759],[79.07023,25.15785],[79.0654,25.14595],[79.06191,25.14399],[79.05623,25.14262],[79.05037,25.13327],[79.04621,25.13235],[79.04283,25.13297],[79.03556,25.13505],[79.02908,25.1383],[79.02895,25.14204],[79.03255,25.1509],[79.04313,25.16899],[79.03879,25.17358],[79.03531,25.17541],[79.03308,25.17767],[79.03195,25.18165],[79.05016,25.20522],[79.05587,25.20486],[79.06252,25.21229],[79.06413,25.21428],[79.06385,25.22078],[79.05973,25.22319],[79.05248,25.22569],[79.03387,25.22972],[79.03573,25.23607],[79.03845,25.24133],[79.03679,25.24439],[79.02214,25.24279],[79.01951,25.24327],[79.01902,25.24437],[79.01906,25.24788],[79.0234,25.26017],[79.02173,25.26605],[79.01977,25.26906],[79.01239,25.27198],[79.00007,25.27274],[78.99417,25.26996],[78.98462,25.25669],[78.98068,25.2487],[78.97852,25.23995],[78.97965,25.23786],[78.99478,25.23096],[79.00006,25.23004],[79.00205,25.22879],[79.00237,25.22733],[79.0019,25.2205],[79.00068,25.21727],[79.00772,25.21111],[79.00483,25.20264],[79.00469,25.19335],[79.00314,25.19101],[79.00007,25.19159],[78.99508,25.19184],[78.98974,25.19421],[78.98502,25.19926],[78.97654,25.21168],[78.97125,25.21447],[78.96017,25.21573],[78.95565,25.21521],[78.94966,25.2134],[78.93152,25.20564],[78.92645,25.20127],[78.92256,25.19762],[78.9153,25.18858],[78.90886,25.17831],[78.90789,25.17558],[78.90064,25.16828],[78.88436,25.15723],[78.88114,25.15832],[78.87904,25.16106],[78.88047,25.16704],[78.87644,25.17316],[78.87702,25.17795],[78.87484,25.18137],[78.87462,25.185],[78.8783,25.19119],[78.88295,25.19517],[78.88738,25.20092],[78.88969,25.20608],[78.88888,25.21049],[78.88052,25.22109],[78.87435,25.22754],[78.87453,25.23269],[78.87947,25.24578],[78.88317,25.25076],[78.88753,25.24861],[78.89188,25.24223],[78.89899,25.24046],[78.90375,25.24493],[78.91594,25.26935],[78.92256,25.27068],[78.92563,25.27016],[78.93011,25.26648],[78.93317,25.26282],[78.94084,25.25852],[78.94378,25.25768],[78.94796,25.25769],[78.95354,25.25877],[78.95575,25.26092],[78.95536,25.26675],[78.95184,25.27044],[78.95116,25.27506],[78.95491,25.27869],[78.96124,25.28062],[78.97208,25.27887],[78.97744,25.28021],[78.97767,25.28609],[78.96019,25.30684],[78.95944,25.31236],[78.96321,25.34271],[78.96029,25.34482],[78.95743,25.34321],[78.95324,25.34221],[78.95019,25.34007],[78.94286,25.33115],[78.93864,25.32736],[78.93501,25.32666],[78.93279,25.32954],[78.93285,25.33339],[78.93192,25.33687],[78.92628,25.34093],[78.92207,25.34138],[78.91861,25.33707],[78.91526,25.33434],[78.91086,25.33503],[78.90291,25.33846],[78.89263,25.34162],[78.88635,25.34181],[78.88388,25.33939],[78.88414,25.33414],[78.88297,25.32894],[78.88043,25.32576],[78.86979,25.31955],[78.86558,25.31583],[78.86376,25.3119],[78.86687,25.30951],[78.8742,25.30594],[78.87497,25.2963],[78.87919,25.28677],[78.87974,25.28318],[78.87791,25.27984],[78.8696,25.2781],[78.8652,25.26121],[78.86017,25.25384],[78.85755,25.24841],[78.8532,25.22879],[78.85186,25.22611],[78.849,25.22416],[78.84229,25.22819],[78.83093,25.24606],[78.81853,25.26097],[78.81287,25.26589],[78.81362,25.27441],[78.81942,25.28905],[78.81999,25.29271],[78.81896,25.29478],[78.81426,25.29791],[78.81095,25.29694],[78.80055,25.28805],[78.79848,25.28796],[78.79418,25.28987],[78.7905,25.29254],[78.79054,25.29811],[78.79402,25.30465],[78.79921,25.30971],[78.8053,25.30945],[78.81753,25.30579],[78.82186,25.3059],[78.82397,25.31151],[78.82895,25.31367],[78.8339,25.31479],[78.84062,25.32627],[78.84298,25.32792],[78.84759,25.32678],[78.85084,25.32729],[78.853,25.33012],[78.85275,25.3336],[78.85051,25.337],[78.84321,25.34194],[78.84509,25.34708],[78.85273,25.35582],[78.86883,25.37193],[78.88216,25.38256],[78.89042,25.38441],[78.89797,25.38373],[78.90851,25.38416],[78.91575,25.38728],[78.91945,25.3919],[78.92286,25.39454],[78.93013,25.39537],[78.93851,25.39807],[78.95088,25.39803],[78.95683,25.39508],[78.9587,25.39137],[78.95473,25.3881],[78.94632,25.38399],[78.93858,25.37205],[78.93381,25.37226],[78.91655,25.37548],[78.90279,25.3757],[78.89987,25.37022],[78.90065,25.36393],[78.90435,25.36013],[78.91379,25.35831],[78.92458,25.35492],[78.93605,25.34674],[78.94614,25.34777],[78.95588,25.36494],[78.96274,25.36802],[78.98194,25.3675],[78.98598,25.37095],[78.98589,25.3778],[78.98329,25.38362],[78.97854,25.38678],[78.97565,25.39147],[78.97304,25.40639],[78.97774,25.41537],[78.97641,25.42003],[78.97001,25.43126],[78.96765,25.43378],[78.95446,25.43743],[78.95008,25.43659],[78.94532,25.43243],[78.94164,25.42678],[78.93662,25.42322],[78.92007,25.43355],[78.9107,25.44181],[78.91378,25.44532],[78.92091,25.44693],[78.92726,25.45703],[78.93498,25.46056],[78.93756,25.46346],[78.94316,25.47488],[78.94368,25.48263],[78.9427,25.48915],[78.9407,25.4931],[78.93372,25.50245],[78.92673,25.50839],[78.92424,25.51157],[78.92394,25.51558],[78.92482,25.5203],[78.92718,25.52226],[78.93981,25.51918],[78.94602,25.52236],[78.94948,25.52598],[78.95142,25.53573],[78.9493,25.54625],[78.94327,25.55191],[78.93834,25.55453],[78.93326,25.55477],[78.93022,25.55164],[78.92614,25.53814],[78.92441,25.53611],[78.9209,25.54033],[78.91795,25.55414],[78.91353,25.5554],[78.90437,25.55419],[78.89311,25.55557],[78.88866,25.55498],[78.88191,25.55181],[78.87654,25.54596],[78.87595,25.53899],[78.8851,25.52801],[78.88592,25.52347],[78.88353,25.51912],[78.8588,25.5137],[78.84869,25.51288],[78.84144,25.51081],[78.83581,25.50479],[78.83446,25.49852],[78.83819,25.49319],[78.85351,25.48621],[78.85627,25.4824],[78.85912,25.47263],[78.86462,25.46199],[78.86469,25.457],[78.86114,25.44716],[78.85277,25.43983],[78.84402,25.42911],[78.84166,25.42732],[78.83839,25.4269],[78.82713,25.43264],[78.82311,25.43662],[78.82128,25.44116],[78.82388,25.44376],[78.83779,25.44233],[78.84462,25.44283],[78.84943,25.44486],[78.85319,25.44925],[78.84957,25.452],[78.84508,25.45369],[78.84084,25.4565],[78.83732,25.46053],[78.83293,25.46321],[78.82269,25.46726],[78.81762,25.47027],[78.79694,25.47833],[78.78914,25.47897],[78.78037,25.47765],[78.77173,25.47146],[78.76791,25.47058],[78.76394,25.47097],[78.75687,25.47703],[78.75098,25.47969],[78.74896,25.48473],[78.74673,25.49468],[78.74347,25.49913],[78.73914,25.49545],[78.73371,25.48487],[78.73201,25.45813],[78.73504,25.45355],[78.73973,25.45049],[78.75103,25.44692],[78.75548,25.44327],[78.75916,25.43327],[78.76243,25.42869],[78.76732,25.4254],[78.77272,25.42488],[78.77946,25.42778],[78.78366,25.43182],[78.78958,25.43477],[78.79684,25.43687],[78.80269,25.43618],[78.81083,25.43304],[78.8192,25.42794],[78.8203,25.42529],[78.81879,25.42221],[78.81505,25.4201],[78.80204,25.42146],[78.79784,25.42054],[78.79561,25.41844],[78.78341,25.41605],[78.76355,25.41416],[78.75673,25.41241],[78.75274,25.41041],[78.75046,25.40755],[78.7478,25.4014],[78.74761,25.39793],[78.74886,25.39345],[78.75082,25.39254],[78.75486,25.39541],[78.75849,25.40013],[78.76199,25.4011],[78.76598,25.39895],[78.76695,25.39694],[78.76721,25.39262],[78.7662,25.38839],[78.76459,25.38739],[78.7617,25.38794],[78.76033,25.38682],[78.76017,25.38521],[78.76212,25.38107],[78.76852,25.37704],[78.76946,25.36926],[78.77306,25.35966],[78.77262,25.35533],[78.77165,25.35329],[78.76358,25.3524],[78.75707,25.34702],[78.74293,25.34408],[78.73251,25.34886],[78.72837,25.3487],[78.72519,25.34769],[78.72085,25.34787],[78.71669,25.3492],[78.7111,25.35353],[78.71086,25.35658],[78.7118,25.36046],[78.71702,25.37114],[78.71629,25.37362],[78.70708,25.37656],[78.70437,25.37815],[78.70339,25.38039],[78.70003,25.3826],[78.69784,25.3816],[78.6964,25.37789],[78.69443,25.37549],[78.6911,25.37534],[78.6788,25.37941],[78.68075,25.38284],[78.68101,25.38602],[78.67665,25.38776],[78.67216,25.38285],[78.6684,25.38142],[78.66512,25.38283],[78.66317,25.38701],[78.66411,25.39084],[78.66391,25.3954],[78.65931,25.40798],[78.66093,25.41164],[78.66377,25.41496],[78.66656,25.41321],[78.67219,25.39931],[78.67635,25.39872],[78.69177,25.41085],[78.70755,25.42096],[78.70871,25.42369],[78.70714,25.42714],[78.70063,25.43404],[78.69656,25.44017],[78.69307,25.44261],[78.689,25.44222],[78.68623,25.43872],[78.68479,25.43455],[78.68219,25.43296],[78.67771,25.43371],[78.66526,25.43864],[78.65998,25.43882],[78.6563,25.43721],[78.65268,25.43267],[78.6461,25.43524],[78.64093,25.43287],[78.63976,25.42783],[78.64476,25.41462],[78.64403,25.40895],[78.64103,25.40435],[78.63581,25.40129],[78.63086,25.40083],[78.62645,25.40187],[78.62414,25.4049],[78.62158,25.41116],[78.61072,25.4119],[78.60616,25.41005],[78.60181,25.40393],[78.59882,25.39137],[78.59551,25.38694],[78.59128,25.3851],[78.58607,25.38492],[78.58329,25.38592],[78.57579,25.39102],[78.57062,25.39275],[78.56828,25.39052],[78.56402,25.37899],[78.56725,25.37689],[78.5718,25.3788],[78.5775,25.37962],[78.58156,25.37707],[78.58492,25.37198],[78.58665,25.35543],[78.58604,25.35017],[78.58334,25.34679],[78.56917,25.3428],[78.56313,25.34347],[78.55185,25.35355],[78.54216,25.35885],[78.53516,25.36072],[78.53225,25.35786],[78.53045,25.35316],[78.5319,25.3496],[78.53754,25.3469],[78.53817,25.34344],[78.53776,25.33403],[78.53859,25.32971],[78.54067,25.32575],[78.54477,25.32436],[78.54853,25.32147],[78.54791,25.31731],[78.546,25.31526],[78.54064,25.31357],[78.53803,25.31193],[78.53213,25.3014],[78.52575,25.30069],[78.52289,25.29921],[78.51214,25.29698],[78.50728,25.299],[78.50284,25.30506],[78.50197,25.31556],[78.49921,25.31869],[78.49456,25.31505],[78.49028,25.30905],[78.48493,25.30355],[78.47877,25.30071],[78.47625,25.29819],[78.47405,25.28788],[78.46627,25.29154],[78.46377,25.29421],[78.45548,25.29814],[78.44757,25.29902],[78.44214,25.29738],[78.43679,25.29188],[78.4343,25.28354],[78.43565,25.27571],[78.44268,25.26812],[78.45139,25.26483],[78.46097,25.26549],[78.49632,25.28697],[78.5037,25.28874],[78.50781,25.28313],[78.50959,25.27831],[78.51232,25.27644],[78.52788,25.28293],[78.53219,25.28039],[78.53258,25.27306],[78.53552,25.26941],[78.54303,25.26685],[78.5493,25.26694],[78.55941,25.26579],[78.56407,25.26423],[78.57142,25.26012],[78.57561,25.25352],[78.57519,25.24897],[78.57283,25.24437],[78.56956,25.23359],[78.56851,25.22238],[78.5696,25.22095],[78.56518,25.21864],[78.55798,25.2118],[78.55014,25.20131],[78.53373,25.18298],[78.52699,25.1781],[78.50697,25.16975],[78.49675,25.15935],[78.48795,25.14699],[78.48053,25.14164],[78.46912,25.13508],[78.46298,25.13252],[78.4562,25.12666],[78.44973,25.12374],[78.42976,25.14033],[78.42564,25.14604],[78.4251,25.14846],[78.42772,25.1526],[78.43553,25.15328],[78.44883,25.15231],[78.4497,25.15283],[78.45317,25.16165],[78.45331,25.16397],[78.45081,25.16751],[78.44599,25.1671],[78.44195,25.16531],[78.43507,25.16459],[78.42411,25.16772],[78.41586,25.17696],[78.41409,25.18069],[78.4104,25.18387],[78.39814,25.18613],[78.39218,25.19009],[78.39042,25.19687],[78.39078,25.20092],[78.39261,25.2036],[78.40134,25.20955],[78.4046,25.21266],[78.4024,25.21609],[78.399,25.21725],[78.38794,25.21872],[78.38201,25.22065],[78.3776,25.22826],[78.37576,25.23655],[78.37138,25.2388],[78.36392,25.23905],[78.36138,25.24097],[78.36205,25.24485],[78.36716,25.25346],[78.36909,25.2603],[78.36213,25.27059],[78.35195,25.27784],[78.35203,25.29279],[78.34819,25.29412],[78.33694,25.29524],[78.32331,25.29942],[78.31848,25.30241],[78.3149,25.30583],[78.31744,25.311],[78.32231,25.31557],[78.33472,25.32245],[78.33766,25.32613],[78.33818,25.33155],[78.33349,25.34384],[78.3301,25.35009],[78.32318,25.35444],[78.30853,25.35919],[78.30312,25.3598],[78.30112,25.36243],[78.30242,25.36961],[78.30664,25.37856],[78.31032,25.37959],[78.3141,25.37896],[78.3176,25.37987],[78.32844,25.39001],[78.33725,25.39579],[78.33944,25.39934],[78.34105,25.41293],[78.34219,25.42582],[78.34355,25.42977],[78.35081,25.44095],[78.35461,25.4496],[78.35629,25.45055],[78.35969,25.45008],[78.36802,25.44137],[78.37316,25.4411],[78.38444,25.44315],[78.39046,25.4467],[78.39274,25.44893],[78.39899,25.46362],[78.40083,25.46601],[78.40852,25.46773],[78.41381,25.47398],[78.42357,25.47226],[78.42784,25.47238],[78.42869,25.47447],[78.4266,25.4853],[78.41943,25.49241],[78.41654,25.49901],[78.41578,25.50275],[78.41671,25.51339],[78.4184,25.51376],[78.42148,25.51005],[78.42342,25.51048],[78.42389,25.5125],[78.42244,25.51612],[78.41818,25.52212],[78.41582,25.52764],[78.4171,25.53244],[78.41947,25.53697],[78.43332,25.55616],[78.43654,25.55857],[78.44073,25.55996],[78.44427,25.55908],[78.44694,25.55368],[78.45024,25.55177],[78.45217,25.54971],[78.45635,25.54746],[78.4624,25.54668],[78.46454,25.55011],[78.46727,25.55927],[78.46935,25.56218],[78.47616,25.5677],[78.48835,25.57513],[78.49353,25.57694],[78.49876,25.57659],[78.51872,25.56768],[78.53481,25.56765],[78.5397,25.56501],[78.54334,25.56159],[78.54909,25.55987],[78.55444,25.55943],[78.56709,25.56252],[78.57281,25.56259],[78.57828,25.56209],[78.58341,25.56002],[78.58852,25.55904],[78.59132,25.56029],[78.59441,25.56766],[78.59763,25.56995],[78.6026,25.56966],[78.60536,25.57033],[78.60752,25.57308],[78.61157,25.58201],[78.61311,25.58359],[78.616,25.5838],[78.62553,25.58172],[78.62869,25.57691],[78.62758,25.56829],[78.63077,25.56574],[78.63621,25.56373],[78.65173,25.56016],[78.656,25.56038],[78.67278,25.57958],[78.68039,25.58654],[78.68444,25.58883],[78.69543,25.5899],[78.70316,25.59457],[78.71405,25.59801],[78.71864,25.60132],[78.73182,25.60319],[78.74033,25.5978],[78.74844,25.59862],[78.75647,25.60307],[78.76293,25.60432],[78.7735,25.60789],[78.7924,25.61023],[78.80211,25.61229],[78.80573,25.61396],[78.81275,25.6193],[78.814,25.62776],[78.81737,25.63309],[78.81884,25.64017],[78.81821,25.65978],[78.81894,25.66919],[78.817,25.67278],[78.80338,25.69083],[78.79703,25.69452],[78.80019,25.70186],[78.79887,25.70523],[78.78517,25.70838],[78.76836,25.71546],[78.76001,25.72207],[78.75566,25.72731],[78.75343,25.73269],[78.75314,25.73877],[78.75444,25.74374],[78.75891,25.74736],[78.76332,25.74764],[78.77007,25.74692],[78.77349,25.75356],[78.78345,25.75616],[78.78765,25.76976],[78.79833,25.78287],[78.80132,25.78813],[78.80728,25.794],[78.81186,25.79497],[78.81943,25.79378],[78.82824,25.79405],[78.83183,25.80224],[78.83138,25.807],[78.83002,25.80986],[78.82399,25.81221],[78.82155,25.81144],[78.81539,25.80615],[78.81176,25.80485],[78.8082,25.80751],[78.8066,25.81284],[78.80975,25.81683],[78.81902,25.82474],[78.82359,25.82576],[78.84291,25.81872],[78.84876,25.81528],[78.84957,25.81144],[78.84851,25.80672],[78.84906,25.79984],[78.85139,25.79595],[78.85745,25.79051],[78.86371,25.78909],[78.86968,25.79385],[78.87108,25.79673],[78.87174,25.81091],[78.87425,25.82427],[78.87355,25.82898],[78.86075,25.83823],[78.85401,25.83339],[78.85178,25.83993],[78.85444,25.85511],[78.85834,25.86022],[78.86568,25.86662],[78.87143,25.86928],[78.87584,25.86959],[78.88054,25.86763],[78.88473,25.86448],[78.89052,25.86488],[78.89157,25.87109],[78.88921,25.88302],[78.893,25.88746],[78.89506,25.89357],[78.89082,25.90095],[78.8853,25.90776],[78.88426,25.91025],[78.90217,25.92044],[78.906,25.92545],[78.90918,25.93208],[78.91191,25.93568],[78.91771,25.94066],[78.92328,25.94395],[78.9318,25.94733],[78.92909,25.94543],[78.93012,25.9447],[78.93279,25.94328],[78.93531,25.94291],[78.9375,25.94395],[78.93806,25.94616],[78.93538,25.95008],[78.94273,25.94907],[78.94975,25.94672],[78.96542,25.93615],[78.97096,25.93805],[78.97948,25.94326],[78.98903,25.94041],[78.99798,25.93546],[79.00001,25.93532],[79.00163,25.93512],[79.00383,25.93338],[79.00795,25.93427],[79.01507,25.93661],[79.0176,25.93831],[79.01888,25.94019],[79.03857,25.93509],[79.041,25.93238],[79.04229,25.92732],[79.07342,25.92083],[79.0859,25.91639],[79.08633,25.91529],[79.08317,25.90803],[79.0822,25.90465],[79.08017,25.90409],[79.07053,25.90684],[79.06182,25.90724],[79.05815,25.90657],[79.05648,25.90245],[79.05665,25.89303],[79.05493,25.89184],[79.05322,25.89168],[79.04907,25.89279],[79.04712,25.89419],[79.04805,25.89928],[79.03954,25.90054],[79.03331,25.90339],[79.03079,25.90369],[79.03027,25.90242],[79.03231,25.89783],[79.03296,25.89254],[79.03506,25.88731],[79.04461,25.87979],[79.04087,25.8711],[79.04066,25.86765],[79.04839,25.86278],[79.06368,25.85632],[79.06652,25.85624],[79.06852,25.86031],[79.07161,25.86051],[79.07591,25.85922],[79.07762,25.86071],[79.07814,25.86225],[79.07798,25.86564],[79.07445,25.86704],[79.07402,25.86916],[79.07476,25.87623],[79.07795,25.88768],[79.07804,25.89032],[79.08715,25.89084],[79.09516,25.88982],[79.10174,25.89172],[79.10818,25.89082],[79.10526,25.8816],[79.10485,25.87637],[79.09797,25.86127],[79.09978,25.85821],[79.10875,25.85631],[79.11467,25.85415],[79.11553,25.85931],[79.1166,25.86068],[79.11487,25.86385],[79.11709,25.86642],[79.1188,25.86756],[79.12719,25.8655],[79.12363,25.85283],[79.12115,25.84871],[79.1217,25.84745],[79.12724,25.84621],[79.12314,25.83457],[79.11813,25.82485],[79.11781,25.82444],[79.1209,25.8211],[79.12744,25.81841],[79.13382,25.81356],[79.1369,25.81239],[79.15129,25.80896],[79.16709,25.80707],[79.1737,25.8056],[79.18716,25.80131],[79.20137,25.79461],[79.2023,25.79346],[79.20747,25.79239],[79.21142,25.79023],[79.21363,25.78988],[79.22636,25.79477],[79.23106,25.79801],[79.23318,25.80156],[79.23763,25.80355],[79.23838,25.80769],[79.24355,25.80675],[79.24756,25.80442],[79.2552,25.79793],[79.26267,25.79379],[79.26607,25.79233],[79.27387,25.79624],[79.27589,25.80247],[79.28148,25.81334],[79.28971,25.81598],[79.29591,25.81558],[79.30199,25.81215],[79.30189,25.80859],[79.29949,25.8023],[79.29471,25.79756],[79.29182,25.79214],[79.29731,25.78543],[79.30711,25.78197],[79.31257,25.7786],[79.31557,25.77576],[79.3173,25.77224],[79.32005,25.76953],[79.32801,25.77095],[79.33436,25.77435],[79.34329,25.78363],[79.34589,25.7851],[79.36088,25.78808],[79.36989,25.78628],[79.37822,25.78667],[79.38127,25.78814],[79.38181,25.78584],[79.3839,25.7861],[79.38715,25.78906],[79.39796,25.79621]]]}}]}