{"type":"FeatureCollection","features":[{"type":"Feature","properties":{"id":"jyotiba-phule-nagar","name":"Jyotiba Phule Nagar","stateId":"uttar-pradesh","stateName":"Uttar Pradesh","censuscode":137,"type":"district"},"geometry":{"type":"Polygon","coordinates":[[[78.52515,29.06978],[78.52729,29.06709],[78.52961,29.06482],[78.53362,29.06147],[78.54234,29.05586],[78.55065,29.05016],[78.55732,29.0417],[78.55519,29.03673],[78.55573,29.0317],[78.5605,29.02722],[78.56742,29.02313],[78.57125,29.01937],[78.572,29.01708],[78.56969,29.00991],[78.55567,28.99576],[78.54936,28.9913],[78.54388,28.99073],[78.54165,28.9905],[78.5319,28.9861],[78.53028,28.98205],[78.54221,28.9696],[78.53956,28.96499],[78.5343,28.9599],[78.52914,28.95518],[78.52711,28.95048],[78.52832,28.94545],[78.53013,28.94208],[78.53491,28.93478],[78.54029,28.92961],[78.54728,28.92857],[78.55186,28.92953],[78.55423,28.93175],[78.55373,28.93826],[78.55787,28.94141],[78.58098,28.944],[78.58548,28.94193],[78.59665,28.93103],[78.60138,28.92768],[78.60733,28.92718],[78.61356,28.92879],[78.61961,28.92884],[78.62621,28.92597],[78.6302,28.9227],[78.63147,28.91189],[78.63091,28.90574],[78.62962,28.90014],[78.62976,28.89702],[78.63679,28.89222],[78.63786,28.88948],[78.63666,28.88507],[78.63682,28.88049],[78.63969,28.87501],[78.64432,28.87047],[78.6518,28.86273],[78.65359,28.86092],[78.65342,28.85816],[78.64744,28.85215],[78.64789,28.84876],[78.65431,28.84304],[78.65434,28.83992],[78.65271,28.83652],[78.64785,28.83336],[78.63817,28.83318],[78.63045,28.83459],[78.62629,28.83391],[78.62236,28.8314],[78.61793,28.82733],[78.6091,28.81542],[78.60559,28.81319],[78.59941,28.8128],[78.59123,28.8126],[78.58635,28.811],[78.58636,28.80091],[78.58256,28.79648],[78.56497,28.79614],[78.5583,28.7969],[78.55531,28.79413],[78.55534,28.79165],[78.554,28.79008],[78.54613,28.7896],[78.53695,28.78827],[78.53499,28.78642],[78.53693,28.78121],[78.53665,28.77846],[78.53429,28.77532],[78.52856,28.77609],[78.52466,28.77972],[78.52185,28.78006],[78.51916,28.77876],[78.51773,28.77654],[78.51433,28.77367],[78.51089,28.77363],[78.50691,28.77571],[78.50405,28.77832],[78.50154,28.78061],[78.49841,28.7814],[78.49664,28.78139],[78.49106,28.77785],[78.48763,28.77754],[78.4844,28.77806],[78.48208,28.78114],[78.48048,28.78325],[78.47722,28.78597],[78.47306,28.78621],[78.47027,28.78398],[78.46478,28.78228],[78.46007,28.78379],[78.45719,28.78954],[78.45487,28.79112],[78.4532,28.79225],[78.44976,28.7925],[78.44454,28.79364],[78.44024,28.79635],[78.4367,28.79595],[78.43288,28.79407],[78.43155,28.79213],[78.42742,28.78934],[78.4239,28.78802],[78.4205,28.78487],[78.42064,28.7824],[78.42881,28.77798],[78.43068,28.77524],[78.43139,28.77187],[78.43321,28.76785],[78.43501,28.76484],[78.43585,28.76123],[78.43622,28.75962],[78.43554,28.75613],[78.43358,28.75455],[78.42985,28.75332],[78.42353,28.75134],[78.42043,28.7491],[78.41903,28.74515],[78.41951,28.73992],[78.42168,28.73724],[78.42501,28.7331],[78.42786,28.7301],[78.42893,28.72736],[78.429,28.72213],[78.42032,28.70893],[78.42168,28.70023],[78.42665,28.69423],[78.43766,28.687],[78.43956,28.68463],[78.43991,28.68188],[78.43786,28.67902],[78.43665,28.67616],[78.4372,28.67115],[78.43853,28.66756],[78.43692,28.66296],[78.43383,28.66073],[78.4303,28.66042],[78.42539,28.66184],[78.42081,28.66234],[78.41566,28.65853],[78.4225,28.61952],[78.42484,28.61532],[78.431,28.61054],[78.43826,28.60619],[78.44082,28.60099],[78.4409,28.59447],[78.43971,28.5896],[78.43458,28.58233],[78.43166,28.57732],[78.43037,28.57208],[78.43073,28.56869],[78.434,28.56505],[78.43385,28.563],[78.43373,28.56138],[78.43098,28.55704],[78.43012,28.55314],[78.4298,28.55171],[78.43056,28.54905],[78.43305,28.54564],[78.43628,28.54021],[78.43643,28.53682],[78.43575,28.53305],[78.43439,28.53115],[78.43115,28.52728],[78.42743,28.52445],[78.42436,28.52211],[78.42191,28.51842],[78.42235,28.51622],[78.42628,28.51023],[78.43077,28.50422],[78.43419,28.5001],[78.43434,28.49615],[78.43235,28.49373],[78.43168,28.49292],[78.43155,28.49075],[78.43143,28.4886],[78.43262,28.48439],[78.43091,28.48034],[78.42137,28.47116],[78.41654,28.46652],[78.41457,28.46279],[78.41154,28.46698],[78.40693,28.46938],[78.40016,28.47109],[78.39263,28.47183],[78.38984,28.46854],[78.3835,28.4691],[78.37962,28.46795],[78.36749,28.4563],[78.35741,28.44846],[78.35332,28.442],[78.34708,28.43463],[78.32641,28.43014],[78.31697,28.43442],[78.31022,28.43434],[78.3084,28.4302],[78.30624,28.42153],[78.29679,28.41755],[78.2941,28.41484],[78.29189,28.40839],[78.291,28.40305],[78.28524,28.40759],[78.28275,28.41297],[78.28135,28.42056],[78.28248,28.42713],[78.28446,28.43328],[78.2884,28.43739],[78.30338,28.44637],[78.30629,28.44955],[78.30597,28.4554],[78.30495,28.45871],[78.28101,28.46709],[78.27737,28.46997],[78.27721,28.48469],[78.27562,28.48815],[78.27197,28.49009],[78.2539,28.49411],[78.23208,28.49414],[78.22533,28.49533],[78.21993,28.49993],[78.21865,28.50468],[78.21756,28.51898],[78.21574,28.52311],[78.21577,28.52534],[78.22118,28.5314],[78.21962,28.53407],[78.21735,28.54136],[78.21609,28.54968],[78.22985,28.57314],[78.21594,28.59969],[78.20941,28.61525],[78.20901,28.6164],[78.20849,28.61789],[78.19636,28.65266],[78.19669,28.6578],[78.19302,28.67031],[78.18382,28.67757],[78.17445,28.69175],[78.15245,28.70667],[78.14674,28.71182],[78.14129,28.72107],[78.14137,28.72992],[78.1404,28.73771],[78.14088,28.74243],[78.13474,28.7571],[78.1335,28.76489],[78.13374,28.77124],[78.1242,28.77622],[78.11988,28.78208],[78.11881,28.78808],[78.12106,28.79752],[78.11877,28.80981],[78.11945,28.81837],[78.11629,28.82046],[78.11684,28.82578],[78.11232,28.82854],[78.11415,28.83308],[78.11473,28.83714],[78.11911,28.84289],[78.11599,28.85631],[78.11315,28.86559],[78.10898,28.8729],[78.10424,28.87776],[78.09902,28.87844],[78.09087,28.8782],[78.08274,28.88063],[78.07391,28.88525],[78.06366,28.8926],[78.06169,28.89658],[78.06225,28.90016],[78.071,28.91472],[78.0587,28.93709],[78.06011,28.94442],[78.06558,28.95556],[78.07826,28.96636],[78.08414,28.9695],[78.09369,28.97668],[78.09702,28.98387],[78.09505,29.00021],[78.10123,29.02571],[78.09758,29.03458],[78.09831,29.03763],[78.09808,29.04064],[78.09579,29.04141],[78.0958,29.04568],[78.09843,29.04978],[78.09865,29.05207],[78.08797,29.05902],[78.08564,29.06393],[78.08472,29.06807],[78.08587,29.06926],[78.08723,29.07076],[78.09069,29.07258],[78.09259,29.07833],[78.10592,29.08345],[78.11029,29.08087],[78.11864,29.07919],[78.13447,29.07756],[78.143,29.07893],[78.14776,29.07748],[78.16009,29.07037],[78.15842,29.05841],[78.16037,29.05398],[78.16296,29.05585],[78.16474,29.0585],[78.1704,29.06048],[78.17304,29.057],[78.17659,29.05654],[78.18095,29.0608],[78.1837,29.06226],[78.19309,29.06],[78.20671,29.05041],[78.21092,29.05569],[78.21507,29.05374],[78.21582,29.05112],[78.2254,29.04878],[78.22746,29.04517],[78.23419,29.04086],[78.24018,29.04055],[78.24382,29.04541],[78.24908,29.04406],[78.25399,29.04456],[78.2589,29.04326],[78.26578,29.04725],[78.26907,29.04654],[78.27697,29.04838],[78.28052,29.04615],[78.28216,29.04415],[78.28734,29.04225],[78.28935,29.04004],[78.29298,29.04094],[78.29451,29.03975],[78.29828,29.04158],[78.3051,29.05116],[78.31158,29.04796],[78.30732,29.04364],[78.30953,29.03958],[78.31376,29.0402],[78.31808,29.03918],[78.32357,29.03903],[78.32761,29.04025],[78.33102,29.04228],[78.33515,29.04161],[78.33705,29.04257],[78.34114,29.04884],[78.35313,29.04291],[78.36691,29.02935],[78.37693,29.03101],[78.38084,29.03379],[78.38511,29.0349],[78.38921,29.03501],[78.39149,29.03404],[78.39364,29.0354],[78.39567,29.03723],[78.40372,29.03083],[78.40944,29.03169],[78.41542,29.03854],[78.41731,29.03882],[78.42155,29.03755],[78.42543,29.0415],[78.43202,29.0449],[78.43593,29.0444],[78.44364,29.04827],[78.44473,29.05051],[78.44766,29.05034],[78.44882,29.0542],[78.45107,29.05719],[78.45573,29.05699],[78.46003,29.05919],[78.46718,29.06433],[78.46875,29.06625],[78.47192,29.06435],[78.47365,29.06503],[78.47757,29.0642],[78.48847,29.06069],[78.4934,29.06426],[78.49911,29.06082],[78.50565,29.0543],[78.50852,29.05874],[78.51244,29.06112],[78.51481,29.06045],[78.51639,29.05906],[78.52515,29.06978]]]}}]}