{"type":"FeatureCollection","features":[{"type":"Feature","properties":{"id":"kanpur-dehat","name":"Kanpur Dehat","stateId":"uttar-pradesh","stateName":"Uttar Pradesh","censuscode":163,"type":"district"},"geometry":{"type":"Polygon","coordinates":[[[79.94639,26.84496],[79.94639,26.84496],[79.95704,26.79506],[79.96121,26.79008],[79.96121,26.78011],[79.95982,26.77014],[79.96122,26.76142],[79.97093,26.7502],[79.97926,26.74024],[79.98204,26.73027],[80.00008,26.71905],[80.00841,26.71282],[80.01812,26.69787],[80.01678,26.64011],[80.01745,26.63316],[80.02301,26.60815],[80.03058,26.60898],[80.04652,26.60797],[80.06428,26.60611],[80.06361,26.59957],[80.06524,26.59327],[80.06995,26.5889],[80.07368,26.59118],[80.08628,26.59249],[80.08957,26.59839],[80.09614,26.59766],[80.09868,26.59384],[80.09723,26.58429],[80.10429,26.5807],[80.11209,26.58367],[80.11451,26.57927],[80.11976,26.57773],[80.1218,26.57333],[80.1258,26.57406],[80.13123,26.56862],[80.13473,26.569],[80.13486,26.56447],[80.13088,26.55788],[80.13657,26.54732],[80.14381,26.54924],[80.1527,26.55514],[80.1557,26.55467],[80.15887,26.54746],[80.14971,26.54649],[80.14941,26.54063],[80.14284,26.53269],[80.14393,26.53167],[80.15508,26.53599],[80.15813,26.53183],[80.16213,26.53348],[80.17593,26.52746],[80.16601,26.52084],[80.16741,26.51603],[80.17315,26.51058],[80.17601,26.50642],[80.17503,26.50417],[80.16542,26.49925],[80.15303,26.49329],[80.14811,26.49008],[80.14356,26.49221],[80.14197,26.49144],[80.14298,26.48813],[80.14376,26.48256],[80.1476,26.47658],[80.15673,26.47078],[80.15137,26.46675],[80.14023,26.47184],[80.13632,26.47375],[80.13195,26.47583],[80.13272,26.46681],[80.12584,26.46765],[80.12507,26.45898],[80.13019,26.45283],[80.13318,26.44822],[80.13441,26.43783],[80.13665,26.43281],[80.1347,26.42716],[80.13745,26.4215],[80.14098,26.41999],[80.13742,26.41536],[80.13944,26.40287],[80.14285,26.40491],[80.14825,26.40538],[80.15319,26.40326],[80.14647,26.40093],[80.14543,26.39823],[80.14823,26.39309],[80.13706,26.39198],[80.14335,26.38752],[80.14706,26.38199],[80.15126,26.38222],[80.1552,26.38203],[80.15563,26.37899],[80.14777,26.37683],[80.14587,26.37158],[80.14016,26.36635],[80.14632,26.36665],[80.15155,26.36597],[80.14908,26.36123],[80.15699,26.35523],[80.14953,26.34722],[80.1519,26.34133],[80.15583,26.33386],[80.15699,26.32773],[80.15701,26.32181],[80.16202,26.319],[80.16446,26.31714],[80.16398,26.31104],[80.16723,26.30562],[80.16687,26.30418],[80.15853,26.30495],[80.1548,26.30319],[80.15536,26.29997],[80.15422,26.30023],[80.15422,26.30023],[80.1516,26.30073],[80.14567,26.30623],[80.14086,26.30916],[80.13488,26.3095],[80.13105,26.30692],[80.12837,26.3023],[80.1301,26.29704],[80.13012,26.29193],[80.1378,26.28421],[80.14189,26.27759],[80.13202,26.27007],[80.13188,26.26674],[80.11755,26.25635],[80.11488,26.26005],[80.11605,26.26299],[80.10737,26.27001],[80.10148,26.27678],[80.09635,26.28016],[80.08692,26.28148],[80.08236,26.28069],[80.06581,26.26947],[80.06018,26.26809],[80.04731,26.27419],[80.04318,26.2743],[80.03566,26.27117],[80.0319,26.26371],[80.02872,26.26407],[80.0223,26.26428],[80.01709,26.2637],[80.01364,26.26147],[80.0097,26.25723],[80.00711,26.25181],[80.00161,26.24214],[80.00778,26.23763],[80.01134,26.23399],[80.00785,26.22465],[80.00345,26.21765],[80.00808,26.21443],[80.0079,26.20984],[80.00491,26.19348],[80.00915,26.19026],[80.01637,26.18777],[80.02262,26.17814],[80.01153,26.16829],[80.00353,26.16807],[80.00001,26.16503],[79.99865,26.1656],[79.9942,26.16093],[79.9903,26.1586],[79.98383,26.15474],[79.97711,26.1551],[79.97309,26.15699],[79.96746,26.15616],[79.96634,26.15524],[79.96535,26.15766],[79.9615,26.16081],[79.95298,26.16211],[79.94284,26.16],[79.93993,26.15783],[79.93796,26.15182],[79.93779,26.14825],[79.93921,26.12479],[79.93471,26.11669],[79.92675,26.09443],[79.92481,26.09157],[79.92158,26.0908],[79.91439,26.08918],[79.899,26.09277],[79.88711,26.09975],[79.88304,26.10372],[79.88063,26.10444],[79.86808,26.11447],[79.86498,26.11425],[79.85968,26.11257],[79.84844,26.10392],[79.83903,26.101],[79.82762,26.1007],[79.81207,26.10211],[79.79814,26.10576],[79.79007,26.10684],[79.78689,26.10841],[79.77742,26.12061],[79.77229,26.1256],[79.74495,26.13463],[79.74406,26.14002],[79.74566,26.1444],[79.75898,26.15463],[79.76166,26.15897],[79.76549,26.16285],[79.76904,26.16697],[79.76977,26.16973],[79.76976,26.17588],[79.76805,26.18114],[79.76586,26.18301],[79.75842,26.18402],[79.74288,26.18294],[79.73024,26.18419],[79.71376,26.19256],[79.70923,26.19377],[79.6997,26.19452],[79.68499,26.19849],[79.6726,26.20385],[79.65858,26.20822],[79.65577,26.20974],[79.65048,26.21071],[79.64778,26.21292],[79.64713,26.21457],[79.64732,26.21836],[79.64854,26.22291],[79.65576,26.23345],[79.65538,26.23768],[79.65221,26.2423],[79.64621,26.24464],[79.64068,26.24515],[79.62729,26.24854],[79.60173,26.25133],[79.5835,26.25631],[79.58094,26.2576],[79.57908,26.26285],[79.56764,26.26828],[79.54912,26.27521],[79.5421,26.2812],[79.53719,26.2871],[79.53016,26.29786],[79.52777,26.30477],[79.52896,26.31437],[79.53018,26.31709],[79.53251,26.31913],[79.53578,26.32106],[79.54184,26.3232],[79.55361,26.33053],[79.56466,26.3355],[79.56943,26.33889],[79.57143,26.3419],[79.57436,26.34928],[79.57498,26.3548],[79.57044,26.36094],[79.56013,26.36173],[79.55463,26.35953],[79.54509,26.35229],[79.54139,26.34862],[79.52629,26.34256],[79.51619,26.3465],[79.51367,26.3483],[79.50814,26.35654],[79.50543,26.35891],[79.5037,26.36376],[79.50941,26.36476],[79.5128,26.36733],[79.53491,26.3884],[79.54745,26.40325],[79.55424,26.40403],[79.55842,26.40535],[79.56268,26.40948],[79.5712,26.42147],[79.57528,26.42921],[79.57816,26.43281],[79.57807,26.4344],[79.57548,26.43666],[79.57209,26.44208],[79.57056,26.44618],[79.57267,26.44913],[79.5755,26.44797],[79.57989,26.4482],[79.58327,26.45134],[79.59268,26.46403],[79.59601,26.46298],[79.59955,26.46355],[79.60223,26.4676],[79.59743,26.47729],[79.59911,26.4804],[79.6008,26.48169],[79.60417,26.48219],[79.60966,26.4853],[79.61891,26.48811],[79.62213,26.48982],[79.62355,26.49231],[79.61401,26.50021],[79.61322,26.50209],[79.6181,26.50767],[79.62469,26.51354],[79.62914,26.51022],[79.63941,26.508],[79.64058,26.51117],[79.63825,26.51401],[79.63857,26.51734],[79.64113,26.52104],[79.64135,26.52776],[79.64028,26.53508],[79.63831,26.53925],[79.63091,26.54426],[79.64012,26.55034],[79.6444,26.56227],[79.64683,26.56482],[79.64981,26.57037],[79.64941,26.57168],[79.64475,26.57226],[79.63904,26.57545],[79.63611,26.57926],[79.63632,26.59056],[79.63632,26.59475],[79.63802,26.60022],[79.6424,26.60618],[79.64524,26.6076],[79.64894,26.60741],[79.65358,26.60386],[79.65566,26.60544],[79.66201,26.61533],[79.67037,26.61354],[79.67456,26.61445],[79.68411,26.62834],[79.70476,26.6454],[79.7116,26.64858],[79.71208,26.65105],[79.71711,26.65501],[79.72129,26.66109],[79.72321,26.66553],[79.71744,26.67199],[79.71606,26.67508],[79.72197,26.68966],[79.72194,26.69167],[79.71671,26.70508],[79.71385,26.70884],[79.70623,26.71195],[79.70379,26.71697],[79.70047,26.71688],[79.69816,26.71799],[79.69504,26.72655],[79.69227,26.72887],[79.68746,26.73076],[79.67864,26.7357],[79.67635,26.73934],[79.67669,26.74285],[79.69062,26.74497],[79.69426,26.74455],[79.69903,26.74541],[79.70463,26.74652],[79.70679,26.74764],[79.71666,26.74907],[79.72141,26.75098],[79.72736,26.75443],[79.73326,26.76517],[79.73697,26.76441],[79.74341,26.76454],[79.74751,26.76787],[79.74926,26.77064],[79.75768,26.77968],[79.75916,26.78332],[79.76647,26.7803],[79.77082,26.77973],[79.77378,26.77764],[79.77688,26.77027],[79.77945,26.76951],[79.79142,26.77538],[79.79962,26.7827],[79.80463,26.78494],[79.80902,26.78539],[79.81292,26.78469],[79.81459,26.78346],[79.81648,26.78124],[79.81925,26.77507],[79.82614,26.77274],[79.8284,26.77168],[79.83108,26.77177],[79.83611,26.77223],[79.84173,26.77168],[79.84679,26.77467],[79.85313,26.7825],[79.86737,26.79646],[79.86821,26.80072],[79.85684,26.80195],[79.85201,26.80436],[79.85279,26.80879],[79.86027,26.82685],[79.86428,26.82713],[79.86846,26.82495],[79.87247,26.82161],[79.88512,26.81512],[79.88958,26.81058],[79.89518,26.81225],[79.89802,26.81424],[79.89902,26.81643],[79.89906,26.8181],[79.89387,26.82906],[79.89349,26.83411],[79.89371,26.84191],[79.89744,26.84966],[79.90685,26.84696],[79.91598,26.8469],[79.92349,26.84941],[79.92905,26.85361],[79.93833,26.84642],[79.94639,26.84496]]]}}]}