{"type":"FeatureCollection","features":[{"type":"Feature","properties":{"id":"kanpur-nagar","name":"Kanpur Nagar","stateId":"uttar-pradesh","stateName":"Uttar Pradesh","censuscode":164,"type":"district"},"geometry":{"type":"Polygon","coordinates":[[[80.00854,26.9523],[80.01318,26.95202],[80.02078,26.95263],[80.02776,26.93956],[80.03871,26.92872],[80.05165,26.91907],[80.06269,26.91898],[80.06759,26.91892],[80.07498,26.9125],[80.07621,26.9093],[80.08903,26.89655],[80.09054,26.89428],[80.0883,26.88769],[80.09982,26.87857],[80.10687,26.87164],[80.10806,26.8639],[80.10527,26.85342],[80.10501,26.83773],[80.10915,26.82246],[80.11722,26.80464],[80.12165,26.79573],[80.122,26.78529],[80.11999,26.77539],[80.12632,26.75887],[80.1332,26.74281],[80.14128,26.7324],[80.15103,26.7254],[80.15696,26.72207],[80.16803,26.70705],[80.18652,26.68676],[80.20406,26.68299],[80.22413,26.6854],[80.23324,26.68728],[80.23944,26.68568],[80.24563,26.68202],[80.25913,26.66948],[80.26724,26.65923],[80.2706,26.65375],[80.2721,26.64998],[80.28402,26.63457],[80.28459,26.63384],[80.29326,26.62144],[80.30399,26.6057],[80.30457,26.59979],[80.30145,26.58523],[80.29621,26.57168],[80.29509,26.55989],[80.29646,26.54767],[80.30397,26.53391],[80.30981,26.52558],[80.32283,26.51355],[80.3276,26.50889],[80.34021,26.4934],[80.34789,26.48572],[80.36209,26.47628],[80.37846,26.46978],[80.38586,26.46871],[80.39396,26.46793],[80.40011,26.46431],[80.40536,26.45661],[80.40408,26.44155],[80.41167,26.43496],[80.41869,26.42854],[80.42244,26.42393],[80.43383,26.41801],[80.44447,26.41162],[80.45549,26.40506],[80.46767,26.39702],[80.48139,26.38825],[80.49671,26.37817],[80.5067,26.37206],[80.52142,26.36318],[80.52864,26.36066],[80.53332,26.35754],[80.5355,26.35044],[80.53627,26.34413],[80.5387,26.33698],[80.53666,26.32605],[80.53722,26.32179],[80.5437,26.31048],[80.55475,26.28842],[80.56114,26.2662],[80.56161,26.26458],[80.56279,26.25621],[80.56094,26.24557],[80.56068,26.23408],[80.5643,26.22894],[80.56706,26.22668],[80.55635,26.22341],[80.54583,26.22051],[80.54209,26.2145],[80.54093,26.20472],[80.54445,26.20188],[80.54214,26.19905],[80.53892,26.1973],[80.53065,26.19831],[80.52373,26.19865],[80.52061,26.19294],[80.52463,26.19126],[80.52111,26.18806],[80.51527,26.18715],[80.50993,26.18819],[80.50245,26.19271],[80.49856,26.19405],[80.49249,26.19188],[80.48319,26.18357],[80.48272,26.17978],[80.48104,26.17718],[80.47475,26.18078],[80.47346,26.18181],[80.45016,26.1801],[80.44539,26.16914],[80.43203,26.16476],[80.43341,26.15507],[80.43113,26.15378],[80.41283,26.16141],[80.40813,26.16102],[80.40202,26.15677],[80.38939,26.14453],[80.38573,26.14265],[80.37229,26.14073],[80.36395,26.13726],[80.35531,26.12546],[80.34205,26.12457],[80.33276,26.11535],[80.32864,26.1153],[80.3244,26.11348],[80.32034,26.10327],[80.32162,26.09071],[80.3156,26.08576],[80.3141,26.08345],[80.31337,26.07264],[80.30236,26.06051],[80.29286,26.06576],[80.2912,26.0662],[80.28305,26.05634],[80.274,26.06021],[80.27123,26.06059],[80.2684,26.05521],[80.26566,26.05472],[80.26314,26.04837],[80.25912,26.04747],[80.25596,26.04519],[80.26127,26.04013],[80.25735,26.03819],[80.25652,26.03485],[80.26022,26.0315],[80.25415,26.02539],[80.26039,26.02104],[80.25623,26.01852],[80.25293,26.01221],[80.25023,26.00741],[80.24953,26.00063],[80.24803,25.99028],[80.24466,25.98678],[80.22907,25.97601],[80.22321,25.97497],[80.21725,25.9717],[80.21555,25.96772],[80.21739,25.96273],[80.22493,25.96052],[80.22738,25.95759],[80.23457,25.92785],[80.2368,25.92245],[80.21427,25.91735],[80.21068,25.92012],[80.20774,25.92392],[80.19534,25.94802],[80.1673,25.95456],[80.14902,25.96222],[80.14167,25.96712],[80.1362,25.97554],[80.12931,25.98071],[80.11644,25.98736],[80.11177,25.98762],[80.0969,25.99158],[80.08488,25.99857],[80.08398,26.00024],[80.08366,26.00514],[80.08598,26.00827],[80.09044,26.01079],[80.09672,26.01235],[80.10436,26.01894],[80.10846,26.02455],[80.11207,26.0339],[80.11434,26.04594],[80.11329,26.0546],[80.10806,26.06385],[80.10348,26.07063],[80.09528,26.07788],[80.08822,26.07952],[80.07559,26.07982],[80.06508,26.07846],[80.05341,26.07536],[80.04208,26.07254],[80.02754,26.06965],[80.01274,26.06752],[80.00001,26.06874],[79.99313,26.06685],[79.97738,26.06912],[79.96948,26.07072],[79.96237,26.0742],[79.95942,26.07619],[79.95806,26.07814],[79.95715,26.08266],[79.9608,26.09794],[79.96564,26.11293],[79.96754,26.12252],[79.96985,26.12751],[79.9714,26.13371],[79.97023,26.14422],[79.96798,26.15351],[79.96634,26.15524],[79.96746,26.15616],[79.97309,26.15699],[79.97711,26.1551],[79.98383,26.15474],[79.9903,26.1586],[79.9942,26.16093],[79.99865,26.1656],[80.00001,26.16503],[80.00353,26.16807],[80.01153,26.16829],[80.02262,26.17814],[80.01637,26.18777],[80.00915,26.19026],[80.00491,26.19348],[80.0079,26.20984],[80.00808,26.21443],[80.00345,26.21765],[80.00785,26.22465],[80.01134,26.23399],[80.00778,26.23763],[80.00161,26.24214],[80.00711,26.25181],[80.0097,26.25723],[80.01364,26.26147],[80.01709,26.2637],[80.0223,26.26428],[80.02872,26.26407],[80.0319,26.26371],[80.03566,26.27117],[80.04318,26.2743],[80.04731,26.27419],[80.06018,26.26809],[80.06581,26.26947],[80.08236,26.28069],[80.08692,26.28148],[80.09635,26.28016],[80.10148,26.27678],[80.10737,26.27001],[80.11605,26.26299],[80.11488,26.26005],[80.11755,26.25635],[80.13188,26.26674],[80.13202,26.27007],[80.14189,26.27759],[80.1378,26.28421],[80.13012,26.29193],[80.1301,26.29704],[80.12837,26.3023],[80.13105,26.30692],[80.13488,26.3095],[80.14086,26.30916],[80.14567,26.30623],[80.1516,26.30073],[80.15422,26.30023],[80.15422,26.30023],[80.15536,26.29997],[80.1548,26.30319],[80.15853,26.30495],[80.16687,26.30418],[80.16723,26.30562],[80.16398,26.31104],[80.16446,26.31714],[80.16202,26.319],[80.15701,26.32181],[80.15699,26.32773],[80.15583,26.33386],[80.1519,26.34133],[80.14953,26.34722],[80.15699,26.35523],[80.14908,26.36123],[80.15155,26.36597],[80.14632,26.36665],[80.14016,26.36635],[80.14587,26.37158],[80.14777,26.37683],[80.15563,26.37899],[80.1552,26.38203],[80.15126,26.38222],[80.14706,26.38199],[80.14335,26.38752],[80.13706,26.39198],[80.14823,26.39309],[80.14543,26.39823],[80.14647,26.40093],[80.15319,26.40326],[80.14825,26.40538],[80.14285,26.40491],[80.13944,26.40287],[80.13742,26.41536],[80.14098,26.41999],[80.13745,26.4215],[80.1347,26.42716],[80.13665,26.43281],[80.13441,26.43783],[80.13318,26.44822],[80.13019,26.45283],[80.12507,26.45898],[80.12584,26.46765],[80.13272,26.46681],[80.13195,26.47583],[80.13632,26.47375],[80.14023,26.47184],[80.15137,26.46675],[80.15673,26.47078],[80.1476,26.47658],[80.14376,26.48256],[80.14298,26.48813],[80.14197,26.49144],[80.14356,26.49221],[80.14811,26.49008],[80.15303,26.49329],[80.16542,26.49925],[80.17503,26.50417],[80.17601,26.50642],[80.17315,26.51058],[80.16741,26.51603],[80.16601,26.52084],[80.17593,26.52746],[80.16213,26.53348],[80.15813,26.53183],[80.15508,26.53599],[80.14393,26.53167],[80.14284,26.53269],[80.14941,26.54063],[80.14971,26.54649],[80.15887,26.54746],[80.1557,26.55467],[80.1527,26.55514],[80.14381,26.54924],[80.13657,26.54732],[80.13088,26.55788],[80.13486,26.56447],[80.13473,26.569],[80.13123,26.56862],[80.1258,26.57406],[80.1218,26.57333],[80.11976,26.57773],[80.11451,26.57927],[80.11209,26.58367],[80.10429,26.5807],[80.09723,26.58429],[80.09868,26.59384],[80.09614,26.59766],[80.08957,26.59839],[80.08628,26.59249],[80.07368,26.59118],[80.06995,26.5889],[80.06524,26.59327],[80.06361,26.59957],[80.06428,26.60611],[80.04652,26.60797],[80.03058,26.60898],[80.02301,26.60815],[80.01745,26.63316],[80.01678,26.64011],[80.01812,26.69787],[80.00841,26.71282],[80.00008,26.71905],[79.98204,26.73027],[79.97926,26.74024],[79.97093,26.7502],[79.96122,26.76142],[79.95982,26.77014],[79.96121,26.78011],[79.96121,26.79008],[79.95704,26.79506],[79.94639,26.84496],[79.94639,26.84496],[79.94639,26.84496],[79.94919,26.84546],[79.95265,26.85027],[79.95652,26.85169],[79.96562,26.85971],[79.94341,26.87443],[79.94306,26.87684],[79.94963,26.88235],[79.94971,26.88583],[79.95343,26.88999],[79.94548,26.89683],[79.94576,26.90054],[79.9527,26.9177],[79.95138,26.92126],[79.94679,26.92009],[79.94243,26.92123],[79.94088,26.92287],[79.94578,26.9289],[79.9447,26.94374],[79.95501,26.94619],[79.96095,26.95031],[79.96312,26.9503],[79.9684,26.94149],[79.97452,26.94205],[79.97737,26.93973],[79.97847,26.93802],[79.98005,26.92988],[79.98117,26.92795],[79.98316,26.92691],[79.98565,26.92724],[79.98834,26.93107],[79.99004,26.93254],[79.99418,26.93368],[79.99466,26.93519],[79.98029,26.9442],[79.98039,26.94674],[79.98641,26.94915],[79.99559,26.95845],[80.00001,26.96063],[80.00423,26.95828],[80.00647,26.95595],[80.00854,26.9523]]]}}]}