{"type":"FeatureCollection","features":[{"type":"Feature","properties":{"id":"kansiram-nagar","name":"Kansiram Nagar","stateId":"uttar-pradesh","stateName":"Uttar Pradesh","censuscode":202,"type":"district"},"geometry":{"type":"Polygon","coordinates":[[[78.65047,28.03882],[78.6634,28.03753],[78.67153,28.03495],[78.66818,28.03189],[78.66967,28.02882],[78.67644,28.02592],[78.68022,28.00067],[78.70262,27.99224],[78.70422,27.98904],[78.70558,27.98283],[78.71188,27.97563],[78.71835,27.97015],[78.7215,27.96461],[78.72774,27.96106],[78.73263,27.96011],[78.73685,27.96133],[78.74148,27.95657],[78.74825,27.95758],[78.76154,27.94957],[78.76845,27.9618],[78.77278,27.96185],[78.78776,27.95202],[78.79221,27.95132],[78.79546,27.95186],[78.80073,27.95063],[78.80407,27.95224],[78.80666,27.95516],[78.80835,27.95466],[78.81782,27.95217],[78.82268,27.94314],[78.82847,27.93628],[78.83967,27.93225],[78.85157,27.92525],[78.85451,27.91923],[78.85959,27.91533],[78.86574,27.91378],[78.87135,27.91044],[78.88005,27.91289],[78.88942,27.91678],[78.90582,27.89544],[78.90926,27.88922],[78.91318,27.88429],[78.92318,27.87543],[78.92366,27.87013],[78.91946,27.86048],[78.92083,27.85529],[78.92008,27.85283],[78.92093,27.85103],[78.93164,27.84907],[78.93656,27.84651],[78.94072,27.84804],[78.94729,27.85186],[78.95086,27.85216],[78.95807,27.84994],[78.96233,27.8498],[78.96515,27.85067],[78.97249,27.85808],[78.9754,27.86659],[78.98724,27.87309],[79,27.86572],[79.00153,27.86583],[79.01438,27.85968],[79.01641,27.85792],[79.0129,27.85304],[79.00569,27.84529],[79.00292,27.83997],[79.00619,27.83948],[79.01217,27.84133],[79.01661,27.84003],[79.02209,27.8422],[79.03028,27.83999],[79.03293,27.83792],[79.04661,27.83684],[79.05431,27.83821],[79.07255,27.84339],[79.07446,27.84303],[79.0762,27.8399],[79.078,27.83844],[79.08366,27.83807],[79.08492,27.83887],[79.09235,27.83669],[79.09637,27.83164],[79.09932,27.83116],[79.10174,27.83185],[79.10891,27.83759],[79.12316,27.84714],[79.12737,27.84528],[79.13214,27.84185],[79.14094,27.83516],[79.14405,27.83278],[79.14726,27.82925],[79.13992,27.81859],[79.14295,27.81628],[79.14812,27.81626],[79.15015,27.81904],[79.15331,27.82135],[79.15624,27.8227],[79.16027,27.82234],[79.16285,27.81896],[79.16541,27.80886],[79.16564,27.80289],[79.16726,27.79754],[79.1694,27.77922],[79.17143,27.77746],[79.17529,27.77626],[79.17307,27.77241],[79.17609,27.76911],[79.18284,27.76552],[79.18816,27.7639],[79.19203,27.75948],[79.19661,27.75084],[79.20181,27.74601],[79.21179,27.7393],[79.21331,27.73469],[79.21104,27.72884],[79.21024,27.72418],[79.21061,27.70978],[79.20928,27.70697],[79.19501,27.71298],[79.18315,27.71416],[79.17515,27.70634],[79.17272,27.7056],[79.16545,27.70583],[79.16016,27.70464],[79.15414,27.70079],[79.14954,27.70152],[79.14524,27.70075],[79.14298,27.70401],[79.13567,27.70257],[79.13256,27.69233],[79.12578,27.68652],[79.12451,27.68475],[79.12426,27.68254],[79.12425,27.68241],[79.13238,27.67825],[79.13648,27.66802],[79.13454,27.66348],[79.13448,27.65924],[79.13846,27.64244],[79.13599,27.63871],[79.13203,27.6362],[79.13246,27.63354],[79.13423,27.63179],[79.14602,27.62861],[79.15876,27.62411],[79.17012,27.61568],[79.18038,27.61496],[79.18414,27.61331],[79.18429,27.60819],[79.18549,27.60573],[79.18481,27.60169],[79.17655,27.59159],[79.17316,27.58877],[79.17291,27.58781],[79.17684,27.58568],[79.17495,27.58427],[79.1776,27.58357],[79.16903,27.5761],[79.16013,27.56993],[79.14913,27.56926],[79.14023,27.56369],[79.12585,27.55504],[79.11349,27.55252],[79.1073,27.55309],[79.10246,27.55736],[79.09618,27.56958],[79.08925,27.57689],[79.08166,27.58113],[79.06925,27.58474],[79.0596,27.58774],[79.05063,27.59259],[79.03955,27.60233],[79.02711,27.61022],[79.02017,27.61753],[79.01733,27.62915],[79.01726,27.63834],[79.01719,27.64753],[79.01026,27.653],[78.99369,27.66025],[78.98272,27.65589],[78.97933,27.64852],[78.97875,27.63626],[78.97887,27.62094],[78.9803,27.61483],[78.9834,27.59785],[78.97764,27.59244],[78.97432,27.58775],[78.97387,27.58062],[78.96878,27.56791],[78.96566,27.56402],[78.96265,27.56291],[78.95913,27.56435],[78.95406,27.5708],[78.94943,27.57122],[78.94039,27.56671],[78.93336,27.5606],[78.92887,27.55881],[78.91906,27.55991],[78.91433,27.55834],[78.90503,27.54936],[78.89104,27.5477],[78.89299,27.55701],[78.89834,27.56842],[78.89502,27.5769],[78.89448,27.58215],[78.89139,27.58673],[78.88735,27.58825],[78.88253,27.5882],[78.87919,27.58959],[78.87463,27.59002],[78.87124,27.58485],[78.87382,27.58067],[78.87321,27.57848],[78.86544,27.57704],[78.86159,27.57822],[78.85898,27.57808],[78.85721,27.58131],[78.85968,27.58469],[78.86057,27.59187],[78.85985,27.59385],[78.84099,27.60098],[78.82904,27.60679],[78.82421,27.60308],[78.81643,27.60442],[78.80971,27.60151],[78.80767,27.60791],[78.80253,27.61169],[78.79822,27.6183],[78.79296,27.61959],[78.78526,27.62914],[78.77779,27.63029],[78.77873,27.63334],[78.76533,27.6296],[78.7581,27.63028],[78.75229,27.63181],[78.74874,27.63597],[78.74409,27.63523],[78.74397,27.64235],[78.73907,27.64577],[78.73736,27.64956],[78.72582,27.662],[78.72364,27.66781],[78.72098,27.67103],[78.70947,27.67125],[78.70678,27.6732],[78.7033,27.68159],[78.69759,27.68583],[78.69675,27.69926],[78.69322,27.70418],[78.69457,27.71244],[78.69842,27.71505],[78.69023,27.72656],[78.68878,27.73068],[78.68717,27.7402],[78.68283,27.73939],[78.67569,27.73492],[78.66729,27.73816],[78.6613,27.74414],[78.65663,27.74658],[78.6511,27.74654],[78.64396,27.74113],[78.63702,27.74053],[78.62219,27.74345],[78.61545,27.74279],[78.60995,27.74454],[78.60586,27.74778],[78.60392,27.75724],[78.60388,27.76581],[78.60031,27.76932],[78.58919,27.7697],[78.57682,27.76749],[78.56677,27.76728],[78.55553,27.78351],[78.55218,27.78488],[78.53916,27.7781],[78.53706,27.77402],[78.53043,27.76913],[78.53605,27.75853],[78.53604,27.75372],[78.52637,27.74958],[78.52351,27.74556],[78.51845,27.74313],[78.5146,27.73993],[78.5146,27.73993],[78.50761,27.74065],[78.4946,27.74545],[78.48741,27.74918],[78.48741,27.74918],[78.4756,27.7583],[78.47536,27.75874],[78.47405,27.76116],[78.47473,27.76433],[78.48145,27.76719],[78.48294,27.7688],[78.48233,27.77043],[78.48221,27.77051],[78.47999,27.7719],[78.47996,27.77222],[78.47972,27.77428],[78.4808,27.7782],[78.47989,27.78121],[78.48326,27.78892],[78.48282,27.78997],[78.48275,27.78997],[78.48078,27.78982],[78.47922,27.79135],[78.47566,27.79527],[78.4755,27.79561],[78.47393,27.799],[78.47408,27.80067],[78.47538,27.80227],[78.47554,27.80835],[78.47875,27.8076],[78.48689,27.80571],[78.48939,27.80279],[78.49346,27.80303],[78.49591,27.80086],[78.50388,27.79845],[78.50931,27.80023],[78.51725,27.81147],[78.51825,27.81457],[78.51785,27.81741],[78.51457,27.81948],[78.51593,27.82455],[78.51542,27.82838],[78.51067,27.82989],[78.5104,27.83301],[78.51427,27.84037],[78.50566,27.84731],[78.49382,27.85464],[78.49482,27.85745],[78.49763,27.85811],[78.49998,27.8578],[78.50934,27.86693],[78.50776,27.87089],[78.51066,27.8738],[78.51178,27.87609],[78.51409,27.87729],[78.51434,27.88088],[78.5173,27.88673],[78.52211,27.89338],[78.5347,27.8968],[78.53469,27.89976],[78.53062,27.90403],[78.53286,27.90904],[78.54033,27.90605],[78.54667,27.90827],[78.55222,27.90913],[78.5558,27.91412],[78.5686,27.92633],[78.57578,27.93688],[78.57004,27.94049],[78.58053,27.95104],[78.58705,27.95646],[78.58523,27.96198],[78.59001,27.96989],[78.5956,27.97277],[78.59909,27.97607],[78.60031,27.98023],[78.59443,27.99436],[78.59988,28.00096],[78.60877,28.02975],[78.6144,28.03541],[78.62059,28.03883],[78.63083,28.03798],[78.63886,28.04556],[78.64469,28.04164],[78.65047,28.03882]]]}}]}