{"type":"FeatureCollection","features":[{"type":"Feature","properties":{"id":"kheri","name":"Kheri","stateId":"uttar-pradesh","stateName":"Uttar Pradesh","censuscode":153,"type":"district"},"geometry":{"type":"Polygon","coordinates":[[[81.05821,28.40383],[81.04713,28.38762],[81.04003,28.37922],[81.03693,28.37241],[81.03761,28.36563],[81.05238,28.35991],[81.05555,28.3581],[81.05874,28.35272],[81.06152,28.34276],[81.0588,28.33402],[81.05211,28.32468],[81.04806,28.31737],[81.03754,28.29445],[81.0361,28.28933],[81.03965,28.28585],[81.05737,28.2761],[81.06203,28.27056],[81.06206,28.25839],[81.06098,28.24886],[81.06387,28.24246],[81.06883,28.23534],[81.07497,28.22944],[81.07908,28.22685],[81.09609,28.21946],[81.10196,28.21477],[81.116,28.19489],[81.12661,28.17462],[81.12799,28.16872],[81.1325,28.16329],[81.14443,28.15156],[81.15811,28.14174],[81.16405,28.13893],[81.17724,28.12729],[81.18658,28.11631],[81.18801,28.11224],[81.18744,28.10911],[81.1795,28.09628],[81.16484,28.0795],[81.1587,28.06785],[81.16037,28.06343],[81.16574,28.05713],[81.16696,28.05351],[81.1663,28.0491],[81.167,28.04467],[81.17447,28.03836],[81.18633,28.02324],[81.19322,28.0163],[81.21007,28.00054],[81.21428,27.99526],[81.2245,27.98846],[81.2277,27.98428],[81.22917,27.98078],[81.23269,27.97651],[81.23644,27.97525],[81.24416,27.97447],[81.24677,27.9673],[81.2502,27.95346],[81.2583,27.94926],[81.27311,27.94616],[81.28,27.94304],[81.29205,27.93199],[81.29892,27.92491],[81.30172,27.91883],[81.30086,27.91504],[81.29814,27.91104],[81.30044,27.90886],[81.30675,27.90735],[81.30616,27.90465],[81.29696,27.89609],[81.28133,27.88623],[81.27913,27.88401],[81.28196,27.87178],[81.28109,27.86474],[81.2833,27.85613],[81.28585,27.85068],[81.28964,27.84894],[81.29589,27.84817],[81.29423,27.83826],[81.29412,27.83013],[81.29559,27.82857],[81.29874,27.82759],[81.30698,27.82663],[81.3083,27.82049],[81.30783,27.81608],[81.30498,27.81369],[81.28222,27.80804],[81.2808,27.80564],[81.28148,27.80191],[81.2906,27.79626],[81.29463,27.79092],[81.29577,27.78638],[81.2953,27.78351],[81.28439,27.76487],[81.29624,27.75313],[81.2968,27.74935],[81.29742,27.74401],[81.29695,27.74126],[81.29937,27.73557],[81.30185,27.73189],[81.30139,27.72869],[81.30221,27.72599],[81.30116,27.72226],[81.3041,27.71967],[81.30609,27.7179],[81.30104,27.71115],[81.29494,27.70097],[81.29512,27.69822],[81.30046,27.68615],[81.30346,27.68116],[81.29387,27.67987],[81.28075,27.67924],[81.27539,27.67559],[81.27184,27.67412],[81.26187,27.67323],[81.26001,27.67376],[81.25263,27.67729],[81.25099,27.6833],[81.25332,27.68754],[81.26788,27.69311],[81.27009,27.69544],[81.27057,27.70181],[81.26732,27.70996],[81.26476,27.71203],[81.25975,27.71406],[81.25403,27.71425],[81.25076,27.71513],[81.24748,27.71857],[81.24745,27.72689],[81.24599,27.7289],[81.2362,27.72745],[81.23171,27.73079],[81.22965,27.72884],[81.23034,27.72603],[81.22988,27.72397],[81.22196,27.72296],[81.22021,27.72171],[81.22002,27.71908],[81.21542,27.71468],[81.2115,27.71561],[81.20772,27.719],[81.20348,27.71879],[81.20209,27.72371],[81.20056,27.72613],[81.19779,27.72764],[81.1931,27.72828],[81.18982,27.73081],[81.18617,27.73243],[81.18476,27.73599],[81.18747,27.73815],[81.19159,27.73981],[81.19297,27.74622],[81.19744,27.75303],[81.20016,27.75543],[81.20415,27.75605],[81.20827,27.755],[81.21647,27.74872],[81.22809,27.75396],[81.23042,27.75739],[81.22985,27.76026],[81.22614,27.76411],[81.21572,27.76679],[81.21154,27.76967],[81.20281,27.77399],[81.19993,27.77698],[81.19235,27.78079],[81.18149,27.78541],[81.17872,27.78513],[81.16665,27.77949],[81.16119,27.77882],[81.15341,27.78062],[81.14993,27.78219],[81.14775,27.78402],[81.14577,27.78781],[81.14472,27.79894],[81.14501,27.80708],[81.14353,27.80771],[81.13185,27.8011],[81.1269,27.80415],[81.1212,27.79304],[81.11592,27.79454],[81.11598,27.79254],[81.11481,27.79014],[81.10985,27.78941],[81.10631,27.79136],[81.10491,27.79314],[81.10415,27.79578],[81.10493,27.80111],[81.09895,27.80067],[81.09617,27.80125],[81.09502,27.80326],[81.0932,27.81559],[81.08548,27.81498],[81.08369,27.82094],[81.07218,27.82538],[81.07108,27.82476],[81.06531,27.81428],[81.04807,27.81822],[81.0431,27.81382],[81.0402,27.81313],[81.03681,27.82094],[81.03494,27.82243],[81.03126,27.81987],[81.02541,27.82308],[81.02218,27.81679],[81.01845,27.82063],[81.01016,27.82529],[81.00665,27.82557],[80.99993,27.82612],[80.99346,27.82528],[80.98812,27.82843],[80.98605,27.8311],[80.98747,27.84099],[80.99704,27.85496],[80.99682,27.86285],[80.99744,27.86578],[80.99876,27.86788],[81.00002,27.86785],[81.00662,27.87431],[81.00986,27.88033],[81.00722,27.884],[81.00439,27.88469],[81.00001,27.887],[80.99163,27.88438],[80.98483,27.88542],[80.98169,27.89064],[80.9743,27.89112],[80.97282,27.89455],[80.98086,27.89836],[80.98485,27.90197],[80.9822,27.90516],[80.97847,27.90573],[80.97356,27.90474],[80.96268,27.90113],[80.95722,27.88943],[80.95309,27.87251],[80.95216,27.87095],[80.94957,27.86991],[80.94282,27.87106],[80.93855,27.86282],[80.94033,27.85676],[80.93985,27.85474],[80.93479,27.84993],[80.93184,27.84403],[80.93087,27.84403],[80.92723,27.84698],[80.92369,27.84796],[80.91865,27.8449],[80.91437,27.8412],[80.91222,27.83666],[80.90783,27.833],[80.90526,27.83361],[80.90486,27.84001],[80.90647,27.84352],[80.90583,27.84695],[80.90305,27.84983],[80.89941,27.85181],[80.89664,27.85163],[80.89402,27.84935],[80.88979,27.84352],[80.88531,27.84091],[80.88346,27.84181],[80.87888,27.83985],[80.86769,27.83169],[80.86546,27.82915],[80.86602,27.82823],[80.8648,27.82384],[80.85664,27.82529],[80.85004,27.82384],[80.84738,27.8225],[80.84781,27.8127],[80.84392,27.81046],[80.8444,27.80328],[80.84385,27.80105],[80.84214,27.79844],[80.8394,27.79646],[80.83361,27.79287],[80.82873,27.79087],[80.82403,27.79121],[80.81864,27.79379],[80.81649,27.79657],[80.81423,27.80153],[80.80741,27.80746],[80.80235,27.80992],[80.79801,27.81381],[80.79341,27.81663],[80.79078,27.81734],[80.78171,27.81039],[80.77921,27.81122],[80.77717,27.80883],[80.77009,27.81458],[80.76821,27.81489],[80.76489,27.8124],[80.76425,27.80353],[80.75432,27.80867],[80.74911,27.81017],[80.74768,27.80995],[80.74533,27.80792],[80.7454,27.79816],[80.74306,27.78729],[80.74075,27.78846],[80.73445,27.79495],[80.72543,27.80606],[80.71699,27.81193],[80.71149,27.81462],[80.70787,27.81466],[80.69089,27.82383],[80.68006,27.82016],[80.67529,27.82015],[80.67171,27.82304],[80.66942,27.83087],[80.66493,27.8277],[80.6623,27.82463],[80.65981,27.8168],[80.65754,27.81504],[80.65424,27.81529],[80.65233,27.81687],[80.65263,27.81962],[80.65104,27.82221],[80.64999,27.83065],[80.64689,27.83589],[80.64119,27.83896],[80.63844,27.83594],[80.63246,27.81759],[80.62942,27.81166],[80.63051,27.80523],[80.62995,27.80253],[80.62396,27.79726],[80.61982,27.78674],[80.61611,27.78402],[80.61494,27.77755],[80.60834,27.77119],[80.60716,27.76897],[80.6062,27.76421],[80.60783,27.75577],[80.60628,27.74982],[80.60221,27.74928],[80.60138,27.74975],[80.59413,27.7482],[80.58491,27.75333],[80.58067,27.7548],[80.57016,27.74962],[80.56647,27.74844],[80.56507,27.74955],[80.56276,27.75151],[80.56199,27.75616],[80.56027,27.75835],[80.55604,27.76063],[80.55525,27.77009],[80.55405,27.77188],[80.5452,27.77047],[80.54326,27.77094],[80.54169,27.77388],[80.54124,27.77949],[80.53934,27.78261],[80.53905,27.78577],[80.54145,27.79205],[80.54047,27.79653],[80.53568,27.80036],[80.53323,27.80095],[80.51982,27.80823],[80.51832,27.8063],[80.51777,27.80354],[80.51395,27.79595],[80.50821,27.79651],[80.50289,27.79386],[80.49809,27.78553],[80.49804,27.78146],[80.49583,27.78004],[80.49273,27.77937],[80.49236,27.77623],[80.49026,27.77257],[80.47812,27.77652],[80.47288,27.77557],[80.46517,27.76102],[80.46462,27.75787],[80.46109,27.75962],[80.45902,27.76416],[80.45931,27.76725],[80.4562,27.77209],[80.44942,27.77169],[80.44641,27.76735],[80.44624,27.76363],[80.45334,27.75846],[80.45488,27.75232],[80.45357,27.75021],[80.45104,27.74822],[80.4355,27.74237],[80.42765,27.74388],[80.42585,27.74481],[80.42198,27.74477],[80.41577,27.74253],[80.41094,27.73746],[80.4077,27.73582],[80.39877,27.72688],[80.39492,27.72215],[80.39523,27.72072],[80.39389,27.71642],[80.39148,27.713],[80.38953,27.71204],[80.3869,27.71349],[80.38484,27.71328],[80.37985,27.71062],[80.38046,27.70717],[80.37756,27.70789],[80.37571,27.70922],[80.37247,27.70781],[80.3718,27.705],[80.36693,27.70796],[80.36202,27.70794],[80.35962,27.70612],[80.34952,27.702],[80.34784,27.7007],[80.33969,27.6992],[80.32179,27.68797],[80.31684,27.68233],[80.31523,27.68199],[80.31223,27.67862],[80.30396,27.6804],[80.29856,27.68527],[80.29846,27.68693],[80.29731,27.68792],[80.29669,27.68999],[80.29755,27.69194],[80.30139,27.69036],[80.29958,27.69468],[80.29805,27.69555],[80.29553,27.69914],[80.30031,27.7007],[80.29913,27.70364],[80.29191,27.70806],[80.28382,27.70841],[80.28023,27.71022],[80.28452,27.72231],[80.28361,27.72605],[80.28568,27.73212],[80.28502,27.7358],[80.28388,27.7369],[80.28271,27.73639],[80.27844,27.72965],[80.27649,27.728],[80.27378,27.72756],[80.27112,27.72982],[80.27006,27.73252],[80.2677,27.73353],[80.26723,27.73686],[80.26821,27.73794],[80.26715,27.74089],[80.26543,27.74176],[80.2592,27.74255],[80.2582,27.74354],[80.2574,27.7467],[80.25653,27.74884],[80.25474,27.74954],[80.2536,27.75104],[80.25283,27.75513],[80.25093,27.7563],[80.24416,27.75112],[80.24062,27.75005],[80.23645,27.75107],[80.23584,27.75297],[80.23733,27.75445],[80.24374,27.75699],[80.24407,27.75785],[80.24277,27.76084],[80.23777,27.76555],[80.23501,27.76235],[80.23301,27.76162],[80.22627,27.76133],[80.22454,27.76197],[80.22399,27.76307],[80.22504,27.76496],[80.23133,27.76928],[80.23358,27.77006],[80.22238,27.77148],[80.21191,27.7707],[80.20744,27.77206],[80.20409,27.77474],[80.20171,27.77522],[80.19319,27.75981],[80.18454,27.76771],[80.1828,27.76755],[80.18033,27.76579],[80.17817,27.76292],[80.17401,27.76354],[80.1691,27.76179],[80.16186,27.76524],[80.15837,27.7704],[80.15015,27.75912],[80.14461,27.7538],[80.14066,27.75182],[80.13216,27.74964],[80.13141,27.75368],[80.13478,27.76536],[80.13673,27.77721],[80.12595,27.77558],[80.11857,27.77651],[80.11623,27.77422],[80.11477,27.77458],[80.11088,27.77808],[80.11096,27.7794],[80.11232,27.78054],[80.11275,27.78347],[80.1064,27.78083],[80.10161,27.78007],[80.0947,27.78365],[80.09285,27.78344],[80.09171,27.78431],[80.08966,27.78325],[80.08528,27.77847],[80.06707,27.77119],[80.06297,27.77025],[80.06193,27.77442],[80.06117,27.77746],[80.05783,27.78331],[80.05643,27.78983],[80.0527,27.79225],[80.05427,27.79511],[80.05125,27.79673],[80.04967,27.79955],[80.05326,27.8031],[80.05092,27.80678],[80.05202,27.80776],[80.05164,27.80868],[80.04582,27.81206],[80.05492,27.81895],[80.05463,27.82349],[80.04076,27.82388],[80.03454,27.82942],[80.03437,27.83391],[80.0358,27.83596],[80.03745,27.83732],[80.04853,27.84172],[80.05114,27.84586],[80.05625,27.84782],[80.05711,27.84882],[80.05787,27.85309],[80.05456,27.86484],[80.04145,27.87777],[80.03182,27.88208],[80.0266,27.90421],[80.02845,27.91604],[80.02545,27.91877],[80.02755,27.92108],[80.03238,27.92299],[80.04573,27.92454],[80.05994,27.93335],[80.06427,27.93301],[80.06676,27.93102],[80.06452,27.92744],[80.06044,27.92349],[80.06535,27.92074],[80.06722,27.92057],[80.06925,27.92156],[80.07714,27.92687],[80.08211,27.92665],[80.08849,27.93327],[80.0869,27.94911],[80.08857,27.95285],[80.09617,27.95864],[80.10501,27.96398],[80.10247,27.9658],[80.10161,27.96743],[80.10598,27.9677],[80.11188,27.96992],[80.11642,27.97463],[80.11819,27.97913],[80.11688,27.98356],[80.12184,27.98939],[80.12358,27.99626],[80.14548,27.99795],[80.15905,28.00171],[80.15796,28.00431],[80.16243,28.0057],[80.16582,28.01031],[80.16745,28.00974],[80.17019,28.01041],[80.17473,28.01525],[80.17183,28.01825],[80.17738,28.02269],[80.18492,28.01822],[80.1893,28.01748],[80.19211,28.01871],[80.19567,28.02214],[80.19859,28.02642],[80.20697,28.03007],[80.22354,28.0493],[80.22742,28.05037],[80.23022,28.05663],[80.23246,28.05729],[80.23373,28.0552],[80.23617,28.05402],[80.24238,28.05315],[80.24576,28.05365],[80.24794,28.05636],[80.25204,28.06474],[80.25498,28.06733],[80.25667,28.07003],[80.25938,28.08096],[80.25957,28.08423],[80.2556,28.08976],[80.24862,28.09593],[80.24966,28.10292],[80.24726,28.10529],[80.24713,28.10817],[80.2493,28.11707],[80.24494,28.12384],[80.24386,28.12931],[80.24441,28.13394],[80.25106,28.1505],[80.25325,28.15353],[80.25681,28.15584],[80.26328,28.15131],[80.27821,28.14975],[80.28377,28.1565],[80.30193,28.15197],[80.30348,28.15585],[80.30277,28.16162],[80.30365,28.16589],[80.30896,28.17124],[80.31158,28.18064],[80.31119,28.18419],[80.30955,28.18673],[80.30615,28.18838],[80.30452,28.19003],[80.30296,28.1876],[80.2993,28.19387],[80.30135,28.20227],[80.2992,28.20622],[80.3,28.21287],[80.30394,28.21743],[80.30524,28.22092],[80.30856,28.22373],[80.31011,28.22925],[80.31174,28.23218],[80.31385,28.24238],[80.31245,28.24531],[80.31251,28.24813],[80.31061,28.25332],[80.31085,28.25552],[80.30872,28.25649],[80.30702,28.25853],[80.31213,28.26979],[80.32228,28.28002],[80.33398,28.29599],[80.35065,28.31116],[80.35289,28.31775],[80.35515,28.32085],[80.36838,28.33203],[80.36994,28.33557],[80.37118,28.34262],[80.37106,28.34544],[80.36935,28.34838],[80.36236,28.3528],[80.35855,28.37035],[80.35859,28.38332],[80.35246,28.39541],[80.35031,28.40354],[80.34828,28.4071],[80.34067,28.40943],[80.33758,28.41198],[80.32749,28.42533],[80.32163,28.42929],[80.31255,28.43767],[80.30478,28.44677],[80.30104,28.45334],[80.31092,28.46673],[80.32102,28.47769],[80.32252,28.4805],[80.32402,28.48106],[80.32869,28.4785],[80.34133,28.47536],[80.3586,28.46114],[80.36294,28.46311],[80.37633,28.45984],[80.38895,28.47371],[80.39183,28.47883],[80.39629,28.47797],[80.40057,28.47807],[80.40661,28.47928],[80.41094,28.48157],[80.41364,28.48066],[80.41855,28.4807],[80.42106,28.48542],[80.42256,28.49099],[80.42721,28.49368],[80.42883,28.4956],[80.43009,28.4992],[80.43347,28.50257],[80.43509,28.51091],[80.43415,28.5153],[80.42955,28.51797],[80.41702,28.52124],[80.41368,28.52481],[80.41217,28.52865],[80.40839,28.53352],[80.40416,28.53748],[80.4017,28.5433],[80.39564,28.5515],[80.39173,28.55563],[80.38712,28.55904],[80.38541,28.56281],[80.38547,28.56592],[80.38344,28.57404],[80.37707,28.57841],[80.37517,28.58457],[80.37945,28.58834],[80.38088,28.5921],[80.37571,28.59494],[80.37168,28.5949],[80.35916,28.5914],[80.35462,28.59266],[80.34982,28.60108],[80.33934,28.60935],[80.33108,28.61332],[80.32433,28.61487],[80.31193,28.61423],[80.30374,28.61652],[80.30183,28.62329],[80.30262,28.63197],[80.30499,28.6411],[80.32854,28.67445],[80.32888,28.67349],[80.33245,28.66669],[80.33297,28.66603],[80.34041,28.66174],[80.35448,28.65655],[80.36189,28.65158],[80.36229,28.65069],[80.36168,28.64141],[80.36409,28.63987],[80.36672,28.63861],[80.36768,28.6373],[80.36928,28.63629],[80.36927,28.63517],[80.37216,28.63328],[80.38289,28.63014],[80.39365,28.63079],[80.40907,28.63432],[80.41535,28.63621],[80.42636,28.6385],[80.43301,28.63893],[80.43837,28.63736],[80.444,28.63395],[80.44426,28.63306],[80.44528,28.63237],[80.44708,28.62922],[80.44775,28.62888],[80.45396,28.62652],[80.45575,28.62629],[80.45937,28.6249],[80.45989,28.62404],[80.46217,28.62426],[80.46243,28.62266],[80.46574,28.62018],[80.46831,28.60775],[80.46857,28.60706],[80.47193,28.60477],[80.47245,28.60364],[80.47343,28.60299],[80.47395,28.60141],[80.47377,28.59826],[80.4737,28.596],[80.47202,28.59085],[80.47178,28.59012],[80.47191,28.58807],[80.48035,28.58489],[80.48282,28.58481],[80.48534,28.58496],[80.48801,28.58466],[80.48955,28.58377],[80.49594,28.57925],[80.49826,28.57313],[80.50293,28.57081],[80.50591,28.56839],[80.50693,28.56658],[80.50871,28.56612],[80.51178,28.56433],[80.5123,28.56321],[80.51435,28.56118],[80.51487,28.56003],[80.52175,28.55778],[80.52276,28.55755],[80.52723,28.55908],[80.5279,28.55933],[80.52954,28.56082],[80.53029,28.56151],[80.53197,28.56319],[80.53283,28.56573],[80.53298,28.56635],[80.53311,28.56861],[80.53259,28.56962],[80.53208,28.56985],[80.5294,28.57471],[80.52865,28.5754],[80.52174,28.57922],[80.52073,28.57969],[80.52083,28.58171],[80.51903,28.59824],[80.51815,28.60683],[80.51688,28.61066],[80.51357,28.62446],[80.50946,28.64208],[80.50844,28.65236],[80.50826,28.65865],[80.50867,28.66579],[80.5108,28.66804],[80.51347,28.66999],[80.51374,28.67066],[80.51448,28.67089],[80.52376,28.67844],[80.53732,28.68612],[80.54603,28.68951],[80.55778,28.69129],[80.55993,28.69088],[80.56597,28.68949],[80.57332,28.68659],[80.5826,28.68359],[80.59104,28.67929],[80.59105,28.67793],[80.58891,28.67419],[80.58735,28.66848],[80.58438,28.6612],[80.59358,28.65735],[80.59587,28.65554],[80.59482,28.65225],[80.5941,28.64606],[80.59714,28.64513],[80.60099,28.64687],[80.60763,28.64897],[80.61072,28.64581],[80.61072,28.64488],[80.61226,28.64399],[80.61556,28.64219],[80.61739,28.6415],[80.63166,28.63673],[80.63781,28.63694],[80.6401,28.63811],[80.6447,28.64114],[80.64675,28.64157],[80.65444,28.63829],[80.66031,28.6376],[80.66775,28.64029],[80.66784,28.63983],[80.66834,28.63937],[80.66886,28.63983],[80.66987,28.63824],[80.66987,28.63349],[80.67063,28.62695],[80.67204,28.62671],[80.6723,28.62569],[80.67307,28.62536],[80.67692,28.62266],[80.6792,28.62197],[80.67928,28.62138],[80.6798,28.62117],[80.68112,28.61903],[80.68112,28.61722],[80.682,28.61643],[80.68264,28.61042],[80.68326,28.60975],[80.68326,28.60839],[80.68162,28.60502],[80.68175,28.6041],[80.68251,28.6032],[80.68429,28.60251],[80.69198,28.60273],[80.69504,28.60318],[80.69759,28.60294],[80.69785,28.60225],[80.6986,28.60181],[80.69873,28.59773],[80.69683,28.59449],[80.69489,28.58621],[80.69528,28.58462],[80.69808,28.58237],[80.69859,28.58079],[80.69883,28.57989],[80.69961,28.57943],[80.70114,28.57807],[80.70114,28.57715],[80.70189,28.57671],[80.70266,28.57535],[80.70609,28.57365],[80.71387,28.57081],[80.71875,28.57033],[80.72336,28.57216],[80.7269,28.5726],[80.72948,28.57077],[80.73002,28.56965],[80.73132,28.56817],[80.73552,28.56679],[80.73928,28.56671],[80.74225,28.57212],[80.74736,28.57298],[80.75629,28.56979],[80.76652,28.56751],[80.77136,28.56525],[80.77214,28.56456],[80.7724,28.56321],[80.77237,28.55145],[80.77289,28.55124],[80.77339,28.55101],[80.77338,28.55011],[80.77432,28.54954],[80.78156,28.54623],[80.78358,28.54579],[80.7864,28.54209],[80.78819,28.54057],[80.78681,28.52854],[80.78673,28.52724],[80.78711,28.52452],[80.78891,28.52452],[80.79479,28.52225],[80.80397,28.52087],[80.8216,28.51677],[80.82414,28.51583],[80.8293,28.51228],[80.8303,28.51138],[80.83057,28.51075],[80.83127,28.51061],[80.83178,28.51016],[80.83279,28.50788],[80.83739,28.50405],[80.83765,28.50314],[80.83908,28.50061],[80.84034,28.49948],[80.84034,28.49902],[80.84197,28.49768],[80.84503,28.4968],[80.85601,28.49515],[80.86308,28.49277],[80.86593,28.49218],[80.86749,28.49332],[80.86812,28.4958],[80.86776,28.49739],[80.86724,28.49762],[80.86672,28.49806],[80.86571,28.49898],[80.86445,28.50309],[80.86469,28.50487],[80.86714,28.50575],[80.87903,28.5073],[80.89229,28.50453],[80.89535,28.50271],[80.89661,28.49888],[80.90861,28.49497],[80.90962,28.49385],[80.91027,28.48828],[80.91034,28.48707],[80.90985,28.48661],[80.90167,28.48347],[80.89924,28.47806],[80.89999,28.47737],[80.90007,28.46881],[80.9024,28.46097],[80.90572,28.459],[80.90864,28.45754],[80.90975,28.45701],[80.91229,28.45657],[80.91562,28.45811],[80.91656,28.46126],[80.91656,28.46244],[80.91977,28.46243],[80.92143,28.46132],[80.9212,28.45525],[80.92379,28.45386],[80.92888,28.4544],[80.93523,28.45989],[80.93722,28.46429],[80.94231,28.4662],[80.94343,28.46316],[80.94353,28.4593],[80.94118,28.45616],[80.93925,28.45414],[80.93867,28.45284],[80.93932,28.45105],[80.94324,28.44999],[80.948,28.44986],[80.94901,28.44963],[80.95507,28.44672],[80.95846,28.44574],[80.96075,28.44641],[80.96294,28.4489],[80.96434,28.44979],[80.96793,28.45093],[80.97736,28.45154],[80.97837,28.45087],[80.9781,28.44929],[80.97608,28.44681],[80.96774,28.44345],[80.9661,28.4412],[80.96569,28.4376],[80.96634,28.43625],[80.97022,28.43489],[80.97219,28.43462],[80.97704,28.43574],[80.97909,28.43642],[80.98165,28.44068],[80.9837,28.44113],[80.99059,28.44018],[80.99161,28.44064],[80.99212,28.44087],[80.9939,28.44357],[80.99759,28.44645],[80.99812,28.4469],[80.99913,28.44803],[81.00212,28.44987],[81.00391,28.45009],[81.01062,28.44899],[81.01386,28.44801],[81.01564,28.44687],[81.01698,28.44258],[81.01777,28.44167],[81.01657,28.4333],[81.02167,28.43146],[81.02424,28.4326],[81.02464,28.43327],[81.02836,28.43642],[81.03014,28.43684],[81.03599,28.43254],[81.03648,28.43211],[81.03826,28.43051],[81.03979,28.42981],[81.04004,28.42846],[81.04002,28.42529],[81.03695,28.42237],[81.03645,28.42193],[81.03362,28.41945],[81.02655,28.41532],[81.02315,28.4137],[81.02226,28.41315],[81.02226,28.41249],[81.02237,28.41045],[81.02923,28.40591],[81.03049,28.40431],[81.03175,28.40294],[81.03713,28.40021],[81.03867,28.40155],[81.03966,28.40337],[81.04008,28.41126],[81.04035,28.41172],[81.04377,28.41217],[81.05347,28.40698],[81.05399,28.40669],[81.05821,28.40383]]]}}]}