{"type":"FeatureCollection","features":[{"type":"Feature","properties":{"id":"maharajganj","name":"Maharajganj","stateId":"uttar-pradesh","stateName":"Uttar Pradesh","censuscode":187,"type":"district"},"geometry":{"type":"Polygon","coordinates":[[[83.86656,27.34491],[83.8664,27.34441],[83.86512,27.33703],[83.85948,27.33231],[83.83947,27.32415],[83.83847,27.32262],[83.83862,27.32135],[83.83909,27.31945],[83.84073,27.31805],[83.84638,27.31617],[83.85265,27.31801],[83.85536,27.31636],[83.85753,27.31356],[83.8581,27.31068],[83.86062,27.30881],[83.86477,27.30794],[83.8692,27.30839],[83.88251,27.31294],[83.89804,27.3232],[83.90368,27.32579],[83.90769,27.32686],[83.91815,27.32713],[83.9268,27.32209],[83.93369,27.3132],[83.93542,27.30629],[83.93573,27.30096],[83.93194,27.29315],[83.9289,27.28944],[83.92057,27.2824],[83.91412,27.27794],[83.9081,27.27576],[83.90036,27.28297],[83.8956,27.28494],[83.89253,27.28504],[83.88711,27.28362],[83.88207,27.28426],[83.87889,27.29519],[83.87715,27.29751],[83.874,27.29703],[83.87203,27.29546],[83.86382,27.29258],[83.85029,27.28957],[83.84472,27.28754],[83.84225,27.28585],[83.83803,27.27339],[83.83938,27.26613],[83.84422,27.25995],[83.84966,27.25464],[83.84989,27.25325],[83.84723,27.24927],[83.8436,27.24777],[83.82785,27.24821],[83.8238,27.24741],[83.81738,27.24477],[83.81424,27.24436],[83.81213,27.24733],[83.80992,27.24835],[83.80629,27.24685],[83.80364,27.24862],[83.80045,27.2465],[83.79751,27.24671],[83.79586,27.24485],[83.7962,27.23547],[83.79942,27.23329],[83.80949,27.22864],[83.81554,27.23003],[83.82204,27.23354],[83.82698,27.22897],[83.82737,27.22402],[83.83065,27.21649],[83.83185,27.21072],[83.8312,27.20763],[83.82829,27.20378],[83.82006,27.20012],[83.8175,27.20057],[83.81537,27.20204],[83.81196,27.20681],[83.808,27.21476],[83.80649,27.21599],[83.80477,27.21636],[83.80011,27.2146],[83.79845,27.21221],[83.80006,27.19966],[83.80185,27.1971],[83.8019,27.1937],[83.81029,27.18816],[83.81095,27.18665],[83.81032,27.18471],[83.80228,27.17795],[83.79542,27.17513],[83.79117,27.17422],[83.78515,27.17134],[83.78275,27.16965],[83.78212,27.16523],[83.78467,27.16445],[83.79219,27.16587],[83.82291,27.17588],[83.82642,27.17542],[83.82425,27.17281],[83.8121,27.16578],[83.80992,27.15535],[83.80747,27.14993],[83.80707,27.14108],[83.80531,27.12961],[83.80564,27.11684],[83.80357,27.11095],[83.79993,27.10837],[83.78949,27.1056],[83.7817,27.10625],[83.7784,27.10486],[83.77493,27.09629],[83.77438,27.09216],[83.77168,27.08903],[83.76851,27.08743],[83.76002,27.08543],[83.74897,27.07865],[83.7469,27.07512],[83.76352,27.07438],[83.76643,27.0733],[83.76705,27.07225],[83.76757,27.05712],[83.76497,27.05267],[83.76118,27.04957],[83.75756,27.0479],[83.75634,27.0501],[83.74893,27.05563],[83.74489,27.05801],[83.73975,27.05936],[83.73531,27.0588],[83.73041,27.05439],[83.73751,27.04397],[83.73794,27.03826],[83.74225,27.03652],[83.75196,27.03602],[83.75347,27.03508],[83.75284,27.03272],[83.74724,27.02855],[83.74465,27.0221],[83.74565,27.0158],[83.74682,27.01383],[83.75006,27.00836],[83.75302,27.00648],[83.76955,27.00058],[83.76401,26.99483],[83.7578,26.99292],[83.74639,26.99472],[83.74114,26.99372],[83.73688,26.99055],[83.73501,26.9868],[83.73263,26.97634],[83.73061,26.96474],[83.73065,26.95865],[83.7286,26.95318],[83.72405,26.95105],[83.7188,26.95056],[83.71514,26.95261],[83.70871,26.95982],[83.68841,26.96295],[83.6824,26.96321],[83.68234,26.95253],[83.6806,26.94581],[83.67428,26.94531],[83.67026,26.94691],[83.66576,26.95021],[83.65466,26.94976],[83.63963,26.95423],[83.62623,26.95555],[83.62299,26.9549],[83.62187,26.95151],[83.62215,26.94864],[83.62428,26.94537],[83.6271,26.94349],[83.62884,26.94074],[83.6267,26.92999],[83.61828,26.93064],[83.61385,26.92919],[83.61114,26.92584],[83.60722,26.91141],[83.5957,26.91394],[83.59598,26.92278],[83.59465,26.92714],[83.589,26.93227],[83.58345,26.92943],[83.57813,26.92837],[83.575,26.92968],[83.57344,26.93197],[83.57158,26.93276],[83.56483,26.92423],[83.56035,26.92305],[83.55764,26.90886],[83.55957,26.90542],[83.5562,26.88996],[83.54732,26.8895],[83.54469,26.88041],[83.52891,26.8915],[83.5084,26.91357],[83.50206,26.91813],[83.48603,26.92078],[83.4784,26.92316],[83.47792,26.93191],[83.47368,26.94543],[83.4735,26.95003],[83.46797,26.95815],[83.45878,26.96341],[83.44661,26.96129],[83.44401,26.9676],[83.44699,26.97516],[83.44249,26.9794],[83.43358,26.98015],[83.40349,26.97565],[83.37905,26.97921],[83.36611,26.97866],[83.36193,26.96818],[83.33948,26.9693],[83.33137,26.98097],[83.34363,26.99018],[83.35937,27.01099],[83.37226,27.044],[83.40219,27.07223],[83.40363,27.08764],[83.4002,27.08974],[83.38921,27.08988],[83.37806,27.07624],[83.3608,27.0801],[83.3558,27.08894],[83.34841,27.09324],[83.34148,27.09127],[83.33321,27.08161],[83.32481,27.0668],[83.32281,27.05342],[83.31757,27.04948],[83.30478,27.04736],[83.28463,27.05008],[83.28502,27.06147],[83.2752,27.06692],[83.26404,27.06421],[83.25007,27.07195],[83.24331,27.07282],[83.22872,27.06871],[83.20885,27.07077],[83.20285,27.08119],[83.19654,27.08739],[83.17774,27.08749],[83.17081,27.1017],[83.1633,27.12867],[83.13285,27.14107],[83.13018,27.14136],[83.1259,27.14951],[83.12353,27.15616],[83.1237,27.15869],[83.12632,27.16124],[83.13042,27.16182],[83.13718,27.16069],[83.13946,27.15865],[83.14691,27.16741],[83.14961,27.1676],[83.15852,27.16173],[83.16068,27.16042],[83.16128,27.15823],[83.15749,27.15139],[83.15633,27.1476],[83.1571,27.14431],[83.16087,27.14368],[83.16574,27.14384],[83.16927,27.14501],[83.17139,27.14803],[83.17065,27.15017],[83.1613,27.14966],[83.16224,27.15195],[83.16341,27.15297],[83.17828,27.15731],[83.17899,27.16075],[83.17968,27.17645],[83.17827,27.17969],[83.17018,27.18533],[83.17131,27.18727],[83.17736,27.19254],[83.1793,27.19654],[83.17792,27.20115],[83.17261,27.20485],[83.16786,27.20066],[83.1669,27.20775],[83.16846,27.21584],[83.16747,27.21763],[83.16986,27.2218],[83.17455,27.22577],[83.18297,27.22714],[83.19804,27.22527],[83.20623,27.23078],[83.21116,27.23728],[83.21623,27.24164],[83.21862,27.24229],[83.22032,27.2444],[83.2198,27.25005],[83.21358,27.26285],[83.21459,27.26525],[83.21753,27.26855],[83.22025,27.26983],[83.22832,27.27253],[83.23041,27.27147],[83.23311,27.27194],[83.23851,27.27941],[83.24197,27.28264],[83.24887,27.28438],[83.25198,27.2833],[83.25593,27.28859],[83.24992,27.29195],[83.24539,27.29657],[83.24435,27.2986],[83.25021,27.30047],[83.26146,27.30813],[83.26693,27.31283],[83.27073,27.31709],[83.27179,27.32178],[83.2704,27.32572],[83.27792,27.32969],[83.29077,27.33457],[83.29312,27.33727],[83.29683,27.33467],[83.30282,27.3332],[83.31184,27.32916],[83.31936,27.33235],[83.32052,27.33237],[83.32685,27.33316],[83.33064,27.33239],[83.33266,27.33326],[83.33341,27.33348],[83.33693,27.33249],[83.33796,27.33293],[83.33844,27.33268],[83.34127,27.33352],[83.3576,27.33995],[83.36377,27.34411],[83.36717,27.34856],[83.36718,27.34923],[83.36785,27.35125],[83.37364,27.35498],[83.37362,27.35641],[83.3736,27.35836],[83.37386,27.36332],[83.37439,27.36535],[83.37725,27.36731],[83.38697,27.36978],[83.38878,27.37126],[83.39115,27.37268],[83.39207,27.38373],[83.39498,27.38884],[83.40586,27.39855],[83.40688,27.40938],[83.40671,27.41164],[83.40531,27.41497],[83.40363,27.41646],[83.39817,27.42112],[83.39793,27.42177],[83.39687,27.42271],[83.39399,27.42461],[83.39312,27.42483],[83.39276,27.42575],[83.39165,27.42644],[83.39153,27.42691],[83.39096,27.42848],[83.39168,27.43471],[83.39295,27.43815],[83.39479,27.44059],[83.40128,27.44612],[83.4022,27.44791],[83.4026,27.44845],[83.40678,27.45412],[83.40683,27.45637],[83.40615,27.45978],[83.40353,27.46174],[83.40052,27.46277],[83.39876,27.4635],[83.39841,27.46454],[83.39577,27.46492],[83.39533,27.46635],[83.39404,27.47542],[83.40131,27.47706],[83.4021,27.47796],[83.40323,27.478],[83.42234,27.47819],[83.42891,27.47781],[83.44148,27.47591],[83.44248,27.47605],[83.45132,27.47483],[83.45842,27.47513],[83.46366,27.47474],[83.47854,27.47363],[83.52364,27.47134],[83.53482,27.47122],[83.54312,27.47113],[83.57087,27.46995],[83.57369,27.4703],[83.58431,27.47076],[83.58505,27.47051],[83.60861,27.47001],[83.60984,27.46994],[83.6136,27.46893],[83.63322,27.46038],[83.64117,27.45709],[83.64916,27.45393],[83.65144,27.4529],[83.6734,27.44236],[83.69154,27.4337],[83.69557,27.43139],[83.70598,27.42544],[83.7418,27.40877],[83.74512,27.40725],[83.75186,27.40312],[83.76763,27.39755],[83.76761,27.39709],[83.78236,27.39063],[83.7968,27.38572],[83.80178,27.38379],[83.81961,27.37618],[83.82335,27.37497],[83.83953,27.36622],[83.85393,27.3549],[83.85435,27.35411],[83.85448,27.35353],[83.85729,27.3513],[83.85878,27.35038],[83.85876,27.34969],[83.85969,27.34902],[83.86271,27.34688],[83.86432,27.34574],[83.86656,27.34491]]]}}]}