{"type":"FeatureCollection","features":[{"type":"Feature","properties":{"id":"mathura","name":"Mathura","stateId":"uttar-pradesh","stateName":"Uttar Pradesh","censuscode":145,"type":"district"},"geometry":{"type":"Polygon","coordinates":[[[77.89762,27.58385],[77.8993,27.58179],[77.89939,27.58168],[77.9085,27.56374],[77.90848,27.56117],[77.9058,27.55333],[77.90274,27.55155],[77.89868,27.55129],[77.89536,27.54748],[77.89321,27.54207],[77.88971,27.53889],[77.8817,27.53688],[77.87956,27.53383],[77.87864,27.52685],[77.87928,27.52538],[77.87942,27.52506],[77.88607,27.51798],[77.88974,27.51646],[77.89488,27.51657],[77.89715,27.51556],[77.90419,27.51494],[77.90744,27.51172],[77.90767,27.51148],[77.9082,27.50786],[77.91106,27.50097],[77.91125,27.50051],[77.91682,27.50057],[77.91694,27.50058],[77.91733,27.50008],[77.91795,27.49927],[77.91986,27.49742],[77.93031,27.49498],[77.93479,27.49173],[77.9419,27.4848],[77.94223,27.48448],[77.93558,27.46868],[77.92221,27.45481],[77.90864,27.44701],[77.90277,27.44077],[77.9052,27.43231],[77.90529,27.43199],[77.91395,27.42539],[77.92751,27.42704],[77.93363,27.42191],[77.93388,27.4217],[77.93444,27.41298],[77.91736,27.41221],[77.9103,27.40917],[77.91102,27.39062],[77.9141,27.38286],[77.91425,27.38248],[77.91868,27.37933],[77.91893,27.37914],[77.91913,27.37373],[77.91172,27.36747],[77.90262,27.36386],[77.89903,27.35844],[77.899,27.35839],[77.90668,27.34794],[77.9069,27.34765],[77.90853,27.34225],[77.90342,27.33391],[77.9037,27.32327],[77.90371,27.32298],[77.91228,27.3151],[77.93309,27.30141],[77.95034,27.2838],[77.95054,27.28273],[77.94748,27.27831],[77.94168,27.27528],[77.93598,27.27093],[77.93335,27.26698],[77.93251,27.26274],[77.94183,27.24818],[77.9421,27.24238],[77.93955,27.2371],[77.93479,27.23422],[77.92759,27.23322],[77.92249,27.23368],[77.91162,27.2383],[77.90944,27.24143],[77.90868,27.24593],[77.90904,27.255],[77.91283,27.28146],[77.91045,27.28709],[77.9024,27.29163],[77.89371,27.29406],[77.88288,27.29545],[77.87329,27.29411],[77.86967,27.29063],[77.86778,27.28562],[77.8669,27.27817],[77.86915,27.27244],[77.87445,27.26985],[77.88525,27.26737],[77.88574,27.2626],[77.8839,27.25735],[77.88022,27.25221],[77.87236,27.24847],[77.86455,27.2483],[77.86004,27.25168],[77.85681,27.25652],[77.85377,27.26364],[77.85576,27.28617],[77.85244,27.28848],[77.84787,27.29022],[77.84838,27.28935],[77.84737,27.28806],[77.8383,27.28188],[77.82266,27.27453],[77.81963,27.27184],[77.81478,27.2611],[77.81043,27.25925],[77.80558,27.25969],[77.80397,27.25904],[77.80251,27.25723],[77.79312,27.25566],[77.79071,27.24986],[77.79279,27.24242],[77.78837,27.23557],[77.78358,27.23378],[77.78063,27.23344],[77.77267,27.23676],[77.76762,27.2411],[77.76268,27.24316],[77.74434,27.24146],[77.73795,27.24176],[77.72056,27.24837],[77.71684,27.24798],[77.71467,27.24608],[77.71153,27.24608],[77.70609,27.24797],[77.70237,27.25016],[77.70152,27.25179],[77.69287,27.24668],[77.68694,27.24067],[77.68162,27.23791],[77.67569,27.23883],[77.6622,27.23881],[77.65503,27.24085],[77.64754,27.24139],[77.6473,27.2414],[77.64265,27.24794],[77.63797,27.24975],[77.63422,27.2566],[77.6317,27.25808],[77.62123,27.25457],[77.6174,27.25935],[77.61501,27.26697],[77.61966,27.2686],[77.62256,27.27342],[77.61777,27.27593],[77.61751,27.28225],[77.61151,27.28915],[77.60675,27.29062],[77.60009,27.29483],[77.60015,27.29701],[77.60546,27.29897],[77.60853,27.29896],[77.61176,27.30418],[77.61732,27.30619],[77.62195,27.30902],[77.62399,27.31967],[77.62407,27.3288],[77.62483,27.33257],[77.62261,27.33766],[77.61886,27.33865],[77.61604,27.33641],[77.61329,27.33222],[77.60145,27.33223],[77.59509,27.32954],[77.59076,27.3259],[77.58887,27.32272],[77.58299,27.321],[77.58118,27.32436],[77.57621,27.32751],[77.57517,27.32789],[77.57018,27.32973],[77.55119,27.33672],[77.54884,27.34188],[77.54753,27.34736],[77.5392,27.34707],[77.53044,27.35194],[77.5178,27.36212],[77.51647,27.36708],[77.51228,27.36836],[77.51064,27.37167],[77.5057,27.37566],[77.49538,27.37994],[77.4843,27.38205],[77.47504,27.37861],[77.47001,27.38191],[77.45166,27.38767],[77.44421,27.39113],[77.4403,27.39351],[77.43798,27.39872],[77.43842,27.39936],[77.43521,27.41095],[77.43354,27.41321],[77.42361,27.41971],[77.42549,27.43258],[77.42675,27.43651],[77.42919,27.44163],[77.43142,27.44377],[77.43575,27.44535],[77.43728,27.4498],[77.43809,27.45639],[77.43394,27.45915],[77.42393,27.46048],[77.41988,27.46703],[77.41587,27.47072],[77.4049,27.47217],[77.40207,27.4763],[77.40083,27.48044],[77.40006,27.48791],[77.40055,27.49639],[77.39807,27.49977],[77.39177,27.50584],[77.39094,27.5109],[77.38471,27.51296],[77.36972,27.51289],[77.36668,27.51385],[77.36073,27.51436],[77.34875,27.51915],[77.34364,27.52441],[77.34104,27.53294],[77.34398,27.53608],[77.34869,27.54112],[77.34696,27.54402],[77.3421,27.54898],[77.3392,27.55815],[77.33977,27.56302],[77.33894,27.56549],[77.33964,27.56783],[77.34163,27.57043],[77.34696,27.57098],[77.35207,27.57988],[77.35699,27.58451],[77.35871,27.58778],[77.34377,27.59592],[77.33671,27.59043],[77.33436,27.59127],[77.31981,27.60609],[77.32181,27.61172],[77.34099,27.63216],[77.35101,27.64741],[77.35144,27.65158],[77.34804,27.65681],[77.34586,27.66406],[77.34615,27.6702],[77.34373,27.6758],[77.3455,27.67984],[77.34527,27.69057],[77.34318,27.69388],[77.34269,27.70231],[77.33931,27.70553],[77.33321,27.70758],[77.32909,27.70708],[77.32597,27.70564],[77.31719,27.70832],[77.31107,27.70762],[77.30633,27.71309],[77.30509,27.72424],[77.31945,27.73127],[77.3211,27.73309],[77.32088,27.73458],[77.31844,27.7372],[77.31477,27.73909],[77.31411,27.74364],[77.31013,27.75087],[77.31048,27.75448],[77.31161,27.7556],[77.31176,27.75904],[77.31033,27.76337],[77.31027,27.76612],[77.3125,27.77039],[77.313,27.78242],[77.30994,27.78809],[77.30677,27.79227],[77.30425,27.79426],[77.29949,27.79612],[77.28815,27.79723],[77.28461,27.80099],[77.28592,27.80117],[77.28818,27.80641],[77.29233,27.81035],[77.29855,27.81225],[77.29951,27.81413],[77.29777,27.82357],[77.30805,27.82579],[77.31371,27.82564],[77.31521,27.82642],[77.32184,27.82446],[77.3261,27.82765],[77.33103,27.82912],[77.33626,27.83212],[77.333,27.83527],[77.3382,27.84639],[77.34016,27.84708],[77.34163,27.84928],[77.34829,27.85398],[77.35303,27.85339],[77.36163,27.85083],[77.37381,27.85497],[77.37901,27.85751],[77.38289,27.85807],[77.39109,27.85747],[77.40184,27.85331],[77.41279,27.8526],[77.42142,27.85342],[77.42345,27.85504],[77.42273,27.85695],[77.41534,27.86402],[77.41418,27.8661],[77.41357,27.87018],[77.41059,27.87626],[77.41316,27.88096],[77.41618,27.8835],[77.42012,27.88938],[77.42137,27.89051],[77.42331,27.89087],[77.43129,27.88883],[77.43942,27.88319],[77.45127,27.87282],[77.45494,27.87275],[77.46758,27.87963],[77.47895,27.88905],[77.48163,27.89553],[77.48378,27.90638],[77.4816,27.91352],[77.48003,27.91493],[77.47978,27.92222],[77.47763,27.92621],[77.47792,27.92724],[77.48685,27.93453],[77.49396,27.93823],[77.49716,27.93577],[77.49979,27.92826],[77.50147,27.92611],[77.50459,27.92507],[77.50699,27.92572],[77.51508,27.93044],[77.52038,27.93172],[77.52299,27.93064],[77.52842,27.92618],[77.53287,27.92076],[77.53547,27.91934],[77.54568,27.91696],[77.55037,27.91436],[77.55674,27.91234],[77.55994,27.91193],[77.56432,27.91254],[77.56823,27.91481],[77.57005,27.9177],[77.5696,27.92465],[77.57126,27.92656],[77.57484,27.92827],[77.58268,27.92806],[77.58568,27.92961],[77.58802,27.93317],[77.58973,27.93441],[77.59476,27.93534],[77.6046,27.93515],[77.60857,27.93714],[77.61668,27.93279],[77.62253,27.93296],[77.6262,27.93581],[77.62989,27.94348],[77.63851,27.95518],[77.64104,27.9604],[77.64431,27.96475],[77.65592,27.96395],[77.66093,27.96144],[77.66343,27.95904],[77.66832,27.95006],[77.67337,27.94463],[77.67868,27.9416],[77.68753,27.94096],[77.70231,27.94532],[77.70718,27.94493],[77.71458,27.94289],[77.73219,27.93227],[77.73727,27.92994],[77.7413,27.92699],[77.74415,27.92361],[77.74862,27.91147],[77.7542,27.90661],[77.76151,27.90405],[77.76527,27.9007],[77.76604,27.89651],[77.76377,27.88698],[77.7648,27.88243],[77.76905,27.87202],[77.7716,27.8691],[77.77447,27.86641],[77.77797,27.86525],[77.79757,27.86146],[77.80496,27.86177],[77.80905,27.86064],[77.80559,27.85667],[77.78438,27.84507],[77.78377,27.83969],[77.79743,27.82399],[77.80356,27.82283],[77.80698,27.82334],[77.81605,27.81311],[77.81626,27.80732],[77.81441,27.80146],[77.81394,27.79642],[77.81391,27.79063],[77.81571,27.78452],[77.81766,27.77863],[77.82216,27.77469],[77.82701,27.76531],[77.83137,27.76104],[77.83479,27.7551],[77.83421,27.75278],[77.82865,27.75175],[77.82194,27.75217],[77.81569,27.75156],[77.81007,27.75024],[77.8057,27.74775],[77.80178,27.74314],[77.79687,27.73332],[77.79655,27.72903],[77.79668,27.72679],[77.79983,27.72254],[77.79993,27.71732],[77.79846,27.71334],[77.79787,27.70642],[77.80052,27.70258],[77.80011,27.69748],[77.79672,27.69136],[77.79305,27.68852],[77.79413,27.68414],[77.81403,27.66973],[77.81813,27.66753],[77.8206,27.66845],[77.82295,27.67196],[77.82857,27.67115],[77.83134,27.66949],[77.83336,27.66193],[77.84001,27.65703],[77.84202,27.66009],[77.84532,27.65681],[77.85092,27.65325],[77.85559,27.63802],[77.86166,27.62666],[77.86296,27.62255],[77.86252,27.61677],[77.85512,27.60718],[77.8549,27.60214],[77.85739,27.59745],[77.86545,27.58637],[77.86816,27.57875],[77.86983,27.57642],[77.8721,27.57534],[77.87679,27.57598],[77.88025,27.5778],[77.88425,27.58298],[77.88858,27.58627],[77.89148,27.58695],[77.89717,27.58441],[77.89762,27.58385]]]}}]}