{"type":"FeatureCollection","features":[{"type":"Feature","properties":{"id":"mirzapur","name":"Mirzapur","stateId":"uttar-pradesh","stateName":"Uttar Pradesh","censuscode":199,"type":"district"},"geometry":{"type":"Polygon","coordinates":[[[83.03414,25.24148],[83.03415,25.24148],[83.03592,25.24169],[83.04078,25.23962],[83.0501,25.23302],[83.05485,25.23158],[83.06563,25.23018],[83.07056,25.22839],[83.07216,25.22607],[83.07687,25.21085],[83.08088,25.21006],[83.09006,25.21063],[83.09344,25.20983],[83.09318,25.20536],[83.09427,25.20299],[83.09952,25.20109],[83.10702,25.1999],[83.1184,25.20044],[83.12204,25.19993],[83.12792,25.18734],[83.14824,25.18546],[83.16258,25.18705],[83.16426,25.18628],[83.16929,25.18668],[83.17515,25.18436],[83.18141,25.17899],[83.18373,25.17528],[83.18137,25.16957],[83.17839,25.16748],[83.17252,25.16618],[83.17098,25.16023],[83.17161,25.14615],[83.16898,25.14115],[83.1676,25.13529],[83.16368,25.13413],[83.15632,25.13393],[83.1549,25.12952],[83.15219,25.12903],[83.14485,25.12722],[83.14336,25.12764],[83.14241,25.13128],[83.14085,25.13165],[83.13831,25.13058],[83.13699,25.12726],[83.13137,25.126],[83.12957,25.12429],[83.13119,25.12099],[83.13336,25.11901],[83.1318,25.11724],[83.13126,25.11494],[83.13648,25.11258],[83.13726,25.10751],[83.13672,25.10539],[83.13498,25.10327],[83.12748,25.10296],[83.12387,25.10134],[83.1234,25.09408],[83.1252,25.09286],[83.13077,25.09169],[83.12899,25.07739],[83.13145,25.06076],[83.12972,25.05808],[83.12255,25.05606],[83.11936,25.05611],[83.11557,25.05691],[83.11352,25.05889],[83.10345,25.06367],[83.09782,25.06467],[83.08857,25.06281],[83.08226,25.06297],[83.073,25.0668],[83.07043,25.06717],[83.06755,25.0667],[83.06517,25.06519],[83.05926,25.05801],[83.06072,25.05635],[83.06555,25.05505],[83.06814,25.05062],[83.06866,25.04725],[83.068,25.04435],[83.06252,25.04375],[83.06274,25.04269],[83.06356,25.03951],[83.06538,25.03665],[83.07051,25.03382],[83.07244,25.03147],[83.07274,25.0292],[83.06964,25.02903],[83.06827,25.028],[83.06856,25.02457],[83.06936,25.02263],[83.07434,25.01961],[83.07613,25.01438],[83.07506,25.00878],[83.07364,25.00643],[83.06908,25.00285],[83.06925,25.00021],[83.07011,24.9949],[83.07287,24.99093],[83.07569,24.98459],[83.0768,24.97891],[83.0764,24.97664],[83.06134,24.9673],[83.06198,24.95314],[83.06734,24.92864],[83.07121,24.92354],[83.0757,24.91544],[83.08126,24.89961],[83.08096,24.89414],[83.07851,24.88627],[83.08133,24.87785],[83.08671,24.86673],[83.08513,24.86012],[83.08915,24.84778],[83.0954,24.83679],[83.10131,24.83597],[83.10833,24.83815],[83.11865,24.84006],[83.12353,24.83639],[83.12918,24.82544],[83.12609,24.8213],[83.11601,24.81751],[83.11341,24.81556],[83.10778,24.81654],[83.09507,24.81696],[83.08902,24.8156],[83.06106,24.80008],[83.05753,24.79914],[83.05458,24.80952],[83.05442,24.81356],[83.04757,24.81478],[83.04608,24.81793],[83.03298,24.81053],[83.02439,24.80937],[83.017,24.81469],[83.01505,24.82245],[83.01964,24.8295],[83.02737,24.83247],[83.03068,24.8369],[83.02896,24.84061],[83.01438,24.84924],[83.01261,24.86948],[83.01454,24.87586],[83.01337,24.88113],[83.0128,24.90018],[83.01064,24.90542],[83.00073,24.90402],[82.99454,24.89796],[82.98647,24.89397],[82.98683,24.88538],[82.98027,24.87346],[82.9707,24.86185],[82.96351,24.85663],[82.95725,24.85657],[82.95498,24.83758],[82.93715,24.84011],[82.93137,24.84319],[82.9306,24.85211],[82.92677,24.85644],[82.91716,24.85036],[82.91887,24.83971],[82.91419,24.83565],[82.90688,24.83446],[82.89457,24.83986],[82.88158,24.83617],[82.87572,24.837],[82.86737,24.84134],[82.83966,24.84259],[82.83143,24.84814],[82.82534,24.85443],[82.81796,24.8525],[82.80857,24.85167],[82.80199,24.84283],[82.78218,24.83708],[82.76759,24.82826],[82.76071,24.82609],[82.75275,24.82082],[82.74874,24.8225],[82.74298,24.81987],[82.72552,24.8183],[82.71683,24.82068],[82.7072,24.82709],[82.70352,24.82799],[82.70168,24.82011],[82.70306,24.81264],[82.70211,24.8088],[82.696,24.80673],[82.68256,24.79624],[82.67392,24.79361],[82.66585,24.78695],[82.65916,24.78466],[82.6465,24.78767],[82.63407,24.78665],[82.62734,24.78821],[82.63277,24.79999],[82.63473,24.81102],[82.63449,24.82137],[82.62496,24.82018],[82.62105,24.81196],[82.6138,24.81151],[82.59981,24.82423],[82.59175,24.82648],[82.58285,24.83028],[82.58084,24.82539],[82.57188,24.81494],[82.54749,24.80784],[82.54717,24.80105],[82.54944,24.7922],[82.54918,24.77984],[82.55454,24.76875],[82.55448,24.75707],[82.55612,24.7411],[82.54685,24.73605],[82.53766,24.73588],[82.53892,24.7272],[82.53804,24.71881],[82.54232,24.71283],[82.55082,24.70817],[82.55,24.6946],[82.54213,24.68869],[82.52915,24.68686],[82.52657,24.67617],[82.51719,24.67692],[82.50945,24.67623],[82.49491,24.67331],[82.48483,24.68136],[82.47217,24.67785],[82.457,24.67567],[82.45296,24.67786],[82.45655,24.68838],[82.45301,24.69412],[82.44048,24.70401],[82.42832,24.70297],[82.41555,24.69286],[82.40977,24.68153],[82.41495,24.67216],[82.41362,24.66458],[82.41993,24.65561],[82.41711,24.64733],[82.41718,24.64084],[82.41165,24.63394],[82.41178,24.62877],[82.41601,24.62061],[82.41381,24.61532],[82.42269,24.60423],[82.41729,24.59566],[82.40892,24.59652],[82.40169,24.59532],[82.39376,24.5952],[82.36896,24.59978],[82.36204,24.60225],[82.35864,24.60598],[82.35408,24.61655],[82.34319,24.62069],[82.3379,24.62149],[82.33186,24.62028],[82.32727,24.61798],[82.32344,24.61309],[82.31753,24.61067],[82.30645,24.61014],[82.30205,24.61145],[82.30116,24.61461],[82.30655,24.62572],[82.30395,24.63393],[82.30425,24.641],[82.30285,24.65152],[82.30624,24.65422],[82.30005,24.66244],[82.30458,24.66767],[82.29923,24.66853],[82.29337,24.66766],[82.2899,24.66938],[82.28668,24.67851],[82.27767,24.67949],[82.27155,24.68402],[82.26651,24.6797],[82.2749,24.67603],[82.26121,24.66372],[82.25768,24.66595],[82.25614,24.67319],[82.24368,24.67398],[82.24237,24.66955],[82.24326,24.66351],[82.23809,24.66724],[82.23701,24.67219],[82.23684,24.68834],[82.24217,24.69415],[82.25124,24.69934],[82.24863,24.70812],[82.25214,24.71394],[82.24922,24.72445],[82.24963,24.736],[82.25409,24.7382],[82.25783,24.7539],[82.25481,24.75728],[82.25187,24.77325],[82.24853,24.77296],[82.24931,24.76578],[82.24657,24.75193],[82.24057,24.75566],[82.23595,24.76305],[82.23161,24.76167],[82.22915,24.76454],[82.22675,24.76247],[82.22979,24.75741],[82.23101,24.74925],[82.21739,24.757],[82.2077,24.74956],[82.21042,24.74566],[82.22159,24.74172],[82.22424,24.73367],[82.22194,24.72619],[82.21662,24.73648],[82.21082,24.73831],[82.20332,24.73743],[82.19695,24.74127],[82.18109,24.73705],[82.1997,24.75064],[82.20388,24.76122],[82.19883,24.76702],[82.1995,24.77231],[82.19759,24.77973],[82.20226,24.78071],[82.21001,24.77814],[82.2177,24.77896],[82.21316,24.78297],[82.2137,24.78889],[82.21696,24.79522],[82.20958,24.79808],[82.20316,24.79439],[82.19679,24.79565],[82.18953,24.79827],[82.18725,24.80207],[82.18913,24.80563],[82.19951,24.81513],[82.20422,24.82192],[82.19615,24.81811],[82.19069,24.8142],[82.18199,24.81159],[82.18,24.80625],[82.17105,24.80238],[82.18159,24.79837],[82.17146,24.79318],[82.16763,24.78967],[82.15481,24.7947],[82.14048,24.80186],[82.13716,24.79714],[82.1346,24.79132],[82.12042,24.78963],[82.11601,24.79105],[82.11591,24.79818],[82.11299,24.80295],[82.10826,24.8073],[82.10566,24.81211],[82.10172,24.81901],[82.09312,24.82729],[82.08427,24.83269],[82.0985,24.83581],[82.09861,24.84052],[82.10554,24.8418],[82.12009,24.84695],[82.11666,24.85414],[82.1074,24.85112],[82.10184,24.85319],[82.10365,24.85882],[82.10256,24.86118],[82.10343,24.86475],[82.1122,24.86408],[82.11276,24.86811],[82.11191,24.87547],[82.11868,24.87192],[82.12361,24.86675],[82.13105,24.87184],[82.13395,24.8749],[82.13519,24.88014],[82.13834,24.88371],[82.13501,24.89567],[82.13549,24.90206],[82.14458,24.90496],[82.14788,24.90118],[82.15029,24.8967],[82.15814,24.89298],[82.16049,24.88976],[82.16623,24.88949],[82.16901,24.89053],[82.18175,24.90259],[82.18128,24.90788],[82.18865,24.91423],[82.19321,24.91315],[82.19921,24.91569],[82.2039,24.9303],[82.21126,24.93835],[82.2258,24.93319],[82.23033,24.93565],[82.23196,24.94041],[82.23122,24.94832],[82.24181,24.96346],[82.25188,24.96568],[82.26457,24.96659],[82.26815,24.96934],[82.27093,24.97673],[82.27554,24.98337],[82.28928,25.0007],[82.28934,25.00195],[82.28965,25.00396],[82.29023,25.0058],[82.29173,25.00748],[82.29501,25.01004],[82.29816,25.01317],[82.30296,25.01732],[82.30523,25.01949],[82.30675,25.02172],[82.30783,25.02451],[82.30784,25.02759],[82.30709,25.03142],[82.30671,25.0345],[82.30615,25.03652],[82.30332,25.04225],[82.30219,25.04376],[82.30094,25.04491],[82.29873,25.04746],[82.29715,25.04959],[82.29678,25.05057],[82.29665,25.05161],[82.29678,25.05219],[82.29716,25.05295],[82.2981,25.05381],[82.29943,25.05422],[82.3044,25.05458],[82.30554,25.05539],[82.30635,25.05643],[82.30685,25.05793],[82.30749,25.05902],[82.30925,25.05971],[82.31164,25.06007],[82.31379,25.06059],[82.3153,25.06134],[82.31624,25.06255],[82.31888,25.06665],[82.32191,25.06999],[82.32297,25.07143],[82.32568,25.07379],[82.32744,25.07569],[82.32801,25.0769],[82.32832,25.07909],[82.32807,25.08087],[82.32705,25.08369],[82.32656,25.08552],[82.32567,25.08685],[82.32397,25.08851],[82.321,25.09121],[82.31798,25.09437],[82.31703,25.09678],[82.31325,25.10098],[82.31211,25.10207],[82.30972,25.10367],[82.30789,25.10517],[82.30631,25.10654],[82.30505,25.10809],[82.30442,25.10941],[82.30391,25.11171],[82.30517,25.11723],[82.30554,25.11918],[82.30572,25.12303],[82.30528,25.12585],[82.30483,25.12791],[82.30382,25.12894],[82.30238,25.13003],[82.30086,25.13096],[82.29803,25.13285],[82.29677,25.13474],[82.29683,25.13537],[82.29751,25.13739],[82.29758,25.13957],[82.29751,25.14267],[82.29845,25.14457],[82.29946,25.14566],[82.3011,25.14824],[82.30203,25.151],[82.30228,25.15359],[82.30177,25.15646],[82.30082,25.15704],[82.30001,25.1564],[82.29907,25.15479],[82.29832,25.15387],[82.29687,25.15244],[82.29554,25.15089],[82.29246,25.14991],[82.29113,25.15054],[82.29019,25.15174],[82.28911,25.15335],[82.28816,25.15426],[82.28715,25.15553],[82.28609,25.15662],[82.28432,25.15794],[82.28192,25.15897],[82.28034,25.15931],[82.27933,25.15931],[82.27594,25.15993],[82.27335,25.16023],[82.27152,25.16109],[82.2707,25.1616],[82.27026,25.1624],[82.26995,25.16338],[82.26968,25.16459],[82.2695,25.16619],[82.26956,25.16774],[82.26949,25.16918],[82.26892,25.17182],[82.26904,25.17441],[82.26891,25.17573],[82.26947,25.17952],[82.26948,25.18072],[82.26899,25.18213],[82.27082,25.18161],[82.27479,25.18306],[82.27781,25.1845],[82.27939,25.18536],[82.28153,25.18634],[82.2833,25.18703],[82.28538,25.18808],[82.28675,25.18917],[82.28758,25.18997],[82.28903,25.19147],[82.28978,25.19389],[82.28902,25.19699],[82.28864,25.19802],[82.28807,25.19934],[82.28738,25.20032],[82.28561,25.20158],[82.2846,25.20192],[82.2817,25.20267],[82.28037,25.20312],[82.27886,25.20346],[82.27507,25.20495],[82.27116,25.20639],[82.26605,25.20793],[82.2648,25.2081],[82.26315,25.20844],[82.26083,25.20901],[82.25886,25.20958],[82.25723,25.21033],[82.25288,25.21187],[82.25174,25.21233],[82.24883,25.21301],[82.24587,25.21411],[82.24429,25.2145],[82.24372,25.21485],[82.24259,25.21622],[82.24196,25.21685],[82.24157,25.218],[82.24138,25.21932],[82.24088,25.22093],[82.24087,25.22208],[82.24106,25.22455],[82.24256,25.23128],[82.24282,25.2322],[82.24495,25.23715],[82.24513,25.23789],[82.24708,25.24036],[82.2496,25.24503],[82.25041,25.24687],[82.25091,25.24905],[82.2523,25.25204],[82.25393,25.25481],[82.25476,25.25636],[82.25814,25.26131],[82.25865,25.26228],[82.26017,25.26447],[82.26363,25.26798],[82.26602,25.26937],[82.26892,25.27092],[82.26974,25.27137],[82.271,25.2719],[82.2722,25.27259],[82.27302,25.27294],[82.27674,25.27375],[82.27844,25.27381],[82.27939,25.27398],[82.28084,25.27438],[82.28493,25.27479],[82.2867,25.27457],[82.28897,25.2744],[82.29024,25.27445],[82.29465,25.27394],[82.29755,25.27303],[82.30002,25.27165],[82.30141,25.27033],[82.30336,25.2689],[82.30507,25.26695],[82.30627,25.26579],[82.30778,25.26511],[82.30835,25.26477],[82.30892,25.26425],[82.31012,25.26258],[82.31195,25.2611],[82.31372,25.25909],[82.31454,25.25811],[82.31555,25.25644],[82.31612,25.25512],[82.31675,25.25317],[82.31796,25.24996],[82.31852,25.24829],[82.31878,25.24708],[82.31935,25.24565],[82.31966,25.24444],[82.32011,25.24318],[82.32061,25.24225],[82.32194,25.23915],[82.32232,25.23789],[82.32301,25.23622],[82.32339,25.2345],[82.32371,25.23111],[82.32422,25.2272],[82.32442,25.22629],[82.32447,25.22542],[82.32498,25.22324],[82.32524,25.22157],[82.32725,25.21795],[82.3282,25.21663],[82.32884,25.21595],[82.33098,25.21388],[82.33294,25.21256],[82.33711,25.21095],[82.33956,25.21021],[82.34101,25.20969],[82.34574,25.20929],[82.34801,25.20924],[82.34939,25.20936],[82.35109,25.20965],[82.35387,25.21063],[82.3552,25.2112],[82.35702,25.21212],[82.35853,25.21247],[82.36074,25.21408],[82.36124,25.21488],[82.36338,25.21937],[82.36445,25.22213],[82.36496,25.22425],[82.36565,25.22632],[82.36634,25.22903],[82.36653,25.23006],[82.36716,25.2311],[82.36804,25.23317],[82.36974,25.23679],[82.37106,25.23875],[82.37144,25.23972],[82.37396,25.24392],[82.37478,25.24524],[82.37604,25.24691],[82.37655,25.24788],[82.37711,25.24875],[82.37963,25.25168],[82.38064,25.25266],[82.38271,25.2557],[82.38429,25.25748],[82.38485,25.25801],[82.38694,25.25933],[82.38769,25.25962],[82.38877,25.2599],[82.39067,25.26123],[82.39161,25.26123],[82.39319,25.26152],[82.39445,25.26141],[82.39507,25.26146],[82.39622,25.26135],[82.40025,25.26008],[82.40157,25.25956],[82.40278,25.25871],[82.40422,25.25779],[82.40467,25.25739],[82.40687,25.25613],[82.40857,25.2544],[82.40977,25.25354],[82.41306,25.25188],[82.41438,25.2513],[82.41697,25.2498],[82.42265,25.24614],[82.42712,25.24366],[82.42845,25.24286],[82.42932,25.24171],[82.4328,25.24011],[82.43494,25.23889],[82.43677,25.23735],[82.44011,25.23602],[82.44439,25.23378],[82.44705,25.23252],[82.44831,25.23172],[82.44938,25.23039],[82.44983,25.22936],[82.44976,25.22885],[82.45001,25.22804],[82.45026,25.22654],[82.45033,25.22482],[82.45027,25.22229],[82.45038,25.22177],[82.4509,25.22057],[82.4526,25.22085],[82.45594,25.22161],[82.45663,25.22161],[82.45884,25.22178],[82.4601,25.22207],[82.46149,25.22252],[82.46596,25.22276],[82.46653,25.22288],[82.46716,25.22334],[82.46861,25.22707],[82.4693,25.22839],[82.46988,25.23023],[82.4712,25.23345],[82.47246,25.23695],[82.47309,25.23833],[82.47372,25.24045],[82.47549,25.24517],[82.4763,25.24683],[82.47694,25.24632],[82.47896,25.24517],[82.47996,25.24477],[82.48331,25.24397],[82.48633,25.24339],[82.48797,25.24339],[82.48992,25.2431],[82.49088,25.24288],[82.49277,25.24264],[82.49435,25.24259],[82.49592,25.24236],[82.49762,25.24241],[82.49938,25.24207],[82.50204,25.24224],[82.50354,25.24236],[82.50682,25.24224],[82.50771,25.2423],[82.51174,25.24288],[82.51339,25.24293],[82.51452,25.24287],[82.51547,25.24264],[82.51711,25.24242],[82.52108,25.24143],[82.5236,25.24092],[82.52568,25.24075],[82.52682,25.24046],[82.52978,25.23994],[82.53161,25.23942],[82.53918,25.23873],[82.54018,25.23878],[82.54113,25.23913],[82.5427,25.23999],[82.54365,25.24062],[82.54447,25.24091],[82.5463,25.24102],[82.547,25.24097],[82.54939,25.24039],[82.55128,25.24004],[82.55425,25.23959],[82.5557,25.23918],[82.55714,25.23912],[82.55904,25.23935],[82.56011,25.23981],[82.56175,25.24176],[82.56327,25.24315],[82.56485,25.24429],[82.56579,25.24526],[82.56674,25.24567],[82.5685,25.24607],[82.56945,25.24573],[82.57242,25.24343],[82.57424,25.24228],[82.57487,25.24228],[82.57531,25.24383],[82.57537,25.24589],[82.5755,25.24704],[82.57639,25.24894],[82.57683,25.24958],[82.57828,25.25055],[82.58024,25.25089],[82.58334,25.25117],[82.58642,25.25117],[82.58863,25.25106],[82.59046,25.25071],[82.59184,25.25054],[82.59512,25.24985],[82.59644,25.24945],[82.59866,25.24864],[82.60193,25.24794],[82.60584,25.24731],[82.61069,25.24558],[82.61454,25.24512],[82.61523,25.24461],[82.61611,25.24236],[82.61434,25.23363],[82.61446,25.23161],[82.61508,25.22926],[82.61616,25.22742],[82.61804,25.22586],[82.62012,25.22478],[82.62264,25.22322],[82.62731,25.22069],[82.62939,25.21976],[82.63203,25.21878],[82.63385,25.21843],[82.6365,25.21838],[82.63726,25.21843],[82.63745,25.21993],[82.63732,25.22085],[82.63745,25.22188],[82.63752,25.22389],[82.63796,25.22452],[82.63847,25.22682],[82.63931,25.23228],[82.63968,25.23389],[82.63981,25.23676],[82.64019,25.23831],[82.64051,25.2405],[82.64039,25.24332],[82.64058,25.24463],[82.64065,25.24596],[82.64109,25.24785],[82.64128,25.24929],[82.64218,25.25314],[82.64275,25.25457],[82.6447,25.25791],[82.64691,25.25871],[82.64824,25.25888],[82.64886,25.25882],[82.64975,25.25968],[82.65113,25.25991],[82.65423,25.26082],[82.65493,25.26094],[82.65707,25.26071],[82.65928,25.25973],[82.66085,25.25881],[82.6623,25.25777],[82.66488,25.25524],[82.66564,25.2542],[82.66696,25.25208],[82.66771,25.25127],[82.66884,25.24966],[82.66978,25.24868],[82.67073,25.24822],[82.67205,25.24822],[82.67206,25.24822],[82.67319,25.24844],[82.67541,25.24913],[82.67641,25.24971],[82.67723,25.25051],[82.67824,25.25195],[82.6785,25.25275],[82.67894,25.2535],[82.68027,25.25671],[82.68141,25.25907],[82.68236,25.26062],[82.68369,25.26176],[82.68444,25.26211],[82.68628,25.26263],[82.68931,25.26314],[82.6905,25.26343],[82.69246,25.26319],[82.69341,25.26342],[82.69529,25.26348],[82.69706,25.2633],[82.69851,25.26324],[82.7004,25.2633],[82.70249,25.26306],[82.70444,25.26311],[82.7062,25.263],[82.70973,25.26259],[82.71075,25.26264],[82.71339,25.26178],[82.71402,25.26143],[82.71414,25.2581],[82.71408,25.25753],[82.71426,25.25551],[82.71439,25.25454],[82.71508,25.25293],[82.71937,25.25286],[82.72384,25.25326],[82.72549,25.25355],[82.72675,25.25366],[82.73255,25.25399],[82.73412,25.25428],[82.73526,25.25427],[82.7369,25.2541],[82.73753,25.25157],[82.73847,25.24932],[82.73909,25.24772],[82.73966,25.24697],[82.74029,25.24541],[82.74267,25.2434],[82.74545,25.24173],[82.74708,25.24115],[82.74872,25.24075],[82.75036,25.24074],[82.75282,25.24063],[82.75395,25.24091],[82.75585,25.24177],[82.75718,25.24274],[82.75769,25.24366],[82.75787,25.24458],[82.75896,25.24762],[82.75908,25.24814],[82.7589,25.24895],[82.75922,25.25049],[82.75941,25.25095],[82.75985,25.25332],[82.75998,25.25446],[82.76075,25.25767],[82.76101,25.26084],[82.76095,25.26182],[82.7607,25.26343],[82.76134,25.26601],[82.76172,25.26693],[82.76241,25.26779],[82.7638,25.2679],[82.76519,25.26784],[82.76979,25.26662],[82.77074,25.26645],[82.77124,25.26639],[82.77314,25.26639],[82.77433,25.26673],[82.77496,25.26713],[82.77705,25.26834],[82.77737,25.26948],[82.77749,25.27029],[82.77788,25.27109],[82.77832,25.2715],[82.77996,25.27131],[82.78134,25.26999],[82.7819,25.26821],[82.78177,25.26689],[82.78159,25.26626],[82.78145,25.26528],[82.77918,25.26419],[82.77539,25.26311],[82.77338,25.26236],[82.77136,25.26231],[82.77135,25.26018],[82.77204,25.25904],[82.77248,25.25852],[82.77286,25.25742],[82.77349,25.25794],[82.77474,25.25541],[82.77531,25.25455],[82.77682,25.2531],[82.77725,25.2523],[82.77858,25.25057],[82.77983,25.24868],[82.78002,25.2477],[82.77977,25.24666],[82.77894,25.24523],[82.77825,25.24437],[82.77761,25.24317],[82.77704,25.24213],[82.7761,25.23994],[82.77596,25.23794],[82.77627,25.23656],[82.77659,25.2357],[82.77803,25.23379],[82.7784,25.2331],[82.77934,25.23195],[82.77998,25.23138],[82.78066,25.2304],[82.78173,25.22965],[82.7828,25.22942],[82.78514,25.22907],[82.78734,25.22929],[82.78918,25.22947],[82.79024,25.22992],[82.79107,25.23055],[82.79152,25.23124],[82.79126,25.2325],[82.79076,25.23337],[82.78913,25.23521],[82.78781,25.237],[82.78686,25.23797],[82.78605,25.23947],[82.78643,25.24223],[82.78575,25.24544],[82.7855,25.2478],[82.78594,25.24844],[82.79012,25.25067],[82.79296,25.25198],[82.79542,25.25261],[82.79719,25.25329],[82.79788,25.2537],[82.80199,25.25478],[82.80438,25.25581],[82.80956,25.25637],[82.81108,25.25637],[82.81303,25.25676],[82.81505,25.25705],[82.81707,25.25721],[82.81833,25.25699],[82.82003,25.25629],[82.82154,25.25531],[82.82185,25.25382],[82.82198,25.2526],[82.82121,25.25163],[82.82007,25.25072],[82.81855,25.24957],[82.81767,25.24877],[82.81654,25.24727],[82.81615,25.2459],[82.8147,25.2447],[82.81387,25.24446],[82.81281,25.24441],[82.81249,25.24372],[82.81203,25.24108],[82.81191,25.23849],[82.81246,25.23643],[82.81277,25.23476],[82.81384,25.23441],[82.81448,25.23389],[82.81661,25.23274],[82.81693,25.23199],[82.81704,25.23026],[82.81666,25.22923],[82.81597,25.22796],[82.81534,25.22763],[82.81483,25.227],[82.81433,25.2267],[82.81357,25.22642],[82.8123,25.22567],[82.81035,25.2251],[82.80972,25.225],[82.80807,25.22448],[82.80745,25.22437],[82.80543,25.22408],[82.80511,25.223],[82.80535,25.22195],[82.80618,25.22115],[82.80775,25.21994],[82.80894,25.21948],[82.80938,25.21844],[82.8102,25.21689],[82.81045,25.2162],[82.81094,25.21413],[82.81113,25.21287],[82.81182,25.21166],[82.81415,25.21107],[82.81491,25.21114],[82.81585,25.2101],[82.81647,25.2086],[82.81705,25.20774],[82.81672,25.20636],[82.81571,25.20608],[82.81357,25.20608],[82.80607,25.20707],[82.80418,25.20748],[82.80184,25.20777],[82.80096,25.20795],[82.79964,25.20835],[82.79656,25.20893],[82.79548,25.20922],[82.79454,25.20933],[82.79246,25.20986],[82.7878,25.20838],[82.78653,25.20798],[82.7852,25.20683],[82.78431,25.20476],[82.78463,25.2039],[82.78506,25.20367],[82.78639,25.20349],[82.78733,25.20246],[82.78802,25.20061],[82.78883,25.19803],[82.78909,25.19727],[82.78967,25.19542],[82.78998,25.19444],[82.79074,25.19346],[82.79123,25.193],[82.79476,25.1911],[82.7969,25.19081],[82.79854,25.19058],[82.80011,25.19012],[82.80125,25.19017],[82.8027,25.18988],[82.80307,25.1885],[82.80225,25.18683],[82.80118,25.18523],[82.80041,25.18466],[82.79972,25.18391],[82.79884,25.18317],[82.79719,25.18179],[82.79561,25.18024],[82.79372,25.17909],[82.79472,25.17851],[82.79629,25.17731],[82.79869,25.17575],[82.79976,25.17483],[82.80183,25.17345],[82.80379,25.1723],[82.80536,25.17252],[82.80587,25.17299],[82.80708,25.1758],[82.80776,25.17689],[82.80866,25.1793],[82.80897,25.18068],[82.80923,25.18114],[82.80935,25.18258],[82.80936,25.18395],[82.80963,25.18671],[82.80944,25.18752],[82.80994,25.18832],[82.8112,25.18803],[82.81341,25.18785],[82.81498,25.18751],[82.8163,25.18734],[82.81826,25.18658],[82.82191,25.18554],[82.82337,25.1856],[82.82412,25.18548],[82.82563,25.1852],[82.82593,25.18215],[82.826,25.18083],[82.82619,25.18036],[82.82649,25.17899],[82.82743,25.17727],[82.82944,25.17594],[82.83197,25.17508],[82.83323,25.17478],[82.83461,25.17433],[82.83505,25.17398],[82.83587,25.17277],[82.83611,25.17116],[82.83668,25.16955],[82.83805,25.16783],[82.83938,25.16753],[82.84083,25.16736],[82.84588,25.16701],[82.8477,25.16678],[82.8513,25.16729],[82.853,25.16763],[82.8547,25.16814],[82.85684,25.16906],[82.85867,25.17032],[82.85931,25.1709],[82.86146,25.17343],[82.86254,25.17503],[82.86317,25.17612],[82.86368,25.17733],[82.86482,25.1791],[82.86609,25.18072],[82.86843,25.18456],[82.86893,25.18525],[82.87058,25.1868],[82.8719,25.18772],[82.87286,25.18823],[82.87361,25.18852],[82.87499,25.1884],[82.87594,25.18967],[82.87583,25.19075],[82.87451,25.19174],[82.87224,25.19197],[82.87085,25.19243],[82.8701,25.19277],[82.87004,25.19341],[82.87017,25.19403],[82.86991,25.19553],[82.87017,25.1964],[82.87036,25.19754],[82.87094,25.19863],[82.87157,25.19955],[82.87403,25.2011],[82.87548,25.20162],[82.87688,25.20173],[82.87902,25.2011],[82.88027,25.20104],[82.88241,25.20045],[82.88355,25.19954],[82.88469,25.20183],[82.88577,25.20315],[82.88615,25.2039],[82.8869,25.20499],[82.8883,25.20672],[82.88969,25.20786],[82.89102,25.20861],[82.89171,25.20883],[82.89424,25.20878],[82.89568,25.20854],[82.89656,25.20832],[82.89713,25.20883],[82.89739,25.20946],[82.89784,25.20998],[82.89834,25.21135],[82.89954,25.21394],[82.90049,25.21486],[82.90182,25.21561],[82.90264,25.21554],[82.90334,25.21445],[82.90396,25.21279],[82.90434,25.2121],[82.90547,25.21187],[82.90591,25.2121],[82.91001,25.21302],[82.91241,25.21324],[82.9148,25.21336],[82.91626,25.2133],[82.91884,25.21307],[82.92482,25.21169],[82.92734,25.21094],[82.9298,25.21003],[82.93194,25.209],[82.93345,25.20814],[82.93603,25.2078],[82.94146,25.20821],[82.94511,25.20828],[82.94808,25.20817],[82.95092,25.20801],[82.95344,25.20767],[82.95773,25.20764],[82.96139,25.20741],[82.9639,25.20696],[82.97008,25.20638],[82.9745,25.20605],[82.97797,25.2055],[82.98144,25.20506],[82.98649,25.20402],[82.99058,25.20334],[82.99412,25.20308],[82.99999,25.2024],[83.00221,25.20271],[83.00956,25.20658],[83.01274,25.20919],[83.02123,25.21867],[83.02568,25.22545],[83.03196,25.2418],[83.03414,25.24148]]]}}]}