{"type":"FeatureCollection","features":[{"type":"Feature","properties":{"id":"muzaffarnagar","name":"Muzaffarnagar","stateId":"uttar-pradesh","stateName":"Uttar Pradesh","censuscode":133,"type":"district"},"geometry":{"type":"Polygon","coordinates":[[[78.00001,29.54025],[77.99725,29.53939],[77.99594,29.53784],[77.99437,29.52367],[77.99394,29.50791],[77.99353,29.49327],[77.99519,29.4854],[77.99635,29.48183],[78.00002,29.47557],[78.00398,29.47394],[78.00764,29.46893],[78.00904,29.46826],[78.01764,29.47026],[78.0191,29.46948],[78.02081,29.46702],[78.02074,29.46471],[78.01696,29.46215],[78.02933,29.45276],[78.03233,29.44791],[78.03423,29.43499],[78.0378,29.42994],[78.04447,29.425],[78.04947,29.41917],[78.05397,29.41206],[78.05664,29.41117],[78.06255,29.41112],[78.06423,29.40838],[78.06567,29.40394],[78.06533,29.40194],[78.05166,29.39255],[78.04894,29.3889],[78.05086,29.38285],[78.05105,29.37727],[78.06171,29.37043],[78.06539,29.36132],[78.06819,29.35915],[78.07996,29.35901],[78.08343,29.35777],[78.08516,29.35576],[78.08829,29.34095],[78.09156,29.3373],[78.09493,29.33582],[78.10049,29.3316],[78.10524,29.32675],[78.10984,29.32371],[78.11199,29.31836],[78.11311,29.3107],[78.11897,29.29891],[78.12146,29.28844],[78.12764,29.28149],[78.13483,29.26582],[78.13701,29.26036],[78.13718,29.2534],[78.1197,29.25449],[78.11465,29.25424],[78.10956,29.25134],[78.10543,29.25403],[78.10176,29.25527],[78.09348,29.2562],[78.08253,29.26101],[78.07257,29.26219],[78.06909,29.26122],[78.0372,29.2618],[78.02767,29.25214],[78.02493,29.25],[78.02255,29.24806],[78.00002,29.24902],[77.99899,29.24863],[77.99778,29.24731],[77.99536,29.24042],[77.99114,29.23419],[77.98454,29.23535],[77.97822,29.23764],[77.97116,29.23273],[77.96614,29.2319],[77.96512,29.22932],[77.96319,29.2279],[77.95511,29.23126],[77.95008,29.23135],[77.94419,29.2305],[77.93897,29.22785],[77.93469,29.22457],[77.93189,29.22],[77.93142,29.21484],[77.9302,29.21127],[77.92937,29.20976],[77.92661,29.2086],[77.92319,29.21026],[77.91849,29.20951],[77.91171,29.21202],[77.90818,29.20999],[77.90404,29.20616],[77.90192,29.20577],[77.89194,29.21194],[77.88276,29.2138],[77.87655,29.21875],[77.87189,29.22158],[77.8688,29.22241],[77.86609,29.22108],[77.86321,29.21723],[77.86012,29.20928],[77.85818,29.20762],[77.85739,29.20375],[77.85247,29.19764],[77.85011,29.19773],[77.845,29.19463],[77.84164,29.19628],[77.83422,29.19609],[77.82258,29.19434],[77.81634,29.19597],[77.81191,29.19542],[77.80392,29.18044],[77.7987,29.1807],[77.79072,29.1818],[77.78552,29.18043],[77.78211,29.18037],[77.7815,29.18295],[77.78196,29.18691],[77.78443,29.19266],[77.78434,29.19539],[77.76869,29.20319],[77.75051,29.21439],[77.74799,29.21484],[77.74406,29.21289],[77.73904,29.21524],[77.73634,29.21483],[77.71991,29.22211],[77.71306,29.22144],[77.70944,29.22012],[77.70106,29.22236],[77.69381,29.2234],[77.69564,29.22951],[77.69506,29.23382],[77.68435,29.24031],[77.6851,29.2458],[77.67994,29.24791],[77.67122,29.24989],[77.66513,29.24999],[77.65737,29.2432],[77.65162,29.22215],[77.6404,29.22285],[77.63396,29.22561],[77.63062,29.23078],[77.62779,29.2366],[77.62553,29.24724],[77.61854,29.25067],[77.61273,29.25201],[77.6057,29.2525],[77.59936,29.25588],[77.59518,29.26018],[77.59092,29.26149],[77.5892,29.25594],[77.57803,29.24848],[77.57715,29.24484],[77.57164,29.24057],[77.5704,29.2385],[77.57244,29.23366],[77.57156,29.23117],[77.5621,29.22656],[77.55715,29.22189],[77.55071,29.22258],[77.54812,29.21996],[77.54584,29.21595],[77.54327,29.21375],[77.53684,29.21247],[77.53295,29.20791],[77.53235,29.20241],[77.52577,29.20194],[77.5218,29.20248],[77.51851,29.20118],[77.51482,29.19759],[77.51109,29.18923],[77.50747,29.19014],[77.49723,29.19809],[77.49368,29.19887],[77.48749,29.19614],[77.48562,29.19983],[77.48275,29.20301],[77.47523,29.20732],[77.47355,29.21169],[77.46343,29.21962],[77.46152,29.22372],[77.46204,29.2256],[77.46044,29.2273],[77.45687,29.22579],[77.45003,29.22516],[77.44315,29.22621],[77.43637,29.23083],[77.42894,29.23145],[77.42328,29.23727],[77.41067,29.24506],[77.40338,29.2459],[77.39631,29.24811],[77.39147,29.24806],[77.3891,29.24682],[77.38613,29.24232],[77.38397,29.23714],[77.38246,29.23591],[77.3715,29.23881],[77.36442,29.23969],[77.35523,29.23926],[77.33227,29.24823],[77.32475,29.25387],[77.32284,29.25583],[77.31558,29.25926],[77.30947,29.261],[77.30629,29.2605],[77.29844,29.25738],[77.29264,29.25997],[77.28607,29.26503],[77.2823,29.2667],[77.27032,29.26463],[77.26571,29.26634],[77.25952,29.26688],[77.25628,29.26851],[77.25533,29.27122],[77.25532,29.27641],[77.25413,29.27856],[77.24635,29.28],[77.23975,29.2801],[77.22414,29.27668],[77.20696,29.27421],[77.19931,29.27552],[77.1872,29.28003],[77.1876,29.28364],[77.18659,29.28739],[77.18238,29.29047],[77.16045,29.29399],[77.15331,29.29641],[77.16524,29.31182],[77.16464,29.31716],[77.16209,29.32042],[77.16107,29.3266],[77.16502,29.33039],[77.16293,29.3342],[77.15752,29.33998],[77.13865,29.33929],[77.13475,29.33992],[77.1311,29.34474],[77.12859,29.3521],[77.12992,29.35692],[77.1278,29.36754],[77.12804,29.37163],[77.13158,29.37372],[77.14218,29.37565],[77.14979,29.37885],[77.15794,29.38472],[77.15712,29.38742],[77.15122,29.38967],[77.14461,29.39339],[77.14025,29.39745],[77.13704,29.4056],[77.13605,29.41714],[77.14698,29.42718],[77.14968,29.43182],[77.15062,29.43707],[77.14898,29.44155],[77.14322,29.44547],[77.13536,29.44793],[77.13464,29.44833],[77.12907,29.45146],[77.12554,29.45686],[77.12528,29.46529],[77.12671,29.4704],[77.13167,29.47507],[77.13462,29.48107],[77.1312,29.49234],[77.12584,29.49818],[77.11474,29.50458],[77.10893,29.50705],[77.09782,29.52331],[77.09624,29.52865],[77.09757,29.53457],[77.10077,29.53975],[77.10666,29.5427],[77.11581,29.54396],[77.12111,29.54804],[77.11817,29.56142],[77.11341,29.57207],[77.10521,29.58229],[77.10133,29.58551],[77.09827,29.59156],[77.09708,29.5959],[77.10367,29.60377],[77.10536,29.60806],[77.10604,29.61286],[77.11197,29.61737],[77.1131,29.62001],[77.1126,29.62818],[77.11643,29.63067],[77.11937,29.63505],[77.12124,29.64233],[77.13336,29.64862],[77.141,29.65367],[77.1429,29.65808],[77.14274,29.66143],[77.13159,29.67536],[77.13079,29.68095],[77.13273,29.68667],[77.13718,29.69202],[77.14384,29.69458],[77.14809,29.68978],[77.15551,29.68675],[77.1616,29.69054],[77.16754,29.68916],[77.1741,29.68588],[77.18252,29.68284],[77.19246,29.68197],[77.20274,29.67958],[77.20536,29.68577],[77.20874,29.68615],[77.21613,29.6897],[77.22051,29.69222],[77.22301,29.69547],[77.23086,29.68814],[77.23467,29.6869],[77.25719,29.673],[77.25939,29.67472],[77.2651,29.67225],[77.26968,29.66945],[77.27251,29.6664],[77.27878,29.66453],[77.28164,29.665],[77.28233,29.66992],[77.28547,29.67395],[77.28776,29.67364],[77.29074,29.67173],[77.29995,29.67068],[77.3039,29.66877],[77.30485,29.6648],[77.31074,29.66006],[77.32574,29.65474],[77.33068,29.65174],[77.33357,29.64833],[77.33846,29.64568],[77.34171,29.64509],[77.34769,29.65033],[77.35627,29.64856],[77.35911,29.65197],[77.3644,29.65038],[77.36712,29.65415],[77.3742,29.65281],[77.37862,29.64972],[77.38374,29.64746],[77.39058,29.6463],[77.39493,29.64869],[77.40246,29.65453],[77.40512,29.65281],[77.40987,29.65184],[77.41363,29.65525],[77.41731,29.65735],[77.42772,29.65124],[77.43281,29.64961],[77.43779,29.65445],[77.44056,29.65879],[77.44094,29.66383],[77.44288,29.66747],[77.44631,29.66975],[77.45337,29.67106],[77.45927,29.66857],[77.47157,29.65704],[77.47648,29.6557],[77.48613,29.65541],[77.48739,29.65234],[77.48571,29.6488],[77.48615,29.64635],[77.49076,29.64203],[77.48883,29.63246],[77.49417,29.62867],[77.50099,29.62542],[77.50852,29.62388],[77.51258,29.6246],[77.51584,29.62751],[77.5209,29.62283],[77.52654,29.61998],[77.53341,29.62022],[77.53239,29.62926],[77.53873,29.63348],[77.54608,29.63223],[77.55355,29.62724],[77.56835,29.6264],[77.59174,29.6209],[77.60038,29.62246],[77.61565,29.61592],[77.62496,29.61298],[77.62707,29.60573],[77.6297,29.60208],[77.6335,29.60062],[77.65042,29.58861],[77.65005,29.5797],[77.65118,29.57354],[77.65348,29.5672],[77.65775,29.56154],[77.66174,29.56105],[77.66648,29.57413],[77.67177,29.57875],[77.6856,29.59566],[77.69682,29.61444],[77.71909,29.60853],[77.72243,29.61127],[77.72327,29.61667],[77.72732,29.6171],[77.73034,29.61241],[77.73532,29.61048],[77.74416,29.6038],[77.74789,29.60716],[77.75869,29.61243],[77.76509,29.62111],[77.7734,29.62416],[77.77752,29.62885],[77.78275,29.63225],[77.79101,29.62873],[77.79591,29.63686],[77.81383,29.65597],[77.82315,29.66703],[77.83339,29.66353],[77.84105,29.66387],[77.84635,29.66641],[77.85054,29.67005],[77.85277,29.67389],[77.85506,29.67582],[77.85919,29.67515],[77.86076,29.67871],[77.8662,29.68343],[77.87064,29.68258],[77.87837,29.68793],[77.88204,29.68852],[77.88218,29.6933],[77.88604,29.69648],[77.88939,29.6949],[77.89436,29.69451],[77.89902,29.69521],[77.91211,29.69232],[77.9224,29.69343],[77.91703,29.69705],[77.91853,29.69859],[77.92057,29.69736],[77.92174,29.69833],[77.92024,29.69978],[77.92182,29.70086],[77.92292,29.69998],[77.92843,29.70615],[77.93237,29.70835],[77.93715,29.70715],[77.93944,29.70908],[77.94272,29.70754],[77.94887,29.7084],[77.9512,29.70924],[77.95305,29.70909],[77.95468,29.70688],[77.96164,29.70213],[77.9642,29.69984],[77.95843,29.69825],[77.95451,29.69651],[77.95335,29.69451],[77.9558,29.6912],[77.95848,29.68994],[77.95547,29.68811],[77.95526,29.68605],[77.95711,29.6859],[77.95597,29.68391],[77.95689,29.68383],[77.95759,29.6817],[77.95944,29.68154],[77.96396,29.68013],[77.9663,29.67579],[77.96885,29.6735],[77.97049,29.67128],[77.97374,29.66686],[77.97445,29.66472],[77.97538,29.66465],[77.98136,29.6683],[77.98345,29.67021],[77.98436,29.67014],[77.98425,29.66911],[77.98496,29.66697],[77.98381,29.66499],[77.98267,29.66301],[77.98152,29.66102],[77.9813,29.65896],[77.98108,29.6569],[77.98004,29.65595],[77.97889,29.65396],[77.97752,29.64992],[77.97964,29.64351],[77.98383,29.63901],[77.98659,29.63878],[77.98752,29.63871],[77.98915,29.63649],[77.98686,29.63253],[77.98527,29.62642],[77.98563,29.62119],[77.98703,29.61692],[77.98752,29.61273],[77.98892,29.60846],[77.98673,29.60551],[77.98233,29.60794],[77.97841,29.60618],[77.97448,29.60441],[77.97193,29.60671],[77.97031,29.60892],[77.96776,29.61121],[77.96395,29.61048],[77.96177,29.60754],[77.96247,29.6054],[77.96306,29.60223],[77.96446,29.59794],[77.96528,29.59684],[77.96298,29.59286],[77.96081,29.58992],[77.96058,29.58786],[77.96037,29.5858],[77.95933,29.58485],[77.96025,29.58478],[77.96188,29.58255],[77.9636,29.58136],[77.96524,29.57914],[77.96802,29.57888],[77.97193,29.58062],[77.97378,29.58046],[77.97541,29.57824],[77.97835,29.57892],[77.97939,29.58013],[77.98158,29.57959],[77.98473,29.57756],[77.98504,29.57774],[77.98907,29.57773],[77.99085,29.57977],[77.99306,29.58221],[77.99436,29.58342],[77.99582,29.58246],[77.9966,29.57895],[77.99609,29.57426],[77.99278,29.56317],[77.99084,29.56257],[77.98876,29.55823],[77.98906,29.55251],[77.99085,29.54853],[78.00001,29.54025]]]}}]}