{"type":"FeatureCollection","features":[{"type":"Feature","properties":{"id":"pilibhit","name":"Pilibhit","stateId":"uttar-pradesh","stateName":"Uttar Pradesh","censuscode":151,"type":"district"},"geometry":{"type":"Polygon","coordinates":[[[80.07035,28.82923],[80.07573,28.82586],[80.08151,28.82386],[80.08216,28.82361],[80.0893,28.82402],[80.10057,28.82352],[80.10702,28.8239],[80.11159,28.82526],[80.11903,28.82595],[80.12364,28.82502],[80.13339,28.82214],[80.13388,28.82148],[80.1344,28.82125],[80.13493,28.8199],[80.13872,28.81756],[80.1403,28.81658],[80.145,28.81319],[80.14524,28.81255],[80.15138,28.80728],[80.15138,28.80636],[80.15498,28.80389],[80.15498,28.80299],[80.15704,28.80118],[80.16474,28.79532],[80.16474,28.7944],[80.16544,28.7939],[80.16623,28.79369],[80.16649,28.79307],[80.16709,28.79266],[80.16785,28.79243],[80.17218,28.789],[80.17218,28.7881],[80.17267,28.78741],[80.175,28.78583],[80.17526,28.78473],[80.18118,28.78132],[80.18527,28.77812],[80.18554,28.77745],[80.1984,28.76737],[80.19941,28.76645],[80.21069,28.75992],[80.21512,28.75812],[80.22296,28.75588],[80.22425,28.75565],[80.22938,28.75588],[80.24755,28.75816],[80.25445,28.75682],[80.26216,28.75345],[80.26627,28.75038],[80.26651,28.74976],[80.26831,28.74845],[80.26883,28.74733],[80.26935,28.74709],[80.27025,28.74372],[80.27074,28.74351],[80.26834,28.73534],[80.26747,28.73422],[80.26529,28.72949],[80.26402,28.72856],[80.26402,28.72789],[80.2621,28.72587],[80.26224,28.72473],[80.26322,28.72424],[80.26583,28.72293],[80.2707,28.71955],[80.27276,28.71796],[80.2748,28.71232],[80.27893,28.70998],[80.27969,28.70961],[80.28224,28.70893],[80.29351,28.70825],[80.30039,28.70692],[80.31998,28.69828],[80.32129,28.69732],[80.32293,28.69654],[80.32384,28.69495],[80.32462,28.69133],[80.32411,28.68908],[80.32347,28.68818],[80.32425,28.68502],[80.32477,28.68479],[80.32642,28.67845],[80.3283,28.6756],[80.32854,28.67445],[80.30499,28.6411],[80.30262,28.63197],[80.30183,28.62329],[80.30374,28.61652],[80.31193,28.61423],[80.32433,28.61487],[80.33108,28.61332],[80.33934,28.60935],[80.34982,28.60108],[80.35462,28.59266],[80.35916,28.5914],[80.37168,28.5949],[80.37571,28.59494],[80.38088,28.5921],[80.37945,28.58834],[80.37517,28.58457],[80.37707,28.57841],[80.38344,28.57404],[80.38547,28.56592],[80.38541,28.56281],[80.38712,28.55904],[80.39173,28.55563],[80.39564,28.5515],[80.4017,28.5433],[80.40416,28.53748],[80.40839,28.53352],[80.41217,28.52865],[80.41368,28.52481],[80.41702,28.52124],[80.42955,28.51797],[80.43415,28.5153],[80.43509,28.51091],[80.43347,28.50257],[80.43009,28.4992],[80.42883,28.4956],[80.42721,28.49368],[80.42256,28.49099],[80.42106,28.48542],[80.41855,28.4807],[80.41364,28.48066],[80.41094,28.48157],[80.40661,28.47928],[80.40057,28.47807],[80.39629,28.47797],[80.39183,28.47883],[80.38895,28.47371],[80.37633,28.45984],[80.36294,28.46311],[80.3586,28.46114],[80.34133,28.47536],[80.32869,28.4785],[80.32402,28.48106],[80.32252,28.4805],[80.32102,28.47769],[80.31092,28.46673],[80.30104,28.45334],[80.28668,28.45586],[80.26605,28.457],[80.24627,28.45487],[80.24202,28.45273],[80.2399,28.44987],[80.23943,28.4439],[80.24164,28.44056],[80.24506,28.43733],[80.24529,28.42966],[80.247,28.42622],[80.25137,28.42209],[80.25287,28.41262],[80.25183,28.40811],[80.2433,28.39646],[80.23894,28.39179],[80.23409,28.38324],[80.21934,28.38622],[80.21406,28.38607],[80.20931,28.38519],[80.20457,28.3808],[80.20279,28.3768],[80.20315,28.36671],[80.20494,28.36124],[80.20446,28.3587],[80.20189,28.35622],[80.20149,28.3512],[80.18837,28.34488],[80.186,28.34466],[80.18616,28.34697],[80.18484,28.349],[80.18283,28.35014],[80.17431,28.35096],[80.17173,28.35227],[80.17138,28.35848],[80.16873,28.36074],[80.1685,28.36694],[80.16723,28.36976],[80.16327,28.3717],[80.16269,28.3748],[80.15639,28.38096],[80.14933,28.38538],[80.14443,28.38686],[80.12898,28.38764],[80.12624,28.38302],[80.10777,28.38339],[80.10285,28.38215],[80.10013,28.38034],[80.09919,28.37723],[80.10309,28.37266],[80.09963,28.3665],[80.0976,28.36406],[80.09544,28.36305],[80.09045,28.36353],[80.07245,28.33216],[80.066,28.33574],[80.05957,28.34786],[80.0562,28.34954],[80.05128,28.35016],[80.04484,28.35311],[80.03676,28.35545],[80.02513,28.35825],[80.01444,28.36224],[80.01488,28.35826],[80.00794,28.34463],[80.00002,28.34141],[79.99799,28.3402],[79.9947,28.33822],[79.99173,28.33708],[79.9878,28.33602],[79.98226,28.33493],[79.97956,28.33447],[79.97609,28.33401],[79.9723,28.33358],[79.96631,28.33305],[79.95744,28.33131],[79.95451,28.32953],[79.95287,28.32819],[79.94817,28.32254],[79.94592,28.3182],[79.9446,28.31554],[79.94282,28.31319],[79.94189,28.31088],[79.94204,28.30605],[79.94297,28.30464],[79.94568,28.30049],[79.9474,28.29815],[79.95001,28.28054],[79.94992,28.2738],[79.9507,28.26744],[79.95292,28.26127],[79.95418,28.25665],[79.95598,28.24623],[79.95524,28.2412],[79.95576,28.23252],[79.9568,28.22621],[79.95822,28.21893],[79.95848,28.21502],[79.95742,28.19671],[79.9567,28.19137],[79.95806,28.18802],[79.95993,28.18617],[79.9622,28.18261],[79.96249,28.17992],[79.96452,28.1723],[79.96522,28.16756],[79.9645,28.16396],[79.96412,28.16011],[79.96441,28.15446],[79.96489,28.15104],[79.96525,28.14652],[79.96508,28.14262],[79.96391,28.14044],[79.96072,28.1345],[79.95738,28.12693],[79.95828,28.12096],[79.95826,28.11869],[79.95552,28.11686],[79.95149,28.11705],[79.94575,28.11745],[79.94339,28.11643],[79.94003,28.11514],[79.93729,28.11594],[79.9357,28.11856],[79.9347,28.12056],[79.9331,28.12444],[79.92539,28.12646],[79.92145,28.12866],[79.91928,28.13078],[79.91653,28.13337],[79.90931,28.13813],[79.9067,28.14014],[79.90059,28.14082],[79.89764,28.13984],[79.88776,28.13753],[79.8821,28.13463],[79.88023,28.13275],[79.87808,28.13009],[79.86282,28.13811],[79.86382,28.14184],[79.86508,28.14632],[79.86309,28.1478],[79.86358,28.15134],[79.86567,28.15451],[79.8681,28.15589],[79.87028,28.15537],[79.87272,28.15443],[79.8755,28.15253],[79.88075,28.1511],[79.88168,28.15343],[79.8759,28.15496],[79.8812,28.16152],[79.88479,28.16657],[79.8847,28.16823],[79.88743,28.17793],[79.88457,28.18226],[79.8798,28.18217],[79.87702,28.1841],[79.87509,28.18358],[79.87206,28.18655],[79.86972,28.18725],[79.86393,28.1884],[79.86621,28.19364],[79.86783,28.196],[79.85779,28.20124],[79.85384,28.19997],[79.84991,28.20044],[79.84654,28.20308],[79.84369,28.20512],[79.84211,28.20688],[79.84042,28.20858],[79.84083,28.21123],[79.84244,28.21567],[79.84391,28.22002],[79.84461,28.22445],[79.84483,28.22779],[79.84441,28.23064],[79.8415,28.23343],[79.83148,28.23938],[79.82623,28.23823],[79.81777,28.23815],[79.81475,28.23926],[79.81174,28.23889],[79.8108,28.23678],[79.8104,28.23368],[79.81083,28.22949],[79.81168,28.2259],[79.81299,28.21991],[79.81477,28.21709],[79.8171,28.21337],[79.81812,28.20905],[79.82001,28.20643],[79.82171,28.19952],[79.82034,28.19486],[79.8165,28.19034],[79.81449,28.18856],[79.813,28.18441],[79.81155,28.18033],[79.80793,28.17588],[79.80556,28.17187],[79.80249,28.1685],[79.79678,28.16829],[79.79348,28.1696],[79.79081,28.1686],[79.78921,28.16666],[79.78843,28.16499],[79.78506,28.16105],[79.78166,28.1598],[79.77946,28.16088],[79.77346,28.16302],[79.76957,28.16578],[79.76473,28.16906],[79.76192,28.17145],[79.75804,28.17303],[79.75546,28.17498],[79.75219,28.1776],[79.75134,28.1813],[79.7459,28.18496],[79.74303,28.18439],[79.73884,28.1823],[79.73506,28.18246],[79.72936,28.17886],[79.72668,28.17995],[79.72444,28.17956],[79.72183,28.18424],[79.72759,28.18601],[79.73059,28.18824],[79.73401,28.19328],[79.73456,28.19569],[79.73056,28.19778],[79.72494,28.19892],[79.71937,28.19777],[79.71592,28.19997],[79.71438,28.20501],[79.71626,28.20893],[79.72045,28.21261],[79.72261,28.21512],[79.72818,28.21885],[79.73308,28.21936],[79.7378,28.22016],[79.73749,28.22306],[79.73651,28.22921],[79.73329,28.23159],[79.73092,28.23329],[79.72258,28.23325],[79.71513,28.23267],[79.7125,28.23204],[79.70916,28.23344],[79.7069,28.23429],[79.70524,28.23722],[79.7067,28.24083],[79.70421,28.2426],[79.70193,28.24737],[79.68516,28.26307],[79.68798,28.26561],[79.68837,28.26978],[79.69213,28.27131],[79.69495,28.2634],[79.70227,28.26351],[79.71177,28.26438],[79.71365,28.26773],[79.71292,28.26962],[79.71096,28.27592],[79.71174,28.28132],[79.71066,28.28652],[79.70717,28.28819],[79.70121,28.29053],[79.69556,28.29277],[79.69096,28.29593],[79.68516,28.30271],[79.68083,28.30453],[79.67834,28.30621],[79.67667,28.30915],[79.67555,28.31305],[79.67325,28.31694],[79.67397,28.31981],[79.67989,28.32684],[79.68206,28.32998],[79.69002,28.33895],[79.69108,28.34077],[79.69288,28.34569],[79.69744,28.35095],[79.69734,28.35931],[79.70076,28.36146],[79.70247,28.36543],[79.70288,28.37251],[79.7009,28.376],[79.69735,28.37543],[79.69284,28.37516],[79.68935,28.37475],[79.68784,28.37641],[79.68624,28.37817],[79.68758,28.38442],[79.68033,28.38758],[79.67385,28.38862],[79.67187,28.39127],[79.68536,28.39767],[79.69013,28.40126],[79.69821,28.41501],[79.70495,28.41807],[79.70822,28.41612],[79.71234,28.41015],[79.72305,28.41301],[79.72577,28.41862],[79.72537,28.43028],[79.72441,28.44306],[79.72126,28.45024],[79.72094,28.45461],[79.72782,28.4602],[79.73541,28.45823],[79.73854,28.4529],[79.73779,28.44699],[79.74039,28.44245],[79.74529,28.44153],[79.75372,28.44687],[79.75742,28.45032],[79.75608,28.45484],[79.74723,28.46235],[79.74437,28.46593],[79.74347,28.47585],[79.74807,28.48762],[79.74996,28.49631],[79.74919,28.49956],[79.74859,28.50206],[79.74859,28.50458],[79.74728,28.50737],[79.72072,28.51646],[79.7175,28.53105],[79.71146,28.53233],[79.70365,28.52801],[79.70202,28.52495],[79.70471,28.51961],[79.70192,28.51866],[79.69035,28.52307],[79.68652,28.5263],[79.68519,28.52852],[79.68693,28.53653],[79.68675,28.54175],[79.69229,28.55203],[79.69256,28.55584],[79.68532,28.55525],[79.67865,28.55303],[79.66969,28.5484],[79.6655,28.54927],[79.66291,28.55455],[79.66692,28.56699],[79.67355,28.57223],[79.67541,28.57726],[79.67553,28.58272],[79.67283,28.58316],[79.66745,28.58244],[79.6609,28.58263],[79.65348,28.58477],[79.65241,28.5907],[79.65287,28.59508],[79.65005,28.60076],[79.64564,28.60301],[79.63644,28.60102],[79.62828,28.59742],[79.62273,28.59657],[79.61253,28.59276],[79.60791,28.59641],[79.60649,28.60268],[79.59972,28.61595],[79.60242,28.62066],[79.60582,28.62456],[79.60762,28.62994],[79.6013,28.63265],[79.59833,28.6349],[79.61375,28.64761],[79.61316,28.65035],[79.61275,28.65333],[79.61291,28.65537],[79.61472,28.65874],[79.61644,28.66093],[79.61801,28.66385],[79.61987,28.66654],[79.6217,28.67065],[79.62222,28.6749],[79.62019,28.67828],[79.61765,28.68257],[79.61781,28.68747],[79.62003,28.69013],[79.62207,28.69256],[79.6251,28.69535],[79.62824,28.70165],[79.62874,28.70584],[79.62941,28.70902],[79.63107,28.71098],[79.63344,28.71325],[79.63654,28.71689],[79.64262,28.72192],[79.64544,28.72278],[79.64819,28.72505],[79.65077,28.72366],[79.65361,28.72503],[79.65581,28.72464],[79.65811,28.72634],[79.65894,28.72897],[79.66697,28.73539],[79.66843,28.73702],[79.66971,28.73846],[79.67263,28.74346],[79.67176,28.7457],[79.66923,28.74839],[79.66955,28.7532],[79.67095,28.75747],[79.66983,28.75975],[79.66398,28.76391],[79.66057,28.76549],[79.6571,28.76847],[79.6548,28.77069],[79.6549,28.78269],[79.65586,28.78756],[79.65688,28.79109],[79.65753,28.79669],[79.65753,28.8027],[79.65644,28.80865],[79.65407,28.81785],[79.65212,28.82182],[79.64975,28.82501],[79.64797,28.82918],[79.64323,28.83822],[79.64604,28.84206],[79.65109,28.8444],[79.64254,28.85276],[79.64635,28.85234],[79.65289,28.85036],[79.65506,28.84713],[79.65573,28.84681],[79.66584,28.84264],[79.67126,28.84164],[79.678,28.84223],[79.67909,28.84393],[79.67889,28.84801],[79.68467,28.85151],[79.69616,28.85125],[79.69827,28.8609],[79.69997,28.86209],[79.70417,28.86223],[79.70889,28.86419],[79.71375,28.86381],[79.71702,28.86413],[79.71749,28.86626],[79.71859,28.86915],[79.72147,28.87312],[79.72404,28.87459],[79.72741,28.87569],[79.73,28.87668],[79.74023,28.87898],[79.7447,28.877],[79.74915,28.8765],[79.75232,28.87709],[79.75318,28.87927],[79.75675,28.88369],[79.76058,28.88545],[79.76186,28.88727],[79.77165,28.88344],[79.77386,28.88361],[79.78635,28.88574],[79.80252,28.87135],[79.80314,28.86773],[79.80349,28.86432],[79.80672,28.86378],[79.80883,28.86437],[79.81467,28.86574],[79.81762,28.86297],[79.8188,28.86023],[79.8205,28.85674],[79.82089,28.85283],[79.81997,28.85021],[79.81178,28.84818],[79.80648,28.84677],[79.80855,28.84346],[79.81002,28.84195],[79.81,28.83995],[79.80615,28.83695],[79.80551,28.83319],[79.81102,28.83015],[79.81328,28.8272],[79.81302,28.82356],[79.81169,28.81861],[79.80963,28.81474],[79.80885,28.81041],[79.80658,28.80864],[79.80369,28.80908],[79.8012,28.81362],[79.79797,28.81485],[79.79394,28.8071],[79.79513,28.79934],[79.79724,28.80012],[79.8038,28.79696],[79.80651,28.79772],[79.81305,28.79846],[79.81482,28.79951],[79.81599,28.80098],[79.81682,28.80265],[79.82084,28.80466],[79.82308,28.8053],[79.82586,28.80453],[79.82771,28.80618],[79.82681,28.8085],[79.82645,28.81304],[79.82802,28.81566],[79.82753,28.81859],[79.82466,28.8241],[79.82562,28.82563],[79.83419,28.83568],[79.83631,28.83871],[79.8415,28.8406],[79.84568,28.83832],[79.85356,28.83653],[79.85599,28.83747],[79.86135,28.83931],[79.86591,28.83821],[79.86653,28.83535],[79.86746,28.83299],[79.87245,28.82807],[79.88286,28.82456],[79.88717,28.82417],[79.8873,28.81522],[79.88746,28.81227],[79.88307,28.81034],[79.87224,28.81183],[79.86606,28.81476],[79.86154,28.81567],[79.85804,28.81523],[79.85514,28.80896],[79.85234,28.80259],[79.85829,28.79889],[79.86516,28.79472],[79.87148,28.79238],[79.87908,28.79038],[79.88486,28.79039],[79.89193,28.79075],[79.89785,28.79274],[79.90662,28.79538],[79.91311,28.79606],[79.91237,28.79334],[79.90994,28.78882],[79.9052,28.7858],[79.90072,28.77971],[79.90388,28.7752],[79.90628,28.77294],[79.91105,28.76779],[79.91749,28.76604],[79.92383,28.75889],[79.92191,28.75726],[79.9235,28.75322],[79.92983,28.74614],[79.93325,28.73894],[79.93408,28.73222],[79.93412,28.72665],[79.94124,28.72045],[79.95259,28.7154],[79.96461,28.71147],[79.97955,28.70956],[79.98655,28.7107],[79.99999,28.71097],[80.01132,28.71959],[80.01462,28.7209],[80.0174,28.72345],[80.0254,28.73133],[80.03476,28.74262],[80.04087,28.75202],[80.04304,28.75452],[80.04526,28.75533],[80.04657,28.75718],[80.04579,28.76034],[80.04636,28.76299],[80.04999,28.76908],[80.0523,28.77707],[80.04809,28.78468],[80.04454,28.78814],[80.03922,28.79134],[80.03754,28.7938],[80.04384,28.79745],[80.04547,28.79942],[80.04596,28.80378],[80.07035,28.82923]]]}}]}