{"type":"FeatureCollection","features":[{"type":"Feature","properties":{"id":"pratapgarh","name":"Pratapgarh","stateId":"uttar-pradesh","stateName":"Uttar Pradesh","censuscode":173,"type":"district"},"geometry":{"type":"Polygon","coordinates":[[[82.43233,26.00882],[82.4311,26.00091],[82.4295,25.9989],[82.42811,25.9969],[82.42702,25.99517],[82.42741,25.99253],[82.42811,25.99012],[82.43033,25.98793],[82.43231,25.98754],[82.43458,25.98736],[82.43731,25.98691],[82.43693,25.9849],[82.4368,25.98128],[82.43129,25.98134],[82.43014,25.9826],[82.42786,25.98237],[82.42634,25.98134],[82.42525,25.97945],[82.42349,25.97779],[82.42184,25.97755],[82.41885,25.97784],[82.41568,25.9779],[82.41358,25.97612],[82.41187,25.9744],[82.4113,25.97405],[82.40825,25.9732],[82.40432,25.97285],[82.40236,25.97337],[82.39931,25.97389],[82.39702,25.9751],[82.39493,25.97567],[82.38986,25.97653],[82.38737,25.9771],[82.38294,25.97756],[82.38065,25.97814],[82.37868,25.97802],[82.37653,25.97825],[82.37424,25.98015],[82.371,25.98158],[82.36936,25.97997],[82.36859,25.97899],[82.36606,25.97175],[82.36568,25.97008],[82.36562,25.96807],[82.36543,25.96704],[82.36442,25.96543],[82.36251,25.96428],[82.35966,25.96307],[82.3575,25.96278],[82.35363,25.96295],[82.35211,25.96289],[82.3495,25.96151],[82.34786,25.95978],[82.34722,25.958],[82.34755,25.95587],[82.3492,25.95513],[82.35605,25.95346],[82.35593,25.95088],[82.35606,25.94996],[82.35668,25.94806],[82.35796,25.94582],[82.35891,25.94456],[82.35961,25.94404],[82.36126,25.94209],[82.36303,25.94123],[82.36405,25.94105],[82.36881,25.94122],[82.36931,25.94134],[82.37192,25.94105],[82.37338,25.94099],[82.37991,25.93961],[82.38022,25.93846],[82.38011,25.93668],[82.3794,25.93329],[82.38099,25.93219],[82.38246,25.93242],[82.3848,25.93305],[82.38798,25.93317],[82.39184,25.93374],[82.39292,25.93421],[82.39355,25.93426],[82.39229,25.92966],[82.39007,25.925],[82.38861,25.92045],[82.38899,25.91872],[82.39014,25.91751],[82.39141,25.91659],[82.39331,25.9147],[82.3947,25.91383],[82.39521,25.91343],[82.39571,25.91223],[82.3961,25.91062],[82.39464,25.90953],[82.39261,25.90906],[82.38849,25.90878],[82.38513,25.90814],[82.38342,25.90826],[82.38196,25.90878],[82.38018,25.90976],[82.3793,25.91068],[82.37797,25.91188],[82.376,25.91327],[82.37473,25.91356],[82.37282,25.91298],[82.37117,25.91218],[82.36871,25.91075],[82.36661,25.90942],[82.36503,25.90799],[82.36376,25.90753],[82.36263,25.90777],[82.36021,25.90799],[82.359,25.90794],[82.3585,25.90725],[82.35775,25.90523],[82.3559,25.90547],[82.35533,25.90592],[82.35387,25.90771],[82.35273,25.90892],[82.35177,25.91115],[82.35019,25.91409],[82.34917,25.91494],[82.34663,25.91495],[82.34537,25.91374],[82.34416,25.91184],[82.3436,25.91024],[82.34201,25.90851],[82.34042,25.90736],[82.34011,25.90546],[82.33922,25.90397],[82.3377,25.90396],[82.33669,25.90362],[82.33541,25.90287],[82.33542,25.9019],[82.33504,25.90104],[82.3339,25.90023],[82.33212,25.90029],[82.32851,25.90057],[82.32546,25.90091],[82.3242,25.90114],[82.32115,25.90142],[82.31969,25.9012],[82.31614,25.90084],[82.31354,25.89992],[82.31183,25.89934],[82.30866,25.89744],[82.3069,25.89692],[82.30499,25.89589],[82.30049,25.89364],[82.29643,25.89173],[82.29624,25.8903],[82.29638,25.8895],[82.29663,25.88772],[82.29663,25.88605],[82.296,25.88433],[82.29372,25.88225],[82.29138,25.87949],[82.29094,25.87783],[82.2917,25.87478],[82.29203,25.87272],[82.29221,25.86972],[82.29209,25.86714],[82.29146,25.86409],[82.29095,25.86283],[82.28931,25.85931],[82.2869,25.85702],[82.28489,25.8546],[82.28457,25.85264],[82.28103,25.84903],[82.28027,25.84643],[82.2802,25.84419],[82.27881,25.84212],[82.27679,25.84177],[82.27489,25.84373],[82.27425,25.84493],[82.27286,25.84677],[82.27044,25.84705],[82.26836,25.84498],[82.26716,25.84366],[82.26462,25.84169],[82.26298,25.8402],[82.26488,25.83911],[82.25988,25.83514],[82.25855,25.83358],[82.25589,25.83249],[82.25126,25.83213],[82.24492,25.83137],[82.24353,25.83063],[82.23821,25.83119],[82.23447,25.83257],[82.23269,25.83371],[82.22895,25.83497],[82.22648,25.83595],[82.22603,25.83628],[82.22178,25.83709],[82.21849,25.83828],[82.21754,25.83782],[82.21697,25.83587],[82.21666,25.83374],[82.21482,25.83143],[82.21445,25.83086],[82.21362,25.83017],[82.21255,25.82988],[82.20925,25.82924],[82.20787,25.82769],[82.20742,25.82637],[82.20845,25.8228],[82.20876,25.8208],[82.2082,25.81981],[82.20724,25.81941],[82.20514,25.81975],[82.20407,25.82021],[82.20274,25.82095],[82.19988,25.82302],[82.19684,25.82537],[82.19277,25.82754],[82.19043,25.8284],[82.18669,25.82914],[82.18492,25.82977],[82.18327,25.82907],[82.17973,25.8259],[82.17858,25.82475],[82.17708,25.82251],[82.17689,25.82044],[82.17847,25.81797],[82.17905,25.81682],[82.17975,25.81579],[82.18064,25.81251],[82.18033,25.81085],[82.18033,25.80901],[82.18009,25.80769],[82.18174,25.80546],[82.18256,25.8039],[82.1832,25.80189],[82.18188,25.79993],[82.18105,25.8001],[82.17878,25.80033],[82.1749,25.80095],[82.173,25.80025],[82.17256,25.79974],[82.17099,25.79629],[82.16973,25.79019],[82.17094,25.78778],[82.17209,25.78675],[82.17316,25.78561],[82.17444,25.784],[82.17621,25.78268],[82.17749,25.78159],[82.17933,25.78068],[82.18116,25.77872],[82.18085,25.77757],[82.18142,25.7762],[82.18225,25.77333],[82.18378,25.77092],[82.18499,25.76856],[82.18663,25.76765],[82.18816,25.76776],[82.18942,25.76811],[82.19278,25.76932],[82.19373,25.76916],[82.19532,25.76807],[82.1962,25.76692],[82.19691,25.76508],[82.19691,25.76278],[82.19463,25.7622],[82.18761,25.76236],[82.1857,25.76213],[82.18608,25.7611],[82.18622,25.75914],[82.18685,25.75736],[82.18775,25.75541],[82.18914,25.75322],[82.19016,25.75185],[82.19156,25.7484],[82.19346,25.74518],[82.19372,25.74283],[82.19512,25.74082],[82.19677,25.74002],[82.19676,25.73934],[82.19532,25.73617],[82.19456,25.73519],[82.19368,25.73353],[82.19273,25.7322],[82.19192,25.73042],[82.19116,25.72851],[82.19097,25.72616],[82.1913,25.72461],[82.19155,25.72271],[82.19149,25.7207],[82.19118,25.71869],[82.19049,25.71587],[82.19017,25.71409],[82.1893,25.71133],[82.18785,25.70862],[82.18645,25.70638],[82.18627,25.70569],[82.1845,25.70344],[82.18381,25.70068],[82.18103,25.70119],[82.17944,25.70212],[82.17786,25.70326],[82.17538,25.70481],[82.17411,25.70543],[82.17203,25.70491],[82.17083,25.70428],[82.16912,25.70232],[82.1683,25.69905],[82.16762,25.69703],[82.16736,25.69537],[82.16543,25.68829],[82.16504,25.68588],[82.16404,25.68329],[82.16259,25.68156],[82.16095,25.68018],[82.15867,25.67959],[82.15608,25.67912],[82.1559,25.68089],[82.15614,25.68238],[82.15191,25.68232],[82.15064,25.68266],[82.14949,25.68312],[82.1481,25.68346],[82.14697,25.68385],[82.14513,25.68409],[82.14405,25.68437],[82.14228,25.68385],[82.14095,25.68322],[82.13766,25.68211],[82.13589,25.68193],[82.13349,25.6821],[82.13159,25.68193],[82.1281,25.68203],[82.12614,25.68174],[82.12425,25.68105],[82.12299,25.67972],[82.12204,25.67771],[82.12211,25.67725],[82.12192,25.6746],[82.12294,25.67248],[82.12307,25.67196],[82.1232,25.66995],[82.12359,25.66771],[82.12397,25.66697],[82.12429,25.66593],[82.12442,25.66478],[82.12481,25.66398],[82.12455,25.66334],[82.12392,25.66271],[82.12316,25.66214],[82.12038,25.6596],[82.11887,25.65913],[82.11779,25.6585],[82.11355,25.65568],[82.11235,25.6551],[82.11066,25.65406],[82.1085,25.65457],[82.10717,25.65577],[82.10596,25.65645],[82.1052,25.65715],[82.10387,25.65795],[82.1007,25.6595],[82.09798,25.66006],[82.09659,25.66017],[82.09475,25.66005],[82.09418,25.66051],[82.09221,25.66084],[82.09089,25.6605],[82.09013,25.66039],[82.08937,25.66003],[82.08829,25.65992],[82.08723,25.6594],[82.08691,25.65808],[82.0859,25.65652],[82.0854,25.65594],[82.08338,25.65611],[82.08154,25.65656],[82.07983,25.65667],[82.07786,25.6569],[82.07444,25.6577],[82.07197,25.65797],[82.07033,25.65843],[82.06806,25.65854],[82.06577,25.65876],[82.06305,25.65887],[82.06154,25.65921],[82.06058,25.66035],[82.06102,25.66288],[82.06372,25.6679],[82.06416,25.66887],[82.06649,25.67393],[82.06724,25.67589],[82.06755,25.67842],[82.06736,25.67899],[82.06533,25.6802],[82.0645,25.68088],[82.06095,25.68341],[82.0593,25.68352],[82.05747,25.68386],[82.05379,25.68529],[82.05163,25.68597],[82.04878,25.68774],[82.04707,25.68825],[82.04321,25.68962],[82.04194,25.68985],[82.03916,25.6907],[82.03732,25.69104],[82.03611,25.69156],[82.03434,25.6927],[82.0311,25.69448],[82.02983,25.69528],[82.02807,25.69608],[82.02717,25.69624],[82.02483,25.69699],[82.02292,25.69721],[82.02084,25.69657],[82.01894,25.69674],[82.01553,25.69649],[82.01325,25.69649],[82.01236,25.69678],[82.01115,25.6981],[82.01209,25.70144],[82.01291,25.70264],[82.01366,25.70357],[82.01512,25.70461],[82.01682,25.70559],[82.02137,25.70739],[82.0227,25.70785],[82.02378,25.70808],[82.02517,25.7082],[82.0265,25.7086],[82.02675,25.70913],[82.02845,25.71155],[82.03236,25.71598],[82.03532,25.71829],[82.03918,25.7225],[82.04,25.72331],[82.03986,25.72514],[82.03757,25.72818],[82.03591,25.72984],[82.03396,25.7322],[82.0323,25.73374],[82.02963,25.73643],[82.02791,25.73755],[82.02632,25.73902],[82.0258,25.73929],[82.02394,25.74066],[82.02284,25.74195],[82.02116,25.74308],[82.01953,25.74358],[82.01787,25.74416],[82.01467,25.74468],[82.01342,25.74553],[82.01242,25.74567],[82.01046,25.7458],[82.00735,25.74582],[82.00486,25.74591],[82,25.74521],[81.99757,25.74468],[81.98894,25.74755],[81.98539,25.74091],[81.98554,25.73853],[81.98182,25.73558],[81.97759,25.73508],[81.97273,25.73617],[81.97031,25.73837],[81.96639,25.74],[81.95736,25.73855],[81.94597,25.74001],[81.94243,25.7421],[81.93415,25.75065],[81.93189,25.7514],[81.92728,25.74373],[81.92431,25.73516],[81.92562,25.72949],[81.925,25.72708],[81.92283,25.7231],[81.91855,25.72112],[81.91717,25.71933],[81.91759,25.71388],[81.90783,25.71208],[81.9022,25.71348],[81.89465,25.71842],[81.89156,25.71157],[81.88998,25.71087],[81.88662,25.71205],[81.88148,25.71655],[81.88197,25.71781],[81.88138,25.72051],[81.87846,25.72198],[81.87069,25.72278],[81.86627,25.71586],[81.8652,25.71562],[81.86158,25.71772],[81.8611,25.72237],[81.85578,25.72451],[81.8467,25.73115],[81.84328,25.72545],[81.83304,25.72709],[81.82725,25.72504],[81.82516,25.72531],[81.82454,25.73099],[81.82755,25.74179],[81.81014,25.74683],[81.80596,25.74875],[81.80028,25.74928],[81.79327,25.74877],[81.77771,25.74445],[81.77149,25.74176],[81.76591,25.73821],[81.75791,25.73574],[81.75477,25.73353],[81.75329,25.73002],[81.75288,25.72577],[81.75528,25.71907],[81.75758,25.71639],[81.74525,25.69809],[81.74843,25.69559],[81.75677,25.69308],[81.75729,25.69193],[81.75748,25.6858],[81.75603,25.67901],[81.75288,25.67117],[81.75088,25.66852],[81.7476,25.66861],[81.74323,25.67035],[81.7347,25.672],[81.72736,25.67435],[81.72408,25.67421],[81.71907,25.67056],[81.71711,25.67071],[81.71141,25.67324],[81.70329,25.67145],[81.70045,25.67051],[81.6972,25.66704],[81.69663,25.66209],[81.6991,25.66045],[81.71759,25.65895],[81.7227,25.65991],[81.72152,25.65123],[81.722,25.6471],[81.72361,25.64396],[81.72721,25.64221],[81.73507,25.63791],[81.73529,25.6355],[81.73376,25.63072],[81.72719,25.62487],[81.72189,25.62477],[81.71353,25.62826],[81.70787,25.63257],[81.70377,25.63357],[81.69823,25.63324],[81.68992,25.63041],[81.68683,25.6313],[81.68513,25.631],[81.68198,25.62988],[81.67737,25.62451],[81.66709,25.61735],[81.66661,25.61546],[81.66373,25.6132],[81.65971,25.61195],[81.65653,25.61347],[81.65568,25.61708],[81.65133,25.61692],[81.64783,25.62108],[81.64547,25.62244],[81.63859,25.6299],[81.63602,25.63441],[81.63518,25.63704],[81.63554,25.63906],[81.63741,25.64034],[81.64471,25.64184],[81.64595,25.6446],[81.64124,25.64858],[81.63811,25.65206],[81.63778,25.65343],[81.64303,25.65933],[81.64287,25.66197],[81.63825,25.66376],[81.63295,25.66314],[81.62115,25.66429],[81.61146,25.66736],[81.60907,25.66728],[81.60941,25.66488],[81.60817,25.66234],[81.60625,25.65928],[81.60393,25.65811],[81.60295,25.65494],[81.60543,25.65296],[81.60428,25.64859],[81.60581,25.64665],[81.61038,25.6444],[81.6113,25.64624],[81.61065,25.64928],[81.62059,25.64449],[81.62226,25.64221],[81.62149,25.62475],[81.61949,25.62301],[81.61139,25.61909],[81.60851,25.6166],[81.60729,25.6128],[81.6134,25.6086],[81.61436,25.59285],[81.61437,25.59269],[81.61201,25.59028],[81.60965,25.58573],[81.60363,25.58303],[81.59002,25.58198],[81.58739,25.58041],[81.58634,25.57805],[81.58042,25.57254],[81.56943,25.56789],[81.55819,25.57026],[81.55163,25.576],[81.54805,25.58663],[81.5395,25.60188],[81.53398,25.61629],[81.53117,25.61914],[81.52066,25.61783],[81.51651,25.61601],[81.50347,25.62075],[81.49608,25.6216],[81.4938,25.62341],[81.49255,25.62731],[81.48587,25.63177],[81.4774,25.63347],[81.47206,25.63203],[81.47042,25.63248],[81.4666,25.63451],[81.44875,25.65109],[81.44258,25.65521],[81.43595,25.66151],[81.43089,25.66783],[81.42352,25.67292],[81.41933,25.67925],[81.40912,25.68396],[81.3979,25.68275],[81.38961,25.68461],[81.38345,25.68856],[81.38045,25.69181],[81.37331,25.69724],[81.37012,25.70478],[81.37033,25.70834],[81.36889,25.71206],[81.37529,25.71523],[81.37877,25.71544],[81.38559,25.71924],[81.38965,25.72835],[81.39889,25.7373],[81.40274,25.74227],[81.40496,25.74666],[81.40571,25.75218],[81.40426,25.76238],[81.40155,25.76688],[81.39621,25.77062],[81.38488,25.7729],[81.36935,25.77187],[81.36381,25.77607],[81.33979,25.80324],[81.33679,25.81015],[81.34182,25.81326],[81.34947,25.82293],[81.35462,25.8246],[81.35351,25.82843],[81.35389,25.83286],[81.35035,25.83833],[81.34825,25.83927],[81.34554,25.83873],[81.3408,25.83936],[81.33933,25.84089],[81.33284,25.84415],[81.33112,25.84591],[81.33072,25.85222],[81.3272,25.85677],[81.33517,25.87001],[81.34583,25.86628],[81.34956,25.86662],[81.35274,25.8694],[81.35979,25.86621],[81.36623,25.86674],[81.36896,25.86522],[81.37235,25.86664],[81.37436,25.86787],[81.37578,25.87047],[81.37312,25.88204],[81.37517,25.8851],[81.38014,25.88595],[81.38263,25.88444],[81.39744,25.88741],[81.4063,25.89182],[81.41212,25.89618],[81.41645,25.90398],[81.42077,25.90661],[81.42362,25.90687],[81.4258,25.90874],[81.42775,25.91473],[81.43132,25.91787],[81.43453,25.91916],[81.44126,25.91642],[81.44439,25.91777],[81.44281,25.92367],[81.4438,25.92552],[81.44189,25.93273],[81.44381,25.93511],[81.44765,25.93698],[81.45486,25.93631],[81.45538,25.93477],[81.45115,25.92876],[81.45167,25.92825],[81.4598,25.93011],[81.46999,25.93367],[81.47207,25.93472],[81.47349,25.93789],[81.4772,25.93926],[81.47919,25.93668],[81.47979,25.93342],[81.48146,25.93046],[81.48772,25.93093],[81.48871,25.93289],[81.49037,25.943],[81.49292,25.94579],[81.49664,25.94669],[81.50539,25.94511],[81.50907,25.94986],[81.51015,25.95548],[81.50873,25.9576],[81.50543,25.95951],[81.50221,25.95868],[81.49486,25.95998],[81.49249,25.9626],[81.49787,25.96787],[81.50623,25.973],[81.50929,25.97137],[81.51818,25.96261],[81.51841,25.95867],[81.52201,25.9591],[81.52336,25.95652],[81.52502,25.95528],[81.52989,25.95624],[81.53648,25.9626],[81.54217,25.96597],[81.54266,25.96688],[81.54596,25.9676],[81.55586,25.96523],[81.55806,25.96787],[81.57163,25.97326],[81.58313,25.9657],[81.58573,25.96537],[81.59098,25.9669],[81.59384,25.96601],[81.59586,25.9662],[81.59542,25.97535],[81.5915,25.97549],[81.58996,25.97759],[81.58594,25.9806],[81.58106,25.98199],[81.5761,25.98561],[81.57192,25.98641],[81.57058,25.9888],[81.56849,25.98987],[81.55854,26.00084],[81.56467,26.00647],[81.57003,26.01562],[81.5698,26.01786],[81.57065,26.01998],[81.56931,26.02607],[81.56753,26.02878],[81.56525,26.02947],[81.56025,26.02639],[81.5574,26.02629],[81.55464,26.02723],[81.54367,26.02474],[81.53939,26.02498],[81.54048,26.0271],[81.54928,26.0331],[81.5435,26.04104],[81.54118,26.04305],[81.5392,26.04145],[81.53832,26.0363],[81.5376,26.03475],[81.53633,26.0343],[81.53084,26.03449],[81.52818,26.03312],[81.52313,26.03291],[81.51872,26.03436],[81.51867,26.03642],[81.52087,26.0414],[81.52693,26.04115],[81.53363,26.04716],[81.53336,26.05324],[81.53597,26.06235],[81.53743,26.06166],[81.53924,26.05855],[81.54196,26.05676],[81.5491,26.05496],[81.55156,26.06023],[81.55842,26.06014],[81.56372,26.06391],[81.56911,26.07307],[81.56241,26.07797],[81.56295,26.08491],[81.55658,26.09004],[81.55373,26.10044],[81.54924,26.10125],[81.54326,26.09829],[81.53947,26.10032],[81.53885,26.10153],[81.54212,26.10743],[81.54024,26.11151],[81.54118,26.11885],[81.54342,26.12222],[81.54557,26.1213],[81.55036,26.12764],[81.55659,26.1294],[81.55794,26.13169],[81.56041,26.13128],[81.56428,26.1323],[81.56689,26.13407],[81.56991,26.13968],[81.57189,26.14168],[81.58406,26.14099],[81.59179,26.14005],[81.5956,26.14043],[81.59897,26.14203],[81.60261,26.1455],[81.60314,26.14722],[81.60575,26.14934],[81.61217,26.15223],[81.61437,26.16502],[81.61664,26.17264],[81.61793,26.17619],[81.61945,26.1783],[81.62337,26.17713],[81.62919,26.17292],[81.63355,26.17095],[81.63435,26.16796],[81.63455,26.16015],[81.63776,26.15773],[81.64359,26.15518],[81.64932,26.15067],[81.6538,26.1456],[81.65534,26.1409],[81.65462,26.13774],[81.64972,26.13398],[81.64827,26.12802],[81.65092,26.1256],[81.6539,26.12564],[81.65586,26.12455],[81.66038,26.11832],[81.6657,26.11571],[81.67001,26.11513],[81.67911,26.11915],[81.68197,26.11908],[81.68487,26.11711],[81.68454,26.11461],[81.68547,26.11235],[81.68364,26.10409],[81.67979,26.09741],[81.68269,26.09573],[81.68637,26.09531],[81.68543,26.08458],[81.68603,26.07942],[81.68824,26.07613],[81.69494,26.07192],[81.70519,26.06704],[81.70723,26.07013],[81.71791,26.06486],[81.72041,26.06915],[81.72036,26.07208],[81.71901,26.07839],[81.71637,26.08282],[81.72041,26.08906],[81.7245,26.09282],[81.72653,26.09333],[81.74235,26.08573],[81.74758,26.08031],[81.75726,26.07693],[81.76072,26.07106],[81.77035,26.06785],[81.77237,26.06474],[81.77234,26.06159],[81.77085,26.05793],[81.76656,26.05313],[81.77042,26.04984],[81.77371,26.04867],[81.77426,26.04638],[81.77212,26.04111],[81.7769,26.03385],[81.7827,26.02808],[81.78694,26.02628],[81.79176,26.02597],[81.79705,26.02668],[81.79953,26.02804],[81.80158,26.03015],[81.80262,26.03302],[81.8024,26.03784],[81.80374,26.04724],[81.80785,26.04596],[81.82285,26.03864],[81.82938,26.03665],[81.83248,26.03612],[81.8353,26.03949],[81.83879,26.03999],[81.84291,26.03876],[81.84679,26.03931],[81.85088,26.04462],[81.86154,26.04604],[81.86462,26.05142],[81.86742,26.05358],[81.86795,26.05731],[81.87319,26.0625],[81.87253,26.06692],[81.87048,26.07261],[81.87189,26.07427],[81.88503,26.08034],[81.89226,26.07879],[81.8959,26.07694],[81.89893,26.07365],[81.89989,26.07002],[81.89896,26.06578],[81.90956,26.06589],[81.91165,26.05973],[81.91876,26.05601],[81.92971,26.05364],[81.9329,26.05173],[81.93612,26.05269],[81.93809,26.05434],[81.93811,26.05553],[81.93817,26.05683],[81.9382,26.05785],[81.93705,26.05757],[81.93461,26.05971],[81.93413,26.06138],[81.93475,26.06425],[81.93835,26.06899],[81.93909,26.07271],[81.94072,26.07407],[81.94333,26.07423],[81.964,26.0648],[81.96541,26.06473],[81.96351,26.07358],[81.96352,26.07697],[81.965,26.07845],[81.97302,26.07805],[81.98543,26.07292],[81.98443,26.06965],[81.98482,26.0666],[81.9878,26.06503],[82,26.06334],[82.02039,26.06614],[82.02894,26.06507],[82.03828,26.06551],[82.04611,26.06261],[82.05369,26.05931],[82.06056,26.05206],[82.06676,26.05177],[82.0702,26.05627],[82.07287,26.05818],[82.07596,26.06004],[82.08339,26.06087],[82.08893,26.06373],[82.09275,26.06769],[82.10273,26.06422],[82.10529,26.06567],[82.10623,26.07467],[82.10947,26.07557],[82.11654,26.07322],[82.11921,26.07047],[82.12014,26.06663],[82.12451,26.06426],[82.12848,26.05948],[82.13358,26.05511],[82.14254,26.05942],[82.15197,26.05758],[82.17214,26.04945],[82.1742,26.04219],[82.18678,26.04118],[82.19014,26.03672],[82.19076,26.03098],[82.19603,26.0279],[82.19971,26.02304],[82.20111,26.01623],[82.20343,26.01508],[82.20854,26.01923],[82.21083,26.02274],[82.22001,26.0263],[82.22591,26.02944],[82.23035,26.03311],[82.23201,26.04098],[82.24496,26.05164],[82.24433,26.05352],[82.24789,26.05695],[82.25201,26.05682],[82.25741,26.0535],[82.26072,26.04617],[82.27339,26.03899],[82.2758,26.04267],[82.28029,26.04704],[82.28897,26.04402],[82.30573,26.04351],[82.31145,26.04238],[82.31405,26.03801],[82.31722,26.03981],[82.32017,26.04029],[82.31984,26.03447],[82.32091,26.03025],[82.32341,26.03117],[82.32638,26.03118],[82.33242,26.02827],[82.33675,26.02308],[82.3489,26.01687],[82.349,26.01383],[82.34457,26.00941],[82.34533,26.00684],[82.34721,26.00562],[82.3538,26.00825],[82.357,26.00729],[82.37801,26.03102],[82.38205,26.03209],[82.38805,26.02787],[82.39421,26.03174],[82.40246,26.02889],[82.40329,26.02552],[82.40089,26.01441],[82.40199,26.01001],[82.41574,26.01269],[82.42612,26.01104],[82.43233,26.00882]]]}}]}