{"type":"FeatureCollection","features":[{"type":"Feature","properties":{"id":"saharanpur","name":"Saharanpur","stateId":"uttar-pradesh","stateName":"Uttar Pradesh","censuscode":132,"type":"district"},"geometry":{"type":"Polygon","coordinates":[[[77.94459,30.24171],[77.94337,30.23775],[77.94287,30.23655],[77.94241,30.23473],[77.94021,30.23116],[77.93624,30.22654],[77.93489,30.22445],[77.93112,30.21954],[77.92759,30.21655],[77.92444,30.21352],[77.92065,30.21174],[77.91745,30.20996],[77.91617,30.2078],[77.91532,30.20451],[77.91341,30.20053],[77.91292,30.19876],[77.91196,30.18963],[77.91133,30.187],[77.91007,30.18296],[77.90898,30.18103],[77.90578,30.17817],[77.90309,30.17512],[77.9009,30.17349],[77.89232,30.16441],[77.89092,30.16334],[77.88959,30.16171],[77.88626,30.15867],[77.88498,30.15778],[77.88163,30.15354],[77.8784,30.14981],[77.8779,30.14684],[77.87734,30.14469],[77.87422,30.13879],[77.87279,30.13629],[77.87199,30.13522],[77.87082,30.13284],[77.86813,30.12836],[77.86519,30.12566],[77.86338,30.1234],[77.86095,30.11927],[77.86009,30.11819],[77.85752,30.11423],[77.85645,30.11305],[77.85558,30.11152],[77.85136,30.10701],[77.85029,30.10617],[77.8489,30.10469],[77.84564,30.10274],[77.8434,30.10197],[77.84122,30.10086],[77.83937,30.10026],[77.83811,30.09948],[77.83674,30.09601],[77.83468,30.09364],[77.83465,30.09169],[77.83275,30.0884],[77.83068,30.08632],[77.82795,30.08492],[77.82584,30.08438],[77.82347,30.08429],[77.82085,30.08495],[77.81824,30.08671],[77.8169,30.08839],[77.81554,30.08932],[77.81379,30.09094],[77.81152,30.09263],[77.81049,30.09362],[77.80782,30.09537],[77.80671,30.09585],[77.80462,30.09662],[77.80233,30.0963],[77.7992,30.09473],[77.79872,30.09388],[77.7979,30.09155],[77.79552,30.08802],[77.79449,30.08563],[77.7928,30.08392],[77.79141,30.08021],[77.79003,30.07717],[77.78859,30.07241],[77.78795,30.07109],[77.78611,30.06862],[77.78461,30.06725],[77.78248,30.06315],[77.78175,30.06286],[77.78065,30.06171],[77.77802,30.05782],[77.77713,30.05566],[77.77416,30.0502],[77.77101,30.04527],[77.77023,30.04299],[77.77088,30.04131],[77.77248,30.03968],[77.77468,30.03794],[77.77654,30.03692],[77.77834,30.03441],[77.78274,30.03163],[77.78521,30.02844],[77.78592,30.02779],[77.78653,30.02684],[77.78617,30.02431],[77.78489,30.02103],[77.78207,30.01859],[77.78044,30.01768],[77.7755,30.01637],[77.77236,30.01517],[77.77017,30.01427],[77.76587,30.0121],[77.7617,30.00885],[77.75902,30.0061],[77.75721,30.00355],[77.7558,30.00072],[77.75337,29.98886],[77.74931,29.98547],[77.74263,29.98219],[77.74355,29.97908],[77.75665,29.96659],[77.75749,29.96233],[77.75599,29.9585],[77.75263,29.95363],[77.74518,29.9497],[77.74193,29.94662],[77.74146,29.94035],[77.73789,29.93826],[77.7331,29.93377],[77.73013,29.92968],[77.73138,29.92758],[77.7366,29.92478],[77.74125,29.92328],[77.74199,29.91751],[77.74546,29.90818],[77.74354,29.90599],[77.73962,29.90375],[77.73724,29.90061],[77.73249,29.8975],[77.7299,29.88935],[77.7254,29.88628],[77.7234,29.88283],[77.71539,29.88448],[77.71486,29.88042],[77.7155,29.87316],[77.71434,29.86649],[77.71558,29.86237],[77.71836,29.85844],[77.7219,29.85418],[77.72566,29.85117],[77.74239,29.84776],[77.74324,29.83657],[77.7415,29.83224],[77.74433,29.82922],[77.75124,29.82493],[77.75462,29.81929],[77.75624,29.81094],[77.75355,29.80608],[77.75441,29.80418],[77.76158,29.799],[77.7652,29.79208],[77.77693,29.78009],[77.77277,29.7759],[77.77293,29.77341],[77.7776,29.77035],[77.77573,29.76498],[77.77792,29.75833],[77.77384,29.75038],[77.77304,29.74732],[77.77403,29.73842],[77.7795,29.73242],[77.7814,29.72925],[77.78007,29.72517],[77.77589,29.7207],[77.76981,29.71053],[77.77102,29.70802],[77.77414,29.70638],[77.78192,29.70451],[77.79479,29.7029],[77.80704,29.69503],[77.80955,29.69239],[77.80125,29.68044],[77.80461,29.67648],[77.81658,29.67145],[77.82315,29.66703],[77.81383,29.65597],[77.79591,29.63686],[77.79101,29.62873],[77.78275,29.63225],[77.77752,29.62885],[77.7734,29.62416],[77.76509,29.62111],[77.75869,29.61243],[77.74789,29.60716],[77.74416,29.6038],[77.73532,29.61048],[77.73034,29.61241],[77.72732,29.6171],[77.72327,29.61667],[77.72243,29.61127],[77.71909,29.60853],[77.69682,29.61444],[77.6856,29.59566],[77.67177,29.57875],[77.66648,29.57413],[77.66174,29.56105],[77.65775,29.56154],[77.65348,29.5672],[77.65118,29.57354],[77.65005,29.5797],[77.65042,29.58861],[77.6335,29.60062],[77.6297,29.60208],[77.62707,29.60573],[77.62496,29.61298],[77.61565,29.61592],[77.60038,29.62246],[77.59174,29.6209],[77.56835,29.6264],[77.55355,29.62724],[77.54608,29.63223],[77.53873,29.63348],[77.53239,29.62926],[77.53341,29.62022],[77.52654,29.61998],[77.5209,29.62283],[77.51584,29.62751],[77.51258,29.6246],[77.50852,29.62388],[77.50099,29.62542],[77.49417,29.62867],[77.48883,29.63246],[77.49076,29.64203],[77.48615,29.64635],[77.48571,29.6488],[77.48739,29.65234],[77.48613,29.65541],[77.47648,29.6557],[77.47157,29.65704],[77.45927,29.66857],[77.45337,29.67106],[77.44631,29.66975],[77.44288,29.66747],[77.44094,29.66383],[77.44056,29.65879],[77.43779,29.65445],[77.43281,29.64961],[77.42772,29.65124],[77.41731,29.65735],[77.41363,29.65525],[77.40987,29.65184],[77.40512,29.65281],[77.40246,29.65453],[77.39493,29.64869],[77.39058,29.6463],[77.38374,29.64746],[77.37862,29.64972],[77.3742,29.65281],[77.36712,29.65415],[77.3644,29.65038],[77.35911,29.65197],[77.35627,29.64856],[77.34769,29.65033],[77.34171,29.64509],[77.33846,29.64568],[77.33357,29.64833],[77.33068,29.65174],[77.32574,29.65474],[77.31074,29.66006],[77.30485,29.6648],[77.3039,29.66877],[77.29995,29.67068],[77.29074,29.67173],[77.28776,29.67364],[77.28547,29.67395],[77.28233,29.66992],[77.28164,29.665],[77.27878,29.66453],[77.27251,29.6664],[77.26968,29.66945],[77.2651,29.67225],[77.25939,29.67472],[77.25719,29.673],[77.23467,29.6869],[77.23086,29.68814],[77.22301,29.69547],[77.22051,29.69222],[77.21613,29.6897],[77.20874,29.68615],[77.20536,29.68577],[77.20274,29.67958],[77.19246,29.68197],[77.18252,29.68284],[77.1741,29.68588],[77.16754,29.68916],[77.1616,29.69054],[77.15551,29.68675],[77.14809,29.68978],[77.14384,29.69458],[77.15154,29.69533],[77.15426,29.69673],[77.155,29.70106],[77.1519,29.71237],[77.13426,29.73117],[77.13429,29.73795],[77.12687,29.7401],[77.12467,29.74375],[77.12594,29.74944],[77.12961,29.75557],[77.13063,29.75937],[77.12879,29.76606],[77.13007,29.77071],[77.13528,29.773],[77.14378,29.77414],[77.14924,29.77733],[77.15404,29.78271],[77.16421,29.78841],[77.16585,29.79282],[77.16356,29.79861],[77.16395,29.8028],[77.16583,29.80892],[77.16752,29.81193],[77.17715,29.81963],[77.18094,29.82472],[77.17896,29.83886],[77.17952,29.84154],[77.19008,29.85731],[77.19203,29.86429],[77.19445,29.86843],[77.19429,29.87674],[77.19699,29.88547],[77.19687,29.89004],[77.19158,29.89744],[77.1922,29.90139],[77.19796,29.90821],[77.19895,29.91266],[77.2012,29.91721],[77.20765,29.92244],[77.21467,29.92625],[77.22323,29.93586],[77.23589,29.9499],[77.23706,29.95375],[77.24174,29.95706],[77.24413,29.96148],[77.24529,29.96879],[77.24767,29.97633],[77.26269,29.9836],[77.267,29.98831],[77.26738,29.99112],[77.27541,29.99729],[77.27379,30.00077],[77.27419,30.00247],[77.27662,30.00821],[77.27772,30.01318],[77.27989,30.01727],[77.282,30.02262],[77.28544,30.0292],[77.2841,30.03507],[77.28221,30.03939],[77.28275,30.04351],[77.28858,30.04564],[77.29277,30.04767],[77.29848,30.05264],[77.30422,30.05364],[77.30998,30.05548],[77.31529,30.05572],[77.32531,30.05567],[77.33721,30.05692],[77.34415,30.05958],[77.34958,30.06336],[77.36086,30.07181],[77.36945,30.07926],[77.38097,30.08666],[77.38591,30.08812],[77.39283,30.08813],[77.40495,30.08949],[77.40925,30.09084],[77.4211,30.09762],[77.42696,30.1022],[77.42674,30.10618],[77.42264,30.10617],[77.41859,30.10639],[77.41315,30.10835],[77.41054,30.11382],[77.41581,30.11615],[77.42122,30.11829],[77.42518,30.12281],[77.42811,30.12858],[77.43044,30.13627],[77.4275,30.13857],[77.42344,30.14098],[77.42403,30.14479],[77.42793,30.15179],[77.43619,30.16358],[77.44325,30.16152],[77.44783,30.16504],[77.453,30.16431],[77.45952,30.16368],[77.46422,30.16871],[77.46867,30.17604],[77.47291,30.17887],[77.48599,30.18366],[77.4895,30.19007],[77.4927,30.19723],[77.49667,30.20514],[77.5013,30.21381],[77.50652,30.22253],[77.5088,30.2287],[77.51834,30.23731],[77.53271,30.2552],[77.53539,30.26127],[77.5376,30.27305],[77.53968,30.27738],[77.54511,30.28194],[77.55336,30.28604],[77.55827,30.28921],[77.56874,30.29764],[77.57653,30.30115],[77.58334,30.30629],[77.58688,30.31397],[77.58804,30.32113],[77.58312,30.32662],[77.58292,30.33217],[77.58769,30.34204],[77.59587,30.35352],[77.60511,30.36594],[77.60326,30.37234],[77.59755,30.37645],[77.58801,30.37962],[77.58928,30.38499],[77.58606,30.3882],[77.581,30.39388],[77.5762,30.39961],[77.58026,30.39996],[77.58173,30.40195],[77.58273,30.40302],[77.58427,30.40375],[77.586,30.40544],[77.58812,30.40686],[77.59071,30.40758],[77.59288,30.40703],[77.59753,30.40509],[77.59785,30.40388],[77.59956,30.40312],[77.60015,30.40317],[77.60094,30.40357],[77.60425,30.40416],[77.60563,30.4046],[77.61098,30.40397],[77.61216,30.40401],[77.61591,30.4035],[77.6173,30.40384],[77.61915,30.40456],[77.62028,30.40472],[77.62141,30.40528],[77.62234,30.4055],[77.62441,30.40266],[77.62769,30.4009],[77.63012,30.40037],[77.63138,30.40041],[77.63525,30.39985],[77.63671,30.40023],[77.63871,30.40215],[77.64371,30.40593],[77.64609,30.40624],[77.64741,30.40595],[77.64891,30.40519],[77.64982,30.40426],[77.65263,30.40216],[77.65308,30.40147],[77.65458,30.40042],[77.65622,30.39959],[77.65771,30.39763],[77.65889,30.39705],[77.66081,30.39312],[77.66512,30.39054],[77.66848,30.38982],[77.67124,30.38905],[77.67288,30.38897],[77.67354,30.38879],[77.67446,30.38826],[77.67471,30.38768],[77.67562,30.3867],[77.6762,30.3856],[77.67689,30.38255],[77.67666,30.38061],[77.67638,30.37976],[77.6773,30.379],[77.679,30.37847],[77.68006,30.37868],[77.68197,30.37855],[77.68501,30.37896],[77.68648,30.38067],[77.68706,30.37962],[77.69018,30.37581],[77.69068,30.37414],[77.69293,30.37061],[77.69344,30.36935],[77.69591,30.36639],[77.69707,30.3646],[77.69751,30.36316],[77.69914,30.36189],[77.70022,30.35958],[77.70378,30.35472],[77.70442,30.35322],[77.70592,30.35223],[77.70656,30.35068],[77.7074,30.35032],[77.71027,30.34662],[77.71084,30.34529],[77.71422,30.34244],[77.71806,30.33884],[77.72086,30.33628],[77.72307,30.33487],[77.72391,30.33372],[77.72621,30.33289],[77.72849,30.33184],[77.7308,30.33105],[77.73401,30.33039],[77.73578,30.3291],[77.73866,30.32786],[77.74284,30.32643],[77.74552,30.32485],[77.74894,30.32417],[77.75084,30.32312],[77.75328,30.32326],[77.75571,30.32254],[77.7614,30.32029],[77.76442,30.31956],[77.77017,30.31587],[77.77181,30.31499],[77.77383,30.31405],[77.7758,30.3134],[77.77809,30.31227],[77.78614,30.30798],[77.79037,30.30477],[77.7916,30.30418],[77.79631,30.30131],[77.79741,30.30038],[77.80205,30.29854],[77.81243,30.2925],[77.81492,30.29086],[77.82048,30.28849],[77.82217,30.28703],[77.82551,30.28561],[77.83174,30.28403],[77.83716,30.28121],[77.84181,30.27953],[77.84587,30.27862],[77.84941,30.27712],[77.85341,30.27604],[77.85557,30.27515],[77.86068,30.27359],[77.865,30.2714],[77.86897,30.26876],[77.87099,30.26718],[77.87413,30.26616],[77.87866,30.26529],[77.88025,30.2659],[77.88205,30.26691],[77.88459,30.26922],[77.88709,30.26895],[77.89298,30.26673],[77.89533,30.26526],[77.90333,30.26302],[77.90477,30.26214],[77.90949,30.26079],[77.91342,30.25918],[77.91674,30.25746],[77.92107,30.25549],[77.92342,30.25408],[77.92675,30.25236],[77.92995,30.25093],[77.93307,30.24882],[77.935,30.24649],[77.93699,30.24457],[77.93851,30.24346],[77.94134,30.2425],[77.94459,30.24171]]]}}]}