{"type":"FeatureCollection","features":[{"type":"Feature","properties":{"id":"shahjahanpur","name":"Shahjahanpur","stateId":"uttar-pradesh","stateName":"Uttar Pradesh","censuscode":152,"type":"district"},"geometry":{"type":"Polygon","coordinates":[[[80.30104,28.45334],[80.30478,28.44677],[80.31255,28.43767],[80.32163,28.42929],[80.32749,28.42533],[80.33758,28.41198],[80.34067,28.40943],[80.34828,28.4071],[80.35031,28.40354],[80.35246,28.39541],[80.35859,28.38332],[80.35855,28.37035],[80.36236,28.3528],[80.36935,28.34838],[80.37106,28.34544],[80.37118,28.34262],[80.36994,28.33557],[80.36838,28.33203],[80.35515,28.32085],[80.35289,28.31775],[80.35065,28.31116],[80.33398,28.29599],[80.32228,28.28002],[80.31213,28.26979],[80.30702,28.25853],[80.30872,28.25649],[80.31085,28.25552],[80.31061,28.25332],[80.31251,28.24813],[80.31245,28.24531],[80.31385,28.24238],[80.31174,28.23218],[80.31011,28.22925],[80.30856,28.22373],[80.30524,28.22092],[80.30394,28.21743],[80.3,28.21287],[80.2992,28.20622],[80.30135,28.20227],[80.2993,28.19387],[80.30296,28.1876],[80.30452,28.19003],[80.30615,28.18838],[80.30955,28.18673],[80.31119,28.18419],[80.31158,28.18064],[80.30896,28.17124],[80.30365,28.16589],[80.30277,28.16162],[80.30348,28.15585],[80.30193,28.15197],[80.28377,28.1565],[80.27821,28.14975],[80.26328,28.15131],[80.25681,28.15584],[80.25325,28.15353],[80.25106,28.1505],[80.24441,28.13394],[80.24386,28.12931],[80.24494,28.12384],[80.2493,28.11707],[80.24713,28.10817],[80.24726,28.10529],[80.24966,28.10292],[80.24862,28.09593],[80.2556,28.08976],[80.25957,28.08423],[80.25938,28.08096],[80.25667,28.07003],[80.25498,28.06733],[80.25204,28.06474],[80.24794,28.05636],[80.24576,28.05365],[80.24238,28.05315],[80.23617,28.05402],[80.23373,28.0552],[80.23246,28.05729],[80.23022,28.05663],[80.22742,28.05037],[80.22354,28.0493],[80.20697,28.03007],[80.19859,28.02642],[80.19567,28.02214],[80.19211,28.01871],[80.1893,28.01748],[80.18492,28.01822],[80.17738,28.02269],[80.17183,28.01825],[80.17473,28.01525],[80.17019,28.01041],[80.16745,28.00974],[80.16582,28.01031],[80.16243,28.0057],[80.15796,28.00431],[80.15905,28.00171],[80.14548,27.99795],[80.12358,27.99626],[80.12184,27.98939],[80.11688,27.98356],[80.11819,27.97913],[80.11642,27.97463],[80.11188,27.96992],[80.10598,27.9677],[80.10161,27.96743],[80.10247,27.9658],[80.10501,27.96398],[80.09617,27.95864],[80.08857,27.95285],[80.0869,27.94911],[80.08849,27.93327],[80.08211,27.92665],[80.07714,27.92687],[80.06925,27.92156],[80.06722,27.92057],[80.06535,27.92074],[80.06044,27.92349],[80.06452,27.92744],[80.06676,27.93102],[80.06427,27.93301],[80.05994,27.93335],[80.04573,27.92454],[80.03238,27.92299],[80.02755,27.92108],[80.02545,27.91877],[80.02845,27.91604],[80.0266,27.90421],[80.03182,27.88208],[80.04145,27.87777],[80.05456,27.86484],[80.05787,27.85309],[80.05711,27.84882],[80.05625,27.84782],[80.05114,27.84586],[80.04853,27.84172],[80.03745,27.83732],[80.0358,27.83596],[80.03437,27.83391],[80.03454,27.82942],[80.04076,27.82388],[80.05463,27.82349],[80.05492,27.81895],[80.04582,27.81206],[80.05164,27.80868],[80.05202,27.80776],[80.05092,27.80678],[80.05326,27.8031],[80.04967,27.79955],[80.05125,27.79673],[80.05427,27.79511],[80.0527,27.79225],[80.05643,27.78983],[80.05783,27.78331],[80.06117,27.77746],[80.06193,27.77442],[80.06297,27.77025],[80.05877,27.76618],[80.05842,27.76452],[80.05934,27.76123],[80.0625,27.75747],[80.07405,27.75032],[80.07319,27.7472],[80.06541,27.74325],[80.05903,27.74108],[80.04895,27.74066],[80.04474,27.74265],[80.04135,27.73781],[80.0373,27.73393],[80.03577,27.73411],[80.03482,27.7351],[80.03324,27.74018],[80.03192,27.74191],[80.02996,27.74382],[80.02829,27.74378],[80.02515,27.73997],[80.02227,27.73457],[80.01839,27.73033],[80.01429,27.73268],[80.01129,27.72962],[80.00623,27.72652],[80.00142,27.72747],[80.00001,27.72856],[79.99502,27.72693],[79.98693,27.72581],[79.97213,27.73026],[79.9662,27.72979],[79.96147,27.72789],[79.95145,27.71566],[79.94595,27.71382],[79.93254,27.71232],[79.92682,27.71565],[79.91404,27.72057],[79.91131,27.71423],[79.91516,27.71003],[79.91826,27.70307],[79.91206,27.70102],[79.90203,27.70054],[79.89543,27.7032],[79.88754,27.70379],[79.88169,27.7],[79.88264,27.67702],[79.87759,27.66863],[79.87115,27.66175],[79.86597,27.6525],[79.86142,27.64974],[79.85207,27.64975],[79.83573,27.65319],[79.82596,27.65346],[79.81449,27.65657],[79.80904,27.65996],[79.80723,27.66294],[79.79113,27.67607],[79.7856,27.68233],[79.7666,27.71268],[79.75743,27.71866],[79.75222,27.71765],[79.74377,27.71968],[79.74133,27.72171],[79.7378,27.71906],[79.73668,27.71586],[79.73504,27.71357],[79.73349,27.70023],[79.73426,27.69228],[79.73353,27.68693],[79.72886,27.67221],[79.72648,27.66929],[79.72177,27.66712],[79.71605,27.66649],[79.71181,27.66469],[79.69929,27.65633],[79.69637,27.65292],[79.6945,27.64275],[79.68837,27.63343],[79.68835,27.62598],[79.68947,27.62139],[79.69111,27.61879],[79.70116,27.61582],[79.70279,27.61115],[79.69952,27.60834],[79.69977,27.60316],[79.70346,27.59627],[79.704,27.59051],[79.70489,27.58944],[79.70767,27.58837],[79.71484,27.58795],[79.71659,27.58191],[79.71339,27.57617],[79.71635,27.56609],[79.71572,27.56332],[79.70966,27.55308],[79.70906,27.54674],[79.71261,27.54473],[79.72261,27.54113],[79.7279,27.53736],[79.73017,27.53255],[79.73096,27.52861],[79.73012,27.51346],[79.73113,27.51025],[79.73331,27.50808],[79.73428,27.5051],[79.73068,27.4991],[79.73292,27.48987],[79.73231,27.48628],[79.72156,27.47909],[79.71705,27.47496],[79.71642,27.47322],[79.71304,27.47562],[79.70947,27.47632],[79.70768,27.47555],[79.70466,27.47249],[79.69996,27.47136],[79.70058,27.47505],[79.69939,27.47763],[79.70337,27.49056],[79.69324,27.49324],[79.68294,27.49102],[79.67913,27.49195],[79.67615,27.49566],[79.66391,27.49541],[79.66584,27.50363],[79.66264,27.50282],[79.65793,27.50666],[79.65791,27.51045],[79.66143,27.51939],[79.66254,27.52467],[79.66027,27.52839],[79.66234,27.53768],[79.65659,27.56388],[79.65743,27.56803],[79.65618,27.57463],[79.64477,27.57646],[79.64279,27.57988],[79.64884,27.59816],[79.65909,27.60956],[79.65829,27.61224],[79.65308,27.6144],[79.65246,27.61786],[79.65272,27.62181],[79.65441,27.62717],[79.6568,27.62945],[79.65758,27.63447],[79.64975,27.6309],[79.64902,27.6326],[79.65035,27.63723],[79.65334,27.64087],[79.63064,27.63437],[79.62049,27.62462],[79.61864,27.62174],[79.61853,27.61807],[79.61309,27.61559],[79.60512,27.6168],[79.5982,27.61439],[79.59731,27.60938],[79.59936,27.60509],[79.60743,27.60011],[79.61057,27.59903],[79.61265,27.59314],[79.60601,27.59405],[79.59453,27.59806],[79.59373,27.59535],[79.5903,27.59099],[79.5866,27.59066],[79.58312,27.59151],[79.56872,27.59086],[79.56554,27.59044],[79.56155,27.58863],[79.55632,27.58825],[79.55656,27.59415],[79.55392,27.59726],[79.5488,27.59786],[79.54392,27.59696],[79.53649,27.59148],[79.53489,27.59129],[79.53299,27.59107],[79.52071,27.59856],[79.5179,27.598],[79.50945,27.58942],[79.50202,27.5891],[79.48038,27.59647],[79.47897,27.59849],[79.48519,27.60969],[79.48301,27.61393],[79.47987,27.6173],[79.47781,27.62353],[79.46424,27.63331],[79.46009,27.63495],[79.45561,27.63333],[79.45286,27.63461],[79.45007,27.6375],[79.44472,27.63965],[79.43914,27.63774],[79.43257,27.63067],[79.4273,27.62766],[79.41828,27.63165],[79.40562,27.64086],[79.39526,27.64515],[79.38514,27.64501],[79.3809,27.64412],[79.37583,27.64127],[79.37312,27.64742],[79.36138,27.64747],[79.35315,27.64649],[79.34659,27.64784],[79.35016,27.65232],[79.35236,27.65157],[79.35325,27.65566],[79.35571,27.66218],[79.35435,27.66947],[79.35272,27.67253],[79.34565,27.67688],[79.34408,27.67862],[79.34301,27.69386],[79.3418,27.69649],[79.3382,27.69959],[79.3401,27.70552],[79.34022,27.70969],[79.33746,27.71608],[79.33163,27.72317],[79.33146,27.72794],[79.33795,27.73399],[79.34556,27.73609],[79.35362,27.73502],[79.35905,27.73745],[79.35856,27.74751],[79.35736,27.75209],[79.34956,27.75424],[79.35023,27.76297],[79.35359,27.77158],[79.35523,27.78589],[79.35671,27.79006],[79.36107,27.79507],[79.36377,27.8001],[79.36703,27.80286],[79.37026,27.80288],[79.37472,27.80421],[79.37329,27.80703],[79.37498,27.81698],[79.38081,27.82042],[79.38656,27.82164],[79.38805,27.82059],[79.38828,27.81806],[79.39235,27.81723],[79.39546,27.8184],[79.40241,27.8234],[79.40563,27.82633],[79.40513,27.82992],[79.40409,27.83174],[79.40521,27.83318],[79.40412,27.83661],[79.40727,27.8415],[79.41065,27.84214],[79.41353,27.84171],[79.42093,27.83705],[79.42314,27.83322],[79.42592,27.83435],[79.43322,27.83961],[79.44071,27.84383],[79.44185,27.84154],[79.44924,27.83574],[79.45629,27.84015],[79.45617,27.84348],[79.45766,27.84668],[79.45984,27.84864],[79.46902,27.84784],[79.47372,27.84338],[79.47777,27.84203],[79.48651,27.84258],[79.48629,27.84729],[79.48514,27.84872],[79.47726,27.85684],[79.47595,27.85558],[79.47483,27.85846],[79.46993,27.8709],[79.46737,27.87331],[79.4663,27.87595],[79.46521,27.88231],[79.46228,27.88904],[79.46064,27.89599],[79.4661,27.91327],[79.46769,27.92339],[79.46977,27.92685],[79.48579,27.92893],[79.48774,27.93233],[79.48607,27.93859],[79.48748,27.94174],[79.49038,27.94245],[79.48311,27.9514],[79.47902,27.95934],[79.47482,27.96241],[79.47199,27.96163],[79.46942,27.96709],[79.47243,27.97078],[79.47554,27.97831],[79.4767,27.98444],[79.49604,27.9996],[79.50131,28.01672],[79.50013,28.02124],[79.49751,28.02046],[79.50889,28.03554],[79.50687,28.04121],[79.50687,28.04446],[79.51731,28.04818],[79.52309,28.05521],[79.52868,28.05921],[79.53311,28.05611],[79.53902,28.05833],[79.54474,28.06525],[79.54919,28.06927],[79.56163,28.06769],[79.57613,28.07694],[79.58091,28.08479],[79.5862,28.09074],[79.59516,28.08421],[79.60193,28.08161],[79.61416,28.0844],[79.6189,28.08242],[79.63009,28.0843],[79.63144,28.08606],[79.63213,28.0982],[79.63498,28.10252],[79.63492,28.10791],[79.63194,28.11649],[79.638,28.12195],[79.62975,28.13064],[79.62905,28.13421],[79.62628,28.1341],[79.62354,28.14268],[79.62405,28.14724],[79.62134,28.14908],[79.62247,28.15377],[79.62834,28.15636],[79.62897,28.16322],[79.63213,28.17002],[79.63425,28.17945],[79.6374,28.18316],[79.63896,28.1865],[79.64647,28.19239],[79.64071,28.20041],[79.64267,28.20207],[79.64122,28.20676],[79.64241,28.20886],[79.64548,28.21201],[79.65364,28.21516],[79.66579,28.21351],[79.66972,28.21775],[79.67202,28.22105],[79.67192,28.22969],[79.67046,28.23123],[79.66781,28.23679],[79.67428,28.24439],[79.67632,28.24421],[79.68231,28.2463],[79.6835,28.24846],[79.68043,28.25288],[79.67684,28.2614],[79.67892,28.26329],[79.68178,28.26257],[79.68516,28.26307],[79.70193,28.24737],[79.70421,28.2426],[79.7067,28.24083],[79.70524,28.23722],[79.7069,28.23429],[79.70916,28.23344],[79.7125,28.23204],[79.71513,28.23267],[79.72258,28.23325],[79.73092,28.23329],[79.73329,28.23159],[79.73651,28.22921],[79.73749,28.22306],[79.7378,28.22016],[79.73308,28.21936],[79.72818,28.21885],[79.72261,28.21512],[79.72045,28.21261],[79.71626,28.20893],[79.71438,28.20501],[79.71592,28.19997],[79.71937,28.19777],[79.72494,28.19892],[79.73056,28.19778],[79.73456,28.19569],[79.73401,28.19328],[79.73059,28.18824],[79.72759,28.18601],[79.72183,28.18424],[79.72444,28.17956],[79.72668,28.17995],[79.72936,28.17886],[79.73506,28.18246],[79.73884,28.1823],[79.74303,28.18439],[79.7459,28.18496],[79.75134,28.1813],[79.75219,28.1776],[79.75546,28.17498],[79.75804,28.17303],[79.76192,28.17145],[79.76473,28.16906],[79.76957,28.16578],[79.77346,28.16302],[79.77946,28.16088],[79.78166,28.1598],[79.78506,28.16105],[79.78843,28.16499],[79.78921,28.16666],[79.79081,28.1686],[79.79348,28.1696],[79.79678,28.16829],[79.80249,28.1685],[79.80556,28.17187],[79.80793,28.17588],[79.81155,28.18033],[79.813,28.18441],[79.81449,28.18856],[79.8165,28.19034],[79.82034,28.19486],[79.82171,28.19952],[79.82001,28.20643],[79.81812,28.20905],[79.8171,28.21337],[79.81477,28.21709],[79.81299,28.21991],[79.81168,28.2259],[79.81083,28.22949],[79.8104,28.23368],[79.8108,28.23678],[79.81174,28.23889],[79.81475,28.23926],[79.81777,28.23815],[79.82623,28.23823],[79.83148,28.23938],[79.8415,28.23343],[79.84441,28.23064],[79.84483,28.22779],[79.84461,28.22445],[79.84391,28.22002],[79.84244,28.21567],[79.84083,28.21123],[79.84042,28.20858],[79.84211,28.20688],[79.84369,28.20512],[79.84654,28.20308],[79.84991,28.20044],[79.85384,28.19997],[79.85779,28.20124],[79.86783,28.196],[79.86621,28.19364],[79.86393,28.1884],[79.86972,28.18725],[79.87206,28.18655],[79.87509,28.18358],[79.87702,28.1841],[79.8798,28.18217],[79.88457,28.18226],[79.88743,28.17793],[79.8847,28.16823],[79.88479,28.16657],[79.8812,28.16152],[79.8759,28.15496],[79.88168,28.15343],[79.88075,28.1511],[79.8755,28.15253],[79.87272,28.15443],[79.87028,28.15537],[79.8681,28.15589],[79.86567,28.15451],[79.86358,28.15134],[79.86309,28.1478],[79.86508,28.14632],[79.86382,28.14184],[79.86282,28.13811],[79.87808,28.13009],[79.88023,28.13275],[79.8821,28.13463],[79.88776,28.13753],[79.89764,28.13984],[79.90059,28.14082],[79.9067,28.14014],[79.90931,28.13813],[79.91653,28.13337],[79.91928,28.13078],[79.92145,28.12866],[79.92539,28.12646],[79.9331,28.12444],[79.9347,28.12056],[79.9357,28.11856],[79.93729,28.11594],[79.94003,28.11514],[79.94339,28.11643],[79.94575,28.11745],[79.95149,28.11705],[79.95552,28.11686],[79.95826,28.11869],[79.95828,28.12096],[79.95738,28.12693],[79.96072,28.1345],[79.96391,28.14044],[79.96508,28.14262],[79.96525,28.14652],[79.96489,28.15104],[79.96441,28.15446],[79.96412,28.16011],[79.9645,28.16396],[79.96522,28.16756],[79.96452,28.1723],[79.96249,28.17992],[79.9622,28.18261],[79.95993,28.18617],[79.95806,28.18802],[79.9567,28.19137],[79.95742,28.19671],[79.95848,28.21502],[79.95822,28.21893],[79.9568,28.22621],[79.95576,28.23252],[79.95524,28.2412],[79.95598,28.24623],[79.95418,28.25665],[79.95292,28.26127],[79.9507,28.26744],[79.94992,28.2738],[79.95001,28.28054],[79.9474,28.29815],[79.94568,28.30049],[79.94297,28.30464],[79.94204,28.30605],[79.94189,28.31088],[79.94282,28.31319],[79.9446,28.31554],[79.94592,28.3182],[79.94817,28.32254],[79.95287,28.32819],[79.95451,28.32953],[79.95744,28.33131],[79.96631,28.33305],[79.9723,28.33358],[79.97609,28.33401],[79.97956,28.33447],[79.98226,28.33493],[79.9878,28.33602],[79.99173,28.33708],[79.9947,28.33822],[79.99799,28.3402],[80.00002,28.34141],[80.00794,28.34463],[80.01488,28.35826],[80.01444,28.36224],[80.02513,28.35825],[80.03676,28.35545],[80.04484,28.35311],[80.05128,28.35016],[80.0562,28.34954],[80.05957,28.34786],[80.066,28.33574],[80.07245,28.33216],[80.09045,28.36353],[80.09544,28.36305],[80.0976,28.36406],[80.09963,28.3665],[80.10309,28.37266],[80.09919,28.37723],[80.10013,28.38034],[80.10285,28.38215],[80.10777,28.38339],[80.12624,28.38302],[80.12898,28.38764],[80.14443,28.38686],[80.14933,28.38538],[80.15639,28.38096],[80.16269,28.3748],[80.16327,28.3717],[80.16723,28.36976],[80.1685,28.36694],[80.16873,28.36074],[80.17138,28.35848],[80.17173,28.35227],[80.17431,28.35096],[80.18283,28.35014],[80.18484,28.349],[80.18616,28.34697],[80.186,28.34466],[80.18837,28.34488],[80.20149,28.3512],[80.20189,28.35622],[80.20446,28.3587],[80.20494,28.36124],[80.20315,28.36671],[80.20279,28.3768],[80.20457,28.3808],[80.20931,28.38519],[80.21406,28.38607],[80.21934,28.38622],[80.23409,28.38324],[80.23894,28.39179],[80.2433,28.39646],[80.25183,28.40811],[80.25287,28.41262],[80.25137,28.42209],[80.247,28.42622],[80.24529,28.42966],[80.24506,28.43733],[80.24164,28.44056],[80.23943,28.4439],[80.2399,28.44987],[80.24202,28.45273],[80.24627,28.45487],[80.26605,28.457],[80.28668,28.45586],[80.30104,28.45334]]]}}]}