{"type":"FeatureCollection","features":[{"type":"Feature","properties":{"id":"sonbhadra","name":"Sonbhadra","stateId":"uttar-pradesh","stateName":"Uttar Pradesh","censuscode":200,"type":"district"},"geometry":{"type":"Polygon","coordinates":[[[83.10778,24.81654],[83.10009,24.81084],[83.09693,24.8059],[83.09065,24.79863],[83.09599,24.79709],[83.09434,24.79359],[83.09604,24.79193],[83.09104,24.7846],[83.08994,24.77949],[83.0939,24.77816],[83.1005,24.77306],[83.10255,24.76798],[83.11357,24.76515],[83.11993,24.76205],[83.13258,24.75859],[83.14301,24.75266],[83.15053,24.74604],[83.15364,24.74091],[83.15646,24.7312],[83.16215,24.72456],[83.17027,24.72343],[83.17686,24.71996],[83.18055,24.71655],[83.18647,24.72239],[83.18703,24.71457],[83.19525,24.71821],[83.20496,24.71886],[83.20986,24.72298],[83.22865,24.73124],[83.24092,24.72784],[83.24694,24.72499],[83.25443,24.72467],[83.25947,24.72999],[83.26417,24.7275],[83.27282,24.72889],[83.28283,24.73408],[83.28734,24.73721],[83.28884,24.72921],[83.29945,24.71787],[83.30854,24.71932],[83.30649,24.72301],[83.30638,24.73142],[83.31276,24.73886],[83.31451,24.74473],[83.31932,24.74597],[83.32128,24.75257],[83.32398,24.75815],[83.33017,24.76617],[83.33045,24.76921],[83.32106,24.77635],[83.32006,24.78412],[83.32165,24.78573],[83.32845,24.78425],[83.33244,24.77871],[83.3395,24.77291],[83.3479,24.77429],[83.35297,24.77634],[83.36284,24.77328],[83.37583,24.77315],[83.38632,24.77475],[83.39113,24.77697],[83.39485,24.78266],[83.40217,24.77792],[83.4115,24.77513],[83.41934,24.77379],[83.42747,24.76835],[83.43346,24.76161],[83.44228,24.75536],[83.4495,24.74256],[83.45269,24.73899],[83.46111,24.73187],[83.47046,24.73369],[83.47498,24.7331],[83.47975,24.73423],[83.48334,24.73659],[83.48785,24.7364],[83.49047,24.73352],[83.49133,24.72965],[83.49129,24.72136],[83.48837,24.71481],[83.48796,24.70854],[83.4887,24.70433],[83.49132,24.70157],[83.49389,24.70132],[83.4976,24.70448],[83.50004,24.70377],[83.50298,24.7013],[83.5037,24.69484],[83.50789,24.69316],[83.51712,24.6834],[83.52062,24.68206],[83.52168,24.67982],[83.52117,24.67757],[83.51015,24.67024],[83.50745,24.66715],[83.50502,24.65789],[83.50548,24.65034],[83.50767,24.64809],[83.51048,24.64739],[83.51512,24.64807],[83.52386,24.64153],[83.52963,24.64324],[83.53189,24.64306],[83.53214,24.64081],[83.52863,24.62873],[83.54684,24.62648],[83.54934,24.62492],[83.54965,24.6233],[83.54638,24.62038],[83.54246,24.61435],[83.53349,24.61243],[83.52536,24.60198],[83.52514,24.59749],[83.52792,24.58977],[83.53142,24.58659],[83.53291,24.58382],[83.53307,24.57899],[83.53191,24.57381],[83.53251,24.5661],[83.52786,24.55746],[83.52586,24.55374],[83.52508,24.54799],[83.51285,24.5432],[83.50132,24.54087],[83.5011,24.53489],[83.50551,24.52779],[83.50607,24.52589],[83.4946,24.52317],[83.48927,24.52273],[83.46977,24.51668],[83.46101,24.51591],[83.44354,24.51239],[83.43427,24.51156],[83.40789,24.50483],[83.40337,24.50254],[83.40092,24.49996],[83.40003,24.49588],[83.39951,24.49162],[83.4015,24.4877],[83.40136,24.48355],[83.40046,24.47907],[83.39605,24.47206],[83.39609,24.46693],[83.39502,24.46337],[83.39213,24.46021],[83.38929,24.45446],[83.39766,24.43642],[83.40035,24.43527],[83.40854,24.43599],[83.40682,24.41096],[83.40799,24.40756],[83.41981,24.40914],[83.42438,24.40838],[83.43406,24.40495],[83.43773,24.4027],[83.43833,24.39493],[83.44076,24.39297],[83.44256,24.38956],[83.44668,24.38794],[83.4478,24.38592],[83.44758,24.37907],[83.45062,24.37659],[83.45104,24.37176],[83.45547,24.36742],[83.45927,24.36598],[83.45919,24.36373],[83.4535,24.36225],[83.44887,24.35985],[83.44212,24.34646],[83.43785,24.34394],[83.4344,24.33894],[83.43133,24.33768],[83.41902,24.33852],[83.41471,24.33796],[83.41113,24.33636],[83.39922,24.32574],[83.39313,24.31931],[83.38643,24.31449],[83.38374,24.31352],[83.38342,24.31243],[83.38808,24.30379],[83.38844,24.29947],[83.38964,24.29888],[83.39436,24.29657],[83.39829,24.29553],[83.40396,24.29241],[83.40831,24.28427],[83.4107,24.27517],[83.40966,24.26505],[83.40117,24.25172],[83.40121,24.24619],[83.39889,24.24372],[83.38864,24.23909],[83.38512,24.23473],[83.38467,24.23001],[83.38706,24.2193],[83.38617,24.21596],[83.38379,24.21297],[83.38396,24.20923],[83.386,24.20439],[83.38611,24.1999],[83.37825,24.18588],[83.3771,24.17972],[83.37332,24.1711],[83.36509,24.15599],[83.36381,24.14689],[83.36023,24.13948],[83.35766,24.13627],[83.35674,24.12562],[83.35129,24.11798],[83.35053,24.11343],[83.34677,24.10965],[83.33321,24.10167],[83.33127,24.10053],[83.32669,24.10563],[83.32414,24.10597],[83.32309,24.10176],[83.32302,24.0978],[83.32063,24.09314],[83.302,24.07759],[83.29855,24.07327],[83.29373,24.06503],[83.28995,24.05546],[83.28706,24.05036],[83.28635,24.04608],[83.2895,24.03519],[83.28602,24.02774],[83.28563,24.02371],[83.28338,24.02159],[83.28256,24.02137],[83.28154,24.02041],[83.27821,24.01952],[83.27526,24.01765],[83.27194,24.01409],[83.27031,24.01313],[83.27011,24.0129],[83.26666,24.01088],[83.26077,24.01138],[83.25473,24.01444],[83.25005,24.01311],[83.24953,24.01296],[83.2447,24.00919],[83.24307,24.00639],[83.24461,24.00063],[83.24227,23.9985],[83.24123,23.99756],[83.23542,23.99582],[83.23449,23.99554],[83.23364,23.9947],[83.23097,23.99203],[83.23024,23.9913],[83.22536,23.98931],[83.22373,23.98865],[83.22247,23.98552],[83.22333,23.98003],[83.21826,23.97651],[83.21605,23.97206],[83.21834,23.96468],[83.21889,23.95964],[83.21355,23.95307],[83.21092,23.94682],[83.20946,23.93983],[83.19903,23.93193],[83.2008,23.9262],[83.19777,23.92125],[83.19725,23.9204],[83.19081,23.91878],[83.18527,23.91882],[83.18028,23.91695],[83.17586,23.91715],[83.17556,23.91716],[83.17332,23.91542],[83.17202,23.91441],[83.16602,23.91248],[83.16553,23.91232],[83.16476,23.91174],[83.16326,23.9106],[83.15345,23.9093],[83.1529,23.90922],[83.14647,23.90365],[83.14294,23.89783],[83.14206,23.89384],[83.1369,23.89049],[83.13654,23.89026],[83.13509,23.88932],[83.09429,23.87745],[83.06873,23.8745],[83.05115,23.87863],[83.04413,23.88228],[83.03317,23.88085],[83.02823,23.88191],[82.99999,23.8777],[82.99168,23.87874],[82.96131,23.87194],[82.95722,23.87215],[82.94652,23.87502],[82.94079,23.87854],[82.93829,23.8811],[82.9329,23.88983],[82.93023,23.8918],[82.92518,23.89449],[82.91381,23.89699],[82.89807,23.90363],[82.88891,23.90933],[82.88304,23.91546],[82.87343,23.92169],[82.87069,23.92455],[82.8629,23.93778],[82.85665,23.94581],[82.8491,23.94911],[82.83402,23.95994],[82.8285,23.9639],[82.82045,23.96271],[82.81553,23.96198],[82.81409,23.96285],[82.80823,23.96639],[82.80666,23.96979],[82.80649,23.97552],[82.80829,23.98422],[82.80844,23.99543],[82.80926,23.99993],[82.80505,24.00401],[82.79768,24.00563],[82.79044,24.00581],[82.77408,24.00489],[82.76014,24.00725],[82.75367,24.01192],[82.7498,24.0202],[82.74773,24.02983],[82.75094,24.03366],[82.76357,24.04238],[82.77003,24.05865],[82.77408,24.07661],[82.76836,24.07842],[82.76274,24.07198],[82.75958,24.07833],[82.75587,24.07926],[82.74929,24.07381],[82.74552,24.07745],[82.73411,24.08127],[82.71624,24.07946],[82.71306,24.08441],[82.7092,24.09573],[82.67138,24.12253],[82.66527,24.13339],[82.67373,24.14136],[82.67306,24.14969],[82.67872,24.15704],[82.68729,24.15531],[82.69622,24.14283],[82.72821,24.13763],[82.72918,24.14843],[82.73094,24.15543],[82.74402,24.16696],[82.74267,24.1816],[82.73979,24.19963],[82.7349,24.22179],[82.74012,24.2265],[82.74495,24.22884],[82.75123,24.23015],[82.75782,24.23467],[82.75947,24.24439],[82.75729,24.25514],[82.7585,24.26663],[82.76253,24.27012],[82.76499,24.2742],[82.77205,24.29091],[82.77396,24.31067],[82.76776,24.31753],[82.76839,24.32155],[82.77093,24.32827],[82.7712,24.34085],[82.77246,24.34597],[82.76778,24.35678],[82.7669,24.36155],[82.76672,24.3677],[82.76855,24.37143],[82.76486,24.37432],[82.76241,24.37789],[82.75474,24.37089],[82.74274,24.36954],[82.72647,24.36957],[82.72083,24.37355],[82.71512,24.3835],[82.71557,24.3877],[82.72296,24.41446],[82.72736,24.41992],[82.72819,24.42796],[82.73371,24.42456],[82.7407,24.43103],[82.7353,24.43243],[82.73305,24.443],[82.73402,24.45909],[82.73862,24.46857],[82.73178,24.47456],[82.7418,24.48547],[82.74459,24.49799],[82.72367,24.51148],[82.72219,24.53436],[82.72309,24.54625],[82.72059,24.55436],[82.72417,24.55527],[82.74158,24.54978],[82.74927,24.55275],[82.75341,24.55067],[82.75409,24.5397],[82.789,24.54427],[82.80883,24.55089],[82.80451,24.58567],[82.80446,24.59791],[82.79352,24.59765],[82.77633,24.59568],[82.76816,24.59794],[82.77106,24.60293],[82.77598,24.60873],[82.77526,24.62752],[82.7739,24.63971],[82.77089,24.64374],[82.75124,24.64213],[82.73557,24.64451],[82.72272,24.64017],[82.71732,24.64174],[82.7102,24.64014],[82.70328,24.64228],[82.69982,24.64665],[82.7016,24.65958],[82.704,24.6667],[82.70408,24.67371],[82.70043,24.6782],[82.69357,24.68448],[82.67369,24.69779],[82.66608,24.69832],[82.65385,24.69247],[82.64458,24.68576],[82.6381,24.68462],[82.61115,24.67736],[82.59577,24.67163],[82.58211,24.6609],[82.55239,24.65276],[82.53741,24.64983],[82.53212,24.65501],[82.52657,24.67617],[82.52915,24.68686],[82.54213,24.68869],[82.55,24.6946],[82.55082,24.70817],[82.54232,24.71283],[82.53804,24.71881],[82.53892,24.7272],[82.53766,24.73588],[82.54685,24.73605],[82.55612,24.7411],[82.55448,24.75707],[82.55454,24.76875],[82.54918,24.77984],[82.54944,24.7922],[82.54717,24.80105],[82.54749,24.80784],[82.57188,24.81494],[82.58084,24.82539],[82.58285,24.83028],[82.59175,24.82648],[82.59981,24.82423],[82.6138,24.81151],[82.62105,24.81196],[82.62496,24.82018],[82.63449,24.82137],[82.63473,24.81102],[82.63277,24.79999],[82.62734,24.78821],[82.63407,24.78665],[82.6465,24.78767],[82.65916,24.78466],[82.66585,24.78695],[82.67392,24.79361],[82.68256,24.79624],[82.696,24.80673],[82.70211,24.8088],[82.70306,24.81264],[82.70168,24.82011],[82.70352,24.82799],[82.7072,24.82709],[82.71683,24.82068],[82.72552,24.8183],[82.74298,24.81987],[82.74874,24.8225],[82.75275,24.82082],[82.76071,24.82609],[82.76759,24.82826],[82.78218,24.83708],[82.80199,24.84283],[82.80857,24.85167],[82.81796,24.8525],[82.82534,24.85443],[82.83143,24.84814],[82.83966,24.84259],[82.86737,24.84134],[82.87572,24.837],[82.88158,24.83617],[82.89457,24.83986],[82.90688,24.83446],[82.91419,24.83565],[82.91887,24.83971],[82.91716,24.85036],[82.92677,24.85644],[82.9306,24.85211],[82.93137,24.84319],[82.93715,24.84011],[82.95498,24.83758],[82.95725,24.85657],[82.96351,24.85663],[82.9707,24.86185],[82.98027,24.87346],[82.98683,24.88538],[82.98647,24.89397],[82.99454,24.89796],[83.00073,24.90402],[83.01064,24.90542],[83.0128,24.90018],[83.01337,24.88113],[83.01454,24.87586],[83.01261,24.86948],[83.01438,24.84924],[83.02896,24.84061],[83.03068,24.8369],[83.02737,24.83247],[83.01964,24.8295],[83.01505,24.82245],[83.017,24.81469],[83.02439,24.80937],[83.03298,24.81053],[83.04608,24.81793],[83.04757,24.81478],[83.05442,24.81356],[83.05458,24.80952],[83.05753,24.79914],[83.06106,24.80008],[83.08902,24.8156],[83.09507,24.81696],[83.10778,24.81654]]]}}]}