{"type":"FeatureCollection","features":[{"type":"Feature","properties":{"id":"varanasi","name":"Varanasi","stateId":"uttar-pradesh","stateName":"Uttar Pradesh","censuscode":197,"type":"district"},"geometry":{"type":"Polygon","coordinates":[[[83.07233,25.55071],[83.07584,25.54544],[83.07773,25.538],[83.07605,25.53532],[83.07151,25.53428],[83.06534,25.53161],[83.06435,25.52846],[83.07072,25.52115],[83.07639,25.51309],[83.08702,25.49372],[83.08914,25.49168],[83.09114,25.49171],[83.09352,25.49403],[83.09734,25.50104],[83.09763,25.50329],[83.10313,25.50126],[83.10738,25.49489],[83.10962,25.49343],[83.11234,25.49413],[83.11498,25.49726],[83.11577,25.49989],[83.11538,25.50294],[83.11385,25.50537],[83.10709,25.50827],[83.1035,25.51136],[83.0986,25.52011],[83.09953,25.52337],[83.10239,25.52476],[83.10794,25.52498],[83.11233,25.52423],[83.11832,25.521],[83.13227,25.50795],[83.14105,25.50611],[83.15214,25.50597],[83.15705,25.50275],[83.15931,25.50276],[83.15947,25.50437],[83.15826,25.50686],[83.15992,25.51189],[83.15864,25.51501],[83.15893,25.51731],[83.16392,25.52143],[83.16702,25.52265],[83.17017,25.52255],[83.17402,25.52348],[83.17971,25.51034],[83.1797,25.5103],[83.1768,25.50401],[83.17581,25.49666],[83.1702,25.4872],[83.16223,25.48092],[83.15226,25.47542],[83.14379,25.46924],[83.13574,25.45946],[83.13073,25.44943],[83.1308,25.444],[83.13923,25.44033],[83.15467,25.43762],[83.15889,25.43588],[83.15987,25.43525],[83.17237,25.42732],[83.18633,25.42224],[83.19092,25.41902],[83.19483,25.40531],[83.19375,25.39861],[83.19233,25.39486],[83.18898,25.38601],[83.1874,25.37978],[83.18007,25.36621],[83.17911,25.35997],[83.17619,25.35303],[83.169,25.34057],[83.16795,25.33917],[83.16188,25.33105],[83.1572,25.32626],[83.15532,25.32494],[83.14565,25.31812],[83.14433,25.31777],[83.14121,25.31694],[83.13876,25.31693],[83.11702,25.32367],[83.1154,25.32444],[83.11201,25.32607],[83.09952,25.3289],[83.09012,25.3301],[83.08023,25.32744],[83.07312,25.32657],[83.06882,25.32454],[83.05732,25.32256],[83.04059,25.31754],[83.02984,25.31251],[83.01726,25.30318],[83.01254,25.29646],[83.01377,25.29266],[83.02247,25.29221],[83.03158,25.28771],[83.04906,25.28202],[83.05012,25.27952],[83.04634,25.26956],[83.05176,25.26779],[83.05399,25.25937],[83.05802,25.25432],[83.06144,25.25255],[83.06652,25.24991],[83.06941,25.24783],[83.07106,25.24485],[83.06143,25.2444],[83.05531,25.24664],[83.04905,25.24722],[83.04284,25.24605],[83.03413,25.24153],[83.03414,25.24148],[83.03196,25.2418],[83.02568,25.22545],[83.02123,25.21867],[83.01274,25.20919],[83.00956,25.20658],[83.00221,25.20271],[82.99999,25.2024],[82.99412,25.20308],[82.99058,25.20334],[82.98649,25.20402],[82.98144,25.20506],[82.97797,25.2055],[82.9745,25.20605],[82.97008,25.20638],[82.9639,25.20696],[82.96139,25.20741],[82.95773,25.20764],[82.95344,25.20767],[82.95092,25.20801],[82.94808,25.20817],[82.94511,25.20828],[82.94146,25.20821],[82.93603,25.2078],[82.93345,25.20814],[82.93194,25.209],[82.9298,25.21003],[82.92734,25.21094],[82.92482,25.21169],[82.91884,25.21307],[82.91626,25.2133],[82.9148,25.21336],[82.91241,25.21324],[82.91001,25.21302],[82.90591,25.2121],[82.90547,25.21187],[82.90434,25.2121],[82.90396,25.21279],[82.90334,25.21445],[82.90264,25.21554],[82.90182,25.21561],[82.90049,25.21486],[82.89954,25.21394],[82.89834,25.21135],[82.89784,25.20998],[82.89739,25.20946],[82.89713,25.20883],[82.89656,25.20832],[82.89568,25.20854],[82.89424,25.20878],[82.89171,25.20883],[82.89102,25.20861],[82.88969,25.20786],[82.8883,25.20672],[82.8869,25.20499],[82.88615,25.2039],[82.88577,25.20315],[82.88469,25.20183],[82.88355,25.19954],[82.88241,25.20045],[82.88027,25.20104],[82.87902,25.2011],[82.87688,25.20173],[82.87548,25.20162],[82.87403,25.2011],[82.87157,25.19955],[82.87094,25.19863],[82.87036,25.19754],[82.87017,25.1964],[82.86991,25.19553],[82.87017,25.19403],[82.87004,25.19341],[82.8701,25.19277],[82.87085,25.19243],[82.87224,25.19197],[82.87451,25.19174],[82.87583,25.19075],[82.87594,25.18967],[82.87499,25.1884],[82.87361,25.18852],[82.87286,25.18823],[82.8719,25.18772],[82.87058,25.1868],[82.86893,25.18525],[82.86843,25.18456],[82.86609,25.18072],[82.86482,25.1791],[82.86368,25.17733],[82.86317,25.17612],[82.86254,25.17503],[82.86146,25.17343],[82.85931,25.1709],[82.85867,25.17032],[82.85684,25.16906],[82.8547,25.16814],[82.853,25.16763],[82.8513,25.16729],[82.8477,25.16678],[82.84588,25.16701],[82.84083,25.16736],[82.83938,25.16753],[82.83805,25.16783],[82.83668,25.16955],[82.83611,25.17116],[82.83587,25.17277],[82.83505,25.17398],[82.83461,25.17433],[82.83323,25.17478],[82.83197,25.17508],[82.82944,25.17594],[82.82743,25.17727],[82.82649,25.17899],[82.82619,25.18036],[82.826,25.18083],[82.82593,25.18215],[82.82563,25.1852],[82.82412,25.18548],[82.82337,25.1856],[82.82191,25.18554],[82.81826,25.18658],[82.8163,25.18734],[82.81498,25.18751],[82.81341,25.18785],[82.8112,25.18803],[82.80994,25.18832],[82.80944,25.18752],[82.80963,25.18671],[82.80936,25.18395],[82.80935,25.18258],[82.80923,25.18114],[82.80897,25.18068],[82.80866,25.1793],[82.80776,25.17689],[82.80708,25.1758],[82.80587,25.17299],[82.80536,25.17252],[82.80379,25.1723],[82.80183,25.17345],[82.79976,25.17483],[82.79869,25.17575],[82.79629,25.17731],[82.79472,25.17851],[82.79372,25.17909],[82.79561,25.18024],[82.79719,25.18179],[82.79884,25.18317],[82.79972,25.18391],[82.80041,25.18466],[82.80118,25.18523],[82.80225,25.18683],[82.80307,25.1885],[82.8027,25.18988],[82.80125,25.19017],[82.80011,25.19012],[82.79854,25.19058],[82.7969,25.19081],[82.79476,25.1911],[82.79123,25.193],[82.79074,25.19346],[82.78998,25.19444],[82.78967,25.19542],[82.78909,25.19727],[82.78883,25.19803],[82.78802,25.20061],[82.78733,25.20246],[82.78639,25.20349],[82.78506,25.20367],[82.78463,25.2039],[82.78431,25.20476],[82.7852,25.20683],[82.78653,25.20798],[82.7878,25.20838],[82.79246,25.20986],[82.79454,25.20933],[82.79548,25.20922],[82.79656,25.20893],[82.79964,25.20835],[82.80096,25.20795],[82.80184,25.20777],[82.80418,25.20748],[82.80607,25.20707],[82.81357,25.20608],[82.81571,25.20608],[82.81672,25.20636],[82.81705,25.20774],[82.81647,25.2086],[82.81585,25.2101],[82.81491,25.21114],[82.81415,25.21107],[82.81182,25.21166],[82.81113,25.21287],[82.81094,25.21413],[82.81045,25.2162],[82.8102,25.21689],[82.80938,25.21844],[82.80894,25.21948],[82.80775,25.21994],[82.80618,25.22115],[82.80535,25.22195],[82.80511,25.223],[82.80543,25.22408],[82.80745,25.22437],[82.80807,25.22448],[82.80972,25.225],[82.81035,25.2251],[82.8123,25.22567],[82.81357,25.22642],[82.81433,25.2267],[82.81483,25.227],[82.81534,25.22763],[82.81597,25.22796],[82.81666,25.22923],[82.81704,25.23026],[82.81693,25.23199],[82.81661,25.23274],[82.81448,25.23389],[82.81384,25.23441],[82.81277,25.23476],[82.81246,25.23643],[82.81191,25.23849],[82.81203,25.24108],[82.81249,25.24372],[82.81281,25.24441],[82.81387,25.24446],[82.8147,25.2447],[82.81615,25.2459],[82.81654,25.24727],[82.81767,25.24877],[82.81855,25.24957],[82.82007,25.25072],[82.82121,25.25163],[82.82198,25.2526],[82.82185,25.25382],[82.82154,25.25531],[82.82003,25.25629],[82.81833,25.25699],[82.81707,25.25721],[82.81505,25.25705],[82.81303,25.25676],[82.81108,25.25637],[82.80956,25.25637],[82.80438,25.25581],[82.80199,25.25478],[82.79788,25.2537],[82.79719,25.25329],[82.79542,25.25261],[82.79296,25.25198],[82.79012,25.25067],[82.78594,25.24844],[82.7855,25.2478],[82.78575,25.24544],[82.78643,25.24223],[82.78605,25.23947],[82.78686,25.23797],[82.78781,25.237],[82.78913,25.23521],[82.79076,25.23337],[82.79126,25.2325],[82.79152,25.23124],[82.79107,25.23055],[82.79024,25.22992],[82.78918,25.22947],[82.78734,25.22929],[82.78514,25.22907],[82.7828,25.22942],[82.78173,25.22965],[82.78066,25.2304],[82.77998,25.23138],[82.77934,25.23195],[82.7784,25.2331],[82.77803,25.23379],[82.77659,25.2357],[82.77627,25.23656],[82.77596,25.23794],[82.7761,25.23994],[82.77704,25.24213],[82.77761,25.24317],[82.77825,25.24437],[82.77894,25.24523],[82.77977,25.24666],[82.78002,25.2477],[82.77983,25.24868],[82.77858,25.25057],[82.77725,25.2523],[82.77682,25.2531],[82.77531,25.25455],[82.77474,25.25541],[82.77349,25.25794],[82.77286,25.25742],[82.77248,25.25852],[82.77204,25.25904],[82.77135,25.26018],[82.77136,25.26231],[82.77338,25.26236],[82.77539,25.26311],[82.77918,25.26419],[82.78145,25.26528],[82.78159,25.26626],[82.78177,25.26689],[82.7819,25.26821],[82.78134,25.26999],[82.77996,25.27131],[82.77832,25.2715],[82.77788,25.27109],[82.77749,25.27029],[82.77737,25.26948],[82.77705,25.26834],[82.77496,25.26713],[82.77433,25.26673],[82.77314,25.26639],[82.77124,25.26639],[82.77074,25.26645],[82.76979,25.26662],[82.76519,25.26784],[82.7638,25.2679],[82.76241,25.26779],[82.76172,25.26693],[82.76134,25.26601],[82.7607,25.26343],[82.76095,25.26182],[82.76101,25.26084],[82.76075,25.25767],[82.75998,25.25446],[82.75985,25.25332],[82.75941,25.25095],[82.75922,25.25049],[82.7589,25.24895],[82.75908,25.24814],[82.75896,25.24762],[82.75787,25.24458],[82.75769,25.24366],[82.75718,25.24274],[82.75585,25.24177],[82.75395,25.24091],[82.75282,25.24063],[82.75036,25.24074],[82.74872,25.24075],[82.74708,25.24115],[82.74545,25.24173],[82.74267,25.2434],[82.74029,25.24541],[82.73966,25.24697],[82.73909,25.24772],[82.73847,25.24932],[82.73753,25.25157],[82.7369,25.2541],[82.73526,25.25427],[82.73412,25.25428],[82.73255,25.25399],[82.72675,25.25366],[82.72549,25.25355],[82.72384,25.25326],[82.71937,25.25286],[82.71508,25.25293],[82.71439,25.25454],[82.71426,25.25551],[82.71408,25.25753],[82.71414,25.2581],[82.71402,25.26143],[82.71339,25.26178],[82.71075,25.26264],[82.70973,25.26259],[82.7062,25.263],[82.70444,25.26311],[82.70249,25.26306],[82.7004,25.2633],[82.69851,25.26324],[82.69706,25.2633],[82.69529,25.26348],[82.69341,25.26342],[82.69246,25.26319],[82.6905,25.26343],[82.68931,25.26314],[82.68628,25.26263],[82.68444,25.26211],[82.68369,25.26176],[82.68236,25.26062],[82.68141,25.25907],[82.68027,25.25671],[82.67894,25.2535],[82.6785,25.25275],[82.67824,25.25195],[82.67723,25.25051],[82.67641,25.24971],[82.67541,25.24913],[82.67319,25.24844],[82.67206,25.24822],[82.67205,25.24822],[82.67104,25.25337],[82.67132,25.25705],[82.67219,25.25961],[82.67265,25.26217],[82.67314,25.26495],[82.67317,25.26523],[82.67358,25.26879],[82.67378,25.27303],[82.67402,25.27429],[82.67447,25.2766],[82.67479,25.2778],[82.67481,25.27853],[82.67537,25.2811],[82.67783,25.28104],[82.67911,25.28094],[82.68052,25.28046],[82.68163,25.28026],[82.68364,25.27948],[82.68566,25.27908],[82.68717,25.27905],[82.68861,25.27977],[82.68933,25.28058],[82.6896,25.28111],[82.69049,25.28286],[82.69081,25.28332],[82.69109,25.28461],[82.69114,25.28488],[82.69114,25.28508],[82.69105,25.2871],[82.69072,25.28867],[82.6905,25.28995],[82.69038,25.29101],[82.69043,25.2941],[82.69131,25.29893],[82.69226,25.30401],[82.69278,25.30551],[82.6934,25.30728],[82.69351,25.30771],[82.69366,25.3084],[82.69482,25.3105],[82.69615,25.31085],[82.69777,25.31082],[82.69951,25.31162],[82.70023,25.31225],[82.70117,25.31352],[82.70158,25.3143],[82.70247,25.31604],[82.70331,25.31804],[82.70371,25.319],[82.70394,25.32038],[82.70397,25.32166],[82.70379,25.32259],[82.70355,25.32307],[82.70282,25.32454],[82.70184,25.32603],[82.70075,25.32715],[82.69975,25.32773],[82.69835,25.32855],[82.69801,25.32873],[82.69423,25.3303],[82.6906,25.3312],[82.6886,25.33243],[82.68819,25.3348],[82.68768,25.33788],[82.68754,25.33972],[82.68756,25.34073],[82.6869,25.34332],[82.68681,25.34397],[82.68623,25.34527],[82.68407,25.34852],[82.68274,25.35269],[82.68329,25.35461],[82.68536,25.3566],[82.6874,25.35758],[82.68882,25.35765],[82.68954,25.35782],[82.69056,25.35835],[82.69149,25.35935],[82.69181,25.36008],[82.69184,25.36109],[82.69227,25.36238],[82.69361,25.36346],[82.69443,25.36381],[82.69523,25.36371],[82.69644,25.3646],[82.69761,25.36597],[82.69977,25.3674],[82.70067,25.36693],[82.70254,25.36431],[82.70324,25.36366],[82.70492,25.3616],[82.70551,25.36095],[82.70615,25.36232],[82.70634,25.36328],[82.70641,25.36489],[82.70663,25.36608],[82.70607,25.36803],[82.70599,25.36913],[82.70592,25.37052],[82.70603,25.37164],[82.70609,25.37392],[82.70693,25.37519],[82.70727,25.37549],[82.70755,25.37574],[82.70817,25.37637],[82.70899,25.37709],[82.70993,25.37836],[82.71048,25.38019],[82.71072,25.38222],[82.71071,25.38248],[82.71065,25.38369],[82.71099,25.38516],[82.71112,25.38635],[82.71094,25.38746],[82.71045,25.3882],[82.70933,25.38822],[82.70685,25.38914],[82.70591,25.38957],[82.7034,25.39063],[82.70108,25.39122],[82.69978,25.3917],[82.69747,25.39267],[82.69597,25.39361],[82.69375,25.39448],[82.69373,25.3945],[82.69373,25.39451],[82.6938,25.39588],[82.69311,25.39686],[82.69115,25.39887],[82.69015,25.40031],[82.68895,25.40227],[82.68832,25.40348],[82.68807,25.40451],[82.68624,25.40716],[82.68543,25.4086],[82.6848,25.41009],[82.68455,25.4117],[82.68449,25.41279],[82.68469,25.41538],[82.68468,25.41699],[82.68513,25.419],[82.68741,25.42583],[82.68856,25.42991],[82.69254,25.4314],[82.69595,25.43197],[82.69874,25.43214],[82.69994,25.43213],[82.7026,25.43236],[82.70398,25.4323],[82.71087,25.4324],[82.71277,25.43264],[82.71838,25.43302],[82.72015,25.43348],[82.72041,25.43475],[82.71978,25.43854],[82.71903,25.43998],[82.71783,25.44125],[82.71676,25.44211],[82.71342,25.44413],[82.71057,25.44493],[82.70969,25.4454],[82.70862,25.447],[82.70742,25.44706],[82.70578,25.44667],[82.7047,25.44667],[82.70269,25.44713],[82.70281,25.44823],[82.70301,25.4488],[82.70415,25.45052],[82.70478,25.45109],[82.70535,25.45184],[82.70592,25.45379],[82.70598,25.4546],[82.70542,25.45701],[82.70587,25.45753],[82.70744,25.45827],[82.71048,25.45907],[82.71383,25.45976],[82.72173,25.46038],[82.72431,25.46077],[82.72932,25.46111],[82.73139,25.46105],[82.73374,25.46127],[82.73531,25.4615],[82.73639,25.46208],[82.7362,25.46323],[82.73628,25.46541],[82.73659,25.46777],[82.73635,25.47081],[82.73584,25.47098],[82.73262,25.4715],[82.73123,25.47162],[82.73003,25.47191],[82.72852,25.47243],[82.72618,25.47376],[82.72524,25.47428],[82.72019,25.47716],[82.71678,25.47941],[82.71338,25.48079],[82.7111,25.48142],[82.71066,25.48252],[82.71067,25.48568],[82.71187,25.48959],[82.71378,25.49476],[82.71448,25.49694],[82.716,25.50045],[82.71689,25.49981],[82.71854,25.5002],[82.72036,25.50077],[82.72397,25.50209],[82.72492,25.50341],[82.72544,25.50479],[82.72583,25.50865],[82.72577,25.51065],[82.72533,25.51324],[82.72533,25.51537],[82.72559,25.51893],[82.72477,25.52134],[82.7239,25.52296],[82.72143,25.52445],[82.71999,25.5252],[82.71796,25.52704],[82.71582,25.52924],[82.71487,25.52975],[82.71399,25.53072],[82.71399,25.53148],[82.71532,25.53291],[82.71792,25.53446],[82.72184,25.53635],[82.72304,25.53836],[82.72431,25.53962],[82.72615,25.54105],[82.72678,25.5414],[82.72798,25.54186],[82.73451,25.54547],[82.73684,25.5461],[82.73855,25.54609],[82.74026,25.54597],[82.74171,25.54603],[82.74253,25.5462],[82.74342,25.54597],[82.74456,25.54533],[82.74785,25.54445],[82.74831,25.54345],[82.75028,25.5427],[82.75147,25.54206],[82.75501,25.5416],[82.75704,25.54155],[82.75786,25.54161],[82.76095,25.5412],[82.76322,25.53735],[82.76442,25.53569],[82.76529,25.53459],[82.76675,25.53315],[82.76801,25.53217],[82.76895,25.53131],[82.77009,25.53062],[82.77167,25.52988],[82.77356,25.52919],[82.77482,25.52895],[82.77786,25.52878],[82.77969,25.52889],[82.7809,25.52941],[82.78166,25.5301],[82.78222,25.53079],[82.78274,25.53171],[82.78343,25.53321],[82.78433,25.53556],[82.7849,25.5393],[82.7851,25.5412],[82.78574,25.54338],[82.78619,25.54361],[82.78782,25.54361],[82.78852,25.54338],[82.79086,25.54229],[82.79168,25.54211],[82.79244,25.54217],[82.79357,25.54218],[82.79414,25.54274],[82.79485,25.54499],[82.79504,25.54585],[82.79599,25.54786],[82.79663,25.54953],[82.79789,25.55114],[82.79872,25.55178],[82.80036,25.55263],[82.80151,25.55286],[82.80264,25.55269],[82.80441,25.55195],[82.80472,25.55137],[82.80586,25.55063],[82.807,25.55212],[82.80782,25.55293],[82.80896,25.55327],[82.80991,25.55344],[82.81137,25.55332],[82.81314,25.55263],[82.81648,25.55212],[82.82274,25.55148],[82.82508,25.55148],[82.82698,25.55108],[82.82837,25.55114],[82.83077,25.55223],[82.83153,25.55172],[82.83419,25.55165],[82.8371,25.55275],[82.83811,25.55361],[82.83842,25.55413],[82.83863,25.55701],[82.83838,25.56005],[82.83845,25.56126],[82.83858,25.56207],[82.8382,25.56391],[82.83821,25.56598],[82.83904,25.56771],[82.84049,25.56771],[82.84151,25.56759],[82.8434,25.56673],[82.84548,25.56546],[82.84737,25.56495],[82.84965,25.56379],[82.85047,25.56351],[82.85256,25.56328],[82.85407,25.56351],[82.85483,25.56351],[82.85578,25.56495],[82.8568,25.5669],[82.85693,25.56742],[82.85973,25.57255],[82.86291,25.57674],[82.86423,25.57818],[82.86551,25.57928],[82.86684,25.57997],[82.87107,25.57795],[82.87188,25.57703],[82.87384,25.57415],[82.87573,25.57105],[82.87647,25.56931],[82.87716,25.56719],[82.87981,25.56569],[82.88235,25.56575],[82.8893,25.56729],[82.89164,25.56775],[82.89298,25.56792],[82.89481,25.56907],[82.89691,25.56958],[82.90164,25.56934],[82.90385,25.5694],[82.90499,25.56928],[82.90613,25.56933],[82.90885,25.56886],[82.91182,25.56919],[82.91429,25.56987],[82.91619,25.5698],[82.92036,25.56879],[82.92162,25.56936],[82.9234,25.5698],[82.92498,25.57043],[82.926,25.5707],[82.92897,25.57039],[82.92992,25.57003],[82.93067,25.56938],[82.93395,25.56738],[82.93516,25.56614],[82.93659,25.56445],[82.9376,25.56125],[82.93785,25.56021],[82.93885,25.55846],[82.93961,25.5562],[82.94074,25.55387],[82.94162,25.55178],[82.94262,25.55032],[82.94457,25.54699],[82.94583,25.54535],[82.94677,25.54298],[82.94657,25.54115],[82.94477,25.53691],[82.94522,25.53536],[82.945,25.53023],[82.94645,25.5278],[82.9491,25.5265],[82.95156,25.52548],[82.9544,25.52474],[82.95801,25.52438],[82.96112,25.52481],[82.96225,25.52489],[82.9632,25.52526],[82.96505,25.52683],[82.96912,25.53182],[82.97162,25.53527],[82.97245,25.53696],[82.97355,25.53991],[82.97419,25.54128],[82.9752,25.54283],[82.97846,25.54688],[82.97929,25.54854],[82.97955,25.55019],[82.98013,25.55136],[82.98255,25.55378],[82.98363,25.55396],[82.988,25.55405],[82.99015,25.5537],[82.99167,25.55327],[82.99591,25.55235],[83,25.55082],[83.00594,25.54648],[83.00878,25.54667],[83.01152,25.54835],[83.01201,25.55157],[83.00991,25.55383],[83.00561,25.55348],[83.00797,25.55926],[83.0169,25.57092],[83.02177,25.5754],[83.02603,25.57472],[83.02937,25.57059],[83.04128,25.54259],[83.04419,25.53969],[83.04799,25.54068],[83.05289,25.54446],[83.05947,25.5538],[83.06347,25.5561],[83.06762,25.55547],[83.07233,25.55071]]]}}]}