{"type":"FeatureCollection","features":[{"type":"Feature","properties":{"id":"dhalai","name":"Dhalai","stateId":"tripura","stateName":"Tripura","censuscode":291,"type":"district"},"geometry":{"type":"Polygon","coordinates":[[[91.91314,24.1404],[91.93969,24.10548],[91.96173,24.07989],[91.96851,24.07182],[91.98939,24.07814],[92.01184,24.08895],[92.05339,24.09908],[92.07328,24.0971],[92.07146,24.09222],[92.07341,24.07405],[92.07077,24.06295],[92.0701,24.05086],[92.07377,24.04136],[92.07375,24.03382],[92.06753,24.03075],[92.07156,24.02577],[92.07947,24.01577],[92.08391,24.01863],[92.08809,24.01447],[92.09081,24.0072],[92.09282,23.99964],[92.09136,23.99342],[92.08822,23.98893],[92.09093,23.98051],[92.09083,23.97115],[92.09639,23.96616],[92.0989,23.96087],[92.09717,23.95271],[92.09163,23.94342],[92.09197,23.93866],[92.09559,23.93382],[92.10184,23.93422],[92.1078,23.93045],[92.1178,23.92841],[92.12939,23.93079],[92.13266,23.92535],[92.13577,23.91913],[92.13706,23.9143],[92.1379,23.90878],[92.1395,23.89786],[92.14279,23.89162],[92.14644,23.88803],[92.1469,23.88264],[92.15268,23.86567],[92.1548,23.85934],[92.15759,23.84769],[92.15572,23.83294],[92.15641,23.82583],[92.15629,23.81629],[92.15783,23.81099],[92.15912,23.7917],[92.15958,23.78426],[92.15903,23.77841],[92.16023,23.77162],[92.16012,23.76422],[92.15852,23.75855],[92.16205,23.75282],[92.16901,23.75254],[92.1745,23.748],[92.17406,23.74339],[92.17123,23.7378],[92.16231,23.73614],[92.15457,23.73404],[92.14616,23.7284],[92.14112,23.71447],[92.13674,23.70732],[92.12999,23.7026],[92.1258,23.69527],[92.11505,23.68845],[92.11097,23.68102],[92.10676,23.67649],[92.1006,23.67557],[92.09578,23.67681],[92.0898,23.67642],[92.08485,23.66683],[92.08508,23.6597],[92.08296,23.65345],[92.08121,23.64884],[92.0772,23.64549],[92.07044,23.64664],[92.06367,23.64652],[92.05769,23.64667],[92.05191,23.64629],[92.04209,23.64769],[92.0361,23.64992],[92.02628,23.65457],[92.02077,23.65816],[92.01241,23.66309],[92.00557,23.67544],[92.00013,23.68517],[91.99665,23.69464],[91.99187,23.70617],[91.98877,23.7188],[91.98389,23.7307],[91.97592,23.73455],[91.97092,23.7347],[91.96229,23.73286],[91.95643,23.72804],[91.95451,23.72189],[91.95348,23.7134],[91.95767,23.70285],[91.96162,23.69798],[91.95222,23.69496],[91.94488,23.69149],[91.94068,23.68795],[91.93896,23.68116],[91.94187,23.67071],[91.94043,23.66428],[91.9439,23.6568],[91.94589,23.65167],[91.94946,23.64627],[91.94909,23.64111],[91.94659,23.63523],[91.9482,23.62675],[91.95187,23.62018],[91.9581,23.61054],[91.9597,23.60503],[91.9571,23.59672],[91.95595,23.59156],[91.95539,23.58614],[91.95701,23.57712],[91.95665,23.57088],[91.95933,23.5652],[91.96249,23.56133],[91.96411,23.55366],[91.96522,23.54653],[91.96703,23.53823],[91.96492,23.53091],[91.96171,23.52728],[91.96176,23.51878],[91.96716,23.51637],[91.971,23.51187],[91.97517,23.50124],[91.97679,23.4932],[91.97849,23.48716],[91.97871,23.48219],[91.97451,23.47883],[91.96718,23.47717],[91.95985,23.47497],[91.95388,23.47376],[91.94676,23.47066],[91.94394,23.46658],[91.94318,23.46143],[91.94568,23.45439],[91.9457,23.44961],[91.94662,23.44446],[91.94605,23.43895],[91.94245,23.43569],[91.93668,23.43484],[91.92777,23.43706],[91.92159,23.43829],[91.91199,23.43932],[91.90369,23.43711],[91.89812,23.43546],[91.89255,23.43353],[91.88447,23.426],[91.8769,23.4162],[91.86668,23.40756],[91.86193,23.43625],[91.8365,23.47837],[91.80468,23.52426],[91.79189,23.57032],[91.79068,23.58102],[91.78616,23.61873],[91.7839,23.6285],[91.77769,23.65531],[91.78224,23.66751],[91.78262,23.67922],[91.78316,23.68807],[91.77876,23.69074],[91.7772,23.70116],[91.77575,23.70987],[91.77286,23.71859],[91.78702,23.74213],[91.77985,23.74963],[91.77404,23.77079],[91.77398,23.78072],[91.77821,23.79065],[91.7753,23.79937],[91.78242,23.80431],[91.7824,23.8068],[91.77523,23.81055],[91.76659,23.82302],[91.77089,23.82052],[91.77518,23.81926],[91.78232,23.81923],[91.78226,23.82917],[91.78365,23.83414],[91.78363,23.83787],[91.78215,23.8441],[91.78353,23.85155],[91.78339,23.8702],[91.78617,23.88263],[91.77899,23.88887],[91.78038,23.89632],[91.7775,23.91126],[91.76185,23.91876],[91.76053,23.92747],[91.76634,23.93242],[91.7636,23.93617],[91.76243,23.94239],[91.76271,23.94736],[91.76163,23.95235],[91.75485,23.95611],[91.75549,23.96232],[91.75751,23.9673],[91.75812,23.97227],[91.75742,23.9785],[91.75523,23.98598],[91.75843,23.99936],[91.75995,24.01018],[91.75939,24.016],[91.76067,24.0209],[91.76085,24.02661],[91.75805,24.03198],[91.75685,24.03735],[91.75845,24.04478],[91.75739,24.05521],[91.75582,24.06132],[91.75774,24.065],[91.7568,24.06828],[91.75196,24.07284],[91.75772,24.08833],[91.75817,24.09472],[91.75615,24.11331],[91.76148,24.1383],[91.7609,24.13869],[91.76139,24.14132],[91.76782,24.14894],[91.76532,24.15561],[91.76247,24.1677],[91.76107,24.18295],[91.7574,24.2],[91.75651,24.21354],[91.75348,24.22273],[91.75121,24.23662],[91.74977,24.24483],[91.76477,24.24005],[91.77457,24.23415],[91.77992,24.23039],[91.78565,24.22673],[91.79285,24.22586],[91.7981,24.22165],[91.80371,24.22223],[91.81464,24.22274],[91.82238,24.21448],[91.83135,24.21346],[91.84389,24.22175],[91.84801,24.2252],[91.85473,24.22046],[91.85517,24.21495],[91.85076,24.21068],[91.84893,24.20552],[91.85045,24.19902],[91.85572,24.1912],[91.86544,24.18168],[91.87198,24.17395],[91.87675,24.16675],[91.88262,24.15865],[91.88542,24.15099],[91.88992,24.14063],[91.89565,24.13552],[91.90235,24.13556],[91.90736,24.13693],[91.91314,24.1404]]]}}]}