{"type":"FeatureCollection","features":[{"type":"Feature","properties":{"id":"north-tripura","name":"North Tripura","stateId":"tripura","stateName":"Tripura","censuscode":292,"type":"district"},"geometry":{"type":"Polygon","coordinates":[[[92.23342,24.50171],[92.23449,24.49853],[92.23479,24.49758],[92.2352,24.49641],[92.23559,24.49502],[92.23651,24.49257],[92.23677,24.49107],[92.23958,24.48816],[92.234,24.48295],[92.23045,24.47829],[92.22906,24.47023],[92.23131,24.4637],[92.23122,24.45864],[92.23244,24.4567],[92.23522,24.45466],[92.23606,24.45203],[92.23615,24.44847],[92.23933,24.44551],[92.25658,24.43451],[92.25756,24.43073],[92.25603,24.4172],[92.25941,24.41172],[92.26276,24.40803],[92.26276,24.40803],[92.26328,24.40631],[92.26268,24.40303],[92.26268,24.40303],[92.26425,24.39579],[92.26987,24.39305],[92.27047,24.38915],[92.27312,24.38665],[92.2727,24.3844],[92.2699,24.3804],[92.2725,24.37755],[92.27226,24.37577],[92.26826,24.37302],[92.26758,24.37146],[92.26814,24.36549],[92.26408,24.36038],[92.21282,24.24764],[92.24045,24.2489],[92.25948,24.24868],[92.28466,24.25024],[92.29169,24.24946],[92.29647,24.24992],[92.29696,24.24772],[92.29599,24.24691],[92.29515,24.2462],[92.29393,24.24251],[92.29471,24.2389],[92.29667,24.23628],[92.29613,24.23425],[92.29614,24.23202],[92.29931,24.22981],[92.29901,24.22756],[92.29746,24.22542],[92.30175,24.22329],[92.301,24.2227],[92.30092,24.22205],[92.3007,24.22023],[92.30322,24.2198],[92.31357,24.22107],[92.3134,24.21928],[92.30949,24.21429],[92.30955,24.21298],[92.31254,24.20916],[92.31591,24.21139],[92.31877,24.20716],[92.32439,24.20394],[92.32459,24.20286],[92.32314,24.20273],[92.32314,24.20273],[92.32001,24.20246],[92.32002,24.20074],[92.32381,24.198],[92.32495,24.19718],[92.32534,24.19568],[92.32432,24.19441],[92.32454,24.19291],[92.32922,24.18929],[92.32861,24.18727],[92.32938,24.1863],[92.32681,24.18426],[92.32681,24.18426],[92.33016,24.18297],[92.33055,24.18022],[92.32975,24.1782],[92.32967,24.1728],[92.3283,24.16426],[92.32919,24.16267],[92.33158,24.16172],[92.33407,24.14898],[92.33656,24.14494],[92.33601,24.14251],[92.33502,24.1417],[92.33297,24.14276],[92.332,24.14218],[92.33203,24.13861],[92.32896,24.13801],[92.32797,24.13678],[92.32787,24.13333],[92.32896,24.12978],[92.32848,24.12788],[92.33075,24.12612],[92.32796,24.12276],[92.32828,24.11408],[92.33138,24.1113],[92.33157,24.10992],[92.32902,24.10851],[92.33205,24.10498],[92.332,24.10344],[92.32913,24.10104],[92.3294,24.09932],[92.32803,24.09677],[92.33123,24.09692],[92.32987,24.09415],[92.32762,24.09194],[92.32846,24.08729],[92.32811,24.08307],[92.32874,24.08034],[92.32775,24.07877],[92.32248,24.07567],[92.32256,24.07515],[92.32599,24.07471],[92.32668,24.07462],[92.327,24.07267],[92.32479,24.07196],[92.32331,24.07148],[92.32255,24.06998],[92.32298,24.0678],[92.32086,24.06688],[92.31885,24.06769],[92.31784,24.06728],[92.31646,24.06496],[92.31874,24.05953],[92.32141,24.05692],[92.31826,24.0555],[92.31996,24.04937],[92.31869,24.04832],[92.31648,24.04956],[92.31492,24.0469],[92.31508,24.04311],[92.31718,24.03773],[92.31685,24.03572],[92.31377,24.03293],[92.31897,24.02949],[92.31891,24.02845],[92.31633,24.02618],[92.31872,24.02369],[92.31796,24.0208],[92.32135,24.01699],[92.32051,24.01612],[92.31847,24.01741],[92.31704,24.01699],[92.31676,24.01585],[92.32425,24.00473],[92.32705,24.00241],[92.32684,24.00013],[92.32865,23.98785],[92.32539,23.98568],[92.32674,23.98442],[92.32731,23.98394],[92.32736,23.9829],[92.3251,23.98147],[92.32355,23.97788],[92.32232,23.97802],[92.32166,23.97347],[92.31922,23.97354],[92.31726,23.97032],[92.31457,23.9704],[92.31479,23.9694],[92.31223,23.96845],[92.31291,23.95921],[92.31221,23.95907],[92.31221,23.95907],[92.31103,23.95882],[92.3122,23.95569],[92.31079,23.94387],[92.31225,23.94231],[92.31297,23.94154],[92.31226,23.93948],[92.31296,23.93277],[92.31762,23.92859],[92.32071,23.92436],[92.32745,23.92223],[92.32919,23.92134],[92.33018,23.91967],[92.32891,23.91708],[92.33066,23.91003],[92.33,23.90582],[92.32937,23.90374],[92.32725,23.90451],[92.3253,23.90267],[92.32358,23.90287],[92.32255,23.9024],[92.32107,23.88965],[92.3202,23.88949],[92.31943,23.88811],[92.31865,23.88912],[92.31801,23.88875],[92.3183,23.88795],[92.31849,23.88742],[92.31779,23.88621],[92.31903,23.88436],[92.31883,23.88193],[92.31664,23.88235],[92.31577,23.88155],[92.31606,23.87993],[92.31665,23.87975],[92.317,23.87964],[92.31692,23.8792],[92.31661,23.87744],[92.31853,23.87593],[92.31991,23.87626],[92.32163,23.87204],[92.32147,23.86806],[92.32054,23.86757],[92.31802,23.86624],[92.31771,23.86531],[92.3197,23.86409],[92.31906,23.86346],[92.31505,23.86176],[92.30936,23.86092],[92.30681,23.86215],[92.30375,23.86211],[92.30014,23.86474],[92.29457,23.86379],[92.29467,23.86841],[92.29343,23.86963],[92.29149,23.86976],[92.28733,23.86528],[92.2873,23.86135],[92.28476,23.85565],[92.2761,23.85127],[92.27427,23.84741],[92.27346,23.84002],[92.27539,23.83827],[92.27661,23.83493],[92.28157,23.82924],[92.28109,23.8245],[92.28322,23.82267],[92.28295,23.82177],[92.2852,23.82096],[92.28628,23.81511],[92.28533,23.81403],[92.28321,23.81462],[92.28027,23.81348],[92.27962,23.81409],[92.2786,23.81505],[92.27615,23.81357],[92.26899,23.81615],[92.25891,23.81338],[92.26017,23.80547],[92.26184,23.80327],[92.26304,23.79812],[92.26323,23.79003],[92.26727,23.76836],[92.26749,23.7649],[92.26659,23.76029],[92.26774,23.75479],[92.2658,23.73714],[92.26848,23.72439],[92.26007,23.72309],[92.25409,23.72208],[92.24919,23.71791],[92.24403,23.71003],[92.2463,23.7049],[92.24672,23.69604],[92.23998,23.68996],[92.23765,23.68373],[92.23866,23.67551],[92.23849,23.67036],[92.23254,23.66005],[92.22443,23.65288],[92.2154,23.6543],[92.21185,23.66125],[92.21494,23.673],[92.21688,23.67815],[92.21773,23.68574],[92.21683,23.69098],[92.21288,23.69774],[92.20844,23.70486],[92.20089,23.7052],[92.19264,23.70897],[92.18136,23.70811],[92.17829,23.71326],[92.17728,23.72183],[92.17627,23.7277],[92.17722,23.73782],[92.17123,23.7378],[92.17406,23.74339],[92.1745,23.748],[92.16901,23.75254],[92.16205,23.75282],[92.15852,23.75855],[92.16012,23.76422],[92.16023,23.77162],[92.15903,23.77841],[92.15958,23.78426],[92.15912,23.7917],[92.15783,23.81099],[92.15629,23.81629],[92.15641,23.82583],[92.15572,23.83294],[92.15759,23.84769],[92.1548,23.85934],[92.15268,23.86567],[92.1469,23.88264],[92.14644,23.88803],[92.14279,23.89162],[92.1395,23.89786],[92.1379,23.90878],[92.13706,23.9143],[92.13577,23.91913],[92.13266,23.92535],[92.12939,23.93079],[92.1178,23.92841],[92.1078,23.93045],[92.10184,23.93422],[92.09559,23.93382],[92.09197,23.93866],[92.09163,23.94342],[92.09717,23.95271],[92.0989,23.96087],[92.09639,23.96616],[92.09083,23.97115],[92.09093,23.98051],[92.08822,23.98893],[92.09136,23.99342],[92.09282,23.99964],[92.09081,24.0072],[92.08809,24.01447],[92.08391,24.01863],[92.07947,24.01577],[92.07156,24.02577],[92.06753,24.03075],[92.07375,24.03382],[92.07377,24.04136],[92.0701,24.05086],[92.07077,24.06295],[92.07341,24.07405],[92.07146,24.09222],[92.07328,24.0971],[92.05339,24.09908],[92.01184,24.08895],[91.98939,24.07814],[91.96851,24.07182],[91.96173,24.07989],[91.93969,24.10548],[91.91314,24.1404],[91.91536,24.14772],[91.91667,24.15884],[91.91868,24.16743],[91.91931,24.17665],[91.92065,24.18279],[91.92376,24.19004],[91.92537,24.19881],[91.92954,24.20939],[91.93086,24.21799],[91.93189,24.22801],[91.935,24.23471],[91.93935,24.24657],[91.94401,24.2577],[91.94397,24.26474],[91.9447,24.27468],[91.94316,24.28326],[91.93978,24.28974],[91.93766,24.29669],[91.93465,24.30471],[91.93324,24.31057],[91.92956,24.31651],[91.92745,24.32165],[91.9262,24.33356],[91.92793,24.33908],[91.9366,24.3413],[91.95044,24.3486],[91.96232,24.35795],[91.96975,24.35212],[91.97295,24.34464],[91.97584,24.33888],[91.98148,24.33357],[91.99176,24.3283],[91.99857,24.32797],[92.00484,24.33315],[92.00492,24.33802],[91.99877,24.34459],[91.99232,24.35088],[91.98805,24.35736],[91.98673,24.36232],[91.98345,24.36745],[91.97858,24.37394],[91.97459,24.38276],[91.97969,24.3864],[91.98731,24.38183],[91.99399,24.38584],[91.99534,24.39045],[92.00588,24.39303],[92.01026,24.38465],[92.02091,24.38597],[92.02851,24.38411],[92.03663,24.37728],[92.04186,24.37695],[92.05804,24.3753],[92.06938,24.37454],[92.07816,24.3743],[92.08575,24.37434],[92.09452,24.37437],[92.102,24.37784],[92.10978,24.38022],[92.11826,24.37972],[92.12417,24.38218],[92.127,24.38779],[92.12557,24.39573],[92.13027,24.4055],[92.13359,24.4104],[92.13632,24.41537],[92.13925,24.4217],[92.14752,24.42553],[92.15384,24.4252],[92.16075,24.42386],[92.16539,24.42136],[92.1718,24.42156],[92.17248,24.42617],[92.16909,24.43311],[92.1663,24.43961],[92.16438,24.44908],[92.16207,24.45864],[92.16018,24.46388],[92.15993,24.47146],[92.15711,24.48464],[92.1562,24.49032],[92.15598,24.49574],[92.15426,24.50323],[92.15481,24.5129],[92.15646,24.51968],[92.15881,24.52466],[92.17044,24.5275],[92.18072,24.52455],[92.18764,24.52088],[92.19625,24.5173],[92.20486,24.51146],[92.21268,24.50724],[92.22108,24.50131],[92.22771,24.49862],[92.23342,24.50171]]]}}]}