{"type":"FeatureCollection","features":[{"type":"Feature","properties":{"id":"south-tripura","name":"South Tripura","stateId":"tripura","stateName":"Tripura","censuscode":290,"type":"district"},"geometry":{"type":"Polygon","coordinates":[[[91.77876,23.69074],[91.78316,23.68807],[91.78262,23.67922],[91.78224,23.66751],[91.77769,23.65531],[91.7839,23.6285],[91.78616,23.61873],[91.79068,23.58102],[91.79189,23.57032],[91.80468,23.52426],[91.8365,23.47837],[91.86193,23.43625],[91.86668,23.40756],[91.86189,23.40609],[91.85689,23.40697],[91.8526,23.40532],[91.84802,23.40232],[91.84287,23.39732],[91.84016,23.3927],[91.83992,23.38466],[91.84171,23.37879],[91.84136,23.37346],[91.83884,23.36921],[91.83505,23.36603],[91.83078,23.36013],[91.8247,23.34836],[91.8207,23.34671],[91.81573,23.34378],[91.8132,23.34097],[91.80942,23.33743],[91.80651,23.33235],[91.80802,23.32667],[91.8023,23.31815],[91.79502,23.31161],[91.7918,23.30942],[91.7885,23.30651],[91.78766,23.30045],[91.78478,23.29212],[91.78228,23.28805],[91.78045,23.28226],[91.77776,23.27637],[91.77721,23.27004],[91.77788,23.25911],[91.77852,23.25117],[91.78031,23.24667],[91.78456,23.23983],[91.78859,23.23642],[91.79156,23.23129],[91.79179,23.22614],[91.79109,23.21313],[91.79252,23.20465],[91.79313,23.20086],[91.79795,23.19538],[91.79934,23.19195],[91.80221,23.18701],[91.80538,23.17989],[91.80662,23.17176],[91.80931,23.16302],[91.81092,23.15571],[91.81114,23.15129],[91.81079,23.14577],[91.81145,23.13458],[91.81305,23.13015],[91.81445,23.12294],[91.81536,23.11897],[91.81901,23.1133],[91.82033,23.10672],[91.81898,23.10319],[91.82126,23.09931],[91.82583,23.10033],[91.83403,23.10038],[91.83533,23.09578],[91.83341,23.09225],[91.82709,23.08688],[91.82212,23.08586],[91.81648,23.08212],[91.82031,23.07826],[91.81478,23.07254],[91.8109,23.06945],[91.807,23.06816],[91.80213,23.06823],[91.79607,23.06855],[91.79245,23.0707],[91.78764,23.07392],[91.78238,23.07281],[91.77898,23.0699],[91.77726,23.06393],[91.78014,23.05717],[91.78242,23.05285],[91.78352,23.04798],[91.7857,23.04284],[91.78069,23.03342],[91.774,23.04099],[91.76808,23.03614],[91.75714,23.02334],[91.75522,23.01945],[91.74824,23.01299],[91.7392,23.00842],[91.73057,23.00115],[91.72691,22.99435],[91.71584,22.9876],[91.71018,22.98747],[91.70352,22.99087],[91.6966,22.99001],[91.69156,22.98465],[91.68134,22.9817],[91.67735,22.98158],[91.67463,22.97886],[91.67054,22.97855],[91.66476,22.98104],[91.6596,22.98047],[91.65445,22.97719],[91.63862,22.96868],[91.63611,22.96541],[91.62976,22.95471],[91.62155,22.94418],[91.61687,22.94442],[91.61497,22.94883],[91.61183,22.9527],[91.6074,22.95791],[91.61067,22.96371],[91.60888,22.96713],[91.60506,22.97008],[91.60045,22.97339],[91.59544,22.97696],[91.59076,22.97667],[91.58677,22.97501],[91.5792,22.97],[91.57294,22.9732],[91.5645,22.97793],[91.55824,22.98176],[91.55761,22.98609],[91.55914,22.9899],[91.56026,22.9946],[91.56092,22.9984],[91.55884,23.00218],[91.55282,22.99907],[91.54865,22.99479],[91.5459,22.99775],[91.54751,23.00382],[91.5496,23.0107],[91.54973,23.01702],[91.54353,23.0242],[91.54749,23.02973],[91.5499,23.03318],[91.5517,23.03916],[91.54836,23.04121],[91.54194,23.03909],[91.53724,23.03969],[91.53622,23.04645],[91.53775,23.05035],[91.53856,23.05722],[91.53446,23.05791],[91.53023,23.06158],[91.5345,23.06432],[91.53572,23.0693],[91.53293,23.0765],[91.52926,23.08243],[91.53188,23.08544],[91.5337,23.0897],[91.52703,23.09244],[91.52482,23.09983],[91.52362,23.10335],[91.51772,23.10727],[91.5171,23.11134],[91.51987,23.1184],[91.5172,23.1228],[91.50788,23.12734],[91.50705,23.13248],[91.51238,23.13767],[91.51779,23.14422],[91.51289,23.14689],[91.50486,23.14764],[91.50552,23.15144],[91.5011,23.15367],[91.49652,23.15299],[91.49405,23.15587],[91.49544,23.16356],[91.4988,23.17107],[91.49847,23.17541],[91.49696,23.18009],[91.50279,23.18366],[91.50755,23.18641],[91.50439,23.19018],[91.49159,23.19098],[91.483,23.19065],[91.47729,23.19376],[91.4755,23.19835],[91.47918,23.20118],[91.48775,23.20486],[91.48673,23.20936],[91.48542,23.21387],[91.48283,23.21891],[91.4639,23.21615],[91.45839,23.22007],[91.46148,23.2238],[91.46616,23.22573],[91.47069,23.23254],[91.46284,23.24638],[91.45472,23.24704],[91.4536,23.25137],[91.45715,23.25826],[91.4534,23.26194],[91.44871,23.2629],[91.4315,23.26194],[91.42488,23.26053],[91.42259,23.26386],[91.42197,23.268],[91.41966,23.27503],[91.41616,23.28223],[91.41156,23.28183],[91.4127,23.2766],[91.41666,23.26119],[91.41366,23.25773],[91.40923,23.2614],[91.40616,23.26525],[91.40207,23.26314],[91.40271,23.25746],[91.409,23.25336],[91.40563,23.24873],[91.40108,23.24534],[91.40143,23.23894],[91.40283,23.23533],[91.40318,23.23037],[91.39537,23.22877],[91.39159,23.22549],[91.39137,23.21727],[91.38849,23.21309],[91.38852,23.2093],[91.39151,23.20337],[91.38705,23.20035],[91.38446,23.19518],[91.38519,23.19076],[91.38478,23.18326],[91.38809,23.1739],[91.38921,23.16957],[91.3885,23.1608],[91.39573,23.1513],[91.39686,23.14498],[91.39878,23.13949],[91.40201,23.11775],[91.40623,23.11553],[91.40784,23.11139],[91.40768,23.10724],[91.40625,23.10334],[91.40688,23.09901],[91.40868,23.09369],[91.41127,23.08875],[91.41485,23.08327],[91.41948,23.07834],[91.4216,23.07149],[91.41841,23.06704],[91.41425,23.06421],[91.40411,23.0625],[91.39307,23.06223],[91.38553,23.06533],[91.3816,23.06873],[91.37796,23.07131],[91.37069,23.07486],[91.36832,23.07873],[91.36623,23.08296],[91.36208,23.0878],[91.35881,23.09201],[91.35644,23.09552],[91.35375,23.10046],[91.35215,23.10478],[91.35053,23.11028],[91.34853,23.11459],[91.34649,23.11874],[91.34454,23.12269],[91.33962,23.13719],[91.33854,23.14666],[91.33493,23.15575],[91.32791,23.16445],[91.32791,23.17429],[91.32803,23.18142],[91.32737,23.18864],[91.32711,23.19506],[91.32671,23.20471],[91.32743,23.20991],[91.32807,23.2161],[91.32768,23.22459],[91.32722,23.23162],[91.32666,23.23839],[91.32327,23.24576],[91.32906,23.25287],[91.32588,23.2569],[91.32002,23.25658],[91.31879,23.26325],[91.31581,23.26692],[91.31515,23.27333],[91.32182,23.27614],[91.32751,23.27489],[91.3332,23.27487],[91.33887,23.2761],[91.34879,23.28105],[91.35586,23.28724],[91.35586,23.28973],[91.36577,23.29592],[91.37144,23.29839],[91.37142,23.30211],[91.38128,23.32198],[91.38696,23.32321],[91.38694,23.32693],[91.39117,23.33437],[91.38972,23.34059],[91.38967,23.35178],[91.39819,23.35424],[91.4067,23.36043],[91.41094,23.3629],[91.41378,23.36538],[91.41519,23.36911],[91.42087,23.37157],[91.41942,23.37779],[91.41938,23.38525],[91.41085,23.38776],[91.40087,23.39275],[91.39375,23.39402],[91.38376,23.4015],[91.38371,23.41145],[91.38651,23.42138],[91.38648,23.42759],[91.38504,23.43132],[91.37934,23.43382],[91.37645,23.44253],[91.37928,23.44749],[91.37924,23.45495],[91.38204,23.46612],[91.38771,23.46984],[91.39053,23.47605],[91.38197,23.48104],[91.38337,23.486],[91.38331,23.49719],[91.38045,23.49969],[91.37757,23.50839],[91.37755,23.5146],[91.3818,23.51832],[91.3889,23.51955],[91.39745,23.51953],[91.40028,23.522],[91.40028,23.52448],[91.39883,23.52822],[91.39597,23.53196],[91.39879,23.53692],[91.39735,23.54065],[91.39732,23.54936],[91.39445,23.55309],[91.3987,23.55681],[91.39868,23.56302],[91.39865,23.56924],[91.39863,23.5742],[91.39718,23.58042],[91.40571,23.58413],[91.41706,23.59404],[91.42984,23.6027],[91.43267,23.60767],[91.43693,23.61263],[91.43691,23.61636],[91.43405,23.6176],[91.43974,23.62131],[91.44542,23.62627],[91.44824,23.63248],[91.45678,23.63743],[91.46241,23.65232],[91.4624,23.65481],[91.47235,23.66098],[91.47662,23.66594],[91.48232,23.66717],[91.48657,23.67213],[91.49226,23.6746],[91.50078,23.68326],[91.50503,23.6907],[91.50534,23.69265],[91.50643,23.6994],[91.51356,23.69814],[91.51785,23.69564],[91.52354,23.69686],[91.52353,23.69935],[91.53493,23.70552],[91.53348,23.70801],[91.5363,23.72167],[91.542,23.72041],[91.55056,23.72162],[91.55625,23.72657],[91.56479,23.73026],[91.57189,23.73894],[91.57473,23.74639],[91.57185,23.75013],[91.57042,23.75635],[91.5747,23.75508],[91.57897,23.75631],[91.58611,23.75256],[91.59609,23.755],[91.59751,23.75872],[91.60322,23.7587],[91.61605,23.76114],[91.63031,23.76107],[91.63195,23.76178],[91.63745,23.76104],[91.64459,23.75976],[91.65315,23.75848],[91.66884,23.75842],[91.67597,23.75714],[91.68026,23.75464],[91.68882,23.75335],[91.6931,23.75705],[91.6988,23.75579],[91.70308,23.75577],[91.70592,23.76073],[91.70877,23.7632],[91.71305,23.76194],[91.71449,23.75447],[91.71735,23.75322],[91.72021,23.74449],[91.73021,23.73823],[91.73164,23.73823],[91.73735,23.73322],[91.73737,23.72825],[91.73879,23.72452],[91.74164,23.72326],[91.74165,23.71704],[91.73882,23.7096],[91.73027,23.70219],[91.72743,23.69599],[91.72887,23.6935],[91.73314,23.69223],[91.73742,23.68847],[91.74029,23.68225],[91.74599,23.67725],[91.74743,23.66978],[91.7517,23.67349],[91.75456,23.6772],[91.75882,23.67967],[91.76024,23.68214],[91.7745,23.68456],[91.77876,23.69074]]]}}]}