{"type":"FeatureCollection","features":[{"type":"Feature","properties":{"id":"west-tripura","name":"West Tripura","stateId":"tripura","stateName":"Tripura","censuscode":289,"type":"district"},"geometry":{"type":"Polygon","coordinates":[[[91.7609,24.13869],[91.76148,24.1383],[91.75615,24.11331],[91.75817,24.09472],[91.75772,24.08833],[91.75196,24.07284],[91.7568,24.06828],[91.75774,24.065],[91.75582,24.06132],[91.75739,24.05521],[91.75845,24.04478],[91.75685,24.03735],[91.75805,24.03198],[91.76085,24.02661],[91.76067,24.0209],[91.75939,24.016],[91.75995,24.01018],[91.75843,23.99936],[91.75523,23.98598],[91.75742,23.9785],[91.75812,23.97227],[91.75751,23.9673],[91.75549,23.96232],[91.75485,23.95611],[91.76163,23.95235],[91.76271,23.94736],[91.76243,23.94239],[91.7636,23.93617],[91.76634,23.93242],[91.76053,23.92747],[91.76185,23.91876],[91.7775,23.91126],[91.78038,23.89632],[91.77899,23.88887],[91.78617,23.88263],[91.78339,23.8702],[91.78353,23.85155],[91.78215,23.8441],[91.78363,23.83787],[91.78365,23.83414],[91.78226,23.82917],[91.78232,23.81923],[91.77518,23.81926],[91.77089,23.82052],[91.76659,23.82302],[91.77523,23.81055],[91.7824,23.8068],[91.78242,23.80431],[91.7753,23.79937],[91.77821,23.79065],[91.77398,23.78072],[91.77404,23.77079],[91.77985,23.74963],[91.78702,23.74213],[91.77286,23.71859],[91.77575,23.70987],[91.7772,23.70116],[91.77876,23.69074],[91.7745,23.68456],[91.76024,23.68214],[91.75882,23.67967],[91.75456,23.6772],[91.7517,23.67349],[91.74743,23.66978],[91.74599,23.67725],[91.74029,23.68225],[91.73742,23.68847],[91.73314,23.69223],[91.72887,23.6935],[91.72743,23.69599],[91.73027,23.70219],[91.73882,23.7096],[91.74165,23.71704],[91.74164,23.72326],[91.73879,23.72452],[91.73737,23.72825],[91.73735,23.73322],[91.73164,23.73823],[91.73021,23.73823],[91.72021,23.74449],[91.71735,23.75322],[91.71449,23.75447],[91.71305,23.76194],[91.70877,23.7632],[91.70592,23.76073],[91.70308,23.75577],[91.6988,23.75579],[91.6931,23.75705],[91.68882,23.75335],[91.68026,23.75464],[91.67597,23.75714],[91.66884,23.75842],[91.65315,23.75848],[91.64459,23.75976],[91.63745,23.76104],[91.63195,23.76178],[91.63031,23.76107],[91.61605,23.76114],[91.60322,23.7587],[91.59751,23.75872],[91.59609,23.755],[91.58611,23.75256],[91.57897,23.75631],[91.5747,23.75508],[91.57042,23.75635],[91.57185,23.75013],[91.57473,23.74639],[91.57189,23.73894],[91.56479,23.73026],[91.55625,23.72657],[91.55056,23.72162],[91.542,23.72041],[91.5363,23.72167],[91.53348,23.70801],[91.53493,23.70552],[91.52353,23.69935],[91.52354,23.69686],[91.51785,23.69564],[91.51356,23.69814],[91.50643,23.6994],[91.50534,23.69265],[91.50503,23.6907],[91.50078,23.68326],[91.49226,23.6746],[91.48657,23.67213],[91.48232,23.66717],[91.47662,23.66594],[91.47235,23.66098],[91.4624,23.65481],[91.46241,23.65232],[91.45678,23.63743],[91.44824,23.63248],[91.44542,23.62627],[91.43974,23.62131],[91.43405,23.6176],[91.43691,23.61636],[91.43693,23.61263],[91.43267,23.60767],[91.42984,23.6027],[91.41706,23.59404],[91.40571,23.58413],[91.39718,23.58042],[91.39863,23.5742],[91.39865,23.56924],[91.39868,23.56302],[91.3987,23.55681],[91.39445,23.55309],[91.39732,23.54936],[91.39735,23.54065],[91.39879,23.53692],[91.39597,23.53196],[91.39883,23.52822],[91.40028,23.52448],[91.40028,23.522],[91.39745,23.51953],[91.3889,23.51955],[91.3818,23.51832],[91.37755,23.5146],[91.37757,23.50839],[91.38045,23.49969],[91.38331,23.49719],[91.38337,23.486],[91.38197,23.48104],[91.39053,23.47605],[91.38771,23.46984],[91.38204,23.46612],[91.37924,23.45495],[91.37928,23.44749],[91.37645,23.44253],[91.37934,23.43382],[91.38504,23.43132],[91.38648,23.42759],[91.38651,23.42138],[91.38371,23.41145],[91.38376,23.4015],[91.39375,23.39402],[91.40087,23.39275],[91.41085,23.38776],[91.41938,23.38525],[91.41942,23.37779],[91.42087,23.37157],[91.41519,23.36911],[91.41378,23.36538],[91.41094,23.3629],[91.4067,23.36043],[91.39819,23.35424],[91.38967,23.35178],[91.38972,23.34059],[91.39117,23.33437],[91.38694,23.32693],[91.38696,23.32321],[91.38128,23.32198],[91.37142,23.30211],[91.37144,23.29839],[91.36577,23.29592],[91.35586,23.28973],[91.35586,23.28724],[91.34879,23.28105],[91.33887,23.2761],[91.3332,23.27487],[91.32751,23.27489],[91.32182,23.27614],[91.31515,23.27333],[91.31941,23.27815],[91.31808,23.28302],[91.31271,23.28379],[91.30858,23.2851],[91.30465,23.28669],[91.30293,23.29282],[91.30405,23.29771],[91.30996,23.30309],[91.31522,23.30476],[91.31792,23.30857],[91.31611,23.3138],[91.31178,23.31602],[91.3062,23.31605],[91.302,23.31592],[91.29453,23.32028],[91.29536,23.32445],[91.29699,23.32789],[91.29899,23.33251],[91.30019,23.33993],[91.30443,23.34547],[91.30902,23.34624],[91.31398,23.349],[91.31599,23.35262],[91.317,23.36002],[91.31076,23.35772],[91.30659,23.35435],[91.30418,23.35017],[91.29969,23.35049],[91.29864,23.3559],[91.29517,23.36075],[91.29184,23.37011],[91.29729,23.37304],[91.29663,23.37963],[91.29281,23.38095],[91.29021,23.37597],[91.28609,23.37656],[91.28424,23.38547],[91.2805,23.39655],[91.28044,23.40161],[91.28266,23.40632],[91.28181,23.41137],[91.27753,23.41802],[91.27378,23.42105],[91.27081,23.42355],[91.27036,23.42951],[91.27248,23.43287],[91.25939,23.44837],[91.25444,23.4625],[91.25191,23.4697],[91.24973,23.48973],[91.24268,23.49003],[91.23989,23.49397],[91.23797,23.49946],[91.23239,23.49886],[91.22504,23.49907],[91.22323,23.50437],[91.2204,23.51148],[91.21356,23.5107],[91.20813,23.51353],[91.20561,23.52037],[91.20801,23.5324],[91.21198,23.53722],[91.21471,23.54655],[91.2133,23.55006],[91.20588,23.548],[91.19977,23.55165],[91.19848,23.56165],[91.19548,23.56614],[91.18235,23.58371],[91.17839,23.58728],[91.17888,23.59569],[91.17483,23.59791],[91.16659,23.59809],[91.16322,23.6014],[91.16332,23.61016],[91.16322,23.61801],[91.16067,23.6272],[91.16122,23.63858],[91.1637,23.6442],[91.16123,23.65419],[91.16151,23.6635],[91.16533,23.66462],[91.17212,23.66244],[91.18317,23.65559],[91.19586,23.65292],[91.1974,23.64679],[91.2031,23.64549],[91.20736,23.64959],[91.20844,23.65809],[91.20826,23.66595],[91.20643,23.67144],[91.20758,23.68219],[91.20475,23.68967],[91.19563,23.68885],[91.18602,23.68948],[91.17484,23.68865],[91.16485,23.68845],[91.15777,23.68938],[91.15662,23.69551],[91.15673,23.70237],[91.15511,23.70678],[91.15251,23.71154],[91.15489,23.72573],[91.15484,23.72935],[91.15859,23.73625],[91.16407,23.74587],[91.16737,23.7487],[91.17553,23.74716],[91.19009,23.75173],[91.19997,23.75436],[91.20576,23.75405],[91.21415,23.75034],[91.22279,23.74149],[91.22756,23.74532],[91.23013,23.7597],[91.23099,23.77136],[91.2299,23.78056],[91.22835,23.78687],[91.23179,23.79494],[91.23477,23.80083],[91.23469,23.8076],[91.23885,23.81369],[91.24582,23.82225],[91.24764,23.82606],[91.25398,23.83767],[91.25265,23.84317],[91.25024,23.84812],[91.24581,23.85674],[91.24259,23.86402],[91.24124,23.87087],[91.24009,23.87673],[91.23321,23.88569],[91.23466,23.89582],[91.23693,23.90352],[91.24337,23.90737],[91.24705,23.91264],[91.24608,23.91949],[91.24251,23.92263],[91.23826,23.92484],[91.24196,23.92831],[91.26183,23.9256],[91.26891,23.92522],[91.27664,23.92836],[91.276,23.93297],[91.27321,23.93655],[91.26914,23.9404],[91.26542,23.94695],[91.26918,23.95376],[91.27041,23.95784],[91.27411,23.96129],[91.27777,23.9682],[91.28045,23.97409],[91.28451,23.98009],[91.28973,23.97977],[91.28958,23.9758],[91.29072,23.97039],[91.2974,23.96991],[91.30169,23.97338],[91.30459,23.9782],[91.3047,23.98542],[91.30731,23.9895],[91.31673,23.99095],[91.32401,23.99119],[91.32821,23.99295],[91.33443,23.99066],[91.33822,23.985],[91.34081,23.98178],[91.34997,23.98068],[91.35703,23.98291],[91.36329,23.98523],[91.36806,23.98022],[91.3729,23.978],[91.3799,23.97608],[91.3854,23.97594],[91.38262,23.98829],[91.38031,23.99305],[91.37946,23.99837],[91.38351,24.00672],[91.3866,24.0127],[91.39125,24.01925],[91.39563,24.02262],[91.39687,24.02688],[91.39594,24.03166],[91.39932,24.03738],[91.40046,24.041],[91.40249,24.04526],[91.40416,24.05394],[91.39702,24.0593],[91.39345,24.06288],[91.38621,24.06887],[91.384,24.07264],[91.38266,24.07877],[91.38162,24.08372],[91.3823,24.0942],[91.38067,24.1006],[91.38209,24.10495],[91.38766,24.10897],[91.39357,24.10812],[91.39771,24.10716],[91.40588,24.10759],[91.41422,24.10884],[91.4282,24.10878],[91.43569,24.1064],[91.43888,24.10291],[91.44971,24.103],[91.45602,24.10134],[91.46264,24.09814],[91.46973,24.09684],[91.48064,24.09792],[91.4902,24.09765],[91.49659,24.09634],[91.49791,24.09238],[91.49854,24.08868],[91.50152,24.08609],[91.50733,24.08495],[91.51659,24.08377],[91.52103,24.08308],[91.52773,24.08178],[91.53679,24.08031],[91.54635,24.07822],[91.55345,24.07584],[91.56388,24.07529],[91.56958,24.07587],[91.57388,24.07897],[91.5785,24.08018],[91.585,24.07824],[91.59094,24.07449],[91.59643,24.07643],[91.60163,24.07836],[91.60554,24.08065],[91.60343,24.08587],[91.60261,24.08966],[91.60295,24.09544],[91.61072,24.09532],[91.61585,24.09472],[91.62027,24.09484],[91.6249,24.09524],[91.6298,24.09663],[91.63831,24.1032],[91.64248,24.10945],[91.6443,24.11443],[91.64485,24.12022],[91.64253,24.1267],[91.64083,24.13112],[91.64028,24.13663],[91.64034,24.14159],[91.6405,24.1453],[91.64419,24.15065],[91.64682,24.15392],[91.64729,24.15771],[91.64861,24.16423],[91.64817,24.16937],[91.64952,24.17416],[91.65154,24.17861],[91.65683,24.18189],[91.66261,24.18554],[91.66386,24.18907],[91.66303,24.19322],[91.65994,24.19763],[91.65843,24.20186],[91.65682,24.20609],[91.65549,24.21195],[91.65444,24.21944],[91.65825,24.22417],[91.66266,24.22763],[91.66744,24.23136],[91.67137,24.23311],[91.67562,24.23215],[91.67388,24.22716],[91.67313,24.22292],[91.67169,24.21803],[91.67133,24.21369],[91.67293,24.21009],[91.67977,24.20481],[91.68337,24.19815],[91.68573,24.1867],[91.69024,24.17662],[91.69456,24.1668],[91.69892,24.16232],[91.70219,24.16026],[91.70642,24.16011],[91.70995,24.16248],[91.71321,24.15997],[91.71562,24.15457],[91.72045,24.15424],[91.72628,24.15084],[91.73132,24.14835],[91.7391,24.14705],[91.74592,24.14447],[91.74977,24.14215],[91.75577,24.14219],[91.7609,24.13869]]]}}]}