{"type":"FeatureCollection","features":[{"type":"Feature","properties":{"id":"badgam","name":"Badgam","stateId":"jammu-and-kashmir","stateName":"Jammu & Kashmir","censuscode":2,"type":"district"},"geometry":{"type":"Polygon","coordinates":[[[74.82323,34.04905],[74.82835,34.04648],[74.85075,34.04679],[74.87713,34.05223],[74.89146,34.04903],[74.89365,34.04709],[74.91218,34.03065],[74.92058,34.0172],[74.92701,34.00032],[74.9294,33.9817],[74.92945,33.97886],[74.92994,33.95288],[74.92043,33.91714],[74.90255,33.89486],[74.88465,33.87427],[74.85862,33.85357],[74.84473,33.83642],[74.82468,33.82258],[74.80465,33.80873],[74.78032,33.80402],[74.77632,33.80324],[74.74806,33.79435],[74.72195,33.7804],[74.69577,33.76984],[74.66355,33.75748],[74.6395,33.74354],[74.6073,33.73117],[74.58333,33.71383],[74.5634,33.69825],[74.55542,33.69218],[74.54745,33.68612],[74.53154,33.67229],[74.51958,33.66362],[74.51438,33.66281],[74.50109,33.67349],[74.48848,33.69193],[74.48203,33.70709],[74.47557,33.72224],[74.46506,33.73733],[74.45255,33.75068],[74.43603,33.76227],[74.41962,33.76877],[74.41315,33.78392],[74.40245,33.80579],[74.39382,33.82599],[74.3994,33.84644],[74.41337,33.85685],[74.43929,33.87765],[74.46107,33.90177],[74.48274,33.93096],[74.4923,33.95656],[74.51623,33.97731],[74.53626,33.9912],[74.55841,34.00174],[74.59067,34.01582],[74.63505,34.03517],[74.68159,34.04945],[74.70996,34.05665],[74.74248,34.06052],[74.76686,34.06427],[74.78716,34.06795],[74.81188,34.05473],[74.82323,34.04905]]]}}]}