{"type":"FeatureCollection","features":[{"type":"Feature","properties":{"id":"doda","name":"Doda","stateId":"jammu-and-kashmir","stateName":"Jammu & Kashmir","censuscode":16,"type":"district"},"geometry":{"type":"Polygon","coordinates":[[[75.54241,33.36069],[75.5579,33.3379],[75.58896,33.28959],[75.63273,33.24843],[75.62882,33.2224],[75.64504,33.22282],[75.72489,33.21532],[75.74342,33.19668],[75.78146,33.17717],[75.82454,33.15231],[75.81268,33.12061],[75.79521,33.06419],[75.82623,33.05814],[75.84205,33.06946],[75.85654,33.07255],[75.90058,33.06544],[75.94304,33.05691],[75.97544,33.0577],[75.99609,33.07048],[76.01133,33.09952],[76.04546,33.0976],[76.06393,33.07892],[76.08927,33.04811],[76.1034,33.01293],[76.11109,33.00335],[76.1112,33.00278],[76.11166,33.00036],[76.10831,32.99278],[76.10271,32.97502],[76.09923,32.96881],[76.09539,32.96608],[76.08701,32.96225],[76.08288,32.95801],[76.07145,32.951],[76.06736,32.94431],[76.05955,32.94028],[76.045,32.93751],[76.04057,32.93165],[76.03808,32.9245],[76.03408,32.9177],[76.03039,32.91601],[76.02149,32.91409],[76.01438,32.90946],[76.00425,32.90068],[76.00003,32.9005],[75.96254,32.8853],[75.95631,32.8844],[75.95055,32.88449],[75.94001,32.89831],[75.93037,32.90647],[75.91691,32.916],[75.89771,32.92512],[75.88393,32.93061],[75.86688,32.93159],[75.85067,32.93508],[75.83822,32.93396],[75.82471,32.93031],[75.82009,32.92406],[75.81504,32.91995],[75.81599,32.91742],[75.81848,32.91077],[75.8167,32.90442],[75.81051,32.89781],[75.80655,32.89449],[75.80409,32.89383],[75.80584,32.88511],[75.80613,32.88363],[75.80647,32.88189],[75.81128,32.87065],[75.81128,32.87065],[75.82214,32.85655],[75.82473,32.85381],[75.82453,32.85376],[75.82451,32.85375],[75.79565,32.86133],[75.7918,32.86234],[75.78276,32.86305],[75.75159,32.86549],[75.72726,32.89076],[75.71312,32.89914],[75.68884,32.91593],[75.66655,32.93443],[75.64433,32.94444],[75.62211,32.95445],[75.5878,32.96606],[75.55352,32.97427],[75.52327,32.98081],[75.49703,32.98907],[75.47276,32.99903],[75.45441,33.01922],[75.44218,33.03098],[75.41987,33.04434],[75.39561,33.0526],[75.38346,33.05757],[75.37125,33.06763],[75.34892,33.08098],[75.3166,33.08744],[75.29152,33.09688],[75.30213,33.10569],[75.29181,33.12042],[75.29149,33.12861],[75.29938,33.13429],[75.31056,33.1387],[75.29667,33.16152],[75.29602,33.17789],[75.30062,33.18484],[75.31338,33.19066],[75.32127,33.19634],[75.33339,33.21852],[75.31528,33.26579],[75.3189,33.29729],[75.33151,33.30719],[75.33444,33.31546],[75.36183,33.32168],[75.41713,33.35829],[75.426,33.35467],[75.45635,33.35154],[75.47236,33.36355],[75.48826,33.38573],[75.49991,33.39902],[75.50197,33.39781],[75.52874,33.37806],[75.54241,33.36069]]]}}]}