{"type":"FeatureCollection","features":[{"type":"Feature","properties":{"id":"kargil","name":"Kargil","stateId":"jammu-and-kashmir","stateName":"Jammu & Kashmir","censuscode":4,"type":"district"},"geometry":{"type":"Polygon","coordinates":[[[76.6604,34.38012],[76.67459,34.32414],[76.68065,34.28852],[76.69489,34.26476],[76.71119,34.24608],[76.6948,34.22237],[76.67227,34.18849],[76.65793,34.15799],[76.64768,34.13087],[76.63335,34.09359],[76.62922,34.05798],[76.63527,34.02067],[76.65354,33.99013],[76.684,33.95617],[76.7124,33.92221],[76.75706,33.89161],[76.79764,33.86777],[76.83824,33.8541],[76.86868,33.84384],[76.91735,33.82333],[76.95175,33.79777],[76.97803,33.77563],[77.00844,33.76703],[77.09365,33.75816],[77.12614,33.75969],[77.15457,33.76123],[77.19917,33.75251],[77.22347,33.74558],[77.2497,33.72846],[77.27188,33.71306],[77.28786,33.68583],[77.30581,33.65349],[77.32786,33.62791],[77.35417,33.62433],[77.39463,33.61726],[77.43308,33.61188],[77.46147,33.61335],[77.4898,33.60973],[77.51803,33.59762],[77.52998,33.58056],[77.5276,33.55176],[77.52525,33.52465],[77.49849,33.48757],[77.46364,33.44886],[77.43914,33.42871],[77.41471,33.41364],[77.39031,33.40026],[77.36384,33.3818],[77.34545,33.36158],[77.34124,33.34466],[77.33696,33.32095],[77.33459,33.28536],[77.3444,33.25647],[77.34411,33.22765],[77.33582,33.20567],[77.31951,33.18713],[77.29509,33.16356],[77.26653,33.12645],[77.26213,33.08579],[77.26183,33.05188],[77.27161,33.0213],[77.26728,32.98743],[77.26291,32.94846],[77.25867,32.92476],[77.25333,32.917],[77.25304,32.91658],[77.25271,32.9161],[77.25268,32.91614],[77.24259,32.90141],[77.23826,32.89485],[77.2356,32.89531],[77.22219,32.90439],[77.20659,32.90812],[77.19943,32.91353],[77.19152,32.92924],[77.18424,32.92617],[77.18137,32.92322],[77.1792,32.91922],[77.17806,32.91418],[77.17506,32.91134],[77.16381,32.91214],[77.16381,32.91214],[77.16381,32.91214],[77.16836,32.91835],[77.16688,32.92392],[77.16461,32.93253],[77.16461,32.93253],[77.16461,32.93253],[77.16623,32.93606],[77.16644,32.93953],[77.16378,32.94092],[77.16378,32.94092],[77.16383,32.95458],[77.15408,32.95595],[77.15298,32.95914],[77.15298,32.95914],[77.15326,32.96289],[77.15201,32.9677],[77.15201,32.9677],[77.15359,32.97267],[77.15413,32.97868],[77.14525,32.98209],[77.13781,32.98097],[77.13011,32.98239],[77.12089,32.98548],[77.11483,32.97586],[77.10188,32.97196],[77.09259,32.97165],[77.08937,32.97455],[77.08362,32.98387],[77.07618,32.98443],[77.07009,32.98926],[77.05304,32.99808],[77.04213,32.99537],[77.03762,32.99017],[77.02894,32.99167],[77.01614,32.98801],[77.0117,32.99074],[77.00914,32.99131],[77.00461,32.99437],[76.99851,32.99994],[76.98421,33.00572],[76.9814,33.00857],[76.97988,33.01232],[76.97982,33.01246],[76.97448,33.01527],[76.96604,33.01705],[76.95038,33.02705],[76.94185,33.02758],[76.93522,33.03231],[76.93522,33.03231],[76.93233,33.03745],[76.93233,33.03745],[76.93233,33.03746],[76.93105,33.04286],[76.92798,33.04887],[76.91787,33.06283],[76.91787,33.06283],[76.91472,33.0697],[76.91472,33.0697],[76.91428,33.07343],[76.91415,33.07453],[76.90855,33.0795],[76.90855,33.0795],[76.90855,33.0795],[76.90874,33.08335],[76.91281,33.09017],[76.91213,33.0939],[76.90259,33.09621],[76.89525,33.10602],[76.89525,33.10602],[76.89525,33.10602],[76.89506,33.11301],[76.89506,33.11305],[76.88655,33.11905],[76.87826,33.11521],[76.87039,33.11039],[76.86227,33.11115],[76.857,33.11418],[76.85194,33.11944],[76.85194,33.11944],[76.85194,33.11945],[76.85523,33.12528],[76.84593,33.13059],[76.84593,33.13059],[76.84705,33.13664],[76.84084,33.14023],[76.83512,33.14095],[76.83285,33.14513],[76.82738,33.14752],[76.82135,33.15468],[76.81933,33.16054],[76.81933,33.16054],[76.81933,33.16054],[76.81991,33.16504],[76.81717,33.16847],[76.81717,33.16847],[76.81717,33.16847],[76.81605,33.17232],[76.81605,33.17232],[76.81834,33.17682],[76.82313,33.18128],[76.82454,33.18376],[76.82171,33.19168],[76.82127,33.1929],[76.82127,33.1929],[76.83659,33.20462],[76.83517,33.21128],[76.82908,33.21453],[76.82908,33.21453],[76.82908,33.21453],[76.83107,33.2218],[76.83592,33.23022],[76.84126,33.23647],[76.84695,33.24163],[76.84676,33.243],[76.84643,33.24548],[76.84001,33.24746],[76.83537,33.2476],[76.83203,33.24655],[76.82723,33.24341],[76.82435,33.23533],[76.82081,33.23577],[76.81499,33.24034],[76.80351,33.25275],[76.79634,33.2549],[76.79598,33.25486],[76.79598,33.25486],[76.79598,33.25492],[76.7955,33.25909],[76.79359,33.26474],[76.79158,33.27073],[76.79158,33.27077],[76.79156,33.27077],[76.79105,33.2723],[76.7875,33.28284],[76.77546,33.30491],[76.7533,33.32191],[76.73312,33.32534],[76.71697,33.33046],[76.6867,33.33899],[76.6746,33.34918],[76.67665,33.36613],[76.68074,33.38647],[76.67271,33.41361],[76.66664,33.41362],[76.66465,33.42888],[76.63839,33.44587],[76.61617,33.46285],[76.59798,33.47643],[76.58788,33.49509],[76.58183,33.51544],[76.56767,33.52731],[76.54136,33.54428],[76.51909,33.56124],[76.48465,33.58498],[76.47046,33.60871],[76.44613,33.63075],[76.42584,33.64939],[76.39744,33.66802],[76.36701,33.67308],[76.34269,33.66287],[76.32245,33.64758],[76.31237,33.62214],[76.27997,33.60852],[76.24958,33.60846],[76.23735,33.63047],[76.23323,33.65081],[76.22092,33.69487],[76.21873,33.74234],[76.21046,33.7864],[76.19003,33.82027],[76.16148,33.84562],[76.13088,33.87436],[76.11045,33.89464],[76.08998,33.9234],[76.08169,33.95389],[76.0571,33.98602],[76.0428,33.99614],[76.0163,34.00113],[76.00208,33.99598],[75.9736,33.99247],[75.9431,33.98725],[75.92468,34.00072],[75.90009,34.02265],[75.87543,34.05304],[75.86308,34.06994],[75.84056,34.08338],[75.83238,34.08673],[75.80992,34.09169],[75.79351,34.10346],[75.77907,34.12373],[75.76872,34.14062],[75.75625,34.16768],[75.74169,34.19811],[75.70735,34.21582],[75.70875,34.22842],[75.68626,34.23166],[75.66996,34.22816],[75.65162,34.22464],[75.63737,34.22115],[75.63102,34.22268],[75.63123,34.2228],[75.62498,34.23462],[75.59631,34.24289],[75.56761,34.25285],[75.52865,34.26611],[75.49162,34.28785],[75.45253,34.30956],[75.40727,34.3329],[75.3682,34.3495],[75.35817,34.352],[75.37018,34.35461],[75.3886,34.35308],[75.40909,34.34988],[75.43362,34.3501],[75.4272,34.37208],[75.40631,34.40581],[75.39995,34.42271],[75.39538,34.45828],[75.39284,34.49556],[75.39466,34.51254],[75.39851,34.53122],[75.39242,34.54345],[75.43718,34.55192],[75.49032,34.56424],[75.52507,34.573],[75.56804,34.58012],[75.61711,34.59236],[75.65802,34.60282],[75.7051,34.61162],[75.73989,34.62032],[75.77877,34.63073],[75.8156,34.64281],[75.85044,34.64809],[75.8853,34.64997],[75.91192,34.65858],[75.95086,34.66554],[75.98981,34.67249],[76.04727,34.67441],[76.07801,34.683],[76.09848,34.69664],[76.121,34.70858],[76.1353,34.72727],[76.15988,34.74261],[76.19471,34.76644],[76.21929,34.78854],[76.23773,34.80723],[76.25205,34.831],[76.27668,34.8497],[76.3075,34.86162],[76.34248,34.85828],[76.36514,34.84135],[76.37511,34.83315],[76.38572,34.82441],[76.41248,34.8007],[76.42484,34.77697],[76.43718,34.76341],[76.45568,34.7329],[76.46597,34.70408],[76.4824,34.68204],[76.51113,34.67187],[76.53576,34.65999],[76.56858,34.64302],[76.58702,34.62605],[76.59931,34.60739],[76.60953,34.58026],[76.61561,34.53108],[76.63192,34.4785],[76.65025,34.42591],[76.6604,34.38012]]]}}]}