{"type":"FeatureCollection","features":[{"type":"Feature","properties":{"id":"kathua","name":"Kathua","stateId":"jammu-and-kashmir","stateName":"Jammu & Kashmir","censuscode":7,"type":"district"},"geometry":{"type":"Polygon","coordinates":[[[75.92895,32.75714],[75.93052,32.74202],[75.93052,32.74202],[75.92625,32.72093],[75.92125,32.70933],[75.91542,32.70023],[75.91292,32.69102],[75.91292,32.69102],[75.91417,32.68529],[75.91519,32.68057],[75.91519,32.68057],[75.92172,32.67217],[75.93107,32.66581],[75.94036,32.65807],[75.94173,32.65412],[75.94173,32.65412],[75.93988,32.64353],[75.92397,32.61898],[75.92078,32.61506],[75.90243,32.59176],[75.88864,32.57603],[75.88785,32.57514],[75.8726,32.55827],[75.85384,32.53747],[75.84652,32.52436],[75.84488,32.51982],[75.84096,32.50906],[75.8395,32.50749],[75.83161,32.49906],[75.82023,32.48691],[75.80599,32.47866],[75.79471,32.47493],[75.78831,32.475],[75.76876,32.47519],[75.76174,32.47631],[75.76087,32.47422],[75.75955,32.46906],[75.75109,32.45463],[75.74545,32.44501],[75.74086,32.43826],[75.73545,32.43027],[75.73105,32.42378],[75.7272,32.41811],[75.71387,32.40949],[75.70058,32.4006],[75.67832,32.39352],[75.66362,32.38885],[75.65252,32.38745],[75.60816,32.38186],[75.58248,32.37202],[75.57278,32.36717],[75.56058,32.36106],[75.54461,32.34913],[75.53965,32.34029],[75.53111,32.29819],[75.52085,32.28154],[75.51974,32.27973],[75.51647,32.27625],[75.51419,32.27554],[75.50995,32.27713],[75.50526,32.28822],[75.50526,32.28823],[75.5074,32.30306],[75.5064,32.30698],[75.50585,32.30917],[75.50551,32.31049],[75.50003,32.31058],[75.49522,32.31065],[75.4867,32.31498],[75.48305,32.3179],[75.48305,32.3179],[75.48886,32.33956],[75.48886,32.33956],[75.48758,32.34041],[75.48195,32.33922],[75.47165,32.33391],[75.46708,32.33216],[75.4639,32.33172],[75.44786,32.32712],[75.44635,32.32693],[75.43025,32.32474],[75.4127,32.32678],[75.40122,32.32823],[75.39377,32.32937],[75.38872,32.33114],[75.37443,32.33554],[75.36051,32.33981],[75.35924,32.34087],[75.34702,32.34539],[75.34053,32.34355],[75.33963,32.34238],[75.33963,32.34238],[75.32471,32.34129],[75.31804,32.33448],[75.3159,32.33446],[75.31213,32.33553],[75.31187,32.33599],[75.30943,32.33779],[75.30838,32.33755],[75.3054,32.33775],[75.30461,32.33818],[75.30405,32.3391],[75.30316,32.34364],[75.30045,32.34611],[75.29883,32.34723],[75.29715,32.34766],[75.29239,32.34901],[75.29007,32.35078],[75.28911,32.35167],[75.28964,32.35427],[75.29167,32.35921],[75.29027,32.36329],[75.28701,32.3662],[75.2854,32.36686],[75.27734,32.36701],[75.27656,32.36654],[75.27468,32.36721],[75.27307,32.36719],[75.26516,32.36375],[75.26054,32.36387],[75.25892,32.36478],[75.2581,32.36636],[75.25641,32.37136],[75.25721,32.37273],[75.25825,32.37318],[75.25714,32.37659],[75.25707,32.37765],[75.25733,32.38164],[75.25664,32.38333],[75.25501,32.38502],[75.25286,32.38534],[75.24895,32.38467],[75.24869,32.38421],[75.24737,32.38373],[75.24391,32.3805],[75.24285,32.38026],[75.23966,32.3798],[75.23886,32.38023],[75.23884,32.38068],[75.23777,32.38137],[75.23532,32.38316],[75.23422,32.38359],[75.23233,32.38653],[75.23071,32.38721],[75.22641,32.38716],[75.22616,32.38671],[75.22373,32.38689],[75.22293,32.38781],[75.22041,32.39277],[75.21828,32.39411],[75.21664,32.39523],[75.21317,32.39542],[75.21158,32.39427],[75.21024,32.39336],[75.2073,32.39286],[75.20651,32.39149],[75.20652,32.39103],[75.20547,32.39058],[75.20046,32.3911],[75.19958,32.39118],[75.1993,32.39161],[75.19876,32.39161],[75.19713,32.39298],[75.19658,32.39297],[75.19249,32.39722],[75.19195,32.39858],[75.19293,32.40293],[75.19399,32.40431],[75.19532,32.40432],[75.19559,32.40479],[75.19905,32.40573],[75.20143,32.40801],[75.2014,32.40948],[75.21052,32.41461],[75.2219,32.43238],[75.22371,32.44782],[75.23735,32.46977],[75.24738,32.4916],[75.24802,32.50598],[75.24745,32.52033],[75.24575,32.53259],[75.24603,32.54084],[75.24616,32.54085],[75.28012,32.54459],[75.3099,32.56185],[75.33564,32.58244],[75.34744,32.59781],[75.37122,32.61669],[75.37305,32.63027],[75.37184,32.6304],[75.37503,32.63198],[75.39876,32.65593],[75.42065,32.668],[75.45467,32.67169],[75.4705,32.68878],[75.47619,32.71596],[75.48793,32.73979],[75.51597,32.74341],[75.54407,32.74195],[75.59024,32.73892],[75.61825,32.74591],[75.65427,32.75465],[75.67017,32.77002],[75.68196,32.79553],[75.69787,32.81089],[75.72587,32.82294],[75.7539,32.8316],[75.77992,32.84193],[75.7971,32.84467],[75.80198,32.84545],[75.80704,32.84732],[75.80822,32.84775],[75.82451,32.85375],[75.82453,32.85376],[75.82473,32.85381],[75.82487,32.85366],[75.82493,32.8536],[75.83239,32.84744],[75.83765,32.84311],[75.84415,32.84071],[75.85398,32.83708],[75.87183,32.82639],[75.89036,32.8139],[75.89588,32.8054],[75.90224,32.79562],[75.90224,32.79562],[75.91658,32.76993],[75.91658,32.76993],[75.92895,32.75714],[75.92895,32.75714]]]}}]}