{"type":"FeatureCollection","features":[{"type":"Feature","properties":{"id":"punch","name":"Punch","stateId":"jammu-and-kashmir","stateName":"Jammu & Kashmir","censuscode":5,"type":"district"},"geometry":{"type":"Polygon","coordinates":[[[74.32009,33.95562],[74.32773,33.94523],[74.34448,33.92687],[74.36724,33.91201],[74.38809,33.89203],[74.40279,33.87363],[74.41337,33.85685],[74.3994,33.84644],[74.39382,33.82599],[74.40245,33.80579],[74.41315,33.78392],[74.41962,33.76877],[74.43603,33.76227],[74.45255,33.75068],[74.46506,33.73733],[74.47557,33.72224],[74.48203,33.70709],[74.48848,33.69193],[74.50109,33.67349],[74.51438,33.66281],[74.51763,33.66019],[74.52006,33.64327],[74.52455,33.62469],[74.52693,33.60947],[74.52352,33.58228],[74.52388,33.56702],[74.53059,33.54],[74.53932,33.51301],[74.5582,33.48449],[74.55452,33.47691],[74.5524,33.47252],[74.53622,33.47226],[74.51595,33.47362],[74.50163,33.48017],[74.48731,33.48671],[74.47492,33.49668],[74.46675,33.49993],[74.44623,33.51145],[74.43586,33.52145],[74.4254,33.53484],[74.40879,33.55151],[74.38613,33.56637],[74.36981,33.57117],[74.34344,33.5724],[74.32732,33.56871],[74.29928,33.55633],[74.28722,33.55272],[74.27323,33.54568],[74.25542,33.53008],[74.24382,33.50951],[74.22409,33.49048],[74.21025,33.47835],[74.20078,33.45442],[74.17694,33.4387],[74.1673,33.42156],[74.15362,33.40433],[74.14591,33.39061],[74.1322,33.37508],[74.12885,33.37536],[74.11599,33.37645],[74.10151,33.38803],[74.08688,33.4047],[74.07826,33.42318],[74.07382,33.43666],[74.07714,33.46217],[74.07862,33.48085],[74.08001,33.50293],[74.0815,33.52161],[74.07489,33.54014],[74.05845,33.54828],[74.04033,33.54452],[74.02231,33.53737],[74.0042,33.5336],[73.98977,33.54178],[73.9833,33.55521],[73.97282,33.56686],[73.93829,33.56952],[73.9263,33.56418],[73.92071,33.56169],[73.90274,33.60085],[73.88146,33.64983],[73.87682,33.70751],[73.88448,33.74283],[73.91386,33.78693],[73.94484,33.83667],[73.96981,33.85253],[74.0401,33.8803],[74.11543,33.91092],[74.14885,33.92827],[74.15699,33.94386],[74.16316,33.97349],[74.16244,34.00998],[74.16311,34.00999],[74.18967,34.00711],[74.21419,34.00419],[74.24287,33.99794],[74.26553,33.98819],[74.28009,33.97659],[74.30292,33.96004],[74.32009,33.95562]]]}}]}