{"type":"FeatureCollection","features":[{"type":"Feature","properties":{"id":"ramban","name":"Ramban","stateId":"jammu-and-kashmir","stateName":"Jammu & Kashmir","censuscode":17,"type":"district"},"geometry":{"type":"Polygon","coordinates":[[[75.15267,33.57859],[75.17813,33.57092],[75.19247,33.56091],[75.19279,33.56021],[75.20504,33.53391],[75.22561,33.51209],[75.23801,33.49526],[75.26267,33.47008],[75.29138,33.44325],[75.31189,33.42311],[75.33025,33.41142],[75.3487,33.39294],[75.37112,33.37959],[75.38739,33.37127],[75.40569,33.36296],[75.41713,33.35829],[75.36183,33.32168],[75.33444,33.31546],[75.33151,33.30719],[75.3189,33.29729],[75.31528,33.26579],[75.33339,33.21852],[75.32127,33.19634],[75.31338,33.19066],[75.30062,33.18484],[75.29602,33.17789],[75.29667,33.16152],[75.31056,33.1387],[75.29938,33.13429],[75.29149,33.12861],[75.29181,33.12042],[75.30213,33.10569],[75.29152,33.09688],[75.26395,33.10725],[75.2396,33.11887],[75.21524,33.13048],[75.18895,33.13697],[75.16471,33.14009],[75.14045,33.14491],[75.11817,33.15143],[75.08777,33.16125],[75.07635,33.1643],[75.06955,33.16612],[75.04916,33.17944],[75.02867,33.19784],[75.01818,33.22145],[75.01782,33.24179],[75.01945,33.26385],[75.02924,33.28093],[75.02874,33.30975],[75.03219,33.3437],[75.03588,33.3641],[75.0376,33.38107],[75.03716,33.4065],[75.03071,33.42847],[75.01807,33.45714],[75.00979,33.46117],[75.01796,33.46392],[75.04032,33.45741],[75.07277,33.45271],[75.101,33.45813],[75.12306,33.47026],[75.13276,33.49581],[75.1263,33.51947],[75.11984,33.54314],[75.12358,33.56183],[75.13344,33.5789],[75.14556,33.58073],[75.15267,33.57859]]]}}]}