{"type":"FeatureCollection","features":[{"type":"Feature","properties":{"id":"reasi","name":"Reasi","stateId":"jammu-and-kashmir","stateName":"Jammu & Kashmir","censuscode":20,"type":"district"},"geometry":{"type":"Polygon","coordinates":[[[75.07635,33.1643],[75.06291,33.15162],[75.03554,33.13648],[75.02168,33.11865],[75.01673,33.09188],[75.02874,33.06662],[75.0443,33.04352],[75.04897,33.01908],[75.04484,33.00154],[75.02232,32.98755],[75.00211,32.9767],[74.97861,32.95755],[74.96213,32.94476],[74.95433,32.92812],[74.95065,32.90034],[74.94665,32.87708],[74.93383,32.87449],[74.92385,32.87097],[74.90379,32.86901],[74.88568,32.87046],[74.85542,32.87683],[74.83527,32.87994],[74.81685,32.89663],[74.8124,32.91861],[74.82017,32.93228],[74.83394,32.94774],[74.8457,32.96316],[74.83934,32.98003],[74.82502,32.99169],[74.80853,33.01181],[74.78196,33.03177],[74.75174,33.03303],[74.72978,33.02423],[74.71404,33.00704],[74.70236,32.98821],[74.69267,32.97111],[74.66883,32.95718],[74.64657,32.96362],[74.62828,32.97181],[74.6119,32.98512],[74.59127,32.99624],[74.59539,33.00351],[74.5911,33.01531],[74.5786,33.03376],[74.5663,33.04373],[74.54787,33.057],[74.54175,33.06319],[74.56777,33.0675],[74.58163,33.07789],[74.6015,33.09008],[74.6254,33.10233],[74.637,33.12455],[74.63267,33.13805],[74.61225,33.1496],[74.58792,33.15599],[74.56765,33.16075],[74.54928,33.17063],[74.52892,33.17877],[74.51651,33.19213],[74.51809,33.21081],[74.52778,33.22793],[74.55601,33.22839],[74.5884,33.22383],[74.61066,33.22079],[74.64506,33.21624],[74.65896,33.22663],[74.66471,33.24028],[74.66027,33.25887],[74.65583,33.27745],[74.64738,33.29428],[74.64697,33.31293],[74.6463,33.34344],[74.64589,33.36209],[74.64967,33.37401],[74.64732,33.38924],[74.64092,33.4044],[74.62441,33.41941],[74.61205,33.42939],[74.60568,33.44285],[74.60124,33.45251],[74.60538,33.45641],[74.61923,33.4702],[74.65549,33.47754],[74.6897,33.48654],[74.70155,33.50029],[74.70719,33.52072],[74.73137,33.52617],[74.75367,33.5248],[74.77419,33.51153],[74.79296,33.48467],[74.80132,33.47122],[74.82374,33.46306],[74.84002,33.4582],[74.8562,33.45842],[74.88446,33.4622],[74.90263,33.46413],[74.9208,33.46607],[74.94511,33.46469],[74.9714,33.46503],[74.99767,33.46706],[75.00979,33.46117],[75.01807,33.45714],[75.03071,33.42847],[75.03716,33.4065],[75.0376,33.38107],[75.03588,33.3641],[75.03219,33.3437],[75.02874,33.30975],[75.02924,33.28093],[75.01945,33.26385],[75.01782,33.24179],[75.01818,33.22145],[75.02867,33.19784],[75.04916,33.17944],[75.06955,33.16612],[75.07635,33.1643]]]}}]}