{"type":"FeatureCollection","features":[{"type":"Feature","properties":{"id":"samba","name":"Samba","stateId":"jammu-and-kashmir","stateName":"Jammu & Kashmir","censuscode":22,"type":"district"},"geometry":{"type":"Polygon","coordinates":[[[75.24802,32.50598],[75.24738,32.4916],[75.23735,32.46977],[75.22371,32.44782],[75.2219,32.43238],[75.21052,32.41461],[75.2014,32.40948],[75.20136,32.411],[75.19945,32.41437],[75.19917,32.41527],[75.19512,32.41638],[75.1897,32.41995],[75.18167,32.42009],[75.17419,32.41794],[75.16964,32.41836],[75.16857,32.41902],[75.16723,32.419],[75.16485,32.41671],[75.16459,32.41604],[75.16274,32.41463],[75.16192,32.41463],[75.15741,32.41276],[75.15232,32.41317],[75.15151,32.41293],[75.14728,32.41106],[75.14677,32.41038],[75.1465,32.40992],[75.14571,32.40991],[75.14385,32.40943],[75.14032,32.40578],[75.1388,32.40414],[75.13777,32.40367],[75.13618,32.40319],[75.13244,32.40271],[75.13104,32.40586],[75.13049,32.40608],[75.1287,32.41653],[75.12917,32.42085],[75.13449,32.42161],[75.1355,32.42287],[75.13704,32.42498],[75.13047,32.42858],[75.12847,32.42972],[75.12711,32.43083],[75.12657,32.43082],[75.12328,32.43534],[75.12159,32.43963],[75.12201,32.44501],[75.12202,32.44555],[75.12121,32.44827],[75.11953,32.45141],[75.11842,32.45209],[75.11523,32.45314],[75.11303,32.45386],[75.11222,32.45521],[75.11165,32.45657],[75.11191,32.45701],[75.11104,32.46019],[75.11048,32.46265],[75.11015,32.46392],[75.10979,32.46928],[75.11005,32.47018],[75.10806,32.47316],[75.10602,32.47404],[75.10302,32.47366],[75.10189,32.47352],[75.09565,32.46661],[75.09511,32.46661],[75.09087,32.46462],[75.08982,32.46428],[75.08738,32.46492],[75.08683,32.46558],[75.08654,32.46604],[75.08548,32.46626],[75.08414,32.46671],[75.08005,32.47008],[75.07869,32.4712],[75.07653,32.47207],[75.07543,32.47252],[75.07517,32.47298],[75.07356,32.47363],[75.06894,32.47477],[75.06468,32.47578],[75.05771,32.47527],[75.05477,32.47592],[75.05397,32.47635],[75.05339,32.4775],[75.04874,32.48241],[75.04176,32.48415],[75.03985,32.48549],[75.0392,32.48559],[75.03604,32.48865],[75.0355,32.48978],[75.0333,32.49269],[75.03114,32.49289],[75.0306,32.49288],[75.02843,32.49168],[75.02794,32.49077],[75.02739,32.49077],[75.02193,32.48437],[75.0208,32.48244],[75.01979,32.47993],[75.01809,32.47433],[75.01786,32.47099],[75.01796,32.46751],[75.01824,32.46705],[75.01772,32.46568],[75.0117,32.45833],[75.00639,32.45418],[75.00456,32.45233],[75.00377,32.45207],[74.99871,32.45044],[74.99818,32.44976],[74.9966,32.44861],[74.9926,32.44833],[74.99179,32.44786],[74.99153,32.44739],[74.98351,32.44729],[74.97869,32.44723],[74.97545,32.44858],[74.9709,32.44873],[74.96981,32.44918],[74.96847,32.44962],[74.96256,32.44954],[74.96097,32.44907],[74.96018,32.4486],[74.95967,32.44723],[74.95553,32.44207],[74.95419,32.4408],[74.95044,32.44052],[74.94663,32.44341],[74.94297,32.45247],[74.93607,32.46264],[74.9347,32.46305],[74.92964,32.46322],[74.92379,32.46019],[74.91819,32.45968],[74.91687,32.45896],[74.9155,32.45918],[74.91443,32.46007],[74.91111,32.46548],[74.90976,32.46592],[74.9068,32.46589],[74.90626,32.46564],[74.90422,32.46176],[74.9029,32.46082],[74.89565,32.46142],[74.89292,32.46296],[74.89185,32.46363],[74.8913,32.46363],[74.8905,32.46408],[74.88722,32.46769],[74.88559,32.46879],[74.88236,32.46943],[74.87826,32.47209],[74.87717,32.47368],[74.87793,32.47621],[74.87895,32.47964],[74.87887,32.48118],[74.8765,32.48254],[74.87054,32.48063],[74.86389,32.48124],[74.8598,32.48414],[74.85605,32.48409],[74.85418,32.48361],[74.85076,32.48197],[74.84929,32.48195],[74.84727,32.48192],[74.83944,32.48568],[74.83752,32.48611],[74.83007,32.486],[74.83231,32.48977],[74.84484,32.494],[74.86662,32.51546],[74.89941,32.55571],[74.92393,32.57724],[74.94678,32.59563],[74.95786,32.61289],[74.96895,32.63015],[74.9758,32.6619],[74.99114,32.66467],[75.01083,32.67218],[75.03118,32.68586],[75.04588,32.70399],[75.05054,32.72336],[75.05596,32.72429],[75.06959,32.72469],[75.08494,32.72745],[75.09468,32.73389],[75.11279,32.73596],[75.13238,32.74653],[75.16094,32.77004],[75.16464,32.76203],[75.17689,32.7486],[75.1872,32.73007],[75.19952,32.71156],[75.21988,32.69143],[75.23611,32.67805],[75.25032,32.66633],[75.27255,32.653],[75.29273,32.64304],[75.3028,32.63975],[75.32893,32.63323],[75.34296,32.63337],[75.359,32.63183],[75.37184,32.6304],[75.37305,32.63027],[75.37122,32.61669],[75.34744,32.59781],[75.33564,32.58244],[75.3099,32.56185],[75.28012,32.54459],[75.24616,32.54085],[75.24603,32.54084],[75.24575,32.53259],[75.24745,32.52033],[75.24802,32.50598]]]}}]}