{"type":"FeatureCollection","features":[{"type":"Feature","properties":{"id":"shupiyan","name":"Shupiyan","stateId":"jammu-and-kashmir","stateName":"Jammu & Kashmir","censuscode":13,"type":"district"},"geometry":{"type":"Polygon","coordinates":[[[75.02174,33.79264],[75.01706,33.78774],[75.02636,33.76076],[74.99417,33.71211],[74.97474,33.7088],[74.93134,33.69387],[74.88169,33.67329],[74.87273,33.65834],[74.86312,33.64254],[74.86316,33.64253],[74.85258,33.62401],[74.77863,33.62537],[74.76705,33.64137],[74.75708,33.67015],[74.74878,33.67541],[74.7384,33.67381],[74.72023,33.67015],[74.70002,33.66646],[74.66961,33.666],[74.64727,33.66735],[74.63101,33.66879],[74.60454,33.67347],[74.57795,33.68322],[74.55542,33.69218],[74.5634,33.69825],[74.58333,33.71383],[74.6073,33.73117],[74.6395,33.74354],[74.66355,33.75748],[74.69577,33.76984],[74.72195,33.7804],[74.74806,33.79435],[74.77632,33.80324],[74.78032,33.80402],[74.80046,33.77712],[74.84423,33.78391],[74.88465,33.83011],[74.97754,33.83426],[75.02174,33.79264]]]}}]}