{"type":"FeatureCollection","features":[{"type":"Feature","properties":{"id":"banas-kantha","name":"Banas Kantha","stateId":"gujarat","stateName":"Gujarat","censuscode":469,"type":"district"},"geometry":{"type":"Polygon","coordinates":[[[72.26847,24.62413],[72.26909,24.62423],[72.28802,24.61513],[72.29407,24.61812],[72.30059,24.61687],[72.30372,24.61386],[72.30948,24.61075],[72.31818,24.61078],[72.32547,24.61371],[72.33471,24.6248],[72.34253,24.6231],[72.34834,24.61987],[72.34763,24.61801],[72.34464,24.61644],[72.3435,24.61377],[72.34365,24.60408],[72.33996,24.60123],[72.33667,24.59531],[72.32039,24.58869],[72.31223,24.58681],[72.30838,24.58726],[72.30328,24.59275],[72.29894,24.59917],[72.29467,24.60206],[72.28737,24.59901],[72.27355,24.60197],[72.27098,24.60115],[72.24516,24.5822],[72.26583,24.55213],[72.27931,24.55937],[72.28428,24.5602],[72.28593,24.5572],[72.28614,24.55238],[72.28814,24.54682],[72.28759,24.5419],[72.28932,24.54034],[72.29605,24.54245],[72.32674,24.54424],[72.33136,24.54594],[72.32798,24.55764],[72.32925,24.56048],[72.33495,24.55929],[72.33767,24.55674],[72.34299,24.55525],[72.35236,24.55424],[72.356,24.54503],[72.35987,24.54104],[72.36301,24.53822],[72.36836,24.53904],[72.36863,24.53522],[72.36967,24.53331],[72.36928,24.53162],[72.36529,24.53045],[72.38072,24.50214],[72.38493,24.50047],[72.39214,24.50188],[72.41563,24.50961],[72.42053,24.50986],[72.43056,24.50686],[72.43706,24.50573],[72.44018,24.50109],[72.44273,24.49478],[72.44012,24.48921],[72.43314,24.48055],[72.43114,24.46199],[72.44064,24.44972],[72.45071,24.43955],[72.45209,24.43427],[72.45574,24.42825],[72.45822,24.42234],[72.45912,24.4085],[72.48194,24.40674],[72.49554,24.40863],[72.50227,24.4112],[72.50459,24.41961],[72.49903,24.43218],[72.49521,24.4516],[72.5064,24.44866],[72.50858,24.46583],[72.51351,24.47425],[72.53701,24.50608],[72.53946,24.50806],[72.54261,24.50678],[72.54671,24.50152],[72.55404,24.49579],[72.56917,24.48926],[72.57731,24.47855],[72.58345,24.47358],[72.59912,24.47014],[72.6344,24.4624],[72.65376,24.45732],[72.66958,24.45781],[72.6798,24.46002],[72.68825,24.46096],[72.69249,24.458],[72.69275,24.45342],[72.68783,24.44223],[72.68861,24.42007],[72.70177,24.39208],[72.71262,24.37626],[72.72768,24.36194],[72.73445,24.3595],[72.74389,24.35816],[72.7681,24.36132],[72.78857,24.36068],[72.81073,24.35867],[72.82469,24.36542],[72.83451,24.36519],[72.84919,24.36638],[72.86366,24.36615],[72.87987,24.36116],[72.89618,24.35172],[72.90565,24.34074],[72.91119,24.33303],[72.91671,24.32745],[72.91955,24.32652],[72.92469,24.33285],[72.92945,24.33637],[72.94173,24.33943],[72.95757,24.34889],[72.96119,24.35123],[72.96436,24.34507],[72.96444,24.32469],[72.96543,24.30772],[72.9686,24.30322],[73.00155,24.29092],[73.01134,24.28416],[73.01571,24.28227],[73.02215,24.283],[73.02654,24.28472],[73.02907,24.28434],[73.02994,24.28064],[73.02806,24.26749],[73.02558,24.25789],[73.02179,24.25088],[73.01941,24.24398],[73.01796,24.23677],[73.01352,24.23113],[73.00967,24.22776],[73.0043,24.22575],[72.98042,24.16547],[72.96171,24.15013],[72.9562,24.14122],[72.95646,24.13455],[72.95346,24.13039],[72.94827,24.12767],[72.94662,24.11479],[72.94843,24.09764],[72.93746,24.08931],[72.93433,24.08429],[72.93303,24.07386],[72.93004,24.06133],[72.92521,24.05471],[72.91727,24.03712],[72.90798,24.02725],[72.90334,24.02219],[72.89988,24.02044],[72.89521,24.01929],[72.88487,24.0193],[72.87371,24.01881],[72.86668,24.01842],[72.86516,24.01627],[72.85113,24.03766],[72.83951,24.02955],[72.83119,24.03071],[72.82157,24.03526],[72.81653,24.04594],[72.79701,24.07326],[72.79211,24.08174],[72.79213,24.09346],[72.77637,24.09312],[72.77338,24.08201],[72.77115,24.08027],[72.76938,24.0729],[72.75973,24.06985],[72.74919,24.06806],[72.73821,24.06786],[72.74019,24.07436],[72.73895,24.07908],[72.73521,24.08424],[72.72851,24.08768],[72.71842,24.08877],[72.7154,24.08749],[72.71326,24.07997],[72.70666,24.07424],[72.68533,24.06673],[72.6689,24.0627],[72.65523,24.05409],[72.64977,24.06707],[72.64764,24.06906],[72.64088,24.0671],[72.63438,24.05032],[72.62283,24.04082],[72.63124,24.02872],[72.63597,24.03341],[72.63947,24.02656],[72.63735,24.01679],[72.63661,24.00727],[72.64667,24.00867],[72.64661,23.99809],[72.64502,23.98944],[72.641,23.98771],[72.6281,23.99065],[72.62074,23.98785],[72.61592,23.98458],[72.60466,23.98317],[72.59699,23.98033],[72.59153,23.97655],[72.58695,23.97171],[72.58584,23.96851],[72.58534,23.96008],[72.58631,23.95301],[72.58766,23.94939],[72.58417,23.94029],[72.57912,23.93455],[72.57225,23.93279],[72.56579,23.93228],[72.55556,23.93361],[72.54409,23.93661],[72.53342,23.93576],[72.52162,23.94014],[72.51675,23.93924],[72.5107,23.93427],[72.50207,23.93048],[72.49523,23.92952],[72.47832,23.9302],[72.47832,23.93021],[72.4778,23.93366],[72.47834,23.94693],[72.47703,23.95176],[72.47182,23.96023],[72.46586,23.96479],[72.45032,23.97025],[72.44445,23.96898],[72.44066,23.96527],[72.4361,23.96413],[72.43059,23.9744],[72.4271,23.97889],[72.42246,23.97757],[72.41403,23.97187],[72.40945,23.97037],[72.392,23.96879],[72.37387,23.96925],[72.36747,23.96712],[72.3658,23.97097],[72.36532,23.97978],[72.36349,23.9883],[72.35916,23.99829],[72.3583,24.00528],[72.35414,24.02502],[72.31675,24.02974],[72.30715,24.03268],[72.29886,24.04524],[72.29951,24.04663],[72.28257,24.04631],[72.27416,24.04791],[72.26629,24.05792],[72.25961,24.07244],[72.2465,24.06912],[72.23074,24.06533],[72.22263,24.0736],[72.22086,24.08052],[72.22061,24.09144],[72.21652,24.10416],[72.2216,24.11004],[72.22677,24.11442],[72.23373,24.1177],[72.23309,24.11932],[72.22911,24.12085],[72.22781,24.12429],[72.22686,24.12988],[72.20465,24.1407],[72.20894,24.12837],[72.20475,24.1248],[72.19664,24.12035],[72.19477,24.11605],[72.19527,24.11109],[72.19307,24.10653],[72.18702,24.10385],[72.18079,24.10583],[72.16651,24.1127],[72.16161,24.11352],[72.15935,24.11542],[72.1614,24.12294],[72.16081,24.13349],[72.15664,24.1379],[72.14673,24.14005],[72.13433,24.14143],[72.13026,24.14041],[72.12746,24.12643],[72.12298,24.1225],[72.11816,24.12103],[72.10106,24.12587],[72.10039,24.113],[72.10147,24.10944],[72.12576,24.11101],[72.13594,24.11301],[72.1457,24.11295],[72.15386,24.11438],[72.15962,24.1039],[72.15684,24.09231],[72.16338,24.0837],[72.16464,24.07948],[72.16437,24.07462],[72.15429,24.06393],[72.14805,24.06101],[72.14367,24.05652],[72.14038,24.05225],[72.13842,24.04389],[72.12555,24.04016],[72.11688,24.04147],[72.11191,24.04293],[72.10567,24.04672],[72.10221,24.04766],[72.09794,24.04781],[72.10081,24.0265],[72.10039,24.02124],[72.09392,24.02394],[72.08853,24.03001],[72.08311,24.03253],[72.0661,24.02063],[72.06205,24.02171],[72.04883,24.0343],[72.04231,24.03853],[72.03075,24.05506],[72.01505,24.04009],[72.0163,24.03646],[72.0191,24.03173],[72.01961,24.01851],[72.04716,23.99786],[72.04614,23.99594],[72.04039,23.98658],[72.036,23.9825],[72.02364,23.9803],[72.01887,23.98059],[72.01263,23.98626],[72.00286,23.97668],[72.0041,23.96963],[72.00108,23.96725],[71.9997,23.96778],[71.99619,23.97165],[71.99437,23.98542],[71.9912,23.98921],[71.98956,23.99314],[71.98433,23.99744],[71.97741,23.9974],[71.96337,23.99341],[71.95554,23.9965],[71.95271,24.0009],[71.95462,24.00657],[71.95239,24.00821],[71.9379,24.01043],[71.93072,24.01064],[71.92719,24.00952],[71.92605,24.00832],[71.92384,24.00086],[71.92767,23.97854],[71.93328,23.97645],[71.94541,23.97378],[71.94604,23.97194],[71.9446,23.96443],[71.93696,23.96037],[71.92918,23.95285],[71.92936,23.94893],[71.93343,23.94203],[71.93453,23.9371],[71.94111,23.92621],[71.9452,23.92186],[71.96584,23.91186],[71.96948,23.9091],[71.97282,23.90466],[71.97431,23.89968],[71.97232,23.89211],[71.96799,23.89054],[71.95725,23.89076],[71.9518,23.88952],[71.93579,23.88384],[71.92225,23.88521],[71.91612,23.88344],[71.90315,23.87803],[71.8974,23.87701],[71.88961,23.87958],[71.86787,23.87046],[71.86366,23.85864],[71.86127,23.85578],[71.85812,23.84893],[71.85225,23.84687],[71.84209,23.846],[71.82918,23.84647],[71.82208,23.84921],[71.81894,23.8522],[71.81228,23.85427],[71.80794,23.85465],[71.78432,23.84755],[71.77969,23.84568],[71.77638,23.84217],[71.77292,23.84147],[71.77033,23.83952],[71.76971,23.83468],[71.76714,23.8315],[71.76698,23.83129],[71.76454,23.83509],[71.76175,23.83894],[71.76082,23.84101],[71.75794,23.84215],[71.75327,23.84153],[71.7444,23.85157],[71.7422,23.8523],[71.73984,23.85309],[71.73251,23.85554],[71.73207,23.85584],[71.73126,23.8564],[71.72071,23.86364],[71.71856,23.86512],[71.71555,23.86984],[71.71316,23.87737],[71.70907,23.88167],[71.71328,23.89044],[71.71412,23.89218],[71.71352,23.8999],[71.71509,23.90721],[71.71677,23.91502],[71.71732,23.92372],[71.71665,23.92626],[71.70228,23.92973],[71.69674,23.93469],[71.69253,23.9518],[71.69156,23.9607],[71.68791,23.96585],[71.67926,23.96935],[71.66904,23.97045],[71.66008,23.96775],[71.65357,23.9643],[71.65079,23.96283],[71.64125,23.95778],[71.64036,23.95607],[71.63382,23.95322],[71.62375,23.95211],[71.61733,23.94802],[71.61417,23.94504],[71.60786,23.94174],[71.60133,23.94341],[71.59576,23.95125],[71.5884,23.96162],[71.58576,23.96673],[71.59033,23.97519],[71.58752,23.9766],[71.58588,23.97647],[71.57374,23.97548],[71.57298,23.97569],[71.56986,23.97656],[71.56727,23.97918],[71.56494,23.97804],[71.54523,23.97547],[71.53793,23.9795],[71.52682,23.97907],[71.51175,23.97611],[71.50606,23.97405],[71.50138,23.97037],[71.49724,23.96931],[71.49499,23.96977],[71.49154,23.97047],[71.48846,23.97611],[71.48851,23.98547],[71.48892,23.98953],[71.48989,23.99252],[71.49243,24.01342],[71.48948,24.01695],[71.48635,24.01871],[71.48252,24.02357],[71.47915,24.02332],[71.47762,24.02321],[71.47315,24.02093],[71.46328,24.01069],[71.46081,23.99939],[71.45267,23.99036],[71.44332,23.98292],[71.4442,23.97872],[71.44789,23.97764],[71.44762,23.96803],[71.45148,23.96289],[71.44847,23.95829],[71.44687,23.94593],[71.44469,23.94102],[71.43787,23.93787],[71.4245,23.93361],[71.41811,23.92864],[71.41375,23.92627],[71.4088,23.92969],[71.40572,23.93385],[71.40432,23.94859],[71.40022,23.95595],[71.40022,23.95595],[71.39508,23.9625],[71.38998,23.96212],[71.38911,23.95561],[71.38684,23.95198],[71.37332,23.95297],[71.37126,23.95682],[71.37007,23.96109],[71.36646,23.96246],[71.3646,23.96632],[71.36075,23.96684],[71.34361,23.96643],[71.34298,23.96654],[71.33294,23.96831],[71.32773,23.97558],[71.31903,23.981],[71.31612,23.98165],[71.31269,23.98659],[71.31021,23.98773],[71.29841,23.98679],[71.29176,23.98796],[71.28782,23.99053],[71.28658,23.99842],[71.28618,23.99842],[71.2971,24.01296],[71.30618,24.02633],[71.31161,24.03197],[71.31627,24.03917],[71.32278,24.04575],[71.32769,24.04943],[71.32826,24.05194],[71.32542,24.05474],[71.32076,24.05553],[71.31761,24.05815],[71.31642,24.06095],[71.31643,24.06963],[71.31727,24.07249],[71.32475,24.08432],[71.32737,24.0908],[71.32723,24.09664],[71.32983,24.10231],[71.33399,24.10392],[71.33785,24.10675],[71.34277,24.10835],[71.34393,24.11048],[71.34339,24.1188],[71.33913,24.13031],[71.33657,24.13332],[71.33277,24.13223],[71.31885,24.12463],[71.31498,24.12677],[71.31782,24.13088],[71.31787,24.13365],[71.315,24.13435],[71.30864,24.1332],[71.30241,24.13361],[71.29316,24.13733],[71.28875,24.13646],[71.28235,24.13283],[71.27878,24.13377],[71.27895,24.13757],[71.28187,24.14023],[71.28407,24.1474],[71.28562,24.14866],[71.28979,24.14947],[71.29003,24.15252],[71.27627,24.16179],[71.2828,24.17496],[71.28542,24.17496],[71.28716,24.17599],[71.2899,24.1757],[71.29296,24.17367],[71.29854,24.16794],[71.30221,24.16886],[71.30503,24.16655],[71.30791,24.16353],[71.31332,24.15538],[71.31814,24.15063],[71.32313,24.14826],[71.32696,24.15506],[71.33063,24.15558],[71.33661,24.15481],[71.33952,24.15799],[71.33302,24.1628],[71.33556,24.16469],[71.3419,24.1674],[71.35341,24.16801],[71.35632,24.17049],[71.35841,24.17499],[71.36115,24.1755],[71.36583,24.17399],[71.36793,24.17502],[71.37103,24.17877],[71.36987,24.1868],[71.37171,24.18987],[71.36941,24.19068],[71.36014,24.18938],[71.35634,24.19002],[71.35324,24.18882],[71.34869,24.18951],[71.34552,24.18843],[71.34095,24.1815],[71.33858,24.18249],[71.33593,24.18885],[71.33526,24.19862],[71.33307,24.20186],[71.32715,24.20153],[71.32434,24.20263],[71.32095,24.20871],[71.3124,24.22965],[71.30691,24.23297],[71.29912,24.23604],[71.30135,24.23853],[71.30365,24.2391],[71.30707,24.23973],[71.31337,24.2392],[71.31485,24.24162],[71.31098,24.2462],[71.28896,24.25711],[71.28963,24.26058],[71.29411,24.26057],[71.29898,24.25906],[71.30921,24.2543],[71.31213,24.25481],[71.31377,24.2724],[71.30951,24.28045],[71.3105,24.28571],[71.31005,24.29074],[71.30585,24.30383],[71.31239,24.30867],[71.31468,24.31301],[71.3201,24.31728],[71.32022,24.31919],[71.32184,24.32185],[71.32526,24.32051],[71.3323,24.32205],[71.34227,24.32226],[71.347,24.32549],[71.34837,24.32856],[71.35417,24.32768],[71.36431,24.32776],[71.36836,24.33077],[71.37459,24.33214],[71.3772,24.3319],[71.37932,24.33565],[71.38181,24.33675],[71.38443,24.33911],[71.39103,24.33927],[71.38835,24.34269],[71.38686,24.34698],[71.39016,24.34766],[71.39352,24.34673],[71.39508,24.34915],[71.39483,24.35164],[71.39134,24.35709],[71.3904,24.3648],[71.38237,24.39329],[71.37881,24.39099],[71.37638,24.39203],[71.37314,24.3918],[71.36972,24.39037],[71.36491,24.39177],[71.35625,24.38989],[71.3512,24.39331],[71.34752,24.3906],[71.34366,24.39159],[71.33842,24.39455],[71.33331,24.39382],[71.33038,24.39527],[71.32969,24.3981],[71.33018,24.40377],[71.33144,24.40591],[71.33175,24.4135],[71.34322,24.42238],[71.34385,24.42533],[71.3436,24.43309],[71.34796,24.4325],[71.35133,24.4329],[71.3504,24.43516],[71.33954,24.4397],[71.33517,24.44226],[71.33037,24.44227],[71.32869,24.44343],[71.33137,24.45188],[71.33599,24.45789],[71.33718,24.46136],[71.34104,24.46286],[71.34374,24.47234],[71.34685,24.47407],[71.34561,24.47963],[71.34044,24.48473],[71.34024,24.48601],[71.34624,24.4926],[71.34811,24.49531],[71.34899,24.49861],[71.3513,24.49942],[71.3518,24.50289],[71.35081,24.5128],[71.34932,24.51766],[71.31192,24.51878],[71.29413,24.51789],[71.27478,24.5126],[71.26778,24.50931],[71.26104,24.50868],[71.2596,24.51198],[71.25948,24.52142],[71.26079,24.53514],[71.26653,24.5455],[71.2706,24.54688],[71.29202,24.54725],[71.29271,24.54991],[71.29415,24.55118],[71.29714,24.55187],[71.30264,24.55169],[71.30738,24.55469],[71.31145,24.55867],[71.30983,24.56099],[71.30583,24.56268],[71.3102,24.56394],[71.31202,24.56603],[71.31433,24.57175],[71.31315,24.57767],[71.31446,24.58368],[71.31347,24.58796],[71.31047,24.59064],[71.30491,24.59285],[71.29854,24.59425],[71.29548,24.59628],[71.2889,24.61281],[71.29867,24.62501],[71.3013,24.62623],[71.30907,24.64103],[71.31295,24.64543],[71.31783,24.64802],[71.33416,24.65326],[71.34249,24.65823],[71.34818,24.65903],[71.35342,24.64656],[71.35847,24.63683],[71.35909,24.63219],[71.36415,24.63067],[71.36665,24.62795],[71.37221,24.62626],[71.37453,24.62655],[71.37984,24.62879],[71.38129,24.63307],[71.38604,24.63185],[71.39117,24.63178],[71.39437,24.63634],[71.39863,24.63945],[71.40457,24.64008],[71.41395,24.64284],[71.42065,24.64728],[71.4241,24.65086],[71.43707,24.65864],[71.44327,24.66349],[71.45072,24.66591],[71.45872,24.66536],[71.46611,24.66777],[71.48028,24.67838],[71.49554,24.67828],[71.50825,24.68079],[71.513,24.6799],[71.51481,24.67967],[71.51938,24.68156],[71.52909,24.68327],[71.53577,24.67792],[71.54358,24.67494],[71.56066,24.67778],[71.56943,24.68162],[71.57538,24.68073],[71.58192,24.67434],[71.58472,24.66975],[71.5901,24.668],[71.59717,24.66965],[71.60237,24.67264],[71.60895,24.67476],[71.6107,24.67244],[71.61319,24.67104],[71.61575,24.6683],[71.61949,24.66597],[71.62312,24.66659],[71.62655,24.66207],[71.63298,24.66007],[71.63735,24.65652],[71.64077,24.65037],[71.64363,24.64711],[71.64268,24.64388],[71.65397,24.63717],[71.66224,24.64043],[71.67851,24.64366],[71.70897,24.65807],[71.73005,24.6571],[71.7385,24.65792],[71.7511,24.66389],[71.77742,24.67238],[71.78386,24.67362],[71.79194,24.67399],[71.79756,24.67251],[71.80211,24.66936],[71.8059,24.6643],[71.80805,24.65809],[71.81033,24.64928],[71.8055,24.63594],[71.80441,24.62934],[71.80463,24.62522],[71.80843,24.62173],[71.8143,24.61996],[71.83156,24.6197],[71.83955,24.61815],[71.84851,24.60935],[71.85137,24.60742],[71.85396,24.61731],[71.85773,24.62279],[71.86174,24.62671],[71.86091,24.63325],[71.85566,24.65274],[71.85588,24.65801],[71.85811,24.66617],[71.86428,24.67546],[71.86967,24.67838],[71.87455,24.67889],[71.8842,24.67327],[71.88704,24.66892],[71.89745,24.67218],[71.9054,24.67272],[71.91341,24.67043],[71.91927,24.66514],[71.9193,24.66177],[71.91738,24.65755],[71.91467,24.6553],[71.91052,24.65398],[71.91205,24.64928],[71.92128,24.63685],[71.92778,24.62986],[71.9328,24.6306],[71.9375,24.62977],[71.94077,24.63057],[71.94415,24.63555],[71.95558,24.64139],[71.96082,24.64087],[71.97261,24.64984],[71.97632,24.65374],[71.98428,24.65425],[71.98678,24.65598],[71.98693,24.65956],[71.98343,24.66991],[71.98766,24.68041],[71.99471,24.68581],[72.00094,24.6888],[72.02536,24.69456],[72.03465,24.69819],[72.04631,24.70848],[72.07347,24.70295],[72.07916,24.69959],[72.08619,24.67731],[72.07625,24.67105],[72.07931,24.66129],[72.07869,24.65531],[72.08473,24.65123],[72.09568,24.64585],[72.11041,24.63583],[72.11488,24.63441],[72.11918,24.63408],[72.12866,24.63621],[72.13989,24.63725],[72.14469,24.63646],[72.14755,24.63346],[72.15497,24.62178],[72.15564,24.61813],[72.15937,24.61681],[72.16959,24.61499],[72.17992,24.61168],[72.19553,24.61836],[72.20106,24.61426],[72.20473,24.61474],[72.2024,24.61943],[72.20508,24.62118],[72.21051,24.62237],[72.22418,24.635],[72.22784,24.63293],[72.23626,24.62542],[72.24316,24.62284],[72.24847,24.62344],[72.25488,24.62277],[72.26847,24.62413]]]}}]}