{"type":"FeatureCollection","features":[{"type":"Feature","properties":{"id":"navsari","name":"Navsari","stateId":"gujarat","stateName":"Gujarat","censuscode":490,"type":"district"},"geometry":{"type":"Polygon","coordinates":[[[72.8098,21.06434],[72.81256,21.05851],[72.81612,21.05348],[72.82731,21.05774],[72.83074,21.05456],[72.83147,21.05309],[72.83239,21.0526],[72.83724,21.05013],[72.84489,21.04796],[72.84459,21.04454],[72.84074,21.04251],[72.83701,21.04214],[72.83591,21.03808],[72.83971,21.03577],[72.84455,21.03562],[72.84975,21.03587],[72.85585,21.04058],[72.85916,21.03776],[72.86108,21.03814],[72.86243,21.03993],[72.86357,21.04308],[72.86528,21.04616],[72.8693,21.05171],[72.87139,21.05417],[72.87322,21.05556],[72.87353,21.0556],[72.87618,21.05594],[72.88156,21.0556],[72.88707,21.04843],[72.88927,21.04918],[72.89164,21.05897],[72.89359,21.06162],[72.89611,21.05739],[72.89666,21.05392],[72.89912,21.04992],[72.90267,21.04662],[72.90763,21.04352],[72.91885,21.04253],[72.92638,21.04293],[72.92878,21.04642],[72.92504,21.05146],[72.93449,21.05339],[72.93836,21.05523],[72.94352,21.05818],[72.95075,21.06442],[72.96198,21.06384],[72.96441,21.06969],[72.96751,21.06958],[72.96977,21.0649],[72.9668,21.0612],[72.9651,21.05668],[72.971,21.05726],[72.97585,21.0603],[72.98083,21.05987],[72.99618,21.05425],[72.99746,21.05674],[72.99388,21.06352],[72.99303,21.06982],[72.99728,21.06851],[72.99979,21.06668],[73.00956,21.06684],[73.01809,21.05846],[73.01832,21.05182],[73.01427,21.04339],[73.01401,21.03376],[73.00635,21.02987],[73.00718,21.02243],[73.01312,21.01766],[73.0169,21.01718],[73.0201,21.01917],[73.02305,21.01826],[73.02475,21.01563],[73.0289,21.00766],[73.03629,21.00203],[73.04287,21.00543],[73.0463,21.00015],[73.05136,20.99317],[73.05703,20.98999],[73.05918,20.9857],[73.06146,20.98107],[73.07205,20.97131],[73.08539,20.96683],[73.09177,20.94806],[73.09183,20.94151],[73.09396,20.93633],[73.1004,20.9295],[73.10818,20.926],[73.12116,20.9228],[73.12661,20.9205],[73.12557,20.89707],[73.13578,20.89851],[73.14156,20.90137],[73.14504,20.90177],[73.15253,20.90113],[73.15807,20.89958],[73.16472,20.90071],[73.16747,20.89985],[73.17053,20.89795],[73.17242,20.89463],[73.18529,20.88416],[73.19102,20.87083],[73.19762,20.86543],[73.19688,20.86307],[73.19798,20.86003],[73.20188,20.85882],[73.20886,20.86048],[73.22255,20.85422],[73.24949,20.8484],[73.24745,20.83333],[73.2491,20.82726],[73.2491,20.8234],[73.25496,20.82289],[73.25758,20.81743],[73.26822,20.81897],[73.27207,20.8188],[73.27622,20.81787],[73.27927,20.81506],[73.28826,20.8189],[73.29095,20.81488],[73.29632,20.81453],[73.30268,20.81682],[73.30464,20.81912],[73.30275,20.82113],[73.30313,20.8259],[73.30686,20.83101],[73.30542,20.839],[73.31025,20.8402],[73.31167,20.84313],[73.31125,20.84704],[73.30502,20.84963],[73.30558,20.85395],[73.30493,20.85883],[73.30879,20.87234],[73.30948,20.87798],[73.31163,20.88154],[73.31524,20.88318],[73.31529,20.8832],[73.3178,20.88171],[73.32,20.87886],[73.32073,20.87791],[73.32371,20.87372],[73.32523,20.86968],[73.33248,20.86697],[73.33271,20.86289],[73.33512,20.85754],[73.34063,20.86092],[73.34459,20.86195],[73.34849,20.85729],[73.35183,20.84959],[73.35487,20.84584],[73.36787,20.83939],[73.37001,20.83726],[73.37128,20.8318],[73.37659,20.83019],[73.38173,20.82737],[73.38477,20.82455],[73.39052,20.825],[73.39517,20.8282],[73.42106,20.81875],[73.42827,20.81725],[73.43296,20.81529],[73.45472,20.81278],[73.46297,20.81581],[73.46878,20.81557],[73.47526,20.81722],[73.48412,20.81635],[73.48827,20.81433],[73.49916,20.81819],[73.49615,20.80941],[73.49234,20.80258],[73.48646,20.79736],[73.48844,20.78213],[73.49025,20.77685],[73.49301,20.75984],[73.49179,20.75697],[73.48958,20.75455],[73.48315,20.74974],[73.47514,20.7478],[73.4686,20.74454],[73.46677,20.74052],[73.46765,20.72691],[73.46714,20.72127],[73.45057,20.71395],[73.44555,20.71011],[73.43912,20.70076],[73.44838,20.69304],[73.44635,20.68569],[73.44469,20.68265],[73.44188,20.68041],[73.43534,20.67766],[73.43503,20.67404],[73.43165,20.66451],[73.42725,20.66205],[73.42206,20.66056],[73.41082,20.66017],[73.40917,20.65759],[73.4066,20.65576],[73.40147,20.65473],[73.39524,20.65209],[73.39316,20.64894],[73.3943,20.64233],[73.40296,20.63829],[73.40631,20.63542],[73.4096,20.63019],[73.40672,20.62777],[73.40756,20.6259],[73.40755,20.62589],[73.3939,20.61719],[73.3846,20.61346],[73.38041,20.61696],[73.37581,20.6151],[73.37135,20.61435],[73.36798,20.61724],[73.35888,20.61343],[73.35306,20.60654],[73.34321,20.6061],[73.33808,20.60495],[73.33301,20.60086],[73.32836,20.60185],[73.32575,20.59943],[73.3226,20.60178],[73.31739,20.60228],[73.31493,20.59867],[73.31198,20.599],[73.31102,20.59675],[73.31339,20.59437],[73.30951,20.59171],[73.30026,20.59093],[73.29714,20.59465],[73.28932,20.59081],[73.27889,20.58426],[73.2705,20.58195],[73.26028,20.58121],[73.25396,20.58811],[73.24843,20.58731],[73.24864,20.59091],[73.24596,20.59355],[73.22606,20.59642],[73.22586,20.60231],[73.21562,20.60359],[73.20553,20.59245],[73.20073,20.59076],[73.18305,20.59226],[73.17073,20.59772],[73.15565,20.60592],[73.15071,20.6068],[73.14184,20.60069],[73.13661,20.59971],[73.12524,20.6002],[73.11054,20.60459],[73.10509,20.60406],[73.102,20.59766],[73.08309,20.6001],[73.0744,20.59997],[73.07236,20.60347],[73.06883,20.60552],[73.07298,20.61961],[73.06943,20.62212],[73.06654,20.63045],[73.06737,20.63528],[73.07216,20.64278],[73.07503,20.65157],[73.06789,20.65704],[73.06327,20.65756],[73.05688,20.66187],[73.04835,20.66027],[73.04389,20.66145],[73.03548,20.66695],[73.02868,20.6752],[73.03709,20.68277],[73.04033,20.68071],[73.04333,20.68315],[73.04678,20.69777],[73.04664,20.70228],[73.03643,20.70281],[73.03087,20.70615],[73.02891,20.70992],[73.01863,20.71561],[73.01717,20.71914],[73.01346,20.72256],[73.00335,20.72319],[73.00008,20.72764],[72.9955,20.72908],[72.98877,20.7342],[72.97919,20.7394],[72.97314,20.74268],[72.96825,20.74263],[72.9655,20.74103],[72.96353,20.72455],[72.96227,20.72062],[72.9551,20.71927],[72.94505,20.72248],[72.94135,20.7259],[72.93454,20.7322],[72.9309,20.73433],[72.89833,20.73565],[72.89703,20.7343],[72.88308,20.72802],[72.8787,20.72937],[72.87631,20.72825],[72.86868,20.72088],[72.85805,20.72378],[72.85641,20.72518],[72.85238,20.73447],[72.84952,20.73314],[72.84502,20.73106],[72.84372,20.73674],[72.83563,20.74943],[72.83591,20.7567],[72.83757,20.76073],[72.83499,20.76841],[72.82613,20.7801],[72.82437,20.79237],[72.82051,20.80084],[72.81831,20.80309],[72.81741,20.81916],[72.81315,20.83406],[72.81231,20.83701],[72.80695,20.847],[72.8065,20.84888],[72.80577,20.84912],[72.80602,20.85048],[72.80549,20.85192],[72.80457,20.85468],[72.80338,20.85721],[72.80102,20.86162],[72.79955,20.86435],[72.79644,20.86866],[72.7933,20.87541],[72.79048,20.88145],[72.78859,20.88394],[72.78287,20.89979],[72.78318,20.91946],[72.78298,20.92599],[72.78296,20.92716],[72.78239,20.92964],[72.78312,20.93134],[72.78408,20.93202],[72.7884,20.93257],[72.79294,20.93332],[72.79831,20.93447],[72.80202,20.93562],[72.80202,20.93562],[72.80722,20.93862],[72.80739,20.93872],[72.80862,20.93964],[72.8136,20.94336],[72.81469,20.94404],[72.82104,20.94799],[72.82476,20.94992],[72.82805,20.94991],[72.83011,20.94835],[72.83422,20.94601],[72.83786,20.94468],[72.83958,20.94405],[72.83958,20.94405],[72.84123,20.94405],[72.84371,20.94442],[72.84536,20.94558],[72.84577,20.94752],[72.84577,20.94752],[72.84496,20.94908],[72.8425,20.95064],[72.83632,20.95377],[72.8289,20.95573],[72.82551,20.95574],[72.82189,20.95576],[72.81859,20.95577],[72.81406,20.9554],[72.81026,20.95436],[72.80704,20.95348],[72.7996,20.94962],[72.79133,20.94576],[72.7872,20.94344],[72.78349,20.94123],[72.78098,20.93973],[72.77949,20.93898],[72.77418,20.93597],[72.77291,20.93356],[72.77291,20.93356],[72.77373,20.93196],[72.77471,20.93125],[72.77471,20.93125],[72.77445,20.92847],[72.77407,20.92528],[72.7737,20.92222],[72.7731,20.91972],[72.77092,20.91768],[72.76878,20.91769],[72.76824,20.91795],[72.76499,20.91961],[72.76499,20.91961],[72.7648,20.91974],[72.76375,20.92051],[72.75739,20.92893],[72.7561,20.93064],[72.74979,20.94482],[72.74682,20.95016],[72.74523,20.95466],[72.74436,20.95716],[72.74069,20.9661],[72.73843,20.97178],[72.73746,20.97399],[72.73541,20.9902],[72.73478,20.99516],[72.73478,20.99516],[72.73422,20.99616],[72.72844,21.00648],[72.72736,21.01152],[72.72473,21.02397],[72.72286,21.03288],[72.72267,21.03382],[72.72202,21.03998],[72.72196,21.04789],[72.72262,21.04862],[72.72619,21.05261],[72.72842,21.05265],[72.73023,21.05241],[72.73311,21.05203],[72.73871,21.05137],[72.74222,21.05095],[72.75494,21.05038],[72.75494,21.05038],[72.75508,21.05186],[72.75236,21.05463],[72.74906,21.05799],[72.74618,21.06004],[72.74533,21.06037],[72.74474,21.06052],[72.73762,21.06253],[72.73648,21.06303],[72.72866,21.0662],[72.7159,21.06505],[72.71207,21.06464],[72.70673,21.063],[72.69976,21.06084],[72.6977,21.06142],[72.6977,21.06142],[72.70886,21.06785],[72.71497,21.0693],[72.73118,21.0687],[72.74102,21.06652],[72.75782,21.06121],[72.77557,21.06267],[72.78363,21.06581],[72.79723,21.07425],[72.80029,21.07484],[72.8098,21.06434]]]}}]}