{"type":"FeatureCollection","features":[{"type":"Feature","properties":{"id":"panch-mahals","name":"Panch Mahals","stateId":"gujarat","stateName":"Gujarat","censuscode":484,"type":"district"},"geometry":{"type":"Polygon","coordinates":[[[73.70597,23.44308],[73.70992,23.43226],[73.71358,23.41741],[73.71667,23.4134],[73.72252,23.41122],[73.72359,23.41347],[73.7252,23.41684],[73.7304,23.42344],[73.74784,23.44097],[73.75311,23.44808],[73.75719,23.45531],[73.76128,23.45706],[73.76758,23.45106],[73.77051,23.44435],[73.77442,23.4408],[73.77965,23.43308],[73.79078,23.43401],[73.8236,23.44524],[73.82885,23.44513],[73.83353,23.43851],[73.83317,23.42907],[73.85418,23.40314],[73.86352,23.39411],[73.87381,23.37666],[73.87619,23.36643],[73.88795,23.35691],[73.89169,23.35089],[73.891,23.33544],[73.89798,23.33421],[73.91079,23.33425],[73.92468,23.33614],[73.93578,23.33966],[73.93952,23.34417],[73.94074,23.35183],[73.94064,23.36457],[73.94424,23.37174],[73.9539,23.37585],[73.95946,23.37959],[73.96805,23.37532],[73.97592,23.36601],[73.98051,23.35801],[73.9815,23.34762],[73.98396,23.3394],[73.98778,23.33579],[74.00087,23.33434],[74.01196,23.33247],[74.01162,23.33148],[74.00299,23.31369],[74.00087,23.30852],[74.00225,23.29548],[73.99938,23.28955],[73.99811,23.28296],[74.0022,23.27948],[74.00411,23.27229],[74.00471,23.25922],[74.00409,23.25556],[73.99706,23.25456],[73.99422,23.2479],[73.99193,23.21218],[73.98814,23.20912],[73.97875,23.20803],[73.97482,23.20787],[73.97182,23.20484],[73.97536,23.19626],[73.99038,23.19467],[73.99215,23.19038],[73.99239,23.1853],[73.99194,23.17801],[73.99292,23.17368],[73.98197,23.17252],[73.98254,23.16018],[73.98591,23.15523],[73.99386,23.15336],[74.00017,23.15288],[74.00341,23.15083],[74.00288,23.12827],[74.00311,23.12319],[74.00233,23.12315],[73.99291,23.12278],[73.99059,23.12196],[73.99004,23.11685],[73.99171,23.11474],[73.99498,23.11196],[74.00293,23.11009],[74.00924,23.10961],[74.0133,23.10686],[74.0135,23.10251],[74.01523,23.09894],[74.01847,23.09689],[74.02319,23.09334],[74.01564,23.08806],[74.00054,23.08031],[73.989,23.07981],[73.96436,23.09404],[73.95553,23.1021],[73.95208,23.0995],[73.94853,23.09938],[73.93648,23.09901],[73.92609,23.09204],[73.91928,23.08434],[73.91607,23.07508],[73.92023,23.05855],[73.91416,23.05004],[73.9072,23.04579],[73.90871,23.04366],[73.91013,23.03888],[73.91073,23.03325],[73.91025,23.01938],[73.91583,23.01288],[73.91039,23.00787],[73.90577,23.00003],[73.90538,22.99356],[73.90396,22.98982],[73.90717,22.98285],[73.9093,22.9826],[73.91919,22.9814],[73.93058,22.97826],[73.92444,22.96907],[73.91105,22.96586],[73.90553,22.95775],[73.89908,22.95368],[73.89467,22.95018],[73.88968,22.94823],[73.89074,22.94265],[73.90737,22.93401],[73.90442,22.93113],[73.90511,22.92479],[73.8982,22.91502],[73.89652,22.91345],[73.8886,22.90605],[73.88429,22.90202],[73.87618,22.87552],[73.87231,22.87112],[73.875,22.86893],[73.88155,22.86707],[73.8779,22.85798],[73.87333,22.85135],[73.8718,22.84585],[73.86826,22.84082],[73.86503,22.83968],[73.85689,22.84156],[73.85049,22.84434],[73.84261,22.84485],[73.84036,22.84412],[73.84007,22.83934],[73.83964,22.83201],[73.84016,22.823],[73.84165,22.82103],[73.84592,22.8189],[73.84902,22.81442],[73.8493,22.81092],[73.84977,22.80509],[73.85076,22.79832],[73.85183,22.79278],[73.85172,22.78872],[73.85073,22.78833],[73.85169,22.78259],[73.84946,22.77917],[73.84592,22.77829],[73.84028,22.77954],[73.83231,22.77958],[73.82878,22.77833],[73.82629,22.77567],[73.824,22.77091],[73.82405,22.76974],[73.82302,22.76503],[73.8258,22.7593],[73.83236,22.75373],[73.83766,22.74811],[73.84799,22.74269],[73.85089,22.73463],[73.8463,22.7251],[73.84133,22.72373],[73.83527,22.71882],[73.83331,22.70706],[73.83244,22.69885],[73.83157,22.69064],[73.82802,22.68583],[73.8219,22.68207],[73.81175,22.684],[73.80203,22.67659],[73.80242,22.66844],[73.8064,22.66393],[73.81318,22.65369],[73.82214,22.65056],[73.82765,22.64027],[73.82804,22.63211],[73.82073,22.62714],[73.81724,22.62116],[73.80747,22.61493],[73.7989,22.60991],[73.80032,22.60646],[73.80808,22.60211],[73.8155,22.60475],[73.82821,22.60176],[73.84241,22.59416],[73.85016,22.58981],[73.85321,22.57825],[73.85856,22.57147],[73.86151,22.56224],[73.85802,22.55626],[73.85305,22.55489],[73.84302,22.55449],[73.83052,22.55281],[73.8141,22.55448],[73.81045,22.55199],[73.81122,22.54704],[73.80475,22.54871],[73.79468,22.54594],[73.7912,22.54708],[73.78453,22.5453],[73.78018,22.54617],[73.76892,22.54537],[73.7583,22.54614],[73.74807,22.53701],[73.74214,22.53487],[73.73228,22.51504],[73.73315,22.49683],[73.73206,22.48683],[73.72724,22.47043],[73.72661,22.46107],[73.72928,22.45439],[73.72929,22.45435],[73.73426,22.45413],[73.73685,22.45124],[73.73764,22.44722],[73.74216,22.4381],[73.7425,22.4324],[73.73874,22.4247],[73.73539,22.42312],[73.73309,22.42053],[73.73266,22.41705],[73.7329,22.41314],[73.73565,22.40869],[73.73965,22.39871],[73.73793,22.39105],[73.73822,22.38953],[73.75329,22.3847],[73.76247,22.38657],[73.77112,22.38623],[73.77098,22.38205],[73.76685,22.37355],[73.75904,22.36504],[73.75834,22.35627],[73.7541,22.34526],[73.75168,22.34396],[73.74859,22.34556],[73.74445,22.34387],[73.73387,22.33829],[73.72945,22.3348],[73.7281,22.32336],[73.7248,22.31258],[73.72632,22.30826],[73.73175,22.30378],[73.7314,22.30064],[73.72964,22.29828],[73.72936,22.29584],[73.73118,22.29094],[73.73085,22.28995],[73.72949,22.2895],[73.72847,22.29033],[73.72662,22.28977],[73.72611,22.28861],[73.72315,22.2876],[73.71685,22.29186],[73.71546,22.30083],[73.71216,22.30168],[73.70334,22.29847],[73.70049,22.29646],[73.69932,22.28531],[73.69213,22.284],[73.66229,22.28486],[73.65611,22.28591],[73.65518,22.28918],[73.64754,22.2988],[73.6386,22.29902],[73.63451,22.30027],[73.63241,22.31094],[73.63714,22.31106],[73.63937,22.31232],[73.64843,22.3121],[73.65253,22.32328],[73.65223,22.32712],[73.65395,22.331],[73.65885,22.33467],[73.66585,22.33523],[73.67554,22.3346],[73.6785,22.33573],[73.69526,22.33647],[73.69151,22.34006],[73.69178,22.3415],[73.7044,22.348],[73.70437,22.3573],[73.69786,22.36103],[73.68331,22.37155],[73.67529,22.37257],[73.64388,22.38437],[73.64104,22.38359],[73.63829,22.38374],[73.63543,22.38528],[73.63127,22.38631],[73.63164,22.38241],[73.6335,22.37989],[73.63478,22.3754],[73.629,22.37145],[73.61869,22.35917],[73.61846,22.35645],[73.6197,22.35346],[73.61982,22.3487],[73.61855,22.3465],[73.61355,22.34371],[73.61409,22.33556],[73.6204,22.33473],[73.62574,22.33509],[73.62833,22.33267],[73.63073,22.33294],[73.632,22.33153],[73.62963,22.32899],[73.63057,22.32265],[73.62225,22.32349],[73.61517,22.32253],[73.602,22.32307],[73.59542,22.32238],[73.58754,22.32421],[73.57596,22.32456],[73.56587,22.3267],[73.56534,22.33264],[73.55565,22.33275],[73.55391,22.3391],[73.55027,22.34152],[73.52955,22.34261],[73.52103,22.33891],[73.51238,22.3465],[73.50509,22.34751],[73.49169,22.34567],[73.4855,22.34584],[73.47817,22.35242],[73.46604,22.35749],[73.4689,22.36897],[73.47262,22.37207],[73.47359,22.37491],[73.47264,22.37754],[73.46081,22.378],[73.45071,22.39223],[73.44621,22.39117],[73.4454,22.39455],[73.4401,22.39751],[73.44672,22.41035],[73.44474,22.42171],[73.43434,22.41995],[73.43121,22.42341],[73.42259,22.42652],[73.4212,22.44548],[73.42631,22.44661],[73.42726,22.45287],[73.43112,22.45639],[73.42994,22.4732],[73.42816,22.48183],[73.42623,22.48435],[73.42388,22.49163],[73.41831,22.49354],[73.41716,22.49855],[73.41413,22.50144],[73.40785,22.50114],[73.40691,22.50365],[73.40725,22.5058],[73.41043,22.5095],[73.41415,22.51597],[73.4118,22.51984],[73.41966,22.53296],[73.42055,22.5475],[73.41308,22.54989],[73.38851,22.54994],[73.38505,22.55259],[73.37778,22.55214],[73.37343,22.5531],[73.37513,22.5596],[73.38276,22.57495],[73.38337,22.57861],[73.37947,22.58114],[73.38067,22.59241],[73.38402,22.60802],[73.38956,22.60897],[73.38939,22.61362],[73.38625,22.62243],[73.37371,22.62301],[73.3655,22.62448],[73.36511,22.62745],[73.36611,22.62889],[73.36697,22.63726],[73.37067,22.63885],[73.3697,22.64421],[73.372,22.64576],[73.38247,22.64718],[73.38522,22.64576],[73.38927,22.64055],[73.39673,22.64205],[73.39888,22.64686],[73.39925,22.65058],[73.40241,22.65316],[73.40572,22.65162],[73.40794,22.65253],[73.41482,22.65648],[73.41603,22.65908],[73.41473,22.66764],[73.41563,22.67014],[73.41394,22.67225],[73.40939,22.67258],[73.40463,22.68438],[73.39968,22.6857],[73.39269,22.68379],[73.39162,22.6863],[73.39114,22.69521],[73.38993,22.69766],[73.38748,22.69785],[73.38495,22.71527],[73.38842,22.72582],[73.38643,22.73834],[73.41246,22.75526],[73.42727,22.75827],[73.42651,22.76136],[73.42706,22.77392],[73.42474,22.77911],[73.42201,22.78246],[73.41402,22.78271],[73.40598,22.78988],[73.40597,22.79349],[73.40855,22.80167],[73.40898,22.80591],[73.40736,22.80901],[73.3984,22.80624],[73.38645,22.80675],[73.38504,22.79798],[73.38389,22.79532],[73.3791,22.7953],[73.37859,22.79415],[73.38098,22.78459],[73.38029,22.75667],[73.36929,22.76271],[73.36222,22.76783],[73.36272,22.77289],[73.35923,22.78327],[73.35577,22.78679],[73.35119,22.78927],[73.35769,22.79177],[73.36272,22.79527],[73.36333,22.79934],[73.36294,22.80714],[73.37284,22.81956],[73.37419,22.82338],[73.37362,22.83183],[73.38196,22.84257],[73.3872,22.85136],[73.38761,22.85421],[73.38577,22.86365],[73.38126,22.87201],[73.36857,22.88597],[73.36955,22.89463],[73.37203,22.89938],[73.37976,22.90652],[73.38663,22.91356],[73.41968,22.93618],[73.42747,22.94268],[73.44877,22.96194],[73.45186,22.96825],[73.45133,22.97244],[73.44774,22.98097],[73.44053,22.98925],[73.43676,23.00068],[73.4357,23.01386],[73.43585,23.02765],[73.41485,23.02912],[73.41657,23.03343],[73.41897,23.0457],[73.42632,23.05338],[73.41867,23.06259],[73.41644,23.07212],[73.417,23.08024],[73.42231,23.09024],[73.42444,23.09909],[73.42112,23.10483],[73.41328,23.1062],[73.40391,23.10303],[73.39653,23.10141],[73.38894,23.10296],[73.37526,23.10829],[73.37564,23.11619],[73.38344,23.13286],[73.39135,23.14018],[73.401,23.14508],[73.41219,23.14864],[73.42233,23.15324],[73.43021,23.15572],[73.43362,23.15334],[73.43518,23.14669],[73.43691,23.14398],[73.4417,23.14279],[73.4449,23.14479],[73.44761,23.14771],[73.46024,23.15252],[73.48164,23.15277],[73.48843,23.1518],[73.49835,23.15237],[73.50283,23.15009],[73.50547,23.14632],[73.51116,23.14674],[73.51792,23.15043],[73.52303,23.15738],[73.52329,23.1651],[73.52073,23.16443],[73.52158,23.16897],[73.52938,23.17606],[73.53159,23.18066],[73.53658,23.18632],[73.54436,23.1918],[73.55112,23.19279],[73.56777,23.19266],[73.57349,23.19712],[73.57609,23.20759],[73.57424,23.21152],[73.56741,23.20731],[73.55764,23.20387],[73.55347,23.21151],[73.54761,23.21852],[73.54417,23.22478],[73.55207,23.23688],[73.56357,23.23714],[73.5723,23.24336],[73.57672,23.24921],[73.57648,23.25642],[73.57202,23.27357],[73.56922,23.27515],[73.55314,23.27135],[73.54858,23.26418],[73.53572,23.24964],[73.52893,23.25118],[73.52537,23.25865],[73.52409,23.26817],[73.52823,23.27044],[73.531,23.27336],[73.52619,23.2855],[73.53224,23.29215],[73.54276,23.30891],[73.55546,23.31746],[73.55837,23.32164],[73.56023,23.32791],[73.56671,23.33997],[73.56612,23.34291],[73.56673,23.34718],[73.57145,23.35065],[73.58215,23.36089],[73.59519,23.37804],[73.59654,23.38234],[73.60575,23.38539],[73.61456,23.39033],[73.62102,23.39853],[73.63157,23.41718],[73.63382,23.42373],[73.6261,23.4332],[73.62547,23.43977],[73.62679,23.44599],[73.6289,23.4511],[73.63426,23.44904],[73.64941,23.43917],[73.65705,23.44592],[73.66497,23.45058],[73.67822,23.45571],[73.69031,23.45751],[73.70059,23.45437],[73.70597,23.44308]]]}}]}