{"type":"FeatureCollection","features":[{"type":"Feature","properties":{"id":"patan","name":"Patan","stateId":"gujarat","stateName":"Gujarat","censuscode":470,"type":"district"},"geometry":{"type":"Polygon","coordinates":[[[72.47024,23.89706],[72.47018,23.89705],[72.45851,23.90381],[72.45382,23.90492],[72.44892,23.90558],[72.44516,23.9074],[72.43958,23.91138],[72.43177,23.91166],[72.41713,23.90825],[72.40869,23.90291],[72.40222,23.89298],[72.39868,23.88698],[72.39387,23.88183],[72.38444,23.88091],[72.37565,23.88137],[72.36325,23.88142],[72.3554,23.88662],[72.35085,23.88952],[72.34244,23.89179],[72.33017,23.88961],[72.32046,23.88509],[72.31854,23.88052],[72.3183,23.87224],[72.31904,23.864],[72.31625,23.86184],[72.30606,23.86133],[72.2924,23.86089],[72.29059,23.84788],[72.29285,23.83991],[72.29735,23.83783],[72.30038,23.83405],[72.30336,23.82749],[72.31273,23.8192],[72.31571,23.8141],[72.31346,23.80637],[72.3007,23.79903],[72.29802,23.79483],[72.29658,23.78736],[72.29555,23.77185],[72.31147,23.76552],[72.32021,23.75737],[72.31921,23.74635],[72.31236,23.74713],[72.29516,23.74626],[72.28922,23.74395],[72.28728,23.73982],[72.28532,23.73592],[72.28469,23.73432],[72.28217,23.73174],[72.27961,23.72982],[72.27748,23.72479],[72.27843,23.709],[72.27168,23.69711],[72.26864,23.69438],[72.27052,23.68968],[72.27426,23.68729],[72.28062,23.68798],[72.28895,23.68914],[72.29342,23.68789],[72.30183,23.68095],[72.3085,23.66914],[72.30384,23.65558],[72.30248,23.6485],[72.3026,23.64175],[72.30043,23.63419],[72.28967,23.61767],[72.28357,23.61466],[72.26892,23.62258],[72.26122,23.6244],[72.25215,23.62909],[72.24608,23.63689],[72.24215,23.64258],[72.2357,23.64336],[72.23092,23.64311],[72.22713,23.63961],[72.2243,23.63357],[72.21973,23.62965],[72.20898,23.62911],[72.20309,23.63396],[72.19434,23.63978],[72.18719,23.63904],[72.17791,23.63378],[72.17145,23.62829],[72.16862,23.62225],[72.16288,23.61791],[72.15385,23.61524],[72.14123,23.61238],[72.13247,23.61193],[72.12384,23.60927],[72.11682,23.60633],[72.11315,23.60761],[72.10816,23.61067],[72.10254,23.61112],[72.09843,23.60649],[72.09721,23.60016],[72.09764,23.59319],[72.09771,23.58545],[72.0939,23.58231],[72.08556,23.58151],[72.07611,23.57918],[72.07078,23.57485],[72.0604,23.57468],[72.05856,23.57864],[72.05754,23.5889],[72.05649,23.59952],[72.05484,23.6068],[72.05194,23.60849],[72.05118,23.61435],[72.05078,23.62096],[72.04809,23.6256],[72.04521,23.62693],[72.03082,23.62691],[72.02522,23.62699],[72.02347,23.62948],[72.02041,23.63374],[72.00635,23.63484],[71.99607,23.62657],[71.98103,23.62097],[71.9796,23.61521],[71.98014,23.61196],[71.98119,23.6057],[71.97081,23.60359],[71.96436,23.60104],[71.95964,23.59636],[71.95687,23.59096],[71.94731,23.59027],[71.94131,23.58857],[71.94076,23.58458],[71.95787,23.57976],[71.96016,23.56051],[71.96844,23.53835],[71.96956,23.53149],[71.96957,23.53148],[71.96449,23.52917],[71.95148,23.5255],[71.94485,23.52003],[71.94202,23.50699],[71.93432,23.50346],[71.92997,23.49976],[71.92392,23.49822],[71.9141,23.49701],[71.91088,23.49805],[71.90585,23.49348],[71.90201,23.49421],[71.90156,23.49012],[71.89811,23.48925],[71.89271,23.49066],[71.88114,23.48585],[71.86357,23.47507],[71.85923,23.47005],[71.85522,23.46342],[71.85253,23.45526],[71.84901,23.43857],[71.84354,23.43078],[71.83523,23.42182],[71.82756,23.41645],[71.80646,23.40278],[71.79827,23.40028],[71.78546,23.40113],[71.77587,23.40268],[71.76824,23.40467],[71.763,23.40935],[71.7603,23.41804],[71.76077,23.42996],[71.76457,23.4379],[71.77064,23.4425],[71.7757,23.44823],[71.77825,23.45766],[71.77095,23.46793],[71.76777,23.47057],[71.75905,23.47087],[71.7451,23.47406],[71.7362,23.47367],[71.73011,23.4758],[71.7268,23.48351],[71.72854,23.48842],[71.7274,23.49513],[71.70665,23.48795],[71.69768,23.48842],[71.68732,23.49104],[71.67031,23.49106],[71.65821,23.49445],[71.64792,23.49609],[71.64403,23.49544],[71.63987,23.49599],[71.63464,23.49883],[71.628,23.50117],[71.61423,23.50361],[71.61052,23.50365],[71.60078,23.50127],[71.5948,23.50432],[71.5895,23.50312],[71.58393,23.49824],[71.5797,23.49603],[71.56501,23.49826],[71.55836,23.4956],[71.53258,23.48151],[71.51337,23.47537],[71.50861,23.4755],[71.50807,23.47895],[71.50995,23.48536],[71.51183,23.49703],[71.51628,23.50165],[71.51967,23.50736],[71.52025,23.5098],[71.52019,23.52331],[71.51789,23.52832],[71.5106,23.5234],[71.49663,23.50506],[71.49051,23.49998],[71.47936,23.49705],[71.45856,23.47644],[71.45304,23.47327],[71.44836,23.47214],[71.44595,23.48043],[71.44918,23.539],[71.46913,23.55499],[71.47008,23.55735],[71.47009,23.55738],[71.45615,23.56238],[71.43839,23.56627],[71.42188,23.5673],[71.42185,23.5673],[71.41951,23.57076],[71.41776,23.57614],[71.41868,23.58507],[71.4214,23.59405],[71.42125,23.59596],[71.42109,23.59799],[71.42109,23.598],[71.42573,23.60277],[71.42308,23.61439],[71.42295,23.61578],[71.42183,23.62765],[71.41532,23.62406],[71.4111,23.62052],[71.39776,23.60609],[71.39452,23.60442],[71.39346,23.60387],[71.39345,23.60389],[71.39119,23.61105],[71.39119,23.61105],[71.39053,23.61312],[71.38931,23.62035],[71.38209,23.6355],[71.37862,23.63939],[71.37683,23.64415],[71.37683,23.64415],[71.37662,23.6447],[71.37709,23.64663],[71.37785,23.64979],[71.37785,23.64979],[71.3702,23.65171],[71.36262,23.65361],[71.3562,23.65612],[71.35618,23.65613],[71.35171,23.65615],[71.34621,23.6553],[71.34602,23.65527],[71.343,23.65481],[71.32104,23.64906],[71.31906,23.64855],[71.30959,23.64736],[71.30336,23.64659],[71.29356,23.64781],[71.2753,23.65009],[71.27312,23.65036],[71.26296,23.65047],[71.25791,23.6515],[71.25327,23.65245],[71.24647,23.65495],[71.24117,23.65562],[71.22834,23.65724],[71.2227,23.66085],[71.22262,23.66119],[71.22262,23.66119],[71.22083,23.66875],[71.22088,23.67256],[71.22088,23.6726],[71.21687,23.682],[71.21931,23.68462],[71.22009,23.68546],[71.22341,23.69393],[71.22185,23.69615],[71.21972,23.6992],[71.21992,23.70326],[71.21999,23.70477],[71.22352,23.71191],[71.22405,23.71298],[71.22405,23.71298],[71.22055,23.71851],[71.21441,23.72823],[71.20962,23.73243],[71.20121,23.73478],[71.19246,23.73573],[71.18851,23.73793],[71.17399,23.73938],[71.17399,23.73935],[71.17399,23.73466],[71.17399,23.73466],[71.17399,23.72943],[71.17038,23.72794],[71.16913,23.72742],[71.16867,23.72751],[71.15925,23.72921],[71.14666,23.73012],[71.14666,23.73011],[71.14666,23.72991],[71.14667,23.72581],[71.1483,23.72153],[71.14822,23.72074],[71.14789,23.71736],[71.14789,23.71736],[71.14789,23.71733],[71.15064,23.71477],[71.15316,23.71242],[71.15318,23.71239],[71.16235,23.7191],[71.16584,23.71781],[71.16584,23.71781],[71.1691,23.71508],[71.16911,23.71507],[71.17491,23.7133],[71.1763,23.71218],[71.17821,23.71063],[71.17421,23.70466],[71.16949,23.70043],[71.16945,23.7004],[71.16936,23.70035],[71.16162,23.69552],[71.15953,23.69352],[71.15926,23.69326],[71.15693,23.69104],[71.154,23.68676],[71.15398,23.68673],[71.15253,23.68461],[71.15037,23.67748],[71.14832,23.67285],[71.1468,23.66941],[71.14173,23.66567],[71.13669,23.6606],[71.13519,23.64713],[71.13498,23.64527],[71.13725,23.63969],[71.1422,23.63723],[71.14256,23.63705],[71.14255,23.63672],[71.14251,23.63291],[71.1393,23.62887],[71.10621,23.61623],[71.10423,23.61609],[71.10225,23.61596],[71.10112,23.61691],[71.09552,23.62163],[71.09027,23.6215],[71.09027,23.62146],[71.08985,23.60345],[71.08983,23.60263],[71.08495,23.59911],[71.08494,23.5991],[71.08115,23.6002],[71.07383,23.60232],[71.07174,23.60408],[71.06761,23.60753],[71.0632,23.61568],[71.06011,23.61883],[71.05961,23.61934],[71.05402,23.62105],[71.04841,23.62276],[71.04762,23.62384],[71.04434,23.62835],[71.0443,23.62837],[71.04184,23.6296],[71.04153,23.62976],[71.03992,23.63258],[71.03755,23.63671],[71.03566,23.64261],[71.0356,23.6428],[71.03366,23.64884],[71.03459,23.65802],[71.03717,23.66579],[71.04158,23.67178],[71.04689,23.67559],[71.04727,23.67587],[71.04763,23.67605],[71.04763,23.67605],[71.05359,23.6791],[71.06503,23.6822],[71.06685,23.68269],[71.06841,23.68533],[71.06841,23.68533],[71.06901,23.68964],[71.06901,23.68965],[71.06745,23.69354],[71.06732,23.69385],[71.06732,23.69386],[71.05968,23.70172],[71.05911,23.70872],[71.05911,23.70873],[71.06331,23.71387],[71.06401,23.71473],[71.06434,23.72009],[71.06432,23.72015],[71.06462,23.72726],[71.0672,23.7286],[71.07071,23.73043],[71.07071,23.73043],[71.0702,23.7315],[71.06917,23.73366],[71.06916,23.73368],[71.06418,23.73814],[71.05757,23.74523],[71.05435,23.75572],[71.0544,23.76618],[71.0544,23.76618],[71.05444,23.76669],[71.0544,23.76681],[71.05446,23.77864],[71.05568,23.7808],[71.05568,23.7808],[71.05678,23.78274],[71.04682,23.7876],[71.04682,23.78761],[71.04681,23.78761],[71.04304,23.79773],[71.04288,23.79815],[71.04288,23.79817],[71.04292,23.79821],[71.04292,23.79822],[71.05019,23.80699],[71.05019,23.80699],[71.05045,23.80687],[71.05734,23.80356],[71.0613,23.80314],[71.06131,23.80314],[71.06493,23.81105],[71.06685,23.81712],[71.06689,23.81891],[71.06692,23.82035],[71.06833,23.82299],[71.0687,23.82367],[71.06863,23.82423],[71.06819,23.82796],[71.06358,23.83222],[71.06203,23.83558],[71.06442,23.83989],[71.06445,23.8399],[71.06868,23.8416],[71.06915,23.84178],[71.06952,23.84238],[71.07131,23.84528],[71.07137,23.84549],[71.07137,23.84549],[71.07534,23.85825],[71.07558,23.85873],[71.07558,23.85873],[71.08508,23.87565],[71.09625,23.89523],[71.09728,23.89672],[71.09728,23.89673],[71.10014,23.90081],[71.11236,23.90497],[71.11927,23.90592],[71.11927,23.90592],[71.12622,23.90588],[71.13014,23.90742],[71.13027,23.90747],[71.13345,23.90749],[71.13719,23.90752],[71.14432,23.90964],[71.1496,23.9123],[71.14999,23.91245],[71.1542,23.9126],[71.17437,23.91986],[71.17468,23.91997],[71.17681,23.92442],[71.17682,23.92445],[71.18124,23.92387],[71.1813,23.92386],[71.18469,23.92113],[71.18471,23.92113],[71.18679,23.9206],[71.1918,23.91934],[71.19746,23.92223],[71.20084,23.92459],[71.20536,23.92772],[71.20536,23.92772],[71.20604,23.92814],[71.21175,23.93048],[71.2118,23.9305],[71.2128,23.93058],[71.21904,23.93113],[71.22249,23.93051],[71.22593,23.9299],[71.22593,23.9299],[71.22794,23.92871],[71.23182,23.92641],[71.23959,23.91768],[71.24803,23.91948],[71.25036,23.91998],[71.25036,23.91998],[71.25026,23.92048],[71.25025,23.9205],[71.24855,23.9288],[71.24856,23.9288],[71.25272,23.93097],[71.25799,23.92872],[71.25836,23.92811],[71.26042,23.9247],[71.26323,23.92251],[71.2645,23.92151],[71.26669,23.92135],[71.2667,23.92135],[71.26925,23.92115],[71.26926,23.92116],[71.26929,23.92116],[71.27156,23.92296],[71.27191,23.92323],[71.27264,23.92676],[71.27205,23.93151],[71.27207,23.93152],[71.27346,23.93337],[71.27347,23.93338],[71.27729,23.93054],[71.27731,23.93052],[71.27928,23.92759],[71.28479,23.92623],[71.28487,23.92619],[71.28529,23.92621],[71.29087,23.92601],[71.29494,23.92667],[71.29498,23.92667],[71.29499,23.92668],[71.29501,23.92668],[71.29897,23.92884],[71.29912,23.93235],[71.29806,23.93616],[71.29806,23.93616],[71.29801,23.93635],[71.28976,23.94674],[71.29028,23.94778],[71.29088,23.94901],[71.30147,23.95021],[71.30148,23.95021],[71.30149,23.95022],[71.30292,23.95037],[71.30275,23.95295],[71.30006,23.95863],[71.30005,23.95863],[71.29713,23.96481],[71.29717,23.96484],[71.29717,23.96485],[71.30817,23.97411],[71.31276,23.97759],[71.31612,23.98165],[71.31612,23.98165],[71.31903,23.981],[71.32773,23.97558],[71.33294,23.96831],[71.34298,23.96654],[71.34361,23.96643],[71.36075,23.96684],[71.3646,23.96632],[71.36646,23.96246],[71.37007,23.96109],[71.37126,23.95682],[71.37332,23.95297],[71.38684,23.95198],[71.38911,23.95561],[71.38998,23.96212],[71.39508,23.9625],[71.40022,23.95595],[71.40022,23.95595],[71.40432,23.94859],[71.40572,23.93385],[71.4088,23.92969],[71.41375,23.92627],[71.41811,23.92864],[71.4245,23.93361],[71.43787,23.93787],[71.44469,23.94102],[71.44687,23.94593],[71.44847,23.95829],[71.45148,23.96289],[71.44762,23.96803],[71.44789,23.97764],[71.4442,23.97872],[71.44332,23.98292],[71.45267,23.99036],[71.46081,23.99939],[71.46328,24.01069],[71.47315,24.02093],[71.47762,24.02321],[71.47915,24.02332],[71.48252,24.02357],[71.48635,24.01871],[71.48948,24.01695],[71.49243,24.01342],[71.48989,23.99252],[71.48892,23.98953],[71.48851,23.98547],[71.48846,23.97611],[71.49154,23.97047],[71.49499,23.96977],[71.49724,23.96931],[71.50138,23.97037],[71.50606,23.97405],[71.51175,23.97611],[71.52682,23.97907],[71.53793,23.9795],[71.54523,23.97547],[71.56494,23.97804],[71.56727,23.97918],[71.56986,23.97656],[71.57298,23.97569],[71.57374,23.97548],[71.58588,23.97647],[71.58752,23.9766],[71.59033,23.97519],[71.58576,23.96673],[71.5884,23.96162],[71.59576,23.95125],[71.60133,23.94341],[71.60786,23.94174],[71.61417,23.94504],[71.61733,23.94802],[71.62375,23.95211],[71.63382,23.95322],[71.64036,23.95607],[71.64125,23.95778],[71.65079,23.96283],[71.65357,23.9643],[71.66008,23.96775],[71.66904,23.97045],[71.67926,23.96935],[71.68791,23.96585],[71.69156,23.9607],[71.69253,23.9518],[71.69674,23.93469],[71.70228,23.92973],[71.71665,23.92626],[71.71732,23.92372],[71.71677,23.91502],[71.71509,23.90721],[71.71352,23.8999],[71.71412,23.89218],[71.71328,23.89044],[71.70907,23.88167],[71.71316,23.87737],[71.71555,23.86984],[71.71856,23.86512],[71.72071,23.86364],[71.73126,23.8564],[71.73207,23.85584],[71.73251,23.85554],[71.73984,23.85309],[71.7422,23.8523],[71.7444,23.85157],[71.75327,23.84153],[71.75794,23.84215],[71.76082,23.84101],[71.76175,23.83894],[71.76454,23.83509],[71.76698,23.83129],[71.76714,23.8315],[71.76971,23.83468],[71.77033,23.83952],[71.77292,23.84147],[71.77638,23.84217],[71.77969,23.84568],[71.78432,23.84755],[71.80794,23.85465],[71.81228,23.85427],[71.81894,23.8522],[71.82208,23.84921],[71.82918,23.84647],[71.84209,23.846],[71.85225,23.84687],[71.85812,23.84893],[71.86127,23.85578],[71.86366,23.85864],[71.86787,23.87046],[71.88961,23.87958],[71.8974,23.87701],[71.90315,23.87803],[71.91612,23.88344],[71.92225,23.88521],[71.93579,23.88384],[71.9518,23.88952],[71.95725,23.89076],[71.96799,23.89054],[71.97232,23.89211],[71.97431,23.89968],[71.97282,23.90466],[71.96948,23.9091],[71.96584,23.91186],[71.9452,23.92186],[71.94111,23.92621],[71.93453,23.9371],[71.93343,23.94203],[71.92936,23.94893],[71.92918,23.95285],[71.93696,23.96037],[71.9446,23.96443],[71.94604,23.97194],[71.94541,23.97378],[71.93328,23.97645],[71.92767,23.97854],[71.92384,24.00086],[71.92605,24.00832],[71.92719,24.00952],[71.93072,24.01064],[71.9379,24.01043],[71.95239,24.00821],[71.95462,24.00657],[71.95271,24.0009],[71.95554,23.9965],[71.96337,23.99341],[71.97741,23.9974],[71.98433,23.99744],[71.98956,23.99314],[71.9912,23.98921],[71.99437,23.98542],[71.99619,23.97165],[71.9997,23.96778],[72.00108,23.96725],[72.0041,23.96963],[72.00286,23.97668],[72.01263,23.98626],[72.01887,23.98059],[72.02364,23.9803],[72.036,23.9825],[72.04039,23.98658],[72.04614,23.99594],[72.04716,23.99786],[72.01961,24.01851],[72.0191,24.03173],[72.0163,24.03646],[72.01505,24.04009],[72.03075,24.05506],[72.04231,24.03853],[72.04883,24.0343],[72.06205,24.02171],[72.0661,24.02063],[72.08311,24.03253],[72.08853,24.03001],[72.09392,24.02394],[72.10039,24.02124],[72.10081,24.0265],[72.09794,24.04781],[72.10221,24.04766],[72.10567,24.04672],[72.11191,24.04293],[72.11688,24.04147],[72.12555,24.04016],[72.13842,24.04389],[72.14038,24.05225],[72.14367,24.05652],[72.14805,24.06101],[72.15429,24.06393],[72.16437,24.07462],[72.16464,24.07948],[72.16338,24.0837],[72.15684,24.09231],[72.15962,24.1039],[72.15386,24.11438],[72.1457,24.11295],[72.13594,24.11301],[72.12576,24.11101],[72.10147,24.10944],[72.10039,24.113],[72.10106,24.12587],[72.11816,24.12103],[72.12298,24.1225],[72.12746,24.12643],[72.13026,24.14041],[72.13433,24.14143],[72.14673,24.14005],[72.15664,24.1379],[72.16081,24.13349],[72.1614,24.12294],[72.15935,24.11542],[72.16161,24.11352],[72.16651,24.1127],[72.18079,24.10583],[72.18702,24.10385],[72.19307,24.10653],[72.19527,24.11109],[72.19477,24.11605],[72.19664,24.12035],[72.20475,24.1248],[72.20894,24.12837],[72.20465,24.1407],[72.22686,24.12988],[72.22781,24.12429],[72.22911,24.12085],[72.23309,24.11932],[72.23373,24.1177],[72.22677,24.11442],[72.2216,24.11004],[72.21652,24.10416],[72.22061,24.09144],[72.22086,24.08052],[72.22263,24.0736],[72.23074,24.06533],[72.2465,24.06912],[72.25961,24.07244],[72.26629,24.05792],[72.27416,24.04791],[72.28257,24.04631],[72.29951,24.04663],[72.29886,24.04524],[72.30715,24.03268],[72.31675,24.02974],[72.35414,24.02502],[72.3583,24.00528],[72.35916,23.99829],[72.36349,23.9883],[72.36532,23.97978],[72.3658,23.97097],[72.36747,23.96712],[72.37387,23.96925],[72.392,23.96879],[72.40945,23.97037],[72.41403,23.97187],[72.42246,23.97757],[72.4271,23.97889],[72.43059,23.9744],[72.4361,23.96413],[72.44066,23.96527],[72.44445,23.96898],[72.45032,23.97025],[72.46586,23.96479],[72.47182,23.96023],[72.47703,23.95176],[72.47834,23.94693],[72.4778,23.93366],[72.47832,23.93021],[72.47429,23.91896],[72.47106,23.90693],[72.47024,23.89706]]]}}]}