{"type":"FeatureCollection","features":[{"type":"Feature","properties":{"id":"surendranagar","name":"Surendranagar","stateId":"gujarat","stateName":"Gujarat","censuscode":475,"type":"district"},"geometry":{"type":"Polygon","coordinates":[[[71.99969,23.50366],[71.99739,23.49104],[71.99006,23.48246],[71.974,23.4734],[71.96943,23.46689],[71.96771,23.4595],[71.96857,23.4475],[71.9719,23.43066],[71.97141,23.423],[71.96678,23.40488],[71.96265,23.39763],[71.95922,23.39338],[71.95343,23.39184],[71.93216,23.39309],[71.92377,23.39111],[71.90727,23.38543],[71.89979,23.38622],[71.89305,23.39179],[71.88651,23.39116],[71.87869,23.3881],[71.87442,23.38348],[71.87376,23.376],[71.8761,23.37092],[71.88253,23.36483],[71.88566,23.36069],[71.88665,23.35428],[71.89003,23.35014],[71.89325,23.34404],[71.89374,23.33865],[71.89547,23.33288],[71.88776,23.33182],[71.88549,23.33024],[71.88008,23.31555],[71.88604,23.30692],[71.88274,23.2979],[71.87924,23.29555],[71.87683,23.28983],[71.87492,23.27865],[71.87596,23.27361],[71.8801,23.26696],[71.88236,23.25799],[71.87902,23.25323],[71.87637,23.24636],[71.87465,23.2275],[71.87636,23.22421],[71.89777,23.22443],[71.89993,23.22549],[71.90204,23.2303],[71.90463,23.25439],[71.90587,23.25999],[71.90804,23.26501],[71.91759,23.26638],[71.928,23.26947],[71.9334,23.26714],[71.93943,23.25662],[71.9427,23.24524],[71.94754,23.2421],[71.96102,23.24633],[71.96935,23.25256],[71.97341,23.2544],[71.98642,23.2561],[71.9905,23.25565],[71.99633,23.25316],[71.99896,23.2494],[71.99292,23.22914],[71.99034,23.21571],[71.97301,23.2144],[71.96668,23.2116],[71.96184,23.2082],[71.95191,23.20759],[71.94583,23.20428],[71.9375,23.19767],[71.92768,23.18651],[71.91369,23.18366],[71.91002,23.18086],[71.91003,23.16723],[71.90747,23.15763],[71.90668,23.15081],[71.90414,23.14586],[71.90359,23.13831],[71.90622,23.12083],[71.90447,23.11515],[71.90075,23.11048],[71.91117,23.09041],[71.91491,23.07932],[71.91903,23.07482],[71.93143,23.06706],[71.94,23.06775],[71.94472,23.06957],[71.94853,23.06626],[71.9513,23.06011],[71.95217,23.05476],[71.94906,23.0502],[71.94697,23.04244],[71.94963,23.03958],[71.95325,23.03859],[71.96178,23.03915],[71.9578,23.04296],[71.957,23.04525],[71.95791,23.04831],[71.96202,23.05367],[71.96639,23.05752],[71.97978,23.06635],[71.98128,23.06866],[71.98942,23.06873],[71.99968,23.06592],[72.01277,23.05925],[72.01575,23.05625],[72.01649,23.05055],[72.01606,23.03429],[72.01386,23.02996],[72.01789,23.02107],[72.01799,23.01931],[72.01343,23.0124],[72.00848,23.00648],[72.00893,22.99908],[72.01112,22.99425],[72.0165,22.99384],[72.02019,22.99209],[72.00864,22.9708],[71.99806,22.95719],[71.99297,22.95472],[71.98942,22.94933],[71.9874,22.94118],[71.98909,22.93341],[71.99814,22.92657],[72.00283,22.92343],[72.00061,22.91746],[72.00116,22.9058],[72.00113,22.90561],[71.99814,22.90551],[71.99318,22.89609],[71.9907,22.89059],[71.98767,22.88536],[71.98512,22.87916],[71.98337,22.86971],[71.98376,22.86132],[71.9834,22.8555],[71.98457,22.85219],[71.98799,22.84374],[71.9897,22.83869],[71.99214,22.83458],[71.99799,22.83163],[72.01622,22.79345],[72.02378,22.79085],[72.03174,22.80112],[72.031,22.81722],[72.03511,22.84259],[72.03769,22.83269],[72.03844,22.81644],[72.04398,22.81058],[72.04093,22.80789],[72.0363,22.79398],[72.03752,22.79037],[72.05024,22.78289],[72.04909,22.77979],[72.04601,22.76812],[72.05066,22.76925],[72.05334,22.76845],[72.0537,22.75847],[72.05969,22.75689],[72.06019,22.75471],[72.05474,22.7513],[72.05686,22.74739],[72.06548,22.73801],[72.07162,22.73249],[72.07924,22.72912],[72.10251,22.7236],[72.10638,22.72049],[72.10472,22.71117],[72.09917,22.69169],[72.09577,22.68389],[72.08978,22.67556],[72.08258,22.67612],[72.07289,22.67518],[72.06601,22.67631],[72.05635,22.69356],[72.02929,22.68094],[72.02678,22.67919],[72.03617,22.67036],[72.04725,22.66247],[72.05611,22.6572],[72.06113,22.65084],[72.06218,22.64125],[72.06158,22.61674],[72.06203,22.60796],[72.06311,22.59923],[72.06514,22.59388],[72.07045,22.59472],[72.09615,22.60515],[72.10164,22.60102],[72.1163,22.59876],[72.14223,22.58712],[72.15807,22.57755],[72.16876,22.56962],[72.18188,22.55564],[72.18599,22.54996],[72.18744,22.54427],[72.18689,22.54167],[72.1704,22.53473],[72.1631,22.53086],[72.14931,22.52092],[72.14281,22.51421],[72.15003,22.50061],[72.14975,22.49894],[72.14646,22.49553],[72.15454,22.48897],[72.1612,22.47945],[72.14792,22.47625],[72.14074,22.47209],[72.11997,22.4629],[72.10835,22.45067],[72.10214,22.44829],[72.0844,22.43725],[72.07794,22.43719],[72.06578,22.44035],[72.05377,22.44235],[72.05026,22.44443],[72.05145,22.45797],[72.05082,22.47246],[72.04963,22.47434],[72.04475,22.47592],[72.03914,22.4831],[72.03527,22.49082],[72.03109,22.50635],[72.02235,22.51122],[72.01035,22.51244],[71.99902,22.50767],[71.97823,22.50622],[71.97483,22.50835],[71.96678,22.5092],[71.96619,22.51918],[71.9686,22.52395],[71.96926,22.5282],[71.96472,22.53296],[71.95649,22.5344],[71.95118,22.53792],[71.94586,22.53972],[71.93896,22.5393],[71.93424,22.53757],[71.92907,22.53276],[71.9264,22.52898],[71.92287,22.52629],[71.92162,22.5212],[71.90874,22.51724],[71.91269,22.5088],[71.91437,22.50318],[71.91921,22.50549],[71.91966,22.49926],[71.91723,22.49859],[71.91074,22.49805],[71.90912,22.49261],[71.90732,22.48636],[71.90679,22.48304],[71.90801,22.48009],[71.92003,22.47837],[71.92677,22.47735],[71.92955,22.48163],[71.93209,22.48556],[71.94119,22.48753],[71.94987,22.48944],[71.95727,22.48947],[71.95901,22.47751],[71.95835,22.47278],[71.96116,22.46944],[71.95413,22.46493],[71.94442,22.46295],[71.93696,22.46193],[71.9283,22.45712],[71.92298,22.44936],[71.92271,22.44034],[71.92407,22.43191],[71.92737,22.42486],[71.92933,22.42103],[71.92784,22.41403],[71.93107,22.40645],[71.932,22.40041],[71.93332,22.38907],[71.93352,22.38081],[71.9271,22.37829],[71.92109,22.38037],[71.91568,22.38211],[71.91231,22.37694],[71.90957,22.38011],[71.90894,22.38557],[71.90801,22.39179],[71.90611,22.39805],[71.9022,22.40639],[71.89592,22.41411],[71.89057,22.41888],[71.88286,22.41767],[71.88232,22.41755],[71.8804,22.41205],[71.87459,22.40651],[71.86532,22.4033],[71.86285,22.39931],[71.85794,22.39763],[71.85069,22.38927],[71.85176,22.3795],[71.85362,22.37045],[71.84884,22.36824],[71.84066,22.36505],[71.83663,22.35847],[71.83178,22.35579],[71.82315,22.36063],[71.82386,22.36541],[71.82516,22.37358],[71.82664,22.38402],[71.82708,22.39298],[71.82071,22.39302],[71.80949,22.39269],[71.79397,22.39209],[71.78813,22.39428],[71.7807,22.38795],[71.7798,22.38544],[71.78148,22.37598],[71.78254,22.36866],[71.7833,22.36133],[71.77488,22.36105],[71.76336,22.36078],[71.76015,22.36003],[71.75201,22.36051],[71.74395,22.36051],[71.73406,22.36067],[71.73174,22.36378],[71.73123,22.37006],[71.73004,22.37651],[71.7293,22.37901],[71.7256,22.38087],[71.71559,22.37998],[71.71133,22.38301],[71.7082,22.38989],[71.70283,22.39616],[71.6955,22.39379],[71.68521,22.39021],[71.68116,22.38684],[71.67589,22.3856],[71.66475,22.38201],[71.66109,22.3865],[71.65517,22.39218],[71.64287,22.3994],[71.63914,22.39498],[71.6368,22.39058],[71.63307,22.38436],[71.62885,22.38087],[71.62436,22.3801],[71.61993,22.38053],[71.61966,22.36318],[71.62088,22.34983],[71.62232,22.34427],[71.62106,22.34314],[71.60734,22.33823],[71.59915,22.33882],[71.59568,22.33988],[71.59516,22.35011],[71.58993,22.35236],[71.5872,22.35168],[71.58555,22.3477],[71.57809,22.34754],[71.57666,22.34414],[71.57785,22.34055],[71.58007,22.33733],[71.57815,22.32875],[71.57565,22.32313],[71.56974,22.32008],[71.56286,22.32341],[71.56099,22.3281],[71.55938,22.3382],[71.55742,22.3402],[71.55086,22.34145],[71.54268,22.3415],[71.52968,22.34323],[71.52311,22.33994],[71.51415,22.333],[71.5093,22.32606],[71.50389,22.3215],[71.49959,22.31545],[71.4956,22.30795],[71.48712,22.30212],[71.47993,22.29887],[71.44909,22.29277],[71.43937,22.28902],[71.44028,22.28333],[71.44015,22.27809],[71.43342,22.26101],[71.42948,22.25588],[71.42841,22.24865],[71.42095,22.23248],[71.4002,22.22379],[71.38889,22.22262],[71.38601,22.22514],[71.38688,22.23417],[71.38972,22.2409],[71.39097,22.24808],[71.38709,22.24883],[71.38586,22.25009],[71.3877,22.27542],[71.38429,22.27717],[71.38066,22.27688],[71.3787,22.27307],[71.37549,22.27279],[71.37008,22.27439],[71.37022,22.27834],[71.36596,22.28002],[71.36516,22.28152],[71.37092,22.29156],[71.36605,22.29404],[71.36295,22.29463],[71.35941,22.27526],[71.35705,22.26883],[71.35232,22.26399],[71.3419,22.25928],[71.33164,22.26593],[71.32199,22.27717],[71.30674,22.28106],[71.30277,22.27047],[71.30611,22.26453],[71.30104,22.263],[71.30425,22.25292],[71.30195,22.25225],[71.29255,22.25273],[71.28704,22.25788],[71.28132,22.265],[71.28239,22.26687],[71.28243,22.26885],[71.27706,22.27191],[71.2717,22.27374],[71.26522,22.27392],[71.25069,22.27758],[71.24034,22.27665],[71.23197,22.27674],[71.23217,22.26087],[71.2266,22.25025],[71.21647,22.24647],[71.20973,22.24257],[71.21164,22.23545],[71.21768,22.22633],[71.21398,22.22263],[71.2186,22.22085],[71.22763,22.22077],[71.23579,22.22213],[71.24463,22.22251],[71.25742,22.21644],[71.26332,22.21479],[71.27643,22.21722],[71.27949,22.21482],[71.28275,22.21063],[71.28538,22.20323],[71.2897,22.19638],[71.29715,22.1812],[71.29682,22.17794],[71.28942,22.16363],[71.2811,22.16082],[71.26542,22.16109],[71.25491,22.16347],[71.24808,22.16742],[71.24323,22.16839],[71.23776,22.1648],[71.23189,22.16441],[71.22654,22.16665],[71.22157,22.17163],[71.21852,22.17804],[71.21385,22.18407],[71.21068,22.18587],[71.19578,22.17642],[71.18837,22.17345],[71.19323,22.16289],[71.18753,22.16313],[71.17651,22.15794],[71.17123,22.15954],[71.17529,22.14478],[71.15656,22.13683],[71.15306,22.13665],[71.14602,22.13275],[71.14083,22.13185],[71.13972,22.12921],[71.13953,22.12456],[71.1352,22.12262],[71.12986,22.1234],[71.12382,22.12254],[71.12058,22.12497],[71.1197,22.12781],[71.11351,22.12915],[71.11303,22.13276],[71.11446,22.13447],[71.11879,22.13699],[71.12027,22.13923],[71.12077,22.14324],[71.12282,22.14799],[71.12628,22.15242],[71.15558,22.16631],[71.15817,22.18159],[71.15324,22.18803],[71.15241,22.18678],[71.14024,22.19112],[71.12511,22.20924],[71.1186,22.22059],[71.11318,22.22819],[71.10487,22.24821],[71.11278,22.25462],[71.10803,22.25623],[71.09297,22.25596],[71.08773,22.25797],[71.0838,22.25767],[71.08078,22.25656],[71.07678,22.2666],[71.07171,22.26935],[71.06887,22.27277],[71.06043,22.27742],[71.0591,22.28175],[71.06177,22.29458],[71.06159,22.30346],[71.05786,22.30973],[71.05226,22.31195],[71.04281,22.31957],[71.03089,22.32227],[71.02224,22.32938],[71.01213,22.35371],[71.0171,22.36242],[71.01932,22.37842],[71.02678,22.37727],[71.0342,22.38013],[71.03977,22.38617],[71.03378,22.39416],[71.022,22.39975],[71.01588,22.40649],[71.01138,22.41023],[71.00715,22.40691],[71.00004,22.4032],[70.99352,22.40225],[70.99111,22.40336],[70.98353,22.40932],[70.9822,22.41205],[70.98402,22.41588],[70.99362,22.42198],[71.00004,22.42524],[71.01637,22.43268],[71.02419,22.43812],[71.03525,22.43934],[71.04412,22.43769],[71.04967,22.43534],[71.05337,22.43622],[71.05641,22.43546],[71.06028,22.4325],[71.06217,22.42688],[71.0676,22.42471],[71.07245,22.42107],[71.07662,22.40392],[71.08815,22.39923],[71.095,22.4004],[71.097,22.40521],[71.09745,22.41272],[71.09758,22.42105],[71.10002,22.43064],[71.10138,22.43294],[71.10858,22.43504],[71.12218,22.4354],[71.12353,22.43839],[71.11347,22.45136],[71.11817,22.4543],[71.12651,22.45765],[71.12877,22.46153],[71.13111,22.47834],[71.13485,22.48026],[71.13978,22.4793],[71.14467,22.47688],[71.16282,22.48203],[71.16393,22.48502],[71.16436,22.49009],[71.16332,22.50089],[71.16043,22.5037],[71.14512,22.52381],[71.13738,22.53625],[71.13469,22.5422],[71.13108,22.54476],[71.12524,22.54588],[71.11437,22.54586],[71.11281,22.53937],[71.10438,22.52328],[71.10123,22.51257],[71.09457,22.51169],[71.09168,22.51449],[71.08886,22.52125],[71.08397,22.52402],[71.07379,22.52657],[71.06181,22.5376],[71.06517,22.54086],[71.07026,22.54218],[71.07267,22.54355],[71.07134,22.54802],[71.07177,22.55216],[71.07561,22.55659],[71.08213,22.55944],[71.09411,22.56303],[71.09661,22.56703],[71.10007,22.57757],[71.09902,22.58343],[71.09464,22.58872],[71.09389,22.60081],[71.09965,22.60185],[71.10266,22.60423],[71.09869,22.61563],[71.09917,22.62117],[71.10111,22.62639],[71.11018,22.63941],[71.12916,22.63339],[71.12795,22.65229],[71.13844,22.65923],[71.14077,22.66264],[71.14454,22.66189],[71.15423,22.6755],[71.162,22.68064],[71.16181,22.69141],[71.1669,22.70019],[71.15592,22.70733],[71.14953,22.71258],[71.14186,22.72722],[71.13495,22.73414],[71.129,22.74253],[71.12482,22.75073],[71.12353,22.75601],[71.11125,22.75986],[71.09648,22.76648],[71.08046,22.77102],[71.07486,22.7719],[71.07447,22.76962],[71.07176,22.76765],[71.06514,22.76687],[71.05226,22.76651],[71.04553,22.76866],[71.04262,22.7717],[71.04375,22.77764],[71.04303,22.79208],[71.03648,22.79703],[71.02862,22.79977],[71.02102,22.79824],[71.00355,22.79188],[71.00066,22.78681],[71.00004,22.78669],[70.99212,22.78747],[70.98767,22.7919],[70.98372,22.80743],[70.97437,22.83339],[70.97418,22.837],[70.97893,22.84683],[70.98338,22.85076],[70.99008,22.85303],[70.9972,22.85288],[71.00004,22.85542],[71.00475,22.85846],[71.00816,22.86621],[71.01582,22.87071],[71.01807,22.87323],[71.01808,22.87805],[71.01627,22.88084],[71.01499,22.88483],[71.01471,22.88734],[71.01571,22.89126],[71.01483,22.89645],[71.0057,22.9],[71.00005,22.90606],[70.99563,22.92013],[70.99384,22.93207],[70.9948,22.94824],[70.99642,22.96237],[70.99591,22.9678],[70.98559,22.97269],[70.97831,22.97803],[70.96761,22.9945],[70.96627,23.00012],[70.96542,23.00241],[70.9631,23.00347],[70.96,23.00292],[70.95702,23.00185],[70.95437,23.00172],[70.95423,23.00174],[70.95399,23.00179],[70.95376,23.00184],[70.95355,23.0019],[70.95333,23.00197],[70.95313,23.00204],[70.95294,23.00212],[70.95276,23.0022],[70.95259,23.0023],[70.95243,23.0024],[70.95229,23.00251],[70.95216,23.00262],[70.95204,23.00275],[70.95193,23.00289],[70.95186,23.00303],[70.9518,23.00319],[70.95175,23.00337],[70.95173,23.00354],[70.95172,23.00373],[70.95172,23.00393],[70.95174,23.00413],[70.95177,23.00435],[70.95182,23.00457],[70.95187,23.0048],[70.95194,23.00502],[70.952,23.00527],[70.95208,23.0055],[70.95217,23.00576],[70.95226,23.00601],[70.95236,23.00626],[70.95246,23.00653],[70.95256,23.00679],[70.95266,23.00705],[70.95276,23.00732],[70.95286,23.00759],[70.95296,23.00785],[70.95305,23.00812],[70.95314,23.00839],[70.95323,23.00865],[70.95331,23.00892],[70.95338,23.00918],[70.95345,23.00944],[70.9535,23.0097],[70.95354,23.00995],[70.95358,23.0102],[70.9536,23.01045],[70.95361,23.01068],[70.9536,23.01092],[70.95358,23.01115],[70.95355,23.01138],[70.95351,23.01162],[70.95346,23.01186],[70.9534,23.0121],[70.95333,23.01233],[70.95326,23.01256],[70.95317,23.0128],[70.95308,23.01304],[70.95298,23.01327],[70.95288,23.01351],[70.95278,23.01374],[70.95266,23.01397],[70.95255,23.0142],[70.95243,23.01443],[70.95232,23.01466],[70.95219,23.01488],[70.95207,23.0151],[70.95195,23.01532],[70.95183,23.01554],[70.95171,23.01575],[70.95157,23.01596],[70.95143,23.01615],[70.95127,23.01635],[70.9511,23.01654],[70.95093,23.01673],[70.95076,23.01691],[70.95058,23.01709],[70.9504,23.01727],[70.95022,23.01744],[70.95004,23.01762],[70.94986,23.0178],[70.94969,23.01799],[70.94953,23.01818],[70.94937,23.01837],[70.94923,23.01856],[70.94909,23.01876],[70.94897,23.01898],[70.94886,23.01919],[70.94875,23.0194],[70.94864,23.01962],[70.94853,23.01983],[70.94843,23.02006],[70.94833,23.02028],[70.94823,23.02049],[70.94814,23.02072],[70.94805,23.02094],[70.94796,23.02117],[70.94788,23.02139],[70.94779,23.02162],[70.94771,23.02185],[70.94763,23.02208],[70.94755,23.0223],[70.94747,23.02253],[70.94739,23.02275],[70.94732,23.02298],[70.94724,23.0232],[70.94717,23.02343],[70.94709,23.02365],[70.94702,23.02388],[70.94694,23.0241],[70.94686,23.02433],[70.94679,23.02456],[70.94671,23.02479],[70.94663,23.02501],[70.94655,23.02524],[70.94648,23.02547],[70.94641,23.02569],[70.94634,23.02593],[70.94628,23.02615],[70.94622,23.02638],[70.94617,23.02661],[70.94612,23.02683],[70.94608,23.02706],[70.94604,23.02729],[70.94602,23.02752],[70.946,23.02775],[70.94599,23.02797],[70.94599,23.02819],[70.94601,23.02842],[70.94604,23.02865],[70.94608,23.02887],[70.94614,23.0291],[70.94621,23.02932],[70.94629,23.02954],[70.94637,23.02977],[70.94645,23.03],[70.94654,23.03022],[70.94663,23.03045],[70.94671,23.03067],[70.94679,23.03089],[70.94686,23.03112],[70.94693,23.03134],[70.95015,23.03035],[70.95507,23.02501],[70.95936,23.02359],[70.96254,23.02697],[70.96798,23.03541],[70.96862,23.04025],[70.97426,23.04678],[70.97413,23.05026],[70.97603,23.052],[70.97876,23.05273],[70.98215,23.06676],[70.98329,23.06944],[70.98739,23.07402],[70.99387,23.09245],[70.99705,23.09954],[71.00007,23.10362],[71.00636,23.10236],[71.01047,23.10468],[71.0159,23.10595],[71.02105,23.10511],[71.02454,23.10344],[71.03643,23.09494],[71.03726,23.08682],[71.04035,23.08313],[71.04926,23.08569],[71.0572,23.09017],[71.06365,23.09489],[71.0594,23.10781],[71.05443,23.10664],[71.04924,23.107],[71.04676,23.11451],[71.04816,23.11886],[71.05237,23.12435],[71.05307,23.12929],[71.04984,23.13639],[71.04836,23.14522],[71.04432,23.15853],[71.04645,23.16295],[71.04491,23.17101],[71.06114,23.17543],[71.06981,23.17539],[71.06968,23.17902],[71.07383,23.18286],[71.08852,23.19192],[71.10732,23.20152],[71.11329,23.20276],[71.11706,23.20209],[71.12383,23.20329],[71.13836,23.20896],[71.14373,23.20534],[71.14582,23.20223],[71.15017,23.20019],[71.15611,23.19906],[71.15817,23.18324],[71.15906,23.18153],[71.16933,23.18722],[71.17454,23.18912],[71.18068,23.19069],[71.1932,23.19084],[71.20209,23.18304],[71.20627,23.18031],[71.20992,23.17568],[71.21381,23.15673],[71.21448,23.14927],[71.22128,23.14821],[71.23702,23.15533],[71.25757,23.15778],[71.26174,23.15598],[71.26894,23.16067],[71.27393,23.16107],[71.27814,23.15949],[71.2813,23.15501],[71.28383,23.15467],[71.28603,23.1603],[71.2793,23.16809],[71.28047,23.17249],[71.28689,23.17211],[71.28891,23.17278],[71.29088,23.17719],[71.29384,23.17748],[71.29954,23.18364],[71.30121,23.18276],[71.3037,23.17413],[71.30478,23.17173],[71.30838,23.17054],[71.31026,23.16834],[71.31229,23.16884],[71.31325,23.17818],[71.31497,23.18317],[71.3178,23.18765],[71.32114,23.18738],[71.32819,23.17776],[71.3334,23.17609],[71.33443,23.17335],[71.33384,23.16753],[71.33583,23.1666],[71.34039,23.16692],[71.34121,23.16964],[71.34378,23.17113],[71.34569,23.17515],[71.34885,23.17809],[71.3592,23.17895],[71.3645,23.17514],[71.36916,23.16541],[71.37254,23.1622],[71.38844,23.15857],[71.39257,23.15447],[71.39823,23.1558],[71.41712,23.15027],[71.42707,23.14863],[71.4339,23.15016],[71.44105,23.1502],[71.44812,23.14764],[71.45272,23.14503],[71.4645,23.14499],[71.46867,23.14628],[71.47299,23.15056],[71.47868,23.15379],[71.49518,23.1562],[71.50139,23.15765],[71.50672,23.15976],[71.51167,23.159],[71.5201,23.16016],[71.5269,23.16386],[71.53378,23.16595],[71.53985,23.16348],[71.54391,23.15983],[71.56657,23.14925],[71.57629,23.14616],[71.58407,23.14091],[71.5938,23.13742],[71.60353,23.14285],[71.60918,23.1444],[71.61462,23.14386],[71.62491,23.14505],[71.62687,23.15043],[71.62335,23.15565],[71.62085,23.16222],[71.62537,23.16633],[71.63069,23.16948],[71.64254,23.17409],[71.64855,23.17219],[71.65672,23.16493],[71.66088,23.16265],[71.68832,23.15351],[71.69809,23.15117],[71.70976,23.15036],[71.71257,23.15294],[71.71659,23.16682],[71.7157,23.17399],[71.71442,23.17701],[71.7094,23.1791],[71.70044,23.18543],[71.69725,23.18445],[71.69147,23.17727],[71.68426,23.17201],[71.67618,23.17249],[71.66916,23.17598],[71.65164,23.18111],[71.64581,23.18358],[71.6354,23.19234],[71.62598,23.20447],[71.61946,23.22251],[71.61813,23.22945],[71.62242,23.23598],[71.62937,23.2433],[71.63111,23.24719],[71.63223,23.25583],[71.63501,23.2602],[71.65782,23.28215],[71.66521,23.2839],[71.66971,23.28854],[71.66922,23.2937],[71.66384,23.29388],[71.6485,23.29111],[71.64639,23.29212],[71.64201,23.30163],[71.63347,23.30808],[71.63343,23.31101],[71.6418,23.31807],[71.64481,23.32388],[71.64477,23.33228],[71.64184,23.33844],[71.63538,23.34688],[71.62473,23.35749],[71.61757,23.36218],[71.60985,23.36197],[71.60312,23.35701],[71.59762,23.35655],[71.58814,23.35879],[71.5845,23.36302],[71.58381,23.36877],[71.58538,23.38035],[71.58384,23.38947],[71.58439,23.39483],[71.5934,23.41445],[71.5958,23.42387],[71.59688,23.43148],[71.59477,23.43714],[71.59133,23.44483],[71.5864,23.4525],[71.58296,23.45577],[71.57202,23.45952],[71.56766,23.46249],[71.5637,23.46632],[71.54113,23.46735],[71.53137,23.46658],[71.52831,23.46842],[71.52858,23.47096],[71.53282,23.47801],[71.53258,23.48151],[71.55836,23.4956],[71.56501,23.49826],[71.5797,23.49603],[71.58393,23.49824],[71.5895,23.50312],[71.5948,23.50432],[71.60078,23.50127],[71.61052,23.50365],[71.61423,23.50361],[71.628,23.50117],[71.63464,23.49883],[71.63987,23.49599],[71.64403,23.49544],[71.64792,23.49609],[71.65821,23.49445],[71.67031,23.49106],[71.68732,23.49104],[71.69768,23.48842],[71.70665,23.48795],[71.7274,23.49513],[71.72854,23.48842],[71.7268,23.48351],[71.73011,23.4758],[71.7362,23.47367],[71.7451,23.47406],[71.75905,23.47087],[71.76777,23.47057],[71.77095,23.46793],[71.77825,23.45766],[71.7757,23.44823],[71.77064,23.4425],[71.76457,23.4379],[71.76077,23.42996],[71.7603,23.41804],[71.763,23.40935],[71.76824,23.40467],[71.77587,23.40268],[71.78546,23.40113],[71.79827,23.40028],[71.80646,23.40278],[71.82756,23.41645],[71.83523,23.42182],[71.84354,23.43078],[71.84901,23.43857],[71.85253,23.45526],[71.85522,23.46342],[71.85923,23.47005],[71.86357,23.47507],[71.88114,23.48585],[71.89271,23.49066],[71.89811,23.48925],[71.90156,23.49012],[71.90201,23.49421],[71.90585,23.49348],[71.91088,23.49805],[71.9141,23.49701],[71.92392,23.49822],[71.92997,23.49976],[71.93432,23.50346],[71.94202,23.50699],[71.94485,23.52003],[71.95148,23.5255],[71.96449,23.52917],[71.96957,23.53148],[71.9696,23.5315],[71.97694,23.52783],[71.98075,23.52382],[71.98268,23.5109],[71.98661,23.50775],[71.99969,23.50366]]]}}]}