{"type":"FeatureCollection","features":[{"type":"Feature","properties":{"id":"valsad","name":"Valsad","stateId":"gujarat","stateName":"Gujarat","censuscode":491,"type":"district"},"geometry":{"type":"Polygon","coordinates":[[[73.40756,20.6259],[73.40757,20.62588],[73.41928,20.62419],[73.42245,20.62023],[73.42549,20.61441],[73.43076,20.60096],[73.42916,20.59717],[73.43203,20.59481],[73.44655,20.59427],[73.46033,20.58844],[73.4685,20.58596],[73.47264,20.58325],[73.47555,20.57808],[73.47765,20.56371],[73.47357,20.54303],[73.48509,20.54186],[73.49259,20.53989],[73.4891,20.53588],[73.47651,20.52538],[73.46864,20.52172],[73.46551,20.51501],[73.46398,20.51374],[73.46584,20.50076],[73.46765,20.49472],[73.46148,20.49203],[73.45836,20.48801],[73.45688,20.48387],[73.45272,20.47785],[73.44754,20.4751],[73.44363,20.47114],[73.44057,20.46644],[73.42942,20.44548],[73.42733,20.43583],[73.42225,20.42859],[73.4207,20.41975],[73.42118,20.41417],[73.41429,20.41412],[73.4077,20.41046],[73.4072,20.40598],[73.40598,20.40547],[73.4044,20.40765],[73.40012,20.40403],[73.40085,20.40116],[73.39895,20.39611],[73.38902,20.39905],[73.38677,20.39784],[73.3826,20.39003],[73.38148,20.38004],[73.38281,20.37274],[73.38579,20.37279],[73.38933,20.37457],[73.3944,20.38163],[73.39899,20.38375],[73.40331,20.38334],[73.40611,20.38138],[73.41306,20.35542],[73.41476,20.35191],[73.41505,20.34162],[73.41673,20.33749],[73.41664,20.32053],[73.41742,20.31576],[73.41985,20.31173],[73.42208,20.29788],[73.42825,20.28195],[73.42751,20.27885],[73.41588,20.27668],[73.4144,20.27353],[73.41567,20.26899],[73.41305,20.26341],[73.41162,20.25686],[73.41284,20.25358],[73.4135,20.24795],[73.41153,20.24215],[73.41403,20.23662],[73.41359,20.23163],[73.41728,20.22346],[73.41909,20.2153],[73.42152,20.21219],[73.42114,20.2061],[73.41803,20.20144],[73.40798,20.20019],[73.40031,20.20038],[73.39659,20.19786],[73.3939,20.19493],[73.38916,20.19591],[73.38734,20.20154],[73.38844,20.20585],[73.38638,20.20907],[73.37956,20.20621],[73.37468,20.20231],[73.36732,20.20525],[73.36628,20.20284],[73.36693,20.1949],[73.36528,20.1926],[73.35786,20.19629],[73.35574,20.20095],[73.35857,20.20933],[73.36021,20.21164],[73.35857,20.21331],[73.35272,20.21193],[73.35022,20.20906],[73.34813,20.20246],[73.3457,20.19958],[73.34374,20.19843],[73.33893,20.19901],[73.32725,20.20408],[73.31867,20.20249],[73.31124,20.20433],[73.30491,20.20767],[73.30187,20.20722],[73.28887,20.19619],[73.28552,20.19625],[73.28472,20.19389],[73.28439,20.18602],[73.28135,20.17739],[73.28127,20.17446],[73.28381,20.16221],[73.28424,20.15393],[73.27965,20.14962],[73.27402,20.14582],[73.25893,20.13938],[73.25544,20.13385],[73.25326,20.12805],[73.25172,20.12569],[73.2499,20.12474],[73.24656,20.12799],[73.24402,20.12863],[73.23428,20.12916],[73.22846,20.12824],[73.22701,20.12985],[73.22725,20.13704],[73.22583,20.14112],[73.22296,20.14072],[73.22079,20.13784],[73.21983,20.1333],[73.22065,20.1283],[73.21701,20.12273],[73.21176,20.12094],[73.20657,20.12216],[73.20116,20.12376],[73.19086,20.12988],[73.18615,20.14012],[73.18551,20.1511],[73.1863,20.15628],[73.18946,20.1618],[73.20805,20.16827],[73.21241,20.17155],[73.21708,20.17648],[73.21869,20.18022],[73.21952,20.18442],[73.21813,20.18717],[73.2097,20.19057],[73.20022,20.19748],[73.19469,20.19847],[73.18611,20.19767],[73.18155,20.19876],[73.17875,20.20078],[73.17133,20.20257],[73.17038,20.20878],[73.16312,20.20149],[73.15909,20.19989],[73.15363,20.20167],[73.1437,20.20243],[73.1423,20.2034],[73.13987,20.20582],[73.13579,20.2072],[73.13221,20.20462],[73.13158,20.20209],[73.13606,20.18761],[73.13844,20.18571],[73.14218,20.17996],[73.14242,20.17628],[73.1401,20.17307],[73.13705,20.17128],[73.12944,20.17336],[73.1258,20.17256],[73.12255,20.16802],[73.11597,20.16388],[73.11548,20.16135],[73.11795,20.15738],[73.11485,20.15692],[73.10962,20.15934],[73.10287,20.15871],[73.09497,20.16026],[73.09315,20.16165],[73.09164,20.1644],[73.08929,20.17287],[73.08595,20.17453],[73.08327,20.17418],[73.07967,20.17073],[73.07765,20.16607],[73.07622,20.15732],[73.07215,20.15691],[73.06523,20.16041],[73.06214,20.1638],[73.06394,20.17761],[73.06409,20.19284],[73.06275,20.19645],[73.06002,20.19777],[73.05632,20.19821],[73.05395,20.20349],[73.06011,20.22176],[73.06663,20.2301],[73.07168,20.23311],[73.07739,20.23426],[73.09181,20.22922],[73.10039,20.23238],[73.09845,20.23881],[73.10326,20.24444],[73.1146,20.25695],[73.11807,20.25873],[73.12691,20.26068],[73.13105,20.26545],[73.1327,20.26883],[73.13282,20.27549],[73.13643,20.28072],[73.1371,20.28124],[73.14002,20.28031],[73.1427,20.27686],[73.14373,20.27721],[73.14532,20.28254],[73.14538,20.2856],[73.14643,20.2876],[73.14838,20.29065],[73.15149,20.29196],[73.15562,20.28719],[73.15701,20.28358],[73.15933,20.28248],[73.16219,20.28265],[73.16604,20.28432],[73.16915,20.28661],[73.16982,20.29],[73.16727,20.30103],[73.1674,20.30775],[73.16831,20.31085],[73.16741,20.31246],[73.16101,20.31068],[73.15863,20.31395],[73.15577,20.31608],[73.15163,20.31734],[73.14262,20.31764],[73.13749,20.31701],[73.13195,20.31764],[73.13031,20.31488],[73.12945,20.30977],[73.12439,20.30553],[73.11921,20.30598],[73.1057,20.30426],[73.10289,20.30517],[73.10442,20.31085],[73.10655,20.31292],[73.10894,20.32641],[73.11205,20.33308],[73.11156,20.33664],[73.1081,20.34308],[73.10432,20.353],[73.09744,20.36093],[73.09342,20.36058],[73.09257,20.35989],[73.09136,20.35626],[73.08917,20.34017],[73.0874,20.33533],[73.08084,20.32709],[73.07622,20.32637],[73.07264,20.32939],[73.06513,20.32989],[73.06138,20.32745],[73.05653,20.32637],[73.04492,20.32554],[73.04027,20.32331],[73.03744,20.31692],[73.03732,20.30477],[73.03558,20.29275],[73.03388,20.29144],[73.03168,20.29057],[73.02695,20.29094],[73.01944,20.2926],[73.01615,20.29447],[73.01662,20.30415],[73.01435,20.31315],[73.01191,20.3162],[73.00947,20.31775],[73.00723,20.31585],[73.01017,20.30787],[73.0102,20.30244],[73.01178,20.29743],[73.01143,20.29311],[73.01009,20.29126],[73.00689,20.29089],[73.00005,20.29274],[72.99311,20.29352],[72.97993,20.29249],[72.97893,20.27794],[72.97722,20.27509],[72.97352,20.2721],[72.96947,20.27118],[72.96388,20.27222],[72.95916,20.27518],[72.94682,20.28816],[72.94008,20.29248],[72.93527,20.2939],[72.93069,20.2926],[72.92737,20.28849],[72.91956,20.28447],[72.91377,20.27916],[72.91148,20.27492],[72.91292,20.26871],[72.93007,20.24731],[72.9329,20.24537],[72.94073,20.24404],[72.94708,20.24161],[72.95466,20.23764],[72.95895,20.23439],[72.96382,20.22628],[72.96478,20.21965],[72.9637,20.21543],[72.95974,20.21279],[72.95856,20.21137],[72.95009,20.21451],[72.93099,20.2183],[72.91756,20.22389],[72.91131,20.22411],[72.89993,20.22661],[72.89442,20.22678],[72.88886,20.22223],[72.87769,20.2264],[72.87326,20.22716],[72.86345,20.2264],[72.86079,20.22316],[72.86176,20.21311],[72.86087,20.20884],[72.84389,20.20974],[72.83906,20.20857],[72.8349,20.20422],[72.83288,20.19844],[72.83447,20.19479],[72.8378,20.19158],[72.83843,20.1899],[72.83224,20.1907],[72.83093,20.18952],[72.82596,20.18934],[72.82422,20.18833],[72.8223,20.18424],[72.81747,20.15726],[72.82281,20.15041],[72.82399,20.14532],[72.82091,20.1447],[72.81463,20.14696],[72.80443,20.15398],[72.79767,20.15252],[72.79056,20.1492],[72.78916,20.146],[72.78973,20.13854],[72.79369,20.12774],[72.79033,20.12574],[72.78292,20.12892],[72.77602,20.13084],[72.75011,20.1323],[72.73656,20.13522],[72.72928,20.13681],[72.72987,20.14125],[72.73132,20.14607],[72.73205,20.14607],[72.73257,20.14763],[72.73233,20.14921],[72.73304,20.14944],[72.73318,20.15211],[72.73367,20.1519],[72.73477,20.15534],[72.73539,20.15737],[72.73682,20.17081],[72.73726,20.1836],[72.73753,20.19015],[72.73836,20.1914],[72.74112,20.19562],[72.74335,20.19669],[72.74414,20.19871],[72.74455,20.19915],[72.74543,20.20025],[72.74582,20.20121],[72.74558,20.20214],[72.74848,20.20371],[72.75073,20.20299],[72.75203,20.20416],[72.7543,20.20861],[72.75457,20.20911],[72.75732,20.21012],[72.75625,20.21035],[72.75837,20.21106],[72.75995,20.21138],[72.7691,20.2108],[72.76928,20.21178],[72.76945,20.21248],[72.76977,20.21473],[72.76786,20.21701],[72.76079,20.21703],[72.75522,20.21617],[72.75359,20.21592],[72.75179,20.21319],[72.74845,20.21005],[72.74488,20.21117],[72.74433,20.21512],[72.7435,20.22151],[72.74252,20.22919],[72.74112,20.23179],[72.73842,20.23501],[72.73816,20.23936],[72.73782,20.24622],[72.73816,20.24708],[72.73924,20.25098],[72.73997,20.25099],[72.74313,20.25869],[72.74457,20.26253],[72.74748,20.26585],[72.74847,20.26952],[72.74945,20.2732],[72.74851,20.27825],[72.74997,20.28422],[72.75144,20.28835],[72.75195,20.29387],[72.7539,20.29753],[72.75634,20.30258],[72.75879,20.30763],[72.76026,20.31268],[72.76077,20.31727],[72.76031,20.32462],[72.75935,20.3283],[72.75887,20.33106],[72.75985,20.33474],[72.76619,20.34207],[72.7701,20.34803],[72.774,20.354],[72.77645,20.35766],[72.78229,20.36178],[72.78425,20.36361],[72.79057,20.36635],[72.79691,20.37001],[72.80081,20.37275],[72.80198,20.37417],[72.80622,20.37272],[72.82024,20.36936],[72.82333,20.36862],[72.82956,20.36967],[72.84152,20.37541],[72.8479,20.37494],[72.85406,20.37297],[72.8643,20.37337],[72.869,20.37131],[72.88086,20.36965],[72.89354,20.37215],[72.89638,20.3767],[72.89565,20.38036],[72.88873,20.3842],[72.88685,20.38718],[72.88632,20.39337],[72.88951,20.39828],[72.90042,20.40527],[72.90331,20.41034],[72.90261,20.41524],[72.89963,20.41921],[72.89584,20.42136],[72.88889,20.41911],[72.87956,20.41847],[72.86888,20.41582],[72.86511,20.41618],[72.86032,20.41961],[72.85932,20.42437],[72.86155,20.42837],[72.86811,20.43441],[72.8734,20.44421],[72.87704,20.44462],[72.88488,20.44006],[72.88878,20.43916],[72.89281,20.44167],[72.89335,20.44539],[72.89001,20.44886],[72.88744,20.45333],[72.88564,20.45907],[72.88248,20.46277],[72.87428,20.46297],[72.85778,20.46659],[72.85506,20.46805],[72.85257,20.46938],[72.84461,20.47456],[72.84667,20.47716],[72.84762,20.47739],[72.84809,20.47796],[72.8497,20.48002],[72.85188,20.48385],[72.85258,20.48385],[72.85625,20.48743],[72.85795,20.4899],[72.86354,20.49507],[72.86713,20.49846],[72.8681,20.49931],[72.87121,20.50336],[72.87302,20.50641],[72.87137,20.52055],[72.87121,20.52926],[72.87067,20.53555],[72.87246,20.54034],[72.87272,20.54509],[72.87331,20.54757],[72.87731,20.555],[72.87888,20.5558],[72.88416,20.56224],[72.88466,20.56518],[72.88575,20.57149],[72.88268,20.61018],[72.87547,20.63394],[72.87156,20.64946],[72.86934,20.65435],[72.86319,20.67744],[72.85987,20.68717],[72.85429,20.69983],[72.84987,20.70981],[72.84502,20.73106],[72.84952,20.73314],[72.85238,20.73447],[72.85641,20.72518],[72.85805,20.72378],[72.86868,20.72088],[72.87631,20.72825],[72.8787,20.72937],[72.88308,20.72802],[72.89703,20.7343],[72.89833,20.73565],[72.9309,20.73433],[72.93454,20.7322],[72.94135,20.7259],[72.94505,20.72248],[72.9551,20.71927],[72.96227,20.72062],[72.96353,20.72455],[72.9655,20.74103],[72.96825,20.74263],[72.97314,20.74268],[72.97919,20.7394],[72.98877,20.7342],[72.9955,20.72908],[73.00008,20.72764],[73.00335,20.72319],[73.01346,20.72256],[73.01717,20.71914],[73.01863,20.71561],[73.02891,20.70992],[73.03087,20.70615],[73.03643,20.70281],[73.04664,20.70228],[73.04678,20.69777],[73.04333,20.68315],[73.04033,20.68071],[73.03709,20.68277],[73.02868,20.6752],[73.03548,20.66695],[73.04389,20.66145],[73.04835,20.66027],[73.05688,20.66187],[73.06327,20.65756],[73.06789,20.65704],[73.07503,20.65157],[73.07216,20.64278],[73.06737,20.63528],[73.06654,20.63045],[73.06943,20.62212],[73.07298,20.61961],[73.06883,20.60552],[73.07236,20.60347],[73.0744,20.59997],[73.08309,20.6001],[73.102,20.59766],[73.10509,20.60406],[73.11054,20.60459],[73.12524,20.6002],[73.13661,20.59971],[73.14184,20.60069],[73.15071,20.6068],[73.15565,20.60592],[73.17073,20.59772],[73.18305,20.59226],[73.20073,20.59076],[73.20553,20.59245],[73.21562,20.60359],[73.22586,20.60231],[73.22606,20.59642],[73.24596,20.59355],[73.24864,20.59091],[73.24843,20.58731],[73.25396,20.58811],[73.26028,20.58121],[73.2705,20.58195],[73.27889,20.58426],[73.28932,20.59081],[73.29714,20.59465],[73.30026,20.59093],[73.30951,20.59171],[73.31339,20.59437],[73.31102,20.59675],[73.31198,20.599],[73.31493,20.59867],[73.31739,20.60228],[73.3226,20.60178],[73.32575,20.59943],[73.32836,20.60185],[73.33301,20.60086],[73.33808,20.60495],[73.34321,20.6061],[73.35306,20.60654],[73.35888,20.61343],[73.36798,20.61724],[73.37135,20.61435],[73.37581,20.6151],[73.38041,20.61696],[73.3846,20.61346],[73.3939,20.61719],[73.40755,20.62589],[73.40756,20.6259]]]}}]}