{"type":"FeatureCollection","features":[{"type":"Feature","properties":{"id":"alirajpur","name":"Alirajpur","stateId":"madhya-pradesh","stateName":"Madhya Pradesh","censuscode":465,"type":"district"},"geometry":{"type":"Polygon","coordinates":[[[74.3779,22.6364],[74.38873,22.61276],[74.40233,22.61147],[74.42211,22.60142],[74.4303,22.59094],[74.43779,22.57414],[74.43264,22.55868],[74.447,22.53944],[74.47067,22.52863],[74.47693,22.54054],[74.47447,22.55302],[74.47911,22.55768],[74.48758,22.56338],[74.49496,22.57174],[74.50439,22.57747],[74.51405,22.57782],[74.51892,22.5771],[74.53467,22.56767],[74.54205,22.56036],[74.54713,22.55599],[74.56017,22.55646],[74.57047,22.55733],[74.57993,22.55211],[74.59399,22.54099],[74.60099,22.54276],[74.6044,22.55248],[74.61075,22.55675],[74.6265,22.55731],[74.63183,22.56002],[74.63656,22.56423],[74.65092,22.57232],[74.65479,22.58408],[74.6555,22.5932],[74.65958,22.59991],[74.66498,22.60111],[74.67808,22.60006],[74.69222,22.58691],[74.70261,22.58576],[74.71404,22.58565],[74.72726,22.58156],[74.73199,22.57213],[74.74286,22.55802],[74.73087,22.55235],[74.72969,22.54955],[74.72812,22.54604],[74.72499,22.54113],[74.72186,22.53622],[74.71795,22.53061],[74.71794,22.5264],[74.7195,22.52218],[74.72144,22.51866],[74.72299,22.51515],[74.72299,22.51093],[74.72493,22.50671],[74.7265,22.50319],[74.72531,22.49969],[74.72218,22.49759],[74.72023,22.49689],[74.71673,22.49831],[74.71399,22.49691],[74.71164,22.49341],[74.70968,22.48779],[74.71045,22.48217],[74.70811,22.47937],[74.70772,22.47726],[74.71045,22.47374],[74.71278,22.47093],[74.71356,22.46812],[74.71354,22.4632],[74.71784,22.46038],[74.72251,22.45686],[74.72914,22.45543],[74.73421,22.45261],[74.7381,22.44908],[74.73965,22.44416],[74.74354,22.44205],[74.74666,22.43853],[74.74665,22.43431],[74.74237,22.43432],[74.7369,22.43644],[74.73223,22.43786],[74.72755,22.43858],[74.72364,22.43718],[74.72247,22.43227],[74.72168,22.42876],[74.71816,22.42456],[74.71465,22.42317],[74.70803,22.42318],[74.70295,22.4239],[74.69789,22.4211],[74.69398,22.4162],[74.69124,22.41339],[74.69201,22.40918],[74.69279,22.40567],[74.69045,22.40286],[74.69278,22.39934],[74.69628,22.39582],[74.69511,22.39161],[74.69354,22.3867],[74.69274,22.37897],[74.69314,22.37546],[74.69235,22.37266],[74.69312,22.36774],[74.69117,22.36493],[74.68727,22.36495],[74.68453,22.36144],[74.67869,22.36075],[74.67557,22.36076],[74.67051,22.36569],[74.6596,22.36923],[74.65064,22.36995],[74.64207,22.36786],[74.63582,22.36507],[74.63231,22.36226],[74.63075,22.35595],[74.63075,22.35173],[74.62294,22.34543],[74.62216,22.34262],[74.62255,22.3356],[74.62332,22.32928],[74.62565,22.32436],[74.62955,22.32013],[74.63149,22.31521],[74.63304,22.3103],[74.63694,22.30819],[74.64238,22.30326],[74.65212,22.30324],[74.65836,22.30533],[74.66382,22.3039],[74.66225,22.29549],[74.65911,22.28847],[74.65483,22.28426],[74.65171,22.27725],[74.64702,22.27235],[74.63923,22.27026],[74.62872,22.26958],[74.61782,22.2696],[74.60847,22.26891],[74.60145,22.26823],[74.59794,22.26542],[74.59833,22.26262],[74.60222,22.26051],[74.60573,22.25769],[74.60378,22.25418],[74.59833,22.25278],[74.59287,22.25139],[74.59131,22.24718],[74.58936,22.24157],[74.58391,22.24087],[74.57924,22.24018],[74.57184,22.2416],[74.56561,22.24442],[74.5621,22.24232],[74.56055,22.2374],[74.5621,22.23318],[74.56288,22.22687],[74.56249,22.22196],[74.55899,22.21845],[74.55353,22.21846],[74.54925,22.22268],[74.54886,22.22619],[74.5473,22.2283],[74.54575,22.23392],[74.54147,22.23673],[74.53446,22.23533],[74.52784,22.23675],[74.52512,22.23465],[74.52278,22.22833],[74.51927,22.22553],[74.51577,22.22272],[74.51305,22.21922],[74.51304,22.21501],[74.51654,22.21149],[74.51771,22.20657],[74.51538,22.20025],[74.51188,22.19535],[74.50681,22.18973],[74.50954,22.18482],[74.50914,22.18131],[74.50331,22.18342],[74.49903,22.17921],[74.49631,22.17359],[74.49632,22.16728],[74.49903,22.16096],[74.50293,22.15464],[74.50916,22.15112],[74.51616,22.14759],[74.52471,22.14618],[74.52743,22.14266],[74.52783,22.13634],[74.52977,22.12862],[74.53211,22.1258],[74.53483,22.1244],[74.53911,22.12019],[74.53912,22.11737],[74.53444,22.11457],[74.52354,22.11389],[74.51149,22.1132],[74.49243,22.11182],[74.48426,22.11183],[74.47804,22.11254],[74.47337,22.11254],[74.47142,22.11044],[74.47142,22.10763],[74.47376,22.10481],[74.4761,22.10131],[74.47649,22.09709],[74.47804,22.09428],[74.48427,22.09568],[74.49399,22.09988],[74.50292,22.09846],[74.51422,22.09985],[74.51421,22.09424],[74.51459,22.08933],[74.50994,22.08722],[74.50526,22.08092],[74.5006,22.0767],[74.49555,22.07039],[74.49283,22.06337],[74.49672,22.05495],[74.50294,22.0444],[74.48544,22.04443],[74.46757,22.04094],[74.44658,22.03534],[74.43219,22.02903],[74.41432,22.02385],[74.40305,22.02246],[74.39295,22.02177],[74.38479,22.01826],[74.38013,22.00983],[74.37461,22.00026],[74.37363,21.99894],[74.37307,21.99814],[74.37251,21.99734],[74.37196,21.99654],[74.37138,21.99577],[74.37079,21.99501],[74.37017,21.99429],[74.36951,21.9936],[74.36879,21.99297],[74.36799,21.99244],[74.3671,21.99203],[74.36613,21.99168],[74.36515,21.99136],[74.36417,21.99102],[74.36325,21.99064],[74.3624,21.99015],[74.36169,21.98955],[74.36102,21.98887],[74.3604,21.98815],[74.35982,21.9874],[74.35925,21.98662],[74.3587,21.98581],[74.35816,21.985],[74.35764,21.98419],[74.35709,21.98338],[74.35655,21.98258],[74.35598,21.9818],[74.35538,21.98104],[74.35476,21.98032],[74.35409,21.97964],[74.35336,21.97901],[74.3526,21.97841],[74.3518,21.97785],[74.35096,21.97732],[74.3501,21.97681],[74.34923,21.97634],[74.34834,21.97587],[74.34744,21.97542],[74.34656,21.97496],[74.34568,21.97452],[74.34476,21.97414],[74.34381,21.97379],[74.34284,21.97353],[74.34185,21.97335],[74.34086,21.97324],[74.33987,21.97315],[74.33888,21.97306],[74.33787,21.97299],[74.33688,21.97292],[74.33587,21.97285],[74.33488,21.97281],[74.33387,21.97275],[74.33287,21.97269],[74.33186,21.97265],[74.33085,21.9726],[74.32986,21.97256],[74.32885,21.97252],[74.32785,21.97248],[74.32684,21.97242],[74.32584,21.97237],[74.32483,21.97232],[74.32383,21.97227],[74.32282,21.97221],[74.32182,21.97214],[74.32082,21.97207],[74.31982,21.97198],[74.31882,21.9719],[74.31782,21.97182],[74.31681,21.97175],[74.3158,21.97167],[74.31478,21.97158],[74.31377,21.97149],[74.31277,21.97139],[74.31176,21.97127],[74.31077,21.97114],[74.30978,21.97098],[74.3088,21.97079],[74.30783,21.97057],[74.30688,21.97032],[74.30595,21.97003],[74.30501,21.96969],[74.30409,21.9693],[74.30319,21.96887],[74.30229,21.9684],[74.30142,21.96789],[74.30057,21.96736],[74.29975,21.9668],[74.29897,21.96622],[74.29821,21.96563],[74.29752,21.96499],[74.29694,21.96424],[74.29646,21.9634],[74.29602,21.96252],[74.29563,21.96163],[74.29526,21.96076],[74.2949,21.95988],[74.29455,21.95901],[74.29423,21.95811],[74.29391,21.95722],[74.29363,21.95632],[74.29336,21.95541],[74.29311,21.95451],[74.2929,21.95359],[74.29272,21.95268],[74.29256,21.95175],[74.29244,21.95082],[74.29234,21.9499],[74.29225,21.94896],[74.29216,21.94802],[74.29207,21.94709],[74.29197,21.94615],[74.29184,21.94522],[74.2917,21.94429],[74.29151,21.94337],[74.29133,21.94244],[74.29114,21.9415],[74.29092,21.94057],[74.29066,21.93965],[74.29036,21.93876],[74.29,21.9379],[74.28956,21.93709],[74.28901,21.93627],[74.28835,21.93547],[74.2876,21.93478],[74.28674,21.93427],[74.28581,21.93401],[74.28484,21.93384],[74.28387,21.93369],[74.2829,21.93355],[74.28192,21.93341],[74.28094,21.93328],[74.27996,21.93317],[74.27897,21.93306],[74.27797,21.93295],[74.27698,21.93286],[74.27598,21.93277],[74.27499,21.93268],[74.27398,21.9326],[74.27298,21.93252],[74.27197,21.93245],[74.27096,21.93238],[74.26995,21.93231],[74.26894,21.93224],[74.26793,21.93217],[74.26692,21.93211],[74.26591,21.93204],[74.2649,21.93197],[74.26389,21.9319],[74.26287,21.93183],[74.26187,21.93175],[74.26085,21.93167],[74.25985,21.93159],[74.25885,21.9315],[74.25784,21.93141],[74.25684,21.93131],[74.25584,21.9312],[74.25485,21.93109],[74.25385,21.93097],[74.25286,21.93084],[74.25186,21.93069],[74.25087,21.93055],[74.24988,21.9304],[74.24889,21.93025],[74.2479,21.93008],[74.24691,21.92992],[74.24592,21.92975],[74.24493,21.92959],[74.24394,21.92943],[74.24295,21.92927],[74.24196,21.92911],[74.24097,21.92894],[74.23998,21.92879],[74.23899,21.92865],[74.238,21.92851],[74.23701,21.92837],[74.23602,21.92825],[74.23502,21.92813],[74.23402,21.92802],[74.23303,21.92793],[74.23204,21.92789],[74.23103,21.92791],[74.23003,21.92797],[74.22901,21.92805],[74.22801,21.92815],[74.227,21.92824],[74.22599,21.92829],[74.22499,21.92831],[74.22399,21.92828],[74.223,21.92818],[74.22202,21.92803],[74.22103,21.92786],[74.22005,21.92768],[74.21907,21.92748],[74.21808,21.92728],[74.21711,21.92706],[74.21613,21.92684],[74.21515,21.9266],[74.21417,21.92636],[74.21319,21.92612],[74.21222,21.92588],[74.21124,21.92564],[74.21027,21.92541],[74.20928,21.92517],[74.20831,21.92495],[74.20733,21.92474],[74.20636,21.92453],[74.20537,21.92435],[74.20439,21.92417],[74.2034,21.92402],[74.20242,21.92389],[74.20144,21.92377],[74.20045,21.92371],[74.19945,21.92371],[74.19845,21.92375],[74.19745,21.92383],[74.19644,21.92396],[74.19543,21.92411],[74.19442,21.92427],[74.19344,21.92446],[74.19245,21.92464],[74.19146,21.92483],[74.19047,21.92502],[74.18947,21.92522],[74.18847,21.92542],[74.18747,21.92565],[74.18647,21.92591],[74.18552,21.92621],[74.18459,21.92655],[74.1837,21.92696],[74.18286,21.92742],[74.18206,21.92796],[74.18131,21.92854],[74.18057,21.92916],[74.17986,21.92983],[74.17917,21.93052],[74.1785,21.93124],[74.17784,21.93197],[74.17719,21.93271],[74.17656,21.93346],[74.17592,21.9342],[74.17528,21.93493],[74.17469,21.93567],[74.17413,21.93646],[74.17361,21.93727],[74.1731,21.93809],[74.17257,21.93888],[74.172,21.93965],[74.17137,21.94038],[74.17069,21.94105],[74.16995,21.9417],[74.16918,21.94231],[74.16837,21.94288],[74.16753,21.94341],[74.16669,21.94391],[74.16583,21.9444],[74.16497,21.94488],[74.16412,21.94537],[74.16326,21.94585],[74.16239,21.94634],[74.16152,21.94681],[74.16064,21.94727],[74.15976,21.94773],[74.15889,21.94819],[74.158,21.94863],[74.15711,21.94908],[74.15622,21.94951],[74.15532,21.94993],[74.15443,21.95035],[74.15353,21.95075],[74.15261,21.95114],[74.15166,21.95145],[74.15069,21.95169],[74.1497,21.9519],[74.14871,21.95206],[74.14772,21.9522],[74.14672,21.95231],[74.14572,21.95236],[74.14472,21.95238],[74.14371,21.95239],[74.1427,21.95239],[74.14169,21.95241],[74.14035,21.95493],[74.14459,21.95906],[74.14102,21.96296],[74.13905,21.96823],[74.13934,21.97057],[74.14131,21.97234],[74.14892,21.9739],[74.14757,21.97923],[74.14957,21.98475],[74.14533,21.98713],[74.13768,21.98957],[74.1234,21.99212],[74.11251,21.997],[74.10381,21.99674],[74.10058,21.99733],[74.09593,21.99998],[74.09605,22.00894],[74.0933,22.01384],[74.09678,22.01666],[74.10454,22.02018],[74.11231,22.023],[74.11656,22.02862],[74.12082,22.03424],[74.1278,22.03707],[74.13674,22.03918],[74.141,22.04199],[74.13982,22.04621],[74.13516,22.04901],[74.13359,22.05182],[74.14485,22.05463],[74.15029,22.05605],[74.15884,22.05886],[74.15921,22.06238],[74.15765,22.0694],[74.16074,22.07221],[74.1619,22.07642],[74.16344,22.08064],[74.16655,22.08275],[74.17238,22.08276],[74.17665,22.08487],[74.1747,22.08837],[74.17119,22.08977],[74.16808,22.09187],[74.17002,22.09468],[74.16806,22.09679],[74.16611,22.0996],[74.16144,22.101],[74.15794,22.10099],[74.15444,22.10028],[74.15209,22.10238],[74.15054,22.10379],[74.14587,22.10238],[74.13966,22.09956],[74.13383,22.09675],[74.1284,22.09463],[74.12605,22.09603],[74.12488,22.10165],[74.12486,22.10656],[74.12601,22.11218],[74.12716,22.1185],[74.12713,22.12271],[74.12363,22.12552],[74.12244,22.13043],[74.12321,22.13605],[74.12552,22.14096],[74.1294,22.14448],[74.129,22.15151],[74.12937,22.15642],[74.13091,22.15993],[74.12779,22.16273],[74.12234,22.16483],[74.12076,22.17045],[74.11996,22.17606],[74.11878,22.18028],[74.11798,22.18589],[74.11953,22.19081],[74.11834,22.19642],[74.11716,22.20344],[74.1183,22.20696],[74.11868,22.21117],[74.11516,22.21468],[74.10972,22.21747],[74.10347,22.21887],[74.09763,22.21886],[74.09023,22.21955],[74.08323,22.21883],[74.07739,22.21882],[74.07154,22.22021],[74.06917,22.22794],[74.07033,22.23286],[74.07421,22.23567],[74.08044,22.23638],[74.08511,22.2385],[74.08743,22.24201],[74.08507,22.24552],[74.08118,22.24622],[74.07649,22.24831],[74.07454,22.25111],[74.0757,22.25673],[74.07528,22.26166],[74.0741,22.26656],[74.06826,22.26725],[74.06474,22.27076],[74.06044,22.27427],[74.0573,22.27917],[74.05495,22.28408],[74.0557,22.289],[74.05414,22.29181],[74.05372,22.29813],[74.05488,22.30374],[74.05838,22.30516],[74.06228,22.30376],[74.06264,22.30938],[74.06261,22.3157],[74.06415,22.32413],[74.06414,22.32904],[74.06996,22.33468],[74.07188,22.33959],[74.07031,22.34451],[74.06757,22.3473],[74.06677,22.35292],[74.06792,22.35855],[74.07298,22.36066],[74.07961,22.36067],[74.08585,22.36068],[74.0913,22.36069],[74.09439,22.36702],[74.09594,22.37123],[74.1014,22.37124],[74.10802,22.36985],[74.11115,22.36564],[74.11235,22.35933],[74.11314,22.35581],[74.12055,22.35653],[74.12524,22.35092],[74.12643,22.34178],[74.12763,22.33618],[74.13037,22.33055],[74.13973,22.32847],[74.15025,22.32707],[74.16,22.32498],[74.17209,22.32289],[74.18028,22.32079],[74.18729,22.3201],[74.19196,22.32361],[74.1927,22.33204],[74.19113,22.34187],[74.19112,22.34749],[74.19384,22.34889],[74.19424,22.34608],[74.19464,22.34117],[74.19853,22.34118],[74.20164,22.34609],[74.20241,22.35171],[74.202,22.35804],[74.20238,22.36154],[74.20315,22.36576],[74.20627,22.36435],[74.20746,22.36084],[74.20979,22.35734],[74.21292,22.35593],[74.21994,22.35594],[74.22344,22.35665],[74.22303,22.36296],[74.2238,22.36718],[74.22379,22.37069],[74.22223,22.3735],[74.22183,22.37631],[74.22728,22.37771],[74.23158,22.37631],[74.23665,22.37491],[74.2421,22.37562],[74.24248,22.38124],[74.24599,22.38124],[74.2495,22.38194],[74.25262,22.38406],[74.25339,22.38826],[74.25376,22.39318],[74.25452,22.3981],[74.26,22.3946],[74.26507,22.39248],[74.27053,22.39109],[74.27794,22.39179],[74.28379,22.39109],[74.28768,22.38968],[74.2908,22.3925],[74.28494,22.39601],[74.27831,22.39811],[74.2748,22.40092],[74.27129,22.40162],[74.26778,22.40302],[74.26659,22.40864],[74.26658,22.41286],[74.26307,22.41637],[74.26071,22.42268],[74.25602,22.4269],[74.25056,22.43111],[74.24315,22.43461],[74.23377,22.43741],[74.2248,22.43811],[74.22012,22.4381],[74.217,22.44021],[74.21505,22.44091],[74.2131,22.4374],[74.21272,22.43249],[74.20804,22.43247],[74.20103,22.43528],[74.20102,22.43879],[74.20099,22.44511],[74.20137,22.45284],[74.20095,22.45916],[74.20095,22.46478],[74.19898,22.4704],[74.19429,22.4732],[74.18726,22.476],[74.18182,22.46757],[74.1791,22.46265],[74.17872,22.45843],[74.18068,22.45422],[74.18265,22.45071],[74.18382,22.4458],[74.18306,22.44228],[74.17917,22.44088],[74.16902,22.44016],[74.16786,22.43594],[74.1671,22.43174],[74.16359,22.43033],[74.15735,22.43032],[74.15501,22.43312],[74.15226,22.43803],[74.15224,22.44366],[74.15301,22.44857],[74.15259,22.45489],[74.14752,22.45488],[74.14051,22.45488],[74.13701,22.45206],[74.13352,22.44644],[74.1304,22.44082],[74.12731,22.43449],[74.12694,22.42817],[74.12657,22.42325],[74.12658,22.41974],[74.12307,22.41833],[74.11917,22.41902],[74.11252,22.42463],[74.10665,22.42743],[74.10118,22.43164],[74.09883,22.43796],[74.09685,22.44357],[74.0984,22.44919],[74.10189,22.45411],[74.10226,22.46043],[74.0995,22.46605],[74.09638,22.46745],[74.09131,22.46744],[74.08663,22.46744],[74.08195,22.46532],[74.07416,22.4639],[74.07452,22.47163],[74.07488,22.47935],[74.07643,22.48427],[74.07955,22.48287],[74.08152,22.48007],[74.08503,22.47797],[74.08658,22.48078],[74.08579,22.4871],[74.08342,22.49201],[74.08184,22.49693],[74.08261,22.50325],[74.08142,22.50675],[74.07751,22.50675],[74.07479,22.50745],[74.0701,22.50885],[74.0658,22.50813],[74.06112,22.50883],[74.058,22.50952],[74.05487,22.50881],[74.05216,22.50389],[74.05062,22.49967],[74.04595,22.49825],[74.04244,22.49544],[74.04168,22.49123],[74.03895,22.48912],[74.03309,22.48981],[74.03191,22.49471],[74.0311,22.50103],[74.03069,22.50666],[74.03496,22.51229],[74.03962,22.5151],[74.03921,22.52213],[74.03684,22.52844],[74.03838,22.53547],[74.0407,22.54039],[74.04615,22.54391],[74.05238,22.54603],[74.06292,22.54914],[74.07424,22.54986],[74.0805,22.54777],[74.0895,22.54286],[74.09693,22.53937],[74.10201,22.53586],[74.10591,22.53657],[74.10981,22.53939],[74.11488,22.53799],[74.11841,22.53379],[74.12116,22.52817],[74.12391,22.52255],[74.12627,22.51975],[74.12978,22.51695],[74.13486,22.51835],[74.13954,22.51696],[74.14423,22.51626],[74.14969,22.51556],[74.1532,22.51908],[74.15435,22.5247],[74.15394,22.53033],[74.15511,22.53243],[74.15939,22.53525],[74.16445,22.53947],[74.16913,22.54298],[74.17536,22.5465],[74.18083,22.54791],[74.18824,22.55144],[74.19173,22.55495],[74.19212,22.55846],[74.19172,22.56057],[74.18663,22.56548],[74.196,22.5683],[74.1999,22.56619],[74.20616,22.5648],[74.21045,22.5655],[74.21315,22.57604],[74.2151,22.57955],[74.21939,22.57956],[74.22289,22.58307],[74.22406,22.58869],[74.22678,22.59502],[74.23105,22.60485],[74.23338,22.61188],[74.24041,22.61188],[74.2443,22.6154],[74.24664,22.62102],[74.25055,22.62102],[74.25445,22.62243],[74.25523,22.62453],[74.25326,22.62875],[74.25324,22.63366],[74.25598,22.63437],[74.2591,22.63648],[74.26027,22.6407],[74.26222,22.6428],[74.26612,22.6414],[74.26848,22.63929],[74.27043,22.63859],[74.2716,22.6407],[74.2751,22.64561],[74.28683,22.64141],[74.29153,22.6393],[74.29582,22.6386],[74.30129,22.6379],[74.30638,22.6372],[74.31028,22.63649],[74.31419,22.63439],[74.31926,22.63439],[74.32239,22.6365],[74.32356,22.64001],[74.32511,22.64211],[74.32785,22.64141],[74.33137,22.6393],[74.33411,22.6386],[74.34114,22.64001],[74.34934,22.6372],[74.36107,22.63438],[74.37005,22.63439],[74.3779,22.6364]]]}}]}