{"type":"FeatureCollection","features":[{"type":"Feature","properties":{"id":"anuppur","name":"Anuppur","stateId":"madhya-pradesh","stateName":"Madhya Pradesh","censuscode":461,"type":"district"},"geometry":{"type":"Polygon","coordinates":[[[81.19785,23.28945],[81.20297,23.27852],[81.23023,23.25585],[81.23201,23.24692],[81.22555,23.23537],[81.23833,23.21804],[81.25219,23.21385],[81.25733,23.2088],[81.26493,23.19901],[81.26943,23.18813],[81.2763,23.18363],[81.28745,23.18371],[81.29848,23.17705],[81.29887,23.16867],[81.30035,23.16241],[81.30206,23.16104],[81.30793,23.15977],[81.31233,23.15767],[81.30505,23.15322],[81.30837,23.15199],[81.33034,23.14929],[81.33274,23.14722],[81.32458,23.13281],[81.32517,23.13079],[81.32416,23.12438],[81.31987,23.11654],[81.31842,23.11018],[81.31966,23.10293],[81.32399,23.10042],[81.3297,23.09989],[81.33594,23.09931],[81.34957,23.09695],[81.35775,23.0942],[81.36897,23.08922],[81.37576,23.08383],[81.3768,23.08081],[81.37725,23.07553],[81.37926,23.07114],[81.38564,23.06411],[81.39114,23.06144],[81.4051,23.06107],[81.41568,23.06079],[81.43075,23.058],[81.44157,23.0569],[81.45287,23.06026],[81.46753,23.06463],[81.47533,23.0658],[81.49174,23.06726],[81.4991,23.06945],[81.50549,23.07253],[81.51479,23.08007],[81.52007,23.08141],[81.52274,23.07875],[81.52877,23.07643],[81.53763,23.075],[81.5405,23.07305],[81.54747,23.06544],[81.5518,23.06188],[81.55119,23.05912],[81.54941,23.05911],[81.54082,23.06217],[81.53916,23.05807],[81.53309,23.05353],[81.52891,23.05173],[81.53037,23.04826],[81.53287,23.0463],[81.54228,23.04367],[81.54926,23.04172],[81.55077,23.03871],[81.54925,23.03437],[81.54504,23.02775],[81.54838,23.02475],[81.55695,23.02127],[81.56366,23.02616],[81.57634,23.0333],[81.5817,23.03491],[81.59483,23.03677],[81.60724,23.0361],[81.60943,23.03718],[81.60958,23.04343],[81.61187,23.05151],[81.61215,23.05615],[81.61717,23.0631],[81.61518,23.06928],[81.61179,23.07162],[81.60442,23.06973],[81.59826,23.06995],[81.59294,23.07129],[81.58449,23.07654],[81.57742,23.08314],[81.5634,23.08538],[81.55392,23.08947],[81.55244,23.09155],[81.55136,23.10439],[81.54597,23.11132],[81.5405,23.11453],[81.53854,23.11747],[81.54208,23.12345],[81.54455,23.12545],[81.54998,23.12503],[81.55499,23.12352],[81.55826,23.12617],[81.56447,23.13397],[81.56444,23.13683],[81.55922,23.14672],[81.56032,23.14859],[81.56917,23.14892],[81.58254,23.15864],[81.59728,23.17033],[81.59732,23.17243],[81.59339,23.17745],[81.59256,23.17988],[81.59493,23.18427],[81.60209,23.19278],[81.59763,23.19541],[81.59609,23.19859],[81.5882,23.20561],[81.57313,23.2083],[81.56994,23.2099],[81.56965,23.21281],[81.5728,23.21574],[81.57682,23.21771],[81.58081,23.21822],[81.5868,23.22415],[81.59115,23.22647],[81.59639,23.22588],[81.60291,23.22386],[81.61016,23.22416],[81.61402,23.22484],[81.6282,23.22976],[81.63169,23.22973],[81.6346,23.22784],[81.63284,23.22288],[81.62956,23.21976],[81.61761,23.21144],[81.61382,23.20372],[81.6139,23.19686],[81.61955,23.19482],[81.63475,23.19835],[81.63988,23.19736],[81.64642,23.19423],[81.6503,23.19386],[81.65553,23.19496],[81.65894,23.1972],[81.66462,23.20472],[81.66966,23.21139],[81.67326,23.21317],[81.68853,23.20917],[81.70166,23.20507],[81.70797,23.2056],[81.71987,23.20321],[81.72912,23.20865],[81.73941,23.21056],[81.74387,23.21415],[81.75321,23.21197],[81.75813,23.21364],[81.75972,23.21611],[81.76333,23.22306],[81.76772,23.23153],[81.76794,23.23491],[81.76615,23.23821],[81.76566,23.24175],[81.76818,23.2455],[81.77178,23.24727],[81.78291,23.2515],[81.78901,23.25924],[81.79569,23.25994],[81.81329,23.25725],[81.82854,23.25704],[81.84185,23.25251],[81.85413,23.24685],[81.8717,23.23876],[81.87815,23.23793],[81.8832,23.23874],[81.88195,23.2439],[81.88066,23.24668],[81.87476,23.2546],[81.87903,23.25777],[81.8773,23.26195],[81.86851,23.26989],[81.86419,23.27625],[81.86185,23.27798],[81.85639,23.28003],[81.84299,23.29188],[81.8357,23.30014],[81.83101,23.30004],[81.82195,23.2953],[81.81982,23.30028],[81.82035,23.30721],[81.82491,23.30836],[81.83646,23.30864],[81.85172,23.31895],[81.85535,23.31856],[81.86236,23.31287],[81.87236,23.29737],[81.87637,23.29729],[81.88489,23.30678],[81.893,23.32215],[81.90298,23.33514],[81.91111,23.34044],[81.93369,23.3501],[81.93381,23.35523],[81.93145,23.36445],[81.9367,23.38049],[81.94314,23.3863],[81.94652,23.38191],[81.9633,23.36872],[81.96737,23.368],[81.97028,23.37058],[81.97331,23.3784],[81.97715,23.39216],[81.9793,23.39567],[81.97934,23.39863],[81.97731,23.40047],[81.97431,23.40074],[81.97525,23.40499],[81.9812,23.41649],[81.98349,23.41446],[81.98369,23.41201],[81.98647,23.41043],[81.995,23.41842],[81.9995,23.41819],[82.00303,23.41451],[82.00712,23.41173],[82.01737,23.41945],[82.02356,23.42244],[82.02601,23.42004],[82.03084,23.40913],[82.02495,23.407],[82.02511,23.40447],[82.0275,23.39988],[82.02479,23.39534],[82.02186,23.39247],[82.02122,23.38923],[82.02211,23.38688],[82.02797,23.38328],[82.03081,23.38274],[82.03319,23.38491],[82.03701,23.38653],[82.04042,23.38438],[82.04464,23.37855],[82.05331,23.37688],[82.05682,23.37774],[82.06032,23.38414],[82.06155,23.38948],[82.06436,23.39253],[82.07067,23.39146],[82.07688,23.39403],[82.08754,23.3962],[82.09125,23.39579],[82.09271,23.39233],[82.10247,23.39756],[82.10607,23.39673],[82.10635,23.39372],[82.10838,23.38982],[82.11171,23.38586],[82.11274,23.38189],[82.11304,23.36835],[82.11208,23.36226],[82.11548,23.35756],[82.11848,23.35494],[82.12203,23.35314],[82.12603,23.35359],[82.13664,23.36014],[82.14008,23.36128],[82.1454,23.36094],[82.15038,23.35354],[82.15279,23.34836],[82.15888,23.34473],[82.16115,23.34163],[82.1631,23.33465],[82.16565,23.33249],[82.16764,23.33135],[82.1866,23.32625],[82.19186,23.32609],[82.19342,23.3246],[82.19507,23.32144],[82.19755,23.31076],[82.19641,23.30797],[82.19746,23.30272],[82.19635,23.29761],[82.19455,23.29423],[82.19454,23.28949],[82.19701,23.28385],[82.19395,23.27693],[82.19175,23.27453],[82.1816,23.27175],[82.17737,23.26945],[82.17568,23.2667],[82.17409,23.26067],[82.1674,23.2522],[82.16708,23.24844],[82.16126,23.24525],[82.15453,23.23122],[82.15001,23.227],[82.15045,23.22168],[82.15389,23.21316],[82.15419,23.20877],[82.1481,23.19741],[82.14771,23.18971],[82.1452,23.18748],[82.14452,23.18216],[82.14498,23.17956],[82.14846,23.17786],[82.14924,23.17411],[82.14543,23.16771],[82.14485,23.16435],[82.14764,23.16311],[82.15246,23.16252],[82.1589,23.15995],[82.16127,23.15743],[82.16158,23.15055],[82.15857,23.14116],[82.14028,23.13104],[82.13848,23.12837],[82.13713,23.1245],[82.13674,23.11347],[82.13575,23.11156],[82.12688,23.10691],[82.12338,23.10324],[82.11703,23.10493],[82.10915,23.10793],[82.09341,23.10865],[82.08668,23.11149],[82.08301,23.11154],[82.07939,23.11299],[82.07662,23.11427],[82.07464,23.11621],[82.06888,23.11532],[82.05517,23.10274],[82.05318,23.0985],[82.04702,23.0909],[82.03574,23.08105],[82.03158,23.07951],[82.02365,23.07871],[82.02028,23.07868],[82.0177,23.08],[82.00967,23.07778],[82.00429,23.07968],[82.00004,23.08424],[81.99798,23.08402],[81.99294,23.08548],[81.98966,23.0856],[81.98745,23.08489],[81.98239,23.0811],[81.97964,23.08075],[81.97679,23.07871],[81.97255,23.0797],[81.96876,23.07951],[81.96011,23.07578],[81.94558,23.07712],[81.94498,23.0759],[81.94535,23.06893],[81.94249,23.06618],[81.93358,23.06154],[81.93143,23.05763],[81.92887,23.0468],[81.9259,23.04033],[81.92689,23.03604],[81.93345,23.02791],[81.93452,23.02541],[81.93427,23.02176],[81.93976,23.01681],[81.94469,23.0089],[81.94447,23.00272],[81.946,23.00023],[81.94592,22.99109],[81.94866,22.9844],[81.94987,22.97474],[81.95001,22.96401],[81.9477,22.95658],[81.94071,22.95425],[81.93544,22.95368],[81.93091,22.95066],[81.92132,22.94769],[81.91312,22.93993],[81.90891,22.93254],[81.90234,22.92765],[81.89398,22.92465],[81.88772,22.91934],[81.88204,22.9128],[81.87793,22.91132],[81.86745,22.91446],[81.86939,22.90409],[81.86854,22.89345],[81.86376,22.89036],[81.84302,22.88596],[81.83885,22.88245],[81.83388,22.88175],[81.82809,22.88234],[81.80325,22.8797],[81.79334,22.87653],[81.77682,22.87295],[81.77747,22.85989],[81.77673,22.85064],[81.77225,22.84018],[81.76826,22.83383],[81.769,22.82883],[81.78039,22.80869],[81.7833,22.79969],[81.78181,22.78517],[81.78868,22.7743],[81.79169,22.76623],[81.78553,22.75766],[81.77135,22.74638],[81.77017,22.74113],[81.76989,22.73493],[81.75651,22.73278],[81.75399,22.72611],[81.75572,22.71917],[81.7633,22.69733],[81.77026,22.68506],[81.77335,22.67583],[81.77242,22.66879],[81.77012,22.66332],[81.75629,22.64583],[81.7479,22.6478],[81.7467,22.6611],[81.7443,22.66875],[81.73751,22.67296],[81.73031,22.67589],[81.73921,22.68877],[81.73086,22.69724],[81.70165,22.70558],[81.69437,22.71303],[81.69819,22.71985],[81.70049,22.72798],[81.70405,22.73446],[81.70334,22.73812],[81.7039,22.74565],[81.69924,22.75184],[81.69674,22.75751],[81.69293,22.7631],[81.69227,22.7786],[81.68524,22.78141],[81.6635,22.7832],[81.65521,22.78488],[81.64598,22.78363],[81.63785,22.78165],[81.6326,22.77909],[81.62753,22.77392],[81.61125,22.76684],[81.60426,22.76118],[81.59707,22.7575],[81.58813,22.75762],[81.58276,22.75524],[81.56749,22.75613],[81.55875,22.76007],[81.5515,22.75877],[81.54602,22.7539],[81.52989,22.75023],[81.52258,22.75414],[81.52104,22.7595],[81.51525,22.76026],[81.50947,22.76384],[81.50412,22.76164],[81.48766,22.75988],[81.48331,22.75851],[81.47616,22.759],[81.46881,22.76413],[81.46314,22.76998],[81.45685,22.7723],[81.45171,22.77925],[81.44761,22.78872],[81.45094,22.79428],[81.44551,22.79665],[81.43915,22.80465],[81.4382,22.81175],[81.43897,22.82066],[81.4329,22.83063],[81.42656,22.83679],[81.40976,22.84459],[81.40631,22.85051],[81.37936,22.85473],[81.36076,22.849],[81.34812,22.85509],[81.3254,22.86097],[81.31659,22.87348],[81.30132,22.87805],[81.29179,22.8773],[81.28001,22.87804],[81.27084,22.88522],[81.263,22.89394],[81.25716,22.89829],[81.2361,22.90144],[81.23296,22.90469],[81.22647,22.90719],[81.21946,22.91195],[81.2113,22.91151],[81.20372,22.90933],[81.19904,22.91324],[81.19256,22.92802],[81.19278,22.93533],[81.19184,22.94102],[81.18872,22.95077],[81.19404,22.96528],[81.202,22.983],[81.20451,23.00062],[81.21047,23.01597],[81.21598,23.01852],[81.22092,23.02222],[81.22358,23.02473],[81.22716,23.03039],[81.23116,23.05242],[81.23841,23.05181],[81.23858,23.05455],[81.23426,23.05583],[81.23155,23.05777],[81.2349,23.05973],[81.24082,23.0605],[81.24393,23.05705],[81.24951,23.05515],[81.25291,23.05233],[81.25522,23.05294],[81.25612,23.05947],[81.25766,23.06106],[81.26232,23.06239],[81.25852,23.06647],[81.26118,23.06755],[81.26364,23.06967],[81.26168,23.07174],[81.25666,23.0736],[81.25638,23.08244],[81.25163,23.0911],[81.25115,23.09353],[81.25205,23.09563],[81.25113,23.09824],[81.24964,23.09833],[81.24642,23.10039],[81.24339,23.10628],[81.24286,23.10889],[81.24127,23.11038],[81.23809,23.11017],[81.23209,23.10828],[81.22871,23.10935],[81.22556,23.11402],[81.21796,23.11457],[81.21551,23.1154],[81.2138,23.1173],[81.21274,23.12065],[81.21218,23.12728],[81.21491,23.13807],[81.21157,23.14053],[81.20996,23.13957],[81.20864,23.13717],[81.20567,23.12859],[81.20266,23.12651],[81.19815,23.12768],[81.19493,23.12984],[81.19346,23.13209],[81.19333,23.13558],[81.19635,23.1476],[81.19285,23.15116],[81.1887,23.15006],[81.18278,23.14975],[81.18197,23.15318],[81.18408,23.15716],[81.19153,23.16178],[81.19245,23.16586],[81.19037,23.16753],[81.18735,23.16807],[81.17944,23.16814],[81.17583,23.16763],[81.16673,23.16425],[81.16111,23.16517],[81.1591,23.16841],[81.1611,23.17175],[81.1635,23.17329],[81.16374,23.1773],[81.16041,23.17843],[81.15158,23.17745],[81.14558,23.17795],[81.1399,23.19435],[81.13268,23.20002],[81.12852,23.20503],[81.1261,23.21257],[81.12493,23.21621],[81.1285,23.22091],[81.13456,23.22888],[81.13529,23.22983],[81.1378,23.23509],[81.13916,23.24231],[81.13921,23.24519],[81.13978,23.26185],[81.13984,23.26651],[81.13984,23.26651],[81.14054,23.27514],[81.14005,23.28328],[81.13872,23.30517],[81.13824,23.31304],[81.13782,23.31994],[81.13802,23.31996],[81.1396,23.32013],[81.14206,23.32039],[81.16173,23.31822],[81.16193,23.31906],[81.16335,23.32485],[81.16503,23.3317],[81.16954,23.33089],[81.17007,23.3306],[81.1731,23.32892],[81.1797,23.32526],[81.17986,23.32392],[81.18066,23.31701],[81.17942,23.31324],[81.17907,23.31217],[81.1742,23.30872],[81.17019,23.30589],[81.16817,23.30342],[81.16816,23.30328],[81.16814,23.30305],[81.16766,23.29806],[81.17159,23.29462],[81.17238,23.29446],[81.17459,23.29402],[81.18082,23.288],[81.1825,23.287],[81.18513,23.28544],[81.19065,23.28703],[81.19346,23.28951],[81.19359,23.28962],[81.19785,23.28945]]]}}]}