{"type":"FeatureCollection","features":[{"type":"Feature","properties":{"id":"ashoknagar","name":"Ashoknagar","stateId":"madhya-pradesh","stateName":"Madhya Pradesh","censuscode":459,"type":"district"},"geometry":{"type":"Polygon","coordinates":[[[78.17164,24.84328],[78.17633,24.8416],[78.1799,24.84131],[78.19323,24.83792],[78.1979,24.83479],[78.20034,24.82669],[78.2022,24.82373],[78.21529,24.80821],[78.22469,24.78708],[78.23019,24.77817],[78.23214,24.77174],[78.23148,24.76156],[78.23058,24.7592],[78.22615,24.75337],[78.22517,24.74898],[78.22668,24.74256],[78.23259,24.73145],[78.24283,24.71985],[78.25706,24.70079],[78.25909,24.69616],[78.26088,24.68772],[78.26327,24.68117],[78.27427,24.66484],[78.27474,24.66236],[78.27415,24.65877],[78.2646,24.6481],[78.26293,24.64389],[78.26471,24.63308],[78.26962,24.6234],[78.27376,24.6172],[78.27608,24.61066],[78.27561,24.60032],[78.27428,24.59228],[78.26993,24.57403],[78.26652,24.56455],[78.26504,24.55352],[78.26149,24.54763],[78.25225,24.54402],[78.24266,24.54166],[78.2303,24.53667],[78.2245,24.53102],[78.22264,24.52698],[78.22582,24.51812],[78.23427,24.5118],[78.24417,24.50704],[78.24627,24.50494],[78.24761,24.50021],[78.24379,24.49155],[78.244,24.48895],[78.24572,24.48483],[78.25232,24.48209],[78.26069,24.48121],[78.26935,24.47846],[78.27295,24.47539],[78.27573,24.47157],[78.27577,24.4685],[78.26639,24.45541],[78.26684,24.44934],[78.26498,24.44249],[78.26313,24.43891],[78.25613,24.43233],[78.24514,24.4266],[78.22364,24.41845],[78.21547,24.41229],[78.20985,24.40635],[78.20289,24.40318],[78.18566,24.39757],[78.17596,24.39546],[78.16816,24.39543],[78.16072,24.38827],[78.15993,24.38312],[78.161,24.37722],[78.15975,24.36889],[78.14866,24.35705],[78.13238,24.34377],[78.1281,24.33933],[78.11818,24.33357],[78.11092,24.33045],[78.10294,24.32434],[78.09272,24.3191],[78.08817,24.31119],[78.08489,24.29959],[78.08491,24.29485],[78.08643,24.28949],[78.09375,24.27547],[78.09644,24.26716],[78.09719,24.26109],[78.09336,24.25743],[78.08682,24.25765],[78.07239,24.25627],[78.06952,24.25701],[78.06623,24.25885],[78.05365,24.27075],[78.05032,24.27552],[78.04701,24.28409],[78.03551,24.28911],[78.03032,24.28893],[78.02476,24.28078],[78.02031,24.26386],[78.01858,24.25401],[78.01633,24.24652],[78.01442,24.24313],[78.00778,24.23854],[78.00557,24.23788],[78.00038,24.23872],[77.99725,24.23848],[77.99528,24.23891],[77.99046,24.24198],[77.98444,24.24313],[77.98163,24.24559],[77.97804,24.24722],[77.97372,24.24661],[77.96617,24.24786],[77.95978,24.24004],[77.95345,24.23458],[77.94755,24.23164],[77.94213,24.23123],[77.9401,24.23312],[77.93799,24.24642],[77.93553,24.25122],[77.93196,24.25341],[77.92907,24.2544],[77.93001,24.26188],[77.92914,24.2654],[77.92716,24.26837],[77.92521,24.26948],[77.91783,24.2702],[77.90699,24.27017],[77.90261,24.27108],[77.88801,24.27741],[77.88599,24.27962],[77.88836,24.28813],[77.89236,24.29229],[77.89577,24.29781],[77.89737,24.30348],[77.89515,24.31351],[77.8915,24.31505],[77.87982,24.31764],[77.84554,24.3121],[77.84131,24.31315],[77.83478,24.3128],[77.82214,24.30917],[77.81975,24.30323],[77.81317,24.30843],[77.80876,24.3097],[77.79905,24.31091],[77.79086,24.31611],[77.78682,24.31772],[77.78252,24.31487],[77.77876,24.30697],[77.7759,24.30415],[77.7716,24.30288],[77.76687,24.3034],[77.76059,24.3068],[77.755,24.30853],[77.73851,24.30518],[77.73403,24.30512],[77.72021,24.30252],[77.7158,24.30235],[77.70902,24.30402],[77.70497,24.30419],[77.69726,24.30245],[77.69526,24.30314],[77.69359,24.30608],[77.6865,24.30855],[77.67524,24.31051],[77.66473,24.31131],[77.64899,24.3151],[77.65249,24.32426],[77.64782,24.32679],[77.64086,24.32511],[77.6342,24.32442],[77.62772,24.32648],[77.62014,24.33184],[77.61672,24.33725],[77.6166,24.34123],[77.61985,24.34785],[77.62197,24.35051],[77.62508,24.35247],[77.63816,24.35456],[77.64295,24.35652],[77.65441,24.36299],[77.66655,24.36461],[77.6731,24.37199],[77.67155,24.37378],[77.67317,24.37649],[77.68894,24.38918],[77.69405,24.39166],[77.69953,24.39115],[77.70817,24.38533],[77.71197,24.38505],[77.71851,24.38626],[77.72168,24.38805],[77.72132,24.39047],[77.72301,24.39675],[77.72557,24.40113],[77.72996,24.41507],[77.73502,24.42505],[77.73584,24.42891],[77.7316,24.42718],[77.72611,24.42188],[77.72443,24.42136],[77.7136,24.42596],[77.7103,24.42619],[77.70837,24.42453],[77.70873,24.41962],[77.70567,24.41017],[77.70112,24.40573],[77.6945,24.40255],[77.6897,24.40129],[77.6818,24.40058],[77.65572,24.40293],[77.65279,24.40725],[77.65218,24.41088],[77.65468,24.42039],[77.64808,24.41906],[77.64222,24.42291],[77.638,24.42706],[77.63445,24.42769],[77.63289,24.42215],[77.63015,24.42054],[77.6246,24.41967],[77.62229,24.41719],[77.6168,24.40502],[77.60595,24.39447],[77.60214,24.3812],[77.59984,24.37821],[77.59604,24.37543],[77.59137,24.3741],[77.59087,24.3764],[77.59143,24.37928],[77.58951,24.38084],[77.58322,24.38118],[77.57257,24.38451],[77.55777,24.3933],[77.55004,24.39351],[77.54406,24.39564],[77.5379,24.39655],[77.53622,24.40363],[77.52533,24.40177],[77.51181,24.404],[77.50758,24.40595],[77.50254,24.41573],[77.50179,24.41989],[77.50335,24.42606],[77.49656,24.42806],[77.48902,24.42902],[77.47645,24.43274],[77.47527,24.4483],[77.47595,24.46449],[77.47744,24.46606],[77.49407,24.46482],[77.49762,24.46569],[77.49787,24.46904],[77.49258,24.47906],[77.49177,24.48262],[77.49233,24.48614],[77.49557,24.49341],[77.48996,24.49651],[77.48978,24.50049],[77.49102,24.50919],[77.48884,24.51172],[77.48723,24.51662],[77.48928,24.5221],[77.49052,24.55074],[77.49159,24.55767],[77.48841,24.56457],[77.48492,24.56762],[77.48579,24.57096],[77.48529,24.57615],[77.48379,24.58047],[77.47875,24.58444],[77.47581,24.58789],[77.47537,24.59337],[77.48143,24.62288],[77.48211,24.63216],[77.48454,24.63551],[77.48803,24.63742],[77.49109,24.6433],[77.48941,24.64965],[77.49321,24.65692],[77.50021,24.66575],[77.50894,24.67481],[77.51275,24.67793],[77.52125,24.67962],[77.53086,24.68909],[77.53454,24.69595],[77.53698,24.70559],[77.53867,24.70835],[77.55297,24.72215],[77.55348,24.72722],[77.55216,24.73373],[77.55466,24.73645],[77.55073,24.74336],[77.55179,24.74901],[77.54962,24.75541],[77.55411,24.75968],[77.55218,24.76475],[77.544,24.77396],[77.54232,24.77914],[77.54008,24.78265],[77.52895,24.78713],[77.52633,24.78914],[77.52471,24.79236],[77.52165,24.80498],[77.52135,24.8191],[77.52003,24.82653],[77.52066,24.83115],[77.5226,24.83565],[77.53004,24.84396],[77.54768,24.85782],[77.55993,24.86563],[77.56218,24.86759],[77.56293,24.87105],[77.56958,24.87457],[77.57535,24.88012],[77.57886,24.88495],[77.58411,24.88628],[77.58712,24.8886],[77.58129,24.89055],[77.57685,24.88835],[77.57385,24.888],[77.56178,24.89387],[77.54889,24.89587],[77.54426,24.90128],[77.54263,24.9052],[77.5425,24.91119],[77.54369,24.91477],[77.55009,24.9244],[77.5529,24.93045],[77.55665,24.93454],[77.57162,24.94522],[77.57469,24.95254],[77.58228,24.96078],[77.58816,24.96275],[77.59229,24.96021],[77.59736,24.9544],[77.59705,24.95123],[77.59536,24.94956],[77.59397,24.94431],[77.59353,24.93797],[77.59214,24.93301],[77.59258,24.92587],[77.5999,24.92443],[77.60661,24.92876],[77.61042,24.92732],[77.61154,24.9223],[77.61505,24.91989],[77.61685,24.91678],[77.61799,24.91263],[77.6206,24.90837],[77.62723,24.90238],[77.63186,24.90267],[77.63561,24.89944],[77.64605,24.89311],[77.64905,24.89029],[77.65261,24.88988],[77.65523,24.88343],[77.66693,24.87715],[77.67316,24.86529],[77.67753,24.86293],[77.68116,24.86189],[77.68697,24.85843],[77.69235,24.85843],[77.69785,24.8551],[77.70622,24.85204],[77.71342,24.85768],[77.717,24.86332],[77.72,24.86539],[77.72419,24.86245],[77.72812,24.8579],[77.73569,24.85795],[77.74232,24.86077],[77.74827,24.86676],[77.751,24.882],[77.75258,24.8908],[77.75485,24.89471],[77.76586,24.89654],[77.76987,24.89884],[77.77363,24.90856],[77.78402,24.92561],[77.78601,24.93024],[77.78868,24.93285],[77.79598,24.93142],[77.7981,24.93304],[77.8024,24.94104],[77.80235,24.94477],[77.80081,24.94826],[77.80145,24.95184],[77.80488,24.95428],[77.80895,24.95579],[77.81044,24.95811],[77.81114,24.96455],[77.81507,24.96808],[77.82221,24.97794],[77.82477,24.98613],[77.82372,24.98887],[77.82466,24.99448],[77.82622,24.99953],[77.82983,25.00104],[77.83676,25.00195],[77.84045,25.00194],[77.84325,25.00268],[77.84535,25.00422],[77.84864,25.0059],[77.84943,25.00283],[77.84896,25.00165],[77.847,24.99907],[77.84702,24.99568],[77.84841,24.99447],[77.84977,24.99442],[77.8559,24.99788],[77.86241,24.99695],[77.86835,24.99696],[77.87104,24.99735],[77.87376,24.99899],[77.88529,25.00612],[77.90571,24.99925],[77.90844,24.98828],[77.91088,24.9838],[77.91309,24.98211],[77.92103,24.98185],[77.92887,24.98489],[77.93784,24.98164],[77.94701,24.98541],[77.95214,24.98627],[77.95751,24.98391],[77.95935,24.97761],[77.95903,24.96988],[77.96013,24.96728],[77.96292,24.96512],[77.98168,24.96293],[77.98805,24.96158],[77.99873,24.96279],[78.00086,24.96255],[78.00611,24.962],[78.00808,24.96115],[78.015,24.95577],[78.017,24.95305],[78.01709,24.9503],[78.01674,24.94694],[78.01553,24.94447],[78.01191,24.93979],[78.00734,24.93783],[77.99807,24.93185],[77.99593,24.93145],[77.9874,24.92155],[77.98236,24.91232],[77.98094,24.90784],[77.98108,24.90114],[77.98799,24.89149],[77.98821,24.88715],[77.98031,24.88292],[77.97333,24.88377],[77.97101,24.88013],[77.96971,24.87376],[77.9705,24.86417],[77.97262,24.85621],[77.97294,24.84885],[77.97378,24.84492],[77.97937,24.84892],[77.98799,24.85227],[77.99284,24.85062],[77.99786,24.85059],[77.99973,24.85011],[78.00536,24.84161],[78.00814,24.83919],[78.01451,24.83665],[78.0216,24.83591],[78.03146,24.83736],[78.03948,24.84047],[78.04273,24.84246],[78.04592,24.84607],[78.04753,24.8498],[78.04698,24.85367],[78.0489,24.85585],[78.06177,24.85369],[78.07371,24.84742],[78.07999,24.84562],[78.08961,24.84699],[78.10505,24.83796],[78.11188,24.83519],[78.11602,24.83518],[78.12413,24.83772],[78.13341,24.83897],[78.14973,24.83993],[78.16415,24.83898],[78.16817,24.83996],[78.17164,24.84328]]]}}]}