{"type":"FeatureCollection","features":[{"type":"Feature","properties":{"id":"balaghat","name":"Balaghat","stateId":"madhya-pradesh","stateName":"Madhya Pradesh","censuscode":457,"type":"district"},"geometry":{"type":"Polygon","coordinates":[[[80.81289,22.39159],[80.81393,22.38963],[80.82135,22.38833],[80.82774,22.38466],[80.83169,22.38357],[80.84391,22.38122],[80.84516,22.38237],[80.84478,22.38753],[80.84824,22.38674],[80.85334,22.38361],[80.85891,22.37856],[80.86181,22.37847],[80.86415,22.37716],[80.8658,22.36424],[80.86755,22.36074],[80.87345,22.35801],[80.87889,22.35736],[80.89088,22.35103],[80.89259,22.34916],[80.88241,22.34564],[80.88088,22.34236],[80.87988,22.33584],[80.88231,22.33263],[80.89345,22.33331],[80.89657,22.33512],[80.90151,22.34004],[80.90412,22.34122],[80.90691,22.34136],[80.91443,22.3395],[80.92304,22.33544],[80.9291,22.3305],[80.9319,22.32681],[80.9288,22.32534],[80.92079,22.32791],[80.91615,22.32806],[80.91416,22.32265],[80.90959,22.31715],[80.90949,22.31432],[80.91111,22.30992],[80.90996,22.30647],[80.90508,22.30229],[80.90407,22.29468],[80.90557,22.29127],[80.91196,22.28806],[80.91429,22.281],[80.91617,22.27822],[80.92641,22.27692],[80.93322,22.27757],[80.93614,22.27907],[80.93955,22.2855],[80.94866,22.28302],[80.95497,22.279],[80.96283,22.28178],[80.97101,22.27998],[80.97793,22.28075],[80.98783,22.28875],[80.99117,22.29012],[80.99998,22.2882],[81.01089,22.28176],[81.02107,22.27407],[81.02744,22.2702],[81.0308,22.2626],[81.03367,22.25874],[81.03873,22.25657],[81.04206,22.25413],[81.04756,22.24022],[81.04344,22.23737],[81.02656,22.22884],[81.02282,22.21986],[81.02289,22.21378],[81.02632,22.20746],[81.03059,22.20252],[81.03288,22.19739],[81.03187,22.19282],[81.03222,22.18853],[81.02862,22.18674],[81.02263,22.18811],[81.0188,22.18371],[81.02039,22.1772],[81.02425,22.17076],[81.02616,22.16499],[81.02472,22.15361],[81.02451,22.14005],[81.02289,22.13249],[81.01226,22.13249],[80.99993,22.13128],[80.99378,22.13063],[80.98052,22.12344],[80.97884,22.12124],[80.97789,22.11442],[80.97934,22.11166],[80.9814,22.11114],[80.98376,22.11258],[80.98729,22.11258],[80.99433,22.11043],[80.99734,22.10886],[80.99991,22.10499],[81.00715,22.10064],[81.01077,22.09671],[81.01104,22.09428],[81.007,22.08948],[81.0045,22.08071],[81.01135,22.06988],[81.00625,22.06137],[80.9999,22.05753],[80.99825,22.05795],[80.99681,22.05636],[80.99516,22.05208],[80.99483,22.04836],[80.98967,22.04883],[80.98592,22.04818],[80.98073,22.05162],[80.9789,22.05414],[80.97047,22.05819],[80.96915,22.06176],[80.97281,22.07898],[80.97259,22.08179],[80.96459,22.09693],[80.95759,22.11274],[80.95261,22.11721],[80.94599,22.11874],[80.93185,22.12038],[80.9242,22.12059],[80.91789,22.11885],[80.91314,22.11414],[80.90521,22.10104],[80.90179,22.07625],[80.89826,22.06572],[80.89546,22.06216],[80.89203,22.06047],[80.88598,22.06036],[80.88365,22.05656],[80.88439,22.05047],[80.87715,22.03836],[80.87598,22.03337],[80.87654,22.01631],[80.87562,22.01102],[80.86634,21.99995],[80.86632,21.99758],[80.86542,21.99526],[80.86421,21.99307],[80.86343,21.99169],[80.86248,21.98863],[80.86158,21.98707],[80.86015,21.98332],[80.86011,21.98113],[80.85953,21.97825],[80.8587,21.97496],[80.85738,21.97266],[80.85551,21.96987],[80.85444,21.96676],[80.85374,21.96348],[80.85279,21.96077],[80.85036,21.95827],[80.84639,21.9576],[80.84284,21.95747],[80.83879,21.95778],[80.83585,21.9573],[80.83152,21.95669],[80.82868,21.95804],[80.82721,21.95797],[80.82545,21.95663],[80.82659,21.95342],[80.82802,21.95131],[80.82815,21.95044],[80.82921,21.94821],[80.83039,21.94718],[80.83327,21.94697],[80.83596,21.94688],[80.83774,21.94706],[80.83884,21.94731],[80.84038,21.94651],[80.84203,21.94077],[80.84262,21.93692],[80.84355,21.93555],[80.84354,21.9317],[80.8429,21.92784],[80.84152,21.92592],[80.83953,21.92165],[80.83839,21.92003],[80.83706,21.91834],[80.83399,21.91349],[80.83321,21.91187],[80.83153,21.90835],[80.83244,21.90381],[80.83079,21.89782],[80.83155,21.89465],[80.83123,21.89097],[80.83106,21.8893],[80.83243,21.88661],[80.83711,21.88475],[80.8384,21.88424],[80.84105,21.88248],[80.8436,21.87853],[80.84658,21.87538],[80.84667,21.87158],[80.84462,21.86881],[80.84366,21.86701],[80.84401,21.86248],[80.84693,21.85882],[80.84817,21.85646],[80.84742,21.85277],[80.84468,21.85183],[80.84132,21.85071],[80.83987,21.84909],[80.83868,21.84621],[80.83929,21.84016],[80.83981,21.83753],[80.84069,21.83483],[80.84287,21.83219],[80.84409,21.83181],[80.84465,21.82992],[80.84466,21.8299],[80.84359,21.82725],[80.84258,21.82459],[80.84078,21.82026],[80.84002,21.81698],[80.83938,21.81387],[80.83881,21.81064],[80.8387,21.80874],[80.83868,21.80489],[80.83688,21.80078],[80.83496,21.79691],[80.83248,21.79459],[80.83087,21.79102],[80.82809,21.78708],[80.82781,21.78489],[80.82741,21.78236],[80.82617,21.77826],[80.82522,21.77612],[80.82382,21.77433],[80.82144,21.76844],[80.82053,21.76762],[80.81854,21.7641],[80.8176,21.76116],[80.81745,21.75857],[80.8173,21.75551],[80.81863,21.75097],[80.81817,21.74764],[80.81512,21.74658],[80.8106,21.7462],[80.80596,21.74547],[80.8028,21.74441],[80.79956,21.74335],[80.79542,21.74141],[80.78969,21.7397],[80.78405,21.74098],[80.78377,21.74443],[80.78077,21.74993],[80.77677,21.75214],[80.77337,21.75521],[80.76905,21.75801],[80.7657,21.75723],[80.7616,21.75708],[80.75658,21.75778],[80.75198,21.75833],[80.74991,21.75802],[80.74699,21.75655],[80.74537,21.7536],[80.74393,21.75072],[80.74177,21.74771],[80.73794,21.73928],[80.73584,21.73523],[80.73325,21.73112],[80.73273,21.72957],[80.73265,21.72587],[80.7314,21.72259],[80.73081,21.71982],[80.73035,21.71757],[80.73006,21.71573],[80.72959,21.71457],[80.72684,21.71374],[80.72546,21.71195],[80.72664,21.70988],[80.72894,21.70743],[80.73085,21.70595],[80.73184,21.70446],[80.73224,21.70113],[80.73203,21.69842],[80.73186,21.6979],[80.73068,21.69374],[80.72906,21.69074],[80.7272,21.68791],[80.7257,21.68496],[80.72474,21.68322],[80.72324,21.68096],[80.72204,21.67882],[80.72101,21.67743],[80.71981,21.67599],[80.71883,21.675],[80.71781,21.67424],[80.71616,21.67377],[80.71429,21.67174],[80.71566,21.66951],[80.71696,21.6679],[80.71637,21.66588],[80.71443,21.66425],[80.71477,21.66213],[80.71527,21.66116],[80.71602,21.65834],[80.71672,21.65633],[80.71743,21.65387],[80.71738,21.6526],[80.71815,21.64926],[80.71928,21.64634],[80.72156,21.64515],[80.72377,21.64448],[80.72603,21.64386],[80.72742,21.64088],[80.72648,21.63685],[80.72661,21.63604],[80.72718,21.63444],[80.72789,21.6307],[80.7281,21.62806],[80.72905,21.62524],[80.72938,21.623],[80.72831,21.62074],[80.72859,21.61747],[80.72684,21.61487],[80.72474,21.61271],[80.72311,21.60983],[80.72045,21.60767],[80.71777,21.6065],[80.71632,21.60424],[80.71594,21.60101],[80.71627,21.59837],[80.71607,21.59474],[80.71597,21.59267],[80.71606,21.59008],[80.71616,21.58703],[80.71648,21.58508],[80.71857,21.58348],[80.71945,21.58245],[80.72062,21.5816],[80.7229,21.57983],[80.72384,21.57772],[80.72515,21.57507],[80.72577,21.57387],[80.72647,21.57181],[80.72614,21.56847],[80.72416,21.56534],[80.72302,21.56343],[80.72206,21.56187],[80.72075,21.55898],[80.72047,21.55604],[80.72183,21.5549],[80.72626,21.55235],[80.7278,21.55104],[80.73103,21.54709],[80.73276,21.54457],[80.73499,21.54217],[80.73666,21.54041],[80.73759,21.53909],[80.73775,21.53581],[80.73681,21.53183],[80.73526,21.52853],[80.73395,21.52576],[80.73276,21.52259],[80.73171,21.51866],[80.73136,21.51659],[80.73128,21.51227],[80.73119,21.50968],[80.73123,21.5064],[80.73157,21.50266],[80.7307,21.49915],[80.7289,21.49608],[80.72926,21.49125],[80.73119,21.48838],[80.73276,21.48482],[80.7342,21.48121],[80.73516,21.47736],[80.73585,21.47507],[80.73716,21.47253],[80.73605,21.46874],[80.73463,21.46378],[80.73317,21.45835],[80.73084,21.45367],[80.72813,21.4499],[80.72494,21.4459],[80.72174,21.44277],[80.71903,21.43993],[80.71509,21.43673],[80.71115,21.43415],[80.70855,21.43189],[80.70594,21.43025],[80.70445,21.42771],[80.70456,21.42311],[80.70545,21.41965],[80.70618,21.41466],[80.70506,21.41171],[80.70398,21.40912],[80.702,21.40627],[80.69979,21.40199],[80.70025,21.39872],[80.70019,21.39434],[80.69854,21.38874],[80.69638,21.38481],[80.69472,21.38065],[80.69274,21.37741],[80.69108,21.3732],[80.68788,21.36977],[80.68517,21.36681],[80.68209,21.36414],[80.67842,21.35915],[80.67688,21.35482],[80.67537,21.34917],[80.67328,21.34489],[80.67185,21.34154],[80.66982,21.33795],[80.66819,21.33609],[80.6668,21.33504],[80.66342,21.33138],[80.65866,21.3318],[80.65733,21.33053],[80.65518,21.327],[80.65128,21.32609],[80.64507,21.32547],[80.64043,21.32479],[80.63867,21.32432],[80.63521,21.32319],[80.63179,21.32241],[80.63015,21.32206],[80.62755,21.32076],[80.62463,21.31976],[80.61985,21.32092],[80.61783,21.32229],[80.61696,21.3232],[80.61536,21.32451],[80.61218,21.32488],[80.6092,21.32429],[80.60627,21.3238],[80.60425,21.32406],[80.60003,21.32535],[80.59812,21.32729],[80.59632,21.32889],[80.59356,21.33001],[80.58994,21.33171],[80.58875,21.33486],[80.58927,21.33775],[80.58848,21.34211],[80.58713,21.34262],[80.58474,21.34352],[80.58229,21.34431],[80.57861,21.34611],[80.57594,21.34494],[80.57321,21.3433],[80.57101,21.34328],[80.5682,21.34382],[80.56738,21.34595],[80.56667,21.34905],[80.56487,21.35151],[80.56521,21.35364],[80.56794,21.35488],[80.57061,21.35622],[80.57101,21.35836],[80.56653,21.36085],[80.56585,21.3616],[80.56505,21.36176],[80.56205,21.36317],[80.55707,21.3652],[80.5526,21.36671],[80.55106,21.36773],[80.54776,21.36857],[80.54647,21.36896],[80.54371,21.36957],[80.54105,21.37248],[80.53992,21.37528],[80.53886,21.37769],[80.53655,21.38136],[80.53368,21.38208],[80.53102,21.38412],[80.52848,21.38773],[80.52719,21.38864],[80.52625,21.38996],[80.52331,21.3909],[80.52153,21.3914],[80.51823,21.39223],[80.51567,21.39146],[80.5125,21.39109],[80.50969,21.39094],[80.50737,21.39115],[80.50313,21.3933],[80.50025,21.39459],[80.49668,21.3967],[80.49228,21.39797],[80.49075,21.39761],[80.48824,21.3973],[80.48576,21.39625],[80.48241,21.39506],[80.48155,21.39608],[80.48065,21.39964],[80.47814,21.39617],[80.47496,21.39556],[80.47355,21.39589],[80.47111,21.39622],[80.46964,21.39666],[80.46695,21.39732],[80.46314,21.39902],[80.46153,21.39998],[80.46012,21.40066],[80.45747,21.40265],[80.45509,21.40262],[80.45441,21.39876],[80.45384,21.39587],[80.45235,21.39287],[80.45104,21.39084],[80.44997,21.3883],[80.45006,21.38496],[80.4505,21.38001],[80.45042,21.37672],[80.44972,21.37413],[80.44717,21.37243],[80.44401,21.37171],[80.44237,21.37158],[80.4403,21.3715],[80.43723,21.37222],[80.43434,21.37323],[80.43361,21.37339],[80.4317,21.37481],[80.42974,21.37554],[80.42772,21.37598],[80.42436,21.37595],[80.42083,21.37557],[80.41704,21.37576],[80.4152,21.37638],[80.4133,21.3767],[80.41118,21.3761],[80.41013,21.37678],[80.40871,21.37809],[80.40785,21.37854],[80.40611,21.38077],[80.40466,21.38438],[80.40327,21.38811],[80.40064,21.3924],[80.39827,21.39688],[80.39656,21.40111],[80.39579,21.40456],[80.39581,21.40761],[80.39664,21.40912],[80.4002,21.41289],[80.40352,21.41558],[80.40598,21.41813],[80.4067,21.4197],[80.40476,21.4233],[80.40565,21.42515],[80.40836,21.42829],[80.41101,21.43091],[80.41276,21.43265],[80.41535,21.43504],[80.41699,21.43661],[80.41806,21.43841],[80.4173,21.44036],[80.41622,21.4438],[80.41501,21.44741],[80.41318,21.45137],[80.41211,21.45458],[80.41141,21.45653],[80.41126,21.45878],[80.41042,21.46147],[80.40899,21.46353],[80.40769,21.46558],[80.40578,21.46655],[80.40332,21.46739],[80.40204,21.46801],[80.39884,21.46953],[80.39668,21.47106],[80.3936,21.47356],[80.39118,21.47647],[80.39041,21.47911],[80.38945,21.48256],[80.38844,21.48491],[80.38694,21.48737],[80.38533,21.48942],[80.3844,21.49022],[80.38253,21.49103],[80.38207,21.49123],[80.38167,21.49296],[80.38159,21.49492],[80.38157,21.496],[80.38128,21.49905],[80.38095,21.50118],[80.38062,21.50313],[80.3806,21.50515],[80.38029,21.50951],[80.37921,21.51284],[80.3779,21.5152],[80.37758,21.51713],[80.37753,21.51792],[80.37734,21.521],[80.37596,21.52294],[80.37435,21.52471],[80.37256,21.52637],[80.36892,21.52851],[80.36364,21.53082],[80.35861,21.53301],[80.35313,21.53572],[80.34901,21.5374],[80.34637,21.53789],[80.34471,21.53874],[80.34187,21.54072],[80.33966,21.5422],[80.33768,21.54367],[80.33639,21.54441],[80.3341,21.54606],[80.33114,21.54868],[80.33228,21.5503],[80.33397,21.5517],[80.33578,21.55361],[80.3368,21.55466],[80.33647,21.55626],[80.33529,21.55821],[80.33417,21.55958],[80.33298,21.56153],[80.33135,21.56404],[80.32954,21.56736],[80.32809,21.57051],[80.32689,21.5735],[80.32554,21.57446],[80.32362,21.57559],[80.31969,21.57699],[80.31657,21.57724],[80.31432,21.57664],[80.31005,21.57602],[80.30577,21.57529],[80.30206,21.57536],[80.2986,21.57791],[80.29694,21.5825],[80.29647,21.58577],[80.29577,21.5883],[80.29532,21.58951],[80.29467,21.59214],[80.29325,21.59329],[80.2895,21.59496],[80.28648,21.59597],[80.28211,21.59892],[80.28041,21.60246],[80.27906,21.60694],[80.27755,21.61044],[80.27166,21.61636],[80.2669,21.61993],[80.26329,21.62007],[80.26194,21.62051],[80.25874,21.62203],[80.25428,21.62228],[80.24935,21.62027],[80.24678,21.62029],[80.24262,21.62054],[80.23871,21.62021],[80.23352,21.61986],[80.22723,21.61938],[80.22294,21.62009],[80.22128,21.62099],[80.21867,21.62396],[80.21705,21.62601],[80.21462,21.62938],[80.21132,21.63326],[80.20702,21.63441],[80.20177,21.63464],[80.19872,21.63432],[80.19603,21.63395],[80.19482,21.6339],[80.19281,21.63237],[80.1918,21.63035],[80.1903,21.6282],[80.18898,21.62674],[80.18692,21.62522],[80.18334,21.62363],[80.18151,21.62366],[80.17998,21.62382],[80.17772,21.62344],[80.17553,21.6229],[80.17159,21.62141],[80.16868,21.61919],[80.16651,21.6172],[80.16332,21.61382],[80.16158,21.6115],[80.15923,21.6094],[80.15658,21.60712],[80.15446,21.606],[80.15051,21.60468],[80.14727,21.60442],[80.14409,21.60489],[80.13955,21.6053],[80.13279,21.60798],[80.13065,21.6083],[80.12802,21.60873],[80.12515,21.60857],[80.12151,21.60669],[80.11942,21.60344],[80.11897,21.60049],[80.11876,21.59922],[80.11813,21.59616],[80.11646,21.59309],[80.11447,21.5918],[80.11216,21.59079],[80.10864,21.58908],[80.10694,21.58843],[80.10529,21.58835],[80.10287,21.58711],[80.10056,21.58598],[80.09984,21.58505],[80.09736,21.58324],[80.09622,21.58196],[80.09322,21.57824],[80.09137,21.57586],[80.08856,21.57145],[80.0853,21.56809],[80.08355,21.56646],[80.08162,21.56483],[80.07986,21.56355],[80.07769,21.56169],[80.07655,21.56007],[80.07498,21.55816],[80.07312,21.55654],[80.07008,21.55428],[80.06865,21.55393],[80.0677,21.5537],[80.06617,21.55341],[80.06372,21.55329],[80.06071,21.55323],[80.05726,21.5538],[80.05659,21.5538],[80.05468,21.55383],[80.05208,21.55442],[80.05054,21.55482],[80.04807,21.55592],[80.04491,21.55652],[80.04089,21.55713],[80.03848,21.55722],[80.03472,21.557],[80.03267,21.55631],[80.02914,21.55347],[80.02562,21.55045],[80.02337,21.5485],[80.02114,21.54701],[80.01871,21.54564],[80.01648,21.54424],[80.01395,21.54223],[80.01123,21.54053],[80.00855,21.53863],[80.00466,21.5363],[80.00316,21.53497],[80.00001,21.53437],[79.99204,21.53643],[79.97823,21.55472],[79.9727,21.55687],[79.9679,21.55759],[79.95353,21.55483],[79.94282,21.55637],[79.93746,21.55519],[79.93359,21.5533],[79.92765,21.54577],[79.92472,21.53989],[79.92223,21.52415],[79.92222,21.52408],[79.90758,21.52395],[79.89868,21.52284],[79.89614,21.52345],[79.89222,21.5292],[79.88306,21.52802],[79.87825,21.5291],[79.86344,21.53045],[79.86112,21.53206],[79.85691,21.53705],[79.84789,21.54133],[79.83137,21.5462],[79.82453,21.55847],[79.81799,21.56374],[79.8095,21.57206],[79.79812,21.58081],[79.77509,21.5898],[79.75118,21.5972],[79.73889,21.60185],[79.72008,21.59044],[79.71242,21.59021],[79.70558,21.59162],[79.70004,21.59026],[79.69745,21.58719],[79.69557,21.58295],[79.69107,21.58],[79.66916,21.579],[79.66434,21.57662],[79.66015,21.56276],[79.65681,21.55812],[79.65368,21.55648],[79.64693,21.55478],[79.64046,21.55425],[79.63152,21.55415],[79.62297,21.55648],[79.61487,21.55521],[79.60554,21.55004],[79.60105,21.54893],[79.59566,21.54883],[79.58227,21.54262],[79.57747,21.54306],[79.56642,21.54726],[79.5535,21.54353],[79.54271,21.54344],[79.54031,21.54739],[79.53998,21.54997],[79.54216,21.55418],[79.54561,21.56439],[79.54364,21.56818],[79.53823,21.57216],[79.53375,21.57397],[79.5278,21.57948],[79.51674,21.58231],[79.51189,21.5894],[79.52462,21.59293],[79.52833,21.5977],[79.53701,21.5989],[79.54249,21.60403],[79.54637,21.61035],[79.5469,21.61627],[79.54321,21.62157],[79.54112,21.62626],[79.54585,21.62862],[79.55488,21.63006],[79.57079,21.63394],[79.5755,21.63796],[79.58033,21.64665],[79.58698,21.64788],[79.58918,21.64354],[79.59167,21.64467],[79.59511,21.6435],[79.59529,21.64844],[79.59039,21.65264],[79.58847,21.65526],[79.59042,21.65913],[79.59516,21.66109],[79.59667,21.66697],[79.60168,21.6718],[79.60762,21.67602],[79.60803,21.68074],[79.61059,21.68565],[79.60632,21.68967],[79.60482,21.69633],[79.60216,21.70192],[79.60123,21.70794],[79.60868,21.7085],[79.61786,21.70815],[79.63159,21.70591],[79.63745,21.70334],[79.63773,21.69627],[79.6558,21.69035],[79.66217,21.69411],[79.67233,21.69343],[79.67422,21.69466],[79.67207,21.69928],[79.67642,21.70342],[79.67246,21.70659],[79.6717,21.71262],[79.66886,21.70959],[79.66488,21.71909],[79.66214,21.7229],[79.66013,21.73017],[79.6577,21.73377],[79.65891,21.73929],[79.66069,21.7426],[79.66875,21.74367],[79.67782,21.74332],[79.6819,21.74463],[79.68374,21.75316],[79.68718,21.75711],[79.69134,21.76555],[79.69221,21.77384],[79.69046,21.78065],[79.68526,21.78525],[79.68772,21.79234],[79.6924,21.79929],[79.71419,21.80433],[79.72078,21.80159],[79.74886,21.79848],[79.76056,21.80236],[79.76951,21.80659],[79.78054,21.82311],[79.78528,21.83143],[79.79553,21.84304],[79.78958,21.84791],[79.77996,21.85384],[79.7776,21.85645],[79.78223,21.86242],[79.80085,21.85787],[79.81191,21.8638],[79.81895,21.86865],[79.82748,21.87685],[79.8411,21.8843],[79.84193,21.89667],[79.8414,21.90338],[79.86156,21.89913],[79.87106,21.89878],[79.86675,21.90522],[79.87513,21.90606],[79.87997,21.91043],[79.88524,21.92048],[79.89021,21.92444],[79.89267,21.92855],[79.89049,21.93117],[79.88478,21.93173],[79.88091,21.9283],[79.87647,21.92963],[79.85327,21.93305],[79.84429,21.93605],[79.83874,21.93885],[79.84088,21.94405],[79.85033,21.95243],[79.86256,21.954],[79.8654,21.95726],[79.86388,21.96603],[79.88236,21.96807],[79.8893,21.96649],[79.91599,21.96908],[79.92406,21.97055],[79.92583,21.99136],[79.92259,22.00019],[79.92355,22.00779],[79.92821,22.03072],[79.926,22.03311],[79.92271,22.0343],[79.9215,22.03645],[79.92454,22.04289],[79.92379,22.05097],[79.92441,22.05456],[79.92616,22.05798],[79.92943,22.0618],[79.9408,22.07005],[79.94596,22.07107],[79.95607,22.07136],[79.96017,22.06972],[79.96501,22.069],[79.98524,22.06993],[79.98915,22.06892],[79.99399,22.06941],[79.9961,22.07155],[79.9979,22.07683],[80.001,22.08101],[80.00515,22.08239],[80.04205,22.08211],[80.04757,22.0832],[80.05205,22.0826],[80.06349,22.07948],[80.07004,22.07638],[80.07057,22.08131],[80.06743,22.08661],[80.06797,22.09254],[80.06028,22.11381],[80.05796,22.11749],[80.05167,22.12036],[80.04819,22.1228],[80.0452,22.12685],[80.04308,22.14432],[80.04383,22.1601],[80.04158,22.16707],[80.03614,22.17711],[80.035,22.18162],[80.03577,22.18631],[80.03864,22.19081],[80.04967,22.2037],[80.05664,22.21066],[80.06657,22.21726],[80.0886,22.22684],[80.08745,22.23216],[80.08594,22.23535],[80.09372,22.24062],[80.09709,22.24488],[80.09848,22.24903],[80.09857,22.2529],[80.09706,22.2637],[80.09496,22.26844],[80.09176,22.27059],[80.08914,22.27423],[80.09311,22.2787],[80.0927,22.28164],[80.0828,22.29848],[80.08964,22.3099],[80.08997,22.31355],[80.08913,22.31687],[80.10029,22.33006],[80.10132,22.33273],[80.10138,22.33616],[80.10026,22.34021],[80.10864,22.34504],[80.11481,22.34671],[80.1319,22.34694],[80.13581,22.34626],[80.14317,22.34236],[80.14622,22.34413],[80.15025,22.34804],[80.1532,22.3491],[80.15632,22.34887],[80.16999,22.34383],[80.17058,22.34041],[80.16843,22.33342],[80.1683,22.33024],[80.16926,22.32724],[80.1793,22.32668],[80.18867,22.32403],[80.20111,22.31886],[80.21057,22.31741],[80.21382,22.31467],[80.21516,22.31182],[80.21732,22.31005],[80.22889,22.3138],[80.23202,22.30359],[80.23331,22.30139],[80.23616,22.30068],[80.25592,22.30755],[80.26143,22.30885],[80.27194,22.30988],[80.27557,22.31413],[80.27851,22.31938],[80.28187,22.32231],[80.2918,22.32791],[80.30226,22.33774],[80.30649,22.34054],[80.31368,22.34379],[80.31914,22.34508],[80.32278,22.34512],[80.3255,22.34469],[80.33149,22.34199],[80.33431,22.33943],[80.33871,22.33222],[80.3448,22.32847],[80.34363,22.32137],[80.3361,22.3054],[80.33613,22.30193],[80.34149,22.29848],[80.34829,22.29889],[80.36748,22.30131],[80.37138,22.30255],[80.37585,22.30576],[80.38291,22.30767],[80.38731,22.30765],[80.39724,22.30543],[80.40196,22.30024],[80.40586,22.29305],[80.4193,22.28051],[80.42013,22.27611],[80.41982,22.26824],[80.41643,22.25526],[80.41583,22.25],[80.41827,22.24553],[80.43101,22.24572],[80.43581,22.24505],[80.43843,22.24636],[80.44727,22.24751],[80.4487,22.24917],[80.45168,22.26349],[80.46293,22.26398],[80.46389,22.26739],[80.46485,22.27912],[80.47843,22.27826],[80.48454,22.27677],[80.48593,22.27328],[80.49112,22.27121],[80.49785,22.27185],[80.50684,22.27468],[80.51084,22.27163],[80.51241,22.26809],[80.5159,22.26466],[80.52046,22.26323],[80.52664,22.26271],[80.52732,22.24808],[80.52889,22.24465],[80.53189,22.24231],[80.53602,22.2406],[80.55105,22.23654],[80.58325,22.23053],[80.5931,22.2319],[80.59775,22.23359],[80.60188,22.23205],[80.60426,22.22931],[80.61017,22.22764],[80.62895,22.2262],[80.64291,22.22693],[80.6468,22.22655],[80.6543,22.22267],[80.65861,22.22153],[80.66264,22.22178],[80.66812,22.22011],[80.67339,22.21578],[80.67751,22.21383],[80.68447,22.21238],[80.68955,22.21267],[80.69972,22.20477],[80.70619,22.20391],[80.71122,22.20547],[80.72325,22.21605],[80.72802,22.21738],[80.72874,22.22091],[80.72449,22.2332],[80.71895,22.23528],[80.71668,22.23697],[80.70745,22.24643],[80.7044,22.25057],[80.70323,22.2566],[80.7041,22.26907],[80.70574,22.27253],[80.71038,22.27288],[80.71414,22.27181],[80.71941,22.27349],[80.72658,22.28006],[80.74208,22.28325],[80.7455,22.29125],[80.75422,22.30261],[80.76021,22.30758],[80.77352,22.31466],[80.7776,22.31478],[80.78753,22.31276],[80.79319,22.32618],[80.79186,22.3462],[80.79291,22.35122],[80.7989,22.3622],[80.79914,22.36596],[80.79493,22.37156],[80.79355,22.37528],[80.79762,22.37963],[80.79883,22.38338],[80.79567,22.39331],[80.79656,22.39567],[80.79923,22.39685],[80.81149,22.39781],[80.81236,22.39259],[80.81289,22.39159]]]}}]}