{"type":"FeatureCollection","features":[{"type":"Feature","properties":{"id":"barwani","name":"Barwani","stateId":"madhya-pradesh","stateName":"Madhya Pradesh","censuscode":441,"type":"district"},"geometry":{"type":"Polygon","coordinates":[[[75.61889,21.39088],[75.6188,21.39118],[75.60824,21.39273],[75.60226,21.38826],[75.59053,21.38947],[75.58701,21.38663],[75.58413,21.38534],[75.57579,21.38326],[75.58079,21.37859],[75.58049,21.37761],[75.57129,21.37598],[75.56519,21.3769],[75.5634,21.37585],[75.55945,21.37656],[75.56031,21.37892],[75.55901,21.38001],[75.55451,21.3752],[75.5505,21.37321],[75.5473,21.37025],[75.54631,21.37042],[75.54445,21.37355],[75.53909,21.37494],[75.52851,21.38248],[75.52369,21.38491],[75.51535,21.38449],[75.50918,21.38575],[75.49954,21.38933],[75.49546,21.38849],[75.4838,21.38902],[75.46738,21.39196],[75.46454,21.38912],[75.45898,21.39079],[75.45337,21.38982],[75.44898,21.39018],[75.44503,21.38825],[75.44251,21.38879],[75.43516,21.3885],[75.43052,21.39172],[75.4188,21.38805],[75.41219,21.38885],[75.40806,21.38771],[75.40259,21.38157],[75.39969,21.38177],[75.39716,21.38077],[75.39412,21.38246],[75.39184,21.38186],[75.3832,21.38339],[75.38004,21.38542],[75.37738,21.39022],[75.36562,21.3967],[75.36005,21.40102],[75.35668,21.39397],[75.35242,21.39129],[75.33348,21.39248],[75.32539,21.39205],[75.31947,21.39021],[75.3105,21.3931],[75.30718,21.39231],[75.30041,21.38708],[75.30033,21.39024],[75.30168,21.39301],[75.30038,21.41263],[75.29815,21.41347],[75.29013,21.41172],[75.28705,21.40962],[75.27509,21.40668],[75.26545,21.40669],[75.2575,21.40305],[75.25238,21.40397],[75.24606,21.40849],[75.24184,21.41276],[75.23474,21.41492],[75.2306,21.41443],[75.21815,21.40871],[75.20882,21.41206],[75.20572,21.41368],[75.20198,21.41516],[75.19424,21.4207],[75.18625,21.42515],[75.15552,21.43612],[75.14556,21.44119],[75.12786,21.44713],[75.12104,21.45119],[75.11315,21.45742],[75.10469,21.46749],[75.09846,21.48316],[75.0929,21.49166],[75.09069,21.49875],[75.08801,21.51216],[75.08156,21.52358],[75.07633,21.52995],[75.07426,21.53585],[75.07022,21.53948],[75.06301,21.54864],[75.06156,21.55283],[75.05815,21.55715],[75.05572,21.56276],[75.05153,21.56501],[75.02976,21.56714],[75.01571,21.57044],[75.01372,21.57571],[75.01128,21.57902],[75.00263,21.58389],[75.0014,21.58454],[75.00053,21.585],[74.99966,21.58548],[74.99879,21.58596],[74.99793,21.58642],[74.99706,21.58689],[74.99618,21.58734],[74.99529,21.58777],[74.99439,21.58817],[74.99347,21.58855],[74.99255,21.58893],[74.99163,21.58929],[74.99071,21.58966],[74.98979,21.59003],[74.98886,21.59039],[74.98792,21.59074],[74.98699,21.59108],[74.98605,21.59143],[74.98512,21.59176],[74.98418,21.59209],[74.98323,21.5924],[74.98228,21.59271],[74.98133,21.59301],[74.98038,21.5933],[74.97943,21.59358],[74.97847,21.59386],[74.97751,21.59411],[74.97654,21.59436],[74.97558,21.59459],[74.9746,21.5948],[74.97363,21.59501],[74.97265,21.59522],[74.97167,21.59541],[74.97069,21.59559],[74.9697,21.59578],[74.96872,21.59596],[74.96773,21.59614],[74.96675,21.59632],[74.96576,21.5965],[74.96478,21.59668],[74.96379,21.59687],[74.96281,21.59705],[74.96183,21.59725],[74.96085,21.59745],[74.95988,21.59766],[74.9589,21.59788],[74.95793,21.59812],[74.95697,21.59836],[74.956,21.59862],[74.95504,21.59888],[74.95408,21.59914],[74.95312,21.5994],[74.95215,21.59967],[74.9512,21.59994],[74.95024,21.60021],[74.94928,21.60048],[74.94832,21.60076],[74.94737,21.60104],[74.94641,21.60132],[74.94545,21.6016],[74.94449,21.60189],[74.94354,21.60217],[74.94259,21.60246],[74.94164,21.60276],[74.94069,21.60305],[74.93973,21.60334],[74.93878,21.60364],[74.93783,21.60394],[74.93688,21.60423],[74.93593,21.60453],[74.93498,21.60483],[74.93403,21.60514],[74.93308,21.60544],[74.93214,21.60574],[74.93118,21.60605],[74.93024,21.60635],[74.92929,21.60666],[74.92835,21.60696],[74.9274,21.60728],[74.92645,21.60758],[74.92551,21.60789],[74.92456,21.60821],[74.92361,21.60853],[74.92267,21.60885],[74.92173,21.60919],[74.92079,21.60953],[74.91986,21.60988],[74.91893,21.61024],[74.91801,21.61062],[74.9171,21.611],[74.91619,21.6114],[74.9153,21.61181],[74.91442,21.61225],[74.91354,21.6127],[74.91267,21.61317],[74.91179,21.61368],[74.91095,21.61421],[74.91012,21.61477],[74.90932,21.61536],[74.90857,21.61598],[74.90787,21.61664],[74.90723,21.61732],[74.90667,21.61807],[74.9062,21.61889],[74.90578,21.61975],[74.9054,21.62064],[74.90503,21.62153],[74.90465,21.62243],[74.90424,21.62329],[74.90378,21.62412],[74.90323,21.62489],[74.90261,21.62566],[74.90193,21.6264],[74.90117,21.62709],[74.90035,21.62767],[74.89948,21.6281],[74.89854,21.62835],[74.8976,21.62856],[74.89663,21.62873],[74.89566,21.62889],[74.89467,21.62903],[74.89368,21.62915],[74.89268,21.62926],[74.89168,21.62935],[74.89066,21.62943],[74.88965,21.6295],[74.88863,21.62955],[74.88761,21.62959],[74.8866,21.62963],[74.88558,21.62966],[74.88457,21.62967],[74.88356,21.62968],[74.88256,21.62968],[74.88156,21.62967],[74.88057,21.62959],[74.87958,21.62946],[74.87859,21.62929],[74.87761,21.62909],[74.87662,21.62887],[74.87564,21.62866],[74.87465,21.62847],[74.87366,21.62833],[74.87267,21.62822],[74.87166,21.62818],[74.87063,21.62815],[74.86959,21.62812],[74.86854,21.62813],[74.86751,21.62818],[74.86649,21.62827],[74.86552,21.62842],[74.8646,21.62865],[74.86377,21.62901],[74.86324,21.63001],[74.86283,21.63119],[74.86236,21.63192],[74.86166,21.63174],[74.86091,21.63135],[74.86015,21.63091],[74.8594,21.63041],[74.85863,21.62986],[74.85787,21.62927],[74.8571,21.62865],[74.85632,21.628],[74.85554,21.62735],[74.85474,21.62668],[74.85394,21.62601],[74.85314,21.62536],[74.85233,21.62471],[74.85149,21.62409],[74.85067,21.6235],[74.84982,21.62294],[74.84897,21.62243],[74.8481,21.62197],[74.84722,21.62156],[74.8463,21.62119],[74.84537,21.62085],[74.84441,21.62053],[74.84345,21.62024],[74.84248,21.61996],[74.84151,21.61971],[74.84052,21.61945],[74.83955,21.61919],[74.83857,21.61892],[74.83761,21.61864],[74.83665,21.61835],[74.83572,21.61804],[74.8348,21.6177],[74.83391,21.61733],[74.83304,21.61688],[74.83228,21.61624],[74.83163,21.61547],[74.8311,21.61462],[74.83075,21.61376],[74.83067,21.6128],[74.83087,21.61172],[74.83107,21.61066],[74.83105,21.60978],[74.83059,21.60921],[74.82984,21.60883],[74.82894,21.60855],[74.82792,21.60834],[74.82683,21.60821],[74.82572,21.60814],[74.82462,21.60812],[74.82359,21.60812],[74.8226,21.60815],[74.82161,21.60822],[74.82062,21.60831],[74.81962,21.60843],[74.81862,21.60856],[74.81763,21.60872],[74.81663,21.60888],[74.81565,21.60906],[74.81466,21.60923],[74.81367,21.6094],[74.81268,21.60958],[74.8117,21.60976],[74.81071,21.60996],[74.80974,21.6102],[74.80878,21.61048],[74.80785,21.6108],[74.80694,21.6112],[74.80606,21.61167],[74.8052,21.61216],[74.80434,21.61264],[74.80345,21.61308],[74.80252,21.61344],[74.80136,21.61381],[74.80018,21.61407],[74.79937,21.61398],[74.79919,21.61343],[74.79937,21.61258],[74.79974,21.61157],[74.80013,21.6105],[74.80035,21.6095],[74.80018,21.60868],[74.79935,21.60799],[74.79831,21.60778],[74.79734,21.6078],[74.79635,21.60785],[74.79536,21.6079],[74.79436,21.60796],[74.79336,21.60804],[74.79236,21.60811],[74.79135,21.6082],[74.79034,21.6083],[74.78934,21.60841],[74.78833,21.60853],[74.78733,21.60867],[74.78632,21.60881],[74.78533,21.60897],[74.78434,21.60913],[74.78336,21.60932],[74.78238,21.60952],[74.78141,21.60973],[74.78046,21.60999],[74.77953,21.6103],[74.7786,21.61066],[74.77769,21.61104],[74.77678,21.61144],[74.77587,21.61187],[74.77497,21.61229],[74.77406,21.61271],[74.77315,21.61312],[74.77224,21.6135],[74.77212,21.6135],[74.77118,21.6135],[74.77018,21.61347],[74.76918,21.61344],[74.76817,21.61342],[74.76717,21.61339],[74.76617,21.61338],[74.76517,21.61338],[74.76417,21.61342],[74.76317,21.61348],[74.76218,21.61358],[74.76119,21.6137],[74.7602,21.61383],[74.7592,21.61398],[74.75822,21.61415],[74.75723,21.61431],[74.75625,21.61449],[74.75526,21.61469],[74.75428,21.61489],[74.75331,21.61509],[74.75232,21.61529],[74.75134,21.61549],[74.75037,21.6157],[74.74939,21.6159],[74.74841,21.6161],[74.74744,21.6163],[74.74646,21.61651],[74.74547,21.61671],[74.74449,21.61691],[74.74352,21.61712],[74.74254,21.61733],[74.74156,21.61753],[74.74058,21.61774],[74.73961,21.61794],[74.73863,21.61814],[74.73765,21.61835],[74.73667,21.61857],[74.7357,21.61877],[74.73472,21.61898],[74.73374,21.61919],[74.73277,21.6194],[74.73179,21.61961],[74.73081,21.61982],[74.72983,21.62003],[74.72886,21.62024],[74.72789,21.62046],[74.72691,21.62067],[74.72593,21.62089],[74.72496,21.62111],[74.72399,21.62132],[74.72301,21.62155],[74.72204,21.62176],[74.72106,21.62199],[74.72009,21.62221],[74.71911,21.62244],[74.71814,21.62266],[74.71718,21.62288],[74.71621,21.62311],[74.71523,21.62335],[74.71426,21.62358],[74.71329,21.62381],[74.71232,21.62405],[74.71135,21.62429],[74.71038,21.62454],[74.70942,21.62479],[74.70845,21.62505],[74.70749,21.62532],[74.70653,21.62559],[74.70557,21.62587],[74.70462,21.62616],[74.70365,21.62644],[74.70271,21.62675],[74.70177,21.62705],[74.70081,21.62736],[74.69988,21.62769],[74.69894,21.62802],[74.69802,21.62836],[74.69709,21.62872],[74.69617,21.6291],[74.69527,21.62952],[74.69438,21.62995],[74.69351,21.63041],[74.69264,21.63089],[74.69178,21.63139],[74.69094,21.63191],[74.69011,21.63243],[74.68929,21.63297],[74.68849,21.63352],[74.68768,21.63408],[74.68688,21.63464],[74.68609,21.63521],[74.68529,21.63579],[74.6845,21.63637],[74.68372,21.63695],[74.68294,21.63754],[74.68215,21.63812],[74.68138,21.63871],[74.68058,21.63929],[74.6798,21.63988],[74.67902,21.64047],[74.67824,21.64105],[74.67744,21.64163],[74.67665,21.6422],[74.67585,21.64277],[74.67505,21.64333],[74.67424,21.64389],[74.67342,21.64444],[74.67262,21.645],[74.67181,21.64556],[74.67098,21.64611],[74.67015,21.64664],[74.66931,21.64716],[74.66846,21.64766],[74.6676,21.64813],[74.66672,21.64857],[74.66583,21.64898],[74.66492,21.64935],[74.66399,21.64971],[74.66305,21.65003],[74.6621,21.65034],[74.66114,21.65063],[74.66017,21.65089],[74.65919,21.65114],[74.65822,21.65137],[74.65723,21.65158],[74.65626,21.65178],[74.65527,21.65195],[74.65429,21.65212],[74.65331,21.65229],[74.65233,21.65244],[74.65133,21.6526],[74.65034,21.65273],[74.64935,21.65287],[74.64836,21.653],[74.64737,21.65313],[74.64637,21.65326],[74.64538,21.65338],[74.64438,21.6535],[74.64339,21.65363],[74.64239,21.65375],[74.6414,21.65387],[74.64041,21.654],[74.6394,21.65413],[74.63842,21.65426],[74.63743,21.65441],[74.63643,21.65454],[74.63544,21.65469],[74.63445,21.65485],[74.63347,21.65501],[74.63248,21.65519],[74.6315,21.65537],[74.63052,21.65556],[74.62954,21.65576],[74.62856,21.65597],[74.62759,21.65618],[74.62662,21.6564],[74.62564,21.65663],[74.62467,21.65686],[74.62369,21.65709],[74.62272,21.65733],[74.62175,21.65756],[74.62077,21.6578],[74.6198,21.65804],[74.61883,21.65828],[74.61786,21.65852],[74.61689,21.65876],[74.61592,21.65899],[74.61494,21.65922],[74.61397,21.65945],[74.61301,21.65968],[74.61203,21.65989],[74.61105,21.66011],[74.61007,21.66031],[74.60909,21.66051],[74.60812,21.66069],[74.60714,21.66088],[74.60616,21.66105],[74.60517,21.6612],[74.60418,21.66134],[74.60317,21.66144],[74.60215,21.66148],[74.60111,21.66149],[74.60007,21.66148],[74.59902,21.66144],[74.59797,21.66139],[74.59692,21.66134],[74.59588,21.66129],[74.59484,21.66126],[74.59382,21.66123],[74.59281,21.66123],[74.59182,21.66128],[74.59086,21.66135],[74.58991,21.66148],[74.58899,21.66165],[74.58811,21.6619],[74.58726,21.66223],[74.58647,21.66272],[74.58571,21.66334],[74.58502,21.66408],[74.58438,21.6649],[74.5838,21.66578],[74.58329,21.66669],[74.58284,21.6676],[74.58246,21.66848],[74.58216,21.66932],[74.58218,21.67017],[74.58251,21.67107],[74.58298,21.67199],[74.58342,21.67293],[74.58366,21.67385],[74.58361,21.67477],[74.5835,21.67572],[74.58334,21.67672],[74.58315,21.67772],[74.58291,21.67873],[74.58262,21.67969],[74.58229,21.6806],[74.58188,21.68144],[74.58142,21.68218],[74.58088,21.6828],[74.58016,21.68319],[74.57921,21.68334],[74.57813,21.68333],[74.57699,21.68321],[74.57585,21.68306],[74.57483,21.68294],[74.57383,21.68284],[74.57281,21.68273],[74.57178,21.68263],[74.57074,21.6825],[74.5697,21.68238],[74.56868,21.68223],[74.56768,21.68206],[74.56669,21.68187],[74.56574,21.68165],[74.56481,21.6814],[74.56392,21.68111],[74.56319,21.68067],[74.56301,21.67962],[74.56292,21.67852],[74.56236,21.67804],[74.56144,21.67793],[74.56037,21.67798],[74.55928,21.67818],[74.55825,21.6785],[74.55738,21.67894],[74.55645,21.6795],[74.55552,21.68016],[74.55465,21.68087],[74.55392,21.68162],[74.55344,21.68234],[74.55325,21.68302],[74.55359,21.68363],[74.55438,21.68419],[74.55541,21.68476],[74.55644,21.68537],[74.5572,21.68607],[74.55752,21.6869],[74.55771,21.68778],[74.55786,21.68867],[74.55796,21.68959],[74.55805,21.69051],[74.55809,21.69146],[74.55812,21.69242],[74.55812,21.69338],[74.5581,21.69434],[74.55805,21.69531],[74.55799,21.69627],[74.55791,21.69724],[74.55782,21.69819],[74.55773,21.69912],[74.55761,21.70005],[74.55747,21.70096],[74.55723,21.70187],[74.55692,21.70277],[74.55656,21.70366],[74.55615,21.70453],[74.55571,21.70538],[74.55523,21.70623],[74.55475,21.70705],[74.55427,21.70791],[74.5538,21.70881],[74.55334,21.70974],[74.55286,21.71068],[74.55238,21.71162],[74.55189,21.71254],[74.55137,21.71344],[74.55084,21.71429],[74.55028,21.71509],[74.54968,21.71582],[74.54904,21.71647],[74.54837,21.71702],[74.54764,21.71747],[74.54687,21.71779],[74.54605,21.71799],[74.54517,21.7181],[74.54425,21.71811],[74.5433,21.71804],[74.54232,21.7179],[74.54131,21.71772],[74.54028,21.71749],[74.53924,21.71723],[74.53818,21.71696],[74.53712,21.71669],[74.53606,21.71641],[74.535,21.71617],[74.53396,21.71595],[74.53292,21.71579],[74.53191,21.71567],[74.53092,21.71561],[74.52992,21.71557],[74.52891,21.71556],[74.52791,21.71556],[74.5269,21.71557],[74.52589,21.71562],[74.52489,21.71567],[74.52388,21.71573],[74.52289,21.71581],[74.52189,21.7159],[74.52089,21.71602],[74.51991,21.71617],[74.51892,21.71638],[74.51794,21.71661],[74.51698,21.71689],[74.51603,21.71721],[74.51511,21.71757],[74.51419,21.71796],[74.51326,21.71839],[74.51238,21.71886],[74.51153,21.71939],[74.51076,21.71998],[74.51008,21.72063],[74.50942,21.72137],[74.5088,21.72219],[74.50829,21.72305],[74.50793,21.72395],[74.50775,21.72485],[74.50779,21.72575],[74.50791,21.72665],[74.50808,21.72754],[74.50829,21.72845],[74.50854,21.72935],[74.50882,21.73026],[74.50911,21.73118],[74.50941,21.73209],[74.50973,21.73301],[74.51004,21.73391],[74.51032,21.73484],[74.5106,21.73576],[74.51083,21.73667],[74.51104,21.7376],[74.51119,21.73852],[74.51128,21.73944],[74.51128,21.74037],[74.51119,21.74132],[74.51104,21.74227],[74.51084,21.74322],[74.51063,21.74418],[74.51042,21.74512],[74.51024,21.74606],[74.51012,21.74699],[74.51005,21.7479],[74.5101,21.74878],[74.51035,21.74962],[74.51095,21.75035],[74.51175,21.75102],[74.51257,21.75169],[74.51324,21.75243],[74.51359,21.75326],[74.5138,21.75416],[74.51399,21.75508],[74.51416,21.75602],[74.51429,21.75698],[74.5144,21.75795],[74.51447,21.75891],[74.5145,21.75988],[74.5145,21.76084],[74.51444,21.76179],[74.51433,21.7627],[74.51418,21.76361],[74.51395,21.76447],[74.5136,21.7653],[74.51312,21.76611],[74.51256,21.76688],[74.51191,21.76764],[74.51123,21.76838],[74.51052,21.76911],[74.50982,21.76983],[74.50916,21.77055],[74.50844,21.77119],[74.50762,21.77178],[74.50679,21.77235],[74.50605,21.77298],[74.50547,21.7737],[74.505,21.77451],[74.50458,21.77534],[74.50422,21.77622],[74.50388,21.77711],[74.50355,21.77801],[74.50323,21.77891],[74.50291,21.77981],[74.50256,21.78069],[74.49974,21.79587],[74.50024,21.80525],[74.50594,21.81394],[74.50845,21.81928],[74.51369,21.85453],[74.51419,21.87292],[74.51449,21.88426],[74.51515,21.88812],[74.51822,21.89352],[74.52425,21.90145],[74.52428,21.90678],[74.52077,21.91106],[74.51411,21.91556],[74.51141,21.92048],[74.51237,21.92587],[74.51232,21.93192],[74.49351,21.94442],[74.48905,21.94347],[74.48655,21.94517],[74.4901,21.9525],[74.486,21.95478],[74.48239,21.95554],[74.48119,21.95876],[74.47962,21.96045],[74.47455,21.95956],[74.4718,21.96073],[74.46886,21.96354],[74.46397,21.96282],[74.46081,21.96124],[74.45659,21.96087],[74.44831,21.96554],[74.44524,21.96917],[74.44378,21.97432],[74.43964,21.98111],[74.43926,21.99167],[74.43769,21.99448],[74.43289,21.99752],[74.43282,22.00027],[74.44045,22.00419],[74.44237,22.00489],[74.4466,22.00348],[74.45057,22.00029],[74.45048,22.00419],[74.44816,22.00699],[74.44428,22.0105],[74.44116,22.01401],[74.43922,22.01963],[74.4427,22.02454],[74.4361,22.02454],[74.43219,22.02903],[74.44658,22.03534],[74.46757,22.04094],[74.48544,22.04443],[74.50294,22.0444],[74.51807,22.04595],[74.52702,22.04944],[74.53519,22.04873],[74.54023,22.04311],[74.54451,22.03678],[74.54878,22.02976],[74.55423,22.02554],[74.56083,22.02202],[74.57055,22.0199],[74.58726,22.02057],[74.6067,22.02404],[74.62458,22.03033],[74.63858,22.03591],[74.65219,22.03447],[74.66462,22.03304],[74.67591,22.03372],[74.68368,22.03931],[74.69147,22.04632],[74.71285,22.05259],[74.73426,22.06025],[74.76305,22.0721],[74.77823,22.07698],[74.78912,22.07834],[74.8,22.0741],[74.81321,22.06703],[74.82991,22.05996],[74.84509,22.06482],[74.87545,22.07526],[74.90463,22.08221],[74.92953,22.08292],[74.94976,22.08247],[74.96104,22.08374],[74.98188,22.08417],[74.9997,22.08582],[75.01686,22.08575],[75.01826,22.08699],[75.02505,22.08788],[75.04873,22.08989],[75.06476,22.09401],[75.08115,22.09471],[75.09136,22.09439],[75.09649,22.09505],[75.10972,22.09397],[75.13405,22.09945],[75.14258,22.1022],[75.1493,22.10296],[75.17951,22.10379],[75.18938,22.1031],[75.19878,22.10465],[75.20787,22.11089],[75.221,22.11718],[75.23099,22.1206],[75.24472,22.12389],[75.2537,22.12509],[75.26971,22.12571],[75.29189,22.12436],[75.30679,22.12756],[75.31915,22.13366],[75.31922,22.13342],[75.31981,22.12988],[75.31996,22.12899],[75.3201,22.1282],[75.32213,22.12584],[75.32257,22.12533],[75.32709,22.12344],[75.33583,22.125],[75.34319,22.12376],[75.34624,22.12127],[75.34731,22.119],[75.35219,22.11537],[75.35534,22.11556],[75.35837,22.11096],[75.35806,22.10874],[75.35884,22.10618],[75.36043,22.10319],[75.36164,22.10258],[75.36555,22.10236],[75.37092,22.10205],[75.37204,22.10198],[75.37861,22.10329],[75.38323,22.10096],[75.38667,22.09753],[75.38885,22.09527],[75.39124,22.09281],[75.39266,22.09184],[75.39683,22.09132],[75.39841,22.08833],[75.39828,22.08639],[75.39631,22.08356],[75.39737,22.08139],[75.40271,22.07842],[75.40269,22.07621],[75.39773,22.07403],[75.39116,22.07358],[75.39053,22.07353],[75.38779,22.0729],[75.38634,22.07175],[75.39402,22.06977],[75.40327,22.06536],[75.40561,22.06635],[75.41755,22.06404],[75.42111,22.06424],[75.42425,22.06443],[75.43424,22.06646],[75.45025,22.06972],[75.45552,22.06896],[75.45762,22.06525],[75.45733,22.06229],[75.45264,22.05782],[75.44252,22.05918],[75.42866,22.05905],[75.42263,22.05894],[75.42207,22.05893],[75.41609,22.05755],[75.41505,22.05285],[75.41525,22.0489],[75.41593,22.03958],[75.41763,22.03337],[75.42003,22.02802],[75.4202,22.02765],[75.42404,22.02509],[75.4272,22.02528],[75.43442,22.02789],[75.44303,22.02741],[75.44521,22.02426],[75.43649,22.01797],[75.42711,22.01358],[75.41842,22.00512],[75.41493,22.00326],[75.40644,22.003],[75.4068,22.00126],[75.3998,21.99024],[75.3971,21.9878],[75.39219,21.98673],[75.38695,21.98703],[75.38336,21.98812],[75.36851,21.98753],[75.36321,21.98732],[75.35863,21.98635],[75.35562,21.98202],[75.35379,21.98067],[75.35547,21.9752],[75.35418,21.97258],[75.35476,21.97002],[75.35444,21.96019],[75.35438,21.9584],[75.35088,21.95424],[75.34246,21.94928],[75.33885,21.94816],[75.33913,21.93774],[75.34074,21.92814],[75.33646,21.92101],[75.33596,21.9127],[75.33699,21.91154],[75.33331,21.90958],[75.32293,21.90755],[75.31678,21.90678],[75.31594,21.90674],[75.30768,21.9086],[75.30545,21.91019],[75.30183,21.92039],[75.30026,21.92283],[75.29566,21.92462],[75.29177,21.92284],[75.28574,21.91501],[75.28487,21.9089],[75.28616,21.90323],[75.28976,21.89644],[75.28935,21.89412],[75.28104,21.88917],[75.27954,21.887],[75.27966,21.88036],[75.27976,21.87531],[75.28078,21.87147],[75.28405,21.86854],[75.29242,21.86665],[75.29963,21.86331],[75.3024,21.8576],[75.30233,21.85391],[75.30807,21.84534],[75.30987,21.83895],[75.30853,21.83504],[75.30519,21.83457],[75.29795,21.82914],[75.29674,21.82822],[75.29462,21.82401],[75.29454,21.82088],[75.29581,21.81834],[75.29557,21.8141],[75.2912,21.81212],[75.29008,21.80766],[75.28744,21.80684],[75.27976,21.80651],[75.27749,21.80386],[75.27608,21.79912],[75.27688,21.79611],[75.28128,21.78895],[75.28506,21.77988],[75.28344,21.77559],[75.27579,21.76881],[75.27586,21.76697],[75.27324,21.76284],[75.27324,21.7575],[75.27547,21.75117],[75.27827,21.74663],[75.28159,21.74173],[75.2791,21.73991],[75.26915,21.74245],[75.26421,21.74533],[75.25265,21.74073],[75.24661,21.74413],[75.23824,21.74378],[75.23219,21.74211],[75.22191,21.73763],[75.21783,21.73586],[75.20919,21.72941],[75.2092,21.7206],[75.21014,21.71352],[75.21072,21.7092],[75.21367,21.70377],[75.2178,21.7015],[75.22069,21.69506],[75.24773,21.68854],[75.26365,21.68388],[75.26822,21.68062],[75.2653,21.6739],[75.27294,21.67249],[75.27535,21.66851],[75.27321,21.66218],[75.27461,21.65882],[75.28105,21.65515],[75.28593,21.65107],[75.28976,21.64575],[75.2917,21.6355],[75.29657,21.63427],[75.3067,21.64034],[75.3131,21.64751],[75.31638,21.65073],[75.31942,21.65653],[75.32829,21.66206],[75.33527,21.66246],[75.34015,21.66647],[75.37351,21.67443],[75.39158,21.67782],[75.40009,21.67824],[75.41495,21.67897],[75.42248,21.67918],[75.43421,21.67856],[75.44042,21.6758],[75.4429,21.67256],[75.44328,21.66972],[75.44356,21.6677],[75.44126,21.66008],[75.44185,21.65715],[75.44508,21.65513],[75.44917,21.65065],[75.45209,21.64586],[75.45267,21.64054],[75.46209,21.63594],[75.46739,21.63085],[75.4705,21.62598],[75.47103,21.62516],[75.48189,21.62153],[75.49966,21.61774],[75.50084,21.61749],[75.50489,21.61411],[75.49866,21.60904],[75.49307,21.59985],[75.48896,21.59908],[75.48236,21.58204],[75.48343,21.56789],[75.47449,21.56449],[75.47011,21.56031],[75.46587,21.55256],[75.46447,21.54961],[75.46223,21.54313],[75.46181,21.5329],[75.46169,21.53022],[75.46586,21.51786],[75.4663,21.51654],[75.47075,21.5129],[75.47354,21.51197],[75.4781,21.50664],[75.48635,21.49698],[75.49844,21.48897],[75.5024,21.48798],[75.51551,21.48875],[75.52793,21.48948],[75.53596,21.47922],[75.53883,21.47857],[75.54793,21.47942],[75.55848,21.47933],[75.56656,21.47862],[75.58351,21.475],[75.59668,21.46544],[75.60297,21.46225],[75.60832,21.45989],[75.61149,21.45612],[75.60387,21.44586],[75.59325,21.43671],[75.59498,21.43216],[75.59194,21.42314],[75.59779,21.42165],[75.60073,21.42192],[75.60521,21.42031],[75.60656,21.4151],[75.60621,21.40201],[75.62102,21.40014],[75.62878,21.39733],[75.63005,21.39461],[75.62875,21.39245],[75.62477,21.39086],[75.6212,21.39104],[75.61889,21.39088]]]}}]}