{"type":"FeatureCollection","features":[{"type":"Feature","properties":{"id":"betul","name":"Betul","stateId":"madhya-pradesh","stateName":"Madhya Pradesh","censuscode":447,"type":"district"},"geometry":{"type":"MultiPolygon","coordinates":[[[[78.27686,22.39921],[78.27947,22.39605],[78.2801,22.39414],[78.281,22.3916],[78.28184,22.38726],[78.28231,22.3839],[78.28229,22.38007],[78.28283,22.37642],[78.28312,22.37288],[78.28279,22.36946],[78.28307,22.36715],[78.28329,22.36395],[78.28316,22.35971],[78.2832,22.35618],[78.28312,22.35229],[78.28039,22.35093],[78.27618,22.34909],[78.27382,22.34686],[78.27098,22.3448],[78.26849,22.34251],[78.26698,22.34041],[78.26452,22.33673],[78.26234,22.33514],[78.2601,22.33291],[78.25512,22.3292],[78.25198,22.32678],[78.25095,22.32521],[78.24902,22.32287],[78.24995,22.31783],[78.25125,22.31535],[78.25344,22.31195],[78.25624,22.30816],[78.25701,22.30625],[78.25862,22.30412],[78.25982,22.30117],[78.26091,22.29718],[78.26112,22.29417],[78.26082,22.28941],[78.26125,22.28448],[78.26169,22.27864],[78.26278,22.27504],[78.26442,22.27054],[78.26554,22.26875],[78.26654,22.26691],[78.27042,22.26567],[78.27729,22.26378],[78.28193,22.26476],[78.28512,22.26449],[78.28775,22.26354],[78.29102,22.26195],[78.29244,22.26063],[78.2932,22.25832],[78.29426,22.25636],[78.29498,22.25318],[78.29427,22.25131],[78.293,22.2495],[78.29138,22.2471],[78.29013,22.24483],[78.28747,22.24202],[78.28479,22.24054],[78.28066,22.23812],[78.27885,22.23636],[78.2763,22.23407],[78.27468,22.23225],[78.27311,22.22998],[78.27136,22.22822],[78.26997,22.22687],[78.26728,22.22232],[78.26907,22.22106],[78.26959,22.21834],[78.2689,22.21473],[78.26704,22.21181],[78.26591,22.20896],[78.26584,22.20466],[78.2663,22.20195],[78.26556,22.19805],[78.2648,22.19463],[78.26423,22.1923],[78.26543,22.18894],[78.26551,22.18634],[78.26587,22.1828],[78.26658,22.1798],[78.26704,22.17672],[78.2675,22.17417],[78.26803,22.17122],[78.268,22.16897],[78.26803,22.16612],[78.26809,22.16148],[78.26897,22.15894],[78.2707,22.15676],[78.2719,22.15439],[78.27183,22.15068],[78.27016,22.14695],[78.27027,22.14232],[78.27147,22.13942],[78.27291,22.13712],[78.27409,22.13528],[78.27551,22.13367],[78.27708,22.13079],[78.27738,22.12656],[78.27742,22.12278],[78.2771,22.11878],[78.2766,22.11471],[78.27561,22.11076],[78.27522,22.10815],[78.27637,22.10387],[78.27789,22.09962],[78.27738,22.09524],[78.27816,22.09125],[78.27971,22.08923],[78.28576,22.08941],[78.28783,22.09001],[78.29246,22.0914],[78.29648,22.09208],[78.30093,22.09305],[78.30561,22.09461],[78.31065,22.09709],[78.31302,22.09816],[78.31977,22.10096],[78.32408,22.10338],[78.32923,22.10645],[78.33312,22.10794],[78.33689,22.1092],[78.34006,22.11004],[78.3425,22.1107],[78.34508,22.11021],[78.34298,22.10624],[78.3421,22.10369],[78.34085,22.09972],[78.34017,22.09601],[78.34027,22.09247],[78.34172,22.08831],[78.34249,22.08617],[78.3441,22.083],[78.34566,22.08081],[78.34691,22.07845],[78.3465,22.07149],[78.34579,22.06927],[78.34546,22.06672],[78.34554,22.06475],[78.34599,22.06231],[78.34707,22.05955],[78.34692,22.05659],[78.34724,22.05474],[78.35048,22.05401],[78.35431,22.05069],[78.35546,22.04681],[78.35573,22.04478],[78.3563,22.04236],[78.35725,22.04016],[78.35867,22.03838],[78.36064,22.03724],[78.36614,22.0366],[78.37059,22.0367],[78.37416,22.035],[78.37674,22.03293],[78.37896,22.03111],[78.38106,22.02881],[78.38489,22.02519],[78.3878,22.02209],[78.39095,22.01887],[78.39378,22.01559],[78.39565,22.01317],[78.39811,22.0103],[78.40034,22.00725],[78.4022,22.00512],[78.40108,22.00137],[78.40027,21.99604],[78.40341,21.99329],[78.40366,21.99105],[78.39905,21.98416],[78.39505,21.98106],[78.39216,21.97761],[78.39118,21.9725],[78.38798,21.96774],[78.38719,21.96377],[78.38786,21.94661],[78.38552,21.94133],[78.39019,21.93599],[78.39038,21.93348],[78.38946,21.92991],[78.39007,21.92641],[78.39462,21.92492],[78.39763,21.92683],[78.3991,21.93061],[78.39886,21.9402],[78.40279,21.94009],[78.41072,21.93814],[78.41251,21.94049],[78.41656,21.95123],[78.41975,21.95457],[78.42406,21.95595],[78.42744,21.95532],[78.43475,21.95217],[78.43806,21.95452],[78.44182,21.95883],[78.44532,21.96028],[78.44827,21.95872],[78.45066,21.95523],[78.45374,21.95425],[78.45596,21.95695],[78.45835,21.95833],[78.46633,21.95896],[78.46744,21.96144],[78.46997,21.9607],[78.47346,21.95817],[78.47537,21.95358],[78.48299,21.94791],[78.49091,21.94061],[78.4954,21.93821],[78.5008,21.93908],[78.51321,21.93604],[78.518,21.93289],[78.51997,21.92956],[78.52076,21.9241],[78.52082,21.9186],[78.51965,21.91406],[78.52081,21.90918],[78.54195,21.9081],[78.54201,21.90374],[78.53942,21.89949],[78.54101,21.88974],[78.54359,21.886],[78.5467,21.867],[78.54086,21.86453],[78.53993,21.86063],[78.54214,21.85725],[78.54134,21.85305],[78.53372,21.84932],[78.53144,21.84399],[78.52591,21.83669],[78.52229,21.83503],[78.51141,21.83238],[78.50614,21.83244],[78.50049,21.83392],[78.49496,21.83191],[78.48605,21.8264],[78.47739,21.82438],[78.47279,21.81761],[78.46964,21.81519],[78.46904,21.81318],[78.47094,21.81157],[78.4761,21.81066],[78.48015,21.80876],[78.4988,21.79213],[78.49529,21.78742],[78.49149,21.78575],[78.48707,21.78478],[78.47331,21.78505],[78.47245,21.76737],[78.4714,21.76445],[78.46803,21.76611],[78.46447,21.76558],[78.46213,21.76271],[78.46146,21.75968],[78.46642,21.74607],[78.4671,21.74211],[78.46359,21.7277],[78.46175,21.72294],[78.4585,21.71794],[78.45622,21.71719],[78.45052,21.71885],[78.44401,21.71764],[78.42965,21.7182],[78.42762,21.7155],[78.4291,21.70798],[78.42885,21.70275],[78.42756,21.69863],[78.42185,21.69069],[78.41866,21.68771],[78.41572,21.68334],[78.41075,21.68104],[78.40222,21.6812],[78.39928,21.68016],[78.39529,21.67551],[78.39013,21.66603],[78.38945,21.66143],[78.39283,21.6522],[78.39859,21.64635],[78.39473,21.6394],[78.38069,21.63864],[78.37596,21.63088],[78.37063,21.62932],[78.36726,21.62019],[78.36063,21.62546],[78.35609,21.6277],[78.35051,21.62792],[78.34647,21.6104],[78.34377,21.60626],[78.34151,21.58875],[78.33318,21.57941],[78.32767,21.57562],[78.32344,21.57383],[78.31351,21.57192],[78.30879,21.56967],[78.30652,21.5711],[78.30645,21.57862],[78.30467,21.58327],[78.28628,21.58496],[78.27572,21.59114],[78.27076,21.59246],[78.26683,21.59193],[78.26223,21.59002],[78.25978,21.58801],[78.26003,21.58343],[78.26316,21.58009],[78.27365,21.57293],[78.27487,21.57058],[78.2739,21.56892],[78.25115,21.56221],[78.24331,21.56368],[78.23124,21.55464],[78.22002,21.55192],[78.18544,21.55683],[78.18177,21.55487],[78.17723,21.55147],[78.1751,21.54038],[78.17616,21.53395],[78.17555,21.52694],[78.17248,21.52423],[78.18213,21.51254],[78.17583,21.50673],[78.17504,21.50029],[78.17381,21.49673],[78.14724,21.48035],[78.13163,21.47164],[78.11345,21.46241],[78.10511,21.45919],[78.09685,21.45425],[78.08289,21.44394],[78.06801,21.43709],[78.05534,21.43526],[78.04775,21.43326],[78.03338,21.42359],[78.02382,21.41882],[78.01128,21.41663],[78.00865,21.41411],[78.00392,21.41439],[78.00002,21.412],[77.98444,21.40103],[77.9757,21.3996],[77.96408,21.39965],[77.94522,21.39716],[77.94286,21.38513],[77.93584,21.38404],[77.92897,21.38428],[77.92232,21.38296],[77.91581,21.38098],[77.90956,21.37778],[77.90308,21.37662],[77.89633,21.37725],[77.89067,21.37863],[77.88588,21.37589],[77.8874,21.38368],[77.8672,21.3863],[77.8587,21.38889],[77.85056,21.39227],[77.83786,21.39966],[77.82193,21.40685],[77.8084,21.41011],[77.80325,21.41042],[77.79986,21.40438],[77.79784,21.39774],[77.79731,21.38888],[77.79397,21.38738],[77.78937,21.38752],[77.78039,21.38616],[77.76888,21.38279],[77.76522,21.38255],[77.76071,21.38453],[77.75373,21.38383],[77.75027,21.38233],[77.74716,21.37819],[77.74214,21.36476],[77.73764,21.36285],[77.72864,21.36227],[77.70895,21.3572],[77.70887,21.37156],[77.70807,21.3758],[77.69925,21.37586],[77.69631,21.37874],[77.69795,21.39262],[77.69725,21.39461],[77.69484,21.39514],[77.69197,21.3948],[77.68477,21.38357],[77.67367,21.37101],[77.67088,21.36958],[77.66845,21.37172],[77.66673,21.37553],[77.667,21.3837],[77.66574,21.38604],[77.65521,21.38825],[77.65461,21.39145],[77.64952,21.39142],[77.64619,21.38946],[77.64508,21.38674],[77.64282,21.386],[77.63979,21.38755],[77.6329,21.38903],[77.61877,21.3887],[77.61502,21.39185],[77.6051,21.3916],[77.60274,21.39058],[77.60421,21.38716],[77.60421,21.38394],[77.60559,21.38225],[77.60935,21.36841],[77.60837,21.36506],[77.60503,21.36333],[77.59053,21.36581],[77.58796,21.36254],[77.58432,21.36718],[77.57952,21.36852],[77.57438,21.3713],[77.56881,21.37067],[77.56599,21.37142],[77.55988,21.38015],[77.5577,21.38838],[77.55869,21.39081],[77.56271,21.39228],[77.56238,21.39618],[77.55529,21.40167],[77.54873,21.40539],[77.54755,21.40939],[77.53058,21.419],[77.52857,21.40907],[77.52526,21.40286],[77.52412,21.39169],[77.52261,21.38781],[77.51735,21.3842],[77.51587,21.38164],[77.51392,21.37477],[77.50511,21.37724],[77.49038,21.37574],[77.48634,21.38836],[77.48752,21.39649],[77.48511,21.41362],[77.48047,21.41881],[77.47637,21.43062],[77.47255,21.43497],[77.47219,21.44083],[77.47311,21.44659],[77.47192,21.45082],[77.47264,21.4548],[77.46049,21.46496],[77.45712,21.46518],[77.45223,21.46755],[77.44163,21.47079],[77.44115,21.47606],[77.43844,21.47951],[77.44068,21.48139],[77.44252,21.48717],[77.43442,21.50006],[77.42408,21.5141],[77.42209,21.51865],[77.42025,21.53086],[77.4232,21.53649],[77.42681,21.54035],[77.43226,21.54345],[77.43519,21.5442],[77.4454,21.54245],[77.44998,21.5434],[77.4536,21.54618],[77.45366,21.54974],[77.45531,21.5534],[77.46086,21.55437],[77.46811,21.55377],[77.47213,21.55229],[77.48742,21.5511],[77.50781,21.55249],[77.51071,21.54863],[77.51537,21.54534],[77.53266,21.53861],[77.53882,21.53689],[77.54423,21.53676],[77.55691,21.53403],[77.57052,21.52762],[77.58144,21.52709],[77.59282,21.52823],[77.59847,21.53104],[77.61073,21.54064],[77.60936,21.54877],[77.59426,21.55945],[77.58909,21.55666],[77.57765,21.55535],[77.57455,21.56046],[77.57356,21.56762],[77.5738,21.57348],[77.57578,21.58548],[77.5735,21.60892],[77.57174,21.614],[77.5714,21.61883],[77.57455,21.62129],[77.5749,21.62481],[77.56911,21.63279],[77.56394,21.64293],[77.56111,21.65332],[77.56215,21.66638],[77.55408,21.67398],[77.55092,21.67927],[77.54923,21.68377],[77.54813,21.69012],[77.54575,21.6987],[77.53947,21.70593],[77.53694,21.71036],[77.52964,21.71268],[77.52697,21.71119],[77.52457,21.71178],[77.52235,21.7188],[77.52143,21.72465],[77.51187,21.7329],[77.50955,21.73883],[77.50334,21.7425],[77.50037,21.7468],[77.49231,21.74785],[77.47933,21.75547],[77.47862,21.76332],[77.48048,21.76554],[77.48123,21.7678],[77.47893,21.76902],[77.47483,21.76882],[77.46212,21.76575],[77.45605,21.7619],[77.45331,21.76098],[77.44729,21.76109],[77.44191,21.76029],[77.41634,21.7553],[77.40447,21.75374],[77.37921,21.75466],[77.35663,21.75701],[77.34553,21.75937],[77.34063,21.7591],[77.32917,21.7549],[77.32451,21.75457],[77.31206,21.75718],[77.29682,21.75745],[77.2894,21.76027],[77.2831,21.75877],[77.28019,21.75732],[77.2814,21.74667],[77.28541,21.74566],[77.28759,21.74398],[77.28622,21.73918],[77.28641,21.73603],[77.29001,21.73398],[77.28894,21.72637],[77.28627,21.72178],[77.27045,21.72662],[77.26585,21.72117],[77.2611,21.71338],[77.25823,21.71274],[77.24297,21.71466],[77.22761,21.71543],[77.22624,21.70173],[77.22461,21.69767],[77.22096,21.69599],[77.21319,21.69468],[77.21038,21.69156],[77.20433,21.69388],[77.18727,21.702],[77.19098,21.7201],[77.18676,21.72202],[77.17436,21.72478],[77.17095,21.72328],[77.16796,21.71444],[77.16532,21.71164],[77.16066,21.71093],[77.15038,21.71217],[77.13619,21.71983],[77.12393,21.72285],[77.11699,21.72236],[77.10691,21.72039],[77.09671,21.71712],[77.08653,21.71613],[77.083,21.7162],[77.07805,21.71987],[77.07507,21.72042],[77.07176,21.7193],[77.06477,21.71254],[77.06051,21.71686],[77.06141,21.72136],[77.05889,21.73336],[77.06561,21.73493],[77.06669,21.73265],[77.06692,21.72977],[77.07217,21.72847],[77.0743,21.72997],[77.07604,21.73261],[77.0768,21.73552],[77.07326,21.74155],[77.07162,21.74758],[77.07326,21.75922],[77.07631,21.76039],[77.07932,21.7696],[77.08947,21.772],[77.09751,21.77244],[77.10731,21.77676],[77.10787,21.77958],[77.10696,21.78162],[77.10127,21.78323],[77.10052,21.78614],[77.10389,21.78682],[77.10939,21.78562],[77.11188,21.78413],[77.11286,21.78168],[77.11887,21.77659],[77.12099,21.77532],[77.12433,21.77463],[77.12653,21.77525],[77.13082,21.77848],[77.13454,21.77947],[77.14122,21.78286],[77.1464,21.777],[77.1516,21.77538],[77.16348,21.7826],[77.17074,21.78194],[77.17515,21.78259],[77.18339,21.78464],[77.19087,21.78554],[77.19763,21.7886],[77.19804,21.79204],[77.18672,21.79273],[77.18589,21.79444],[77.18999,21.80604],[77.18452,21.80583],[77.1743,21.80682],[77.17047,21.80789],[77.1683,21.81386],[77.16821,21.82343],[77.16733,21.82696],[77.16794,21.83844],[77.16473,21.84404],[77.16265,21.84944],[77.16291,21.85655],[77.16556,21.86486],[77.16752,21.86765],[77.17828,21.87064],[77.17906,21.86876],[77.18538,21.86666],[77.18979,21.86199],[77.19136,21.86351],[77.19513,21.86532],[77.20779,21.86535],[77.21054,21.86616],[77.21211,21.86745],[77.21315,21.8708],[77.20384,21.87164],[77.20183,21.87332],[77.20191,21.8759],[77.21101,21.88394],[77.21153,21.88574],[77.20687,21.89029],[77.20973,21.89442],[77.21374,21.89668],[77.21641,21.9015],[77.21901,21.90521],[77.24152,21.91028],[77.24663,21.91251],[77.24957,21.9162],[77.25369,21.92754],[77.25846,21.93402],[77.25951,21.9372],[77.25962,21.94306],[77.26637,21.94648],[77.27059,21.95627],[77.27485,21.96101],[77.27584,21.96407],[77.28458,21.96351],[77.29446,21.96716],[77.29887,21.96777],[77.32296,21.96861],[77.33512,21.97214],[77.34486,21.97658],[77.36347,21.98335],[77.37085,21.98913],[77.3729,21.99152],[77.38026,21.99213],[77.38597,21.99552],[77.39492,21.99662],[77.39686,22.00001],[77.39202,22.0067],[77.39084,22.00849],[77.39003,22.0115],[77.38952,22.01588],[77.39037,22.01964],[77.39296,22.02241],[77.39703,22.02494],[77.40167,22.02622],[77.40712,22.02483],[77.41201,22.02453],[77.41869,22.02337],[77.42123,22.02331],[77.42883,22.02395],[77.43403,22.02475],[77.43533,22.02498],[77.44084,22.02405],[77.44251,22.02399],[77.44684,22.02434],[77.45265,22.02445],[77.45655,22.02456],[77.46292,22.02559],[77.46681,22.02674],[77.4735,22.02796],[77.48005,22.02893],[77.48759,22.03031],[77.4939,22.03192],[77.49834,22.03347],[77.49895,22.03585],[77.49931,22.03832],[77.49893,22.0419],[77.49862,22.04266],[77.49972,22.04571],[77.50057,22.04901],[77.5016,22.05398],[77.50191,22.05542],[77.50073,22.05618],[77.49876,22.05824],[77.49795,22.05946],[77.4977,22.06148],[77.49848,22.06477],[77.49892,22.06656],[77.4991,22.06673],[77.49971,22.06869],[77.50161,22.07245],[77.50247,22.07494],[77.50283,22.0765],[77.50023,22.07811],[77.49596,22.07835],[77.49088,22.0783],[77.4858,22.0783],[77.48146,22.07946],[77.48103,22.07964],[77.47861,22.08132],[77.47507,22.0834],[77.46913,22.08439],[77.46431,22.08433],[77.45868,22.08162],[77.4567,22.08191],[77.45582,22.08296],[77.45464,22.08538],[77.45457,22.08815],[77.4548,22.09093],[77.45505,22.09121],[77.45739,22.09375],[77.45812,22.09624],[77.4578,22.09907],[77.4576,22.10218],[77.45759,22.10502],[77.45869,22.10831],[77.4614,22.1112],[77.46362,22.11299],[77.46645,22.11663],[77.46749,22.1213],[77.46524,22.12535],[77.46294,22.12882],[77.46082,22.13223],[77.46013,22.13373],[77.46037,22.13523],[77.46141,22.13841],[77.46213,22.14182],[77.46255,22.14655],[77.46383,22.15186],[77.46487,22.15561],[77.46719,22.16122],[77.46655,22.16717],[77.46245,22.17035],[77.45947,22.1718],[77.45265,22.17377],[77.44764,22.17371],[77.44044,22.17292],[77.43797,22.17378],[77.43363,22.17379],[77.42577,22.17321],[77.4202,22.17304],[77.41622,22.17484],[77.41397,22.17854],[77.40985,22.1857],[77.40811,22.1887],[77.40448,22.1938],[77.40324,22.19477],[77.40001,22.19697],[77.39783,22.20033],[77.39638,22.20373],[77.39284,22.20541],[77.3903,22.20616],[77.38788,22.20783],[77.38358,22.212],[77.3804,22.21495],[77.37537,22.21818],[77.37152,22.21859],[77.36707,22.21865],[77.36261,22.21824],[77.36098,22.22217],[77.35953,22.22552],[77.35725,22.2346],[77.35718,22.23668],[77.35678,22.24257],[77.35657,22.24719],[77.35643,22.24904],[77.35642,22.24913],[77.36021,22.24939],[77.3645,22.24968],[77.36927,22.24857],[77.37466,22.24851],[77.3795,22.24817],[77.38025,22.24458],[77.38059,22.2421],[77.38104,22.23806],[77.38199,22.23383],[77.38263,22.22968],[77.38549,22.22639],[77.38866,22.22557],[77.39294,22.22517],[77.40006,22.22499],[77.40614,22.22574],[77.41121,22.22522],[77.41464,22.22348],[77.41842,22.22094],[77.42066,22.21892],[77.42272,22.21787],[77.42761,22.21735],[77.43802,22.21804],[77.44335,22.21896],[77.4489,22.22288],[77.45111,22.22698],[77.45196,22.23184],[77.45101,22.23674],[77.451,22.24027],[77.45073,22.24414],[77.45134,22.24541],[77.45257,22.24784],[77.45375,22.2494],[77.45622,22.24992],[77.45877,22.24957],[77.45988,22.24945],[77.46515,22.2495],[77.46954,22.25089],[77.47245,22.25261],[77.47652,22.25608],[77.47962,22.25873],[77.47978,22.26231],[77.47972,22.26451],[77.48168,22.26988],[77.48396,22.27191],[77.48787,22.27259],[77.49095,22.27571],[77.49546,22.27802],[77.50061,22.28009],[77.50251,22.28309],[77.50077,22.28517],[77.49828,22.28766],[77.49752,22.28922],[77.49764,22.29275],[77.49818,22.29748],[77.49952,22.30366],[77.50037,22.30748],[77.50049,22.30765],[77.50339,22.31262],[77.50723,22.31359],[77.50952,22.31671],[77.51192,22.32069],[77.51437,22.32618],[77.51733,22.32993],[77.52329,22.33033],[77.52806,22.3328],[77.53157,22.33742],[77.53498,22.34002],[77.53733,22.34239],[77.53973,22.34649],[77.54195,22.35076],[77.54423,22.35492],[77.54714,22.35636],[77.54938,22.353],[77.54934,22.34867],[77.54856,22.34237],[77.54875,22.33982],[77.54981,22.33821],[77.55285,22.33688],[77.55732,22.33797],[77.56096,22.33975],[77.56457,22.34067],[77.56772,22.34078],[77.57045,22.3406],[77.57349,22.34077],[77.57628,22.34094],[77.57883,22.34152],[77.58304,22.34289],[77.58689,22.3426],[77.58931,22.34016],[77.59125,22.33565],[77.59243,22.3327],[77.59431,22.33235],[77.59865,22.33159],[77.60044,22.32911],[77.60312,22.32824],[77.60653,22.32962],[77.60901,22.33024],[77.61266,22.33111],[77.61477,22.3314],[77.61725,22.33011],[77.61764,22.32567],[77.62026,22.32173],[77.62429,22.32155],[77.62881,22.32131],[77.63211,22.31894],[77.63329,22.31622],[77.63554,22.31257],[77.63803,22.30985],[77.6423,22.30897],[77.64764,22.30809],[77.65037,22.30624],[77.65342,22.30669],[77.65843,22.30871],[77.66264,22.31003],[77.6676,22.31001],[77.67437,22.31041],[77.67671,22.31231],[77.67695,22.31559],[77.67757,22.31802],[77.68023,22.322],[77.68413,22.32309],[77.69127,22.3229],[77.69555,22.32185],[77.70051,22.3212],[77.70789,22.32031],[77.7136,22.31897],[77.7195,22.31757],[77.72135,22.31855],[77.72034,22.31254],[77.72312,22.31213],[77.72652,22.31288],[77.72714,22.31387],[77.72869,22.31768],[77.73129,22.319],[77.73376,22.31941],[77.73779,22.31882],[77.74281,22.3183],[77.74548,22.31997],[77.74789,22.3221],[77.74994,22.32315],[77.75167,22.32656],[77.75036,22.32991],[77.74801,22.33327],[77.7451,22.33477],[77.74132,22.33588],[77.73895,22.33866],[77.74112,22.34138],[77.74465,22.34408],[77.74738,22.34507],[77.75116,22.34442],[77.75518,22.34286],[77.75897,22.34089],[77.76232,22.33776],[77.76491,22.33493],[77.76752,22.33209],[77.77149,22.32891],[77.77483,22.32769],[77.78041,22.32682],[77.7853,22.32716],[77.79144,22.3282],[77.79509,22.32866],[77.79788,22.32976],[77.80103,22.3315],[77.80165,22.33376],[77.80302,22.3378],[77.80562,22.33867],[77.81058,22.33984],[77.81696,22.34077],[77.81882,22.34111],[77.82335,22.3432],[77.82576,22.34593],[77.82836,22.34744],[77.83103,22.3501],[77.83475,22.35422],[77.83773,22.35677],[77.84449,22.35784],[77.84877,22.35746],[77.85684,22.35578],[77.85883,22.35384],[77.86039,22.34977],[77.86163,22.34582],[77.8612,22.3416],[77.86076,22.33703],[77.85977,22.3335],[77.85915,22.32979],[77.85853,22.32718],[77.85808,22.32433],[77.85808,22.32341],[77.85771,22.31894],[77.8582,22.31541],[77.85858,22.31245],[77.85838,22.30845],[77.85732,22.30373],[77.85676,22.29931],[77.85663,22.29529],[77.85724,22.2924],[77.85737,22.28938],[77.85761,22.28705],[77.85774,22.28426],[77.85711,22.28042],[77.86157,22.27964],[77.8656,22.27995],[77.87107,22.28016],[77.87565,22.2798],[77.87932,22.28053],[77.88195,22.28361],[77.88525,22.28747],[77.88833,22.29183],[77.89211,22.29637],[77.89602,22.3002],[77.90095,22.30265],[77.90584,22.30515],[77.91053,22.30907],[77.91461,22.31304],[77.91763,22.31657],[77.92126,22.31974],[77.92669,22.32124],[77.93266,22.32416],[77.93607,22.32696],[77.93709,22.33001],[77.93797,22.33275],[77.94026,22.3341],[77.9442,22.33494],[77.94621,22.33374],[77.94811,22.33186],[77.94896,22.32926],[77.95009,22.3268],[77.95445,22.32617],[77.95813,22.32613],[77.96279,22.32639],[77.96777,22.32544],[77.97021,22.32377],[77.97441,22.32075],[77.97917,22.32102],[77.98431,22.3181],[77.98829,22.31737],[78.00085,22.32952],[78.00275,22.32999],[78.00526,22.33141],[78.00823,22.33223],[78.01388,22.33225],[78.01821,22.33213],[78.02295,22.3312],[78.02712,22.3308],[78.03214,22.33006],[78.03613,22.32983],[78.04325,22.33248],[78.05128,22.33578],[78.05674,22.33958],[78.06334,22.34351],[78.072,22.34889],[78.08271,22.35345],[78.09284,22.35859],[78.09871,22.35988],[78.10518,22.36188],[78.11219,22.36463],[78.11866,22.3665],[78.12589,22.37024],[78.13239,22.37415],[78.13682,22.37721],[78.1429,22.38017],[78.14734,22.38254],[78.15255,22.38596],[78.1545,22.38674],[78.15902,22.38777],[78.16293,22.38827],[78.16701,22.38994],[78.17121,22.39166],[78.1751,22.39374],[78.17966,22.39517],[78.18565,22.39691],[78.19152,22.39772],[78.19923,22.39757],[78.20131,22.39758],[78.20524,22.39647],[78.21064,22.39587],[78.21448,22.39614],[78.21816,22.39601],[78.22424,22.39525],[78.2315,22.39596],[78.23463,22.3961],[78.23897,22.39614],[78.24588,22.39645],[78.24895,22.39624],[78.25336,22.39611],[78.25953,22.39692],[78.26436,22.3972],[78.26869,22.39823],[78.27321,22.40208],[78.27537,22.40094],[78.27686,22.39921]]],[[[77.02596,21.69128],[77.02076,21.6883],[77.01811,21.69924],[77.01433,21.70698],[77.0118,21.71889],[77.02526,21.72253],[77.0293,21.72412],[77.03157,21.72289],[77.03273,21.71952],[77.03229,21.70812],[77.03363,21.70328],[77.03693,21.69802],[77.03182,21.69357],[77.02596,21.69128]]]]}}]}