{"type":"FeatureCollection","features":[{"type":"Feature","properties":{"id":"bhind","name":"Bhind","stateId":"madhya-pradesh","stateName":"Madhya Pradesh","censuscode":420,"type":"district"},"geometry":{"type":"MultiPolygon","coordinates":[[[[78.72707,26.77589],[78.73163,26.77353],[78.73455,26.7738],[78.74014,26.77729],[78.74468,26.78317],[78.74978,26.7867],[78.75351,26.78359],[78.75774,26.77858],[78.76318,26.7699],[78.77083,26.76103],[78.77507,26.75873],[78.7794,26.75839],[78.78284,26.76026],[78.80739,26.7633],[78.81483,26.76298],[78.82011,26.75968],[78.84938,26.72029],[78.85984,26.71063],[78.86301,26.70654],[78.87363,26.69889],[78.87993,26.69784],[78.88578,26.69777],[78.89162,26.69863],[78.91269,26.7076],[78.91664,26.70717],[78.92151,26.7046],[78.9395,26.6985],[78.95688,26.69098],[78.95892,26.68827],[78.95864,26.68618],[78.94569,26.66653],[78.94449,26.66217],[78.94478,26.65913],[78.94662,26.65693],[78.9524,26.65531],[78.9566,26.65688],[78.97267,26.67075],[78.9784,26.67481],[78.98262,26.67679],[78.99265,26.67995],[78.99606,26.68028],[79.00001,26.67868],[79.00193,26.67882],[79.00607,26.67524],[79.00916,26.67097],[79.00993,26.66814],[79.00689,26.66087],[79.00447,26.65781],[79.00001,26.64882],[78.99772,26.64567],[78.99559,26.64163],[78.99593,26.63844],[79.00001,26.6357],[79.00401,26.63024],[79.00955,26.62467],[79.01179,26.62094],[79.0118,26.6135],[79.01388,26.60842],[79.01435,26.60475],[79.01239,26.60065],[79.00001,26.59892],[78.99078,26.58847],[78.98668,26.58671],[78.98963,26.5803],[78.98815,26.57586],[78.98824,26.56837],[78.99999,26.57659],[79.00218,26.5731],[79.00684,26.56851],[79.00649,26.56645],[79.00775,26.56102],[79.00659,26.55831],[79.013,26.55292],[79.01537,26.5521],[79.01382,26.55053],[79.00631,26.55016],[79.00436,26.54841],[79.0066,26.54524],[79.01146,26.54424],[79.01462,26.54572],[79.01665,26.54209],[79.02142,26.54302],[79.02587,26.54643],[79.02918,26.54597],[79.02725,26.53763],[79.02825,26.53575],[79.04172,26.5303],[79.04228,26.52773],[79.03991,26.51909],[79.04186,26.51694],[79.04809,26.51768],[79.04963,26.51708],[79.04823,26.51402],[79.04792,26.51006],[79.05235,26.50479],[79.05835,26.50099],[79.0583,26.4971],[79.05948,26.4951],[79.06196,26.49554],[79.06516,26.49749],[79.06955,26.49763],[79.06973,26.48529],[79.0709,26.48422],[79.07293,26.48118],[79.07202,26.4791],[79.05562,26.45577],[79.05532,26.45221],[79.057,26.4504],[79.06178,26.44997],[79.06603,26.4505],[79.06658,26.44564],[79.06917,26.44619],[79.06986,26.44379],[79.0721,26.44332],[79.0754,26.44377],[79.07563,26.44137],[79.07761,26.44088],[79.08134,26.44215],[79.08272,26.43994],[79.08625,26.44159],[79.0895,26.43827],[79.09161,26.4441],[79.09131,26.44667],[79.09186,26.44738],[79.09801,26.44529],[79.0997,26.44676],[79.09977,26.44963],[79.10145,26.45167],[79.10349,26.45146],[79.10847,26.4504],[79.11374,26.44797],[79.1189,26.44736],[79.12957,26.44226],[79.1326,26.43989],[79.13535,26.43918],[79.13187,26.43501],[79.12769,26.42726],[79.12538,26.4186],[79.12578,26.4115],[79.12345,26.40997],[79.10922,26.40611],[79.10557,26.40698],[79.10121,26.41053],[79.10047,26.41113],[79.09536,26.4122],[79.08924,26.39989],[79.0955,26.38547],[79.0981,26.3826],[79.097,26.37753],[79.09897,26.37378],[79.09761,26.37152],[79.08772,26.36728],[79.08525,26.36042],[79.08525,26.35709],[79.09268,26.35411],[79.10151,26.35455],[79.10521,26.35398],[79.10491,26.35002],[79.10886,26.3495],[79.11189,26.35392],[79.11374,26.35039],[79.11707,26.3489],[79.1251,26.34799],[79.12801,26.34546],[79.13169,26.33915],[79.13987,26.34032],[79.14224,26.33938],[79.14107,26.33719],[79.13528,26.33434],[79.13347,26.33236],[79.13579,26.32792],[79.1355,26.32608],[79.13272,26.32557],[79.12412,26.32951],[79.12419,26.32291],[79.12645,26.32076],[79.1357,26.31581],[79.13504,26.31047],[79.12757,26.30936],[79.12303,26.30757],[79.1172,26.30306],[79.10998,26.30828],[79.10641,26.30908],[79.10227,26.30637],[79.09992,26.30288],[79.1002,26.29847],[79.0961,26.29347],[79.09239,26.29151],[79.0915,26.28834],[79.09475,26.27811],[79.09195,26.26686],[79.08802,26.26705],[79.08559,26.26804],[79.08448,26.26963],[79.08498,26.27326],[79.08711,26.27478],[79.0871,26.27892],[79.08608,26.28165],[79.08392,26.28157],[79.08046,26.27967],[79.07706,26.2822],[79.07565,26.28205],[79.07245,26.27707],[79.06627,26.27824],[79.06165,26.27404],[79.05515,26.26503],[79.0569,26.26041],[79.05514,26.25975],[79.04537,26.26143],[79.04628,26.25731],[79.05054,26.2544],[79.0537,26.25474],[79.05526,26.24984],[79.05726,26.24814],[79.06026,26.24769],[79.06386,26.2486],[79.06679,26.24836],[79.071,26.24138],[79.06947,26.23814],[79.06487,26.23635],[79.06389,26.23409],[79.06536,26.22735],[79.0636,26.22685],[79.06048,26.22657],[79.05436,26.22801],[79.04887,26.22373],[79.04256,26.22599],[79.0379,26.22653],[79.03515,26.22783],[79.03198,26.23237],[79.0265,26.24281],[79.01869,26.24623],[79.00987,26.24617],[79,26.24285],[78.99257,26.23745],[78.99164,26.23474],[78.99271,26.23165],[78.99505,26.22901],[78.99848,26.22617],[79,26.22633],[79.00751,26.22591],[79.01052,26.22655],[79.0225,26.22162],[79.02514,26.21853],[79.02558,26.21815],[79.02701,26.21029],[79.02648,26.20699],[79.029,26.20413],[79.02889,26.20304],[79.01816,26.19941],[79.01865,26.19725],[79.02084,26.19586],[79.02331,26.19262],[79.0232,26.19193],[79.02125,26.19133],[79.01059,26.19124],[79.0048,26.19345],[79.0027,26.19492],[79,26.19844],[78.99229,26.19513],[78.98916,26.19287],[78.98561,26.18996],[78.98399,26.18726],[79.00001,26.17175],[79.00423,26.16998],[79.01163,26.16744],[79.01062,26.15921],[79.00914,26.15474],[79.00892,26.14947],[79.00281,26.14726],[79,26.14654],[78.99786,26.1452],[78.99444,26.14503],[78.97883,26.14988],[78.97353,26.15026],[78.96851,26.14875],[78.96046,26.13708],[78.95392,26.13555],[78.95083,26.13363],[78.95254,26.132],[78.96279,26.12735],[78.96627,26.1244],[78.97468,26.12014],[78.97738,26.11794],[78.97865,26.11478],[78.97793,26.1068],[78.97999,26.1032],[78.99827,26.09042],[79,26.08977],[79.00865,26.09122],[79.01165,26.08883],[79.01252,26.0846],[79.01035,26.08112],[79.01129,26.07632],[79.00929,26.07288],[79.00728,26.07162],[79.00524,26.06846],[79.00001,26.06917],[78.99416,26.0706],[78.9906,26.06828],[78.98679,26.05921],[78.9839,26.05441],[78.97628,26.05369],[78.96953,26.04535],[78.96073,26.03657],[78.95669,26.03334],[78.95238,26.03149],[78.95424,26.0256],[78.95855,26.02037],[78.95845,26.01441],[78.95337,26.00845],[78.95245,26.00345],[78.95417,26.00072],[78.95462,25.99962],[78.95413,25.99611],[78.95133,25.99278],[78.95191,25.9878],[78.95121,25.98525],[78.94748,25.98093],[78.94421,25.97987],[78.93902,25.9801],[78.93521,25.98107],[78.93258,25.97887],[78.93162,25.97543],[78.93412,25.97234],[78.93914,25.97088],[78.9375,25.9662],[78.93346,25.95999],[78.93379,25.95347],[78.93538,25.95008],[78.93806,25.94616],[78.9375,25.94395],[78.93531,25.94291],[78.93279,25.94328],[78.93012,25.9447],[78.92909,25.94543],[78.9318,25.94733],[78.92328,25.94395],[78.91771,25.94066],[78.91191,25.93568],[78.90918,25.93208],[78.906,25.92545],[78.90217,25.92044],[78.88426,25.91025],[78.8755,25.90626],[78.86919,25.90488],[78.86309,25.90715],[78.84988,25.92777],[78.84363,25.93597],[78.84063,25.94238],[78.83845,25.94451],[78.83463,25.94667],[78.83046,25.94751],[78.82587,25.94693],[78.8178,25.93878],[78.81289,25.93849],[78.80762,25.94084],[78.80378,25.94466],[78.79964,25.95551],[78.78939,25.95778],[78.78487,25.96057],[78.78322,25.9647],[78.78606,25.98555],[78.78145,25.99587],[78.77984,26.00104],[78.78058,26.00457],[78.78262,26.00662],[78.78573,26.00723],[78.7881,26.01031],[78.78723,26.01197],[78.77482,26.0155],[78.77433,26.01688],[78.77598,26.02033],[78.77981,26.02377],[78.78592,26.02766],[78.78853,26.03145],[78.78711,26.03777],[78.79,26.04208],[78.80067,26.04096],[78.80452,26.04326],[78.81519,26.04237],[78.81239,26.04681],[78.79676,26.05233],[78.79873,26.05609],[78.80563,26.06003],[78.81722,26.05876],[78.82468,26.06296],[78.82833,26.06625],[78.82921,26.06908],[78.81508,26.07184],[78.81167,26.07385],[78.80416,26.08081],[78.80122,26.08519],[78.80369,26.08926],[78.80761,26.0933],[78.81147,26.09452],[78.82157,26.09451],[78.82662,26.10066],[78.83159,26.0997],[78.83704,26.09466],[78.83849,26.09544],[78.84142,26.09906],[78.8437,26.10416],[78.84483,26.10938],[78.8437,26.11444],[78.83,26.12028],[78.82731,26.12387],[78.82431,26.12584],[78.82141,26.13078],[78.8238,26.13143],[78.8243,26.13236],[78.82567,26.13948],[78.82492,26.14431],[78.82274,26.15183],[78.81998,26.15525],[78.81563,26.15853],[78.80539,26.16334],[78.80268,26.16681],[78.80331,26.17189],[78.8091,26.182],[78.82123,26.18708],[78.82747,26.19276],[78.83735,26.1963],[78.83705,26.19969],[78.83257,26.20251],[78.8287,26.20361],[78.82325,26.20411],[78.81814,26.20288],[78.81567,26.20359],[78.81509,26.20826],[78.81225,26.21149],[78.79969,26.22134],[78.79229,26.22567],[78.79316,26.23058],[78.80174,26.23174],[78.80344,26.23995],[78.80841,26.24907],[78.81239,26.25309],[78.82463,26.26014],[78.82709,26.26409],[78.82767,26.26749],[78.82683,26.27611],[78.8247,26.28197],[78.8219,26.28483],[78.81274,26.28729],[78.80276,26.28876],[78.7956,26.28935],[78.79238,26.28867],[78.78066,26.27432],[78.77683,26.27231],[78.77392,26.26881],[78.76992,26.26611],[78.761,26.26528],[78.7549,26.26369],[78.74736,26.25264],[78.74768,26.24924],[78.75508,26.24238],[78.75521,26.23892],[78.75206,26.23508],[78.74661,26.23499],[78.74408,26.23133],[78.74215,26.22634],[78.73159,26.22872],[78.71848,26.22611],[78.71492,26.22311],[78.70937,26.22188],[78.70562,26.21934],[78.70134,26.21784],[78.69792,26.21479],[78.69269,26.20319],[78.69208,26.19846],[78.69408,26.19319],[78.70022,26.1821],[78.70131,26.17831],[78.69781,26.16882],[78.69446,26.16513],[78.68693,26.16542],[78.6792,26.16933],[78.6733,26.17034],[78.67022,26.16926],[78.6628,26.17018],[78.65997,26.16916],[78.65355,26.17044],[78.64743,26.17029],[78.63681,26.16621],[78.63331,26.16385],[78.63138,26.16181],[78.6292,26.15682],[78.62754,26.15794],[78.62576,26.16125],[78.62377,26.16646],[78.62296,26.17216],[78.62558,26.20429],[78.61974,26.21158],[78.61587,26.21866],[78.6128,26.21371],[78.61345,26.20617],[78.6127,26.19937],[78.61051,26.19461],[78.60721,26.1949],[78.60665,26.20106],[78.60303,26.20474],[78.58373,26.21464],[78.57188,26.20874],[78.56998,26.20554],[78.57051,26.20428],[78.56729,26.19749],[78.56569,26.19205],[78.55966,26.19282],[78.55222,26.19155],[78.54664,26.1918],[78.54476,26.20018],[78.54047,26.20305],[78.53854,26.20809],[78.53939,26.21565],[78.53508,26.21944],[78.51934,26.22765],[78.51752,26.23062],[78.51824,26.23864],[78.51529,26.24084],[78.50929,26.24304],[78.50441,26.24637],[78.50525,26.25496],[78.49923,26.2616],[78.49443,26.26429],[78.48243,26.26565],[78.47717,26.26285],[78.47289,26.24918],[78.47074,26.24851],[78.46665,26.25403],[78.46197,26.25677],[78.4489,26.25771],[78.44417,26.2597],[78.44022,26.26419],[78.43995,26.2684],[78.44084,26.27383],[78.43929,26.27864],[78.4248,26.28686],[78.41983,26.29145],[78.4158,26.29667],[78.41517,26.30536],[78.42036,26.32994],[78.41868,26.33146],[78.41397,26.33248],[78.40414,26.33301],[78.39735,26.33669],[78.38692,26.3353],[78.37251,26.33942],[78.36154,26.33676],[78.35641,26.33656],[78.35175,26.33861],[78.34376,26.34411],[78.33682,26.34629],[78.33198,26.34702],[78.31583,26.34339],[78.31203,26.34338],[78.29587,26.34644],[78.28497,26.34641],[78.27312,26.33784],[78.26425,26.33768],[78.26718,26.35139],[78.26557,26.35516],[78.26213,26.35914],[78.26475,26.36379],[78.2719,26.37291],[78.27634,26.38123],[78.28692,26.3904],[78.29355,26.40632],[78.29501,26.41457],[78.29212,26.41925],[78.28842,26.42298],[78.28948,26.43861],[78.28648,26.44202],[78.28405,26.44313],[78.27764,26.44325],[78.2703,26.43977],[78.26612,26.43906],[78.26,26.44045],[78.25627,26.44303],[78.25903,26.45288],[78.26411,26.45568],[78.26623,26.46044],[78.26351,26.46506],[78.25614,26.45985],[78.25413,26.45964],[78.25074,26.46097],[78.24454,26.46529],[78.23965,26.4747],[78.23489,26.47974],[78.23392,26.49234],[78.22393,26.50737],[78.22002,26.51778],[78.21208,26.52064],[78.21236,26.52259],[78.21545,26.52876],[78.2188,26.52935],[78.22263,26.52867],[78.23191,26.52515],[78.2373,26.52496],[78.24254,26.52632],[78.24235,26.52978],[78.23508,26.5305],[78.23125,26.5317],[78.23201,26.53477],[78.23755,26.53965],[78.23968,26.54395],[78.24422,26.54484],[78.24928,26.5401],[78.25391,26.54076],[78.2578,26.53956],[78.25859,26.53555],[78.26194,26.53347],[78.26837,26.5352],[78.27036,26.54284],[78.27602,26.55695],[78.27565,26.55883],[78.27156,26.56574],[78.27947,26.5672],[78.28131,26.57593],[78.29084,26.57587],[78.295,26.58033],[78.29721,26.58924],[78.30091,26.59103],[78.30406,26.58988],[78.30424,26.58424],[78.30206,26.57365],[78.30354,26.56982],[78.31022,26.56078],[78.31189,26.5509],[78.31477,26.54968],[78.32534,26.55103],[78.33855,26.54486],[78.34376,26.54755],[78.33984,26.55295],[78.33828,26.55736],[78.3408,26.55884],[78.34553,26.56002],[78.35144,26.56001],[78.35157,26.5656],[78.35322,26.56834],[78.36354,26.56979],[78.36579,26.57144],[78.36878,26.58353],[78.3712,26.58853],[78.37645,26.58688],[78.37778,26.58437],[78.38374,26.58454],[78.38669,26.58625],[78.38878,26.58923],[78.38859,26.59216],[78.38127,26.59936],[78.38124,26.60356],[78.4003,26.60285],[78.40309,26.60042],[78.41092,26.5903],[78.4156,26.58831],[78.41914,26.58934],[78.42111,26.59226],[78.41997,26.59507],[78.41963,26.59898],[78.42172,26.60224],[78.43009,26.60906],[78.43087,26.61115],[78.42761,26.61536],[78.42936,26.61982],[78.4333,26.62265],[78.4384,26.6247],[78.4352,26.63208],[78.43686,26.63769],[78.44109,26.6418],[78.44681,26.64483],[78.45294,26.64666],[78.46974,26.64861],[78.47007,26.65121],[78.46947,26.65252],[78.46263,26.66382],[78.46159,26.66766],[78.46272,26.67142],[78.46837,26.67192],[78.47077,26.67582],[78.47391,26.67766],[78.48307,26.67096],[78.48612,26.67751],[78.48864,26.67185],[78.492,26.6695],[78.4958,26.67024],[78.50204,26.6723],[78.50628,26.67629],[78.50803,26.68116],[78.51161,26.68634],[78.52079,26.67543],[78.52431,26.67405],[78.52949,26.67569],[78.52463,26.68373],[78.5331,26.68894],[78.52413,26.693],[78.51987,26.69604],[78.51719,26.69957],[78.51918,26.70508],[78.52247,26.70904],[78.52188,26.71312],[78.51685,26.71679],[78.5146,26.72095],[78.52092,26.72924],[78.52427,26.73679],[78.52596,26.73797],[78.53781,26.73361],[78.53909,26.73656],[78.53878,26.74566],[78.54047,26.756],[78.54359,26.76585],[78.56344,26.75902],[78.56865,26.7564],[78.57439,26.75188],[78.58377,26.75018],[78.61054,26.75026],[78.61503,26.75171],[78.61795,26.75521],[78.62037,26.7613],[78.62429,26.76609],[78.62906,26.76939],[78.6372,26.76957],[78.65899,26.76391],[78.66765,26.76342],[78.67613,26.76843],[78.68149,26.78194],[78.68604,26.78656],[78.69211,26.78878],[78.69875,26.79021],[78.72406,26.79439],[78.73015,26.79189],[78.72903,26.78692],[78.72653,26.78135],[78.72707,26.77589]]],[[[78.79319,26.08214],[78.79137,26.08096],[78.78801,26.08166],[78.7861,26.08285],[78.78606,26.08486],[78.78894,26.08968],[78.79062,26.09092],[78.79404,26.08716],[78.79391,26.08371],[78.79319,26.08214]]],[[[78.81534,26.13945],[78.81405,26.13774],[78.80892,26.13906],[78.80686,26.14215],[78.80685,26.14408],[78.80873,26.1451],[78.81221,26.14449],[78.81391,26.14341],[78.81562,26.14235],[78.81534,26.13945]]]]}}]}