{"type":"FeatureCollection","features":[{"type":"Feature","properties":{"id":"bhopal","name":"Bhopal","stateId":"madhya-pradesh","stateName":"Madhya Pradesh","censuscode":444,"type":"district"},"geometry":{"type":"Polygon","coordinates":[[[77.31863,23.89379],[77.32475,23.89412],[77.33709,23.89321],[77.36722,23.88693],[77.3748,23.88402],[77.3785,23.86891],[77.38406,23.86098],[77.38782,23.85868],[77.39453,23.85774],[77.40032,23.8546],[77.40128,23.85141],[77.40038,23.83975],[77.39611,23.84073],[77.39436,23.83912],[77.39391,23.83709],[77.39468,23.83316],[77.40365,23.83085],[77.40809,23.82891],[77.40901,23.82742],[77.40921,23.82204],[77.41119,23.81463],[77.41559,23.80651],[77.41761,23.80472],[77.43136,23.80397],[77.44771,23.79649],[77.44727,23.79491],[77.44006,23.79316],[77.43533,23.7907],[77.43494,23.78788],[77.43602,23.7835],[77.43871,23.77948],[77.44623,23.78162],[77.45171,23.77919],[77.45611,23.77288],[77.45747,23.7651],[77.47112,23.76049],[77.48168,23.76461],[77.49831,23.7745],[77.50001,23.77759],[77.50354,23.77832],[77.50744,23.77728],[77.51217,23.7734],[77.51264,23.77022],[77.51576,23.76739],[77.524,23.76644],[77.53511,23.76313],[77.53766,23.76353],[77.55024,23.75769],[77.55531,23.75737],[77.56054,23.75948],[77.56454,23.76377],[77.56588,23.76754],[77.57425,23.76863],[77.58926,23.75792],[77.60264,23.75263],[77.61117,23.75151],[77.61382,23.74988],[77.61392,23.74744],[77.60983,23.74061],[77.60942,23.7371],[77.60587,23.73614],[77.60458,23.7305],[77.6076,23.72943],[77.61071,23.7297],[77.61952,23.72597],[77.61819,23.71727],[77.62022,23.7152],[77.62887,23.71345],[77.63166,23.71407],[77.63546,23.71712],[77.64101,23.71377],[77.64996,23.71803],[77.64991,23.71476],[77.6498,23.708],[77.64908,23.70535],[77.65082,23.70016],[77.65068,23.69841],[77.6463,23.68784],[77.63583,23.66951],[77.6343,23.66434],[77.63198,23.66211],[77.62304,23.66387],[77.61095,23.66302],[77.59719,23.66033],[77.59321,23.65899],[77.59033,23.65525],[77.57991,23.65267],[77.57345,23.64934],[77.57589,23.64652],[77.57579,23.64255],[77.57439,23.63867],[77.5741,23.63476],[77.57105,23.63148],[77.56827,23.62071],[77.56017,23.60098],[77.55773,23.59785],[77.55386,23.59434],[77.54923,23.59529],[77.5447,23.59395],[77.54238,23.59156],[77.53369,23.58735],[77.52802,23.58327],[77.5248,23.58253],[77.5182,23.58356],[77.51304,23.58117],[77.50909,23.57596],[77.50882,23.57286],[77.51209,23.56537],[77.51351,23.55833],[77.5078,23.55634],[77.50655,23.55398],[77.50798,23.54817],[77.50692,23.54111],[77.50835,23.53553],[77.5101,23.53222],[77.51431,23.53117],[77.51691,23.52563],[77.51973,23.52247],[77.52196,23.51761],[77.51693,23.51407],[77.51547,23.51071],[77.51534,23.50249],[77.50944,23.49926],[77.50606,23.49626],[77.50574,23.49456],[77.50852,23.48715],[77.5052,23.4824],[77.50497,23.47759],[77.50363,23.47353],[77.49983,23.46918],[77.5012,23.46406],[77.49769,23.45954],[77.49654,23.4556],[77.49842,23.45086],[77.49869,23.44723],[77.49335,23.43695],[77.49228,23.42717],[77.50455,23.42531],[77.5069,23.41972],[77.511,23.41448],[77.51413,23.41313],[77.51538,23.41458],[77.5188,23.42381],[77.52723,23.42711],[77.5431,23.42766],[77.5531,23.42663],[77.55894,23.4238],[77.56051,23.41992],[77.56168,23.41355],[77.55949,23.41116],[77.5536,23.40775],[77.55122,23.40395],[77.55029,23.39134],[77.55144,23.38922],[77.55372,23.38867],[77.55941,23.38918],[77.56001,23.38759],[77.55821,23.3802],[77.5585,23.37827],[77.56083,23.37624],[77.5755,23.37388],[77.57693,23.36954],[77.58054,23.36551],[77.58464,23.36272],[77.58311,23.35736],[77.58325,23.35333],[77.59226,23.35288],[77.60147,23.35481],[77.61858,23.35545],[77.62801,23.35419],[77.62974,23.34838],[77.62725,23.34645],[77.62441,23.34016],[77.62777,23.33692],[77.62836,23.33385],[77.62559,23.32909],[77.61014,23.3206],[77.59687,23.30799],[77.59297,23.30581],[77.59071,23.30284],[77.58988,23.2993],[77.59115,23.29626],[77.58887,23.29053],[77.58556,23.28765],[77.58461,23.28483],[77.5854,23.28301],[77.58925,23.28061],[77.59192,23.27592],[77.59615,23.27306],[77.59549,23.26877],[77.59314,23.2552],[77.59871,23.24456],[77.5981,23.23573],[77.60017,23.23195],[77.60039,23.22915],[77.59683,23.22702],[77.59001,23.20764],[77.58607,23.20367],[77.58168,23.20216],[77.58074,23.19862],[77.58093,23.19549],[77.58653,23.19168],[77.58709,23.18814],[77.58585,23.18626],[77.57211,23.18279],[77.56839,23.18156],[77.56648,23.17991],[77.56581,23.17344],[77.56926,23.16754],[77.56904,23.16428],[77.57005,23.16295],[77.57398,23.16214],[77.57321,23.15774],[77.5679,23.14459],[77.56355,23.14413],[77.55635,23.14484],[77.5474,23.14106],[77.54501,23.13704],[77.5444,23.13039],[77.5434,23.12786],[77.53368,23.12418],[77.5206,23.1234],[77.51756,23.12196],[77.50615,23.10623],[77.50227,23.1053],[77.49757,23.10283],[77.48765,23.10089],[77.4837,23.10143],[77.48025,23.10341],[77.47322,23.0999],[77.4661,23.09995],[77.46252,23.09728],[77.46066,23.0943],[77.45785,23.09426],[77.45398,23.09263],[77.44678,23.0938],[77.44344,23.09356],[77.43806,23.09629],[77.42114,23.09538],[77.41733,23.09423],[77.40774,23.0972],[77.4033,23.09084],[77.39603,23.09081],[77.39026,23.0914],[77.38339,23.08939],[77.37883,23.09216],[77.36269,23.09506],[77.35648,23.09433],[77.3417,23.09409],[77.33635,23.09487],[77.3328,23.0965],[77.33169,23.09915],[77.33142,23.10566],[77.33006,23.10749],[77.32728,23.10832],[77.31366,23.10807],[77.30604,23.10715],[77.30192,23.10536],[77.29801,23.10243],[77.29404,23.10136],[77.28851,23.10119],[77.28648,23.10205],[77.28596,23.10397],[77.28714,23.10832],[77.28732,23.1134],[77.28344,23.12825],[77.28004,23.13645],[77.27143,23.14075],[77.26044,23.14304],[77.2591,23.14419],[77.26063,23.15288],[77.25941,23.15663],[77.25765,23.15874],[77.25201,23.15944],[77.25076,23.16545],[77.24695,23.17052],[77.24465,23.17966],[77.24067,23.18224],[77.23878,23.18509],[77.2391,23.18995],[77.24123,23.19441],[77.2361,23.19753],[77.21719,23.20339],[77.22564,23.21294],[77.22658,23.21543],[77.22257,23.2186],[77.22086,23.22106],[77.22097,23.22693],[77.20906,23.22378],[77.20022,23.22151],[77.19708,23.22175],[77.19508,23.22267],[77.18949,23.23418],[77.18854,23.2409],[77.19016,23.24248],[77.20053,23.24461],[77.20026,23.24706],[77.20095,23.24902],[77.20329,23.25103],[77.20746,23.2522],[77.21463,23.25559],[77.21728,23.25806],[77.215,23.26159],[77.21522,23.26499],[77.214,23.27144],[77.21506,23.27515],[77.22181,23.28272],[77.22369,23.29061],[77.22347,23.29663],[77.22101,23.29885],[77.20383,23.30108],[77.19824,23.30073],[77.19218,23.30938],[77.18255,23.31061],[77.18044,23.30778],[77.18074,23.31527],[77.18151,23.31695],[77.17921,23.3222],[77.17944,23.32406],[77.18663,23.33178],[77.18724,23.33459],[77.18535,23.34124],[77.18462,23.34973],[77.18714,23.35661],[77.18988,23.35976],[77.19519,23.36168],[77.20143,23.36109],[77.20402,23.35967],[77.21246,23.33311],[77.2156,23.32725],[77.22725,23.32821],[77.228,23.33589],[77.23192,23.34991],[77.23093,23.35683],[77.23384,23.36124],[77.24154,23.36849],[77.2449,23.37074],[77.24575,23.37628],[77.24911,23.37938],[77.25816,23.38201],[77.26196,23.38431],[77.26221,23.38714],[77.25186,23.3954],[77.24646,23.39626],[77.23942,23.39538],[77.23795,23.39627],[77.23813,23.39773],[77.24113,23.4001],[77.24505,23.40619],[77.24492,23.40926],[77.2543,23.40889],[77.25632,23.41073],[77.2586,23.41124],[77.2635,23.41064],[77.2736,23.40742],[77.27789,23.40728],[77.28114,23.4084],[77.28531,23.41245],[77.29835,23.43159],[77.29474,23.43654],[77.28703,23.45],[77.28809,23.45961],[77.29453,23.46868],[77.29766,23.47486],[77.29799,23.47712],[77.29708,23.47889],[77.28765,23.4824],[77.28678,23.49164],[77.28876,23.49806],[77.29113,23.50216],[77.29424,23.50493],[77.29784,23.50641],[77.29909,23.50928],[77.29919,23.51432],[77.2975,23.51871],[77.29184,23.52237],[77.29332,23.53061],[77.29183,23.53857],[77.29393,23.5459],[77.29064,23.55202],[77.28567,23.56575],[77.28693,23.56901],[77.29807,23.57784],[77.29835,23.58214],[77.29583,23.58518],[77.28845,23.58944],[77.28556,23.59193],[77.27734,23.59303],[77.2768,23.60294],[77.2798,23.60765],[77.27605,23.61049],[77.26604,23.6123],[77.25522,23.62035],[77.24953,23.62237],[77.2334,23.62349],[77.22903,23.62605],[77.22583,23.63018],[77.22499,23.63302],[77.22701,23.63871],[77.23064,23.645],[77.23115,23.6481],[77.22801,23.65756],[77.22213,23.66621],[77.21533,23.66938],[77.20933,23.66817],[77.20565,23.66393],[77.2037,23.65892],[77.19962,23.6596],[77.1942,23.66383],[77.19299,23.66821],[77.19067,23.67227],[77.18642,23.675],[77.18165,23.67485],[77.1765,23.6726],[77.17544,23.67965],[77.17247,23.681],[77.16998,23.68662],[77.16949,23.68892],[77.17019,23.69281],[77.17239,23.69573],[77.17723,23.69996],[77.17962,23.70417],[77.18151,23.70997],[77.1847,23.7153],[77.19134,23.7344],[77.19294,23.74231],[77.19609,23.74957],[77.19439,23.75406],[77.19921,23.76202],[77.2018,23.76825],[77.20199,23.77567],[77.20322,23.77886],[77.2139,23.78962],[77.21533,23.79384],[77.211,23.80166],[77.21144,23.8046],[77.21283,23.80809],[77.22208,23.82052],[77.22303,23.82551],[77.22167,23.83468],[77.21246,23.84269],[77.21702,23.84565],[77.22249,23.85049],[77.2215,23.85868],[77.22188,23.86595],[77.22463,23.88054],[77.22487,23.88707],[77.22756,23.89585],[77.23975,23.89406],[77.24871,23.8949],[77.25697,23.89183],[77.27045,23.88983],[77.28336,23.89073],[77.29364,23.8956],[77.30268,23.89117],[77.30708,23.89063],[77.31174,23.89133],[77.31981,23.88535],[77.31863,23.89379]]]}}]}