{"type":"FeatureCollection","features":[{"type":"Feature","properties":{"id":"chhatarpur","name":"Chhatarpur","stateId":"madhya-pradesh","stateName":"Madhya Pradesh","censuscode":425,"type":"district"},"geometry":{"type":"Polygon","coordinates":[[[80.30592,25.40053],[80.31683,25.38784],[80.31729,25.38736],[80.31899,25.38284],[80.31946,25.37662],[80.31946,25.37662],[80.32149,25.36779],[80.31685,25.35927],[80.3136,25.35762],[80.31085,25.35382],[80.31183,25.34805],[80.31183,25.34805],[80.31801,25.33683],[80.31996,25.32978],[80.31731,25.30144],[80.31084,25.29255],[80.31084,25.29255],[80.31125,25.28674],[80.3122,25.28448],[80.3122,25.28448],[80.32019,25.27776],[80.32019,25.27776],[80.3262,25.27648],[80.32801,25.2761],[80.32801,25.2761],[80.32907,25.27604],[80.34584,25.27503],[80.34845,25.27439],[80.34915,25.27422],[80.35746,25.26519],[80.35991,25.25589],[80.36176,25.25205],[80.36588,25.24679],[80.36859,25.24454],[80.37105,25.24249],[80.3862,25.2332],[80.3862,25.2332],[80.38949,25.23399],[80.3911,25.23763],[80.39888,25.24137],[80.40723,25.23866],[80.40983,25.21666],[80.4124,25.20976],[80.4124,25.20976],[80.41455,25.20644],[80.41769,25.20159],[80.41831,25.19968],[80.41978,25.19517],[80.41978,25.19517],[80.42112,25.19363],[80.42628,25.18767],[80.42742,25.18483],[80.43052,25.17712],[80.43182,25.16991],[80.4307,25.16798],[80.4236,25.16106],[80.41171,25.16081],[80.39488,25.15864],[80.39488,25.15864],[80.38878,25.15653],[80.38154,25.15093],[80.37054,25.14547],[80.36424,25.14417],[80.35938,25.14064],[80.3567,25.13644],[80.3556,25.12577],[80.3522,25.12067],[80.34643,25.11701],[80.33089,25.10241],[80.32131,25.09693],[80.32275,25.08983],[80.32124,25.08503],[80.31855,25.07773],[80.31281,25.07129],[80.30276,25.06488],[80.29563,25.06267],[80.28995,25.05899],[80.28956,25.05582],[80.28956,25.05582],[80.28916,25.05252],[80.28741,25.04847],[80.28741,25.04847],[80.28579,25.03977],[80.28284,25.03483],[80.27877,25.02997],[80.27525,25.0274],[80.2749,25.02604],[80.26771,25.02222],[80.25584,25.01794],[80.25368,25.01571],[80.25051,25.0146],[80.24302,25.01001],[80.23265,25.00058],[80.23032,24.99969],[80.21964,24.99314],[80.20426,24.97822],[80.19672,24.97214],[80.16215,24.96204],[80.15716,24.95761],[80.15256,24.94159],[80.15002,24.93632],[80.14086,24.93506],[80.13409,24.93303],[80.11572,24.93922],[80.10848,24.93981],[80.09301,24.93874],[80.08028,24.93935],[80.06893,24.93906],[80.05437,24.93806],[80.04542,24.92911],[80.03522,24.92172],[80.03542,24.91847],[80.03762,24.91383],[80.03528,24.90905],[80.04464,24.89912],[80.0492,24.88798],[80.05603,24.87746],[80.05787,24.86983],[80.06262,24.85924],[80.07477,24.85102],[80.08527,24.84593],[80.0908,24.84016],[80.0932,24.83212],[80.09299,24.82343],[80.08613,24.80923],[80.07797,24.79711],[80.07041,24.7877],[80.06451,24.78197],[80.03546,24.75769],[80.02631,24.75245],[80.01811,24.74626],[80.00701,24.73217],[80.00057,24.72601],[79.99773,24.72318],[79.99603,24.72037],[79.99223,24.71173],[79.99044,24.6967],[79.98805,24.6882],[79.98535,24.68368],[79.98173,24.67994],[79.97671,24.6767],[79.97183,24.6697],[79.96438,24.66088],[79.95978,24.65664],[79.9524,24.65437],[79.94703,24.65634],[79.94285,24.65964],[79.93727,24.66551],[79.93206,24.67337],[79.93078,24.67617],[79.9298,24.68394],[79.9279,24.68748],[79.91561,24.69252],[79.90486,24.69446],[79.9012,24.69427],[79.89729,24.69304],[79.89082,24.68819],[79.88843,24.68554],[79.8856,24.68042],[79.87931,24.66394],[79.8773,24.65144],[79.87537,24.64639],[79.87154,24.64016],[79.86457,24.63473],[79.86315,24.63054],[79.86148,24.62371],[79.85948,24.62118],[79.84947,24.61513],[79.8466,24.61248],[79.84596,24.6013],[79.84447,24.59694],[79.84499,24.59436],[79.84765,24.59284],[79.85617,24.59091],[79.85833,24.5891],[79.85962,24.58281],[79.86241,24.58112],[79.86669,24.58138],[79.87035,24.58279],[79.88039,24.59037],[79.88582,24.59179],[79.88961,24.59119],[79.89044,24.58697],[79.88852,24.57906],[79.88962,24.5757],[79.89921,24.57481],[79.90174,24.57426],[79.90288,24.57312],[79.89715,24.57096],[79.88813,24.56997],[79.88262,24.57284],[79.87943,24.5728],[79.87684,24.57061],[79.87497,24.567],[79.87318,24.55921],[79.87356,24.54825],[79.8763,24.54234],[79.88111,24.53744],[79.8836,24.5333],[79.88476,24.52621],[79.88436,24.52019],[79.88392,24.51786],[79.88291,24.51671],[79.87908,24.51606],[79.87291,24.51266],[79.86965,24.51049],[79.86777,24.50709],[79.87123,24.49269],[79.8796,24.48268],[79.88308,24.47655],[79.88171,24.47259],[79.87297,24.46554],[79.86902,24.46037],[79.86814,24.45785],[79.8686,24.45384],[79.86843,24.45188],[79.86883,24.43658],[79.87262,24.41788],[79.87894,24.40515],[79.87955,24.3983],[79.88186,24.39029],[79.88342,24.38043],[79.88352,24.37434],[79.88195,24.37289],[79.87348,24.3687],[79.8596,24.35009],[79.85545,24.34945],[79.84592,24.35163],[79.84239,24.35427],[79.84179,24.36011],[79.84237,24.36896],[79.84159,24.37394],[79.83175,24.37737],[79.82604,24.38352],[79.82378,24.3844],[79.81804,24.38475],[79.81444,24.38573],[79.80985,24.38513],[79.80477,24.38176],[79.79966,24.37346],[79.79736,24.37289],[79.77742,24.38173],[79.76836,24.39209],[79.76318,24.4031],[79.75676,24.41296],[79.75467,24.41461],[79.75177,24.41483],[79.74114,24.41206],[79.73725,24.40968],[79.73244,24.40452],[79.72771,24.40513],[79.72139,24.39899],[79.71891,24.39403],[79.71478,24.3902],[79.7116,24.38575],[79.7093,24.38073],[79.70591,24.37956],[79.70261,24.38259],[79.69705,24.38611],[79.69132,24.39442],[79.68829,24.39555],[79.68592,24.39398],[79.68485,24.3923],[79.683,24.37969],[79.67951,24.37449],[79.67679,24.37448],[79.66817,24.38288],[79.66489,24.38337],[79.66319,24.38273],[79.66202,24.38036],[79.66233,24.37196],[79.66034,24.36942],[79.6468,24.37807],[79.63807,24.38215],[79.63498,24.38304],[79.62679,24.37562],[79.6208,24.37794],[79.61862,24.38178],[79.61878,24.38639],[79.61989,24.38955],[79.62337,24.39539],[79.62951,24.39957],[79.63112,24.40349],[79.62647,24.40818],[79.62155,24.41862],[79.61991,24.41993],[79.60793,24.42082],[79.60433,24.42212],[79.59951,24.42576],[79.59493,24.43189],[79.58682,24.43856],[79.58075,24.44052],[79.57403,24.44508],[79.57114,24.44551],[79.56658,24.44019],[79.56735,24.43191],[79.56492,24.42809],[79.54644,24.42243],[79.55065,24.41614],[79.56387,24.40128],[79.56566,24.39836],[79.56658,24.39354],[79.5654,24.39053],[79.56259,24.3881],[79.55335,24.3867],[79.54799,24.38787],[79.53685,24.39475],[79.5296,24.3963],[79.5221,24.39596],[79.51654,24.39781],[79.51445,24.39929],[79.51143,24.39944],[79.50553,24.39611],[79.48735,24.39343],[79.47758,24.38795],[79.47312,24.38676],[79.47141,24.38847],[79.46933,24.39513],[79.45965,24.40684],[79.4542,24.41013],[79.44841,24.40917],[79.44506,24.41086],[79.44033,24.41191],[79.4388,24.40718],[79.43468,24.40272],[79.43261,24.3958],[79.42993,24.39295],[79.42592,24.39074],[79.40118,24.38908],[79.39661,24.38737],[79.39548,24.38564],[79.39466,24.3789],[79.39502,24.37551],[79.39288,24.3683],[79.39612,24.36545],[79.39998,24.36411],[79.4081,24.35728],[79.41139,24.35046],[79.41109,24.3481],[79.39886,24.32504],[79.39864,24.32118],[79.40402,24.31208],[79.39778,24.28798],[79.39606,24.28423],[79.39033,24.27906],[79.39441,24.26719],[79.39401,24.26328],[79.39166,24.25917],[79.39014,24.24806],[79.38654,24.23825],[79.38844,24.23091],[79.38755,24.22687],[79.38982,24.22016],[79.38961,24.2155],[79.38826,24.21296],[79.38425,24.21113],[79.37992,24.21047],[79.37731,24.20855],[79.37952,24.20091],[79.37936,24.1985],[79.37567,24.1972],[79.37334,24.19764],[79.37034,24.19647],[79.3641,24.19163],[79.33042,24.18631],[79.31808,24.18332],[79.31569,24.18353],[79.30955,24.18744],[79.30338,24.18289],[79.30433,24.17853],[79.30365,24.17196],[79.30508,24.16881],[79.3111,24.1645],[79.3152,24.15833],[79.31885,24.15687],[79.32482,24.15687],[79.33094,24.15371],[79.33262,24.15096],[79.33078,24.14824],[79.32735,24.1455],[79.3228,24.14339],[79.3181,24.14294],[79.31266,24.14093],[79.30926,24.14159],[79.30281,24.14538],[79.29351,24.14679],[79.27433,24.14447],[79.26871,24.14245],[79.2635,24.14257],[79.25513,24.14876],[79.24748,24.14431],[79.24258,24.14484],[79.23315,24.14158],[79.23006,24.14241],[79.22527,24.1404],[79.2208,24.13334],[79.21478,24.13024],[79.20874,24.1315],[79.20638,24.13066],[79.19662,24.12315],[79.185,24.11822],[79.18,24.1195],[79.17534,24.12491],[79.16912,24.12458],[79.16321,24.12251],[79.16014,24.12082],[79.15823,24.11524],[79.15633,24.11338],[79.15205,24.1123],[79.14945,24.11055],[79.14665,24.10581],[79.14589,24.10092],[79.13962,24.09873],[79.13658,24.09863],[79.12646,24.10133],[79.12505,24.10195],[79.1234,24.10542],[79.12383,24.11285],[79.12119,24.11678],[79.11859,24.11829],[79.11459,24.11996],[79.10192,24.12142],[79.09662,24.12531],[79.09253,24.12664],[79.08771,24.12654],[79.07582,24.12892],[79.0735,24.1316],[79.07222,24.13636],[79.07249,24.13929],[79.07779,24.14735],[79.07459,24.14962],[79.0718,24.15057],[79.06975,24.15244],[79.06751,24.16312],[79.06444,24.16579],[79.05822,24.16877],[79.05598,24.1707],[79.05566,24.18417],[79.05155,24.19022],[79.05051,24.20211],[79.05093,24.20839],[79.05012,24.21213],[79.04702,24.21779],[79.04699,24.22073],[79.04978,24.22323],[79.06284,24.22643],[79.06535,24.23704],[79.06845,24.24519],[79.06821,24.24945],[79.06588,24.25874],[79.06747,24.26266],[79.07822,24.26445],[79.08246,24.26301],[79.08468,24.26107],[79.08197,24.25655],[79.08173,24.25103],[79.08721,24.24614],[79.0928,24.2431],[79.09744,24.24361],[79.10591,24.25112],[79.10808,24.25425],[79.11211,24.26322],[79.12778,24.25959],[79.13761,24.25318],[79.14014,24.2531],[79.14339,24.25486],[79.1434,24.25969],[79.14424,24.26287],[79.14984,24.26845],[79.15556,24.27311],[79.15978,24.27327],[79.16298,24.27429],[79.16561,24.27586],[79.17283,24.2772],[79.17406,24.27934],[79.17024,24.28788],[79.1687,24.29499],[79.16933,24.30548],[79.17326,24.30863],[79.18091,24.31187],[79.18501,24.31651],[79.18521,24.32049],[79.18433,24.32531],[79.18268,24.32707],[79.1792,24.32831],[79.17601,24.33115],[79.174,24.33573],[79.16855,24.33872],[79.16612,24.34215],[79.16038,24.35878],[79.15796,24.36093],[79.14348,24.3659],[79.14092,24.36898],[79.15295,24.3744],[79.15008,24.38277],[79.15011,24.38565],[79.15405,24.39334],[79.15459,24.39605],[79.15392,24.39834],[79.15047,24.40337],[79.15101,24.40493],[79.16008,24.40595],[79.16639,24.40567],[79.16425,24.39955],[79.16624,24.38594],[79.16464,24.38235],[79.16196,24.3803],[79.15898,24.37567],[79.15959,24.37223],[79.17595,24.36354],[79.18408,24.35752],[79.18938,24.35683],[79.19288,24.35877],[79.19697,24.35875],[79.1992,24.34047],[79.19802,24.33362],[79.20242,24.33527],[79.20569,24.33514],[79.2095,24.33276],[79.21626,24.3311],[79.2204,24.33206],[79.23298,24.33897],[79.23515,24.34262],[79.23581,24.35028],[79.23546,24.3539],[79.23187,24.36008],[79.2369,24.36087],[79.24411,24.35795],[79.24689,24.36213],[79.25046,24.36475],[79.25311,24.37019],[79.25105,24.37327],[79.24859,24.3741],[79.24762,24.37599],[79.24604,24.38789],[79.2428,24.39655],[79.2449,24.40594],[79.24429,24.41083],[79.24312,24.41306],[79.23874,24.41618],[79.22561,24.41835],[79.21592,24.41665],[79.20616,24.41608],[79.1985,24.42476],[79.19577,24.42668],[79.18476,24.43054],[79.17423,24.43094],[79.16781,24.42985],[79.15596,24.42483],[79.14844,24.41987],[79.14248,24.41784],[79.13505,24.41219],[79.13052,24.41122],[79.12557,24.41375],[79.12098,24.41353],[79.11323,24.41276],[79.10199,24.40982],[79.10007,24.40674],[79.09831,24.40155],[79.09366,24.4004],[79.09006,24.40048],[79.08008,24.40308],[79.07341,24.40271],[79.07177,24.39728],[79.06829,24.39276],[79.06722,24.38296],[79.0645,24.37926],[79.05441,24.36976],[79.04838,24.36797],[79.03772,24.36991],[79.02505,24.37908],[79.01766,24.38216],[79.01617,24.37414],[79.01361,24.37101],[79.01016,24.36987],[79.006,24.37104],[79.00477,24.37476],[79.00472,24.38017],[79.00675,24.38791],[79.00612,24.39097],[78.99919,24.39963],[78.99619,24.40105],[78.99564,24.40259],[78.99564,24.41441],[78.99363,24.4189],[78.99452,24.42362],[78.99325,24.42968],[78.99113,24.437],[78.98875,24.44288],[78.98975,24.45049],[78.99751,24.47579],[78.99981,24.47919],[79.00367,24.48612],[79.00346,24.49031],[79.00466,24.49436],[79.00705,24.49853],[79.00854,24.50407],[79.01229,24.50959],[79.01602,24.51331],[79.01624,24.52501],[79.01794,24.5351],[79.02538,24.54467],[79.04216,24.55424],[79.04954,24.56595],[79.05623,24.57091],[79.05872,24.57422],[79.06384,24.58377],[79.071,24.59311],[79.07214,24.59727],[79.06694,24.60532],[79.06274,24.61368],[79.06276,24.61788],[79.06436,24.62111],[79.06668,24.62298],[79.07707,24.62453],[79.08374,24.62651],[79.09191,24.63016],[79.09785,24.62993],[79.10679,24.62508],[79.11059,24.62386],[79.1239,24.62457],[79.13388,24.6237],[79.14612,24.62395],[79.15075,24.62238],[79.16011,24.61391],[79.17089,24.61045],[79.17752,24.60948],[79.18099,24.60975],[79.19302,24.61235],[79.20144,24.6152],[79.20595,24.61817],[79.20775,24.6221],[79.2059,24.63572],[79.20682,24.64396],[79.20792,24.64811],[79.215,24.65831],[79.21945,24.66135],[79.22461,24.66341],[79.23048,24.66404],[79.24172,24.65788],[79.24463,24.65705],[79.25769,24.66293],[79.27939,24.66463],[79.29704,24.67469],[79.30364,24.68471],[79.30559,24.69083],[79.30605,24.70211],[79.3053,24.70774],[79.30677,24.71327],[79.30906,24.71848],[79.31939,24.73336],[79.32104,24.73993],[79.32115,24.75391],[79.31961,24.77053],[79.31538,24.77751],[79.31505,24.7792],[79.3126,24.78283],[79.30778,24.79109],[79.30796,24.8055],[79.30876,24.80885],[79.31578,24.82309],[79.31805,24.83021],[79.32358,24.8559],[79.33184,24.86518],[79.33569,24.8709],[79.34766,24.89216],[79.3493,24.90061],[79.34936,24.91129],[79.3464,24.92312],[79.34417,24.92767],[79.34335,24.93155],[79.34322,24.9431],[79.33994,24.95843],[79.34152,24.96004],[79.3438,24.97581],[79.34098,24.98474],[79.33816,24.9883],[79.33677,24.9936],[79.33601,24.99671],[79.33514,25.00032],[79.33497,25.00694],[79.3359,25.01374],[79.3354,25.0211],[79.33338,25.02866],[79.33172,25.04577],[79.33488,25.05736],[79.34263,25.06801],[79.3444,25.07258],[79.34464,25.07603],[79.33943,25.09204],[79.33935,25.09457],[79.3414,25.10006],[79.33619,25.11864],[79.33788,25.12166],[79.33759,25.12292],[79.33319,25.13384],[79.32935,25.14073],[79.32672,25.14427],[79.32142,25.14617],[79.32209,25.14709],[79.31629,25.16032],[79.30942,25.17053],[79.29831,25.17908],[79.29627,25.18145],[79.29106,25.18463],[79.28635,25.19257],[79.28532,25.19867],[79.28557,25.20579],[79.2872,25.21686],[79.28863,25.21948],[79.28906,25.22229],[79.28579,25.23343],[79.28175,25.24032],[79.28117,25.24325],[79.28614,25.24295],[79.29159,25.24162],[79.30092,25.23534],[79.30541,25.22959],[79.30806,25.2226],[79.31616,25.21835],[79.31836,25.21464],[79.32251,25.21476],[79.33056,25.21792],[79.33294,25.2176],[79.33266,25.20904],[79.33336,25.20599],[79.33414,25.20368],[79.34017,25.19602],[79.35096,25.20517],[79.35456,25.20942],[79.34251,25.21804],[79.33672,25.22507],[79.33839,25.22723],[79.33958,25.22716],[79.34713,25.22326],[79.34874,25.22565],[79.34889,25.23426],[79.3479,25.23824],[79.3485,25.25121],[79.34892,25.2538],[79.35217,25.25944],[79.34773,25.26789],[79.34553,25.26832],[79.34218,25.27084],[79.33955,25.2714],[79.33101,25.26198],[79.32635,25.2582],[79.3223,25.25653],[79.31765,25.25705],[79.31154,25.26053],[79.30594,25.27089],[79.29537,25.28535],[79.29407,25.27617],[79.28546,25.26611],[79.27872,25.26161],[79.27324,25.26152],[79.26956,25.26284],[79.26704,25.26655],[79.26658,25.26931],[79.26409,25.27457],[79.26388,25.27722],[79.26444,25.28008],[79.26361,25.28681],[79.2656,25.29345],[79.26776,25.30532],[79.27521,25.31383],[79.28416,25.3221],[79.28525,25.32312],[79.29107,25.32516],[79.29899,25.32436],[79.30138,25.32743],[79.30175,25.33443],[79.3024,25.33528],[79.3119,25.33492],[79.31697,25.33365],[79.33281,25.33233],[79.33792,25.32882],[79.34141,25.32767],[79.35228,25.32953],[79.35357,25.32813],[79.34607,25.32003],[79.34216,25.31249],[79.34538,25.30601],[79.34916,25.3028],[79.34954,25.2997],[79.33841,25.28917],[79.3387,25.2879],[79.34014,25.28742],[79.35075,25.28555],[79.35738,25.28355],[79.35927,25.27313],[79.35875,25.26509],[79.36062,25.26053],[79.36594,25.25867],[79.36935,25.25942],[79.37338,25.26322],[79.3749,25.26756],[79.37484,25.27072],[79.37211,25.28765],[79.37511,25.28945],[79.37743,25.28924],[79.38025,25.28845],[79.3833,25.28623],[79.38699,25.28186],[79.39122,25.27876],[79.39368,25.2793],[79.3963,25.28139],[79.39998,25.28001],[79.40957,25.27441],[79.40889,25.25753],[79.42299,25.25439],[79.43435,25.2536],[79.43891,25.25473],[79.4593,25.2688],[79.46046,25.27045],[79.46079,25.27773],[79.46515,25.27905],[79.48086,25.27732],[79.48295,25.27436],[79.48299,25.27267],[79.483,25.2719],[79.48306,25.27009],[79.48404,25.26834],[79.48546,25.26758],[79.4922,25.26793],[79.49814,25.26554],[79.49856,25.26421],[79.49748,25.26084],[79.49168,25.26018],[79.48684,25.26037],[79.48226,25.26176],[79.47172,25.26319],[79.46841,25.26479],[79.4669,25.26464],[79.46292,25.26039],[79.46055,25.25169],[79.45604,25.24601],[79.45259,25.24331],[79.45128,25.24384],[79.44945,25.24692],[79.44624,25.24347],[79.44184,25.23698],[79.44066,25.23119],[79.43468,25.22025],[79.43996,25.21701],[79.45007,25.21617],[79.45036,25.20778],[79.44341,25.19989],[79.43979,25.198],[79.43565,25.19875],[79.43224,25.19787],[79.42497,25.19913],[79.4172,25.20397],[79.41573,25.20273],[79.41218,25.19468],[79.4115,25.1848],[79.39911,25.17487],[79.39146,25.16551],[79.38764,25.14896],[79.3878,25.14436],[79.38969,25.14117],[79.39147,25.13528],[79.39461,25.13139],[79.39629,25.12689],[79.39684,25.11585],[79.39836,25.11317],[79.40072,25.11142],[79.4067,25.10874],[79.40952,25.10864],[79.41674,25.11094],[79.42253,25.11827],[79.42468,25.12255],[79.42599,25.12879],[79.42539,25.13035],[79.42236,25.13264],[79.4227,25.13436],[79.4252,25.13374],[79.43351,25.13368],[79.43874,25.13067],[79.44283,25.12182],[79.442,25.117],[79.43875,25.11124],[79.43703,25.10708],[79.43749,25.10443],[79.43864,25.1028],[79.44394,25.10312],[79.4524,25.10839],[79.45782,25.11313],[79.46418,25.12028],[79.476,25.12974],[79.47781,25.12908],[79.47781,25.12598],[79.46811,25.09165],[79.47913,25.08252],[79.49002,25.08045],[79.49746,25.07809],[79.49866,25.07864],[79.49878,25.08146],[79.50141,25.08733],[79.50777,25.09454],[79.51289,25.09663],[79.52098,25.09559],[79.52485,25.09713],[79.52591,25.09976],[79.52578,25.10304],[79.52159,25.11742],[79.52141,25.12104],[79.5256,25.12655],[79.53424,25.13095],[79.53635,25.13269],[79.53624,25.13333],[79.53496,25.13841],[79.53631,25.14028],[79.5413,25.14175],[79.54258,25.14294],[79.55044,25.15585],[79.55803,25.1647],[79.56729,25.17127],[79.57323,25.17285],[79.57665,25.17083],[79.58168,25.15477],[79.58396,25.15238],[79.59344,25.1482],[79.5974,25.14261],[79.59914,25.14161],[79.60097,25.14169],[79.60775,25.15031],[79.61052,25.1501],[79.61049,25.14918],[79.61048,25.14843],[79.60624,25.14069],[79.60519,25.1349],[79.60309,25.13096],[79.60287,25.12948],[79.60558,25.12679],[79.6098,25.12671],[79.61378,25.12785],[79.62775,25.13802],[79.64057,25.1282],[79.64557,25.12645],[79.64842,25.12777],[79.65075,25.12773],[79.6619,25.12582],[79.66826,25.12335],[79.6739,25.1225],[79.68194,25.13116],[79.68436,25.13238],[79.69473,25.13225],[79.71503,25.12872],[79.72554,25.12923],[79.73382,25.13115],[79.74736,25.13837],[79.75343,25.1393],[79.75889,25.13608],[79.77055,25.12526],[79.77699,25.1207],[79.79613,25.11585],[79.80106,25.11384],[79.81296,25.10645],[79.8242,25.10634],[79.82651,25.10563],[79.83107,25.10189],[79.83214,25.09919],[79.83501,25.09561],[79.8391,25.09361],[79.84866,25.0919],[79.85702,25.09248],[79.86371,25.094],[79.86092,25.09826],[79.85362,25.10596],[79.85049,25.11181],[79.8544,25.11775],[79.8558,25.12371],[79.85549,25.12887],[79.85947,25.13526],[79.86526,25.13828],[79.87268,25.14046],[79.88004,25.14398],[79.87996,25.14577],[79.87087,25.14938],[79.86846,25.15152],[79.86753,25.1575],[79.87049,25.17242],[79.8694,25.17452],[79.866,25.1773],[79.86669,25.18566],[79.86266,25.19451],[79.85974,25.19889],[79.86203,25.20583],[79.8641,25.20902],[79.87095,25.2146],[79.86929,25.21636],[79.86077,25.22043],[79.85507,25.2278],[79.85314,25.23194],[79.85363,25.23377],[79.85506,25.23559],[79.85892,25.23696],[79.86547,25.2373],[79.8689,25.23839],[79.87388,25.24221],[79.8804,25.24918],[79.88295,25.24838],[79.89458,25.24181],[79.90156,25.24162],[79.90411,25.24294],[79.90523,25.245],[79.90629,25.2505],[79.90757,25.25198],[79.91035,25.25232],[79.91328,25.25087],[79.91426,25.24958],[79.91852,25.2404],[79.91858,25.23147],[79.92016,25.22919],[79.92141,25.22887],[79.92897,25.24612],[79.93206,25.24697],[79.94053,25.24574],[79.93993,25.25527],[79.94131,25.25843],[79.94237,25.26029],[79.94894,25.26512],[79.95057,25.26729],[79.95721,25.26072],[79.97104,25.26367],[79.97518,25.2639],[79.97752,25.26358],[79.98529,25.26037],[80.00023,25.26474],[80.00474,25.26409],[80.00535,25.26557],[80.00337,25.2701],[80.00361,25.27216],[80.00023,25.27641],[79.99928,25.27859],[80.00022,25.28068],[80.00189,25.28426],[80.00673,25.2892],[80.01638,25.29611],[80.02069,25.29715],[80.01796,25.32015],[80.02073,25.32551],[80.02258,25.32652],[80.02883,25.33855],[80.03228,25.33999],[80.04528,25.33638],[80.05254,25.33726],[80.06297,25.33672],[80.0696,25.33746],[80.07814,25.33852],[80.08045,25.34051],[80.08651,25.34886],[80.09142,25.35125],[80.10151,25.34926],[80.10422,25.34701],[80.10422,25.34701],[80.11511,25.33962],[80.12727,25.33814],[80.13144,25.33389],[80.13144,25.33389],[80.13521,25.33608],[80.14087,25.34578],[80.14528,25.35118],[80.15313,25.35556],[80.16131,25.35825],[80.16131,25.35825],[80.16731,25.36165],[80.16731,25.36165],[80.16735,25.37309],[80.17487,25.3744],[80.18021,25.37614],[80.19081,25.37697],[80.19609,25.37911],[80.19737,25.38467],[80.19737,25.38467],[80.19705,25.40187],[80.19914,25.40447],[80.19967,25.40814],[80.20216,25.41166],[80.20407,25.41093],[80.20546,25.41039],[80.20653,25.40812],[80.2061,25.406],[80.21066,25.40218],[80.21959,25.3994],[80.21959,25.3994],[80.22224,25.39968],[80.22224,25.39968],[80.23482,25.4061],[80.25343,25.40036],[80.25563,25.40285],[80.25555,25.40693],[80.26065,25.41423],[80.26173,25.41893],[80.26173,25.41893],[80.26413,25.42417],[80.26947,25.42164],[80.28199,25.42051],[80.29257,25.41137],[80.29467,25.41013],[80.2979,25.40821],[80.30357,25.40326],[80.30357,25.40326],[80.30592,25.40053]],[[79.37148,25.1812],[79.36271,25.18661],[79.36009,25.18464],[79.3568,25.17653],[79.35658,25.17429],[79.36329,25.17012],[79.36782,25.16999],[79.36914,25.17044],[79.37393,25.17772],[79.37321,25.17974],[79.37148,25.1812]],[[79.38883,25.09885],[79.38402,25.10444],[79.38207,25.10803],[79.38262,25.11078],[79.38468,25.1134],[79.381,25.12143],[79.37795,25.12315],[79.37424,25.12309],[79.36727,25.12704],[79.36692,25.12871],[79.37185,25.13737],[79.37411,25.14027],[79.37614,25.14098],[79.36357,25.14191],[79.36173,25.14067],[79.35423,25.12539],[79.35809,25.12372],[79.35401,25.12097],[79.35222,25.11881],[79.35274,25.11598],[79.35401,25.11292],[79.3572,25.10908],[79.37757,25.10177],[79.38116,25.09902],[79.38075,25.09662],[79.37611,25.0938],[79.37518,25.09054],[79.37651,25.08776],[79.38115,25.0832],[79.3811,25.07981],[79.37828,25.06873],[79.37908,25.06693],[79.38219,25.06545],[79.38212,25.0647],[79.3812,25.06246],[79.37466,25.06187],[79.36851,25.05793],[79.36012,25.06498],[79.35463,25.06748],[79.35394,25.06731],[79.35139,25.06108],[79.35994,25.05721],[79.36185,25.0547],[79.36046,25.05438],[79.35897,25.05549],[79.35821,25.05516],[79.36181,25.05205],[79.36196,25.04912],[79.35949,25.03983],[79.36066,25.03884],[79.36707,25.03943],[79.36883,25.044],[79.36843,25.04614],[79.36538,25.04768],[79.37404,25.05047],[79.37561,25.05034],[79.37732,25.0476],[79.37681,25.04353],[79.38068,25.04272],[79.38103,25.04105],[79.38323,25.0405],[79.38668,25.04046],[79.38811,25.03969],[79.38737,25.03659],[79.39707,25.03228],[79.39755,25.03061],[79.39956,25.03069],[79.40447,25.03265],[79.40736,25.0325],[79.41314,25.03364],[79.41715,25.03703],[79.42096,25.04302],[79.42431,25.04493],[79.42583,25.04876],[79.42607,25.05249],[79.42415,25.05683],[79.40983,25.0634],[79.40895,25.06727],[79.40906,25.07337],[79.40679,25.07662],[79.40034,25.08154],[79.39158,25.08323],[79.39075,25.08606],[79.39068,25.09376],[79.38883,25.09885]]]}}]}