{"type":"FeatureCollection","features":[{"type":"Feature","properties":{"id":"damoh","name":"Damoh","stateId":"madhya-pradesh","stateName":"Madhya Pradesh","censuscode":428,"type":"district"},"geometry":{"type":"Polygon","coordinates":[[[79.79736,24.37289],[79.80267,24.36567],[79.80623,24.36023],[79.81352,24.35197],[79.81969,24.34944],[79.8221,24.34627],[79.82144,24.34132],[79.81926,24.33708],[79.81651,24.33415],[79.81253,24.32585],[79.8057,24.32009],[79.80453,24.31684],[79.80862,24.31732],[79.82288,24.32132],[79.82728,24.32157],[79.83604,24.31955],[79.85373,24.30586],[79.85778,24.30122],[79.85874,24.29858],[79.85617,24.29523],[79.84441,24.28445],[79.82927,24.28124],[79.8197,24.28406],[79.81385,24.28356],[79.81186,24.27885],[79.8117,24.27521],[79.80846,24.26921],[79.80955,24.26529],[79.82186,24.25868],[79.83193,24.25658],[79.83974,24.25226],[79.845,24.24678],[79.84645,24.24386],[79.84634,24.2409],[79.83978,24.23377],[79.84342,24.22554],[79.84376,24.22061],[79.84247,24.21613],[79.83469,24.20273],[79.83249,24.20136],[79.82457,24.20183],[79.81979,24.20125],[79.81572,24.1998],[79.81348,24.19478],[79.81283,24.18979],[79.81305,24.18388],[79.81167,24.17128],[79.81335,24.16336],[79.81251,24.15889],[79.80862,24.15589],[79.7958,24.14932],[79.79544,24.14526],[79.79739,24.13491],[79.7942,24.13372],[79.78986,24.13356],[79.78541,24.13231],[79.78508,24.12697],[79.78681,24.11767],[79.78313,24.11399],[79.77075,24.10949],[79.76458,24.10046],[79.76245,24.09142],[79.76454,24.07908],[79.76393,24.07491],[79.762,24.0727],[79.75744,24.07133],[79.75312,24.07101],[79.74563,24.07362],[79.74006,24.07167],[79.738,24.06125],[79.73923,24.05485],[79.7417,24.05204],[79.74367,24.04658],[79.74538,24.04428],[79.74871,24.04419],[79.7526,24.05288],[79.75554,24.05308],[79.7567,24.048],[79.75677,24.03745],[79.75848,24.03452],[79.76174,24.03282],[79.76687,24.03455],[79.76823,24.03715],[79.77171,24.04057],[79.78453,24.03496],[79.78807,24.03091],[79.7974,24.02891],[79.80777,24.02844],[79.81433,24.02723],[79.8207,24.02806],[79.8245,24.02933],[79.82657,24.0277],[79.8365,24.02506],[79.84144,24.0244],[79.84538,24.02176],[79.84731,24.01286],[79.84701,24.00885],[79.84582,24.00655],[79.84149,24.00588],[79.83817,24.00414],[79.84095,24.00008],[79.84515,23.99656],[79.85153,23.99471],[79.85461,23.99363],[79.85554,23.99313],[79.85696,23.99188],[79.85782,23.98615],[79.85627,23.98231],[79.85475,23.97911],[79.85234,23.97588],[79.85126,23.97279],[79.85242,23.96907],[79.84742,23.96046],[79.84451,23.95707],[79.84195,23.95275],[79.83988,23.94823],[79.83917,23.94352],[79.83906,23.93676],[79.83883,23.93313],[79.84029,23.92934],[79.84487,23.92496],[79.84769,23.92466],[79.85177,23.92461],[79.85433,23.92004],[79.85716,23.91767],[79.8614,23.91444],[79.86522,23.91216],[79.86782,23.90845],[79.87059,23.90227],[79.87096,23.89787],[79.87066,23.89401],[79.87062,23.89019],[79.86806,23.88431],[79.86648,23.87978],[79.86529,23.87312],[79.86536,23.86913],[79.86446,23.8639],[79.86258,23.86186],[79.8579,23.85845],[79.85668,23.85114],[79.85774,23.84436],[79.85938,23.84045],[79.8611,23.83695],[79.86332,23.83349],[79.86546,23.83135],[79.86622,23.82881],[79.86763,23.82537],[79.86905,23.82314],[79.87131,23.82071],[79.87139,23.81725],[79.86864,23.81299],[79.86518,23.81024],[79.86011,23.80845],[79.85587,23.80718],[79.8558,23.80487],[79.85782,23.80089],[79.85933,23.79653],[79.85944,23.79369],[79.85811,23.79112],[79.85517,23.78952],[79.8475,23.78873],[79.84496,23.78729],[79.8447,23.78504],[79.84535,23.78104],[79.84379,23.77952],[79.84008,23.77909],[79.83813,23.77862],[79.83541,23.77568],[79.83303,23.77112],[79.8302,23.76668],[79.83151,23.76174],[79.83358,23.75759],[79.83356,23.7547],[79.83082,23.75113],[79.82741,23.74786],[79.82035,23.73972],[79.81975,23.73853],[79.82231,23.73604],[79.82251,23.73418],[79.82272,23.73066],[79.82271,23.72811],[79.82212,23.72483],[79.82322,23.72157],[79.82715,23.71917],[79.83253,23.71852],[79.83838,23.71716],[79.835,23.71297],[79.83073,23.70799],[79.82747,23.70131],[79.8281,23.69714],[79.8338,23.69267],[79.84043,23.69251],[79.84698,23.6938],[79.85276,23.69412],[79.85996,23.69423],[79.86669,23.69303],[79.86964,23.68862],[79.87762,23.68496],[79.8837,23.68325],[79.88991,23.68125],[79.89562,23.67967],[79.90275,23.67908],[79.90806,23.68086],[79.91288,23.68287],[79.9194,23.6811],[79.92661,23.67693],[79.93162,23.67681],[79.93666,23.67783],[79.94049,23.6741],[79.94229,23.6692],[79.94537,23.66745],[79.9491,23.66637],[79.9525,23.6645],[79.95422,23.66151],[79.95631,23.65626],[79.9545,23.65174],[79.95141,23.6494],[79.94855,23.64762],[79.94612,23.64375],[79.94526,23.64019],[79.94506,23.6372],[79.94519,23.63343],[79.94581,23.63117],[79.94844,23.62689],[79.95203,23.6231],[79.95407,23.62011],[79.94963,23.61848],[79.94448,23.61994],[79.9419,23.61943],[79.93808,23.61519],[79.93457,23.60852],[79.93062,23.60447],[79.93062,23.60446],[79.9303,23.60188],[79.92956,23.59791],[79.92917,23.59538],[79.92776,23.59201],[79.92098,23.58467],[79.91487,23.58344],[79.90942,23.58322],[79.90599,23.58182],[79.90294,23.57577],[79.89871,23.57235],[79.89511,23.5692],[79.8934,23.56636],[79.88997,23.56212],[79.88634,23.55782],[79.8844,23.55584],[79.88183,23.55342],[79.87883,23.54928],[79.87564,23.54266],[79.87533,23.53845],[79.87216,23.53241],[79.86677,23.52579],[79.8613,23.52044],[79.85603,23.51311],[79.85418,23.50981],[79.85067,23.50522],[79.84436,23.50324],[79.8401,23.50733],[79.83468,23.51035],[79.82848,23.51223],[79.82107,23.50687],[79.81877,23.50323],[79.81558,23.50065],[79.81165,23.49884],[79.81365,23.49441],[79.81568,23.49118],[79.81508,23.48726],[79.81173,23.48394],[79.80847,23.47934],[79.80617,23.47311],[79.80372,23.46808],[79.8024,23.46575],[79.80175,23.46496],[79.79753,23.46378],[79.79512,23.46274],[79.79149,23.46035],[79.78862,23.45586],[79.78679,23.45088],[79.78347,23.44831],[79.78032,23.44775],[79.77635,23.4464],[79.77387,23.44495],[79.7706,23.44191],[79.76882,23.43873],[79.76402,23.43457],[79.76039,23.43229],[79.75574,23.43124],[79.74957,23.43],[79.74435,23.42857],[79.74257,23.43],[79.73986,23.43352],[79.73832,23.43229],[79.73837,23.42952],[79.73853,23.4264],[79.73766,23.42399],[79.73528,23.42411],[79.73185,23.42413],[79.72962,23.42274],[79.72627,23.41924],[79.72522,23.41759],[79.72802,23.41683],[79.73047,23.41706],[79.73415,23.41714],[79.73314,23.41434],[79.73007,23.40968],[79.72719,23.4068],[79.72548,23.4039],[79.72394,23.4003],[79.72144,23.39776],[79.71962,23.3952],[79.72015,23.39213],[79.72045,23.3912],[79.71698,23.38805],[79.71133,23.38691],[79.70436,23.38563],[79.70237,23.3817],[79.70067,23.37406],[79.70006,23.36766],[79.6997,23.36606],[79.69807,23.36135],[79.69512,23.35594],[79.69331,23.3539],[79.68356,23.34484],[79.67732,23.3402],[79.67294,23.33504],[79.66672,23.33392],[79.66041,23.33146],[79.65298,23.32673],[79.64023,23.31969],[79.63623,23.31701],[79.63247,23.31427],[79.62509,23.31167],[79.61947,23.30909],[79.61323,23.30449],[79.60701,23.30065],[79.6006,23.29705],[79.59343,23.29248],[79.59134,23.29148],[79.5826,23.28672],[79.57432,23.28286],[79.56495,23.27788],[79.558,23.2722],[79.5471,23.26604],[79.53973,23.261],[79.53364,23.25952],[79.53101,23.26398],[79.52631,23.26563],[79.52,23.2656],[79.51168,23.26492],[79.50457,23.26248],[79.49705,23.25907],[79.49156,23.25705],[79.48866,23.25308],[79.48858,23.25244],[79.48692,23.24833],[79.48479,23.24594],[79.48078,23.24252],[79.47529,23.23807],[79.46917,23.23278],[79.46338,23.22823],[79.45947,23.22404],[79.4561,23.22158],[79.44932,23.21739],[79.44216,23.21316],[79.43533,23.20701],[79.43033,23.20153],[79.42751,23.19634],[79.42553,23.19216],[79.42327,23.19112],[79.41967,23.18929],[79.41249,23.1865],[79.40656,23.18397],[79.39613,23.17848],[79.39133,23.17627],[79.38531,23.17224],[79.38031,23.16923],[79.37499,23.16577],[79.37201,23.16416],[79.37018,23.16338],[79.36803,23.16187],[79.36474,23.15998],[79.359,23.15745],[79.35351,23.15485],[79.34941,23.15257],[79.34356,23.15067],[79.34028,23.14947],[79.33432,23.14751],[79.33008,23.14738],[79.32977,23.15056],[79.3317,23.15276],[79.33326,23.15567],[79.33357,23.15809],[79.33084,23.16086],[79.32771,23.16319],[79.32582,23.16484],[79.32469,23.16717],[79.32253,23.17062],[79.31967,23.17368],[79.31837,23.17694],[79.3185,23.18185],[79.32113,23.18485],[79.3197,23.19001],[79.31616,23.19373],[79.31432,23.20017],[79.31333,23.20556],[79.31229,23.20934],[79.31155,23.21172],[79.30957,23.21505],[79.30758,23.21804],[79.30627,23.22112],[79.30708,23.22613],[79.30805,23.23032],[79.30647,23.23197],[79.30108,23.2281],[79.2977,23.22494],[79.29367,23.22075],[79.29011,23.21811],[79.28827,23.21716],[79.28409,23.21696],[79.28086,23.21732],[79.27784,23.21675],[79.27401,23.21538],[79.27035,23.21332],[79.26753,23.21557],[79.26773,23.21879],[79.2683,23.22179],[79.26877,23.22328],[79.27047,23.22659],[79.27072,23.22918],[79.2698,23.23255],[79.26826,23.23605],[79.26543,23.24009],[79.26186,23.24247],[79.25983,23.24349],[79.25597,23.24398],[79.25094,23.24506],[79.24671,23.2482],[79.24194,23.2498],[79.23596,23.25056],[79.2316,23.25019],[79.23195,23.24429],[79.23292,23.2404],[79.23186,23.23771],[79.22938,23.23309],[79.22873,23.22946],[79.22687,23.22436],[79.2238,23.22401],[79.21946,23.22509],[79.21528,23.22771],[79.2127,23.22707],[79.20728,23.23514],[79.20432,23.23647],[79.1993,23.23848],[79.19676,23.23905],[79.19482,23.23631],[79.19351,23.23092],[79.193,23.22775],[79.19176,23.22281],[79.19059,23.2207],[79.18958,23.22003],[79.18642,23.22197],[79.18331,23.22244],[79.18018,23.22163],[79.17615,23.22032],[79.17471,23.22278],[79.1741,23.22643],[79.17389,23.23318],[79.17418,23.24022],[79.17324,23.24306],[79.17139,23.24934],[79.17209,23.25503],[79.1758,23.25647],[79.18346,23.25562],[79.1898,23.25428],[79.19553,23.25376],[79.20169,23.25364],[79.20628,23.25453],[79.21082,23.25651],[79.21421,23.25991],[79.21643,23.26414],[79.21813,23.26994],[79.21892,23.27424],[79.21988,23.27532],[79.22367,23.27732],[79.22603,23.27953],[79.23014,23.2899],[79.22968,23.29388],[79.22648,23.29834],[79.22233,23.30252],[79.2178,23.3063],[79.21439,23.31029],[79.21103,23.3132],[79.2113,23.317],[79.2141,23.31914],[79.21708,23.32116],[79.22038,23.32323],[79.22304,23.32478],[79.22644,23.32627],[79.22803,23.32706],[79.23134,23.3301],[79.23348,23.33336],[79.23591,23.33561],[79.23623,23.33878],[79.22938,23.34233],[79.22568,23.34459],[79.22311,23.34678],[79.22034,23.34799],[79.21803,23.35115],[79.21872,23.35425],[79.21981,23.35793],[79.21877,23.3613],[79.21889,23.36355],[79.21548,23.36477],[79.20987,23.36032],[79.20669,23.36016],[79.20209,23.36094],[79.19898,23.36192],[79.19333,23.36348],[79.19081,23.36769],[79.19101,23.37109],[79.18855,23.37801],[79.18692,23.38854],[79.18667,23.39421],[79.18734,23.40153],[79.1884,23.40416],[79.18854,23.40433],[79.19633,23.40637],[79.20146,23.40916],[79.20163,23.41383],[79.19931,23.41624],[79.19418,23.41831],[79.18939,23.41979],[79.18397,23.42041],[79.18155,23.42352],[79.18272,23.43077],[79.18776,23.43563],[79.1954,23.43871],[79.20272,23.43892],[79.20795,23.43864],[79.21492,23.43689],[79.21946,23.43604],[79.22117,23.43694],[79.22217,23.43974],[79.223,23.44844],[79.22435,23.45522],[79.22693,23.45835],[79.22895,23.45935],[79.23333,23.45949],[79.23654,23.45776],[79.24069,23.45923],[79.24478,23.46307],[79.24865,23.46496],[79.25269,23.46413],[79.25544,23.4617],[79.25987,23.46109],[79.26192,23.46319],[79.26177,23.46758],[79.2615,23.47163],[79.26093,23.47406],[79.26134,23.47567],[79.26464,23.47757],[79.2703,23.47618],[79.27596,23.47514],[79.28285,23.47552],[79.28602,23.47706],[79.2852,23.47979],[79.284,23.48196],[79.28617,23.48394],[79.28824,23.48649],[79.28902,23.48803],[79.28991,23.49108],[79.29069,23.4951],[79.29105,23.49931],[79.29205,23.50241],[79.29325,23.5055],[79.29616,23.50931],[79.29951,23.51305],[79.30324,23.51493],[79.30977,23.51589],[79.3132,23.51814],[79.31693,23.51985],[79.32465,23.52107],[79.3297,23.52253],[79.33184,23.52583],[79.32866,23.52895],[79.32531,23.53266],[79.32276,23.53832],[79.32328,23.54483],[79.3241,23.54712],[79.32515,23.54947],[79.32326,23.55107],[79.31888,23.5511],[79.31495,23.55187],[79.31175,23.55638],[79.30879,23.55852],[79.30511,23.55889],[79.301,23.56174],[79.30047,23.56585],[79.2989,23.56849],[79.29814,23.57324],[79.29938,23.57823],[79.30025,23.58064],[79.30128,23.58165],[79.30553,23.58428],[79.30771,23.58591],[79.31271,23.58616],[79.31826,23.58495],[79.31735,23.5864],[79.31521,23.58853],[79.3127,23.59084],[79.30932,23.59073],[79.3061,23.59212],[79.30482,23.59348],[79.30297,23.59675],[79.30192,23.60035],[79.30101,23.60949],[79.30072,23.6151],[79.30089,23.62035],[79.30138,23.62981],[79.30078,23.63398],[79.30119,23.63766],[79.30447,23.64135],[79.31056,23.63938],[79.31395,23.63735],[79.31802,23.63461],[79.32636,23.62999],[79.33152,23.62873],[79.33599,23.6295],[79.33849,23.63205],[79.34045,23.63529],[79.34111,23.63978],[79.34189,23.6433],[79.34389,23.6451],[79.34728,23.64849],[79.34966,23.65116],[79.35205,23.65411],[79.35199,23.65699],[79.3508,23.65938],[79.34955,23.66212],[79.34887,23.66272],[79.34565,23.66174],[79.34143,23.66068],[79.33755,23.66261],[79.33213,23.66716],[79.32801,23.66985],[79.32406,23.6723],[79.32004,23.67417],[79.31381,23.67563],[79.30778,23.67477],[79.30533,23.67459],[79.3026,23.67568],[79.30042,23.67867],[79.29788,23.68254],[79.29432,23.68549],[79.29006,23.6879],[79.28671,23.68993],[79.28444,23.69373],[79.28347,23.6979],[79.28411,23.69898],[79.28843,23.7012],[79.2948,23.70293],[79.29871,23.707],[79.29729,23.71009],[79.29387,23.71403],[79.28996,23.71797],[79.28825,23.72228],[79.29156,23.72476],[79.29128,23.72857],[79.28741,23.73206],[79.28726,23.7361],[79.28866,23.73954],[79.29191,23.7445],[79.29031,23.74597],[79.28539,23.74474],[79.28057,23.74202],[79.27722,23.74081],[79.27251,23.74252],[79.27066,23.74412],[79.2705,23.74805],[79.27111,23.74994],[79.27104,23.75225],[79.26895,23.7538],[79.26443,23.75625],[79.25359,23.76172],[79.24907,23.76627],[79.24431,23.7693],[79.23779,23.77157],[79.23167,23.77561],[79.2278,23.77846],[79.22688,23.77963],[79.22167,23.78436],[79.22184,23.78886],[79.22381,23.79275],[79.22676,23.79581],[79.2289,23.79871],[79.23031,23.8029],[79.23174,23.80771],[79.23374,23.81039],[79.23649,23.81236],[79.23895,23.81618],[79.24002,23.81905],[79.24339,23.82094],[79.2458,23.82216],[79.25117,23.82402],[79.25001,23.82537],[79.24606,23.8285],[79.24105,23.83108],[79.2373,23.83122],[79.22632,23.83606],[79.21883,23.84054],[79.2142,23.84068],[79.20736,23.83741],[79.20116,23.83482],[79.19011,23.83342],[79.18909,23.83303],[79.18327,23.83338],[79.17945,23.83622],[79.17856,23.84109],[79.17825,23.84646],[79.17454,23.84908],[79.16684,23.84658],[79.16314,23.84653],[79.15733,23.84722],[79.15132,23.84734],[79.14847,23.84895],[79.14595,23.85125],[79.14509,23.8519],[79.1423,23.85358],[79.13885,23.85607],[79.13687,23.85785],[79.13249,23.86417],[79.12902,23.86626],[79.12553,23.86796],[79.12156,23.87064],[79.11693,23.87554],[79.11279,23.87957],[79.11103,23.88384],[79.11096,23.88761],[79.11064,23.8941],[79.10994,23.8973],[79.104,23.90381],[79.09879,23.91079],[79.09444,23.91815],[79.09058,23.91967],[79.08568,23.92],[79.08169,23.91882],[79.08123,23.91589],[79.08154,23.91088],[79.08237,23.90624],[79.0819,23.90487],[79.07806,23.90407],[79.07469,23.90454],[79.0727,23.90538],[79.07116,23.90633],[79.06344,23.91271],[79.0584,23.91512],[79.0569,23.91915],[79.0569,23.92151],[79.06097,23.92379],[79.06428,23.92517],[79.06747,23.92688],[79.07104,23.92842],[79.07258,23.92959],[79.07572,23.93125],[79.07727,23.93277],[79.07853,23.93481],[79.08068,23.93759],[79.08323,23.94063],[79.08402,23.94355],[79.08626,23.94477],[79.08979,23.94515],[79.0944,23.94794],[79.09492,23.95051],[79.09816,23.95378],[79.0974,23.95616],[79.0958,23.9578],[79.09289,23.95907],[79.08834,23.96072],[79.08587,23.96256],[79.08395,23.96593],[79.08264,23.9712],[79.0839,23.97343],[79.08926,23.97465],[79.09288,23.97365],[79.09593,23.97233],[79.10095,23.96952],[79.10431,23.96836],[79.10646,23.96896],[79.10913,23.97011],[79.1111,23.97134],[79.11262,23.97183],[79.11563,23.97415],[79.11606,23.9768],[79.11746,23.97758],[79.12034,23.97759],[79.12259,23.97732],[79.12489,23.9763],[79.12846,23.97624],[79.13161,23.97647],[79.13419,23.97729],[79.13681,23.97921],[79.13693,23.98263],[79.13656,23.98547],[79.13829,23.98741],[79.14119,23.98858],[79.14326,23.98849],[79.14515,23.98892],[79.14644,23.99052],[79.14801,23.99315],[79.15059,23.99595],[79.15322,23.99698],[79.15549,23.99735],[79.16003,23.99884],[79.16032,24.00017],[79.1816,24.00762],[79.18801,24.01248],[79.17976,24.01663],[79.17963,24.01882],[79.18208,24.02656],[79.18191,24.0292],[79.17962,24.03268],[79.17431,24.03841],[79.17276,24.05057],[79.17161,24.05371],[79.17045,24.0552],[79.16611,24.0563],[79.16265,24.05827],[79.16001,24.06158],[79.15503,24.07179],[79.15066,24.0865],[79.15009,24.09388],[79.1472,24.10103],[79.14589,24.10092],[79.14665,24.10581],[79.14945,24.11055],[79.15205,24.1123],[79.15633,24.11338],[79.15823,24.11524],[79.16014,24.12082],[79.16321,24.12251],[79.16912,24.12458],[79.17534,24.12491],[79.18,24.1195],[79.185,24.11822],[79.19662,24.12315],[79.20638,24.13066],[79.20874,24.1315],[79.21478,24.13024],[79.2208,24.13334],[79.22527,24.1404],[79.23006,24.14241],[79.23315,24.14158],[79.24258,24.14484],[79.24748,24.14431],[79.25513,24.14876],[79.2635,24.14257],[79.26871,24.14245],[79.27433,24.14447],[79.29351,24.14679],[79.30281,24.14538],[79.30926,24.14159],[79.31266,24.14093],[79.3181,24.14294],[79.3228,24.14339],[79.32735,24.1455],[79.33078,24.14824],[79.33262,24.15096],[79.33094,24.15371],[79.32482,24.15687],[79.31885,24.15687],[79.3152,24.15833],[79.3111,24.1645],[79.30508,24.16881],[79.30365,24.17196],[79.30433,24.17853],[79.30338,24.18289],[79.30955,24.18744],[79.31569,24.18353],[79.31808,24.18332],[79.33042,24.18631],[79.3641,24.19163],[79.37034,24.19647],[79.37334,24.19764],[79.37567,24.1972],[79.37936,24.1985],[79.37952,24.20091],[79.37731,24.20855],[79.37992,24.21047],[79.38425,24.21113],[79.38826,24.21296],[79.38961,24.2155],[79.38982,24.22016],[79.38755,24.22687],[79.38844,24.23091],[79.38654,24.23825],[79.39014,24.24806],[79.39166,24.25917],[79.39401,24.26328],[79.39441,24.26719],[79.39033,24.27906],[79.39606,24.28423],[79.39778,24.28798],[79.40402,24.31208],[79.39864,24.32118],[79.39886,24.32504],[79.41109,24.3481],[79.41139,24.35046],[79.4081,24.35728],[79.39998,24.36411],[79.39612,24.36545],[79.39288,24.3683],[79.39502,24.37551],[79.39466,24.3789],[79.39548,24.38564],[79.39661,24.38737],[79.40118,24.38908],[79.42592,24.39074],[79.42993,24.39295],[79.43261,24.3958],[79.43468,24.40272],[79.4388,24.40718],[79.44033,24.41191],[79.44506,24.41086],[79.44841,24.40917],[79.4542,24.41013],[79.45965,24.40684],[79.46933,24.39513],[79.47141,24.38847],[79.47312,24.38676],[79.47758,24.38795],[79.48735,24.39343],[79.50553,24.39611],[79.51143,24.39944],[79.51445,24.39929],[79.51654,24.39781],[79.5221,24.39596],[79.5296,24.3963],[79.53685,24.39475],[79.54799,24.38787],[79.55335,24.3867],[79.56259,24.3881],[79.5654,24.39053],[79.56658,24.39354],[79.56566,24.39836],[79.56387,24.40128],[79.55065,24.41614],[79.54644,24.42243],[79.56492,24.42809],[79.56735,24.43191],[79.56658,24.44019],[79.57114,24.44551],[79.57403,24.44508],[79.58075,24.44052],[79.58682,24.43856],[79.59493,24.43189],[79.59951,24.42576],[79.60433,24.42212],[79.60793,24.42082],[79.61991,24.41993],[79.62155,24.41862],[79.62647,24.40818],[79.63112,24.40349],[79.62951,24.39957],[79.62337,24.39539],[79.61989,24.38955],[79.61878,24.38639],[79.61862,24.38178],[79.6208,24.37794],[79.62679,24.37562],[79.63498,24.38304],[79.63807,24.38215],[79.6468,24.37807],[79.66034,24.36942],[79.66233,24.37196],[79.66202,24.38036],[79.66319,24.38273],[79.66489,24.38337],[79.66817,24.38288],[79.67679,24.37448],[79.67951,24.37449],[79.683,24.37969],[79.68485,24.3923],[79.68592,24.39398],[79.68829,24.39555],[79.69132,24.39442],[79.69705,24.38611],[79.70261,24.38259],[79.70591,24.37956],[79.7093,24.38073],[79.7116,24.38575],[79.71478,24.3902],[79.71891,24.39403],[79.72139,24.39899],[79.72771,24.40513],[79.73244,24.40452],[79.73725,24.40968],[79.74114,24.41206],[79.75177,24.41483],[79.75467,24.41461],[79.75676,24.41296],[79.76318,24.4031],[79.76836,24.39209],[79.77742,24.38173],[79.79736,24.37289]]]}}]}