{"type":"FeatureCollection","features":[{"type":"Feature","properties":{"id":"datia","name":"Datia","stateId":"madhya-pradesh","stateName":"Madhya Pradesh","censuscode":422,"type":"district"},"geometry":{"type":"Polygon","coordinates":[[[78.77482,26.0155],[78.77218,26.01275],[78.76892,26.01123],[78.74833,26.0104],[78.74343,26.01269],[78.74279,26.01473],[78.746,26.02875],[78.74465,26.03347],[78.74041,26.03776],[78.7332,26.03339],[78.72846,26.03416],[78.72367,26.03391],[78.72482,26.02983],[78.71709,26.02295],[78.72156,26.01792],[78.74291,26.00604],[78.74154,26.00109],[78.74159,25.9969],[78.7401,25.99304],[78.73673,25.99094],[78.73412,25.98776],[78.72466,25.96415],[78.72739,25.95085],[78.72705,25.94455],[78.72037,25.94442],[78.71661,25.94697],[78.70853,25.95449],[78.70462,25.95434],[78.70388,25.94612],[78.70718,25.94103],[78.71522,25.93581],[78.71464,25.92824],[78.71132,25.92283],[78.69811,25.91719],[78.69169,25.91654],[78.67739,25.92324],[78.67307,25.92596],[78.66999,25.92841],[78.66198,25.93998],[78.65473,25.93953],[78.64972,25.93433],[78.65357,25.93006],[78.65924,25.92637],[78.66182,25.92305],[78.66195,25.91884],[78.65842,25.91528],[78.64235,25.90735],[78.63781,25.90719],[78.63243,25.90874],[78.6259,25.91385],[78.62072,25.91517],[78.61773,25.91271],[78.6159,25.90905],[78.62503,25.90264],[78.6276,25.89967],[78.62411,25.88681],[78.62651,25.88199],[78.6294,25.87903],[78.63119,25.87403],[78.63118,25.86727],[78.62421,25.85045],[78.62365,25.84663],[78.62431,25.84121],[78.62582,25.83748],[78.62655,25.82797],[78.62752,25.82654],[78.6328,25.82354],[78.64424,25.82126],[78.65155,25.82139],[78.65868,25.82391],[78.65956,25.8279],[78.6581,25.83297],[78.65814,25.83799],[78.66151,25.84004],[78.66564,25.84137],[78.67039,25.83998],[78.6746,25.83622],[78.6829,25.82639],[78.68564,25.82434],[78.68578,25.81932],[78.6806,25.81695],[78.67657,25.81321],[78.67212,25.81183],[78.6679,25.81167],[78.66273,25.80843],[78.66064,25.80165],[78.66148,25.79618],[78.66374,25.79263],[78.66516,25.79162],[78.66615,25.79255],[78.66863,25.79131],[78.67101,25.79221],[78.67555,25.79572],[78.6794,25.79485],[78.68635,25.78633],[78.68805,25.78271],[78.68595,25.77604],[78.679,25.76182],[78.6786,25.7598],[78.67939,25.75346],[78.68082,25.75093],[78.68457,25.7493],[78.69923,25.74937],[78.703,25.74641],[78.70605,25.74043],[78.71611,25.73334],[78.71435,25.72945],[78.70647,25.72243],[78.70522,25.71826],[78.7059,25.71556],[78.71175,25.71533],[78.714,25.71277],[78.71236,25.70888],[78.70689,25.70454],[78.70535,25.70233],[78.70644,25.70061],[78.7104,25.69755],[78.71167,25.69288],[78.71117,25.68861],[78.71205,25.68158],[78.70918,25.67225],[78.70338,25.66508],[78.69101,25.65576],[78.68775,25.65191],[78.67959,25.63588],[78.67956,25.63339],[78.68218,25.63072],[78.69085,25.62782],[78.69258,25.6261],[78.69292,25.61624],[78.69115,25.606],[78.68973,25.60436],[78.67633,25.60415],[78.6749,25.60713],[78.67769,25.61704],[78.67705,25.62119],[78.67428,25.62571],[78.67021,25.62873],[78.66597,25.63012],[78.66088,25.62971],[78.65629,25.62637],[78.65351,25.61577],[78.65473,25.61417],[78.65607,25.60893],[78.65503,25.60379],[78.65181,25.59688],[78.64607,25.59023],[78.64276,25.58164],[78.63897,25.57952],[78.62869,25.57691],[78.62553,25.58172],[78.616,25.5838],[78.61311,25.58359],[78.61157,25.58201],[78.60752,25.57308],[78.60536,25.57033],[78.6026,25.56966],[78.59763,25.56995],[78.59441,25.56766],[78.59132,25.56029],[78.58852,25.55904],[78.58341,25.56002],[78.57828,25.56209],[78.57281,25.56259],[78.56709,25.56252],[78.55444,25.55943],[78.54909,25.55987],[78.54334,25.56159],[78.5397,25.56501],[78.53481,25.56765],[78.51872,25.56768],[78.49876,25.57659],[78.49353,25.57694],[78.48835,25.57513],[78.47616,25.5677],[78.46935,25.56218],[78.46727,25.55927],[78.46454,25.55011],[78.4624,25.54668],[78.45635,25.54746],[78.45217,25.54971],[78.45024,25.55177],[78.44694,25.55368],[78.44427,25.55908],[78.45288,25.57247],[78.4548,25.57428],[78.45739,25.57345],[78.45915,25.56672],[78.46115,25.56374],[78.46384,25.56384],[78.46613,25.56964],[78.46666,25.57542],[78.46816,25.57943],[78.46768,25.58444],[78.44449,25.59452],[78.43887,25.59248],[78.43279,25.58818],[78.41433,25.56981],[78.40886,25.56691],[78.40362,25.56764],[78.39766,25.57044],[78.39363,25.57363],[78.39232,25.57713],[78.39613,25.58168],[78.40893,25.59282],[78.41028,25.59809],[78.39224,25.60466],[78.38885,25.6075],[78.38388,25.62087],[78.37575,25.66077],[78.36602,25.66317],[78.35757,25.66721],[78.35368,25.6667],[78.34894,25.6612],[78.34424,25.66032],[78.3355,25.66396],[78.32167,25.67294],[78.31148,25.68209],[78.3096,25.688],[78.3099,25.69823],[78.30802,25.70443],[78.30512,25.70479],[78.30067,25.70046],[78.29805,25.69932],[78.28322,25.70147],[78.26946,25.70959],[78.26034,25.71898],[78.25205,25.71793],[78.24771,25.71469],[78.24704,25.70995],[78.25084,25.6935],[78.24956,25.69134],[78.24492,25.69116],[78.22561,25.69352],[78.22029,25.69512],[78.2163,25.69922],[78.21567,25.70255],[78.21767,25.70657],[78.22407,25.71319],[78.22583,25.71667],[78.2263,25.7209],[78.22892,25.72544],[78.23426,25.72927],[78.24629,25.73481],[78.25208,25.73825],[78.26132,25.74508],[78.26686,25.74822],[78.27093,25.74932],[78.2771,25.74918],[78.28106,25.7501],[78.2833,25.754],[78.27541,25.75833],[78.27448,25.7642],[78.27495,25.76831],[78.28094,25.78098],[78.29107,25.78454],[78.29723,25.78497],[78.30727,25.78691],[78.32187,25.79404],[78.32455,25.79882],[78.31902,25.80751],[78.31748,25.81239],[78.31801,25.81737],[78.32062,25.82226],[78.32513,25.82734],[78.33189,25.83211],[78.341,25.83386],[78.35772,25.83288],[78.37498,25.83289],[78.38686,25.83421],[78.39018,25.83542],[78.39283,25.84039],[78.38811,25.85002],[78.39138,25.85406],[78.40268,25.85935],[78.40579,25.86164],[78.4135,25.87024],[78.43365,25.88153],[78.44962,25.89364],[78.46688,25.90444],[78.47066,25.90824],[78.4731,25.91288],[78.4753,25.93058],[78.47662,25.93394],[78.47891,25.93606],[78.48228,25.94158],[78.48279,25.95469],[78.48519,25.96142],[78.48782,25.96289],[78.50509,25.96329],[78.5235,25.96728],[78.54128,25.97473],[78.54445,25.97685],[78.54859,25.98192],[78.56605,25.99178],[78.5717,25.99568],[78.57573,26.00115],[78.58289,26.00519],[78.58673,26.00996],[78.60084,26.03197],[78.60824,26.04739],[78.6166,26.04977],[78.62265,26.05032],[78.62737,26.04948],[78.63308,26.05158],[78.64093,26.05688],[78.64667,26.06204],[78.64634,26.06572],[78.64297,26.06906],[78.63536,26.07148],[78.63554,26.07689],[78.64154,26.08367],[78.63874,26.08563],[78.62941,26.08829],[78.62477,26.09132],[78.61077,26.09719],[78.60806,26.0991],[78.60886,26.10556],[78.61229,26.10897],[78.6126,26.1156],[78.61028,26.12359],[78.61232,26.12963],[78.61631,26.13119],[78.6235,26.12889],[78.63157,26.12452],[78.642,26.12279],[78.64539,26.12251],[78.65174,26.12481],[78.64757,26.12698],[78.64259,26.12754],[78.63983,26.12859],[78.63745,26.14505],[78.63542,26.14981],[78.6292,26.15682],[78.63138,26.16181],[78.63331,26.16385],[78.63681,26.16621],[78.64743,26.17029],[78.65355,26.17044],[78.65997,26.16916],[78.6628,26.17018],[78.67022,26.16926],[78.6733,26.17034],[78.6792,26.16933],[78.68693,26.16542],[78.69446,26.16513],[78.69781,26.16882],[78.70131,26.17831],[78.70022,26.1821],[78.69408,26.19319],[78.69208,26.19846],[78.69269,26.20319],[78.69792,26.21479],[78.70134,26.21784],[78.70562,26.21934],[78.70937,26.22188],[78.71492,26.22311],[78.71848,26.22611],[78.73159,26.22872],[78.74215,26.22634],[78.74408,26.23133],[78.74661,26.23499],[78.75206,26.23508],[78.75521,26.23892],[78.75508,26.24238],[78.74768,26.24924],[78.74736,26.25264],[78.7549,26.26369],[78.761,26.26528],[78.76992,26.26611],[78.77392,26.26881],[78.77683,26.27231],[78.78066,26.27432],[78.79238,26.28867],[78.7956,26.28935],[78.80276,26.28876],[78.81274,26.28729],[78.8219,26.28483],[78.8247,26.28197],[78.82683,26.27611],[78.82767,26.26749],[78.82709,26.26409],[78.82463,26.26014],[78.81239,26.25309],[78.80841,26.24907],[78.80344,26.23995],[78.80174,26.23174],[78.79316,26.23058],[78.79229,26.22567],[78.79969,26.22134],[78.81225,26.21149],[78.81509,26.20826],[78.81567,26.20359],[78.81814,26.20288],[78.82325,26.20411],[78.8287,26.20361],[78.83257,26.20251],[78.83705,26.19969],[78.83735,26.1963],[78.82747,26.19276],[78.82123,26.18708],[78.8091,26.182],[78.80331,26.17189],[78.80268,26.16681],[78.80539,26.16334],[78.81563,26.15853],[78.81998,26.15525],[78.82274,26.15183],[78.82492,26.14431],[78.82567,26.13948],[78.8243,26.13236],[78.8238,26.13143],[78.82141,26.13078],[78.82431,26.12584],[78.82731,26.12387],[78.83,26.12028],[78.8437,26.11444],[78.84483,26.10938],[78.8437,26.10416],[78.84142,26.09906],[78.83849,26.09544],[78.83704,26.09466],[78.83159,26.0997],[78.82662,26.10066],[78.82157,26.09451],[78.81147,26.09452],[78.80761,26.0933],[78.80369,26.08926],[78.80122,26.08519],[78.80416,26.08081],[78.81167,26.07385],[78.81508,26.07184],[78.82921,26.06908],[78.82833,26.06625],[78.82468,26.06296],[78.81722,26.05876],[78.80563,26.06003],[78.79873,26.05609],[78.79676,26.05233],[78.81239,26.04681],[78.81519,26.04237],[78.80452,26.04326],[78.80067,26.04096],[78.79,26.04208],[78.78711,26.03777],[78.78853,26.03145],[78.78592,26.02766],[78.77981,26.02377],[78.77598,26.02033],[78.77433,26.01688],[78.77482,26.0155]],[[78.81534,26.13945],[78.81562,26.14235],[78.81391,26.14341],[78.81221,26.14449],[78.80873,26.1451],[78.80685,26.14408],[78.80686,26.14215],[78.80892,26.13906],[78.81405,26.13774],[78.81534,26.13945]],[[78.79319,26.08214],[78.79391,26.08371],[78.79404,26.08716],[78.79062,26.09092],[78.78894,26.08968],[78.78606,26.08486],[78.7861,26.08285],[78.78801,26.08166],[78.79137,26.08096],[78.79319,26.08214]]]}}]}