{"type":"FeatureCollection","features":[{"type":"Feature","properties":{"id":"dewas","name":"Dewas","stateId":"madhya-pradesh","stateName":"Madhya Pradesh","censuscode":437,"type":"district"},"geometry":{"type":"Polygon","coordinates":[[[76.11331,23.24125],[76.1173,23.23992],[76.12021,23.23741],[76.12572,23.23433],[76.13136,23.23118],[76.1367,23.22758],[76.14479,23.22892],[76.15064,23.22837],[76.15398,23.22672],[76.15655,23.22376],[76.15836,23.22153],[76.16722,23.22318],[76.17848,23.22628],[76.1903,23.22095],[76.19781,23.21888],[76.20773,23.22036],[76.21481,23.2215],[76.21786,23.22032],[76.22402,23.22185],[76.23021,23.22071],[76.23841,23.21866],[76.24425,23.21497],[76.24737,23.21286],[76.25409,23.21722],[76.26325,23.22273],[76.27049,23.22566],[76.28192,23.22725],[76.29678,23.2267],[76.30731,23.22687],[76.31423,23.22958],[76.31816,23.2304],[76.32603,23.22406],[76.33054,23.22415],[76.34271,23.22465],[76.35022,23.2235],[76.35411,23.22484],[76.35941,23.23035],[76.369,23.2287],[76.37831,23.22665],[76.38404,23.22326],[76.39092,23.22306],[76.39577,23.22047],[76.3997,23.21825],[76.40474,23.21785],[76.40927,23.21718],[76.40969,23.21101],[76.4125,23.20367],[76.41489,23.19996],[76.41437,23.19581],[76.4259,23.19093],[76.43132,23.19062],[76.44203,23.19286],[76.44863,23.19326],[76.45335,23.19281],[76.45729,23.1917],[76.45692,23.18678],[76.45854,23.1827],[76.46773,23.18257],[76.47372,23.18137],[76.47746,23.18015],[76.4822,23.17999],[76.48777,23.18096],[76.49267,23.18038],[76.49652,23.1798],[76.50048,23.17927],[76.50373,23.17912],[76.50667,23.17916],[76.50898,23.17889],[76.50929,23.17848],[76.51546,23.17085],[76.5204,23.16593],[76.52418,23.15733],[76.52412,23.1506],[76.52623,23.1444],[76.5341,23.14206],[76.54015,23.13795],[76.53839,23.12872],[76.53453,23.1275],[76.53314,23.12558],[76.53183,23.12361],[76.53013,23.1216],[76.52863,23.11964],[76.52779,23.11816],[76.52656,23.11671],[76.52531,23.11468],[76.52424,23.11281],[76.51933,23.11136],[76.51629,23.11173],[76.51276,23.11241],[76.50955,23.11302],[76.50745,23.11364],[76.5047,23.1147],[76.5021,23.11505],[76.50041,23.11327],[76.49863,23.11086],[76.49737,23.10882],[76.49584,23.10634],[76.49516,23.10439],[76.49425,23.10194],[76.49379,23.09976],[76.49344,23.09808],[76.49476,23.09536],[76.49825,23.09403],[76.50086,23.09287],[76.50487,23.09274],[76.50755,23.09163],[76.51053,23.09033],[76.51389,23.08976],[76.51627,23.08896],[76.51883,23.08786],[76.51966,23.08322],[76.51995,23.08083],[76.51936,23.07842],[76.5186,23.07625],[76.5176,23.0742],[76.51619,23.07281],[76.51484,23.0723],[76.51187,23.07186],[76.51,23.07188],[76.50806,23.0718],[76.50549,23.07191],[76.50255,23.07182],[76.49589,23.07242],[76.49102,23.07374],[76.48672,23.0769],[76.48433,23.07998],[76.48167,23.08422],[76.4755,23.08666],[76.46948,23.08763],[76.46387,23.08806],[76.45789,23.08851],[76.45507,23.08841],[76.45126,23.08864],[76.44928,23.08699],[76.44809,23.08402],[76.44785,23.08124],[76.44761,23.07847],[76.44799,23.07636],[76.45405,23.0751],[76.45841,23.07379],[76.46245,23.07129],[76.46231,23.06687],[76.46189,23.06387],[76.46157,23.06064],[76.46135,23.05792],[76.46139,23.05541],[76.46149,23.05158],[76.46056,23.0483],[76.46018,23.04699],[76.45727,23.04649],[76.45648,23.04455],[76.45593,23.04242],[76.4553,23.03873],[76.45446,23.03558],[76.45365,23.03294],[76.45187,23.02983],[76.45098,23.02824],[76.4492,23.02402],[76.45278,23.02189],[76.45637,23.02132],[76.4608,23.01785],[76.46144,23.01445],[76.46205,23.01099],[76.46278,23.00833],[76.46523,23.0032],[76.47009,22.99974],[76.46868,22.99915],[76.46709,22.99829],[76.46633,22.99786],[76.46314,22.99594],[76.46045,22.99533],[76.45728,22.99511],[76.45352,22.99491],[76.44944,22.99314],[76.44726,22.99079],[76.44611,22.98802],[76.44625,22.98559],[76.44732,22.9845],[76.44829,22.98311],[76.4513,22.98221],[76.45359,22.98134],[76.45682,22.98054],[76.45883,22.97987],[76.46093,22.97901],[76.46109,22.97883],[76.46037,22.97795],[76.45936,22.97604],[76.45841,22.97492],[76.45815,22.97448],[76.45833,22.97424],[76.45905,22.97394],[76.46003,22.97378],[76.4609,22.97349],[76.46275,22.9729],[76.46437,22.97248],[76.46539,22.97199],[76.46648,22.97169],[76.46785,22.97157],[76.46905,22.97131],[76.47043,22.97093],[76.47151,22.97048],[76.47346,22.97009],[76.47297,22.96923],[76.4714,22.96717],[76.47024,22.96577],[76.4685,22.96353],[76.4668,22.96116],[76.46533,22.95843],[76.46437,22.95603],[76.46416,22.9541],[76.46381,22.95101],[76.46354,22.95017],[76.46284,22.94808],[76.46188,22.94654],[76.45966,22.94373],[76.4587,22.94189],[76.45797,22.93888],[76.45651,22.9361],[76.45533,22.93403],[76.45374,22.93242],[76.45182,22.93116],[76.45156,22.92993],[76.45172,22.9287],[76.4533,22.92651],[76.45482,22.92508],[76.45634,22.92324],[76.45805,22.92134],[76.4602,22.91917],[76.46159,22.9182],[76.46238,22.91711],[76.46347,22.91568],[76.46438,22.91336],[76.46494,22.91216],[76.46563,22.91042],[76.46569,22.90967],[76.46572,22.90758],[76.46526,22.90584],[76.46475,22.90321],[76.46449,22.90159],[76.46523,22.90102],[76.46682,22.90128],[76.46828,22.90153],[76.46926,22.90143],[76.46983,22.90132],[76.47111,22.90135],[76.47263,22.90154],[76.47307,22.90132],[76.47491,22.901],[76.47609,22.9005],[76.47677,22.9004],[76.47832,22.89995],[76.47919,22.89963],[76.48079,22.89907],[76.48197,22.89846],[76.48371,22.89785],[76.48531,22.89758],[76.48638,22.89713],[76.48872,22.89665],[76.49114,22.89588],[76.49307,22.89499],[76.49514,22.89408],[76.49676,22.89342],[76.49846,22.89229],[76.49928,22.89166],[76.50022,22.89099],[76.50146,22.8891],[76.50158,22.88765],[76.50149,22.8866],[76.50166,22.88557],[76.49649,22.88063],[76.49601,22.87941],[76.50089,22.87629],[76.50204,22.87462],[76.50318,22.87371],[76.50426,22.87228],[76.50581,22.86957],[76.50652,22.86831],[76.50928,22.86619],[76.51252,22.86479],[76.51482,22.86407],[76.51662,22.86363],[76.51911,22.86227],[76.52055,22.86177],[76.52138,22.8605],[76.52113,22.85836],[76.52334,22.85392],[76.52483,22.85087],[76.52599,22.84944],[76.52676,22.84782],[76.52727,22.84527],[76.52775,22.84325],[76.52805,22.84112],[76.52774,22.83902],[76.52711,22.83704],[76.52589,22.83464],[76.52393,22.83178],[76.52301,22.82932],[76.52197,22.82723],[76.52121,22.82571],[76.52078,22.82333],[76.51982,22.81983],[76.51976,22.81786],[76.52094,22.81492],[76.52151,22.81417],[76.52245,22.81169],[76.52278,22.81106],[76.52343,22.80921],[76.5239,22.80765],[76.5235,22.8066],[76.52304,22.80578],[76.5227,22.80445],[76.52595,22.80268],[76.52644,22.80258],[76.52659,22.80154],[76.52725,22.79975],[76.52778,22.79854],[76.52798,22.79779],[76.52889,22.79612],[76.53086,22.79638],[76.53346,22.79792],[76.53532,22.7994],[76.53806,22.80053],[76.54025,22.80127],[76.5413,22.80122],[76.54366,22.80056],[76.54559,22.79954],[76.54602,22.7992],[76.54686,22.79828],[76.54787,22.79719],[76.54864,22.79581],[76.54905,22.79448],[76.54891,22.79302],[76.54876,22.79146],[76.54863,22.78931],[76.55085,22.78934],[76.55244,22.78931],[76.55435,22.78939],[76.55505,22.78876],[76.55691,22.78786],[76.55827,22.78758],[76.55989,22.78686],[76.56011,22.7857],[76.55966,22.78396],[76.55724,22.7827],[76.55386,22.78011],[76.55338,22.77946],[76.55243,22.77846],[76.55178,22.77718],[76.55115,22.77538],[76.55165,22.77306],[76.55432,22.7742],[76.55551,22.77572],[76.55639,22.77724],[76.55835,22.77987],[76.56021,22.77967],[76.56263,22.77849],[76.56434,22.77688],[76.56571,22.7762],[76.56857,22.77491],[76.57022,22.77307],[76.5705,22.77215],[76.57086,22.76995],[76.57093,22.76938],[76.5708,22.76746],[76.57059,22.76618],[76.56904,22.76419],[76.56849,22.76383],[76.56758,22.76371],[76.56564,22.76478],[76.56514,22.76506],[76.5641,22.76482],[76.5644,22.76302],[76.56472,22.76216],[76.56649,22.76085],[76.56895,22.76071],[76.57016,22.76113],[76.57046,22.76154],[76.57144,22.7619],[76.57246,22.76238],[76.57421,22.7642],[76.57666,22.76672],[76.5773,22.76795],[76.57813,22.76953],[76.57912,22.77163],[76.58079,22.77333],[76.58278,22.77475],[76.58592,22.777],[76.58871,22.77877],[76.59143,22.78009],[76.5959,22.78119],[76.59783,22.78266],[76.60159,22.78196],[76.60327,22.78158],[76.60537,22.78091],[76.60824,22.7821],[76.60889,22.78281],[76.61117,22.78283],[76.61302,22.78251],[76.61579,22.78237],[76.61965,22.78295],[76.62186,22.78344],[76.62368,22.78404],[76.62587,22.78512],[76.62701,22.78623],[76.62729,22.78739],[76.6246,22.78864],[76.62327,22.78804],[76.62144,22.78744],[76.61948,22.78706],[76.6174,22.78658],[76.61515,22.78602],[76.6137,22.78687],[76.61324,22.78814],[76.61303,22.78924],[76.61305,22.79075],[76.61335,22.79121],[76.61597,22.79212],[76.61732,22.79225],[76.61846,22.79337],[76.61889,22.79552],[76.61939,22.79559],[76.62107,22.79474],[76.62348,22.79442],[76.62534,22.79583],[76.62426,22.79721],[76.62584,22.79828],[76.62941,22.79827],[76.63241,22.79848],[76.63627,22.79905],[76.63809,22.79994],[76.63881,22.80054],[76.64058,22.80143],[76.64187,22.80411],[76.64226,22.80556],[76.64397,22.80558],[76.64622,22.80474],[76.64722,22.80377],[76.64723,22.80117],[76.64752,22.79931],[76.64996,22.79772],[76.6494,22.79574],[76.64901,22.79405],[76.64807,22.79218],[76.64806,22.79033],[76.65025,22.78868],[76.6518,22.78818],[76.65392,22.78756],[76.65479,22.78706],[76.65533,22.78503],[76.65829,22.78472],[76.65993,22.78781],[76.66034,22.78869],[76.66348,22.78862],[76.6665,22.78819],[76.6678,22.7878],[76.67097,22.78691],[76.67276,22.7867],[76.67544,22.78517],[76.67749,22.78468],[76.67879,22.78875],[76.67997,22.79079],[76.68247,22.7914],[76.68579,22.79179],[76.68843,22.792],[76.69094,22.79244],[76.69438,22.79289],[76.69634,22.79291],[76.69977,22.79342],[76.70297,22.79322],[76.70461,22.79417],[76.70428,22.79754],[76.7042,22.7984],[76.70408,22.80061],[76.70414,22.80298],[76.70404,22.8049],[76.70435,22.8067],[76.70462,22.80844],[76.70474,22.81053],[76.70203,22.81113],[76.70049,22.81129],[76.69816,22.81085],[76.69625,22.81083],[76.69446,22.81087],[76.69321,22.81212],[76.69386,22.81329],[76.69634,22.81495],[76.69651,22.81535],[76.6966,22.81646],[76.69518,22.8169],[76.69432,22.81648],[76.69108,22.81616],[76.69069,22.8165],[76.69041,22.81778],[76.69111,22.81952],[76.69328,22.82141],[76.69695,22.82209],[76.70144,22.82244],[76.70597,22.82295],[76.70859,22.82375],[76.71054,22.82475],[76.7142,22.82607],[76.71691,22.82604],[76.71915,22.82532],[76.72131,22.82477],[76.72464,22.82452],[76.72526,22.824],[76.72635,22.82251],[76.72409,22.82207],[76.72081,22.82256],[76.71897,22.82242],[76.71633,22.8221],[76.71499,22.82144],[76.71594,22.82047],[76.717,22.82025],[76.71953,22.81976],[76.7214,22.81868],[76.71797,22.81805],[76.7149,22.81767],[76.71211,22.81648],[76.71475,22.81437],[76.71627,22.81479],[76.71995,22.81512],[76.72147,22.81573],[76.7273,22.81666],[76.72888,22.81732],[76.73225,22.81765],[76.73519,22.8185],[76.73756,22.81992],[76.73679,22.8209],[76.73413,22.82121],[76.73129,22.82164],[76.73314,22.82398],[76.73496,22.82494],[76.73825,22.82602],[76.7415,22.82652],[76.7463,22.82664],[76.74818,22.82544],[76.74968,22.82477],[76.75122,22.82177],[76.75282,22.81924],[76.75366,22.81803],[76.75564,22.81718],[76.75785,22.81721],[76.75968,22.81827],[76.7607,22.81875],[76.76265,22.81727],[76.76661,22.81656],[76.7693,22.81717],[76.77025,22.81845],[76.76991,22.82008],[76.76829,22.82081],[76.76675,22.82056],[76.76424,22.82036],[76.76243,22.82353],[76.7624,22.82486],[76.76448,22.82546],[76.76782,22.82724],[76.76867,22.82784],[76.77065,22.82948],[76.7723,22.82997],[76.77352,22.82818],[76.77529,22.82617],[76.77665,22.8281],[76.7761,22.83082],[76.77895,22.83254],[76.77913,22.8326],[76.78029,22.83307],[76.78152,22.83315],[76.78375,22.83279],[76.7895,22.83377],[76.78973,22.83457],[76.79022,22.83696],[76.79086,22.83888],[76.7925,22.83937],[76.79461,22.8409],[76.79648,22.84248],[76.79873,22.84367],[76.79906,22.84496],[76.79743,22.84667],[76.79701,22.84876],[76.79794,22.85108],[76.79906,22.85243],[76.80084,22.85298],[76.80238,22.853],[76.80355,22.85283],[76.80574,22.85419],[76.80727,22.85439],[76.81028,22.85477],[76.81036,22.85645],[76.80802,22.85892],[76.80788,22.85978],[76.80816,22.86292],[76.81021,22.86242],[76.81279,22.86036],[76.81366,22.86258],[76.81324,22.86402],[76.81575,22.86503],[76.81697,22.86302],[76.81892,22.86101],[76.81941,22.86143],[76.82112,22.86423],[76.82228,22.86453],[76.82273,22.86152],[76.8229,22.85938],[76.82586,22.85884],[76.82654,22.86151],[76.82646,22.86215],[76.82631,22.86342],[76.82628,22.86476],[76.82648,22.86638],[76.82668,22.86806],[76.82757,22.86976],[76.82841,22.87099],[76.829,22.87186],[76.82983,22.87303],[76.83143,22.87328],[76.83282,22.87161],[76.83235,22.86812],[76.83242,22.86755],[76.83323,22.86715],[76.83473,22.8663],[76.83586,22.86567],[76.83697,22.86552],[76.83907,22.86479],[76.83998,22.86462],[76.84367,22.86649],[76.84836,22.86662],[76.85002,22.86723],[76.84973,22.86845],[76.84892,22.86861],[76.84772,22.8694],[76.84678,22.87003],[76.84564,22.87112],[76.84454,22.87267],[76.8444,22.87343],[76.84613,22.87334],[76.84726,22.87278],[76.84893,22.87263],[76.85021,22.87282],[76.85037,22.87387],[76.84972,22.87496],[76.84896,22.87583],[76.84793,22.87727],[76.84775,22.87918],[76.84834,22.88006],[76.84932,22.88066],[76.8503,22.88068],[76.8512,22.87959],[76.85146,22.87907],[76.85179,22.87826],[76.85244,22.87722],[76.85361,22.87701],[76.85478,22.87534],[76.85549,22.87389],[76.85583,22.87297],[76.85692,22.87182],[76.85866,22.87104],[76.86024,22.86995],[76.8623,22.86923],[76.86232,22.87051],[76.86176,22.87272],[76.86092,22.87387],[76.86027,22.87496],[76.85944,22.87611],[76.8588,22.87697],[76.85844,22.87877],[76.8586,22.87953],[76.86058,22.8795],[76.862,22.88128],[76.86204,22.88226],[76.8621,22.88471],[76.86243,22.88617],[76.86402,22.88643],[76.86507,22.88441],[76.86553,22.88314],[76.86672,22.88047],[76.86705,22.87967],[76.86804,22.87747],[76.86835,22.87707],[76.86914,22.8758],[76.86998,22.87441],[76.87069,22.87332],[76.87159,22.87223],[76.87333,22.87167],[76.87374,22.87202],[76.87507,22.8731],[76.87791,22.87302],[76.87934,22.87293],[76.87853,22.87507],[76.87731,22.87685],[76.87585,22.87829],[76.87362,22.8807],[76.87268,22.88325],[76.87279,22.88604],[76.87341,22.88838],[76.87418,22.88926],[76.87612,22.89028],[76.87805,22.89235],[76.87922,22.89202],[76.87937,22.88917],[76.87907,22.88643],[76.87963,22.88411],[76.88204,22.88403],[76.88327,22.88405],[76.88439,22.88372],[76.88676,22.88264],[76.88797,22.88092],[76.88915,22.8807],[76.8895,22.88147],[76.88975,22.88374],[76.88994,22.88549],[76.89024,22.88787],[76.89066,22.88858],[76.89252,22.89006],[76.89313,22.89036],[76.89473,22.89038],[76.8962,22.89046],[76.89708,22.89019],[76.89754,22.88914],[76.89586,22.88725],[76.89479,22.88584],[76.89458,22.88462],[76.89505,22.88323],[76.89553,22.88178],[76.89643,22.88022],[76.89682,22.87953],[76.89699,22.87796],[76.89604,22.87689],[76.89392,22.87517],[76.89217,22.87428],[76.89123,22.87298],[76.89255,22.87172],[76.8938,22.87133],[76.89649,22.87183],[76.89843,22.87256],[76.90088,22.87306],[76.90268,22.87454],[76.90297,22.87506],[76.90496,22.87625],[76.90573,22.87725],[76.90789,22.87885],[76.90906,22.87863],[76.90964,22.87764],[76.90972,22.87718],[76.90984,22.87503],[76.90952,22.8735],[76.90951,22.87187],[76.90946,22.87123],[76.90916,22.86919],[76.90783,22.86841],[76.90573,22.8688],[76.90366,22.86796],[76.90274,22.86609],[76.90231,22.86398],[76.9029,22.86289],[76.90448,22.86343],[76.90559,22.86327],[76.90654,22.86212],[76.90904,22.86272],[76.91027,22.86256],[76.91138,22.8645],[76.91252,22.86707],[76.91271,22.86719],[76.91394,22.86878],[76.915,22.87017],[76.91707,22.87055],[76.91789,22.86974],[76.91728,22.86746],[76.91679,22.86531],[76.91614,22.86292],[76.91546,22.8611],[76.91471,22.85952],[76.91427,22.85813],[76.91382,22.85666],[76.91337,22.8552],[76.91265,22.85281],[76.91225,22.85001],[76.91087,22.84679],[76.91086,22.84498],[76.91223,22.84226],[76.91276,22.84111],[76.91373,22.83984],[76.91488,22.8384],[76.91514,22.83775],[76.91525,22.83642],[76.91282,22.83517],[76.91086,22.83526],[76.9092,22.8353],[76.9071,22.83515],[76.90644,22.83456],[76.90594,22.83304],[76.90615,22.83205],[76.90684,22.83149],[76.90772,22.8308],[76.90865,22.83069],[76.91129,22.83095],[76.91313,22.83116],[76.91398,22.83134],[76.91565,22.83125],[76.91762,22.83086],[76.91881,22.83035],[76.91995,22.8292],[76.92071,22.82862],[76.9217,22.82811],[76.92256,22.82818],[76.92282,22.82976],[76.9225,22.83202],[76.92209,22.83342],[76.92137,22.83521],[76.9208,22.83718],[76.9199,22.83857],[76.91905,22.84019],[76.91821,22.84158],[76.91629,22.844],[76.91499,22.84486],[76.91474,22.84673],[76.91511,22.84864],[76.91597,22.85046],[76.91655,22.85174],[76.91697,22.85391],[76.91721,22.85588],[76.91742,22.85688],[76.91808,22.85955],[76.91822,22.86084],[76.91914,22.86282],[76.92038,22.86405],[76.92164,22.86272],[76.92173,22.86156],[76.92172,22.86028],[76.92202,22.85837],[76.92311,22.85681],[76.92442,22.85775],[76.9253,22.85885],[76.92545,22.85943],[76.92543,22.86042],[76.92491,22.86152],[76.92426,22.86263],[76.92443,22.86297],[76.92394,22.86512],[76.9231,22.86692],[76.92306,22.86791],[76.92368,22.86762],[76.92546,22.86705],[76.92619,22.86682],[76.92675,22.86618],[76.92752,22.86514],[76.92853,22.86398],[76.92955,22.86398],[76.92985,22.86439],[76.92994,22.86491],[76.9296,22.86648],[76.92925,22.86764],[76.92837,22.8688],[76.92761,22.86967],[76.92662,22.87071],[76.92572,22.87199],[76.92503,22.87286],[76.92518,22.87391],[76.92578,22.87426],[76.92781,22.87514],[76.92829,22.87525],[76.92905,22.87624],[76.92988,22.87664],[76.93119,22.87705],[76.93289,22.87698],[76.9336,22.87704],[76.93401,22.87512],[76.93413,22.87332],[76.9343,22.87187],[76.93433,22.87077],[76.93457,22.86909],[76.93516,22.86769],[76.93622,22.86642],[76.93784,22.8664],[76.93822,22.86744],[76.9381,22.86918],[76.93737,22.87133],[76.93691,22.87244],[76.9369,22.87261],[76.93805,22.87405],[76.93938,22.87536],[76.94072,22.8764],[76.94214,22.87823],[76.9426,22.87886],[76.94364,22.87942],[76.94509,22.87997],[76.94712,22.87859],[76.94727,22.87737],[76.94715,22.87586],[76.9468,22.87425],[76.94631,22.87305],[76.94577,22.87168],[76.94527,22.87082],[76.94463,22.86938],[76.94481,22.86742],[76.94522,22.86644],[76.94613,22.8655],[76.94734,22.86496],[76.94807,22.86702],[76.94821,22.86805],[76.94879,22.86942],[76.9496,22.87095],[76.95043,22.87208],[76.95131,22.87183],[76.95176,22.87077],[76.9525,22.86972],[76.95294,22.86914],[76.95356,22.86791],[76.95394,22.86738],[76.9552,22.86775],[76.95593,22.86807],[76.95661,22.86838],[76.95786,22.8685],[76.95805,22.86815],[76.95881,22.86705],[76.95881,22.8659],[76.95885,22.86534],[76.95868,22.86427],[76.95924,22.86357],[76.9603,22.8632],[76.96054,22.86313],[76.96116,22.86322],[76.96293,22.86434],[76.96331,22.8655],[76.96406,22.86739],[76.96538,22.86822],[76.96673,22.86843],[76.9689,22.8686],[76.96968,22.87113],[76.97122,22.873],[76.97208,22.87344],[76.97363,22.87489],[76.97483,22.87562],[76.97661,22.87597],[76.97948,22.87416],[76.98107,22.8733],[76.98347,22.87192],[76.98517,22.87138],[76.98647,22.87239],[76.98493,22.87494],[76.98418,22.87641],[76.98354,22.87799],[76.98412,22.87968],[76.98671,22.8785],[76.98768,22.87804],[76.98902,22.87703],[76.99037,22.87606],[76.99189,22.87521],[76.9925,22.87447],[76.99569,22.87262],[76.99635,22.87268],[76.99893,22.87217],[76.99974,22.8702],[77.00017,22.86839],[77.00039,22.86437],[77.00043,22.85957],[77.00027,22.85566],[77.0003,22.85074],[77.00201,22.84709],[77.00117,22.84407],[77.00264,22.83977],[77.005,22.83651],[77.00585,22.83377],[77.00485,22.83114],[77.00383,22.82718],[77.00428,22.82398],[77.00453,22.82043],[77.00795,22.81452],[77.0092,22.8119],[77.00968,22.80835],[77.0103,22.80674],[77.01067,22.80325],[77.01041,22.79964],[77.01049,22.79633],[77.01534,22.79454],[77.01827,22.79449],[77.02058,22.79119],[77.02295,22.78718],[77.02448,22.78469],[77.02553,22.7811],[77.02734,22.7753],[77.02785,22.76729],[77.02527,22.76172],[77.01944,22.75823],[77.01691,22.75572],[77.01675,22.75201],[77.0182,22.74877],[77.01915,22.74605],[77.0191,22.74333],[77.01964,22.73748],[77.02258,22.73383],[77.02544,22.73366],[77.027,22.73355],[77.03017,22.73356],[77.03584,22.73242],[77.03637,22.72778],[77.03658,22.72321],[77.03677,22.72042],[77.03686,22.71648],[77.03768,22.71376],[77.03913,22.71041],[77.04183,22.70578],[77.04061,22.70137],[77.03676,22.69928],[77.03173,22.69851],[77.02875,22.69625],[77.02915,22.69335],[77.02979,22.69029],[77.03104,22.68779],[77.03343,22.68351],[77.03594,22.68063],[77.03608,22.67999],[77.03626,22.67987],[77.03846,22.67629],[77.04109,22.67179],[77.04258,22.67405],[77.04368,22.67637],[77.04523,22.67787],[77.04708,22.67904],[77.04925,22.68107],[77.05211,22.68223],[77.05516,22.68212],[77.05649,22.67825],[77.05819,22.67454],[77.0587,22.672],[77.0597,22.66992],[77.06015,22.66888],[77.06296,22.66639],[77.06576,22.66478],[77.06938,22.66386],[77.07168,22.66317],[77.07629,22.66202],[77.08041,22.66024],[77.08402,22.65792],[77.08534,22.65672],[77.08833,22.65359],[77.0886,22.64901],[77.08688,22.64599],[77.0851,22.6428],[77.0843,22.64019],[77.08469,22.63624],[77.08525,22.63328],[77.0852,22.62957],[77.08484,22.62573],[77.08825,22.62276],[77.09111,22.62154],[77.09241,22.62102],[77.09495,22.61967],[77.09773,22.61845],[77.09952,22.61616],[77.10186,22.61265],[77.10247,22.61165],[77.10443,22.60924],[77.10769,22.60675],[77.11095,22.60556],[77.11356,22.60294],[77.11423,22.60217],[77.11784,22.60021],[77.11858,22.59984],[77.12235,22.59955],[77.12227,22.59375],[77.12251,22.59088],[77.12443,22.58679],[77.12629,22.58284],[77.12728,22.58038],[77.12767,22.57888],[77.12672,22.57601],[77.12352,22.57253],[77.12017,22.56798],[77.11915,22.5644],[77.12007,22.56108],[77.12187,22.55881],[77.12361,22.55948],[77.11969,22.55432],[77.11557,22.55097],[77.10822,22.54352],[77.10275,22.53758],[77.09596,22.53057],[77.08774,22.52222],[77.07822,22.5162],[77.07054,22.51203],[77.05752,22.50744],[77.04557,22.50349],[77.03638,22.50192],[77.02872,22.49969],[77.02301,22.49934],[77.01504,22.49931],[77.01068,22.49979],[77.00268,22.49859],[77.00026,22.49815],[76.99177,22.49541],[76.99066,22.49512],[76.9879,22.49462],[76.98488,22.49444],[76.98168,22.494],[76.97855,22.49373],[76.97497,22.4937],[76.97121,22.49356],[76.96809,22.49377],[76.96269,22.49429],[76.9582,22.49448],[76.95315,22.49436],[76.94806,22.49406],[76.94455,22.49455],[76.94056,22.49455],[76.93604,22.49311],[76.92897,22.49303],[76.92041,22.49166],[76.91645,22.49057],[76.9073,22.48768],[76.90118,22.48667],[76.89692,22.48512],[76.89413,22.48335],[76.88758,22.48009],[76.88431,22.47808],[76.87935,22.47547],[76.87524,22.47252],[76.87318,22.47116],[76.86909,22.46804],[76.86584,22.46551],[76.85967,22.4619],[76.85829,22.45998],[76.85497,22.45797],[76.85085,22.45595],[76.84207,22.45329],[76.83507,22.45153],[76.83122,22.45079],[76.82499,22.44956],[76.82037,22.448],[76.81679,22.4461],[76.8142,22.44416],[76.81082,22.44174],[76.80923,22.4394],[76.80528,22.43767],[76.80128,22.43588],[76.79771,22.43364],[76.79468,22.43204],[76.79348,22.43121],[76.78963,22.42871],[76.78918,22.42499],[76.78886,22.42273],[76.78893,22.41994],[76.78956,22.41677],[76.7904,22.41498],[76.79139,22.4121],[76.79183,22.40914],[76.79189,22.40677],[76.79172,22.40358],[76.79105,22.40125],[76.78995,22.39839],[76.78837,22.39519],[76.78745,22.39257],[76.7863,22.38965],[76.78476,22.38541],[76.78414,22.38308],[76.78386,22.38192],[76.78353,22.38029],[76.78308,22.37878],[76.78247,22.37616],[76.78228,22.37396],[76.78216,22.37338],[76.78273,22.37066],[76.78332,22.36911],[76.78386,22.36697],[76.78421,22.36482],[76.7849,22.36199],[76.78453,22.35979],[76.78415,22.35769],[76.78397,22.35479],[76.78366,22.35253],[76.78351,22.35096],[76.78328,22.35026],[76.78242,22.3484],[76.78225,22.34741],[76.779,22.34024],[76.77743,22.33675],[76.77633,22.33412],[76.77496,22.3301],[76.7731,22.32632],[76.77193,22.3237],[76.77064,22.32142],[76.7682,22.31884],[76.76434,22.31613],[76.76124,22.31499],[76.75732,22.31268],[76.75336,22.3095],[76.75192,22.3078],[76.75015,22.30535],[76.74855,22.30324],[76.7472,22.3012],[76.74564,22.29944],[76.74398,22.29727],[76.74008,22.29647],[76.73816,22.2975],[76.7373,22.2998],[76.73724,22.30241],[76.73701,22.30409],[76.73656,22.30507],[76.73599,22.30553],[76.73359,22.30584],[76.73239,22.30536],[76.72999,22.30557],[76.72923,22.3066],[76.72877,22.30793],[76.72856,22.30891],[76.72804,22.30989],[76.7275,22.31186],[76.72403,22.31332],[76.72269,22.31295],[76.72056,22.31281],[76.71857,22.31377],[76.71629,22.31212],[76.71189,22.31114],[76.70574,22.30787],[76.70289,22.30639],[76.69907,22.30466],[76.69563,22.30282],[76.69203,22.30197],[76.68763,22.30191],[76.68603,22.30212],[76.68485,22.30286],[76.68372,22.30377],[76.68085,22.30594],[76.67946,22.3072],[76.67707,22.30995],[76.67479,22.31305],[76.67238,22.31598],[76.66972,22.31971],[76.66801,22.32172],[76.66569,22.32378],[76.66366,22.32636],[76.66234,22.32773],[76.66021,22.32962],[76.659,22.33152],[76.65726,22.33468],[76.65894,22.3361],[76.66136,22.33722],[76.66353,22.33864],[76.66392,22.34057],[76.66292,22.34339],[76.6631,22.34606],[76.66465,22.34758],[76.66577,22.34923],[76.66485,22.3517],[76.66342,22.35244],[76.66006,22.35442],[76.65745,22.3559],[76.65687,22.35694],[76.65623,22.35826],[76.65601,22.35971],[76.65575,22.36225],[76.655,22.36532],[76.65339,22.36634],[76.65002,22.36618],[76.6474,22.3651],[76.64594,22.36497],[76.64396,22.3657],[76.64065,22.36826],[76.63933,22.36912],[76.63705,22.37001],[76.6351,22.37184],[76.63159,22.37481],[76.63035,22.37532],[76.62962,22.37519],[76.62796,22.37546],[76.62499,22.37641],[76.62354,22.37818],[76.62269,22.38235],[76.62208,22.38448],[76.62075,22.3887],[76.61945,22.39153],[76.61786,22.39632],[76.61627,22.39798],[76.61114,22.40225],[76.60988,22.40357],[76.60797,22.40621],[76.60571,22.40809],[76.60307,22.40876],[76.59696,22.40966],[76.59366,22.40939],[76.58785,22.40896],[76.58554,22.40824],[76.58172,22.40627],[76.57995,22.40636],[76.57639,22.40643],[76.57467,22.40682],[76.57157,22.40799],[76.56887,22.40778],[76.56579,22.40635],[76.5641,22.40522],[76.56004,22.40343],[76.5584,22.40295],[76.55699,22.40269],[76.55273,22.40386],[76.55097,22.40551],[76.5481,22.40744],[76.54555,22.40851],[76.54055,22.4099],[76.5382,22.41061],[76.53468,22.41144],[76.5298,22.41276],[76.52906,22.41293],[76.52689,22.41359],[76.52167,22.41427],[76.51399,22.41492],[76.51055,22.41511],[76.50615,22.4147],[76.50018,22.41305],[76.49611,22.41172],[76.4938,22.41088],[76.48689,22.40788],[76.48084,22.40519],[76.4765,22.40199],[76.47138,22.39908],[76.46571,22.39546],[76.46014,22.39283],[76.45404,22.38961],[76.45211,22.38837],[76.44933,22.38683],[76.448,22.38611],[76.44631,22.38551],[76.44585,22.38197],[76.44519,22.3794],[76.44362,22.3762],[76.44209,22.37374],[76.44016,22.37047],[76.43979,22.36791],[76.44081,22.36462],[76.44162,22.36173],[76.44267,22.35932],[76.44433,22.35667],[76.44478,22.35575],[76.4463,22.35409],[76.44756,22.35284],[76.44942,22.34995],[76.44845,22.34716],[76.44638,22.34644],[76.44419,22.34611],[76.44023,22.34513],[76.43645,22.34456],[76.43408,22.34406],[76.43146,22.34339],[76.43001,22.34273],[76.42905,22.34202],[76.42832,22.34143],[76.42707,22.34031],[76.42678,22.33967],[76.41923,22.34002],[76.41728,22.34011],[76.4137,22.34046],[76.40888,22.34033],[76.40619,22.33966],[76.40176,22.33838],[76.39795,22.3367],[76.39559,22.33503],[76.39084,22.33224],[76.38493,22.32868],[76.3795,22.32541],[76.37422,22.32371],[76.36931,22.32207],[76.3639,22.32014],[76.35945,22.317],[76.3573,22.31529],[76.35339,22.31274],[76.34914,22.30908],[76.34723,22.30748],[76.34399,22.30518],[76.33852,22.30353],[76.3311,22.30139],[76.32577,22.29951],[76.32242,22.29853],[76.317,22.29752],[76.31206,22.29652],[76.30841,22.29583],[76.30671,22.2955],[76.30256,22.29487],[76.29704,22.2949],[76.29368,22.29485],[76.28988,22.29473],[76.28492,22.29477],[76.28192,22.29473],[76.28045,22.29459],[76.27631,22.294],[76.27319,22.29343],[76.27013,22.2935],[76.26457,22.293],[76.26257,22.29234],[76.25933,22.29217],[76.25614,22.29218],[76.2533,22.29266],[76.2516,22.29413],[76.2511,22.29489],[76.24995,22.29637],[76.24635,22.29817],[76.24447,22.29947],[76.24298,22.30194],[76.24227,22.3035],[76.24213,22.30419],[76.2408,22.30562],[76.23931,22.30652],[76.23825,22.30697],[76.23692,22.30828],[76.23579,22.31133],[76.23576,22.31249],[76.23575,22.31296],[76.23331,22.31478],[76.23171,22.31498],[76.22954,22.31558],[76.22781,22.31643],[76.22644,22.31698],[76.22593,22.31738],[76.22408,22.31817],[76.22294,22.31948],[76.22014,22.321],[76.21805,22.32306],[76.21677,22.32489],[76.21506,22.32695],[76.21357,22.32953],[76.21643,22.33242],[76.21753,22.33458],[76.21816,22.33604],[76.21822,22.3379],[76.21773,22.34027],[76.21631,22.34262],[76.21492,22.3444],[76.21283,22.34668],[76.21006,22.34919],[76.20759,22.35164],[76.20648,22.354],[76.2076,22.35541],[76.21142,22.35709],[76.21392,22.35759],[76.2165,22.35729],[76.21916,22.3564],[76.22294,22.35699],[76.22581,22.36149],[76.22645,22.3651],[76.23085,22.3694],[76.23353,22.37431],[76.23497,22.37938],[76.23585,22.3831],[76.23727,22.38684],[76.23847,22.38987],[76.23834,22.39259],[76.23559,22.39638],[76.23203,22.40078],[76.22792,22.405],[76.22516,22.40885],[76.22244,22.41171],[76.22017,22.41404],[76.21866,22.41524],[76.21551,22.41821],[76.21081,22.41964],[76.20229,22.4195],[76.20007,22.41987],[76.19627,22.42178],[76.19139,22.42489],[76.18946,22.42596],[76.18459,22.42675],[76.17983,22.42836],[76.17677,22.4301],[76.17432,22.43203],[76.17232,22.43328],[76.16781,22.43442],[76.16452,22.4357],[76.1621,22.43688],[76.16002,22.43876],[76.15757,22.44058],[76.15431,22.44266],[76.1509,22.44429],[76.14656,22.4477],[76.14392,22.45015],[76.14201,22.45208],[76.13851,22.45464],[76.13537,22.45685],[76.13263,22.45791],[76.12889,22.45831],[76.12581,22.45837],[76.1221,22.45947],[76.11837,22.4612],[76.11611,22.46309],[76.11487,22.46723],[76.1113,22.46804],[76.10726,22.4696],[76.10545,22.47067],[76.10422,22.47257],[76.10214,22.47618],[76.1012,22.4793],[76.10062,22.48231],[76.09961,22.48699],[76.09865,22.49021],[76.09845,22.49108],[76.09769,22.4938],[76.09678,22.49749],[76.09551,22.50094],[76.09521,22.50489],[76.09474,22.50812],[76.09452,22.51137],[76.09439,22.51583],[76.09308,22.52224],[76.09213,22.52733],[76.09042,22.53309],[76.08917,22.538],[76.08847,22.54066],[76.0876,22.54331],[76.08717,22.54533],[76.08704,22.54737],[76.08948,22.54989],[76.09092,22.55108],[76.09282,22.55326],[76.09492,22.55497],[76.09582,22.55539],[76.0975,22.55467],[76.10056,22.55501],[76.10369,22.55715],[76.10634,22.55871],[76.10674,22.55975],[76.10459,22.56215],[76.10242,22.56264],[76.1002,22.56312],[76.09662,22.5637],[76.09432,22.56425],[76.09181,22.56437],[76.08976,22.56481],[76.08828,22.5653],[76.08547,22.56665],[76.08341,22.56788],[76.08146,22.56936],[76.08086,22.57126],[76.07724,22.57289],[76.07661,22.57345],[76.07528,22.575],[76.0738,22.577],[76.07315,22.57809],[76.07063,22.58002],[76.06933,22.58081],[76.06658,22.58216],[76.06437,22.58432],[76.06536,22.58602],[76.06764,22.58559],[76.06969,22.58493],[76.07155,22.58432],[76.07483,22.58351],[76.07852,22.5834],[76.0819,22.58328],[76.08376,22.58274],[76.08733,22.58239],[76.08969,22.58359],[76.0897,22.5873],[76.08864,22.58989],[76.08664,22.59299],[76.08546,22.59529],[76.08346,22.60053],[76.08352,22.60273],[76.08587,22.60214],[76.08678,22.60053],[76.08818,22.59869],[76.08875,22.5983],[76.09169,22.59823],[76.09275,22.59819],[76.09366,22.59629],[76.09402,22.59456],[76.09481,22.59266],[76.09642,22.59228],[76.09715,22.59281],[76.10042,22.59438],[76.10167,22.59341],[76.10162,22.59103],[76.10274,22.58867],[76.10393,22.58783],[76.10474,22.58732],[76.10739,22.5891],[76.10764,22.5909],[76.11026,22.5917],[76.11186,22.58965],[76.11323,22.58682],[76.11367,22.58463],[76.11352,22.58323],[76.11483,22.58088],[76.11638,22.58224],[76.11678,22.58317],[76.11934,22.58373],[76.11791,22.58841],[76.11857,22.58923],[76.12123,22.59223],[76.11932,22.59458],[76.11739,22.59559],[76.11414,22.59722],[76.11284,22.598],[76.1106,22.59895],[76.10995,22.60005],[76.11293,22.60102],[76.1149,22.60065],[76.11612,22.60079],[76.11953,22.60386],[76.12094,22.6022],[76.12204,22.60031],[76.12255,22.59967],[76.12352,22.59824],[76.12421,22.59739],[76.12549,22.59584],[76.12599,22.59545],[76.12711,22.59483],[76.12895,22.59508],[76.12926,22.59695],[76.12845,22.59949],[76.1281,22.60087],[76.12899,22.60216],[76.13036,22.60114],[76.13189,22.59966],[76.13413,22.60027],[76.13533,22.60151],[76.13725,22.60108],[76.13778,22.59975],[76.13837,22.59826],[76.1384,22.5975],[76.13909,22.59496],[76.13969,22.59323],[76.14036,22.59156],[76.14099,22.59105],[76.14317,22.58998],[76.14458,22.59001],[76.14456,22.59482],[76.14413,22.59638],[76.14297,22.59874],[76.14191,22.60104],[76.14143,22.60295],[76.14327,22.60309],[76.14522,22.60365],[76.14778,22.60409],[76.14667,22.60616],[76.14413,22.60908],[76.14761,22.61],[76.1485,22.61089],[76.1499,22.61143],[76.15233,22.61025],[76.15313,22.6098],[76.15471,22.60855],[76.15698,22.60876],[76.15965,22.60759],[76.16124,22.60582],[76.16252,22.6041],[76.16329,22.60318],[76.1638,22.60233],[76.1655,22.60084],[76.1676,22.6029],[76.16757,22.60801],[76.16728,22.60922],[76.16595,22.61059],[76.16494,22.61145],[76.16369,22.61224],[76.16156,22.61382],[76.15979,22.61525],[76.15905,22.6175],[76.16088,22.61793],[76.1626,22.61784],[76.16419,22.61792],[76.16366,22.62146],[76.16271,22.62248],[76.15974,22.62354],[76.15725,22.62419],[76.15547,22.62405],[76.15306,22.625],[76.15246,22.62829],[76.15196,22.6306],[76.15224,22.63177],[76.15384,22.63174],[76.15515,22.63088],[76.15862,22.62973],[76.15981,22.63311],[76.16393,22.63097],[76.16539,22.62972],[76.16651,22.62892],[76.16973,22.62799],[76.1722,22.6296],[76.17354,22.63235],[76.17561,22.63296],[76.17768,22.63543],[76.17903,22.63771],[76.18209,22.63805],[76.18346,22.63767],[76.18601,22.63863],[76.18917,22.63973],[76.19058,22.63784],[76.18917,22.63555],[76.18858,22.63467],[76.18751,22.6335],[76.18648,22.63295],[76.18222,22.6315],[76.18066,22.63031],[76.17834,22.62773],[76.17747,22.62603],[76.17556,22.62403],[76.17371,22.62225],[76.17231,22.61789],[76.17252,22.61702],[76.17286,22.61575],[76.17609,22.6147],[76.17872,22.61509],[76.18221,22.61729],[76.18339,22.61708],[76.18351,22.61285],[76.18649,22.61185],[76.18807,22.61032],[76.1894,22.60726],[76.18533,22.60546],[76.18371,22.60415],[76.18053,22.60382],[76.17799,22.60244],[76.17846,22.6007],[76.17972,22.59979],[76.18127,22.5993],[76.18388,22.5983],[76.18556,22.59763],[76.18885,22.59647],[76.19228,22.59889],[76.19397,22.60188],[76.19443,22.60502],[76.19426,22.60867],[76.19483,22.61442],[76.19555,22.61884],[76.19907,22.62278],[76.20005,22.625],[76.20306,22.62481],[76.20692,22.62342],[76.20938,22.62289],[76.21388,22.62266],[76.21509,22.61892],[76.21825,22.61589],[76.21899,22.61574],[76.22378,22.6161],[76.22654,22.61609],[76.2288,22.61665],[76.23062,22.61707],[76.23428,22.62015],[76.23589,22.62383],[76.23675,22.63039],[76.23767,22.63446],[76.24056,22.63903],[76.24248,22.64046],[76.2453,22.64247],[76.24558,22.64352],[76.2427,22.6451],[76.24144,22.64636],[76.24035,22.64994],[76.23862,22.65019],[76.23131,22.65026],[76.22806,22.65235],[76.22862,22.65415],[76.22895,22.65519],[76.22908,22.65566],[76.23001,22.65691],[76.23203,22.6592],[76.23236,22.66279],[76.23231,22.66662],[76.23163,22.66893],[76.23019,22.67158],[76.22629,22.67505],[76.22405,22.67374],[76.22196,22.67162],[76.21976,22.66898],[76.21744,22.66668],[76.21409,22.66361],[76.21252,22.66237],[76.20923,22.66139],[76.20716,22.66124],[76.20574,22.66122],[76.20333,22.66158],[76.20161,22.6615],[76.20001,22.66164],[76.19772,22.66242],[76.19461,22.66155],[76.19277,22.66113],[76.18961,22.66235],[76.19004,22.66462],[76.19115,22.66644],[76.19371,22.66914],[76.19533,22.67044],[76.19792,22.67211],[76.1998,22.67313],[76.20264,22.67462],[76.20346,22.67614],[76.20105,22.67639],[76.19832,22.67919],[76.19755,22.68057],[76.19645,22.68235],[76.19631,22.68287],[76.19497,22.68459],[76.19368,22.68648],[76.19082,22.6898],[76.18871,22.69064],[76.18701,22.6917],[76.18552,22.6925],[76.1832,22.69379],[76.18082,22.6937],[76.17977,22.6935],[76.17854,22.69378],[76.17785,22.69411],[76.17716,22.69428],[76.17618,22.69443],[76.17477,22.6943],[76.17312,22.69397],[76.17064,22.69266],[76.1701,22.69213],[76.16918,22.69206],[76.16781,22.6907],[76.16641,22.69027],[76.16567,22.69026],[76.16355,22.68924],[76.16176,22.68927],[76.16011,22.68919],[76.15945,22.68866],[76.15927,22.68859],[76.15754,22.68879],[76.1555,22.68917],[76.15433,22.68926],[76.15328,22.68937],[76.15169,22.68928],[76.15132,22.68938],[76.14964,22.68994],[76.14895,22.6901],[76.14655,22.69053],[76.14512,22.69092],[76.1435,22.69158],[76.14188,22.69231],[76.14062,22.69345],[76.13974,22.69418],[76.13852,22.69567],[76.1373,22.69577],[76.13586,22.69661],[76.13498,22.69742],[76.13372,22.69815],[76.13253,22.69877],[76.13127,22.69979],[76.12946,22.70051],[76.12817,22.70089],[76.12679,22.70157],[76.12255,22.70167],[76.12162,22.70178],[76.12021,22.7021],[76.11728,22.70136],[76.11568,22.70104],[76.11378,22.70084],[76.11251,22.70035],[76.11017,22.70031],[76.10907,22.70006],[76.10674,22.69996],[76.10537,22.70041],[76.10351,22.70124],[76.10287,22.70222],[76.10195,22.70394],[76.10153,22.7055],[76.10061,22.70757],[76.1002,22.70919],[76.09966,22.71075],[76.09931,22.71208],[76.09858,22.7138],[76.09791,22.7153],[76.09728,22.71621],[76.0966,22.7162],[76.09537,22.71613],[76.09433,22.71605],[76.0936,22.71546],[76.09313,22.71493],[76.09222,22.71457],[76.09182,22.71566],[76.09211,22.71642],[76.0925,22.71741],[76.09279,22.71817],[76.09433,22.71976],[76.09505,22.72087],[76.09532,22.72187],[76.0954,22.72355],[76.09525,22.72435],[76.095,22.72627],[76.09417,22.72735],[76.09306,22.72757],[76.092,22.72813],[76.09056,22.72904],[76.0893,22.72983],[76.08874,22.73011],[76.08739,22.73194],[76.08668,22.73529],[76.0863,22.73714],[76.08628,22.7383],[76.08649,22.74137],[76.08618,22.7437],[76.08622,22.74596],[76.08556,22.74762],[76.08403,22.74945],[76.08348,22.75159],[76.08251,22.75296],[76.07968,22.75478],[76.07811,22.75626],[76.07728,22.75717],[76.07716,22.75885],[76.0777,22.76153],[76.07732,22.76396],[76.07725,22.76604],[76.07715,22.76743],[76.07654,22.76899],[76.07602,22.77026],[76.07519,22.77105],[76.07443,22.77173],[76.0736,22.773],[76.07204,22.77372],[76.07139,22.77458],[76.06948,22.77676],[76.06902,22.77785],[76.06785,22.77992],[76.06719,22.78153],[76.06653,22.78297],[76.06645,22.78355],[76.06623,22.78465],[76.06603,22.78522],[76.06558,22.78597],[76.06561,22.78666],[76.06496,22.78787],[76.06469,22.78856],[76.06423,22.78989],[76.06382,22.79087],[76.06318,22.79167],[76.0621,22.79321],[76.06155,22.79466],[76.06065,22.79615],[76.05993,22.7973],[76.05911,22.79839],[76.05864,22.79942],[76.0568,22.80113],[76.05531,22.8018],[76.05425,22.80219],[76.05311,22.80327],[76.05184,22.80447],[76.0507,22.8055],[76.04907,22.80651],[76.04807,22.80833],[76.04798,22.80915],[76.047,22.81081],[76.04645,22.81266],[76.0457,22.8149],[76.04457,22.81738],[76.0437,22.81951],[76.04178,22.82191],[76.03943,22.82412],[76.03835,22.8252],[76.03705,22.82698],[76.03666,22.82773],[76.03596,22.83033],[76.03516,22.8321],[76.03436,22.83441],[76.03472,22.83628],[76.03492,22.83767],[76.03502,22.83871],[76.03505,22.83947],[76.03477,22.84051],[76.03374,22.84206],[76.03358,22.84316],[76.03351,22.84333],[76.03293,22.84413],[76.03205,22.84458],[76.03105,22.84526],[76.03035,22.846],[76.02945,22.84685],[76.02837,22.84764],[76.02806,22.84804],[76.02666,22.84911],[76.02558,22.85008],[76.02489,22.85053],[76.02383,22.85086],[76.02308,22.8509],[76.02097,22.8512],[76.01984,22.85177],[76.01877,22.85255],[76.0178,22.85376],[76.01672,22.85472],[76.01521,22.8555],[76.01446,22.8559],[76.01318,22.85727],[76.01274,22.85738],[76.01112,22.85799],[76.009,22.85882],[76.0066,22.85921],[76.00441,22.85992],[76.00321,22.86095],[76.00205,22.86183],[76.00134,22.86242],[75.99996,22.86433],[75.99939,22.86538],[75.99573,22.867],[75.99496,22.87127],[75.99316,22.87181],[75.98673,22.87097],[75.9848,22.87202],[75.98253,22.87784],[75.98021,22.88118],[75.98111,22.88344],[75.98351,22.88427],[75.98545,22.88654],[75.98318,22.8923],[75.98368,22.89563],[75.98253,22.90758],[75.97951,22.92183],[75.97643,22.92709],[75.97384,22.92903],[75.96929,22.93073],[75.96749,22.93313],[75.96652,22.93774],[75.96742,22.94268],[75.96648,22.9446],[75.96475,22.94544],[75.96304,22.94437],[75.95632,22.94652],[75.95076,22.95447],[75.94847,22.95588],[75.94668,22.95897],[75.94388,22.96036],[75.9407,22.96453],[75.93821,22.96523],[75.93683,22.96833],[75.92707,22.9734],[75.92526,22.97678],[75.92579,22.97939],[75.92361,22.98035],[75.9168,22.97687],[75.91384,22.97832],[75.91239,22.9838],[75.91244,22.98711],[75.90642,22.99068],[75.90236,22.99186],[75.901,22.99596],[75.9005,23.0003],[75.90092,23.0032],[75.89998,23.01861],[75.90147,23.02326],[75.90367,23.02561],[75.90971,23.02793],[75.92053,23.02751],[75.93082,23.03103],[75.93447,23.03092],[75.94197,23.02866],[75.95543,23.02344],[75.96018,23.02379],[75.96393,23.02557],[75.96906,23.03263],[75.97953,23.0428],[75.97897,23.05665],[75.98208,23.06798],[75.98464,23.07193],[75.98992,23.07533],[75.99193,23.07837],[75.99018,23.08676],[75.98283,23.09221],[75.97959,23.09562],[75.9798,23.09905],[75.97853,23.10208],[75.9758,23.10378],[75.96776,23.1034],[75.96119,23.10475],[75.959,23.10731],[75.95796,23.11164],[75.96032,23.11823],[75.95992,23.12629],[75.95649,23.12867],[75.94988,23.12887],[75.94353,23.13296],[75.93666,23.13328],[75.93366,23.13481],[75.93202,23.14463],[75.93402,23.14847],[75.94304,23.15052],[75.9453,23.15288],[75.94719,23.15609],[75.94771,23.15936],[75.94845,23.15977],[75.94795,23.16677],[75.95089,23.16943],[75.95116,23.17376],[75.95418,23.181],[75.9528,23.19645],[75.95184,23.19882],[75.95246,23.2057],[75.95451,23.21061],[75.9535,23.21824],[75.95095,23.22607],[75.9458,23.22699],[75.93437,23.22445],[75.93182,23.22524],[75.93124,23.22724],[75.93333,23.23477],[75.93366,23.23959],[75.93128,23.25345],[75.93053,23.26721],[75.92922,23.273],[75.93064,23.27501],[75.93128,23.27827],[75.93144,23.28672],[75.93309,23.29493],[75.9337,23.29625],[75.94134,23.29922],[75.94378,23.30275],[75.94615,23.30785],[75.9471,23.31242],[75.94857,23.31364],[75.94888,23.31979],[75.95668,23.32039],[75.96215,23.32155],[75.96355,23.31761],[75.96389,23.30874],[75.96474,23.30501],[75.96568,23.30363],[75.96898,23.30285],[75.97528,23.30373],[75.97722,23.30266],[75.97919,23.29792],[75.98466,23.28999],[75.98728,23.28235],[75.99232,23.28029],[75.99211,23.2772],[75.99381,23.26898],[75.98837,23.26776],[75.98484,23.26763],[75.97477,23.2646],[75.97135,23.25993],[75.97063,23.25711],[75.97065,23.24894],[75.97204,23.24673],[75.97758,23.24471],[75.98452,23.2453],[76.00001,23.24693],[76.00159,23.22208],[76.00403,23.20746],[76.00813,23.20349],[76.01071,23.20008],[76.01146,23.19685],[76.01487,23.19306],[76.01686,23.18878],[76.02196,23.18534],[76.02832,23.18266],[76.03018,23.18039],[76.03091,23.17599],[76.03184,23.17287],[76.03294,23.16944],[76.0331,23.16698],[76.02985,23.16303],[76.0337,23.16142],[76.03372,23.15788],[76.03289,23.15469],[76.03241,23.15111],[76.03273,23.1481],[76.03238,23.1436],[76.03315,23.14086],[76.03612,23.13821],[76.03908,23.13454],[76.04233,23.12949],[76.04595,23.1253],[76.04832,23.12112],[76.05013,23.11774],[76.05139,23.1149],[76.05201,23.11156],[76.0533,23.10773],[76.05525,23.10445],[76.05681,23.10095],[76.05699,23.09728],[76.05598,23.09412],[76.05382,23.0894],[76.05281,23.08634],[76.05217,23.08299],[76.05176,23.08123],[76.05291,23.07827],[76.05723,23.07796],[76.06011,23.07588],[76.06099,23.07241],[76.06529,23.07015],[76.06935,23.06789],[76.07187,23.06572],[76.07362,23.06196],[76.07412,23.05889],[76.07353,23.05541],[76.07326,23.05347],[76.07438,23.05043],[76.07711,23.0491],[76.08041,23.05072],[76.08547,23.05152],[76.0914,23.05068],[76.09666,23.05073],[76.10227,23.05271],[76.1064,23.05657],[76.1086,23.05981],[76.10999,23.06021],[76.10899,23.06954],[76.10864,23.07195],[76.10912,23.07465],[76.10853,23.07776],[76.10822,23.08028],[76.10709,23.08312],[76.10479,23.08765],[76.10256,23.09211],[76.10073,23.09446],[76.09744,23.09664],[76.09701,23.09694],[76.09436,23.10084],[76.09216,23.10291],[76.08972,23.10488],[76.08768,23.10753],[76.08635,23.10991],[76.08404,23.1128],[76.08145,23.11523],[76.08081,23.11841],[76.07725,23.11867],[76.07485,23.11942],[76.07224,23.12011],[76.06901,23.12065],[76.06553,23.1222],[76.06339,23.12426],[76.0621,23.1267],[76.0602,23.13055],[76.06038,23.1356],[76.0604,23.13903],[76.05849,23.1405],[76.05368,23.14169],[76.048,23.14287],[76.04706,23.14685],[76.04769,23.14996],[76.04924,23.15362],[76.05007,23.15712],[76.0502,23.16025],[76.05057,23.16319],[76.04972,23.16654],[76.04965,23.16933],[76.05025,23.17494],[76.05108,23.17931],[76.05548,23.17977],[76.06205,23.17885],[76.06495,23.1771],[76.06456,23.17491],[76.06402,23.17226],[76.06482,23.16903],[76.06617,23.16671],[76.06787,23.16478],[76.07171,23.16212],[76.07557,23.16386],[76.07983,23.16502],[76.0827,23.16681],[76.08675,23.16972],[76.09054,23.17031],[76.09393,23.17051],[76.09713,23.17159],[76.1005,23.17249],[76.10452,23.17365],[76.11261,23.17498],[76.11753,23.17547],[76.1216,23.17565],[76.127,23.17587],[76.12996,23.17731],[76.13402,23.17906],[76.13549,23.18149],[76.137,23.1827],[76.13917,23.18342],[76.13987,23.18547],[76.14022,23.18715],[76.14019,23.1897],[76.14024,23.19237],[76.14003,23.19401],[76.13587,23.19656],[76.13379,23.1973],[76.1308,23.19766],[76.12721,23.19926],[76.12639,23.20313],[76.12567,23.20566],[76.12424,23.20985],[76.12101,23.20917],[76.11758,23.20834],[76.11432,23.2072],[76.10942,23.20608],[76.10877,23.20558],[76.10434,23.2038],[76.09754,23.20217],[76.09201,23.20177],[76.08828,23.20112],[76.0861,23.19941],[76.08532,23.19776],[76.08415,23.19514],[76.08324,23.19263],[76.0804,23.19228],[76.07634,23.19234],[76.07421,23.19621],[76.07293,23.19685],[76.07048,23.1977],[76.06766,23.19875],[76.06507,23.19922],[76.0624,23.19951],[76.05714,23.20043],[76.05283,23.20148],[76.04973,23.20289],[76.04801,23.20453],[76.04779,23.206],[76.04797,23.20778],[76.04885,23.2099],[76.05009,23.21176],[76.0523,23.21318],[76.05729,23.21285],[76.06175,23.21225],[76.0658,23.21086],[76.0704,23.20851],[76.07412,23.208],[76.07579,23.20967],[76.07635,23.21255],[76.07681,23.21503],[76.07676,23.21712],[76.07683,23.21944],[76.07502,23.22155],[76.07314,23.22332],[76.07073,23.224],[76.06628,23.2257],[76.06629,23.22791],[76.06651,23.22952],[76.06793,23.23016],[76.06973,23.232],[76.07022,23.23372],[76.07094,23.23526],[76.07274,23.23721],[76.07639,23.23764],[76.08005,23.23795],[76.08511,23.23784],[76.08845,23.23625],[76.09267,23.23368],[76.09432,23.2339],[76.09712,23.23466],[76.0998,23.23552],[76.10267,23.23634],[76.10429,23.23725],[76.10664,23.23877],[76.10935,23.24011],[76.11331,23.24125]]]}}]}