{"type":"FeatureCollection","features":[{"type":"Feature","properties":{"id":"dindori","name":"Dindori","stateId":"madhya-pradesh","stateName":"Madhya Pradesh","censuscode":453,"type":"district"},"geometry":{"type":"Polygon","coordinates":[[[80.70724,23.36476],[80.71151,23.36128],[80.72819,23.35648],[80.73559,23.35215],[80.73753,23.3501],[80.73833,23.34603],[80.74026,23.34334],[80.74321,23.34203],[80.75709,23.34403],[80.75996,23.34174],[80.75825,23.33556],[80.75345,23.33019],[80.75284,23.3273],[80.75488,23.31999],[80.74421,23.31435],[80.7412,23.31202],[80.73073,23.30695],[80.72579,23.30286],[80.72513,23.30073],[80.72806,23.29814],[80.73279,23.29668],[80.73572,23.2945],[80.73425,23.29186],[80.72662,23.29399],[80.71913,23.28553],[80.71718,23.28046],[80.72317,23.27234],[80.72491,23.26294],[80.72631,23.26152],[80.73096,23.26222],[80.73608,23.26157],[80.7413,23.25645],[80.74469,23.25195],[80.74555,23.24824],[80.74486,23.24472],[80.74192,23.23845],[80.74193,23.23584],[80.74289,23.23426],[80.75196,23.22592],[80.75886,23.22154],[80.76272,23.21963],[80.77731,23.21682],[80.77815,23.2186],[80.78088,23.22012],[80.78615,23.22098],[80.78914,23.22261],[80.79109,23.22773],[80.79339,23.24986],[80.80828,23.25278],[80.81322,23.25281],[80.81328,23.24952],[80.81535,23.24416],[80.82915,23.24222],[80.83375,23.24042],[80.8346,23.23566],[80.83438,23.23051],[80.83707,23.22996],[80.8499,23.22186],[80.85389,23.22025],[80.85691,23.22021],[80.86256,23.22181],[80.86481,23.2267],[80.86538,23.23052],[80.8718,23.23686],[80.88096,23.2417],[80.89646,23.2476],[80.9152,23.25895],[80.92258,23.28016],[80.92806,23.28551],[80.93217,23.28752],[80.93776,23.28891],[80.94184,23.28887],[80.94697,23.28659],[80.95586,23.27761],[80.95965,23.27567],[80.9624,23.26401],[80.9733,23.25476],[80.97902,23.25088],[80.98225,23.24773],[80.98844,23.24506],[80.99493,23.24378],[80.99674,23.24199],[80.99431,23.23587],[80.99473,23.23232],[81.00044,23.2306],[81.00874,23.22538],[81.01471,23.22313],[81.01978,23.22256],[81.02799,23.2116],[81.03363,23.20696],[81.04853,23.20833],[81.05743,23.20688],[81.0604,23.205],[81.0632,23.20173],[81.06784,23.19436],[81.08456,23.19815],[81.09729,23.20199],[81.10053,23.20197],[81.10415,23.20201],[81.10694,23.20316],[81.11254,23.21086],[81.11781,23.21616],[81.12122,23.21755],[81.12493,23.21621],[81.1261,23.21257],[81.12852,23.20503],[81.13268,23.20002],[81.1399,23.19435],[81.14558,23.17795],[81.15158,23.17745],[81.16041,23.17843],[81.16374,23.1773],[81.1635,23.17329],[81.1611,23.17175],[81.1591,23.16841],[81.16111,23.16517],[81.16673,23.16425],[81.17583,23.16763],[81.17944,23.16814],[81.18735,23.16807],[81.19037,23.16753],[81.19245,23.16586],[81.19153,23.16178],[81.18408,23.15716],[81.18197,23.15318],[81.18278,23.14975],[81.1887,23.15006],[81.19285,23.15116],[81.19635,23.1476],[81.19333,23.13558],[81.19346,23.13209],[81.19493,23.12984],[81.19815,23.12768],[81.20266,23.12651],[81.20567,23.12859],[81.20864,23.13717],[81.20996,23.13957],[81.21157,23.14053],[81.21491,23.13807],[81.21218,23.12728],[81.21274,23.12065],[81.2138,23.1173],[81.21551,23.1154],[81.21796,23.11457],[81.22556,23.11402],[81.22871,23.10935],[81.23209,23.10828],[81.23809,23.11017],[81.24127,23.11038],[81.24286,23.10889],[81.24339,23.10628],[81.24642,23.10039],[81.24964,23.09833],[81.25113,23.09824],[81.25205,23.09563],[81.25115,23.09353],[81.25163,23.0911],[81.25638,23.08244],[81.25666,23.0736],[81.26168,23.07174],[81.26364,23.06967],[81.26118,23.06755],[81.25852,23.06647],[81.26232,23.06239],[81.25766,23.06106],[81.25612,23.05947],[81.25522,23.05294],[81.25291,23.05233],[81.24951,23.05515],[81.24393,23.05705],[81.24082,23.0605],[81.2349,23.05973],[81.23155,23.05777],[81.23426,23.05583],[81.23858,23.05455],[81.23841,23.05181],[81.23116,23.05242],[81.22716,23.03039],[81.22358,23.02473],[81.22092,23.02222],[81.21598,23.01852],[81.21047,23.01597],[81.20451,23.00062],[81.202,22.983],[81.19404,22.96528],[81.18872,22.95077],[81.19184,22.94102],[81.19278,22.93533],[81.19256,22.92802],[81.19904,22.91324],[81.20372,22.90933],[81.2113,22.91151],[81.21946,22.91195],[81.22647,22.90719],[81.23296,22.90469],[81.2361,22.90144],[81.25716,22.89829],[81.263,22.89394],[81.27084,22.88522],[81.28001,22.87804],[81.29179,22.8773],[81.30132,22.87805],[81.31659,22.87348],[81.3254,22.86097],[81.34812,22.85509],[81.36076,22.849],[81.37936,22.85473],[81.40631,22.85051],[81.40976,22.84459],[81.42656,22.83679],[81.4329,22.83063],[81.43897,22.82066],[81.4382,22.81175],[81.43915,22.80465],[81.44551,22.79665],[81.45094,22.79428],[81.44761,22.78872],[81.45171,22.77925],[81.45685,22.7723],[81.46314,22.76998],[81.46881,22.76413],[81.47616,22.759],[81.48331,22.75851],[81.48766,22.75988],[81.50412,22.76164],[81.50947,22.76384],[81.51525,22.76026],[81.52104,22.7595],[81.52258,22.75414],[81.52989,22.75023],[81.54602,22.7539],[81.5515,22.75877],[81.55875,22.76007],[81.56749,22.75613],[81.58276,22.75524],[81.58813,22.75762],[81.59707,22.7575],[81.60426,22.76118],[81.61125,22.76684],[81.62753,22.77392],[81.6326,22.77909],[81.63785,22.78165],[81.64598,22.78363],[81.65521,22.78488],[81.6635,22.7832],[81.68524,22.78141],[81.69227,22.7786],[81.69293,22.7631],[81.69674,22.75751],[81.69924,22.75184],[81.7039,22.74565],[81.70334,22.73812],[81.70405,22.73446],[81.70049,22.72798],[81.69819,22.71985],[81.69437,22.71303],[81.70165,22.70558],[81.73086,22.69724],[81.73921,22.68877],[81.73031,22.67589],[81.727,22.66971],[81.72536,22.66342],[81.72145,22.65533],[81.71439,22.64933],[81.70622,22.64557],[81.69575,22.64631],[81.68595,22.64855],[81.6705,22.6324],[81.66389,22.63168],[81.66215,22.62128],[81.65576,22.61967],[81.65087,22.61409],[81.64873,22.60724],[81.64896,22.59181],[81.64747,22.58628],[81.65176,22.58312],[81.65675,22.57583],[81.65602,22.56871],[81.65298,22.56565],[81.64525,22.56186],[81.63983,22.56175],[81.63089,22.56402],[81.62674,22.55831],[81.62674,22.55303],[81.62869,22.54754],[81.62921,22.54359],[81.62312,22.53879],[81.61628,22.5362],[81.60708,22.53547],[81.60005,22.5374],[81.59528,22.54376],[81.59048,22.54427],[81.57706,22.54976],[81.57038,22.55071],[81.56473,22.54659],[81.56462,22.53732],[81.57009,22.53391],[81.56424,22.53188],[81.55449,22.53097],[81.54953,22.52963],[81.54326,22.53294],[81.53529,22.53948],[81.52637,22.53966],[81.52271,22.53643],[81.52197,22.53372],[81.52203,22.52838],[81.51927,22.52322],[81.51386,22.52147],[81.51022,22.52647],[81.50051,22.5193],[81.49904,22.51701],[81.49741,22.50812],[81.49304,22.50304],[81.48713,22.49302],[81.48366,22.49187],[81.47724,22.49368],[81.46794,22.49404],[81.46061,22.4907],[81.45351,22.49553],[81.44534,22.49361],[81.44638,22.49069],[81.45151,22.4867],[81.44808,22.48434],[81.44636,22.47915],[81.4512,22.47836],[81.45061,22.47124],[81.45758,22.47227],[81.45531,22.4671],[81.44974,22.46587],[81.44324,22.46919],[81.44083,22.4774],[81.43905,22.48017],[81.4317,22.47892],[81.42486,22.47331],[81.4251,22.46484],[81.42791,22.45911],[81.42619,22.45392],[81.42138,22.44823],[81.4038,22.44102],[81.39613,22.44454],[81.39344,22.45084],[81.39031,22.46226],[81.39208,22.47747],[81.38794,22.48497],[81.3864,22.493],[81.38687,22.49752],[81.38599,22.5049],[81.38051,22.51032],[81.37376,22.51393],[81.36904,22.51495],[81.36295,22.5128],[81.35521,22.51364],[81.33914,22.52189],[81.33019,22.52385],[81.32664,22.51905],[81.32206,22.51542],[81.32139,22.49915],[81.32315,22.48926],[81.31121,22.48131],[81.30503,22.48612],[81.29894,22.48884],[81.28745,22.49832],[81.28271,22.49894],[81.2787,22.49535],[81.27398,22.49365],[81.26769,22.49306],[81.26345,22.48757],[81.26273,22.472],[81.24761,22.4587],[81.24032,22.45466],[81.23077,22.45113],[81.2256,22.45116],[81.21697,22.45335],[81.20933,22.45626],[81.20138,22.46156],[81.20225,22.46723],[81.20045,22.47317],[81.19985,22.48193],[81.19408,22.48865],[81.19606,22.49264],[81.19342,22.49911],[81.18379,22.51511],[81.16856,22.53178],[81.16701,22.5372],[81.15837,22.5399],[81.15576,22.55015],[81.1591,22.55426],[81.15545,22.55867],[81.14704,22.56334],[81.13673,22.57151],[81.13433,22.58054],[81.12838,22.58476],[81.12304,22.59129],[81.11631,22.59083],[81.11214,22.59506],[81.10621,22.59424],[81.10339,22.59481],[81.09823,22.59311],[81.09255,22.59569],[81.09015,22.59875],[81.0874,22.60604],[81.08317,22.60953],[81.07884,22.60884],[81.06808,22.61001],[81.0646,22.60851],[81.05565,22.60234],[81.05305,22.60452],[81.05049,22.60312],[81.04732,22.60503],[81.04545,22.60355],[81.03851,22.61144],[81.03204,22.61108],[81.02993,22.60398],[81.02594,22.59877],[81.02088,22.59543],[81.01713,22.58686],[81.01702,22.5809],[81.01525,22.56956],[81.0216,22.56303],[81.01796,22.55636],[81.00924,22.55163],[81.00285,22.54587],[81.00006,22.54335],[80.99363,22.54475],[80.99138,22.54395],[80.9874,22.54084],[80.98414,22.53963],[80.97985,22.54126],[80.96885,22.54224],[80.96583,22.54589],[80.9644,22.5572],[80.96304,22.55918],[80.95805,22.5585],[80.94885,22.55434],[80.94693,22.55487],[80.94233,22.56448],[80.93553,22.57305],[80.93508,22.57654],[80.93593,22.58455],[80.93783,22.58803],[80.93958,22.5882],[80.94196,22.58553],[80.94455,22.5842],[80.95251,22.58994],[80.95874,22.59054],[80.96563,22.59025],[80.96683,22.59253],[80.96004,22.5952],[80.95844,22.59716],[80.95832,22.60153],[80.96262,22.60637],[80.96834,22.6109],[80.97371,22.61189],[80.97948,22.61023],[80.98283,22.61095],[80.98554,22.61332],[80.98896,22.61304],[80.99382,22.61453],[81.00009,22.61941],[81.00504,22.6256],[81.0066,22.63068],[81.00642,22.63648],[81.00408,22.64033],[80.99083,22.64478],[80.97208,22.64446],[80.96599,22.64674],[80.96487,22.64328],[80.96498,22.63695],[80.96229,22.63595],[80.95758,22.63832],[80.95605,22.63996],[80.95503,22.65384],[80.94545,22.66596],[80.94331,22.67422],[80.94036,22.67621],[80.93255,22.67683],[80.92914,22.67793],[80.92556,22.67984],[80.92465,22.68113],[80.92889,22.70289],[80.9285,22.70597],[80.91823,22.70835],[80.91758,22.71126],[80.92001,22.71749],[80.93252,22.73525],[80.94136,22.74211],[80.94107,22.74437],[80.93399,22.74879],[80.92803,22.75384],[80.92117,22.75478],[80.90953,22.75804],[80.89603,22.75969],[80.88198,22.75798],[80.87057,22.7581],[80.87,22.76251],[80.87197,22.79149],[80.87108,22.80505],[80.86916,22.80605],[80.85732,22.80705],[80.85448,22.80892],[80.85754,22.82064],[80.8647,22.83261],[80.86657,22.83792],[80.8719,22.84861],[80.85733,22.85115],[80.83477,22.84964],[80.83092,22.84459],[80.82614,22.83301],[80.80165,22.82637],[80.79765,22.82456],[80.79156,22.81814],[80.78525,22.82035],[80.77862,22.81647],[80.77045,22.81291],[80.75965,22.81284],[80.748,22.81498],[80.73679,22.81295],[80.73177,22.81271],[80.7303,22.82088],[80.73011,22.8313],[80.72828,22.83491],[80.73012,22.83779],[80.73733,22.83939],[80.74304,22.84431],[80.73839,22.85055],[80.73616,22.85636],[80.7239,22.86082],[80.71863,22.8618],[80.71235,22.8552],[80.70521,22.85023],[80.69376,22.85318],[80.69072,22.84869],[80.68446,22.84921],[80.68339,22.84743],[80.68386,22.83932],[80.68272,22.83702],[80.67153,22.83637],[80.66263,22.83998],[80.65491,22.83744],[80.6496,22.8467],[80.64138,22.85151],[80.61577,22.85522],[80.60281,22.85742],[80.59144,22.85757],[80.58563,22.86086],[80.58281,22.86436],[80.57353,22.86866],[80.57243,22.87544],[80.57294,22.89473],[80.58093,22.89734],[80.5804,22.90737],[80.58101,22.91581],[80.58274,22.92108],[80.58902,22.92317],[80.59075,22.92844],[80.59191,22.93213],[80.59762,22.93474],[80.59765,22.9416],[80.5914,22.94532],[80.58856,22.94692],[80.58744,22.95114],[80.58346,22.95274],[80.58234,22.95908],[80.58693,22.96434],[80.59094,22.9696],[80.59097,22.97541],[80.59101,22.98491],[80.58933,22.9923],[80.58479,22.99548],[80.58424,23.00024],[80.58254,23.00235],[80.57799,23.00501],[80.57058,23.00662],[80.56376,23.00981],[80.56094,23.01774],[80.561,23.03199],[80.55878,23.04466],[80.54622,23.0426],[80.53768,23.04632],[80.53543,23.05319],[80.53604,23.06427],[80.52776,23.07953],[80.52917,23.08229],[80.52906,23.08697],[80.52705,23.09794],[80.52694,23.10187],[80.52804,23.10562],[80.52806,23.10562],[80.53348,23.10601],[80.53767,23.1055],[80.54373,23.10646],[80.54882,23.10848],[80.55221,23.11139],[80.55702,23.11978],[80.55909,23.12166],[80.56774,23.12172],[80.57053,23.12267],[80.57559,23.1259],[80.58055,23.1311],[80.58127,23.13758],[80.58,23.13979],[80.5753,23.14373],[80.55844,23.15108],[80.55658,23.16302],[80.55503,23.16645],[80.55227,23.16747],[80.54596,23.16657],[80.53864,23.16435],[80.52548,23.15636],[80.5229,23.15674],[80.51597,23.16846],[80.50894,23.1737],[80.5053,23.18162],[80.50324,23.1839],[80.48097,23.19477],[80.47998,23.19808],[80.48366,23.20035],[80.48639,23.20106],[80.49977,23.20362],[80.50273,23.20312],[80.50279,23.20769],[80.50377,23.21063],[80.50758,23.21822],[80.51162,23.2235],[80.51855,23.23562],[80.52133,23.24404],[80.52234,23.25346],[80.52363,23.25703],[80.53497,23.2588],[80.53982,23.26128],[80.54409,23.26887],[80.54869,23.27101],[80.55895,23.27128],[80.56629,23.26986],[80.56871,23.27109],[80.57012,23.27814],[80.57179,23.28177],[80.57595,23.28287],[80.58145,23.28297],[80.58296,23.28452],[80.58418,23.28774],[80.58417,23.29028],[80.58364,23.30778],[80.58232,23.31433],[80.58134,23.31521],[80.57801,23.31572],[80.57138,23.31506],[80.57056,23.31779],[80.57099,23.32525],[80.57346,23.33662],[80.57407,23.35174],[80.59434,23.34695],[80.60378,23.34932],[80.61569,23.35524],[80.63092,23.36031],[80.64196,23.36241],[80.64603,23.36189],[80.67467,23.36243],[80.67806,23.36488],[80.68562,23.36599],[80.70166,23.37092],[80.70569,23.36832],[80.70724,23.36476]]]}}]}