{"type":"FeatureCollection","features":[{"type":"Feature","properties":{"id":"guna","name":"Guna","stateId":"madhya-pradesh","stateName":"Madhya Pradesh","censuscode":458,"type":"district"},"geometry":{"type":"Polygon","coordinates":[[[77.30839,25.07887],[77.30862,25.07411],[77.30818,25.07149],[77.31334,25.06965],[77.31624,25.06628],[77.31767,25.06025],[77.31856,25.0537],[77.31911,25.04818],[77.31864,25.04428],[77.31871,25.04032],[77.3199,25.03767],[77.32325,25.03605],[77.32774,25.03403],[77.33135,25.03107],[77.33442,25.02811],[77.33669,25.02408],[77.33885,25.01667],[77.3399,25.0111],[77.33973,25.00755],[77.33681,25.00355],[77.33391,24.99896],[77.33438,24.99702],[77.34183,24.9872],[77.34737,24.98105],[77.34918,24.97684],[77.34767,24.96567],[77.34941,24.96224],[77.35128,24.95992],[77.35339,24.95875],[77.35877,24.95905],[77.36019,24.95696],[77.35825,24.95008],[77.35805,24.94383],[77.36269,24.94199],[77.36485,24.94004],[77.3686,24.93128],[77.36947,24.9269],[77.37277,24.92408],[77.38051,24.92311],[77.38833,24.9259],[77.39432,24.92937],[77.39745,24.93231],[77.39983,24.93693],[77.40121,24.94195],[77.40302,24.94576],[77.40433,24.94691],[77.41501,24.94688],[77.4212,24.94522],[77.43684,24.93505],[77.44454,24.93242],[77.44981,24.92781],[77.45463,24.92724],[77.45863,24.92778],[77.46163,24.92674],[77.46089,24.92449],[77.46158,24.92063],[77.46058,24.91798],[77.45826,24.91555],[77.45895,24.91199],[77.4649,24.90606],[77.46729,24.90197],[77.47042,24.88947],[77.47337,24.88614],[77.47707,24.87658],[77.48032,24.87422],[77.48538,24.87325],[77.49258,24.87695],[77.49972,24.87806],[77.5111,24.87203],[77.5181,24.87117],[77.52236,24.87152],[77.52699,24.87268],[77.53556,24.8784],[77.54257,24.87962],[77.54701,24.87939],[77.55577,24.87439],[77.56293,24.87105],[77.56218,24.86759],[77.55993,24.86563],[77.54768,24.85782],[77.53004,24.84396],[77.5226,24.83565],[77.52066,24.83115],[77.52003,24.82653],[77.52135,24.8191],[77.52165,24.80498],[77.52471,24.79236],[77.52633,24.78914],[77.52895,24.78713],[77.54008,24.78265],[77.54232,24.77914],[77.544,24.77396],[77.55218,24.76475],[77.55411,24.75968],[77.54962,24.75541],[77.55179,24.74901],[77.55073,24.74336],[77.55466,24.73645],[77.55216,24.73373],[77.55348,24.72722],[77.55297,24.72215],[77.53867,24.70835],[77.53698,24.70559],[77.53454,24.69595],[77.53086,24.68909],[77.52125,24.67962],[77.51275,24.67793],[77.50894,24.67481],[77.50021,24.66575],[77.49321,24.65692],[77.48941,24.64965],[77.49109,24.6433],[77.48803,24.63742],[77.48454,24.63551],[77.48211,24.63216],[77.48143,24.62288],[77.47537,24.59337],[77.47581,24.58789],[77.47875,24.58444],[77.48379,24.58047],[77.48529,24.57615],[77.48579,24.57096],[77.48492,24.56762],[77.48841,24.56457],[77.49159,24.55767],[77.49052,24.55074],[77.48928,24.5221],[77.48723,24.51662],[77.48884,24.51172],[77.49102,24.50919],[77.48978,24.50049],[77.48996,24.49651],[77.49557,24.49341],[77.49233,24.48614],[77.49177,24.48262],[77.49258,24.47906],[77.49787,24.46904],[77.49762,24.46569],[77.49407,24.46482],[77.47744,24.46606],[77.47595,24.46449],[77.47527,24.4483],[77.47645,24.43274],[77.48902,24.42902],[77.49656,24.42806],[77.50335,24.42606],[77.50179,24.41989],[77.50254,24.41573],[77.50758,24.40595],[77.51181,24.404],[77.52533,24.40177],[77.53622,24.40363],[77.5379,24.39655],[77.54406,24.39564],[77.55004,24.39351],[77.55777,24.3933],[77.57257,24.38451],[77.58322,24.38118],[77.58951,24.38084],[77.59143,24.37928],[77.59087,24.3764],[77.59137,24.3741],[77.59604,24.37543],[77.59984,24.37821],[77.60214,24.3812],[77.60595,24.39447],[77.6168,24.40502],[77.62229,24.41719],[77.6246,24.41967],[77.63015,24.42054],[77.63289,24.42215],[77.63445,24.42769],[77.638,24.42706],[77.64222,24.42291],[77.64808,24.41906],[77.65468,24.42039],[77.65218,24.41088],[77.65279,24.40725],[77.65572,24.40293],[77.6818,24.40058],[77.6897,24.40129],[77.6945,24.40255],[77.70112,24.40573],[77.70567,24.41017],[77.70873,24.41962],[77.70837,24.42453],[77.7103,24.42619],[77.7136,24.42596],[77.72443,24.42136],[77.72611,24.42188],[77.7316,24.42718],[77.73584,24.42891],[77.73502,24.42505],[77.72996,24.41507],[77.72557,24.40113],[77.72301,24.39675],[77.72132,24.39047],[77.72168,24.38805],[77.71851,24.38626],[77.71197,24.38505],[77.70817,24.38533],[77.69953,24.39115],[77.69405,24.39166],[77.68894,24.38918],[77.67317,24.37649],[77.67155,24.37378],[77.6731,24.37199],[77.66655,24.36461],[77.65441,24.36299],[77.64295,24.35652],[77.63816,24.35456],[77.62508,24.35247],[77.62197,24.35051],[77.61985,24.34785],[77.6166,24.34123],[77.61672,24.33725],[77.62014,24.33184],[77.62772,24.32648],[77.6342,24.32442],[77.64086,24.32511],[77.64782,24.32679],[77.65249,24.32426],[77.64899,24.3151],[77.64165,24.31042],[77.6348,24.30822],[77.62427,24.29905],[77.6211,24.29743],[77.61127,24.29696],[77.60088,24.29862],[77.59852,24.29758],[77.59558,24.28536],[77.59606,24.27227],[77.59413,24.26905],[77.58038,24.26932],[77.57535,24.26821],[77.56551,24.25604],[77.56277,24.25447],[77.55843,24.25493],[77.55519,24.25446],[77.55363,24.24864],[77.54038,24.24585],[77.53205,24.24641],[77.52696,24.24807],[77.52012,24.24922],[77.50761,24.25334],[77.50413,24.25368],[77.50047,24.26088],[77.49965,24.26411],[77.49537,24.26795],[77.49431,24.27343],[77.49201,24.2763],[77.48628,24.27503],[77.48591,24.27145],[77.48442,24.26909],[77.48156,24.267],[77.47938,24.26113],[77.47328,24.25454],[77.46626,24.25268],[77.46016,24.24667],[77.45147,24.23997],[77.44188,24.2392],[77.43413,24.24189],[77.43041,24.24443],[77.42756,24.24864],[77.42378,24.25233],[77.41231,24.26196],[77.40129,24.27523],[77.3993,24.27915],[77.39844,24.28348],[77.39888,24.2858],[77.4043,24.29361],[77.40394,24.2965],[77.40693,24.29963],[77.40332,24.30216],[77.39518,24.30491],[77.39519,24.30723],[77.39999,24.31666],[77.40909,24.32737],[77.40281,24.33087],[77.39567,24.33755],[77.39162,24.33869],[77.38348,24.33907],[77.37882,24.34027],[77.37234,24.34332],[77.37122,24.34816],[77.36712,24.34855],[77.35822,24.34702],[77.35474,24.34331],[77.35417,24.3387],[77.3495,24.33094],[77.34669,24.31915],[77.34364,24.31538],[77.3279,24.30112],[77.32361,24.29383],[77.32292,24.28499],[77.32495,24.27337],[77.32595,24.2694],[77.3319,24.25883],[77.33271,24.25415],[77.3299,24.25149],[77.32896,24.24819],[77.33865,24.24121],[77.34577,24.23082],[77.35163,24.21655],[77.35181,24.21476],[77.34896,24.21429],[77.34237,24.21403],[77.33916,24.21466],[77.33568,24.21599],[77.33214,24.21477],[77.33201,24.21227],[77.34333,24.19835],[77.34482,24.19506],[77.34591,24.18829],[77.34447,24.1829],[77.34224,24.18052],[77.33156,24.17737],[77.31852,24.17079],[77.30296,24.16645],[77.30462,24.16189],[77.31137,24.15432],[77.31347,24.15091],[77.31203,24.14713],[77.30048,24.12845],[77.29738,24.12711],[77.29385,24.12878],[77.29168,24.12889],[77.29198,24.12542],[77.28876,24.12466],[77.29006,24.11991],[77.29084,24.10673],[77.29244,24.10373],[77.29839,24.09935],[77.29615,24.09617],[77.29621,24.09334],[77.29824,24.08844],[77.29545,24.0839],[77.28902,24.08192],[77.27918,24.07495],[77.26973,24.07137],[77.2644,24.07015],[77.26003,24.0561],[77.26152,24.05237],[77.26964,24.0423],[77.2739,24.04098],[77.29037,24.04376],[77.29531,24.0432],[77.29752,24.04101],[77.29276,24.0354],[77.2903,24.03392],[77.28641,24.03324],[77.28259,24.03001],[77.27961,24.0245],[77.28236,24.02342],[77.29786,24.02491],[77.30439,24.02409],[77.30667,24.02258],[77.30917,24.01892],[77.31176,24.01185],[77.31071,24.00977],[77.30319,24.01094],[77.3045,24.00566],[77.30212,24.00091],[77.29622,24.0013],[77.29446,23.99963],[77.2964,23.99876],[77.30487,23.99552],[77.30321,23.99431],[77.30345,23.99258],[77.30911,23.98631],[77.31316,23.98418],[77.31258,23.98239],[77.31051,23.98117],[77.29554,23.97523],[77.29638,23.97354],[77.29841,23.97208],[77.30356,23.97136],[77.30523,23.97034],[77.30222,23.96694],[77.29971,23.95953],[77.30125,23.95494],[77.3045,23.955],[77.3065,23.9536],[77.30669,23.94805],[77.30605,23.93755],[77.3046,23.93511],[77.29855,23.93228],[77.29673,23.93067],[77.29795,23.92882],[77.29984,23.92858],[77.3058,23.92996],[77.30763,23.92921],[77.30846,23.92698],[77.3081,23.92154],[77.30895,23.91937],[77.31162,23.91806],[77.31808,23.91669],[77.32116,23.91391],[77.32277,23.91127],[77.32212,23.90709],[77.31795,23.89947],[77.31863,23.89379],[77.31981,23.88535],[77.31174,23.89133],[77.30708,23.89063],[77.30268,23.89117],[77.29364,23.8956],[77.28336,23.89073],[77.27045,23.88983],[77.25697,23.89183],[77.24871,23.8949],[77.23975,23.89406],[77.22756,23.89585],[77.20879,23.89807],[77.19525,23.89906],[77.18632,23.89807],[77.18713,23.91071],[77.18653,23.91898],[77.18496,23.92797],[77.18244,23.93526],[77.18049,23.93782],[77.17795,23.93904],[77.17241,23.93979],[77.16586,23.94266],[77.16461,23.94551],[77.16403,23.94866],[77.17234,23.96365],[77.17314,23.97919],[77.17499,23.98283],[77.18158,23.98853],[77.18412,23.99169],[77.18855,24.00483],[77.18765,24.00774],[77.1815,24.01748],[77.18013,24.02112],[77.18143,24.02487],[77.18874,24.03045],[77.18867,24.03491],[77.18059,24.0467],[77.17992,24.05022],[77.18458,24.06235],[77.18464,24.07128],[77.18261,24.08246],[77.17759,24.08081],[77.16371,24.08108],[77.1594,24.0821],[77.15282,24.08753],[77.13277,24.08829],[77.11613,24.08553],[77.10177,24.08733],[77.0936,24.08477],[77.08687,24.08102],[77.07994,24.07882],[77.07529,24.07864],[77.06375,24.0804],[77.05222,24.07836],[77.04669,24.08255],[77.04205,24.082],[77.02907,24.08248],[77.02328,24.07861],[77.0154,24.06799],[77.01094,24.06368],[77.00189,24.05713],[76.99688,24.05562],[76.99338,24.05673],[76.98439,24.05544],[76.97741,24.05126],[76.96865,24.05144],[76.96761,24.06031],[76.95771,24.07316],[76.9565,24.07322],[76.94895,24.07944],[76.92181,24.09379],[76.91382,24.10102],[76.89081,24.10426],[76.88928,24.11266],[76.88556,24.11705],[76.88419,24.12246],[76.88163,24.13053],[76.89031,24.12734],[76.90403,24.1267],[76.9099,24.14876],[76.91535,24.17246],[76.91902,24.17893],[76.92028,24.18428],[76.93141,24.18221],[76.93735,24.18242],[76.94807,24.1944],[76.94904,24.19885],[76.94865,24.20183],[76.94676,24.20388],[76.94105,24.20533],[76.93587,24.20508],[76.93244,24.20908],[76.92677,24.21233],[76.92347,24.21621],[76.92276,24.22194],[76.92066,24.2275],[76.91538,24.23314],[76.90807,24.23721],[76.90154,24.24261],[76.87839,24.26661],[76.87412,24.2721],[76.87122,24.27636],[76.86778,24.28526],[76.86799,24.28932],[76.86683,24.29433],[76.86399,24.30078],[76.86297,24.30781],[76.84909,24.32347],[76.84437,24.33421],[76.84306,24.3381],[76.84241,24.35045],[76.84118,24.35619],[76.84307,24.36018],[76.85328,24.36368],[76.85591,24.3657],[76.85655,24.37033],[76.85223,24.37429],[76.85438,24.38442],[76.85258,24.39172],[76.84665,24.40397],[76.84014,24.41202],[76.84195,24.41353],[76.84652,24.41364],[76.85029,24.41478],[76.85356,24.42069],[76.85539,24.43082],[76.85495,24.43279],[76.84546,24.43825],[76.84218,24.44603],[76.84291,24.44959],[76.85024,24.4487],[76.85278,24.45417],[76.85331,24.4598],[76.85566,24.46453],[76.8549,24.46937],[76.85063,24.47087],[76.85113,24.48296],[76.84962,24.48631],[76.84667,24.48914],[76.83965,24.48979],[76.83888,24.49371],[76.83244,24.50576],[76.82355,24.52001],[76.81875,24.52504],[76.8185,24.52769],[76.81893,24.52976],[76.82336,24.53195],[76.83111,24.53417],[76.8355,24.53858],[76.84259,24.54384],[76.85044,24.54639],[76.85722,24.5464],[76.87062,24.54473],[76.8764,24.54126],[76.87855,24.53842],[76.87919,24.53582],[76.87732,24.52742],[76.88015,24.52156],[76.88398,24.52069],[76.8934,24.52214],[76.89804,24.53083],[76.89734,24.53505],[76.90224,24.53906],[76.9043,24.54317],[76.90688,24.54288],[76.91736,24.53893],[76.92018,24.53574],[76.92286,24.53097],[76.92329,24.52535],[76.9234,24.51976],[76.92181,24.51234],[76.91973,24.50678],[76.91908,24.48305],[76.92733,24.47604],[76.9353,24.47209],[76.94155,24.46778],[76.94554,24.46274],[76.95733,24.45932],[76.96464,24.45562],[76.9698,24.45625],[76.97946,24.46031],[76.98206,24.46736],[76.98417,24.47001],[76.99705,24.46884],[77.00274,24.47086],[77.00609,24.47327],[77.00712,24.47888],[77.01145,24.48292],[77.00953,24.48476],[77.00931,24.48732],[77.01057,24.48931],[77.01326,24.49031],[77.01692,24.48974],[77.02047,24.49027],[77.02527,24.49329],[77.02866,24.49668],[77.0294,24.5124],[77.03133,24.51676],[77.03374,24.51911],[77.03462,24.52241],[77.03659,24.52413],[77.04371,24.52197],[77.05497,24.52187],[77.05561,24.53248],[77.05665,24.53659],[77.05809,24.5395],[77.06624,24.5501],[77.06905,24.55944],[77.06943,24.56523],[77.06828,24.58064],[77.0632,24.59011],[77.06309,24.59649],[77.06511,24.60139],[77.06589,24.60581],[77.06591,24.61987],[77.06508,24.63299],[77.06426,24.6377],[77.05895,24.64938],[77.05373,24.65658],[77.04182,24.678],[77.03972,24.68382],[77.03931,24.69372],[77.03829,24.6982],[77.03148,24.70616],[77.02746,24.70896],[77.02406,24.7102],[77.01888,24.71067],[77.00902,24.70891],[76.99691,24.71265],[76.98708,24.72012],[76.97674,24.72692],[76.97325,24.73134],[76.97009,24.73935],[76.9686,24.7457],[76.96808,24.75479],[76.96108,24.75955],[76.95651,24.76069],[76.95054,24.75929],[76.92641,24.74409],[76.91408,24.74207],[76.90794,24.74131],[76.90299,24.74303],[76.9016,24.74586],[76.89135,24.74942],[76.87275,24.74485],[76.86546,24.74397],[76.85189,24.74568],[76.84962,24.74741],[76.85163,24.76031],[76.85135,24.76526],[76.8405,24.78033],[76.83041,24.78864],[76.82032,24.79893],[76.8133,24.81024],[76.80871,24.81186],[76.80618,24.81509],[76.80529,24.81982],[76.80691,24.82182],[76.81581,24.8235],[76.82138,24.82775],[76.82774,24.8301],[76.8318,24.8336],[76.83632,24.83549],[76.84218,24.8363],[76.84686,24.83533],[76.85601,24.83546],[76.86805,24.83692],[76.88284,24.83477],[76.8998,24.83474],[76.91321,24.8403],[76.91634,24.84281],[76.91986,24.8439],[76.93133,24.84499],[76.94797,24.85525],[76.94913,24.86066],[76.9515,24.86345],[76.95381,24.86806],[76.95158,24.86938],[76.94673,24.86989],[76.94059,24.87388],[76.93883,24.87946],[76.92661,24.87891],[76.92236,24.87998],[76.91869,24.88307],[76.91699,24.88832],[76.91754,24.89243],[76.92061,24.89636],[76.92518,24.90007],[76.9295,24.90555],[76.92841,24.90943],[76.92575,24.91195],[76.91228,24.91844],[76.89607,24.91486],[76.895,24.91824],[76.89732,24.92427],[76.89809,24.9306],[76.88456,24.94094],[76.87692,24.94978],[76.87823,24.95274],[76.87642,24.95649],[76.87213,24.96061],[76.87131,24.96696],[76.87454,24.98706],[76.87295,24.99653],[76.86441,25.00207],[76.85923,25.00546],[76.86545,25.00555],[76.87423,25.00625],[76.87941,25.00826],[76.88173,25.01121],[76.88165,25.01508],[76.88322,25.02098],[76.88699,25.02924],[76.90604,25.02917],[76.91475,25.0308],[76.92268,25.03515],[76.93491,25.0367],[76.95856,25.04357],[76.96637,25.0491],[76.97374,25.05104],[76.97635,25.05567],[76.97694,25.06193],[76.97978,25.06576],[76.98879,25.07265],[76.99888,25.07503],[77.00544,25.07481],[77.0111,25.07365],[77.01752,25.06999],[77.02283,25.06725],[77.02556,25.06651],[77.02989,25.06687],[77.03452,25.06699],[77.04448,25.06319],[77.04953,25.06084],[77.06016,25.05833],[77.06656,25.05646],[77.07325,25.05476],[77.08247,25.05306],[77.08952,25.05771],[77.09569,25.06142],[77.10778,25.06429],[77.11976,25.06415],[77.13359,25.08409],[77.14551,25.09124],[77.14581,25.08594],[77.16309,25.08331],[77.16997,25.09359],[77.16823,25.10474],[77.175,25.10874],[77.18848,25.10682],[77.1942,25.10683],[77.20282,25.11168],[77.21126,25.10743],[77.22631,25.10525],[77.24716,25.10772],[77.26779,25.11425],[77.28111,25.10712],[77.28999,25.09921],[77.2969,25.08911],[77.3015,25.0821],[77.30839,25.07887]]]}}]}