{"type":"FeatureCollection","features":[{"type":"Feature","properties":{"id":"gwalior","name":"Gwalior","stateId":"madhya-pradesh","stateName":"Madhya Pradesh","censuscode":421,"type":"district"},"geometry":{"type":"MultiPolygon","coordinates":[[[[78.34376,26.34411],[78.35175,26.33861],[78.35641,26.33656],[78.36154,26.33676],[78.37251,26.33942],[78.38692,26.3353],[78.39735,26.33669],[78.40414,26.33301],[78.41397,26.33248],[78.41868,26.33146],[78.42036,26.32994],[78.41517,26.30536],[78.4158,26.29667],[78.41983,26.29145],[78.4248,26.28686],[78.43929,26.27864],[78.44084,26.27383],[78.43995,26.2684],[78.44022,26.26419],[78.44417,26.2597],[78.4489,26.25771],[78.46197,26.25677],[78.46665,26.25403],[78.47074,26.24851],[78.47289,26.24918],[78.47717,26.26285],[78.48243,26.26565],[78.49443,26.26429],[78.49923,26.2616],[78.50525,26.25496],[78.50441,26.24637],[78.50929,26.24304],[78.51529,26.24084],[78.51824,26.23864],[78.51752,26.23062],[78.51934,26.22765],[78.53508,26.21944],[78.53939,26.21565],[78.53854,26.20809],[78.54047,26.20305],[78.54476,26.20018],[78.54664,26.1918],[78.55222,26.19155],[78.55966,26.19282],[78.56569,26.19205],[78.56729,26.19749],[78.57051,26.20428],[78.56998,26.20554],[78.57188,26.20874],[78.58373,26.21464],[78.60303,26.20474],[78.60665,26.20106],[78.60721,26.1949],[78.61051,26.19461],[78.6127,26.19937],[78.61345,26.20617],[78.6128,26.21371],[78.61587,26.21866],[78.61974,26.21158],[78.62558,26.20429],[78.62296,26.17216],[78.62377,26.16646],[78.62576,26.16125],[78.62754,26.15794],[78.6292,26.15682],[78.63542,26.14981],[78.63745,26.14505],[78.63983,26.12859],[78.64259,26.12754],[78.64757,26.12698],[78.65174,26.12481],[78.64539,26.12251],[78.642,26.12279],[78.63157,26.12452],[78.6235,26.12889],[78.61631,26.13119],[78.61232,26.12963],[78.61028,26.12359],[78.6126,26.1156],[78.61229,26.10897],[78.60886,26.10556],[78.60806,26.0991],[78.61077,26.09719],[78.62477,26.09132],[78.62941,26.08829],[78.63874,26.08563],[78.64154,26.08367],[78.63554,26.07689],[78.63536,26.07148],[78.64297,26.06906],[78.64634,26.06572],[78.64667,26.06204],[78.64093,26.05688],[78.63308,26.05158],[78.62737,26.04948],[78.62265,26.05032],[78.6166,26.04977],[78.60824,26.04739],[78.60084,26.03197],[78.58673,26.00996],[78.58289,26.00519],[78.57573,26.00115],[78.5717,25.99568],[78.56605,25.99178],[78.54859,25.98192],[78.54445,25.97685],[78.54128,25.97473],[78.5235,25.96728],[78.50509,25.96329],[78.48782,25.96289],[78.48519,25.96142],[78.48279,25.95469],[78.48228,25.94158],[78.47891,25.93606],[78.47662,25.93394],[78.4753,25.93058],[78.4731,25.91288],[78.47066,25.90824],[78.46688,25.90444],[78.44962,25.89364],[78.43365,25.88153],[78.4135,25.87024],[78.40579,25.86164],[78.40268,25.85935],[78.39138,25.85406],[78.38811,25.85002],[78.39283,25.84039],[78.39018,25.83542],[78.38686,25.83421],[78.37498,25.83289],[78.35772,25.83288],[78.341,25.83386],[78.33189,25.83211],[78.32513,25.82734],[78.32062,25.82226],[78.31801,25.81737],[78.31748,25.81239],[78.31902,25.80751],[78.32455,25.79882],[78.32187,25.79404],[78.30727,25.78691],[78.29723,25.78497],[78.29107,25.78454],[78.28094,25.78098],[78.26708,25.78076],[78.26414,25.77945],[78.26,25.77598],[78.25514,25.77037],[78.25173,25.76501],[78.24876,25.7622],[78.24521,25.76023],[78.23687,25.75913],[78.23418,25.75811],[78.22912,25.75388],[78.22264,25.74373],[78.21969,25.74074],[78.21407,25.73858],[78.17736,25.73818],[78.17041,25.73097],[78.16132,25.71952],[78.1587,25.71878],[78.1541,25.71935],[78.1397,25.7231],[78.12203,25.71953],[78.10842,25.71811],[78.09976,25.71642],[78.07715,25.71711],[78.05842,25.71091],[78.05353,25.7107],[78.04211,25.71333],[78.02865,25.71904],[77.99822,25.73879],[77.99576,25.7404],[77.99495,25.74159],[77.99494,25.74314],[77.99514,25.74515],[77.99549,25.74634],[77.996,25.74757],[77.99715,25.74894],[77.99853,25.75027],[78.00178,25.75533],[78.00284,25.75787],[78.00237,25.76263],[78.00021,25.76531],[77.99833,25.76551],[77.99414,25.76422],[77.98623,25.76322],[77.98079,25.76176],[77.97573,25.75872],[77.97106,25.7554],[77.96639,25.75218],[77.96188,25.74984],[77.95768,25.74862],[77.94622,25.74856],[77.93113,25.75049],[77.925,25.75227],[77.91806,25.75344],[77.91315,25.75285],[77.90876,25.74819],[77.90452,25.74557],[77.89994,25.74411],[77.89397,25.74386],[77.8877,25.73905],[77.88381,25.73754],[77.87864,25.73834],[77.87572,25.7401],[77.87423,25.74282],[77.87245,25.74918],[77.87465,25.75224],[77.87431,25.75456],[77.87189,25.75585],[77.86873,25.75675],[77.86594,25.75792],[77.86464,25.76047],[77.86814,25.76558],[77.87214,25.76371],[77.87358,25.76443],[77.87406,25.76933],[77.87343,25.77385],[77.87443,25.77816],[77.87063,25.77916],[77.87024,25.78043],[77.86955,25.78409],[77.87076,25.78608],[77.87162,25.78789],[77.87188,25.79104],[77.87116,25.79283],[77.86885,25.79548],[77.86779,25.79832],[77.8678,25.80186],[77.86763,25.80357],[77.86557,25.80661],[77.86288,25.80902],[77.85926,25.81083],[77.85533,25.81241],[77.84953,25.8135],[77.84367,25.81435],[77.83881,25.81435],[77.83255,25.813],[77.82487,25.81354],[77.81754,25.8153],[77.81018,25.81834],[77.80286,25.82029],[77.79781,25.82434],[77.79617,25.8281],[77.79635,25.83268],[77.79545,25.83703],[77.79376,25.84037],[77.79056,25.84335],[77.78783,25.84796],[77.78266,25.85567],[77.77485,25.85646],[77.77086,25.85356],[77.76603,25.85246],[77.76113,25.85211],[77.75965,25.8572],[77.75706,25.86124],[77.75257,25.86246],[77.74868,25.86078],[77.74606,25.8629],[77.7458,25.86661],[77.74679,25.87145],[77.74582,25.87591],[77.74545,25.88224],[77.74066,25.88172],[77.73781,25.88192],[77.73139,25.88096],[77.72415,25.87957],[77.71885,25.87897],[77.71266,25.8787],[77.70823,25.87905],[77.70303,25.88048],[77.70117,25.88271],[77.69759,25.8883],[77.69784,25.89243],[77.69777,25.89651],[77.69677,25.90028],[77.69513,25.90431],[77.69284,25.90795],[77.68907,25.9108],[77.6855,25.91336],[77.67693,25.91608],[77.67575,25.92023],[77.67479,25.92546],[77.67504,25.92971],[77.6745,25.93547],[77.67103,25.94095],[77.6713,25.9484],[77.67166,25.95359],[77.67002,25.9577],[77.66844,25.96506],[77.66906,25.97152],[77.66938,25.97233],[77.67218,25.97946],[77.67729,25.98598],[77.68265,25.99187],[77.69003,25.99674],[77.69543,26.00097],[77.69998,26.00584],[77.70428,26.01104],[77.71669,26.03331],[77.72187,26.04065],[77.7297,26.04968],[77.76072,26.04037],[77.77428,26.05097],[77.77596,26.05411],[77.77598,26.05638],[77.77137,26.0638],[77.76678,26.08147],[77.76116,26.08604],[77.76811,26.10252],[77.77205,26.11615],[77.75914,26.11762],[77.75252,26.11564],[77.74954,26.11565],[77.74189,26.12847],[77.74254,26.13415],[77.74186,26.13984],[77.74648,26.14352],[77.74746,26.14637],[77.7441,26.16344],[77.74509,26.16457],[77.76066,26.17277],[77.7623,26.18016],[77.77091,26.18383],[77.77255,26.20174],[77.77951,26.20797],[77.7815,26.2111],[77.78117,26.22133],[77.79709,26.22839],[77.79975,26.23434],[77.80274,26.23888],[77.8127,26.24766],[77.81437,26.24992],[77.81503,26.25532],[77.82366,26.2533],[77.8439,26.25179],[77.83725,26.23618],[77.83691,26.23022],[77.84684,26.22023],[77.84583,26.21511],[77.86341,26.21446],[77.86905,26.21701],[77.87204,26.22012],[77.87271,26.22466],[77.87239,26.22949],[77.87339,26.23091],[77.88997,26.23111],[77.89063,26.22685],[77.89528,26.22797],[77.89827,26.22966],[77.90126,26.23277],[77.90361,26.24214],[77.90263,26.24811],[77.91161,26.25319],[77.9459,26.25266],[77.95052,26.24411],[77.95936,26.25971],[77.98513,26.25178],[77.98644,26.25061],[77.98866,26.24503],[77.99364,26.24446],[77.99427,26.25745],[77.99133,26.26037],[77.98938,26.26386],[77.98944,26.26792],[77.99181,26.27106],[77.99914,26.2741],[78.00593,26.27381],[78.01079,26.27234],[78.00926,26.27721],[78.00585,26.28014],[78.0034,26.28418],[78.00247,26.28877],[78.00192,26.30075],[78.00332,26.31322],[78.00261,26.32152],[78.00352,26.32351],[78.00477,26.32395],[78.00757,26.32121],[78.01242,26.3194],[78.02725,26.31179],[78.03986,26.31439],[78.0448,26.3146],[78.05085,26.31311],[78.05653,26.31385],[78.06016,26.31594],[78.0649,26.31361],[78.06796,26.31539],[78.06767,26.32496],[78.07491,26.32976],[78.07876,26.33087],[78.08454,26.32977],[78.09458,26.32605],[78.10853,26.32568],[78.11274,26.3272],[78.11441,26.33179],[78.11789,26.33716],[78.12191,26.33896],[78.14537,26.34124],[78.15389,26.33978],[78.15778,26.33612],[78.15894,26.33008],[78.16299,26.32734],[78.16984,26.32729],[78.17463,26.32536],[78.1781,26.32294],[78.1934,26.31908],[78.201,26.31629],[78.20201,26.30817],[78.2081,26.30488],[78.21199,26.30427],[78.21786,26.30501],[78.22915,26.30481],[78.23909,26.30753],[78.24901,26.31151],[78.2593,26.31349],[78.26189,26.31676],[78.25704,26.32376],[78.25561,26.328],[78.25749,26.3323],[78.26425,26.33768],[78.27312,26.33784],[78.28497,26.34641],[78.29587,26.34644],[78.31203,26.34338],[78.31583,26.34339],[78.33198,26.34702],[78.33682,26.34629],[78.34376,26.34411]]],[[[78.74041,26.03776],[78.74465,26.03347],[78.746,26.02875],[78.74279,26.01473],[78.74343,26.01269],[78.74833,26.0104],[78.76892,26.01123],[78.77218,26.01275],[78.77482,26.0155],[78.78723,26.01197],[78.7881,26.01031],[78.78573,26.00723],[78.78262,26.00662],[78.78058,26.00457],[78.77984,26.00104],[78.78145,25.99587],[78.78606,25.98555],[78.78322,25.9647],[78.78487,25.96057],[78.78939,25.95778],[78.79964,25.95551],[78.80378,25.94466],[78.80762,25.94084],[78.81289,25.93849],[78.8178,25.93878],[78.82587,25.94693],[78.83046,25.94751],[78.83463,25.94667],[78.83845,25.94451],[78.84063,25.94238],[78.84363,25.93597],[78.84988,25.92777],[78.86309,25.90715],[78.86919,25.90488],[78.8755,25.90626],[78.88426,25.91025],[78.8853,25.90776],[78.89082,25.90095],[78.89506,25.89357],[78.893,25.88746],[78.88921,25.88302],[78.89157,25.87109],[78.89052,25.86488],[78.88473,25.86448],[78.88054,25.86763],[78.87584,25.86959],[78.87143,25.86928],[78.86568,25.86662],[78.85834,25.86022],[78.85444,25.85511],[78.85178,25.83993],[78.85401,25.83339],[78.86075,25.83823],[78.87355,25.82898],[78.87425,25.82427],[78.87174,25.81091],[78.87108,25.79673],[78.86968,25.79385],[78.86371,25.78909],[78.85745,25.79051],[78.85139,25.79595],[78.84906,25.79984],[78.84851,25.80672],[78.84957,25.81144],[78.84876,25.81528],[78.84291,25.81872],[78.82359,25.82576],[78.81902,25.82474],[78.80975,25.81683],[78.8066,25.81284],[78.8082,25.80751],[78.81176,25.80485],[78.81539,25.80615],[78.82155,25.81144],[78.82399,25.81221],[78.83002,25.80986],[78.83138,25.807],[78.83183,25.80224],[78.82824,25.79405],[78.81943,25.79378],[78.81186,25.79497],[78.80728,25.794],[78.80132,25.78813],[78.79833,25.78287],[78.78765,25.76976],[78.78345,25.75616],[78.77349,25.75356],[78.77007,25.74692],[78.76332,25.74764],[78.75891,25.74736],[78.75444,25.74374],[78.75314,25.73877],[78.75343,25.73269],[78.75566,25.72731],[78.76001,25.72207],[78.76836,25.71546],[78.78517,25.70838],[78.79887,25.70523],[78.80019,25.70186],[78.79703,25.69452],[78.80338,25.69083],[78.817,25.67278],[78.81894,25.66919],[78.81821,25.65978],[78.81884,25.64017],[78.81737,25.63309],[78.814,25.62776],[78.81275,25.6193],[78.80573,25.61396],[78.80211,25.61229],[78.7924,25.61023],[78.7735,25.60789],[78.76293,25.60432],[78.75647,25.60307],[78.74844,25.59862],[78.74033,25.5978],[78.73182,25.60319],[78.71864,25.60132],[78.71405,25.59801],[78.70316,25.59457],[78.69543,25.5899],[78.68444,25.58883],[78.68039,25.58654],[78.67278,25.57958],[78.656,25.56038],[78.65173,25.56016],[78.63621,25.56373],[78.63077,25.56574],[78.62758,25.56829],[78.62869,25.57691],[78.63897,25.57952],[78.64276,25.58164],[78.64607,25.59023],[78.65181,25.59688],[78.65503,25.60379],[78.65607,25.60893],[78.65473,25.61417],[78.65351,25.61577],[78.65629,25.62637],[78.66088,25.62971],[78.66597,25.63012],[78.67021,25.62873],[78.67428,25.62571],[78.67705,25.62119],[78.67769,25.61704],[78.6749,25.60713],[78.67633,25.60415],[78.68973,25.60436],[78.69115,25.606],[78.69292,25.61624],[78.69258,25.6261],[78.69085,25.62782],[78.68218,25.63072],[78.67956,25.63339],[78.67959,25.63588],[78.68775,25.65191],[78.69101,25.65576],[78.70338,25.66508],[78.70918,25.67225],[78.71205,25.68158],[78.71117,25.68861],[78.71167,25.69288],[78.7104,25.69755],[78.70644,25.70061],[78.70535,25.70233],[78.70689,25.70454],[78.71236,25.70888],[78.714,25.71277],[78.71175,25.71533],[78.7059,25.71556],[78.70522,25.71826],[78.70647,25.72243],[78.71435,25.72945],[78.71611,25.73334],[78.70605,25.74043],[78.703,25.74641],[78.69923,25.74937],[78.68457,25.7493],[78.68082,25.75093],[78.67939,25.75346],[78.6786,25.7598],[78.679,25.76182],[78.68595,25.77604],[78.68805,25.78271],[78.68635,25.78633],[78.6794,25.79485],[78.67555,25.79572],[78.67101,25.79221],[78.66863,25.79131],[78.66615,25.79255],[78.66516,25.79162],[78.66374,25.79263],[78.66148,25.79618],[78.66064,25.80165],[78.66273,25.80843],[78.6679,25.81167],[78.67212,25.81183],[78.67657,25.81321],[78.6806,25.81695],[78.68578,25.81932],[78.68564,25.82434],[78.6829,25.82639],[78.6746,25.83622],[78.67039,25.83998],[78.66564,25.84137],[78.66151,25.84004],[78.65814,25.83799],[78.6581,25.83297],[78.65956,25.8279],[78.65868,25.82391],[78.65155,25.82139],[78.64424,25.82126],[78.6328,25.82354],[78.62752,25.82654],[78.62655,25.82797],[78.62582,25.83748],[78.62431,25.84121],[78.62365,25.84663],[78.62421,25.85045],[78.63118,25.86727],[78.63119,25.87403],[78.6294,25.87903],[78.62651,25.88199],[78.62411,25.88681],[78.6276,25.89967],[78.62503,25.90264],[78.6159,25.90905],[78.61773,25.91271],[78.62072,25.91517],[78.6259,25.91385],[78.63243,25.90874],[78.63781,25.90719],[78.64235,25.90735],[78.65842,25.91528],[78.66195,25.91884],[78.66182,25.92305],[78.65924,25.92637],[78.65357,25.93006],[78.64972,25.93433],[78.65473,25.93953],[78.66198,25.93998],[78.66999,25.92841],[78.67307,25.92596],[78.67739,25.92324],[78.69169,25.91654],[78.69811,25.91719],[78.71132,25.92283],[78.71464,25.92824],[78.71522,25.93581],[78.70718,25.94103],[78.70388,25.94612],[78.70462,25.95434],[78.70853,25.95449],[78.71661,25.94697],[78.72037,25.94442],[78.72705,25.94455],[78.72739,25.95085],[78.72466,25.96415],[78.73412,25.98776],[78.73673,25.99094],[78.7401,25.99304],[78.74159,25.9969],[78.74154,26.00109],[78.74291,26.00604],[78.72156,26.01792],[78.71709,26.02295],[78.72482,26.02983],[78.72367,26.03391],[78.72846,26.03416],[78.7332,26.03339],[78.74041,26.03776]]]]}}]}