{"type":"FeatureCollection","features":[{"type":"Feature","properties":{"id":"hoshangabad","name":"Hoshangabad","stateId":"madhya-pradesh","stateName":"Madhya Pradesh","censuscode":449,"type":"district"},"geometry":{"type":"Polygon","coordinates":[[[78.67984,22.69938],[78.67751,22.69935],[78.6734,22.69875],[78.66985,22.69657],[78.6692,22.69465],[78.66469,22.69032],[78.65949,22.68889],[78.65538,22.68798],[78.64901,22.68672],[78.64344,22.68522],[78.64007,22.68426],[78.63726,22.68355],[78.63378,22.68201],[78.63066,22.6799],[78.62761,22.6779],[78.62591,22.67597],[78.62402,22.67375],[78.62294,22.672],[78.6218,22.6692],[78.62078,22.66635],[78.62013,22.66432],[78.61918,22.66118],[78.61816,22.65787],[78.61757,22.65548],[78.61472,22.65198],[78.61117,22.65032],[78.60646,22.65011],[78.60443,22.65055],[78.60197,22.651],[78.59925,22.65254],[78.59684,22.65415],[78.59444,22.65587],[78.59171,22.65759],[78.589,22.6593],[78.5837,22.66135],[78.58131,22.6615],[78.57824,22.66118],[78.57517,22.66098],[78.57192,22.66055],[78.5699,22.66071],[78.56758,22.66017],[78.56549,22.65939],[78.56286,22.65861],[78.55826,22.65857],[78.55382,22.65975],[78.5518,22.65985],[78.54991,22.65914],[78.54397,22.65787],[78.54095,22.65883],[78.53823,22.65997],[78.53663,22.66118],[78.53496,22.66214],[78.53274,22.66375],[78.52985,22.66448],[78.52701,22.66516],[78.52285,22.66419],[78.52104,22.6604],[78.51635,22.6578],[78.51262,22.65656],[78.51019,22.65351],[78.50775,22.65187],[78.50575,22.64988],[78.50486,22.64714],[78.50414,22.64511],[78.50367,22.64301],[78.50193,22.63968],[78.50066,22.6373],[78.49972,22.63427],[78.50093,22.62987],[78.50116,22.62576],[78.50148,22.62327],[78.50176,22.62031],[78.50203,22.61799],[78.50219,22.61556],[78.50276,22.61312],[78.50195,22.60929],[78.50111,22.6069],[78.50052,22.60358],[78.50032,22.60034],[78.50019,22.59581],[78.50094,22.59269],[78.50239,22.59014],[78.50407,22.58749],[78.50575,22.58518],[78.50843,22.58179],[78.51015,22.58018],[78.51246,22.57752],[78.51462,22.57517],[78.51765,22.57363],[78.52005,22.57162],[78.52235,22.56868],[78.52355,22.56637],[78.52437,22.56348],[78.52592,22.56175],[78.52824,22.5573],[78.53208,22.55392],[78.53498,22.55179],[78.53683,22.55019],[78.53856,22.54863],[78.54048,22.54697],[78.54309,22.54438],[78.5447,22.54236],[78.54637,22.54006],[78.54782,22.53677],[78.54802,22.53474],[78.54842,22.53207],[78.54777,22.52922],[78.54664,22.52573],[78.54484,22.52218],[78.54267,22.51827],[78.54171,22.51571],[78.54156,22.51327],[78.54221,22.50986],[78.54253,22.5073],[78.5425,22.5051],[78.54129,22.50288],[78.53875,22.50013],[78.53626,22.49797],[78.53388,22.49673],[78.53126,22.49543],[78.52846,22.49378],[78.52558,22.49271],[78.52253,22.49193],[78.52058,22.49116],[78.51772,22.48858],[78.51615,22.48619],[78.51452,22.48379],[78.5145,22.47991],[78.517,22.47639],[78.52013,22.47427],[78.52188,22.47197],[78.52367,22.4707],[78.52673,22.46981],[78.52945,22.46797],[78.52972,22.46501],[78.52963,22.46275],[78.5299,22.46014],[78.53065,22.45836],[78.53341,22.45791],[78.53559,22.4606],[78.53975,22.46139],[78.54276,22.46037],[78.5453,22.45854],[78.548,22.4574],[78.55113,22.45714],[78.55399,22.45363],[78.55482,22.44974],[78.55446,22.44795],[78.55528,22.44615],[78.55716,22.44309],[78.5576,22.44089],[78.55806,22.43823],[78.55949,22.4358],[78.56092,22.43355],[78.56161,22.43101],[78.56219,22.42823],[78.56197,22.42614],[78.56139,22.42323],[78.55725,22.42076],[78.55487,22.41999],[78.55016,22.41902],[78.54656,22.418],[78.53984,22.4165],[78.53687,22.41844],[78.53226,22.42003],[78.52757,22.41847],[78.52494,22.41706],[78.52332,22.4142],[78.52114,22.41082],[78.51842,22.40824],[78.51654,22.40579],[78.51361,22.40501],[78.50654,22.40257],[78.50317,22.40161],[78.50155,22.39985],[78.49924,22.3978],[78.49724,22.39587],[78.49548,22.39365],[78.49428,22.39172],[78.48997,22.38826],[78.48736,22.3865],[78.48273,22.38437],[78.47997,22.38393],[78.47649,22.3828],[78.46952,22.38111],[78.46683,22.38097],[78.46122,22.37993],[78.45699,22.38036],[78.4546,22.38028],[78.45093,22.37996],[78.4475,22.3805],[78.44198,22.38085],[78.43959,22.38089],[78.43579,22.38143],[78.43174,22.3818],[78.42862,22.38247],[78.42523,22.3833],[78.42197,22.38501],[78.41672,22.3895],[78.41423,22.39289],[78.41217,22.39594],[78.40802,22.40089],[78.40548,22.40325],[78.40294,22.40537],[78.40145,22.40727],[78.39898,22.4091],[78.39515,22.41226],[78.39206,22.41437],[78.38936,22.41539],[78.38628,22.41669],[78.38307,22.41852],[78.3797,22.41935],[78.377,22.41949],[78.37437,22.4193],[78.37069,22.41914],[78.36757,22.41969],[78.3656,22.41974],[78.36316,22.41977],[78.36132,22.41906],[78.35771,22.41902],[78.35575,22.41917],[78.3523,22.42036],[78.34882,22.42015],[78.34355,22.42021],[78.3398,22.42052],[78.33699,22.42078],[78.3346,22.42197],[78.33029,22.4228],[78.32783,22.42341],[78.3247,22.42408],[78.32108,22.42433],[78.31699,22.42284],[78.31482,22.42044],[78.31264,22.41803],[78.30862,22.4159],[78.30607,22.41507],[78.3008,22.41455],[78.29594,22.41629],[78.29262,22.41736],[78.287,22.41638],[78.28322,22.41442],[78.27995,22.41172],[78.27747,22.40949],[78.27578,22.40703],[78.27458,22.4051],[78.27321,22.40208],[78.26869,22.39823],[78.26436,22.3972],[78.25953,22.39692],[78.25336,22.39611],[78.24895,22.39624],[78.24588,22.39645],[78.23897,22.39614],[78.23463,22.3961],[78.2315,22.39596],[78.22424,22.39525],[78.21816,22.39601],[78.21448,22.39614],[78.21064,22.39587],[78.20524,22.39647],[78.20131,22.39758],[78.19923,22.39757],[78.19152,22.39772],[78.18565,22.39691],[78.17966,22.39517],[78.1751,22.39374],[78.17121,22.39166],[78.16701,22.38994],[78.16293,22.38827],[78.15902,22.38777],[78.1545,22.38674],[78.15255,22.38596],[78.14734,22.38254],[78.1429,22.38017],[78.13682,22.37721],[78.13239,22.37415],[78.12589,22.37024],[78.11866,22.3665],[78.11219,22.36463],[78.10518,22.36188],[78.09871,22.35988],[78.09284,22.35859],[78.08271,22.35345],[78.072,22.34889],[78.06334,22.34351],[78.05674,22.33958],[78.05128,22.33578],[78.04325,22.33248],[78.03613,22.32983],[78.03214,22.33006],[78.02712,22.3308],[78.02295,22.3312],[78.01821,22.33213],[78.01388,22.33225],[78.00823,22.33223],[78.00526,22.33141],[78.00275,22.32999],[78.00085,22.32952],[77.98829,22.31737],[77.98431,22.3181],[77.97917,22.32102],[77.97441,22.32075],[77.97021,22.32377],[77.96777,22.32544],[77.96279,22.32639],[77.95813,22.32613],[77.95445,22.32617],[77.95009,22.3268],[77.94896,22.32926],[77.94811,22.33186],[77.94621,22.33374],[77.9442,22.33494],[77.94026,22.3341],[77.93797,22.33275],[77.93709,22.33001],[77.93607,22.32696],[77.93266,22.32416],[77.92669,22.32124],[77.92126,22.31974],[77.91763,22.31657],[77.91461,22.31304],[77.91053,22.30907],[77.90584,22.30515],[77.90095,22.30265],[77.89602,22.3002],[77.89211,22.29637],[77.88833,22.29183],[77.88525,22.28747],[77.88195,22.28361],[77.87932,22.28053],[77.87565,22.2798],[77.87107,22.28016],[77.8656,22.27995],[77.86157,22.27964],[77.85711,22.28042],[77.85774,22.28426],[77.85761,22.28705],[77.85737,22.28938],[77.85724,22.2924],[77.85663,22.29529],[77.85676,22.29931],[77.85732,22.30373],[77.85838,22.30845],[77.85858,22.31245],[77.8582,22.31541],[77.85771,22.31894],[77.85808,22.32341],[77.85808,22.32433],[77.85853,22.32718],[77.85915,22.32979],[77.85977,22.3335],[77.86076,22.33703],[77.8612,22.3416],[77.86163,22.34582],[77.86039,22.34977],[77.85883,22.35384],[77.85684,22.35578],[77.84877,22.35746],[77.84449,22.35784],[77.83773,22.35677],[77.83475,22.35422],[77.83103,22.3501],[77.82836,22.34744],[77.82576,22.34593],[77.82335,22.3432],[77.81882,22.34111],[77.81696,22.34077],[77.81058,22.33984],[77.80562,22.33867],[77.80302,22.3378],[77.80165,22.33376],[77.80103,22.3315],[77.79788,22.32976],[77.79509,22.32866],[77.79144,22.3282],[77.7853,22.32716],[77.78041,22.32682],[77.77483,22.32769],[77.77149,22.32891],[77.76752,22.33209],[77.76491,22.33493],[77.76232,22.33776],[77.75897,22.34089],[77.75518,22.34286],[77.75116,22.34442],[77.74738,22.34507],[77.74465,22.34408],[77.74112,22.34138],[77.73895,22.33866],[77.74132,22.33588],[77.7451,22.33477],[77.74801,22.33327],[77.75036,22.32991],[77.75167,22.32656],[77.74994,22.32315],[77.74789,22.3221],[77.74548,22.31997],[77.74281,22.3183],[77.73779,22.31882],[77.73376,22.31941],[77.73129,22.319],[77.72869,22.31768],[77.72714,22.31387],[77.72652,22.31288],[77.72312,22.31213],[77.72034,22.31254],[77.72135,22.31855],[77.7195,22.31757],[77.7136,22.31897],[77.70789,22.32031],[77.70051,22.3212],[77.69555,22.32185],[77.69127,22.3229],[77.68413,22.32309],[77.68023,22.322],[77.67757,22.31802],[77.67695,22.31559],[77.67671,22.31231],[77.67437,22.31041],[77.6676,22.31001],[77.66264,22.31003],[77.65843,22.30871],[77.65342,22.30669],[77.65037,22.30624],[77.64764,22.30809],[77.6423,22.30897],[77.63803,22.30985],[77.63554,22.31257],[77.63329,22.31622],[77.63211,22.31894],[77.62881,22.32131],[77.62429,22.32155],[77.62026,22.32173],[77.61764,22.32567],[77.61725,22.33011],[77.61477,22.3314],[77.61266,22.33111],[77.60901,22.33024],[77.60653,22.32962],[77.60312,22.32824],[77.60044,22.32911],[77.59865,22.33159],[77.59431,22.33235],[77.59243,22.3327],[77.59125,22.33565],[77.58931,22.34016],[77.58689,22.3426],[77.58304,22.34289],[77.57883,22.34152],[77.57628,22.34094],[77.57349,22.34077],[77.57045,22.3406],[77.56772,22.34078],[77.56457,22.34067],[77.56096,22.33975],[77.55732,22.33797],[77.55285,22.33688],[77.54981,22.33821],[77.54875,22.33982],[77.54856,22.34237],[77.54934,22.34867],[77.54938,22.353],[77.54714,22.35636],[77.54423,22.35492],[77.54195,22.35076],[77.53973,22.34649],[77.53733,22.34239],[77.53498,22.34002],[77.53157,22.33742],[77.52806,22.3328],[77.52329,22.33033],[77.51733,22.32993],[77.51437,22.32618],[77.51192,22.32069],[77.50952,22.31671],[77.50723,22.31359],[77.50339,22.31262],[77.50049,22.30765],[77.50037,22.30748],[77.49952,22.30366],[77.49818,22.29748],[77.49764,22.29275],[77.49752,22.28922],[77.49828,22.28766],[77.50077,22.28517],[77.50251,22.28309],[77.50061,22.28009],[77.49546,22.27802],[77.49095,22.27571],[77.48787,22.27259],[77.48396,22.27191],[77.48168,22.26988],[77.47972,22.26451],[77.47978,22.26231],[77.47962,22.25873],[77.47652,22.25608],[77.47245,22.25261],[77.46954,22.25089],[77.46515,22.2495],[77.45988,22.24945],[77.45877,22.24957],[77.45622,22.24992],[77.45375,22.2494],[77.45257,22.24784],[77.45134,22.24541],[77.45073,22.24414],[77.451,22.24027],[77.45101,22.23674],[77.45196,22.23184],[77.45111,22.22698],[77.4489,22.22288],[77.44335,22.21896],[77.43802,22.21804],[77.42761,22.21735],[77.42272,22.21787],[77.42066,22.21892],[77.41842,22.22094],[77.41464,22.22348],[77.41121,22.22522],[77.40614,22.22574],[77.40006,22.22499],[77.39294,22.22517],[77.38866,22.22557],[77.38549,22.22639],[77.38263,22.22968],[77.38199,22.23383],[77.38104,22.23806],[77.38059,22.2421],[77.38025,22.24458],[77.3795,22.24817],[77.37466,22.24851],[77.36927,22.24857],[77.3645,22.24968],[77.36021,22.24939],[77.35642,22.24913],[77.35643,22.24904],[77.35631,22.24915],[77.35499,22.2506],[77.35536,22.26156],[77.3564,22.26885],[77.35801,22.27235],[77.36082,22.27905],[77.36308,22.286],[77.36084,22.28928],[77.35418,22.29091],[77.35019,22.29241],[77.34917,22.29386],[77.34759,22.29881],[77.34752,22.30203],[77.34825,22.30499],[77.34997,22.30824],[77.35209,22.31095],[77.3538,22.31439],[77.35171,22.31978],[77.34881,22.32139],[77.34275,22.32257],[77.34005,22.32897],[77.33701,22.33205],[77.32908,22.33753],[77.32569,22.34355],[77.3226,22.34469],[77.31786,22.34424],[77.31634,22.34587],[77.31446,22.35053],[77.31053,22.35405],[77.30856,22.35834],[77.30986,22.3627],[77.31012,22.36933],[77.31209,22.37293],[77.31381,22.3775],[77.31168,22.37986],[77.312,22.3831],[77.31234,22.38659],[77.31168,22.38989],[77.30964,22.3928],[77.30878,22.39656],[77.30779,22.4],[77.30626,22.40395],[77.305,22.40653],[77.29954,22.41178],[77.29557,22.41696],[77.29542,22.41953],[77.29969,22.42826],[77.30228,22.43273],[77.30397,22.43709],[77.30191,22.44074],[77.29798,22.43929],[77.29545,22.43731],[77.2915,22.43631],[77.28005,22.43942],[77.2755,22.44349],[77.27712,22.44692],[77.28281,22.44942],[77.28701,22.45263],[77.28603,22.45684],[77.2822,22.45991],[77.27882,22.46519],[77.27566,22.47434],[77.27572,22.4771],[77.27601,22.48279],[77.27816,22.49667],[77.27748,22.50117],[77.27595,22.50326],[77.27313,22.50514],[77.27212,22.50544],[77.26841,22.50673],[77.2658,22.50845],[77.264,22.51041],[77.26253,22.514],[77.26017,22.51826],[77.25804,22.52062],[77.25338,22.52081],[77.24902,22.52027],[77.24562,22.52214],[77.24445,22.5259],[77.24587,22.52896],[77.25125,22.53256],[77.25667,22.53404],[77.26228,22.5358],[77.26589,22.53863],[77.26572,22.54203],[77.26073,22.54342],[77.2585,22.54595],[77.25691,22.55099],[77.25316,22.55488],[77.24885,22.55674],[77.24087,22.55554],[77.23782,22.55445],[77.23573,22.55355],[77.23306,22.55314],[77.22659,22.55431],[77.21841,22.55664],[77.21533,22.55714],[77.21202,22.55901],[77.20989,22.561],[77.20683,22.56527],[77.20705,22.56867],[77.20706,22.56866],[77.20825,22.56895],[77.2108,22.56941],[77.21203,22.56958],[77.2147,22.57074],[77.21909,22.57433],[77.22385,22.5782],[77.22979,22.58341],[77.23523,22.58746],[77.24178,22.59394],[77.24715,22.59996],[77.25359,22.604],[77.26183,22.60857],[77.26755,22.60776],[77.27137,22.6035],[77.27301,22.6002],[77.27559,22.595],[77.27723,22.58928],[77.27775,22.5865],[77.27915,22.58165],[77.28066,22.57818],[77.28274,22.57338],[77.28655,22.56911],[77.29004,22.56633],[77.29516,22.56397],[77.30199,22.56287],[77.30784,22.56218],[77.31412,22.56195],[77.31847,22.56195],[77.3243,22.56311],[77.32871,22.56501],[77.33248,22.56744],[77.33539,22.56964],[77.33917,22.57247],[77.34016,22.57356],[77.3412,22.57548],[77.34292,22.57987],[77.34487,22.58663],[77.34641,22.59178],[77.34782,22.59536],[77.34959,22.59865],[77.35319,22.60258],[77.35733,22.60697],[77.36061,22.60842],[77.36297,22.60998],[77.36301,22.61028],[77.36409,22.61015],[77.36973,22.61177],[77.37595,22.61084],[77.38099,22.6098],[77.38777,22.60888],[77.39492,22.61124],[77.40316,22.61534],[77.40359,22.61558],[77.40943,22.61823],[77.41513,22.62164],[77.41928,22.62441],[77.42345,22.62533],[77.42835,22.62544],[77.43358,22.62584],[77.43859,22.63203],[77.44142,22.63653],[77.44564,22.6404],[77.44966,22.64305],[77.45401,22.64571],[77.45891,22.64738],[77.46419,22.64796],[77.46998,22.64772],[77.47608,22.64731],[77.48099,22.64684],[77.48603,22.64476],[77.48952,22.64376],[77.49027,22.64308],[77.49213,22.64284],[77.49686,22.64353],[77.50064,22.64497],[77.50548,22.64797],[77.50963,22.65345],[77.5157,22.66073],[77.52115,22.66524],[77.52829,22.66719],[77.53613,22.66729],[77.53863,22.6674],[77.54454,22.6671],[77.54976,22.66768],[77.55435,22.66825],[77.55921,22.66801],[77.56573,22.66811],[77.57177,22.66943],[77.57431,22.6718],[77.57524,22.67238],[77.5802,22.67601],[77.58361,22.67907],[77.58615,22.6823],[77.58819,22.68657],[77.5896,22.69292],[77.5904,22.69645],[77.59033,22.69917],[77.5925,22.70223],[77.5954,22.70621],[77.59931,22.71233],[77.60475,22.71926],[77.60879,22.72671],[77.61124,22.7337],[77.61472,22.73837],[77.61919,22.74201],[77.62441,22.74413],[77.63019,22.74464],[77.63505,22.74353],[77.63755,22.7422],[77.64235,22.73883],[77.64615,22.73576],[77.65095,22.73217],[77.65613,22.72973],[77.66496,22.73069],[77.67167,22.73443],[77.67856,22.7417],[77.67651,22.74194],[77.67979,22.74979],[77.68413,22.75464],[77.68934,22.75965],[77.69848,22.76338],[77.70714,22.76249],[77.71598,22.75981],[77.72128,22.75731],[77.72752,22.75493],[77.73429,22.75485],[77.7392,22.75749],[77.74374,22.76112],[77.74653,22.76302],[77.75095,22.76809],[77.75723,22.77252],[77.76115,22.77587],[77.76512,22.77898],[77.76842,22.78116],[77.7714,22.78347],[77.77563,22.78709],[77.77774,22.78993],[77.77929,22.79263],[77.77979,22.79552],[77.77963,22.79612],[77.77858,22.79296],[77.7784,22.79667],[77.77878,22.80245],[77.7796,22.80449],[77.78097,22.80819],[77.78521,22.81566],[77.78846,22.82116],[77.79122,22.82591],[77.7939,22.83142],[77.7991,22.83489],[77.80748,22.83762],[77.81491,22.84],[77.82193,22.84354],[77.82475,22.84581],[77.82964,22.85057],[77.83408,22.85417],[77.83747,22.85765],[77.84142,22.86079],[77.845,22.86202],[77.85307,22.86228],[77.85885,22.86096],[77.8653,22.85732],[77.86842,22.85537],[77.86986,22.85259],[77.86916,22.8477],[77.86583,22.84304],[77.86376,22.83915],[77.86149,22.83462],[77.86179,22.83073],[77.86366,22.8258],[77.86678,22.82267],[77.87029,22.81966],[77.87453,22.81886],[77.88092,22.81985],[77.8874,22.82411],[77.89242,22.82849],[77.89702,22.83269],[77.90287,22.83882],[77.90702,22.8428],[77.91425,22.84703],[77.91914,22.84823],[77.92545,22.84548],[77.92919,22.8401],[77.9301,22.83481],[77.92825,22.82927],[77.92509,22.82354],[77.92063,22.81966],[77.91655,22.81516],[77.91289,22.81065],[77.90924,22.80657],[77.90835,22.80256],[77.90939,22.79697],[77.91125,22.7932],[77.91157,22.79279],[77.91249,22.78948],[77.91103,22.78401],[77.90857,22.77867],[77.90781,22.77517],[77.90834,22.77006],[77.91027,22.76635],[77.9145,22.76229],[77.92086,22.75962],[77.92835,22.7601],[77.93487,22.76444],[77.93994,22.76971],[77.94286,22.77667],[77.94331,22.78176],[77.94265,22.78677],[77.94048,22.79194],[77.93943,22.7931],[77.9382,22.79629],[77.93853,22.80009],[77.94261,22.80393],[77.94842,22.80807],[77.95278,22.81062],[77.95919,22.81385],[77.96581,22.81632],[77.9738,22.8175],[77.98065,22.81755],[77.98732,22.81738],[77.99154,22.81759],[77.99413,22.81779],[77.99839,22.81833],[78.0022,22.81726],[78.00457,22.81593],[78.00722,22.81429],[78.01031,22.81265],[78.013,22.81086],[78.0157,22.80954],[78.01869,22.8081],[78.02101,22.80663],[78.02298,22.80559],[78.02529,22.80415],[78.02912,22.80277],[78.03331,22.80194],[78.0372,22.80254],[78.04068,22.80384],[78.04342,22.80455],[78.04732,22.807],[78.05078,22.80872],[78.05519,22.81093],[78.06072,22.81226],[78.06493,22.81315],[78.06898,22.81252],[78.07239,22.81114],[78.07669,22.80815],[78.07995,22.80549],[78.08416,22.80251],[78.08592,22.80084],[78.08806,22.79906],[78.09118,22.79747],[78.09531,22.79473],[78.09841,22.79329],[78.10095,22.79246],[78.1034,22.79012],[78.10628,22.78991],[78.10954,22.79],[78.11227,22.79053],[78.11586,22.79162],[78.11894,22.79357],[78.12232,22.79787],[78.12479,22.80174],[78.12629,22.80533],[78.12634,22.80841],[78.12652,22.81085],[78.12649,22.81473],[78.12617,22.81792],[78.12604,22.82053],[78.12621,22.82332],[78.12634,22.82565],[78.12662,22.82988],[78.12763,22.83376],[78.12904,22.83652],[78.13228,22.84025],[78.13691,22.84493],[78.14099,22.84738],[78.14664,22.85048],[78.15112,22.85444],[78.15597,22.85899],[78.15954,22.86197],[78.1624,22.86367],[78.16753,22.86597],[78.17206,22.8677],[78.17567,22.8686],[78.18051,22.86992],[78.18269,22.8722],[78.18432,22.87465],[78.1852,22.87703],[78.18821,22.88204],[78.19176,22.88718],[78.19841,22.89136],[78.20214,22.89239],[78.20756,22.89203],[78.21052,22.89229],[78.21385,22.8918],[78.21655,22.88795],[78.21881,22.88518],[78.22188,22.88133],[78.22528,22.87661],[78.22698,22.87443],[78.22916,22.87247],[78.23152,22.87053],[78.23395,22.86869],[78.23897,22.86706],[78.24412,22.86931],[78.24737,22.87114],[78.25192,22.87309],[78.25449,22.87445],[78.2597,22.87536],[78.26435,22.87425],[78.26938,22.87227],[78.27174,22.8709],[78.27474,22.86879],[78.28056,22.86849],[78.28484,22.87085],[78.28818,22.87343],[78.29061,22.87652],[78.29385,22.88033],[78.29565,22.88377],[78.29733,22.88737],[78.30004,22.89106],[78.30188,22.8938],[78.3034,22.89649],[78.30546,22.89937],[78.30725,22.90098],[78.30948,22.90321],[78.31272,22.90666],[78.31601,22.91],[78.31874,22.91304],[78.32176,22.9158],[78.32337,22.91685],[78.3253,22.91785],[78.32716,22.91833],[78.33116,22.91859],[78.33719,22.9183],[78.34078,22.91792],[78.3462,22.91791],[78.35302,22.91953],[78.35771,22.92213],[78.36199,22.92526],[78.3642,22.92783],[78.36869,22.93103],[78.37228,22.93391],[78.37513,22.93662],[78.378,22.93951],[78.38303,22.94329],[78.3859,22.94594],[78.38766,22.9488],[78.38942,22.95225],[78.39107,22.95518],[78.39349,22.95788],[78.39495,22.95941],[78.39649,22.96239],[78.39948,22.96341],[78.40338,22.96501],[78.4071,22.96693],[78.41305,22.9688],[78.41792,22.97081],[78.42407,22.97261],[78.42787,22.97448],[78.43049,22.97616],[78.4347,22.97883],[78.43747,22.98075],[78.43993,22.98264],[78.44233,22.98505],[78.44528,22.97985],[78.44626,22.97778],[78.44849,22.97464],[78.45106,22.97748],[78.45453,22.97997],[78.45953,22.98318],[78.4621,22.98459],[78.46932,22.9842],[78.47277,22.98256],[78.47359,22.98083],[78.47311,22.97827],[78.46944,22.97627],[78.46444,22.97418],[78.4623,22.97108],[78.46283,22.96669],[78.46334,22.96359],[78.46558,22.96068],[78.46861,22.95841],[78.47155,22.95797],[78.47689,22.95935],[78.48141,22.96319],[78.48626,22.96584],[78.4911,22.9662],[78.49375,22.96573],[78.49736,22.96451],[78.49989,22.96228],[78.50103,22.96059],[78.5029,22.95861],[78.5043,22.9557],[78.50815,22.95491],[78.51065,22.95457],[78.51462,22.95448],[78.5194,22.95549],[78.52356,22.95708],[78.52582,22.95804],[78.53138,22.96016],[78.53389,22.96122],[78.53813,22.96092],[78.54312,22.95968],[78.54621,22.95866],[78.55257,22.95767],[78.5551,22.95699],[78.55756,22.95713],[78.56131,22.95763],[78.56477,22.95778],[78.56884,22.95741],[78.57169,22.95558],[78.57191,22.95228],[78.57082,22.94977],[78.5711,22.94664],[78.57212,22.94392],[78.57319,22.94196],[78.57481,22.9407],[78.57914,22.93795],[78.5817,22.93607],[78.58233,22.93352],[78.58237,22.93062],[78.58216,22.92748],[78.58133,22.92365],[78.5826,22.91989],[78.58573,22.91615],[78.58706,22.91297],[78.58813,22.91031],[78.58836,22.9066],[78.58804,22.9005],[78.58573,22.89747],[78.58374,22.89438],[78.5811,22.89204],[78.5801,22.88872],[78.58038,22.88495],[78.58122,22.882],[78.58495,22.87844],[78.58718,22.87765],[78.59044,22.87843],[78.59413,22.87921],[78.59378,22.87626],[78.59245,22.87404],[78.58976,22.87187],[78.58657,22.87068],[78.58292,22.87147],[78.5788,22.8716],[78.57566,22.87099],[78.57433,22.86941],[78.5749,22.86687],[78.5763,22.86381],[78.57773,22.86191],[78.57977,22.86089],[78.58244,22.85876],[78.58784,22.85619],[78.5924,22.85502],[78.59598,22.85418],[78.59934,22.85061],[78.60011,22.84743],[78.6006,22.84233],[78.60108,22.8377],[78.60111,22.83491],[78.60144,22.83283],[78.60035,22.83038],[78.5965,22.82774],[78.59202,22.82562],[78.58885,22.8235],[78.58846,22.81972],[78.59009,22.8158],[78.59499,22.81334],[78.59843,22.81274],[78.6044,22.81325],[78.60845,22.81467],[78.61261,22.81605],[78.61716,22.81788],[78.62121,22.81774],[78.62112,22.81519],[78.62023,22.81257],[78.61834,22.80965],[78.61323,22.80474],[78.61381,22.80057],[78.616,22.79752],[78.61927,22.79644],[78.62456,22.79631],[78.62935,22.79751],[78.63204,22.79857],[78.63537,22.79913],[78.63766,22.79757],[78.63498,22.79361],[78.63151,22.79057],[78.63124,22.78621],[78.63102,22.78337],[78.63106,22.77948],[78.63141,22.77484],[78.6312,22.77124],[78.63085,22.76938],[78.631,22.76602],[78.63202,22.76197],[78.63284,22.75995],[78.636,22.75846],[78.64017,22.75903],[78.64354,22.76068],[78.64584,22.76371],[78.64722,22.76731],[78.64732,22.77073],[78.64747,22.77439],[78.64701,22.77781],[78.64747,22.78037],[78.64974,22.78091],[78.65253,22.77884],[78.65411,22.77485],[78.65505,22.7726],[78.65699,22.76994],[78.65835,22.76839],[78.66008,22.76701],[78.6642,22.76751],[78.66823,22.77021],[78.67055,22.77249],[78.67311,22.77553],[78.67549,22.77694],[78.67941,22.77784],[78.68354,22.77804],[78.68803,22.7768],[78.68997,22.7749],[78.69189,22.77231],[78.69412,22.77012],[78.69556,22.76688],[78.69713,22.76382],[78.69595,22.75836],[78.69414,22.75429],[78.69086,22.7495],[78.68801,22.74507],[78.68607,22.74233],[78.68321,22.73871],[78.68072,22.73499],[78.6786,22.73171],[78.67728,22.72869],[78.67668,22.7259],[78.67744,22.72295],[78.67772,22.71981],[78.68014,22.7174],[78.68243,22.71533],[78.68467,22.71385],[78.6887,22.71251],[78.691,22.71174],[78.69291,22.71082],[78.69356,22.7077],[78.69197,22.70601],[78.68762,22.70399],[78.68451,22.70235],[78.68182,22.70041],[78.67984,22.69938]]]}}]}