{"type":"FeatureCollection","features":[{"type":"Feature","properties":{"id":"jhabua","name":"Jhabua","stateId":"madhya-pradesh","stateName":"Madhya Pradesh","censuscode":464,"type":"district"},"geometry":{"type":"MultiPolygon","coordinates":[[[[74.79163,23.23304],[74.78873,23.23112],[74.78584,23.22717],[74.78017,23.2137],[74.78559,23.20411],[74.78633,23.1996],[74.78565,23.19595],[74.78349,23.19253],[74.78127,23.1906],[74.77198,23.18535],[74.76938,23.18262],[74.7673,23.1764],[74.7729,23.17122],[74.77943,23.16969],[74.79974,23.16791],[74.80189,23.16688],[74.80288,23.16341],[74.79869,23.16056],[74.78632,23.15894],[74.78176,23.15585],[74.77985,23.15185],[74.78041,23.14722],[74.7905,23.14343],[74.79688,23.13904],[74.80275,23.13479],[74.80996,23.13309],[74.81937,23.13254],[74.83254,23.13775],[74.83741,23.13823],[74.8472,23.14157],[74.85077,23.14049],[74.85427,23.13731],[74.86099,23.1374],[74.86843,23.13493],[74.87551,23.13414],[74.88536,23.1347],[74.89114,23.13709],[74.89669,23.14117],[74.90273,23.14402],[74.90882,23.14914],[74.91715,23.15873],[74.92109,23.15967],[74.92595,23.15917],[74.93721,23.14999],[74.94158,23.14884],[74.94669,23.15001],[74.9534,23.1527],[74.96161,23.15034],[74.96376,23.14693],[74.96757,23.1437],[74.97163,23.14285],[74.97403,23.14326],[74.99028,23.13919],[74.99238,23.13729],[74.99296,23.12599],[74.99097,23.11701],[74.99084,23.11196],[74.99169,23.10923],[74.99961,23.10845],[75.0057,23.11108],[75.00918,23.1109],[75.01239,23.09057],[75.0123,23.08142],[75.00643,23.06501],[75.00792,23.05099],[75.01373,23.04354],[75.01242,23.03447],[75.00957,23.02299],[75.00639,23.0167],[75.01023,23.01154],[75.00748,23.00828],[75.00742,23.00471],[75.01054,23.00208],[75.00937,23.00003],[75.00899,22.99234],[75.00907,22.99145],[75.00871,22.98518],[75.0068,22.98258],[75.00676,22.97992],[75.0044,22.9726],[75.00477,22.96966],[75.00781,22.96649],[75.00871,22.96183],[75.00733,22.95955],[75.00437,22.95701],[75.00395,22.95406],[75.00396,22.95018],[75.00621,22.94838],[75.00789,22.94356],[75.00793,22.94056],[75.00145,22.92695],[75.00365,22.91935],[75.0034,22.91153],[75.00003,22.90472],[74.99413,22.89915],[74.98942,22.89368],[74.98744,22.88753],[74.98821,22.88272],[74.98936,22.87791],[74.98856,22.87243],[74.98618,22.86558],[74.98266,22.86145],[74.97834,22.85801],[74.97207,22.85459],[74.96577,22.84834],[74.96146,22.84417],[74.95713,22.83648],[74.95437,22.83088],[74.95436,22.82598],[74.95473,22.82106],[74.95353,22.81616],[74.95195,22.81265],[74.95311,22.80703],[74.95076,22.80494],[74.94684,22.80145],[74.94173,22.79517],[74.93898,22.79098],[74.93467,22.79031],[74.9288,22.78614],[74.92292,22.78059],[74.91627,22.77714],[74.91078,22.77438],[74.90726,22.77228],[74.90645,22.76668],[74.90526,22.76389],[74.90329,22.75687],[74.89857,22.75054],[74.89544,22.74771],[74.89154,22.75266],[74.88646,22.75477],[74.88098,22.75476],[74.87432,22.75405],[74.86807,22.75475],[74.86065,22.75475],[74.85827,22.74912],[74.85319,22.74843],[74.84536,22.74844],[74.83676,22.74846],[74.82542,22.7492],[74.81332,22.75415],[74.8051,22.75487],[74.79299,22.75983],[74.78557,22.75915],[74.77617,22.75567],[74.77069,22.75357],[74.76678,22.75007],[74.76481,22.74727],[74.76637,22.74376],[74.76793,22.73953],[74.77103,22.7311],[74.77493,22.72335],[74.77688,22.71843],[74.77529,22.71001],[74.77841,22.70368],[74.78191,22.69453],[74.78423,22.6854],[74.7842,22.67416],[74.78849,22.66782],[74.79395,22.66148],[74.79627,22.65726],[74.7908,22.65306],[74.78805,22.64675],[74.78647,22.64043],[74.78918,22.6334],[74.78917,22.62497],[74.78602,22.61374],[74.78444,22.60391],[74.78285,22.59128],[74.78245,22.57889],[74.77737,22.57258],[74.77307,22.57048],[74.76994,22.5712],[74.76643,22.56911],[74.76213,22.5656],[74.75666,22.56351],[74.75001,22.56142],[74.74415,22.55864],[74.74286,22.55802],[74.73199,22.57213],[74.72726,22.58156],[74.71404,22.58565],[74.70261,22.58576],[74.69222,22.58691],[74.67808,22.60006],[74.66498,22.60111],[74.65958,22.59991],[74.6555,22.5932],[74.65479,22.58408],[74.65092,22.57232],[74.63656,22.56423],[74.63183,22.56002],[74.6265,22.55731],[74.61075,22.55675],[74.6044,22.55248],[74.60099,22.54276],[74.59399,22.54099],[74.57993,22.55211],[74.57047,22.55733],[74.56017,22.55646],[74.54713,22.55599],[74.54205,22.56036],[74.53467,22.56767],[74.51892,22.5771],[74.51405,22.57782],[74.50439,22.57747],[74.49496,22.57174],[74.48758,22.56338],[74.47911,22.55768],[74.47447,22.55302],[74.47693,22.54054],[74.47067,22.52863],[74.447,22.53944],[74.43264,22.55868],[74.43779,22.57414],[74.4303,22.59094],[74.42211,22.60142],[74.40233,22.61147],[74.38873,22.61276],[74.3779,22.6364],[74.37825,22.63649],[74.38137,22.64141],[74.38176,22.64843],[74.38135,22.65826],[74.38212,22.6674],[74.38719,22.67583],[74.39149,22.68355],[74.39422,22.68988],[74.3942,22.6983],[74.39811,22.70462],[74.3985,22.71024],[74.3981,22.71796],[74.40043,22.7285],[74.4059,22.73483],[74.41176,22.74255],[74.41448,22.74887],[74.418,22.75519],[74.42269,22.758],[74.42855,22.76783],[74.43284,22.77696],[74.43675,22.78327],[74.43793,22.79101],[74.4383,22.79733],[74.43635,22.80295],[74.43674,22.80717],[74.44143,22.80786],[74.44926,22.80857],[74.45708,22.80996],[74.46256,22.81277],[74.46647,22.82119],[74.46959,22.83032],[74.47663,22.85631],[74.4731,22.86263],[74.47192,22.86544],[74.47153,22.87247],[74.46918,22.8781],[74.46643,22.88512],[74.46409,22.89216],[74.46408,22.89847],[74.46134,22.9048],[74.46056,22.91112],[74.45585,22.91394],[74.45272,22.91605],[74.44919,22.92167],[74.44176,22.92028],[74.43627,22.91536],[74.43353,22.91817],[74.42961,22.92028],[74.42609,22.91748],[74.42139,22.91748],[74.4163,22.91608],[74.41004,22.91046],[74.40574,22.90203],[74.39792,22.89711],[74.39048,22.89993],[74.38578,22.90485],[74.37911,22.90766],[74.37519,22.91328],[74.37205,22.92031],[74.36891,22.92382],[74.36304,22.92734],[74.35951,22.93086],[74.35754,22.93999],[74.35166,22.9449],[74.34539,22.95123],[74.34185,22.95615],[74.3391,22.96247],[74.34722,22.96655],[74.35232,22.97287],[74.35467,22.97498],[74.36054,22.97568],[74.36563,22.97428],[74.36837,22.97498],[74.36836,22.97779],[74.36638,22.98129],[74.36303,22.98756],[74.35528,22.99812],[74.35289,23.00083],[74.34823,23.01329],[74.34677,23.028],[74.34436,23.0317],[74.33641,23.0336],[74.32945,23.03696],[74.32526,23.04047],[74.32283,23.04595],[74.32032,23.06046],[74.33687,23.06473],[74.34551,23.06855],[74.35274,23.07353],[74.3572,23.07823],[74.3588,23.08803],[74.36467,23.09324],[74.38545,23.10812],[74.38898,23.10968],[74.40467,23.10944],[74.41193,23.10862],[74.41672,23.10612],[74.42397,23.10367],[74.43105,23.10332],[74.43722,23.09571],[74.44335,23.09055],[74.45618,23.08467],[74.46521,23.08286],[74.48943,23.08595],[74.51037,23.08638],[74.5117,23.09345],[74.52139,23.09645],[74.53361,23.09903],[74.54084,23.10441],[74.54471,23.11032],[74.54573,23.11599],[74.54393,23.12957],[74.56433,23.13271],[74.57193,23.13467],[74.57841,23.13744],[74.58698,23.13892],[74.59561,23.13943],[74.60646,23.14224],[74.6126,23.14576],[74.61626,23.14935],[74.62417,23.16034],[74.6405,23.17004],[74.65333,23.1794],[74.65844,23.18524],[74.66394,23.1956],[74.66779,23.19884],[74.68624,23.19403],[74.71426,23.19197],[74.71989,23.19427],[74.73359,23.20368],[74.74454,23.20937],[74.74488,23.21263],[74.7497,23.22763],[74.74466,23.22996],[74.73982,23.2266],[74.74074,23.2297],[74.74302,23.23271],[74.74678,23.23517],[74.75147,23.23641],[74.7554,23.23672],[74.75873,23.23545],[74.76224,23.23274],[74.766,23.23148],[74.78325,23.23741],[74.78824,23.23841],[74.79126,23.23802],[74.79286,23.23496],[74.79163,23.23304]]],[[[74.17932,22.39059],[74.17776,22.38848],[74.17347,22.39058],[74.16995,22.39339],[74.16721,22.39619],[74.16602,22.40111],[74.16601,22.40603],[74.16249,22.41023],[74.15897,22.41304],[74.16169,22.41514],[74.16637,22.41586],[74.1691,22.41867],[74.17261,22.41867],[74.17417,22.41516],[74.17457,22.41095],[74.17498,22.40604],[74.175,22.40112],[74.17617,22.39621],[74.17774,22.3934],[74.17932,22.39059]]]]}}]}