{"type":"FeatureCollection","features":[{"type":"Feature","properties":{"id":"katni","name":"Katni","stateId":"madhya-pradesh","stateName":"Madhya Pradesh","censuscode":450,"type":"district"},"geometry":{"type":"Polygon","coordinates":[[[80.95823,24.06643],[80.95539,24.06337],[80.94754,24.0627],[80.94381,24.05971],[80.93123,24.05797],[80.92955,24.05557],[80.92935,24.05229],[80.93039,24.04981],[80.93396,24.04947],[80.93787,24.05184],[80.93989,24.04979],[80.93886,24.04616],[80.93601,24.04393],[80.92699,24.04246],[80.91937,24.04304],[80.91366,24.04062],[80.9055,24.03856],[80.90476,24.03516],[80.90942,24.03248],[80.91058,24.02864],[80.90361,24.01642],[80.89988,24.0154],[80.89611,24.0119],[80.89381,24.00868],[80.89032,24.00063],[80.88906,23.99869],[80.8865,23.99674],[80.87887,23.99066],[80.87426,23.9829],[80.87335,23.97985],[80.87862,23.97622],[80.87889,23.97286],[80.87688,23.96884],[80.87189,23.96557],[80.86885,23.96548],[80.85489,23.96615],[80.8466,23.96807],[80.84239,23.96418],[80.83974,23.95866],[80.83724,23.9562],[80.83559,23.95323],[80.84097,23.93407],[80.84024,23.92629],[80.84084,23.91068],[80.84265,23.90746],[80.84623,23.90642],[80.86858,23.90522],[80.87588,23.90361],[80.87752,23.89865],[80.86677,23.89053],[80.86199,23.88094],[80.8624,23.87823],[80.86454,23.87594],[80.86942,23.87373],[80.87951,23.87074],[80.89456,23.8607],[80.8952,23.85555],[80.89205,23.84671],[80.89206,23.84255],[80.89449,23.83212],[80.89775,23.82971],[80.90051,23.82591],[80.90565,23.8155],[80.90598,23.81123],[80.90532,23.8084],[80.90614,23.80487],[80.90618,23.79869],[80.90787,23.79508],[80.91209,23.7897],[80.91328,23.78656],[80.91108,23.77574],[80.90773,23.77099],[80.90622,23.77015],[80.89791,23.77004],[80.89354,23.76855],[80.89195,23.76585],[80.89239,23.76163],[80.89465,23.75478],[80.8968,23.74128],[80.90008,23.72903],[80.90055,23.72371],[80.89973,23.71909],[80.90132,23.71324],[80.90533,23.70814],[80.90633,23.70136],[80.90505,23.69867],[80.90401,23.69151],[80.90415,23.68214],[80.90225,23.67922],[80.89756,23.67622],[80.8945,23.67529],[80.89075,23.67743],[80.88091,23.67828],[80.86891,23.67568],[80.85619,23.67153],[80.85179,23.67114],[80.84417,23.67211],[80.84046,23.67188],[80.82703,23.66936],[80.82158,23.66932],[80.81909,23.67249],[80.81568,23.67971],[80.81361,23.68193],[80.80644,23.68372],[80.80211,23.68789],[80.79523,23.69128],[80.7918,23.69498],[80.79025,23.69783],[80.78828,23.6989],[80.78529,23.69791],[80.77935,23.69787],[80.77725,23.69872],[80.7769,23.69988],[80.77802,23.70478],[80.77532,23.70592],[80.77332,23.70548],[80.77119,23.70725],[80.7698,23.71022],[80.76046,23.71139],[80.75566,23.71343],[80.73977,23.72754],[80.73544,23.72731],[80.73051,23.72906],[80.72982,23.73237],[80.72789,23.7361],[80.72564,23.73832],[80.72365,23.74639],[80.72101,23.75193],[80.71659,23.75858],[80.71358,23.76112],[80.71036,23.76081],[80.70905,23.75522],[80.70934,23.75071],[80.70709,23.73599],[80.70366,23.73477],[80.69939,23.73459],[80.69599,23.73528],[80.68947,23.73439],[80.68746,23.73216],[80.68368,23.72458],[80.68208,23.72084],[80.68064,23.71132],[80.67829,23.70806],[80.67501,23.70052],[80.67262,23.698],[80.67025,23.69231],[80.67053,23.68322],[80.67211,23.67661],[80.67175,23.67337],[80.66994,23.66917],[80.66468,23.66149],[80.65971,23.65636],[80.65647,23.65489],[80.65162,23.65415],[80.645,23.65043],[80.64349,23.64865],[80.64248,23.64363],[80.64332,23.64211],[80.65161,23.63714],[80.64982,23.63387],[80.64164,23.6253],[80.62422,23.61564],[80.62125,23.61226],[80.62374,23.60756],[80.62256,23.59247],[80.6184,23.5876],[80.61255,23.58607],[80.60934,23.58639],[80.60354,23.58832],[80.60097,23.58627],[80.59878,23.57738],[80.59733,23.57579],[80.58775,23.57713],[80.57886,23.57533],[80.56809,23.56789],[80.56229,23.56559],[80.56019,23.56197],[80.55883,23.54995],[80.5563,23.54702],[80.55231,23.54522],[80.5511,23.54327],[80.55116,23.53887],[80.55368,23.53027],[80.55271,23.52774],[80.54965,23.52552],[80.54918,23.51985],[80.54712,23.51478],[80.5471,23.51276],[80.54947,23.50596],[80.54929,23.50306],[80.54553,23.49553],[80.54585,23.49281],[80.55367,23.48194],[80.56208,23.47367],[80.56527,23.46761],[80.56366,23.45981],[80.56358,23.45026],[80.5607,23.44057],[80.55773,23.43657],[80.55401,23.43621],[80.54841,23.43813],[80.54182,23.43648],[80.53962,23.43436],[80.53874,23.42929],[80.53404,23.42228],[80.53092,23.41601],[80.52963,23.40833],[80.53136,23.40419],[80.53323,23.40139],[80.5414,23.39753],[80.54425,23.39466],[80.54429,23.39297],[80.54358,23.39272],[80.52421,23.38928],[80.50774,23.38787],[80.49635,23.3844],[80.48615,23.37762],[80.46661,23.35273],[80.4544,23.34547],[80.43425,23.34205],[80.41501,23.34321],[80.40363,23.34232],[80.39165,23.33765],[80.38675,23.33403],[80.37566,23.32425],[80.37275,23.31799],[80.36884,23.3133],[80.36872,23.30658],[80.35796,23.30661],[80.33883,23.31356],[80.32409,23.32105],[80.30958,23.33996],[80.30354,23.35839],[80.30365,23.36668],[80.3118,23.39539],[80.31313,23.40948],[80.30916,23.41584],[80.30068,23.41954],[80.29171,23.42223],[80.28215,23.43219],[80.2727,23.44694],[80.26762,23.45119],[80.27393,23.46315],[80.27586,23.47834],[80.26389,23.48315],[80.25402,23.48896],[80.24344,23.49304],[80.23144,23.49181],[80.21876,23.48497],[80.20967,23.48038],[80.20179,23.48509],[80.19791,23.49771],[80.20033,23.51327],[80.19975,23.52377],[80.20326,23.53058],[80.21185,23.53416],[80.22833,23.53459],[80.23453,23.5356],[80.24033,23.54029],[80.24264,23.54645],[80.23488,23.56378],[80.20664,23.58288],[80.19464,23.58087],[80.18754,23.5726],[80.17844,23.56671],[80.15686,23.57309],[80.136,23.58849],[80.127,23.58702],[80.1213,23.58178],[80.11331,23.5792],[80.09633,23.58824],[80.08663,23.58622],[80.06954,23.57426],[80.06117,23.57099],[80.04736,23.56561],[80.03037,23.56515],[80.01007,23.56703],[79.98643,23.5677],[79.97422,23.56819],[79.96903,23.57178],[79.96803,23.57703],[79.97482,23.58744],[79.98631,23.60107],[79.98641,23.60678],[79.97841,23.61101],[79.97272,23.60945],[79.96942,23.60217],[79.96303,23.59692],[79.95573,23.59333],[79.94434,23.59756],[79.93064,23.60446],[79.93062,23.60446],[79.93062,23.60447],[79.93457,23.60852],[79.93808,23.61519],[79.9419,23.61943],[79.94448,23.61994],[79.94963,23.61848],[79.95407,23.62011],[79.95203,23.6231],[79.94844,23.62689],[79.94581,23.63117],[79.94519,23.63343],[79.94506,23.6372],[79.94526,23.64019],[79.94612,23.64375],[79.94855,23.64762],[79.95141,23.6494],[79.9545,23.65174],[79.95631,23.65626],[79.95422,23.66151],[79.9525,23.6645],[79.9491,23.66637],[79.94537,23.66745],[79.94229,23.6692],[79.94049,23.6741],[79.93666,23.67783],[79.93162,23.67681],[79.92661,23.67693],[79.9194,23.6811],[79.91288,23.68287],[79.90806,23.68086],[79.90275,23.67908],[79.89562,23.67967],[79.88991,23.68125],[79.8837,23.68325],[79.87762,23.68496],[79.86964,23.68862],[79.86669,23.69303],[79.85996,23.69423],[79.85276,23.69412],[79.84698,23.6938],[79.84043,23.69251],[79.8338,23.69267],[79.8281,23.69714],[79.82747,23.70131],[79.83073,23.70799],[79.835,23.71297],[79.83838,23.71716],[79.83253,23.71852],[79.82715,23.71917],[79.82322,23.72157],[79.82212,23.72483],[79.82271,23.72811],[79.82272,23.73066],[79.82251,23.73418],[79.82231,23.73604],[79.81975,23.73853],[79.82035,23.73972],[79.82741,23.74786],[79.83082,23.75113],[79.83356,23.7547],[79.83358,23.75759],[79.83151,23.76174],[79.8302,23.76668],[79.83303,23.77112],[79.83541,23.77568],[79.83813,23.77862],[79.84008,23.77909],[79.84379,23.77952],[79.84535,23.78104],[79.8447,23.78504],[79.84496,23.78729],[79.8475,23.78873],[79.85517,23.78952],[79.85811,23.79112],[79.85944,23.79369],[79.85933,23.79653],[79.85782,23.80089],[79.8558,23.80487],[79.85587,23.80718],[79.86011,23.80845],[79.86518,23.81024],[79.86864,23.81299],[79.87139,23.81725],[79.87131,23.82071],[79.86905,23.82314],[79.86763,23.82537],[79.86622,23.82881],[79.87317,23.82859],[79.87988,23.82662],[79.89236,23.8224],[79.90205,23.81932],[79.90621,23.81951],[79.9118,23.82203],[79.91611,23.82602],[79.92174,23.82732],[79.93021,23.82752],[79.93587,23.82824],[79.93939,23.82855],[79.94121,23.82862],[79.94181,23.82905],[79.94371,23.83206],[79.94611,23.83703],[79.94889,23.84169],[79.95061,23.84511],[79.95306,23.8491],[79.95714,23.85113],[79.96184,23.85332],[79.96485,23.85751],[79.96713,23.86028],[79.97114,23.86238],[79.97146,23.86646],[79.97235,23.86945],[79.97146,23.87137],[79.96926,23.87529],[79.9729,23.87775],[79.97654,23.88002],[79.98208,23.88738],[79.9839,23.88947],[79.98811,23.89708],[79.98943,23.90231],[79.99159,23.90599],[79.99388,23.91026],[79.99507,23.91466],[79.99545,23.91758],[79.99483,23.92451],[79.99575,23.93042],[79.99662,23.93199],[80.00012,23.93492],[80.00584,23.94803],[80.00879,23.95552],[80.00964,23.95642],[80.01494,23.95738],[80.01625,23.95909],[80.01759,23.96243],[80.01736,23.96736],[80.01521,23.9758],[80.01614,23.97721],[80.02141,23.98005],[80.02642,23.98126],[80.03608,23.98159],[80.03994,23.98285],[80.04193,23.98641],[80.04624,23.99039],[80.0536,23.99291],[80.05705,23.99326],[80.06015,23.99291],[80.06492,23.98791],[80.07362,23.98348],[80.08404,23.97664],[80.09062,23.98221],[80.09528,23.98414],[80.10166,23.9836],[80.10799,23.98006],[80.11681,23.97174],[80.1184,23.96877],[80.12001,23.9624],[80.11792,23.95502],[80.11934,23.95345],[80.13216,23.95075],[80.1347,23.94824],[80.14741,23.94086],[80.15016,23.9406],[80.155,23.94233],[80.15685,23.94404],[80.158,23.95059],[80.15974,23.95391],[80.16523,23.96003],[80.16689,23.96619],[80.1698,23.97241],[80.17486,23.99599],[80.17524,24.00047],[80.20642,23.99542],[80.21036,23.99295],[80.21366,23.98973],[80.21591,23.9866],[80.21867,23.9848],[80.2215,23.98421],[80.2257,23.98703],[80.23181,23.97924],[80.23584,23.97528],[80.23175,23.97115],[80.22825,23.96569],[80.22589,23.9672],[80.22246,23.97381],[80.21779,23.97817],[80.21566,23.97876],[80.21231,23.97785],[80.2103,23.97578],[80.20949,23.97141],[80.21022,23.9676],[80.21233,23.96356],[80.22028,23.9598],[80.22805,23.95042],[80.2324,23.94807],[80.2387,23.94661],[80.24171,23.94364],[80.24468,23.94215],[80.25691,23.94046],[80.26151,23.94058],[80.26676,23.93282],[80.27226,23.92923],[80.28148,23.92721],[80.28857,23.9281],[80.29313,23.92573],[80.29753,23.91886],[80.30351,23.9152],[80.30988,23.9135],[80.32634,23.91139],[80.32973,23.91187],[80.33284,23.91512],[80.32266,23.92741],[80.32255,23.93082],[80.32603,23.93254],[80.34077,23.93566],[80.34944,23.94344],[80.35225,23.9471],[80.3537,23.95137],[80.35346,23.96169],[80.35765,23.96701],[80.36034,23.96786],[80.36281,23.97041],[80.37165,23.97038],[80.38436,23.96515],[80.38796,23.96491],[80.39174,23.96622],[80.3987,23.97111],[80.40216,23.97173],[80.40479,23.97326],[80.40676,23.97904],[80.40882,23.98145],[80.41295,23.98351],[80.42058,23.9854],[80.4361,23.98281],[80.44762,23.98451],[80.45361,23.98625],[80.45762,23.98854],[80.47105,23.99271],[80.48528,23.99538],[80.49352,23.99875],[80.49401,24.00043],[80.50566,24.00854],[80.5197,24.01691],[80.52845,24.02388],[80.53312,24.03004],[80.52947,24.03531],[80.51666,24.04909],[80.51822,24.05307],[80.5218,24.05412],[80.52256,24.05844],[80.53531,24.06857],[80.53953,24.06706],[80.54467,24.06157],[80.54788,24.0595],[80.55304,24.05866],[80.55491,24.05478],[80.54951,24.04038],[80.54894,24.03306],[80.56105,24.04385],[80.57332,24.04924],[80.57896,24.04972],[80.6032,24.06613],[80.61029,24.06774],[80.61756,24.07198],[80.62504,24.07484],[80.63098,24.07825],[80.64088,24.06537],[80.64407,24.05974],[80.64741,24.05048],[80.65138,24.04903],[80.65098,24.05916],[80.64165,24.08358],[80.64163,24.0883],[80.64545,24.09179],[80.65499,24.09117],[80.66065,24.09256],[80.66837,24.08663],[80.67485,24.08019],[80.68209,24.07747],[80.68264,24.09074],[80.68161,24.09748],[80.67804,24.10483],[80.67795,24.10932],[80.68452,24.11236],[80.69256,24.11463],[80.70833,24.12306],[80.7194,24.13094],[80.72505,24.13192],[80.73092,24.13405],[80.73821,24.13517],[80.74333,24.13014],[80.74642,24.12084],[80.7457,24.11666],[80.73696,24.10662],[80.72117,24.09509],[80.7043,24.09551],[80.70031,24.09019],[80.70008,24.08588],[80.70318,24.08191],[80.70766,24.07832],[80.71018,24.07367],[80.71447,24.06972],[80.72293,24.06984],[80.72525,24.07296],[80.72311,24.07832],[80.72671,24.07962],[80.72981,24.07795],[80.73215,24.07259],[80.73656,24.07313],[80.74283,24.07231],[80.74668,24.06805],[80.75018,24.06483],[80.75572,24.06796],[80.75849,24.06382],[80.76358,24.06716],[80.76879,24.06938],[80.77772,24.07078],[80.80075,24.06722],[80.80266,24.06456],[80.8001,24.06005],[80.79498,24.0537],[80.79581,24.05043],[80.79953,24.04472],[80.80528,24.04042],[80.79764,24.03831],[80.78922,24.03769],[80.77939,24.0399],[80.77227,24.03714],[80.75834,24.02926],[80.75886,24.0255],[80.76436,24.01867],[80.76791,24.01193],[80.7667,24.00556],[80.7645,24.00038],[80.76119,23.98991],[80.76329,23.98827],[80.76658,23.9877],[80.77489,23.98157],[80.78391,23.97202],[80.78763,23.97012],[80.79565,23.96893],[80.79958,23.97144],[80.80042,23.97345],[80.79711,23.98111],[80.79925,23.98761],[80.80577,23.99402],[80.80844,23.99744],[80.80864,24.00072],[80.80939,24.01638],[80.81227,24.01963],[80.81613,24.0225],[80.81938,24.02743],[80.8248,24.02982],[80.83109,24.02952],[80.8369,24.02588],[80.8404,24.02611],[80.84363,24.03461],[80.8498,24.03768],[80.85325,24.04916],[80.8628,24.05694],[80.86433,24.06254],[80.86437,24.06815],[80.86636,24.07497],[80.8707,24.08056],[80.87608,24.08261],[80.88232,24.08226],[80.88692,24.08289],[80.89231,24.07685],[80.89502,24.07186],[80.89825,24.06787],[80.91086,24.07044],[80.91565,24.06825],[80.91967,24.06538],[80.93906,24.06604],[80.94909,24.06745],[80.95333,24.06891],[80.95823,24.06643]]]}}]}