{"type":"FeatureCollection","features":[{"type":"Feature","properties":{"id":"mandla","name":"Mandla","stateId":"madhya-pradesh","stateName":"Madhya Pradesh","censuscode":454,"type":"district"},"geometry":{"type":"Polygon","coordinates":[[[80.52776,23.07953],[80.53604,23.06427],[80.53543,23.05319],[80.53768,23.04632],[80.54622,23.0426],[80.55878,23.04466],[80.561,23.03199],[80.56094,23.01774],[80.56376,23.00981],[80.57058,23.00662],[80.57799,23.00501],[80.58254,23.00235],[80.58424,23.00024],[80.58479,22.99548],[80.58933,22.9923],[80.59101,22.98491],[80.59097,22.97541],[80.59094,22.9696],[80.58693,22.96434],[80.58234,22.95908],[80.58346,22.95274],[80.58744,22.95114],[80.58856,22.94692],[80.5914,22.94532],[80.59765,22.9416],[80.59762,22.93474],[80.59191,22.93213],[80.59075,22.92844],[80.58902,22.92317],[80.58274,22.92108],[80.58101,22.91581],[80.5804,22.90737],[80.58093,22.89734],[80.57294,22.89473],[80.57243,22.87544],[80.57353,22.86866],[80.58281,22.86436],[80.58563,22.86086],[80.59144,22.85757],[80.60281,22.85742],[80.61577,22.85522],[80.64138,22.85151],[80.6496,22.8467],[80.65491,22.83744],[80.66263,22.83998],[80.67153,22.83637],[80.68272,22.83702],[80.68386,22.83932],[80.68339,22.84743],[80.68446,22.84921],[80.69072,22.84869],[80.69376,22.85318],[80.70521,22.85023],[80.71235,22.8552],[80.71863,22.8618],[80.7239,22.86082],[80.73616,22.85636],[80.73839,22.85055],[80.74304,22.84431],[80.73733,22.83939],[80.73012,22.83779],[80.72828,22.83491],[80.73011,22.8313],[80.7303,22.82088],[80.73177,22.81271],[80.73679,22.81295],[80.748,22.81498],[80.75965,22.81284],[80.77045,22.81291],[80.77862,22.81647],[80.78525,22.82035],[80.79156,22.81814],[80.79765,22.82456],[80.80165,22.82637],[80.82614,22.83301],[80.83092,22.84459],[80.83477,22.84964],[80.85733,22.85115],[80.8719,22.84861],[80.86657,22.83792],[80.8647,22.83261],[80.85754,22.82064],[80.85448,22.80892],[80.85732,22.80705],[80.86916,22.80605],[80.87108,22.80505],[80.87197,22.79149],[80.87,22.76251],[80.87057,22.7581],[80.88198,22.75798],[80.89603,22.75969],[80.90953,22.75804],[80.92117,22.75478],[80.92803,22.75384],[80.93399,22.74879],[80.94107,22.74437],[80.94136,22.74211],[80.93252,22.73525],[80.92001,22.71749],[80.91758,22.71126],[80.91823,22.70835],[80.9285,22.70597],[80.92889,22.70289],[80.92465,22.68113],[80.92556,22.67984],[80.92914,22.67793],[80.93255,22.67683],[80.94036,22.67621],[80.94331,22.67422],[80.94545,22.66596],[80.95503,22.65384],[80.95605,22.63996],[80.95758,22.63832],[80.96229,22.63595],[80.96498,22.63695],[80.96487,22.64328],[80.96599,22.64674],[80.97208,22.64446],[80.99083,22.64478],[81.00408,22.64033],[81.00642,22.63648],[81.0066,22.63068],[81.00504,22.6256],[81.00009,22.61941],[80.99382,22.61453],[80.98896,22.61304],[80.98554,22.61332],[80.98283,22.61095],[80.97948,22.61023],[80.97371,22.61189],[80.96834,22.6109],[80.96262,22.60637],[80.95832,22.60153],[80.95844,22.59716],[80.96004,22.5952],[80.96683,22.59253],[80.96563,22.59025],[80.95874,22.59054],[80.95251,22.58994],[80.94455,22.5842],[80.94196,22.58553],[80.93958,22.5882],[80.93783,22.58803],[80.93593,22.58455],[80.93508,22.57654],[80.93553,22.57305],[80.94233,22.56448],[80.94693,22.55487],[80.94885,22.55434],[80.95805,22.5585],[80.96304,22.55918],[80.9644,22.5572],[80.96583,22.54589],[80.96885,22.54224],[80.97985,22.54126],[80.98414,22.53963],[80.9874,22.54084],[80.99138,22.54395],[80.99363,22.54475],[81.00006,22.54335],[81.00285,22.54587],[81.00924,22.55163],[81.01796,22.55636],[81.0216,22.56303],[81.01525,22.56956],[81.01702,22.5809],[81.01713,22.58686],[81.02088,22.59543],[81.02594,22.59877],[81.02993,22.60398],[81.03204,22.61108],[81.03851,22.61144],[81.04545,22.60355],[81.04732,22.60503],[81.05049,22.60312],[81.05305,22.60452],[81.05565,22.60234],[81.0646,22.60851],[81.06808,22.61001],[81.07884,22.60884],[81.08317,22.60953],[81.0874,22.60604],[81.09015,22.59875],[81.09255,22.59569],[81.09823,22.59311],[81.10339,22.59481],[81.10621,22.59424],[81.11214,22.59506],[81.11631,22.59083],[81.12304,22.59129],[81.12838,22.58476],[81.13433,22.58054],[81.13673,22.57151],[81.14704,22.56334],[81.15545,22.55867],[81.1591,22.55426],[81.15576,22.55015],[81.15837,22.5399],[81.16701,22.5372],[81.16856,22.53178],[81.18379,22.51511],[81.19342,22.49911],[81.19606,22.49264],[81.19408,22.48865],[81.19408,22.48865],[81.18727,22.48958],[81.17786,22.48742],[81.17127,22.48134],[81.16502,22.47391],[81.15527,22.4553],[81.14122,22.45143],[81.12993,22.44704],[81.11717,22.44054],[81.11208,22.43223],[81.11064,22.42153],[81.11181,22.41027],[81.10982,22.39076],[81.10812,22.38274],[81.11401,22.36172],[81.11771,22.35255],[81.12281,22.34366],[81.11917,22.33422],[81.11642,22.32922],[81.11761,22.32109],[81.12186,22.3122],[81.12216,22.30287],[81.12099,22.29402],[81.10398,22.27711],[81.09893,22.26752],[81.09181,22.24643],[81.07972,22.24141],[81.07637,22.24593],[81.06994,22.24651],[81.06164,22.24352],[81.05599,22.24384],[81.04756,22.24022],[81.04206,22.25413],[81.03873,22.25657],[81.03367,22.25874],[81.0308,22.2626],[81.02744,22.2702],[81.02107,22.27407],[81.01089,22.28176],[80.99998,22.2882],[80.99117,22.29012],[80.98783,22.28875],[80.97793,22.28075],[80.97101,22.27998],[80.96283,22.28178],[80.95497,22.279],[80.94866,22.28302],[80.93955,22.2855],[80.93614,22.27907],[80.93322,22.27757],[80.92641,22.27692],[80.91617,22.27822],[80.91429,22.281],[80.91196,22.28806],[80.90557,22.29127],[80.90407,22.29468],[80.90508,22.30229],[80.90996,22.30647],[80.91111,22.30992],[80.90949,22.31432],[80.90959,22.31715],[80.91416,22.32265],[80.91615,22.32806],[80.92079,22.32791],[80.9288,22.32534],[80.9319,22.32681],[80.9291,22.3305],[80.92304,22.33544],[80.91443,22.3395],[80.90691,22.34136],[80.90412,22.34122],[80.90151,22.34004],[80.89657,22.33512],[80.89345,22.33331],[80.88231,22.33263],[80.87988,22.33584],[80.88088,22.34236],[80.88241,22.34564],[80.89259,22.34916],[80.89088,22.35103],[80.87889,22.35736],[80.87345,22.35801],[80.86755,22.36074],[80.8658,22.36424],[80.86415,22.37716],[80.86181,22.37847],[80.85891,22.37856],[80.85334,22.38361],[80.84824,22.38674],[80.84478,22.38753],[80.84516,22.38237],[80.84391,22.38122],[80.83169,22.38357],[80.82774,22.38466],[80.82135,22.38833],[80.81393,22.38963],[80.81289,22.39159],[80.81236,22.39259],[80.81149,22.39781],[80.79923,22.39685],[80.79656,22.39567],[80.79567,22.39331],[80.79883,22.38338],[80.79762,22.37963],[80.79355,22.37528],[80.79493,22.37156],[80.79914,22.36596],[80.7989,22.3622],[80.79291,22.35122],[80.79186,22.3462],[80.79319,22.32618],[80.78753,22.31276],[80.7776,22.31478],[80.77352,22.31466],[80.76021,22.30758],[80.75422,22.30261],[80.7455,22.29125],[80.74208,22.28325],[80.72658,22.28006],[80.71941,22.27349],[80.71414,22.27181],[80.71038,22.27288],[80.70574,22.27253],[80.7041,22.26907],[80.70323,22.2566],[80.7044,22.25057],[80.70745,22.24643],[80.71668,22.23697],[80.71895,22.23528],[80.72449,22.2332],[80.72874,22.22091],[80.72802,22.21738],[80.72325,22.21605],[80.71122,22.20547],[80.70619,22.20391],[80.69972,22.20477],[80.68955,22.21267],[80.68447,22.21238],[80.67751,22.21383],[80.67339,22.21578],[80.66812,22.22011],[80.66264,22.22178],[80.65861,22.22153],[80.6543,22.22267],[80.6468,22.22655],[80.64291,22.22693],[80.62895,22.2262],[80.61017,22.22764],[80.60426,22.22931],[80.60188,22.23205],[80.59775,22.23359],[80.5931,22.2319],[80.58325,22.23053],[80.55105,22.23654],[80.53602,22.2406],[80.53189,22.24231],[80.52889,22.24465],[80.52732,22.24808],[80.52664,22.26271],[80.52046,22.26323],[80.5159,22.26466],[80.51241,22.26809],[80.51084,22.27163],[80.50684,22.27468],[80.49785,22.27185],[80.49112,22.27121],[80.48593,22.27328],[80.48454,22.27677],[80.47843,22.27826],[80.46485,22.27912],[80.46389,22.26739],[80.46293,22.26398],[80.45168,22.26349],[80.4487,22.24917],[80.44727,22.24751],[80.43843,22.24636],[80.43581,22.24505],[80.43101,22.24572],[80.41827,22.24553],[80.41583,22.25],[80.41643,22.25526],[80.41982,22.26824],[80.42013,22.27611],[80.4193,22.28051],[80.40586,22.29305],[80.40196,22.30024],[80.39724,22.30543],[80.38731,22.30765],[80.38291,22.30767],[80.37585,22.30576],[80.37138,22.30255],[80.36748,22.30131],[80.34829,22.29889],[80.34149,22.29848],[80.33613,22.30193],[80.3361,22.3054],[80.34363,22.32137],[80.3448,22.32847],[80.33871,22.33222],[80.33431,22.33943],[80.33149,22.34199],[80.3255,22.34469],[80.32278,22.34512],[80.31914,22.34508],[80.31368,22.34379],[80.30649,22.34054],[80.30226,22.33774],[80.2918,22.32791],[80.28187,22.32231],[80.27851,22.31938],[80.27557,22.31413],[80.27194,22.30988],[80.26143,22.30885],[80.25592,22.30755],[80.23616,22.30068],[80.23331,22.30139],[80.23202,22.30359],[80.22889,22.3138],[80.21732,22.31005],[80.21516,22.31182],[80.21382,22.31467],[80.21057,22.31741],[80.20111,22.31886],[80.18867,22.32403],[80.1793,22.32668],[80.16926,22.32724],[80.1683,22.33024],[80.16843,22.33342],[80.17058,22.34041],[80.16999,22.34383],[80.15632,22.34887],[80.1532,22.3491],[80.15025,22.34804],[80.14622,22.34413],[80.14317,22.34236],[80.13581,22.34626],[80.1319,22.34694],[80.11481,22.34671],[80.10864,22.34504],[80.10026,22.34021],[80.09491,22.34064],[80.08999,22.34223],[80.08258,22.34779],[80.07915,22.35408],[80.07357,22.37044],[80.07082,22.37643],[80.07321,22.38553],[80.07388,22.39236],[80.07585,22.39508],[80.08976,22.40448],[80.09182,22.40719],[80.09321,22.41619],[80.09345,22.42367],[80.09265,22.42657],[80.07869,22.43118],[80.07667,22.44381],[80.07484,22.44834],[80.07148,22.45229],[80.06845,22.45439],[80.05462,22.45758],[80.05259,22.46158],[80.05228,22.47001],[80.04925,22.48009],[80.04023,22.49903],[80.03758,22.50161],[80.03491,22.50198],[80.0318,22.50133],[80.0261,22.50351],[80.02208,22.51293],[80.024,22.51722],[80.02623,22.52001],[80.03173,22.52221],[80.03547,22.52796],[80.03577,22.53309],[80.03503,22.53678],[80.03203,22.5425],[80.02679,22.54447],[80.01697,22.5429],[80.01277,22.54452],[80.00918,22.55184],[80.00645,22.55122],[79.99823,22.54752],[79.99409,22.54604],[79.98241,22.54802],[79.97368,22.54801],[79.96994,22.54942],[79.96326,22.55504],[79.96178,22.55418],[79.95398,22.55684],[79.95788,22.56112],[79.96505,22.56625],[79.97847,22.56594],[79.98058,22.56861],[79.98229,22.57627],[79.98642,22.57834],[79.99252,22.5797],[79.99835,22.57798],[80.00264,22.57639],[80.00509,22.57652],[80.00858,22.57824],[80.00996,22.58748],[80.01366,22.59299],[80.01935,22.59699],[80.03128,22.59849],[80.03316,22.59998],[80.03438,22.60541],[80.0362,22.60695],[80.03917,22.60715],[80.04825,22.60481],[80.0516,22.60482],[80.06107,22.60846],[80.06614,22.60754],[80.06824,22.60632],[80.08716,22.61617],[80.09006,22.62204],[80.09385,22.62318],[80.10458,22.62421],[80.11302,22.6271],[80.11629,22.62431],[80.12311,22.61619],[80.1255,22.61474],[80.13363,22.6144],[80.13608,22.61299],[80.14305,22.61682],[80.14688,22.61448],[80.15273,22.60197],[80.16058,22.60019],[80.17236,22.60288],[80.19288,22.60337],[80.19897,22.60638],[80.20594,22.61125],[80.20832,22.61423],[80.21625,22.62873],[80.21517,22.63399],[80.20788,22.6371],[80.19876,22.64305],[80.19527,22.64751],[80.19566,22.65178],[80.20188,22.66155],[80.21194,22.67188],[80.21542,22.67365],[80.22034,22.66986],[80.23171,22.67297],[80.23531,22.67445],[80.23657,22.67595],[80.23789,22.67882],[80.23735,22.6813],[80.24014,22.68932],[80.23876,22.69383],[80.23439,22.69755],[80.23529,22.70153],[80.23843,22.70728],[80.23875,22.71415],[80.24031,22.71651],[80.24288,22.71857],[80.25249,22.72088],[80.27386,22.71961],[80.28075,22.72124],[80.2881,22.72483],[80.29101,22.72563],[80.28622,22.7301],[80.28544,22.73213],[80.285,22.74744],[80.28368,22.75207],[80.28045,22.76595],[80.2827,22.78293],[80.28143,22.78616],[80.27705,22.78971],[80.2689,22.79432],[80.26502,22.7952],[80.24627,22.79794],[80.24151,22.79947],[80.21574,22.80126],[80.21059,22.79949],[80.20733,22.79651],[80.20615,22.79386],[80.20714,22.78762],[80.20671,22.78052],[80.20303,22.77765],[80.19639,22.77601],[80.18516,22.76619],[80.1792,22.76478],[80.17053,22.76631],[80.11776,22.76871],[80.10311,22.77096],[80.0898,22.76629],[80.0746,22.75824],[80.07204,22.75745],[80.0671,22.75816],[80.06067,22.76106],[80.04993,22.77477],[80.04314,22.78172],[80.03664,22.78565],[80.02656,22.78991],[80.02107,22.79394],[80.01774,22.79913],[80.01589,22.80398],[80.01093,22.81132],[80.00929,22.819],[80.00651,22.82346],[80.0048,22.82581],[79.99795,22.82783],[79.98674,22.82825],[79.9817,22.83118],[79.97472,22.83959],[79.97116,22.84281],[79.96401,22.85256],[79.96595,22.87163],[79.96802,22.87633],[79.97229,22.88067],[79.97472,22.88548],[79.97141,22.88823],[79.96972,22.89347],[79.96989,22.91261],[79.97241,22.91586],[79.97253,22.91976],[79.96041,22.93286],[79.95489,22.93685],[79.9533,22.94088],[79.95549,22.94251],[79.95262,22.94485],[79.95347,22.94747],[79.9592,22.95287],[79.98929,22.9694],[79.99204,22.97127],[79.99887,22.97748],[79.99979,22.97598],[80.00057,22.97496],[80.0014,22.97401],[80.00228,22.97317],[80.00316,22.97243],[80.00408,22.97183],[80.00498,22.97136],[80.0059,22.97103],[80.00682,22.97085],[80.00771,22.9708],[80.00858,22.97088],[80.00941,22.97112],[80.01017,22.97147],[80.01088,22.97195],[80.01148,22.97255],[80.01195,22.97326],[80.01233,22.97407],[80.01256,22.97497],[80.01264,22.97595],[80.01253,22.97699],[80.01225,22.97808],[80.01175,22.9792],[80.01104,22.98035],[80.01007,22.98149],[80.00884,22.98264],[80.00725,22.98381],[80.00527,22.98506],[80.00272,22.98656],[79.99876,22.9889],[79.99464,22.9903],[79.9928,22.99325],[79.99351,22.99568],[79.99481,22.99806],[79.99777,23.00106],[79.99977,23.00145],[80.00563,23.0043],[80.00698,23.00593],[80.00677,23.0081],[80.00481,23.01148],[80.00203,23.01377],[79.99988,23.01345],[79.99578,23.01195],[79.99313,23.01038],[79.99235,23.01163],[79.99486,23.01671],[79.99536,23.02053],[79.9954,23.02402],[79.99564,23.0258],[79.99672,23.02675],[79.9978,23.0273],[79.99992,23.02759],[80.00714,23.02912],[80.01608,23.02917],[80.02449,23.03344],[80.03438,23.03588],[80.0378,23.03756],[80.04305,23.0423],[80.04802,23.04934],[80.05774,23.05487],[80.06126,23.05885],[80.06638,23.06253],[80.07001,23.06447],[80.07742,23.06523],[80.081,23.06722],[80.08237,23.0689],[80.08324,23.07479],[80.08542,23.0757],[80.10322,23.07757],[80.10837,23.07573],[80.10837,23.0608],[80.11118,23.05313],[80.11356,23.0512],[80.11658,23.05066],[80.1193,23.05115],[80.12205,23.05332],[80.13094,23.05758],[80.13508,23.05748],[80.1405,23.05616],[80.14184,23.05458],[80.1408,23.0469],[80.14351,23.04496],[80.14557,23.04737],[80.15091,23.045],[80.1559,23.04895],[80.16099,23.04959],[80.16497,23.04689],[80.16969,23.03949],[80.17146,23.03375],[80.17613,23.02647],[80.17972,23.02273],[80.18305,23.02143],[80.18733,23.02277],[80.19109,23.02759],[80.19172,23.0343],[80.18835,23.04469],[80.18174,23.05934],[80.18307,23.06228],[80.18615,23.06571],[80.19254,23.0678],[80.2031,23.06833],[80.20457,23.07225],[80.20487,23.07641],[80.20398,23.08319],[80.20172,23.08535],[80.19245,23.08909],[80.19037,23.09062],[80.18958,23.10064],[80.1835,23.10845],[80.18032,23.11554],[80.1807,23.11999],[80.1819,23.12294],[80.18803,23.12843],[80.20053,23.13016],[80.20656,23.12871],[80.20967,23.12908],[80.22107,23.13249],[80.22826,23.1389],[80.23124,23.14009],[80.24051,23.14079],[80.24635,23.14762],[80.25186,23.14901],[80.25606,23.14856],[80.26271,23.14658],[80.27739,23.14642],[80.27804,23.14462],[80.27715,23.14156],[80.27371,23.13449],[80.27444,23.12903],[80.27669,23.12605],[80.28048,23.12295],[80.28265,23.11876],[80.28846,23.11169],[80.28992,23.11047],[80.29779,23.10742],[80.2992,23.10642],[80.30306,23.09955],[80.30618,23.09704],[80.30981,23.09659],[80.31682,23.09889],[80.32054,23.10092],[80.33137,23.10237],[80.33493,23.10557],[80.33812,23.11659],[80.34569,23.11916],[80.34898,23.12104],[80.35311,23.12504],[80.35553,23.13033],[80.35692,23.1368],[80.35941,23.13863],[80.36326,23.14009],[80.37767,23.14131],[80.38294,23.14252],[80.38859,23.14494],[80.39096,23.15082],[80.39088,23.15869],[80.39648,23.16968],[80.3983,23.17139],[80.4004,23.17218],[80.40851,23.17243],[80.41403,23.1708],[80.41841,23.16137],[80.42366,23.14453],[80.42461,23.14261],[80.42713,23.14084],[80.43074,23.1397],[80.43959,23.13976],[80.4463,23.14258],[80.45253,23.14262],[80.45626,23.14402],[80.4589,23.14381],[80.46207,23.14146],[80.46349,23.13688],[80.45999,23.1298],[80.46069,23.12707],[80.46505,23.1251],[80.46688,23.1234],[80.46989,23.12291],[80.47701,23.12339],[80.47919,23.1214],[80.48019,23.11757],[80.48649,23.11802],[80.48877,23.11735],[80.49014,23.11032],[80.49251,23.10798],[80.51127,23.10705],[80.51228,23.1049],[80.51364,23.09585],[80.51257,23.09158],[80.508,23.08713],[80.51091,23.07985],[80.52491,23.07853],[80.52776,23.07953],[80.52776,23.07953]]]}}]}