{"type":"FeatureCollection","features":[{"type":"Feature","properties":{"id":"panna","name":"Panna","stateId":"madhya-pradesh","stateName":"Madhya Pradesh","censuscode":426,"type":"district"},"geometry":{"type":"MultiPolygon","coordinates":[[[[80.44879,25.07792],[80.44983,25.07687],[80.44983,25.07687],[80.45235,25.07715],[80.45322,25.07603],[80.45149,25.0732],[80.4497,25.07186],[80.45032,25.06915],[80.45032,25.06915],[80.45271,25.06668],[80.45227,25.06405],[80.45404,25.06171],[80.46105,25.06465],[80.46401,25.0697],[80.46806,25.06558],[80.46951,25.05388],[80.46951,25.05388],[80.47824,25.04059],[80.48137,25.03949],[80.48137,25.03949],[80.485,25.03981],[80.485,25.03981],[80.48708,25.04027],[80.48708,25.04027],[80.49028,25.04251],[80.49121,25.04316],[80.49384,25.04322],[80.49391,25.04322],[80.49391,25.04322],[80.49935,25.04194],[80.50174,25.03752],[80.50125,25.03403],[80.49727,25.03067],[80.495,25.03022],[80.49292,25.0298],[80.48515,25.03291],[80.47831,25.03108],[80.47282,25.03172],[80.46793,25.03481],[80.46671,25.03685],[80.45678,25.03982],[80.45435,25.04119],[80.45095,25.03995],[80.44455,25.03582],[80.43364,25.02656],[80.43289,25.0223],[80.43351,25.01986],[80.44176,25.02253],[80.444,25.0222],[80.44796,25.01839],[80.44651,25.01599],[80.44914,25.0137],[80.44954,25.01012],[80.45256,25.00725],[80.45807,25.00534],[80.46299,25.0041],[80.46625,25.0001],[80.46478,24.99586],[80.45985,24.98821],[80.46032,24.98261],[80.46985,24.9771],[80.48132,24.97628],[80.47681,24.97463],[80.47356,24.97237],[80.47364,24.96972],[80.47817,24.96214],[80.4897,24.94628],[80.49123,24.94372],[80.49114,24.93899],[80.49427,24.93455],[80.4949,24.9308],[80.49239,24.92674],[80.49218,24.92172],[80.493,24.91755],[80.49666,24.9143],[80.49667,24.91038],[80.49291,24.90491],[80.48981,24.89319],[80.48672,24.8892],[80.48492,24.88393],[80.48347,24.85351],[80.4879,24.85465],[80.4911,24.85701],[80.49189,24.85891],[80.48964,24.8632],[80.48934,24.88079],[80.49077,24.88701],[80.50699,24.89215],[80.50732,24.89554],[80.50544,24.89691],[80.51322,24.90935],[80.51797,24.91353],[80.52357,24.91632],[80.52846,24.91463],[80.5325,24.91052],[80.54,24.90739],[80.5423,24.90245],[80.54492,24.9012],[80.55877,24.90373],[80.57128,24.90235],[80.58045,24.90047],[80.58604,24.8968],[80.59114,24.89008],[80.6031,24.88353],[80.62084,24.87551],[80.63265,24.87708],[80.63515,24.87295],[80.63443,24.86529],[80.60357,24.84658],[80.59852,24.84257],[80.59623,24.83523],[80.60038,24.83504],[80.60656,24.83862],[80.60785,24.83393],[80.6025,24.83092],[80.5964,24.83061],[80.59447,24.82655],[80.59104,24.82454],[80.58676,24.82438],[80.57528,24.81921],[80.55733,24.8126],[80.53981,24.80851],[80.53207,24.80242],[80.50941,24.78938],[80.51098,24.78203],[80.51018,24.77657],[80.50742,24.77436],[80.49499,24.77975],[80.48784,24.77406],[80.48393,24.77372],[80.48125,24.77116],[80.48546,24.76769],[80.48659,24.76439],[80.48325,24.76116],[80.48075,24.76506],[80.47816,24.76476],[80.47753,24.75751],[80.47574,24.75644],[80.47143,24.76475],[80.45927,24.76081],[80.44057,24.74681],[80.43514,24.74938],[80.42903,24.75611],[80.42619,24.76227],[80.42215,24.76498],[80.41945,24.77247],[80.41522,24.77519],[80.41243,24.77419],[80.40921,24.75966],[80.40344,24.75705],[80.3966,24.74816],[80.39539,24.74397],[80.40169,24.72709],[80.40949,24.72616],[80.41002,24.72408],[80.40607,24.71867],[80.40612,24.71111],[80.40326,24.70908],[80.38787,24.71083],[80.38426,24.70881],[80.37945,24.70076],[80.36839,24.69067],[80.37145,24.68595],[80.37758,24.68027],[80.38343,24.67723],[80.38887,24.67138],[80.39733,24.65909],[80.40818,24.6513],[80.42309,24.63394],[80.4254,24.62624],[80.41976,24.61318],[80.42189,24.60969],[80.4324,24.61015],[80.43955,24.60912],[80.44604,24.6067],[80.45298,24.61131],[80.4654,24.61359],[80.47137,24.61355],[80.47233,24.61099],[80.46269,24.59289],[80.4641,24.58415],[80.45998,24.57234],[80.45852,24.5647],[80.46082,24.55273],[80.45352,24.54916],[80.44662,24.52904],[80.45076,24.52858],[80.45834,24.53116],[80.46179,24.53046],[80.467,24.52063],[80.46426,24.51843],[80.46312,24.51431],[80.45853,24.51097],[80.44838,24.51207],[80.44294,24.5102],[80.4399,24.50529],[80.43807,24.49812],[80.43682,24.48845],[80.43181,24.48559],[80.42898,24.48155],[80.42675,24.47651],[80.43334,24.47652],[80.4331,24.47047],[80.43071,24.4667],[80.42836,24.45112],[80.42518,24.44547],[80.42492,24.44178],[80.44447,24.43622],[80.45338,24.4393],[80.46216,24.4358],[80.46773,24.42793],[80.46889,24.42273],[80.46368,24.42298],[80.46348,24.41889],[80.46868,24.41875],[80.4729,24.41569],[80.47008,24.3925],[80.47236,24.38681],[80.4721,24.37639],[80.48206,24.37213],[80.49313,24.37021],[80.49842,24.37474],[80.50316,24.37328],[80.50692,24.36929],[80.50888,24.36389],[80.51327,24.36059],[80.51527,24.3571],[80.51234,24.35138],[80.51357,24.34641],[80.51715,24.34283],[80.52259,24.34234],[80.53203,24.34408],[80.53449,24.34156],[80.53366,24.33713],[80.53813,24.32853],[80.54097,24.31978],[80.54906,24.31618],[80.55519,24.31538],[80.55827,24.31285],[80.5582,24.30922],[80.57577,24.30344],[80.57884,24.29958],[80.57456,24.29332],[80.56909,24.28823],[80.56675,24.28106],[80.56528,24.2729],[80.56578,24.26713],[80.57845,24.26425],[80.58504,24.26114],[80.58959,24.25651],[80.5904,24.25275],[80.58694,24.24941],[80.5734,24.2489],[80.57363,24.24463],[80.58195,24.24437],[80.5892,24.24009],[80.59255,24.23519],[80.595,24.21918],[80.59895,24.21271],[80.60189,24.20949],[80.6089,24.2062],[80.6124,24.2026],[80.61675,24.2008],[80.6238,24.19935],[80.62546,24.19828],[80.62423,24.19393],[80.62191,24.19034],[80.62269,24.18871],[80.62221,24.18405],[80.62647,24.18674],[80.62866,24.19258],[80.63215,24.1981],[80.63973,24.19849],[80.64238,24.19355],[80.64534,24.19107],[80.64947,24.19095],[80.6585,24.19458],[80.67091,24.19798],[80.67662,24.19869],[80.67717,24.19292],[80.67274,24.19271],[80.66718,24.19368],[80.66564,24.18887],[80.66286,24.18788],[80.65626,24.18932],[80.65449,24.1859],[80.6546,24.17679],[80.651,24.17484],[80.64883,24.18162],[80.63899,24.18433],[80.63435,24.18349],[80.63423,24.17796],[80.62928,24.17477],[80.62185,24.1726],[80.62193,24.16747],[80.62628,24.16018],[80.62332,24.15914],[80.61312,24.16848],[80.61125,24.1684],[80.61456,24.16258],[80.61421,24.16075],[80.60887,24.15975],[80.60136,24.15343],[80.60856,24.15054],[80.60869,24.14835],[80.60393,24.14474],[80.60017,24.13876],[80.59508,24.13448],[80.58734,24.13213],[80.5817,24.13131],[80.5814,24.12579],[80.57909,24.12318],[80.57012,24.12195],[80.56075,24.12188],[80.55922,24.1173],[80.56205,24.11184],[80.5498,24.10618],[80.54523,24.10286],[80.54159,24.09583],[80.53444,24.09434],[80.52757,24.08818],[80.51142,24.07726],[80.48371,24.069],[80.47551,24.07209],[80.46789,24.07597],[80.45772,24.08721],[80.44616,24.09166],[80.4445,24.08933],[80.44469,24.08622],[80.44705,24.07833],[80.44806,24.06932],[80.44502,24.05376],[80.44386,24.03519],[80.43923,24.0326],[80.41888,24.03416],[80.41073,24.03652],[80.40249,24.03772],[80.38762,24.04145],[80.38597,24.03773],[80.39165,24.03005],[80.39483,24.02321],[80.3911,24.01641],[80.38953,24.00957],[80.39072,24.00037],[80.38549,23.99635],[80.3763,23.9916],[80.37013,23.98668],[80.36603,23.98494],[80.36088,23.97927],[80.35736,23.97651],[80.35517,23.97242],[80.35573,23.96984],[80.35765,23.96701],[80.35346,23.96169],[80.3537,23.95137],[80.35225,23.9471],[80.34944,23.94344],[80.34077,23.93566],[80.32603,23.93254],[80.32255,23.93082],[80.32266,23.92741],[80.33284,23.91512],[80.32973,23.91187],[80.32634,23.91139],[80.30988,23.9135],[80.30351,23.9152],[80.29753,23.91886],[80.29313,23.92573],[80.28857,23.9281],[80.28148,23.92721],[80.27226,23.92923],[80.26676,23.93282],[80.26151,23.94058],[80.25691,23.94046],[80.24468,23.94215],[80.24171,23.94364],[80.2387,23.94661],[80.2324,23.94807],[80.22805,23.95042],[80.22028,23.9598],[80.21233,23.96356],[80.21022,23.9676],[80.20949,23.97141],[80.2103,23.97578],[80.21231,23.97785],[80.21566,23.97876],[80.21779,23.97817],[80.22246,23.97381],[80.22589,23.9672],[80.22825,23.96569],[80.23175,23.97115],[80.23584,23.97528],[80.23181,23.97924],[80.2257,23.98703],[80.2215,23.98421],[80.21867,23.9848],[80.21591,23.9866],[80.21366,23.98973],[80.21036,23.99295],[80.20642,23.99542],[80.17524,24.00047],[80.17486,23.99599],[80.1698,23.97241],[80.16689,23.96619],[80.16523,23.96003],[80.15974,23.95391],[80.158,23.95059],[80.15685,23.94404],[80.155,23.94233],[80.15016,23.9406],[80.14741,23.94086],[80.1347,23.94824],[80.13216,23.95075],[80.11934,23.95345],[80.11792,23.95502],[80.12001,23.9624],[80.1184,23.96877],[80.11681,23.97174],[80.10799,23.98006],[80.10166,23.9836],[80.09528,23.98414],[80.09062,23.98221],[80.08404,23.97664],[80.07362,23.98348],[80.06492,23.98791],[80.06015,23.99291],[80.05705,23.99326],[80.0536,23.99291],[80.04624,23.99039],[80.04193,23.98641],[80.03994,23.98285],[80.03608,23.98159],[80.02642,23.98126],[80.02141,23.98005],[80.01614,23.97721],[80.01521,23.9758],[80.01736,23.96736],[80.01759,23.96243],[80.01625,23.95909],[80.01494,23.95738],[80.00964,23.95642],[80.00879,23.95552],[80.00584,23.94803],[80.00012,23.93492],[79.99662,23.93199],[79.99575,23.93042],[79.99483,23.92451],[79.99545,23.91758],[79.99507,23.91466],[79.99388,23.91026],[79.99159,23.90599],[79.98943,23.90231],[79.98811,23.89708],[79.9839,23.88947],[79.98208,23.88738],[79.97654,23.88002],[79.9729,23.87775],[79.96926,23.87529],[79.97146,23.87137],[79.97235,23.86945],[79.97146,23.86646],[79.97114,23.86238],[79.96713,23.86028],[79.96485,23.85751],[79.96184,23.85332],[79.95714,23.85113],[79.95306,23.8491],[79.95061,23.84511],[79.94889,23.84169],[79.94611,23.83703],[79.94371,23.83206],[79.94181,23.82905],[79.94121,23.82862],[79.93939,23.82855],[79.93587,23.82824],[79.93021,23.82752],[79.92174,23.82732],[79.91611,23.82602],[79.9118,23.82203],[79.90621,23.81951],[79.90205,23.81932],[79.89236,23.8224],[79.87988,23.82662],[79.87317,23.82859],[79.86622,23.82881],[79.86546,23.83135],[79.86332,23.83349],[79.8611,23.83695],[79.85938,23.84045],[79.85774,23.84436],[79.85668,23.85114],[79.8579,23.85845],[79.86258,23.86186],[79.86446,23.8639],[79.86536,23.86913],[79.86529,23.87312],[79.86648,23.87978],[79.86806,23.88431],[79.87062,23.89019],[79.87066,23.89401],[79.87096,23.89787],[79.87059,23.90227],[79.86782,23.90845],[79.86522,23.91216],[79.8614,23.91444],[79.85716,23.91767],[79.85433,23.92004],[79.85177,23.92461],[79.84769,23.92466],[79.84487,23.92496],[79.84029,23.92934],[79.83883,23.93313],[79.83906,23.93676],[79.83917,23.94352],[79.83988,23.94823],[79.84195,23.95275],[79.84451,23.95707],[79.84742,23.96046],[79.85242,23.96907],[79.85126,23.97279],[79.85234,23.97588],[79.85475,23.97911],[79.85627,23.98231],[79.85782,23.98615],[79.85696,23.99188],[79.85554,23.99313],[79.85461,23.99363],[79.85153,23.99471],[79.84515,23.99656],[79.84095,24.00008],[79.83817,24.00414],[79.84149,24.00588],[79.84582,24.00655],[79.84701,24.00885],[79.84731,24.01286],[79.84538,24.02176],[79.84144,24.0244],[79.8365,24.02506],[79.82657,24.0277],[79.8245,24.02933],[79.8207,24.02806],[79.81433,24.02723],[79.80777,24.02844],[79.7974,24.02891],[79.78807,24.03091],[79.78453,24.03496],[79.77171,24.04057],[79.76823,24.03715],[79.76687,24.03455],[79.76174,24.03282],[79.75848,24.03452],[79.75677,24.03745],[79.7567,24.048],[79.75554,24.05308],[79.7526,24.05288],[79.74871,24.04419],[79.74538,24.04428],[79.74367,24.04658],[79.7417,24.05204],[79.73923,24.05485],[79.738,24.06125],[79.74006,24.07167],[79.74563,24.07362],[79.75312,24.07101],[79.75744,24.07133],[79.762,24.0727],[79.76393,24.07491],[79.76454,24.07908],[79.76245,24.09142],[79.76458,24.10046],[79.77075,24.10949],[79.78313,24.11399],[79.78681,24.11767],[79.78508,24.12697],[79.78541,24.13231],[79.78986,24.13356],[79.7942,24.13372],[79.79739,24.13491],[79.79544,24.14526],[79.7958,24.14932],[79.80862,24.15589],[79.81251,24.15889],[79.81335,24.16336],[79.81167,24.17128],[79.81305,24.18388],[79.81283,24.18979],[79.81348,24.19478],[79.81572,24.1998],[79.81979,24.20125],[79.82457,24.20183],[79.83249,24.20136],[79.83469,24.20273],[79.84247,24.21613],[79.84376,24.22061],[79.84342,24.22554],[79.83978,24.23377],[79.84634,24.2409],[79.84645,24.24386],[79.845,24.24678],[79.83974,24.25226],[79.83193,24.25658],[79.82186,24.25868],[79.80955,24.26529],[79.80846,24.26921],[79.8117,24.27521],[79.81186,24.27885],[79.81385,24.28356],[79.8197,24.28406],[79.82927,24.28124],[79.84441,24.28445],[79.85617,24.29523],[79.85874,24.29858],[79.85778,24.30122],[79.85373,24.30586],[79.83604,24.31955],[79.82728,24.32157],[79.82288,24.32132],[79.80862,24.31732],[79.80453,24.31684],[79.8057,24.32009],[79.81253,24.32585],[79.81651,24.33415],[79.81926,24.33708],[79.82144,24.34132],[79.8221,24.34627],[79.81969,24.34944],[79.81352,24.35197],[79.80623,24.36023],[79.80267,24.36567],[79.79736,24.37289],[79.79966,24.37346],[79.80477,24.38176],[79.80985,24.38513],[79.81444,24.38573],[79.81804,24.38475],[79.82378,24.3844],[79.82604,24.38352],[79.83175,24.37737],[79.84159,24.37394],[79.84237,24.36896],[79.84179,24.36011],[79.84239,24.35427],[79.84592,24.35163],[79.85545,24.34945],[79.8596,24.35009],[79.87348,24.3687],[79.88195,24.37289],[79.88352,24.37434],[79.88342,24.38043],[79.88186,24.39029],[79.87955,24.3983],[79.87894,24.40515],[79.87262,24.41788],[79.86883,24.43658],[79.86843,24.45188],[79.8686,24.45384],[79.86814,24.45785],[79.86902,24.46037],[79.87297,24.46554],[79.88171,24.47259],[79.88308,24.47655],[79.8796,24.48268],[79.87123,24.49269],[79.86777,24.50709],[79.86965,24.51049],[79.87291,24.51266],[79.87908,24.51606],[79.88291,24.51671],[79.88392,24.51786],[79.88436,24.52019],[79.88476,24.52621],[79.8836,24.5333],[79.88111,24.53744],[79.8763,24.54234],[79.87356,24.54825],[79.87318,24.55921],[79.87497,24.567],[79.87684,24.57061],[79.87943,24.5728],[79.88262,24.57284],[79.88813,24.56997],[79.89715,24.57096],[79.90288,24.57312],[79.90174,24.57426],[79.89921,24.57481],[79.88962,24.5757],[79.88852,24.57906],[79.89044,24.58697],[79.88961,24.59119],[79.88582,24.59179],[79.88039,24.59037],[79.87035,24.58279],[79.86669,24.58138],[79.86241,24.58112],[79.85962,24.58281],[79.85833,24.5891],[79.85617,24.59091],[79.84765,24.59284],[79.84499,24.59436],[79.84447,24.59694],[79.84596,24.6013],[79.8466,24.61248],[79.84947,24.61513],[79.85948,24.62118],[79.86148,24.62371],[79.86315,24.63054],[79.86457,24.63473],[79.87154,24.64016],[79.87537,24.64639],[79.8773,24.65144],[79.87931,24.66394],[79.8856,24.68042],[79.88843,24.68554],[79.89082,24.68819],[79.89729,24.69304],[79.9012,24.69427],[79.90486,24.69446],[79.91561,24.69252],[79.9279,24.68748],[79.9298,24.68394],[79.93078,24.67617],[79.93206,24.67337],[79.93727,24.66551],[79.94285,24.65964],[79.94703,24.65634],[79.9524,24.65437],[79.95978,24.65664],[79.96438,24.66088],[79.97183,24.6697],[79.97671,24.6767],[79.98173,24.67994],[79.98535,24.68368],[79.98805,24.6882],[79.99044,24.6967],[79.99223,24.71173],[79.99603,24.72037],[79.99773,24.72318],[80.00057,24.72601],[80.00701,24.73217],[80.01811,24.74626],[80.02631,24.75245],[80.03546,24.75769],[80.06451,24.78197],[80.07041,24.7877],[80.07797,24.79711],[80.08613,24.80923],[80.09299,24.82343],[80.0932,24.83212],[80.0908,24.84016],[80.08527,24.84593],[80.07477,24.85102],[80.06262,24.85924],[80.05787,24.86983],[80.05603,24.87746],[80.0492,24.88798],[80.04464,24.89912],[80.03528,24.90905],[80.03762,24.91383],[80.03542,24.91847],[80.03522,24.92172],[80.04542,24.92911],[80.05437,24.93806],[80.06893,24.93906],[80.08028,24.93935],[80.09301,24.93874],[80.10848,24.93981],[80.11572,24.93922],[80.13409,24.93303],[80.14086,24.93506],[80.15002,24.93632],[80.15256,24.94159],[80.15716,24.95761],[80.16215,24.96204],[80.19672,24.97214],[80.20426,24.97822],[80.21964,24.99314],[80.23032,24.99969],[80.23265,25.00058],[80.24302,25.01001],[80.25051,25.0146],[80.25368,25.01571],[80.25584,25.01794],[80.26771,25.02222],[80.2749,25.02604],[80.28647,25.01746],[80.28647,25.01746],[80.28701,25.01744],[80.29717,25.01695],[80.30695,25.01186],[80.32033,25.00215],[80.32074,25.00017],[80.32074,25.00017],[80.32209,24.99936],[80.32209,24.99936],[80.32259,24.99927],[80.3231,24.99919],[80.3231,24.99919],[80.3236,24.99912],[80.32411,24.99905],[80.32463,24.99899],[80.32514,24.99894],[80.32566,24.99889],[80.32617,24.99886],[80.32617,24.99886],[80.32668,24.99882],[80.3272,24.9988],[80.32771,24.99877],[80.32823,24.99876],[80.32874,24.99876],[80.32874,24.99876],[80.32926,24.99875],[80.32978,24.99876],[80.3303,24.99876],[80.33081,24.99879],[80.33133,24.99881],[80.33184,24.99884],[80.33237,24.99888],[80.33288,24.99892],[80.33391,24.99897],[80.33391,24.99897],[80.33537,25.00019],[80.33694,25.00129],[80.34598,25.01679],[80.35256,25.01533],[80.35594,25.01233],[80.35594,25.01233],[80.36058,25.01573],[80.36058,25.01573],[80.36306,25.02035],[80.36685,25.02193],[80.37583,25.02128],[80.37686,25.01971],[80.37723,25.01475],[80.37723,25.01475],[80.38083,25.00421],[80.38083,25.00421],[80.39019,25.00561],[80.39351,25.00733],[80.3954,25.00831],[80.39716,25.0108],[80.39106,25.01456],[80.38891,25.02353],[80.38891,25.02353],[80.38415,25.02386],[80.38037,25.02504],[80.37978,25.02861],[80.3809,25.03055],[80.38276,25.03246],[80.38634,25.03267],[80.38828,25.03459],[80.38845,25.03475],[80.38845,25.03475],[80.38822,25.03746],[80.3871,25.04024],[80.3871,25.04024],[80.38324,25.04148],[80.37555,25.04193],[80.37209,25.04356],[80.3743,25.04891],[80.37379,25.05358],[80.37527,25.05469],[80.38729,25.05179],[80.38729,25.05179],[80.39152,25.05751],[80.39152,25.05751],[80.39219,25.06118],[80.39445,25.06313],[80.3975,25.06405],[80.3975,25.06405],[80.40219,25.06786],[80.40612,25.06512],[80.40552,25.06146],[80.40552,25.06146],[80.41074,25.0568],[80.4133,25.05669],[80.41383,25.05759],[80.41483,25.0593],[80.41743,25.07023],[80.41798,25.07257],[80.43079,25.06717],[80.43256,25.06736],[80.43256,25.06736],[80.43757,25.0684],[80.43757,25.0684],[80.43924,25.0698],[80.43924,25.0698],[80.44037,25.07266],[80.441,25.07424],[80.44316,25.07683],[80.44879,25.07792]],[[80.44229,25.0042],[80.44101,25.00259],[80.43848,25.00165],[80.438,25.00015],[80.4408,24.99509],[80.44802,24.99631],[80.45118,25.00023],[80.45292,25.00206],[80.4564,25.00239],[80.45732,25.00409],[80.44947,25.0052],[80.44229,25.0042]]],[[[80.35401,25.06136],[80.35307,25.05437],[80.35017,25.05356],[80.34657,25.05433],[80.34007,25.05291],[80.33927,25.05523],[80.33506,25.05739],[80.33255,25.05485],[80.33176,25.05101],[80.31865,25.04749],[80.31865,25.04749],[80.31857,25.04742],[80.31448,25.04378],[80.31373,25.04361],[80.3114,25.0431],[80.30835,25.04402],[80.30328,25.05096],[80.30052,25.05274],[80.28956,25.05582],[80.28995,25.05899],[80.29563,25.06267],[80.30276,25.06488],[80.31281,25.07129],[80.31855,25.07773],[80.32124,25.08503],[80.32275,25.08983],[80.32131,25.09693],[80.33089,25.10241],[80.34643,25.11701],[80.3522,25.12067],[80.3556,25.12577],[80.35924,25.12535],[80.36196,25.1219],[80.3648,25.12011],[80.37372,25.11677],[80.37688,25.11114],[80.37335,25.10811],[80.3687,25.09971],[80.35274,25.09299],[80.35167,25.09151],[80.35005,25.08926],[80.34999,25.07892],[80.34777,25.07103],[80.34516,25.06712],[80.34814,25.0639],[80.35401,25.06136]]],[[[80.48756,25.05625],[80.48292,25.05557],[80.48036,25.0619],[80.47771,25.06665],[80.4801,25.07011],[80.48197,25.07208],[80.48539,25.07386],[80.48554,25.0729],[80.4901,25.06736],[80.49047,25.0651],[80.48993,25.05951],[80.48756,25.05625]]]]}}]}