{"type":"FeatureCollection","features":[{"type":"Feature","properties":{"id":"raisen","name":"Raisen","stateId":"madhya-pradesh","stateName":"Madhya Pradesh","censuscode":446,"type":"district"},"geometry":{"type":"Polygon","coordinates":[[[78.80742,23.23594],[78.80921,23.23405],[78.8096,23.23064],[78.81043,23.22902],[78.81192,23.22714],[78.81404,23.22433],[78.81506,23.22029],[78.81491,23.2167],[78.81366,23.21149],[78.81197,23.20801],[78.81004,23.20389],[78.80615,23.19789],[78.80526,23.19523],[78.80399,23.19169],[78.80263,23.18526],[78.80212,23.18104],[78.80244,23.17994],[78.80252,23.17764],[78.80292,23.17435],[78.80401,23.16991],[78.80428,23.1669],[78.8043,23.16586],[78.80247,23.16371],[78.80131,23.16271],[78.80128,23.15873],[78.80133,23.15318],[78.80217,23.14909],[78.7994,23.14848],[78.79672,23.14609],[78.79689,23.14088],[78.79764,23.13922],[78.79731,23.13575],[78.79592,23.13314],[78.7939,23.13127],[78.79117,23.12789],[78.79077,23.12494],[78.79086,23.12159],[78.79002,23.11851],[78.7911,23.11524],[78.79505,23.11423],[78.79781,23.11385],[78.80338,23.11056],[78.80334,23.10732],[78.80173,23.10234],[78.8003,23.09804],[78.79769,23.09392],[78.79636,23.09205],[78.7931,23.09162],[78.78936,23.09019],[78.78568,23.08999],[78.78063,23.09022],[78.7766,23.08747],[78.77533,23.08514],[78.76897,23.08167],[78.76715,23.07906],[78.76384,23.07752],[78.75779,23.08029],[78.75577,23.07958],[78.75814,23.07596],[78.75201,23.07399],[78.75128,23.07312],[78.75007,23.07103],[78.74916,23.07021],[78.74805,23.06997],[78.74332,23.07015],[78.74347,23.06697],[78.74497,23.06503],[78.74327,23.0624],[78.73966,23.0604],[78.73741,23.05819],[78.73686,23.05737],[78.73408,23.05312],[78.73166,23.04882],[78.72966,23.04643],[78.72629,23.04449],[78.72119,23.04334],[78.71751,23.04285],[78.71052,23.04132],[78.70525,23.04041],[78.70084,23.03914],[78.69729,23.03778],[78.69349,23.03664],[78.68802,23.03635],[78.68438,23.03718],[78.68259,23.03751],[78.67823,23.03764],[78.67448,23.03806],[78.66871,23.03806],[78.6629,23.03476],[78.66065,23.03237],[78.65802,23.03049],[78.65602,23.02856],[78.65199,23.02557],[78.64868,23.02432],[78.64661,23.0239],[78.64137,23.0243],[78.63719,23.02507],[78.63311,23.02687],[78.62923,23.0281],[78.62646,23.02865],[78.62311,23.03063],[78.61774,23.02838],[78.6123,23.02416],[78.60829,23.0199],[78.6047,23.01691],[78.60079,23.01496],[78.5959,23.01277],[78.59088,23.01139],[78.58621,23.01122],[78.57936,23.01386],[78.57321,23.01483],[78.56786,23.01536],[78.567,23.01563],[78.56275,23.01593],[78.55844,23.01617],[78.55181,23.0165],[78.54493,23.01654],[78.53898,23.0148],[78.53312,23.01272],[78.52686,23.01178],[78.51986,23.01188],[78.51569,23.01172],[78.50845,23.01072],[78.50189,23.00926],[78.49786,23.00812],[78.49375,23.00732],[78.48841,23.00732],[78.48213,23.0074],[78.47557,23.00697],[78.46924,23.00569],[78.46582,23.00497],[78.46362,23.00423],[78.46202,23.00197],[78.46039,22.99943],[78.45891,22.99795],[78.45702,22.99671],[78.45421,22.99476],[78.45075,22.99252],[78.44817,22.99083],[78.44563,22.98853],[78.44416,22.98659],[78.44233,22.98505],[78.43993,22.98264],[78.43747,22.98075],[78.4347,22.97883],[78.43049,22.97616],[78.42787,22.97448],[78.42407,22.97261],[78.41792,22.97081],[78.41305,22.9688],[78.4071,22.96693],[78.40338,22.96501],[78.39948,22.96341],[78.39649,22.96239],[78.39495,22.95941],[78.39349,22.95788],[78.39107,22.95518],[78.38942,22.95225],[78.38766,22.9488],[78.3859,22.94594],[78.38303,22.94329],[78.378,22.93951],[78.37513,22.93662],[78.37228,22.93391],[78.36869,22.93103],[78.3642,22.92783],[78.36199,22.92526],[78.35771,22.92213],[78.35302,22.91953],[78.3462,22.91791],[78.34078,22.91792],[78.33719,22.9183],[78.33116,22.91859],[78.32716,22.91833],[78.3253,22.91785],[78.32337,22.91685],[78.32176,22.9158],[78.31874,22.91304],[78.31601,22.91],[78.31272,22.90666],[78.30948,22.90321],[78.30725,22.90098],[78.30546,22.89937],[78.3034,22.89649],[78.30188,22.8938],[78.30004,22.89106],[78.29733,22.88737],[78.29565,22.88377],[78.29385,22.88033],[78.29061,22.87652],[78.28818,22.87343],[78.28484,22.87085],[78.28056,22.86849],[78.27474,22.86879],[78.27174,22.8709],[78.26938,22.87227],[78.26435,22.87425],[78.2597,22.87536],[78.25449,22.87445],[78.25192,22.87309],[78.24737,22.87114],[78.24412,22.86931],[78.23897,22.86706],[78.23395,22.86869],[78.23152,22.87053],[78.22916,22.87247],[78.22698,22.87443],[78.22528,22.87661],[78.22188,22.88133],[78.21881,22.88518],[78.21655,22.88795],[78.21385,22.8918],[78.21052,22.89229],[78.20756,22.89203],[78.20214,22.89239],[78.19841,22.89136],[78.19176,22.88718],[78.18821,22.88204],[78.1852,22.87703],[78.18432,22.87465],[78.18269,22.8722],[78.18051,22.86992],[78.17567,22.8686],[78.17206,22.8677],[78.16753,22.86597],[78.1624,22.86367],[78.15954,22.86197],[78.15597,22.85899],[78.15112,22.85444],[78.14664,22.85048],[78.14099,22.84738],[78.13691,22.84493],[78.13228,22.84025],[78.12904,22.83652],[78.12763,22.83376],[78.12662,22.82988],[78.12634,22.82565],[78.12621,22.82332],[78.12604,22.82053],[78.12617,22.81792],[78.12649,22.81473],[78.12652,22.81085],[78.12634,22.80841],[78.12629,22.80533],[78.12479,22.80174],[78.12232,22.79787],[78.11894,22.79357],[78.11586,22.79162],[78.11227,22.79053],[78.10954,22.79],[78.10628,22.78991],[78.1034,22.79012],[78.10095,22.79246],[78.09841,22.79329],[78.09531,22.79473],[78.09118,22.79747],[78.08806,22.79906],[78.08592,22.80084],[78.08416,22.80251],[78.07995,22.80549],[78.07669,22.80815],[78.07239,22.81114],[78.06898,22.81252],[78.06493,22.81315],[78.06072,22.81226],[78.05519,22.81093],[78.05078,22.80872],[78.04732,22.807],[78.04342,22.80455],[78.04068,22.80384],[78.0372,22.80254],[78.03331,22.80194],[78.02912,22.80277],[78.03073,22.80672],[78.03168,22.81007],[78.0305,22.81342],[78.03141,22.81605],[78.03192,22.81839],[78.03229,22.82085],[78.03097,22.82337],[78.02943,22.82457],[78.0279,22.82574],[78.02463,22.82835],[78.0232,22.8305],[78.02289,22.83287],[78.02471,22.83469],[78.02658,22.83654],[78.02955,22.8395],[78.03022,22.84207],[78.02762,22.84536],[78.02605,22.84885],[78.02508,22.85068],[78.02293,22.85284],[78.01884,22.85386],[78.01564,22.85392],[78.01266,22.85458],[78.0098,22.85546],[78.00927,22.85743],[78.01043,22.86076],[78.01202,22.86321],[78.01337,22.86586],[78.01467,22.86792],[78.01649,22.87128],[78.01809,22.87511],[78.01867,22.87813],[78.02001,22.88063],[78.02308,22.88085],[78.02523,22.88005],[78.02862,22.88227],[78.03052,22.88499],[78.03166,22.88822],[78.03221,22.89051],[78.03262,22.89372],[78.03278,22.89636],[78.03323,22.89823],[78.03368,22.90022],[78.03411,22.90325],[78.03386,22.90558],[78.034,22.90774],[78.03131,22.91117],[78.02903,22.91211],[78.02633,22.91264],[78.0245,22.9138],[78.02252,22.91591],[78.02137,22.91789],[78.02022,22.9197],[78.01901,22.9218],[78.01664,22.92373],[78.01413,22.92414],[78.01257,22.92776],[78.01015,22.92958],[78.00808,22.93006],[78.00573,22.93009],[78.00389,22.92945],[78.00048,22.92861],[77.99783,22.92772],[77.98563,22.91157],[77.9828,22.91183],[77.97952,22.90933],[77.97801,22.90838],[77.97392,22.90709],[77.96824,22.90461],[77.96162,22.90319],[77.95403,22.90253],[77.94883,22.90211],[77.94659,22.90534],[77.94923,22.90908],[77.95297,22.91461],[77.95419,22.91896],[77.95588,22.926],[77.95595,22.92992],[77.95993,22.93636],[77.96311,22.94024],[77.96552,22.94628],[77.96589,22.95107],[77.96592,22.95789],[77.96498,22.96115],[77.9596,22.96038],[77.95681,22.96038],[77.95186,22.96023],[77.9459,22.95994],[77.93947,22.95874],[77.93541,22.95783],[77.92893,22.95673],[77.9212,22.95552],[77.91454,22.95621],[77.91144,22.95651],[77.9028,22.95496],[77.8948,22.95328],[77.88798,22.95182],[77.88244,22.95048],[77.87468,22.94897],[77.87072,22.94761],[77.86628,22.94597],[77.86003,22.94423],[77.855,22.94223],[77.84386,22.93952],[77.84048,22.93647],[77.83698,22.93359],[77.83438,22.93136],[77.83185,22.93006],[77.82486,22.92657],[77.82174,22.92456],[77.81688,22.9196],[77.8128,22.91678],[77.80878,22.91351],[77.80208,22.90889],[77.79607,22.9063],[77.78847,22.90353],[77.78372,22.90071],[77.77794,22.8971],[77.76864,22.89745],[77.76348,22.90059],[77.75891,22.90235],[77.75394,22.90238],[77.74726,22.90032],[77.74158,22.89828],[77.73256,22.89569],[77.72727,22.89388],[77.72101,22.8916],[77.71424,22.88886],[77.7099,22.88659],[77.7046,22.88427],[77.69982,22.88309],[77.69468,22.87973],[77.68674,22.87619],[77.68437,22.87531],[77.6829,22.87254],[77.68097,22.86695],[77.67963,22.86447],[77.67474,22.85933],[77.67256,22.85483],[77.67434,22.85069],[77.67776,22.84752],[77.68188,22.8443],[77.68633,22.84241],[77.68992,22.84109],[77.69335,22.8403],[77.69491,22.83926],[77.69339,22.83522],[77.69219,22.83413],[77.68841,22.83516],[77.68407,22.83699],[77.67857,22.83969],[77.67215,22.8429],[77.66715,22.84248],[77.66318,22.84149],[77.65806,22.84028],[77.65199,22.83767],[77.64549,22.83795],[77.64424,22.83824],[77.64267,22.83817],[77.63764,22.83621],[77.63318,22.832],[77.62909,22.83072],[77.62656,22.83193],[77.62387,22.83457],[77.62284,22.83634],[77.61945,22.83831],[77.61658,22.84055],[77.61258,22.84348],[77.60693,22.84859],[77.60182,22.85198],[77.59802,22.85417],[77.59461,22.85739],[77.58648,22.86152],[77.58117,22.86709],[77.57602,22.86606],[77.57037,22.86784],[77.56563,22.87348],[77.56127,22.87486],[77.55826,22.8729],[77.55499,22.86795],[77.55167,22.86249],[77.54772,22.85468],[77.54673,22.85329],[77.54334,22.85024],[77.53947,22.84955],[77.53565,22.85042],[77.53261,22.85307],[77.5313,22.8594],[77.5327,22.86118],[77.53394,22.86313],[77.53378,22.86492],[77.53184,22.8667],[77.5287,22.86762],[77.52723,22.86803],[77.52395,22.86884],[77.52136,22.87046],[77.52179,22.87431],[77.52319,22.87834],[77.52428,22.88254],[77.52584,22.88662],[77.5273,22.89214],[77.52522,22.89301],[77.52245,22.89331],[77.51697,22.89384],[77.51219,22.89373],[77.50864,22.89317],[77.50512,22.89025],[77.50096,22.88796],[77.49763,22.88554],[77.49426,22.88447],[77.49086,22.88501],[77.48759,22.88664],[77.48455,22.88896],[77.48067,22.89194],[77.47905,22.89444],[77.47622,22.89879],[77.47287,22.9028],[77.46959,22.90589],[77.46618,22.90795],[77.46001,22.90992],[77.45083,22.91],[77.44526,22.90848],[77.44122,22.90608],[77.43612,22.90608],[77.4352,22.90677],[77.43256,22.90867],[77.43192,22.91131],[77.43433,22.91354],[77.43615,22.91619],[77.43793,22.91985],[77.43816,22.92408],[77.43626,22.92676],[77.43413,22.92991],[77.43387,22.93271],[77.43606,22.9365],[77.43825,22.93936],[77.43801,22.94356],[77.43575,22.94675],[77.43228,22.94872],[77.42864,22.95204],[77.43119,22.9551],[77.4309,22.95769],[77.43006,22.95811],[77.42763,22.95796],[77.42387,22.96116],[77.4224,22.96452],[77.41839,22.9672],[77.41374,22.96608],[77.41068,22.9643],[77.40675,22.96258],[77.40362,22.96183],[77.40269,22.96148],[77.40272,22.96205],[77.40227,22.9627],[77.40218,22.96357],[77.40108,22.96728],[77.39958,22.97117],[77.39914,22.97337],[77.39779,22.9747],[77.39604,22.97674],[77.38887,22.98112],[77.37786,22.98641],[77.37187,22.99137],[77.36755,22.99658],[77.36685,22.99752],[77.36512,23.00128],[77.37544,23.01988],[77.36943,23.04038],[77.3614,23.05653],[77.36334,23.05769],[77.37031,23.06189],[77.37139,23.06764],[77.37206,23.0732],[77.37345,23.07927],[77.3745,23.08412],[77.38339,23.08939],[77.39026,23.0914],[77.39603,23.09081],[77.4033,23.09084],[77.40774,23.0972],[77.41733,23.09423],[77.42114,23.09538],[77.43806,23.09629],[77.44344,23.09356],[77.44678,23.0938],[77.45398,23.09263],[77.45785,23.09426],[77.46066,23.0943],[77.46252,23.09728],[77.4661,23.09995],[77.47322,23.0999],[77.48025,23.10341],[77.4837,23.10143],[77.48765,23.10089],[77.49757,23.10283],[77.50227,23.1053],[77.50615,23.10623],[77.51756,23.12196],[77.5206,23.1234],[77.53368,23.12418],[77.5434,23.12786],[77.5444,23.13039],[77.54501,23.13704],[77.5474,23.14106],[77.55635,23.14484],[77.56355,23.14413],[77.5679,23.14459],[77.57321,23.15774],[77.57398,23.16214],[77.57005,23.16295],[77.56904,23.16428],[77.56926,23.16754],[77.56581,23.17344],[77.56648,23.17991],[77.56839,23.18156],[77.57211,23.18279],[77.58585,23.18626],[77.58709,23.18814],[77.58653,23.19168],[77.58093,23.19549],[77.58074,23.19862],[77.58168,23.20216],[77.58607,23.20367],[77.59001,23.20764],[77.59683,23.22702],[77.60039,23.22915],[77.60017,23.23195],[77.5981,23.23573],[77.59871,23.24456],[77.59314,23.2552],[77.59549,23.26877],[77.59615,23.27306],[77.59192,23.27592],[77.58925,23.28061],[77.5854,23.28301],[77.58461,23.28483],[77.58556,23.28765],[77.58887,23.29053],[77.59115,23.29626],[77.58988,23.2993],[77.59071,23.30284],[77.59297,23.30581],[77.59687,23.30799],[77.61014,23.3206],[77.62559,23.32909],[77.62836,23.33385],[77.62777,23.33692],[77.62441,23.34016],[77.62725,23.34645],[77.62974,23.34838],[77.62801,23.35419],[77.61858,23.35545],[77.60147,23.35481],[77.59226,23.35288],[77.58325,23.35333],[77.58311,23.35736],[77.58464,23.36272],[77.58054,23.36551],[77.57693,23.36954],[77.5755,23.37388],[77.56083,23.37624],[77.5585,23.37827],[77.55821,23.3802],[77.56001,23.38759],[77.55941,23.38918],[77.55372,23.38867],[77.55144,23.38922],[77.55029,23.39134],[77.55122,23.40395],[77.5536,23.40775],[77.55949,23.41116],[77.56168,23.41355],[77.56051,23.41992],[77.55894,23.4238],[77.5531,23.42663],[77.5431,23.42766],[77.52723,23.42711],[77.5188,23.42381],[77.51538,23.41458],[77.51413,23.41313],[77.511,23.41448],[77.5069,23.41972],[77.50455,23.42531],[77.49228,23.42717],[77.49335,23.43695],[77.49869,23.44723],[77.49842,23.45086],[77.49654,23.4556],[77.49769,23.45954],[77.5012,23.46406],[77.49983,23.46918],[77.50363,23.47353],[77.50497,23.47759],[77.5052,23.4824],[77.50852,23.48715],[77.50574,23.49456],[77.50606,23.49626],[77.50944,23.49926],[77.51534,23.50249],[77.51547,23.51071],[77.51693,23.51407],[77.52196,23.51761],[77.52435,23.5034],[77.52866,23.50204],[77.53391,23.502],[77.54476,23.49826],[77.55205,23.49808],[77.56,23.50178],[77.56582,23.50281],[77.56816,23.50142],[77.56903,23.49519],[77.57131,23.48855],[77.58182,23.48829],[77.60054,23.48627],[77.60675,23.47632],[77.62137,23.46599],[77.62561,23.46382],[77.62798,23.46482],[77.63159,23.46854],[77.63394,23.46807],[77.63973,23.47093],[77.64453,23.47515],[77.65104,23.47817],[77.65194,23.48111],[77.65179,23.49093],[77.64884,23.4927],[77.65191,23.49727],[77.65258,23.50183],[77.64827,23.5106],[77.63083,23.52318],[77.62844,23.52585],[77.62648,23.53337],[77.62674,23.54206],[77.62907,23.54645],[77.6349,23.54753],[77.64082,23.54625],[77.64381,23.54075],[77.64873,23.53892],[77.65431,23.53844],[77.65888,23.53209],[77.66313,23.53055],[77.66502,23.52754],[77.66497,23.52253],[77.67266,23.51793],[77.67922,23.51723],[77.68287,23.51835],[77.6884,23.52683],[77.69302,23.53144],[77.70233,23.52776],[77.70329,23.52523],[77.70354,23.51881],[77.70614,23.51971],[77.71017,23.5196],[77.7165,23.52134],[77.7225,23.52151],[77.72518,23.5283],[77.72713,23.53212],[77.73025,23.53426],[77.73488,23.53454],[77.73753,23.5324],[77.742,23.52693],[77.74807,23.52297],[77.75892,23.52345],[77.7628,23.52169],[77.76531,23.51868],[77.7639,23.51443],[77.76032,23.5087],[77.76085,23.50669],[77.76851,23.50329],[77.77619,23.49816],[77.77845,23.4891],[77.78283,23.48687],[77.78883,23.48545],[77.79515,23.48027],[77.80106,23.47688],[77.81126,23.46128],[77.81546,23.45873],[77.82077,23.45723],[77.8383,23.45529],[77.84053,23.4535],[77.84287,23.44653],[77.85377,23.44442],[77.86605,23.44322],[77.87441,23.44124],[77.87851,23.44201],[77.88377,23.44828],[77.88757,23.44927],[77.89165,23.44856],[77.90383,23.4532],[77.91532,23.45227],[77.91722,23.44997],[77.91688,23.4467],[77.91908,23.44335],[77.92825,23.43668],[77.93042,23.43277],[77.93147,23.42885],[77.93383,23.42579],[77.93764,23.42351],[77.94645,23.41978],[77.95776,23.41482],[77.96076,23.41221],[77.9587,23.40767],[77.95932,23.40029],[77.95742,23.39567],[77.95715,23.38754],[77.95915,23.38258],[77.96076,23.37241],[77.97662,23.36522],[77.99939,23.36234],[78.0025,23.36232],[78.00436,23.3607],[78.005,23.36004],[78.00533,23.35936],[78.00587,23.35726],[78.00654,23.35488],[78.00696,23.35281],[78.00793,23.35052],[78.01109,23.35043],[78.01388,23.34976],[78.01609,23.34802],[78.01893,23.34574],[78.02222,23.345],[78.02419,23.3493],[78.02874,23.351],[78.03154,23.35439],[78.03319,23.35631],[78.03661,23.3604],[78.0382,23.36234],[78.04177,23.36373],[78.04559,23.36431],[78.05026,23.36756],[78.05097,23.36953],[78.05136,23.37244],[78.0525,23.37616],[78.05449,23.37929],[78.05528,23.38092],[78.05709,23.38411],[78.05651,23.38629],[78.05401,23.38897],[78.05135,23.39115],[78.04905,23.39399],[78.04882,23.3979],[78.0483,23.40134],[78.04262,23.4018],[78.03952,23.40192],[78.03708,23.40201],[78.03353,23.40329],[78.03135,23.40407],[78.02856,23.40627],[78.02282,23.40878],[78.01968,23.40953],[78.01479,23.40959],[78.01153,23.41077],[78.00852,23.41221],[78.005,23.4136],[78.00298,23.41491],[78.00073,23.41616],[77.99832,23.4189],[77.99414,23.41488],[77.99259,23.42649],[77.99261,23.438],[77.99792,23.46239],[78.00085,23.46617],[78.00339,23.46704],[78.00597,23.46846],[78.00776,23.47028],[78.01178,23.47247],[78.01509,23.47372],[78.01973,23.47164],[78.02336,23.47183],[78.02523,23.47211],[78.02967,23.47089],[78.03302,23.47009],[78.034,23.46983],[78.03874,23.46928],[78.04179,23.46858],[78.04457,23.46644],[78.04811,23.46251],[78.05072,23.46022],[78.05314,23.45787],[78.05693,23.4576],[78.05965,23.45693],[78.06308,23.45691],[78.06418,23.45667],[78.06541,23.45679],[78.0677,23.45556],[78.06992,23.45481],[78.07172,23.45377],[78.07475,23.45267],[78.07722,23.4521],[78.0797,23.45136],[78.08013,23.45125],[78.08204,23.45044],[78.08592,23.4503],[78.08836,23.45184],[78.08964,23.4533],[78.0926,23.45688],[78.09578,23.45813],[78.09868,23.45835],[78.10218,23.45916],[78.10419,23.46134],[78.10447,23.46314],[78.10396,23.4647],[78.10317,23.46673],[78.10672,23.46894],[78.10893,23.46978],[78.11144,23.47093],[78.11557,23.47092],[78.11811,23.47102],[78.12081,23.47199],[78.12479,23.47368],[78.12817,23.4749],[78.13101,23.47512],[78.13261,23.47496],[78.13657,23.4741],[78.14022,23.47357],[78.14369,23.47311],[78.14584,23.47366],[78.14854,23.47475],[78.14554,23.47744],[78.14485,23.47743],[78.1425,23.47855],[78.14038,23.47969],[78.13908,23.48013],[78.13758,23.48103],[78.13621,23.48206],[78.13478,23.48349],[78.13456,23.48459],[78.13455,23.48599],[78.13464,23.48809],[78.13441,23.49058],[78.13393,23.49395],[78.1332,23.49702],[78.13361,23.49901],[78.13295,23.50179],[78.13204,23.50521],[78.131,23.50869],[78.13114,23.51201],[78.13155,23.51323],[78.13263,23.51487],[78.1341,23.51641],[78.13758,23.51832],[78.14056,23.51761],[78.14346,23.51787],[78.14754,23.51828],[78.15154,23.51869],[78.15412,23.51937],[78.1578,23.5211],[78.16104,23.5233],[78.16343,23.52472],[78.16489,23.52597],[78.16668,23.5264],[78.1684,23.52654],[78.17101,23.52564],[78.17372,23.52579],[78.17732,23.5248],[78.17948,23.52541],[78.18125,23.52636],[78.18345,23.52837],[78.1855,23.53094],[78.18757,23.53289],[78.1883,23.53395],[78.19031,23.53612],[78.19238,23.53836],[78.19488,23.54066],[78.19585,23.53758],[78.19718,23.53552],[78.19992,23.53329],[78.20471,23.53057],[78.20669,23.53071],[78.2085,23.52894],[78.21057,23.52664],[78.21202,23.52504],[78.21437,23.52477],[78.21621,23.52532],[78.22159,23.52875],[78.22451,23.53303],[78.22557,23.53646],[78.22434,23.54004],[78.22352,23.54195],[78.22465,23.5444],[78.22685,23.54547],[78.23097,23.54651],[78.23102,23.54738],[78.23099,23.54911],[78.2299,23.55158],[78.22927,23.55296],[78.22815,23.55382],[78.22658,23.55547],[78.22563,23.55737],[78.22616,23.55968],[78.22744,23.56063],[78.22922,23.56094],[78.23121,23.56074],[78.23368,23.56065],[78.23614,23.56126],[78.23932,23.5631],[78.24077,23.56538],[78.24159,23.56821],[78.24343,23.56981],[78.24365,23.57154],[78.24319,23.5731],[78.24229,23.57597],[78.24213,23.57834],[78.24198,23.58083],[78.24637,23.58418],[78.25337,23.58722],[78.25747,23.59023],[78.26379,23.59256],[78.26838,23.59598],[78.2702,23.59855],[78.27175,23.60267],[78.27485,23.60636],[78.27695,23.61061],[78.27697,23.61413],[78.27693,23.61691],[78.277,23.62049],[78.27588,23.62539],[78.27573,23.62805],[78.27687,23.63055],[78.27812,23.63432],[78.27842,23.63508],[78.27974,23.63787],[78.28082,23.64025],[78.28188,23.64333],[78.2827,23.64676],[78.28309,23.64999],[78.28336,23.65307],[78.28506,23.65523],[78.2881,23.65862],[78.29003,23.66228],[78.29092,23.66496],[78.29084,23.66686],[78.2905,23.66842],[78.2917,23.67139],[78.29269,23.67371],[78.29644,23.67586],[78.30038,23.67787],[78.29767,23.68079],[78.29609,23.68453],[78.29449,23.68833],[78.2916,23.69125],[78.28952,23.69481],[78.29025,23.6986],[78.29347,23.69649],[78.29692,23.69396],[78.30104,23.69265],[78.30548,23.69267],[78.30901,23.69058],[78.31234,23.68803],[78.31638,23.68879],[78.3197,23.69146],[78.32386,23.69218],[78.3273,23.68977],[78.329,23.68627],[78.32935,23.68228],[78.33271,23.67972],[78.33659,23.67785],[78.33918,23.67494],[78.33775,23.67128],[78.33544,23.66794],[78.3362,23.66393],[78.33795,23.66019],[78.34139,23.65801],[78.34569,23.65718],[78.34986,23.65583],[78.35394,23.65428],[78.35765,23.65206],[78.36166,23.65038],[78.36598,23.64949],[78.37029,23.65014],[78.37392,23.6524],[78.3772,23.65376],[78.38084,23.65137],[78.38419,23.64877],[78.38584,23.64548],[78.38615,23.64148],[78.38822,23.63787],[78.39102,23.63473],[78.39472,23.63249],[78.39868,23.63241],[78.40226,23.63489],[78.40628,23.63654],[78.41025,23.63829],[78.41361,23.64102],[78.41534,23.64456],[78.41357,23.64829],[78.41097,23.65157],[78.40855,23.65496],[78.40563,23.65801],[78.40264,23.66098],[78.40012,23.66435],[78.39881,23.66819],[78.39794,23.67218],[78.39821,23.676],[78.40251,23.67485],[78.40611,23.67294],[78.40942,23.67036],[78.41383,23.67053],[78.41816,23.6713],[78.42237,23.67258],[78.42652,23.67398],[78.42917,23.67689],[78.42753,23.68039],[78.42356,23.68217],[78.4195,23.68376],[78.41539,23.68527],[78.4111,23.68619],[78.41006,23.68889],[78.40959,23.6929],[78.40831,23.69681],[78.40943,23.70013],[78.41275,23.70282],[78.41584,23.70573],[78.4192,23.70837],[78.42292,23.71055],[78.42658,23.71286],[78.42982,23.71553],[78.42872,23.71906],[78.42494,23.72113],[78.42053,23.72181],[78.41744,23.72414],[78.41511,23.7276],[78.41282,23.73093],[78.40873,23.73237],[78.40432,23.73236],[78.40034,23.73092],[78.40031,23.72683],[78.40047,23.72275],[78.40016,23.71869],[78.39835,23.71499],[78.39513,23.71242],[78.39066,23.71213],[78.38626,23.71195],[78.38263,23.71005],[78.38275,23.70596],[78.38231,23.70192],[78.38049,23.6982],[78.37873,23.6945],[78.37793,23.69043],[78.37532,23.68726],[78.37268,23.68401],[78.36937,23.6813],[78.36633,23.67835],[78.36281,23.67589],[78.35994,23.67279],[78.35566,23.67259],[78.35152,23.67394],[78.34795,23.67618],[78.34612,23.67954],[78.34881,23.68265],[78.35175,23.68567],[78.3553,23.6881],[78.3586,23.69088],[78.3583,23.69484],[78.35648,23.69856],[78.35519,23.70244],[78.35605,23.70642],[78.35795,23.71011],[78.35979,23.71383],[78.36374,23.71562],[78.3673,23.71775],[78.36902,23.72154],[78.3686,23.72568],[78.37154,23.72742],[78.37593,23.72792],[78.38042,23.72809],[78.38284,23.73054],[78.38276,23.73474],[78.38515,23.73665],[78.38964,23.73668],[78.39375,23.73784],[78.39688,23.74076],[78.40045,23.74234],[78.4048,23.74163],[78.40871,23.74381],[78.41103,23.74089],[78.41503,23.73911],[78.41897,23.73772],[78.42247,23.74022],[78.42539,23.74329],[78.42936,23.74502],[78.43344,23.74448],[78.43469,23.74053],[78.43502,23.73646],[78.43536,23.7324],[78.43612,23.72839],[78.43858,23.72511],[78.44058,23.72177],[78.44212,23.71808],[78.4444,23.71455],[78.44539,23.71063],[78.44492,23.70656],[78.44393,23.70259],[78.444,23.69852],[78.44559,23.69472],[78.44763,23.69106],[78.45168,23.68974],[78.45541,23.68768],[78.45774,23.68426],[78.46062,23.68129],[78.46315,23.67795],[78.46713,23.67686],[78.46862,23.67302],[78.46878,23.66898],[78.46738,23.66512],[78.46632,23.66118],[78.46752,23.65734],[78.46968,23.65379],[78.46758,23.65028],[78.46649,23.64635],[78.46892,23.64315],[78.47096,23.64661],[78.47342,23.64642],[78.47564,23.64285],[78.47808,23.6395],[78.48191,23.63745],[78.48554,23.63792],[78.48486,23.642],[78.48853,23.64422],[78.4927,23.64551],[78.49704,23.64626],[78.50134,23.64725],[78.50489,23.64958],[78.50688,23.65316],[78.50987,23.65613],[78.51358,23.6573],[78.51464,23.65327],[78.51471,23.64912],[78.5129,23.64546],[78.51073,23.64191],[78.50893,23.63819],[78.50829,23.63415],[78.50833,23.63015],[78.51043,23.62666],[78.51359,23.62384],[78.51338,23.61995],[78.51362,23.61599],[78.51483,23.61202],[78.51275,23.60866],[78.51091,23.60501],[78.50998,23.60103],[78.50837,23.59729],[78.50523,23.5944],[78.50234,23.5913],[78.50027,23.58771],[78.5003,23.58386],[78.50188,23.58002],[78.50203,23.576],[78.50294,23.57205],[78.50489,23.56838],[78.50553,23.56444],[78.50529,23.5604],[78.50604,23.55639],[78.5047,23.55252],[78.5026,23.54894],[78.50077,23.54523],[78.49994,23.54123],[78.49993,23.53717],[78.50376,23.53193],[78.50683,23.53488],[78.51076,23.53606],[78.5138,23.53844],[78.51539,23.54226],[78.5163,23.54624],[78.51727,23.55032],[78.52065,23.55246],[78.52501,23.55304],[78.52918,23.55168],[78.53348,23.55056],[78.53612,23.55315],[78.5369,23.55718],[78.5373,23.56146],[78.5406,23.56015],[78.54406,23.55879],[78.54811,23.56021],[78.55238,23.56047],[78.55649,23.56042],[78.55984,23.56309],[78.5637,23.56505],[78.56787,23.56615],[78.57091,23.56386],[78.57208,23.55993],[78.57318,23.55598],[78.57553,23.55255],[78.57953,23.55214],[78.58388,23.55281],[78.58814,23.55233],[78.59124,23.54948],[78.59412,23.54651],[78.59848,23.54662],[78.60274,23.54773],[78.60713,23.54833],[78.6113,23.54712],[78.61551,23.54689],[78.61884,23.54961],[78.62281,23.55151],[78.62672,23.55058],[78.63066,23.54871],[78.63502,23.54803],[78.63943,23.54765],[78.64275,23.54951],[78.64397,23.5534],[78.64448,23.55747],[78.64668,23.56096],[78.65092,23.56204],[78.65534,23.56208],[78.65976,23.56208],[78.66417,23.56191],[78.66857,23.56152],[78.67295,23.56103],[78.67739,23.56111],[78.68159,23.56199],[78.68546,23.56403],[78.6886,23.56682],[78.69196,23.56941],[78.69499,23.57239],[78.69833,23.5751],[78.70255,23.57613],[78.70697,23.57655],[78.7114,23.57639],[78.71568,23.57695],[78.72006,23.57725],[78.72436,23.57734],[78.72879,23.57619],[78.72994,23.57982],[78.73315,23.58077],[78.73828,23.57617],[78.73869,23.57241],[78.7389,23.56929],[78.73925,23.56565],[78.74088,23.56168],[78.74136,23.55793],[78.74274,23.55448],[78.74316,23.55008],[78.7427,23.54609],[78.73945,23.54386],[78.73777,23.53951],[78.73639,23.53516],[78.73531,23.53116],[78.72785,23.53126],[78.72475,23.53238],[78.72166,23.53281],[78.71944,23.53314],[78.71793,23.53012],[78.71655,23.52582],[78.71596,23.5234],[78.71518,23.52027],[78.71336,23.51776],[78.70775,23.51689],[78.70541,23.51623],[78.70338,23.51587],[78.70215,23.51516],[78.70087,23.5133],[78.69936,23.51062],[78.69828,23.50725],[78.69666,23.50331],[78.69385,23.50016],[78.68894,23.49791],[78.685,23.49666],[78.6815,23.49535],[78.6788,23.49387],[78.67697,23.49114],[78.67406,23.48718],[78.67234,23.48508],[78.67022,23.48234],[78.66815,23.47932],[78.66743,23.47786],[78.66707,23.476],[78.66692,23.47404],[78.66755,23.47139],[78.66843,23.47024],[78.6705,23.46714],[78.66875,23.4625],[78.66756,23.45913],[78.66629,23.45652],[78.66465,23.45315],[78.66192,23.44925],[78.65855,23.44701],[78.65377,23.44448],[78.64809,23.44482],[78.64227,23.44684],[78.64141,23.44741],[78.64079,23.44792],[78.63936,23.4486],[78.63806,23.44905],[78.63577,23.44961],[78.63305,23.4505],[78.63077,23.45036],[78.63003,23.45047],[78.62837,23.44923],[78.62729,23.44621],[78.62613,23.44459],[78.62447,23.44434],[78.62361,23.44468],[78.62125,23.44632],[78.6204,23.44463],[78.61811,23.44016],[78.61665,23.43812],[78.6153,23.43719],[78.61382,23.43699],[78.61111,23.43771],[78.60914,23.43712],[78.60652,23.43327],[78.60599,23.432],[78.6038,23.42845],[78.60203,23.42716],[78.60094,23.42564],[78.60004,23.42303],[78.6051,23.42244],[78.60695,23.42259],[78.60929,23.42233],[78.60951,23.4199],[78.61413,23.42076],[78.61715,23.4205],[78.62055,23.41932],[78.62265,23.41837],[78.62538,23.41186],[78.62624,23.40609],[78.62745,23.40241],[78.62772,23.40044],[78.62766,23.39952],[78.62808,23.39507],[78.62807,23.39039],[78.62822,23.38756],[78.62796,23.38305],[78.62839,23.37745],[78.62888,23.37231],[78.62941,23.36832],[78.63043,23.36504],[78.63038,23.3636],[78.63202,23.36084],[78.63606,23.35701],[78.63957,23.3522],[78.64039,23.34977],[78.64178,23.34638],[78.6437,23.34542],[78.64687,23.34343],[78.64929,23.3416],[78.65146,23.33978],[78.65358,23.33812],[78.65468,23.33779],[78.65803,23.33701],[78.66218,23.33423],[78.66397,23.33315],[78.66594,23.33409],[78.66886,23.33747],[78.67228,23.34075],[78.67508,23.34384],[78.6777,23.3463],[78.68473,23.34638],[78.6884,23.34878],[78.69196,23.35044],[78.69656,23.35198],[78.70297,23.35309],[78.70536,23.35375],[78.71251,23.35336],[78.7187,23.35129],[78.72044,23.3501],[78.72447,23.34643],[78.72884,23.34076],[78.73123,23.33593],[78.73368,23.33064],[78.73673,23.32725],[78.74009,23.32469],[78.74196,23.32303],[78.74301,23.32189],[78.74558,23.31723],[78.7461,23.31429],[78.74958,23.31068],[78.75786,23.30857],[78.75977,23.30182],[78.76417,23.29887],[78.77025,23.2947],[78.76863,23.29001],[78.76368,23.28516],[78.76069,23.27652],[78.75939,23.27015],[78.75862,23.2669],[78.75837,23.26107],[78.75869,23.25928],[78.75794,23.25465],[78.75797,23.25118],[78.75713,23.24828],[78.76078,23.24676],[78.7624,23.24498],[78.76499,23.24414],[78.76941,23.24626],[78.77123,23.24836],[78.77702,23.24836],[78.78189,23.24806],[78.78676,23.24707],[78.79089,23.24561],[78.79517,23.24368],[78.7985,23.24193],[78.80123,23.24004],[78.80235,23.23815],[78.80372,23.23637],[78.80742,23.23594]]]}}]}