{"type":"FeatureCollection","features":[{"type":"Feature","properties":{"id":"sagar","name":"Sagar","stateId":"madhya-pradesh","stateName":"Madhya Pradesh","censuscode":427,"type":"district"},"geometry":{"type":"Polygon","coordinates":[[[78.99363,24.4189],[78.99564,24.41441],[78.99564,24.40259],[78.99619,24.40105],[78.99919,24.39963],[79.00612,24.39097],[79.00675,24.38791],[79.00472,24.38017],[79.00477,24.37476],[79.006,24.37104],[79.01016,24.36987],[79.01361,24.37101],[79.01617,24.37414],[79.01766,24.38216],[79.02505,24.37908],[79.03772,24.36991],[79.04838,24.36797],[79.05441,24.36976],[79.0645,24.37926],[79.06722,24.38296],[79.06829,24.39276],[79.07177,24.39728],[79.07341,24.40271],[79.08008,24.40308],[79.09006,24.40048],[79.09366,24.4004],[79.09831,24.40155],[79.10007,24.40674],[79.10199,24.40982],[79.11323,24.41276],[79.12098,24.41353],[79.12557,24.41375],[79.13052,24.41122],[79.13505,24.41219],[79.14248,24.41784],[79.14844,24.41987],[79.15596,24.42483],[79.16781,24.42985],[79.17423,24.43094],[79.18476,24.43054],[79.19577,24.42668],[79.1985,24.42476],[79.20616,24.41608],[79.21592,24.41665],[79.22561,24.41835],[79.23874,24.41618],[79.24312,24.41306],[79.24429,24.41083],[79.2449,24.40594],[79.2428,24.39655],[79.24604,24.38789],[79.24762,24.37599],[79.24859,24.3741],[79.25105,24.37327],[79.25311,24.37019],[79.25046,24.36475],[79.24689,24.36213],[79.24411,24.35795],[79.2369,24.36087],[79.23187,24.36008],[79.23546,24.3539],[79.23581,24.35028],[79.23515,24.34262],[79.23298,24.33897],[79.2204,24.33206],[79.21626,24.3311],[79.2095,24.33276],[79.20569,24.33514],[79.20242,24.33527],[79.19802,24.33362],[79.1992,24.34047],[79.19697,24.35875],[79.19288,24.35877],[79.18938,24.35683],[79.18408,24.35752],[79.17595,24.36354],[79.15959,24.37223],[79.15898,24.37567],[79.16196,24.3803],[79.16464,24.38235],[79.16624,24.38594],[79.16425,24.39955],[79.16639,24.40567],[79.16008,24.40595],[79.15101,24.40493],[79.15047,24.40337],[79.15392,24.39834],[79.15459,24.39605],[79.15405,24.39334],[79.15011,24.38565],[79.15008,24.38277],[79.15295,24.3744],[79.14092,24.36898],[79.14348,24.3659],[79.15796,24.36093],[79.16038,24.35878],[79.16612,24.34215],[79.16855,24.33872],[79.174,24.33573],[79.17601,24.33115],[79.1792,24.32831],[79.18268,24.32707],[79.18433,24.32531],[79.18521,24.32049],[79.18501,24.31651],[79.18091,24.31187],[79.17326,24.30863],[79.16933,24.30548],[79.1687,24.29499],[79.17024,24.28788],[79.17406,24.27934],[79.17283,24.2772],[79.16561,24.27586],[79.16298,24.27429],[79.15978,24.27327],[79.15556,24.27311],[79.14984,24.26845],[79.14424,24.26287],[79.1434,24.25969],[79.14339,24.25486],[79.14014,24.2531],[79.13761,24.25318],[79.12778,24.25959],[79.11211,24.26322],[79.10808,24.25425],[79.10591,24.25112],[79.09744,24.24361],[79.0928,24.2431],[79.08721,24.24614],[79.08173,24.25103],[79.08197,24.25655],[79.08468,24.26107],[79.08246,24.26301],[79.07822,24.26445],[79.06747,24.26266],[79.06588,24.25874],[79.06821,24.24945],[79.06845,24.24519],[79.06535,24.23704],[79.06284,24.22643],[79.04978,24.22323],[79.04699,24.22073],[79.04702,24.21779],[79.05012,24.21213],[79.05093,24.20839],[79.05051,24.20211],[79.05155,24.19022],[79.05566,24.18417],[79.05598,24.1707],[79.05822,24.16877],[79.06444,24.16579],[79.06751,24.16312],[79.06975,24.15244],[79.0718,24.15057],[79.07459,24.14962],[79.07779,24.14735],[79.07249,24.13929],[79.07222,24.13636],[79.0735,24.1316],[79.07582,24.12892],[79.08771,24.12654],[79.09253,24.12664],[79.09662,24.12531],[79.10192,24.12142],[79.11459,24.11996],[79.11859,24.11829],[79.12119,24.11678],[79.12383,24.11285],[79.1234,24.10542],[79.12505,24.10195],[79.12646,24.10133],[79.13658,24.09863],[79.13962,24.09873],[79.14589,24.10092],[79.1472,24.10103],[79.15009,24.09388],[79.15066,24.0865],[79.15503,24.07179],[79.16001,24.06158],[79.16265,24.05827],[79.16611,24.0563],[79.17045,24.0552],[79.17161,24.05371],[79.17276,24.05057],[79.17431,24.03841],[79.17962,24.03268],[79.18191,24.0292],[79.18208,24.02656],[79.17963,24.01882],[79.17976,24.01663],[79.18801,24.01248],[79.1816,24.00762],[79.16032,24.00017],[79.16003,23.99884],[79.15549,23.99735],[79.15322,23.99698],[79.15059,23.99595],[79.14801,23.99315],[79.14644,23.99052],[79.14515,23.98892],[79.14326,23.98849],[79.14119,23.98858],[79.13829,23.98741],[79.13656,23.98547],[79.13693,23.98263],[79.13681,23.97921],[79.13419,23.97729],[79.13161,23.97647],[79.12846,23.97624],[79.12489,23.9763],[79.12259,23.97732],[79.12034,23.97759],[79.11746,23.97758],[79.11606,23.9768],[79.11563,23.97415],[79.11262,23.97183],[79.1111,23.97134],[79.10913,23.97011],[79.10646,23.96896],[79.10431,23.96836],[79.10095,23.96952],[79.09593,23.97233],[79.09288,23.97365],[79.08926,23.97465],[79.0839,23.97343],[79.08264,23.9712],[79.08395,23.96593],[79.08587,23.96256],[79.08834,23.96072],[79.09289,23.95907],[79.0958,23.9578],[79.0974,23.95616],[79.09816,23.95378],[79.09492,23.95051],[79.0944,23.94794],[79.08979,23.94515],[79.08626,23.94477],[79.08402,23.94355],[79.08323,23.94063],[79.08068,23.93759],[79.07853,23.93481],[79.07727,23.93277],[79.07572,23.93125],[79.07258,23.92959],[79.07104,23.92842],[79.06747,23.92688],[79.06428,23.92517],[79.06097,23.92379],[79.0569,23.92151],[79.0569,23.91915],[79.0584,23.91512],[79.06344,23.91271],[79.07116,23.90633],[79.0727,23.90538],[79.07469,23.90454],[79.07806,23.90407],[79.0819,23.90487],[79.08237,23.90624],[79.08154,23.91088],[79.08123,23.91589],[79.08169,23.91882],[79.08568,23.92],[79.09058,23.91967],[79.09444,23.91815],[79.09879,23.91079],[79.104,23.90381],[79.10994,23.8973],[79.11064,23.8941],[79.11096,23.88761],[79.11103,23.88384],[79.11279,23.87957],[79.11693,23.87554],[79.12156,23.87064],[79.12553,23.86796],[79.12902,23.86626],[79.13249,23.86417],[79.13687,23.85785],[79.13885,23.85607],[79.1423,23.85358],[79.14509,23.8519],[79.14595,23.85125],[79.14847,23.84895],[79.15132,23.84734],[79.15733,23.84722],[79.16314,23.84653],[79.16684,23.84658],[79.17454,23.84908],[79.17825,23.84646],[79.17856,23.84109],[79.17945,23.83622],[79.18327,23.83338],[79.18909,23.83303],[79.19011,23.83342],[79.20116,23.83482],[79.20736,23.83741],[79.2142,23.84068],[79.21883,23.84054],[79.22632,23.83606],[79.2373,23.83122],[79.24105,23.83108],[79.24606,23.8285],[79.25001,23.82537],[79.25117,23.82402],[79.2458,23.82216],[79.24339,23.82094],[79.24002,23.81905],[79.23895,23.81618],[79.23649,23.81236],[79.23374,23.81039],[79.23174,23.80771],[79.23031,23.8029],[79.2289,23.79871],[79.22676,23.79581],[79.22381,23.79275],[79.22184,23.78886],[79.22167,23.78436],[79.22688,23.77963],[79.2278,23.77846],[79.23167,23.77561],[79.23779,23.77157],[79.24431,23.7693],[79.24907,23.76627],[79.25359,23.76172],[79.26443,23.75625],[79.26895,23.7538],[79.27104,23.75225],[79.27111,23.74994],[79.2705,23.74805],[79.27066,23.74412],[79.27251,23.74252],[79.27722,23.74081],[79.28057,23.74202],[79.28539,23.74474],[79.29031,23.74597],[79.29191,23.7445],[79.28866,23.73954],[79.28726,23.7361],[79.28741,23.73206],[79.29128,23.72857],[79.29156,23.72476],[79.28825,23.72228],[79.28996,23.71797],[79.29387,23.71403],[79.29729,23.71009],[79.29871,23.707],[79.2948,23.70293],[79.28843,23.7012],[79.28411,23.69898],[79.28347,23.6979],[79.28444,23.69373],[79.28671,23.68993],[79.29006,23.6879],[79.29432,23.68549],[79.29788,23.68254],[79.30042,23.67867],[79.3026,23.67568],[79.30533,23.67459],[79.30778,23.67477],[79.31381,23.67563],[79.32004,23.67417],[79.32406,23.6723],[79.32801,23.66985],[79.33213,23.66716],[79.33755,23.66261],[79.34143,23.66068],[79.34565,23.66174],[79.34887,23.66272],[79.34955,23.66212],[79.3508,23.65938],[79.35199,23.65699],[79.35205,23.65411],[79.34966,23.65116],[79.34728,23.64849],[79.34389,23.6451],[79.34189,23.6433],[79.34111,23.63978],[79.34045,23.63529],[79.33849,23.63205],[79.33599,23.6295],[79.33152,23.62873],[79.32636,23.62999],[79.31802,23.63461],[79.31395,23.63735],[79.31056,23.63938],[79.30447,23.64135],[79.30119,23.63766],[79.30078,23.63398],[79.30138,23.62981],[79.30089,23.62035],[79.30072,23.6151],[79.30101,23.60949],[79.30192,23.60035],[79.30297,23.59675],[79.30482,23.59348],[79.3061,23.59212],[79.30932,23.59073],[79.3127,23.59084],[79.31521,23.58853],[79.31735,23.5864],[79.31826,23.58495],[79.31271,23.58616],[79.30771,23.58591],[79.30553,23.58428],[79.30128,23.58165],[79.30025,23.58064],[79.29938,23.57823],[79.29814,23.57324],[79.2989,23.56849],[79.30047,23.56585],[79.301,23.56174],[79.30511,23.55889],[79.30879,23.55852],[79.31175,23.55638],[79.31495,23.55187],[79.31888,23.5511],[79.32326,23.55107],[79.32515,23.54947],[79.3241,23.54712],[79.32328,23.54483],[79.32276,23.53832],[79.32531,23.53266],[79.32866,23.52895],[79.33184,23.52583],[79.3297,23.52253],[79.32465,23.52107],[79.31693,23.51985],[79.3132,23.51814],[79.30977,23.51589],[79.30324,23.51493],[79.29951,23.51305],[79.29616,23.50931],[79.29325,23.5055],[79.29205,23.50241],[79.29105,23.49931],[79.29069,23.4951],[79.28991,23.49108],[79.28902,23.48803],[79.28824,23.48649],[79.28617,23.48394],[79.284,23.48196],[79.2852,23.47979],[79.28602,23.47706],[79.28285,23.47552],[79.27596,23.47514],[79.2703,23.47618],[79.26464,23.47757],[79.26134,23.47567],[79.26093,23.47406],[79.2615,23.47163],[79.26177,23.46758],[79.26192,23.46319],[79.25987,23.46109],[79.25544,23.4617],[79.25269,23.46413],[79.24865,23.46496],[79.24478,23.46307],[79.24069,23.45923],[79.23654,23.45776],[79.23333,23.45949],[79.22895,23.45935],[79.22693,23.45835],[79.22435,23.45522],[79.223,23.44844],[79.22217,23.43974],[79.22117,23.43694],[79.21946,23.43604],[79.21492,23.43689],[79.20795,23.43864],[79.20272,23.43892],[79.1954,23.43871],[79.18776,23.43563],[79.18272,23.43077],[79.18155,23.42352],[79.18397,23.42041],[79.18939,23.41979],[79.19418,23.41831],[79.19931,23.41624],[79.20163,23.41383],[79.20146,23.40916],[79.19633,23.40637],[79.18854,23.40433],[79.1884,23.40416],[79.18734,23.40153],[79.18667,23.39421],[79.18692,23.38854],[79.18855,23.37801],[79.19101,23.37109],[79.19081,23.36769],[79.19333,23.36348],[79.19898,23.36192],[79.20209,23.36094],[79.20669,23.36016],[79.20987,23.36032],[79.21548,23.36477],[79.21889,23.36355],[79.21877,23.3613],[79.21981,23.35793],[79.21872,23.35425],[79.21803,23.35115],[79.22034,23.34799],[79.22311,23.34678],[79.22568,23.34459],[79.22938,23.34233],[79.23623,23.33878],[79.23591,23.33561],[79.23348,23.33336],[79.23134,23.3301],[79.22803,23.32706],[79.22644,23.32627],[79.22304,23.32478],[79.22038,23.32323],[79.21708,23.32116],[79.2141,23.31914],[79.2113,23.317],[79.21103,23.3132],[79.21439,23.31029],[79.2178,23.3063],[79.22233,23.30252],[79.22648,23.29834],[79.22968,23.29388],[79.23014,23.2899],[79.22603,23.27953],[79.22367,23.27732],[79.21988,23.27532],[79.21892,23.27424],[79.21813,23.26994],[79.21643,23.26414],[79.21421,23.25991],[79.21082,23.25651],[79.20628,23.25453],[79.20169,23.25364],[79.19553,23.25376],[79.1898,23.25428],[79.18346,23.25562],[79.1758,23.25647],[79.17209,23.25503],[79.17139,23.24934],[79.17324,23.24306],[79.17418,23.24022],[79.17389,23.23318],[79.1741,23.22643],[79.17471,23.22278],[79.17615,23.22032],[79.18018,23.22163],[79.18331,23.22244],[79.18642,23.22197],[79.18958,23.22003],[79.19007,23.21985],[79.18904,23.21803],[79.18843,23.21371],[79.18772,23.20184],[79.18624,23.19742],[79.18246,23.19305],[79.1793,23.19126],[79.17394,23.18919],[79.16897,23.18703],[79.1663,23.18518],[79.16258,23.1808],[79.1594,23.17844],[79.15149,23.17583],[79.15039,23.1721],[79.14758,23.17118],[79.13765,23.17097],[79.1331,23.17152],[79.13111,23.17185],[79.12607,23.17229],[79.12283,23.17253],[79.12084,23.17245],[79.11773,23.17032],[79.11472,23.16946],[79.11437,23.17316],[79.11556,23.17631],[79.11545,23.17966],[79.1135,23.18183],[79.11138,23.18164],[79.10753,23.17987],[79.10713,23.18167],[79.10765,23.18812],[79.10657,23.19242],[79.10538,23.19538],[79.1071,23.19921],[79.10749,23.20549],[79.10486,23.20503],[79.10063,23.20291],[79.09685,23.20149],[79.09318,23.19643],[79.09039,23.19458],[79.08866,23.19577],[79.0864,23.19789],[79.08441,23.19839],[79.08359,23.20066],[79.0813,23.20157],[79.07763,23.20215],[79.07456,23.20187],[79.07162,23.2021],[79.06752,23.19993],[79.06482,23.19681],[79.06359,23.19505],[79.06232,23.19404],[79.05986,23.19304],[79.05591,23.19208],[79.05432,23.19419],[79.0513,23.19575],[79.04653,23.19457],[79.0444,23.19438],[79.03885,23.1942],[79.0361,23.19386],[79.03117,23.19366],[79.02769,23.19442],[79.02435,23.19539],[79.02325,23.19645],[79.02079,23.19759],[79.01703,23.19968],[79.01444,23.20163],[79.01145,23.20471],[79.00836,23.20644],[79.00473,23.20681],[79.00236,23.20752],[79.00049,23.20866],[78.99876,23.20938],[78.99458,23.21251],[78.9925,23.20969],[78.98937,23.20625],[78.9855,23.20344],[78.98364,23.20179],[78.98113,23.19785],[78.97562,23.20086],[78.97362,23.20103],[78.97255,23.20285],[78.97046,23.20643],[78.96833,23.20788],[78.96325,23.21043],[78.95774,23.21181],[78.95323,23.21316],[78.94913,23.2111],[78.94554,23.20982],[78.94228,23.21059],[78.94376,23.2139],[78.94494,23.21672],[78.94511,23.21997],[78.94375,23.22472],[78.94065,23.22867],[78.93757,23.23086],[78.9342,23.23251],[78.93092,23.2323],[78.92672,23.22975],[78.92223,23.22662],[78.91632,23.2239],[78.90884,23.22595],[78.90448,23.22378],[78.90136,23.22041],[78.89836,23.21703],[78.89703,23.21332],[78.89408,23.21272],[78.89038,23.2139],[78.88583,23.21571],[78.88016,23.21693],[78.87536,23.21775],[78.8716,23.21921],[78.86975,23.22081],[78.86494,23.22291],[78.86045,23.22349],[78.85579,23.2231],[78.85222,23.22295],[78.84822,23.22486],[78.84631,23.22675],[78.84655,23.22716],[78.84586,23.22947],[78.8454,23.23472],[78.84518,23.23917],[78.84394,23.2409],[78.84079,23.2445],[78.83744,23.24863],[78.83336,23.25216],[78.82845,23.25142],[78.82286,23.2513],[78.82029,23.24902],[78.81725,23.24448],[78.8145,23.24242],[78.81138,23.24001],[78.80966,23.23878],[78.80906,23.23774],[78.80742,23.23594],[78.80372,23.23637],[78.80235,23.23815],[78.80123,23.24004],[78.7985,23.24193],[78.79517,23.24368],[78.79089,23.24561],[78.78676,23.24707],[78.78189,23.24806],[78.77702,23.24836],[78.77123,23.24836],[78.76941,23.24626],[78.76499,23.24414],[78.7624,23.24498],[78.76078,23.24676],[78.75713,23.24828],[78.75797,23.25118],[78.75794,23.25465],[78.75869,23.25928],[78.75837,23.26107],[78.75862,23.2669],[78.75939,23.27015],[78.76069,23.27652],[78.76368,23.28516],[78.76863,23.29001],[78.77025,23.2947],[78.76417,23.29887],[78.75977,23.30182],[78.75786,23.30857],[78.74958,23.31068],[78.7461,23.31429],[78.74558,23.31723],[78.74301,23.32189],[78.74196,23.32303],[78.74009,23.32469],[78.73673,23.32725],[78.73368,23.33064],[78.73123,23.33593],[78.72884,23.34076],[78.72447,23.34643],[78.72044,23.3501],[78.7187,23.35129],[78.71251,23.35336],[78.70536,23.35375],[78.70297,23.35309],[78.69656,23.35198],[78.69196,23.35044],[78.6884,23.34878],[78.68473,23.34638],[78.6777,23.3463],[78.67508,23.34384],[78.67228,23.34075],[78.66886,23.33747],[78.66594,23.33409],[78.66397,23.33315],[78.66218,23.33423],[78.65803,23.33701],[78.65468,23.33779],[78.65358,23.33812],[78.65146,23.33978],[78.64929,23.3416],[78.64687,23.34343],[78.6437,23.34542],[78.64178,23.34638],[78.64039,23.34977],[78.63957,23.3522],[78.63606,23.35701],[78.63202,23.36084],[78.63038,23.3636],[78.63043,23.36504],[78.62941,23.36832],[78.62888,23.37231],[78.62839,23.37745],[78.62796,23.38305],[78.62822,23.38756],[78.62807,23.39039],[78.62808,23.39507],[78.62766,23.39952],[78.62772,23.40044],[78.62745,23.40241],[78.62624,23.40609],[78.62538,23.41186],[78.62265,23.41837],[78.62055,23.41932],[78.61715,23.4205],[78.61413,23.42076],[78.60951,23.4199],[78.60929,23.42233],[78.60695,23.42259],[78.6051,23.42244],[78.60004,23.42303],[78.60094,23.42564],[78.60203,23.42716],[78.6038,23.42845],[78.60599,23.432],[78.60652,23.43327],[78.60914,23.43712],[78.61111,23.43771],[78.61382,23.43699],[78.6153,23.43719],[78.61665,23.43812],[78.61811,23.44016],[78.6204,23.44463],[78.62125,23.44632],[78.62361,23.44468],[78.62447,23.44434],[78.62613,23.44459],[78.62729,23.44621],[78.62837,23.44923],[78.63003,23.45047],[78.63077,23.45036],[78.63305,23.4505],[78.63577,23.44961],[78.63806,23.44905],[78.63936,23.4486],[78.64079,23.44792],[78.64141,23.44741],[78.64227,23.44684],[78.64809,23.44482],[78.65377,23.44448],[78.65855,23.44701],[78.66192,23.44925],[78.66465,23.45315],[78.66629,23.45652],[78.66756,23.45913],[78.66875,23.4625],[78.6705,23.46714],[78.66843,23.47024],[78.66755,23.47139],[78.66692,23.47404],[78.66707,23.476],[78.66743,23.47786],[78.66815,23.47932],[78.67022,23.48234],[78.67234,23.48508],[78.67406,23.48718],[78.67697,23.49114],[78.6788,23.49387],[78.6815,23.49535],[78.685,23.49666],[78.68894,23.49791],[78.69385,23.50016],[78.69666,23.50331],[78.69828,23.50725],[78.69936,23.51062],[78.70087,23.5133],[78.70215,23.51516],[78.70338,23.51587],[78.70541,23.51623],[78.70775,23.51689],[78.71336,23.51776],[78.71518,23.52027],[78.71596,23.5234],[78.71655,23.52582],[78.71793,23.53012],[78.71944,23.53314],[78.72166,23.53281],[78.72475,23.53238],[78.72785,23.53126],[78.73531,23.53116],[78.73639,23.53516],[78.73777,23.53951],[78.73945,23.54386],[78.7427,23.54609],[78.74316,23.55008],[78.74274,23.55448],[78.74136,23.55793],[78.74088,23.56168],[78.73925,23.56565],[78.7389,23.56929],[78.73869,23.57241],[78.73828,23.57617],[78.73315,23.58077],[78.72994,23.57982],[78.72879,23.57619],[78.72436,23.57734],[78.72006,23.57725],[78.71568,23.57695],[78.7114,23.57639],[78.70697,23.57655],[78.70255,23.57613],[78.69833,23.5751],[78.69499,23.57239],[78.69196,23.56941],[78.6886,23.56682],[78.68546,23.56403],[78.68159,23.56199],[78.67739,23.56111],[78.67295,23.56103],[78.66857,23.56152],[78.66417,23.56191],[78.65976,23.56208],[78.65534,23.56208],[78.65092,23.56204],[78.64668,23.56096],[78.64448,23.55747],[78.64397,23.5534],[78.64275,23.54951],[78.63943,23.54765],[78.63502,23.54803],[78.63066,23.54871],[78.62672,23.55058],[78.62281,23.55151],[78.61884,23.54961],[78.61551,23.54689],[78.6113,23.54712],[78.60713,23.54833],[78.60274,23.54773],[78.59848,23.54662],[78.59412,23.54651],[78.59124,23.54948],[78.58814,23.55233],[78.58388,23.55281],[78.57953,23.55214],[78.57553,23.55255],[78.57318,23.55598],[78.57208,23.55993],[78.57091,23.56386],[78.56787,23.56615],[78.5637,23.56505],[78.55984,23.56309],[78.55649,23.56042],[78.55238,23.56047],[78.54811,23.56021],[78.54406,23.55879],[78.5406,23.56015],[78.5373,23.56146],[78.5369,23.55718],[78.53612,23.55315],[78.53348,23.55056],[78.52918,23.55168],[78.52501,23.55304],[78.52065,23.55246],[78.51727,23.55032],[78.5163,23.54624],[78.51539,23.54226],[78.5138,23.53844],[78.51076,23.53606],[78.50683,23.53488],[78.50376,23.53193],[78.49993,23.53717],[78.49994,23.54123],[78.50077,23.54523],[78.5026,23.54894],[78.5047,23.55252],[78.50604,23.55639],[78.50529,23.5604],[78.50553,23.56444],[78.50489,23.56838],[78.50294,23.57205],[78.50203,23.576],[78.50188,23.58002],[78.5003,23.58386],[78.50027,23.58771],[78.50234,23.5913],[78.50523,23.5944],[78.50837,23.59729],[78.50998,23.60103],[78.51091,23.60501],[78.51275,23.60866],[78.51483,23.61202],[78.51362,23.61599],[78.51338,23.61995],[78.51359,23.62384],[78.51043,23.62666],[78.50833,23.63015],[78.50829,23.63415],[78.50893,23.63819],[78.51073,23.64191],[78.5129,23.64546],[78.51471,23.64912],[78.51464,23.65327],[78.51358,23.6573],[78.50987,23.65613],[78.50688,23.65316],[78.50489,23.64958],[78.50134,23.64725],[78.49704,23.64626],[78.4927,23.64551],[78.48853,23.64422],[78.48486,23.642],[78.48554,23.63792],[78.48191,23.63745],[78.47808,23.6395],[78.47564,23.64285],[78.47342,23.64642],[78.47096,23.64661],[78.46892,23.64315],[78.46649,23.64635],[78.46758,23.65028],[78.46968,23.65379],[78.46752,23.65734],[78.46632,23.66118],[78.46738,23.66512],[78.46878,23.66898],[78.46862,23.67302],[78.46713,23.67686],[78.46315,23.67795],[78.46062,23.68129],[78.45774,23.68426],[78.45541,23.68768],[78.45168,23.68974],[78.44763,23.69106],[78.44559,23.69472],[78.444,23.69852],[78.44393,23.70259],[78.44492,23.70656],[78.44539,23.71063],[78.4444,23.71455],[78.44212,23.71808],[78.44058,23.72177],[78.43858,23.72511],[78.43612,23.72839],[78.43536,23.7324],[78.43502,23.73646],[78.43469,23.74053],[78.43344,23.74448],[78.42936,23.74502],[78.42539,23.74329],[78.42247,23.74022],[78.41897,23.73772],[78.41503,23.73911],[78.41103,23.74089],[78.40871,23.74381],[78.4048,23.74163],[78.40045,23.74234],[78.39688,23.74076],[78.39375,23.73784],[78.38964,23.73668],[78.38515,23.73665],[78.38276,23.73474],[78.38284,23.73054],[78.38042,23.72809],[78.37593,23.72792],[78.37154,23.72742],[78.3686,23.72568],[78.36902,23.72154],[78.3673,23.71775],[78.36374,23.71562],[78.35979,23.71383],[78.35795,23.71011],[78.35605,23.70642],[78.35519,23.70244],[78.35648,23.69856],[78.3583,23.69484],[78.3586,23.69088],[78.3553,23.6881],[78.35175,23.68567],[78.34881,23.68265],[78.34612,23.67954],[78.34795,23.67618],[78.35152,23.67394],[78.35566,23.67259],[78.35994,23.67279],[78.36281,23.67589],[78.36633,23.67835],[78.36937,23.6813],[78.37268,23.68401],[78.37532,23.68726],[78.37793,23.69043],[78.37873,23.6945],[78.38049,23.6982],[78.38231,23.70192],[78.38275,23.70596],[78.38263,23.71005],[78.38626,23.71195],[78.39066,23.71213],[78.39513,23.71242],[78.39835,23.71499],[78.40016,23.71869],[78.40047,23.72275],[78.40031,23.72683],[78.40034,23.73092],[78.40432,23.73236],[78.40873,23.73237],[78.41282,23.73093],[78.41511,23.7276],[78.41744,23.72414],[78.42053,23.72181],[78.42494,23.72113],[78.42872,23.71906],[78.42982,23.71553],[78.42658,23.71286],[78.42292,23.71055],[78.4192,23.70837],[78.41584,23.70573],[78.41275,23.70282],[78.40943,23.70013],[78.40831,23.69681],[78.40959,23.6929],[78.41006,23.68889],[78.4111,23.68619],[78.41539,23.68527],[78.4195,23.68376],[78.42356,23.68217],[78.42753,23.68039],[78.42917,23.67689],[78.42652,23.67398],[78.42237,23.67258],[78.41816,23.6713],[78.41383,23.67053],[78.40942,23.67036],[78.40611,23.67294],[78.40251,23.67485],[78.39821,23.676],[78.39794,23.67218],[78.39881,23.66819],[78.40012,23.66435],[78.40264,23.66098],[78.40563,23.65801],[78.40855,23.65496],[78.41097,23.65157],[78.41357,23.64829],[78.41534,23.64456],[78.41361,23.64102],[78.41025,23.63829],[78.40628,23.63654],[78.40226,23.63489],[78.39868,23.63241],[78.39472,23.63249],[78.39102,23.63473],[78.38822,23.63787],[78.38615,23.64148],[78.38584,23.64548],[78.38419,23.64877],[78.38084,23.65137],[78.3772,23.65376],[78.37392,23.6524],[78.37029,23.65014],[78.36598,23.64949],[78.36166,23.65038],[78.35765,23.65206],[78.35394,23.65428],[78.34986,23.65583],[78.34569,23.65718],[78.34139,23.65801],[78.33795,23.66019],[78.3362,23.66393],[78.33544,23.66794],[78.33775,23.67128],[78.33918,23.67494],[78.33659,23.67785],[78.33271,23.67972],[78.32935,23.68228],[78.329,23.68627],[78.3273,23.68977],[78.32386,23.69218],[78.3197,23.69146],[78.31638,23.68879],[78.31234,23.68803],[78.30901,23.69058],[78.30548,23.69267],[78.30104,23.69265],[78.29692,23.69396],[78.29347,23.69649],[78.29025,23.6986],[78.28952,23.69481],[78.2916,23.69125],[78.29449,23.68833],[78.29609,23.68453],[78.29767,23.68079],[78.30038,23.67787],[78.29644,23.67586],[78.29269,23.67371],[78.29159,23.67555],[78.29107,23.67693],[78.28913,23.67881],[78.28823,23.68151],[78.28691,23.68369],[78.28453,23.68574],[78.28459,23.68586],[78.28233,23.68832],[78.28148,23.69148],[78.28188,23.69427],[78.28314,23.69671],[78.28242,23.69947],[78.28204,23.70011],[78.27889,23.70053],[78.2761,23.70136],[78.27323,23.70311],[78.27123,23.705],[78.27113,23.70719],[78.27091,23.71007],[78.27039,23.7118],[78.26976,23.71278],[78.26776,23.71448],[78.26627,23.71574],[78.26382,23.71796],[78.26429,23.72005],[78.26587,23.72181],[78.26788,23.7235],[78.26837,23.72432],[78.27007,23.72637],[78.27018,23.72701],[78.26906,23.72792],[78.2667,23.72829],[78.26505,23.72729],[78.26014,23.72433],[78.25851,23.72193],[78.25737,23.71972],[78.25685,23.71717],[78.25504,23.71402],[78.25426,23.71135],[78.25314,23.70769],[78.25193,23.70641],[78.25056,23.70668],[78.24765,23.70716],[78.24678,23.70761],[78.24435,23.70903],[78.24265,23.71086],[78.24066,23.71227],[78.23767,23.71397],[78.23896,23.71439],[78.24017,23.71619],[78.24102,23.71742],[78.24106,23.71927],[78.23942,23.72174],[78.24055,23.72447],[78.24231,23.72715],[78.24437,23.72973],[78.24533,23.73205],[78.24648,23.73438],[78.24767,23.73699],[78.24931,23.73904],[78.25114,23.74144],[78.25355,23.74528],[78.25494,23.74738],[78.25811,23.74696],[78.26096,23.74672],[78.26299,23.74726],[78.2644,23.74809],[78.26529,23.75052],[78.26442,23.75092],[78.2612,23.75151],[78.25923,23.75091],[78.25675,23.75134],[78.25526,23.75184],[78.25476,23.75212],[78.25443,23.75333],[78.25431,23.75385],[78.25346,23.75615],[78.25357,23.758],[78.25433,23.76056],[78.25535,23.76271],[78.25749,23.76482],[78.26082,23.76574],[78.26296,23.76721],[78.26387,23.76849],[78.26459,23.77012],[78.26518,23.77209],[78.2673,23.77571],[78.26833,23.77745],[78.26693,23.78015],[78.26336,23.77912],[78.26047,23.7781],[78.25788,23.77748],[78.25599,23.7796],[78.25534,23.78144],[78.25611,23.78423],[78.25676,23.78637],[78.25735,23.78846],[78.26179,23.7939],[78.26381,23.79543],[78.26553,23.79649],[78.26757,23.79652],[78.26956,23.79615],[78.27228,23.7956],[78.27533,23.79472],[78.27547,23.79316],[78.27487,23.79176],[78.27384,23.79013],[78.27152,23.78801],[78.2698,23.78684],[78.27151,23.78432],[78.2746,23.7843],[78.27769,23.78475],[78.28055,23.78386],[78.28225,23.78197],[78.28517,23.78068],[78.28661,23.78382],[78.28568,23.78843],[78.28523,23.79011],[78.2839,23.79246],[78.28359,23.79644],[78.28441,23.80021],[78.28456,23.80334],[78.28469,23.8071],[78.28427,23.81044],[78.28179,23.81081],[78.27982,23.81056],[78.27679,23.80977],[78.27334,23.8092],[78.27074,23.80946],[78.26758,23.80942],[78.26591,23.80991],[78.26303,23.81253],[78.26386,23.81526],[78.26526,23.81638],[78.26894,23.8188],[78.27079,23.81923],[78.27364,23.81863],[78.27576,23.81802],[78.278,23.81701],[78.2816,23.81625],[78.28477,23.81525],[78.28874,23.81438],[78.2902,23.81585],[78.2913,23.81725],[78.29263,23.81894],[78.29323,23.82028],[78.2953,23.82303],[78.2973,23.82617],[78.2985,23.82833],[78.29768,23.82987],[78.29631,23.83061],[78.29484,23.83429],[78.29641,23.83662],[78.29817,23.83954],[78.29757,23.84289],[78.29604,23.84651],[78.29541,23.84684],[78.29373,23.8478],[78.2912,23.84742],[78.28683,23.84616],[78.28406,23.84495],[78.27852,23.84292],[78.27523,23.84288],[78.27317,23.84406],[78.27203,23.84671],[78.27045,23.84877],[78.26628,23.85068],[78.26458,23.85228],[78.26269,23.85519],[78.26221,23.85872],[78.2633,23.86041],[78.2712,23.86202],[78.27564,23.86318],[78.27826,23.86605],[78.27921,23.86894],[78.27854,23.87356],[78.27769,23.87621],[78.27747,23.87905],[78.27779,23.88246],[78.27823,23.88691],[78.28031,23.88857],[78.28487,23.89499],[78.28723,23.89918],[78.28979,23.90176],[78.29201,23.9067],[78.29245,23.91069],[78.29303,23.91446],[78.29247,23.91806],[78.29214,23.92014],[78.29104,23.92324],[78.28902,23.92628],[78.28653,23.92787],[78.28503,23.92854],[78.2818,23.92954],[78.27881,23.93065],[78.27669,23.93195],[78.27418,23.934],[78.27148,23.93657],[78.26967,23.93792],[78.26766,23.93969],[78.2659,23.94227],[78.26492,23.9459],[78.26556,23.94938],[78.26724,23.95304],[78.26888,23.95572],[78.2732,23.957],[78.27469,23.95724],[78.28025,23.95824],[78.28247,23.95891],[78.28603,23.96081],[78.28768,23.96314],[78.28877,23.96506],[78.28776,23.96632],[78.28471,23.96697],[78.28209,23.9689],[78.28199,23.97174],[78.2829,23.97343],[78.28595,23.97717],[78.28809,23.97969],[78.28984,23.98283],[78.29061,23.98534],[78.29008,23.9879],[78.28972,23.99082],[78.28847,23.9934],[78.28717,23.99586],[78.28617,23.99762],[78.28525,23.99876],[78.28315,24.0007],[78.28025,24.00629],[78.27886,24.01521],[78.2781,24.02876],[78.27403,24.03272],[78.26339,24.0399],[78.25376,24.04414],[78.25079,24.0506],[78.24392,24.0533],[78.23168,24.05457],[78.22477,24.0589],[78.21869,24.06514],[78.21571,24.06717],[78.2119,24.06793],[78.20764,24.06632],[78.20531,24.06407],[78.20379,24.06078],[78.19756,24.05737],[78.19189,24.0504],[78.18997,24.04444],[78.18981,24.03415],[78.1888,24.03173],[78.18566,24.02982],[78.18357,24.02728],[78.18245,24.01139],[78.17555,24.00897],[78.16719,24.00881],[78.16401,24.00946],[78.16031,24.01437],[78.1572,24.02368],[78.15227,24.02405],[78.14661,24.02642],[78.14257,24.02869],[78.14191,24.03105],[78.13307,24.03455],[78.13086,24.03831],[78.12433,24.0415],[78.12059,24.04179],[78.11846,24.04076],[78.11537,24.02914],[78.1133,24.02741],[78.10452,24.0287],[78.09276,24.03179],[78.09035,24.03434],[78.09103,24.04232],[78.08662,24.04336],[78.07516,24.04414],[78.07393,24.04697],[78.07512,24.05547],[78.08025,24.05818],[78.08596,24.06343],[78.09027,24.06481],[78.09917,24.06178],[78.10127,24.05849],[78.10193,24.05525],[78.10567,24.04743],[78.11058,24.04569],[78.11489,24.04643],[78.11866,24.04972],[78.1188,24.0588],[78.12047,24.07176],[78.12286,24.07511],[78.12739,24.0862],[78.12575,24.09256],[78.13544,24.11574],[78.13424,24.12124],[78.13213,24.1238],[78.11762,24.12619],[78.11083,24.13616],[78.10587,24.14808],[78.09658,24.15562],[78.09835,24.15978],[78.10482,24.16365],[78.11068,24.16376],[78.11463,24.16566],[78.12336,24.16275],[78.1258,24.16373],[78.12884,24.16945],[78.12757,24.18213],[78.12787,24.18804],[78.13141,24.19416],[78.13511,24.19566],[78.14296,24.20219],[78.13578,24.20856],[78.13418,24.21088],[78.12378,24.21451],[78.108,24.21566],[78.10684,24.21213],[78.10489,24.21074],[78.09708,24.20948],[78.08251,24.21383],[78.0791,24.21652],[78.07291,24.22357],[78.05903,24.22877],[78.05911,24.2304],[78.06278,24.23687],[78.06523,24.23926],[78.06736,24.23967],[78.07066,24.23908],[78.08123,24.23281],[78.08743,24.22819],[78.09066,24.22694],[78.09285,24.22717],[78.09569,24.23041],[78.0971,24.2351],[78.09739,24.23958],[78.09611,24.24342],[78.09364,24.24739],[78.09159,24.24926],[78.08049,24.24196],[78.07655,24.24198],[78.07325,24.24297],[78.07132,24.24373],[78.06909,24.24635],[78.07239,24.25627],[78.08682,24.25765],[78.09336,24.25743],[78.09719,24.26109],[78.09644,24.26716],[78.09375,24.27547],[78.08643,24.28949],[78.08491,24.29485],[78.08489,24.29959],[78.08817,24.31119],[78.09272,24.3191],[78.10294,24.32434],[78.11092,24.33045],[78.11818,24.33357],[78.1281,24.33933],[78.13238,24.34377],[78.14866,24.35705],[78.15975,24.36889],[78.161,24.37722],[78.15993,24.38312],[78.16072,24.38827],[78.16816,24.39543],[78.17596,24.39546],[78.18566,24.39757],[78.20289,24.40318],[78.20985,24.40635],[78.21547,24.41229],[78.22364,24.41845],[78.24514,24.4266],[78.25613,24.43233],[78.26313,24.43891],[78.26498,24.44249],[78.26684,24.44934],[78.27297,24.44278],[78.28731,24.43263],[78.29596,24.42856],[78.30595,24.42199],[78.31761,24.41288],[78.32131,24.4083],[78.32441,24.40581],[78.33856,24.40143],[78.34284,24.39933],[78.35103,24.38751],[78.35652,24.385],[78.36498,24.38266],[78.36709,24.38127],[78.36905,24.37709],[78.3687,24.37363],[78.35263,24.35819],[78.34702,24.34792],[78.34152,24.3406],[78.33719,24.33807],[78.33265,24.33398],[78.33149,24.32988],[78.33207,24.32514],[78.33459,24.32102],[78.33787,24.31801],[78.34158,24.3147],[78.34549,24.3129],[78.34738,24.30705],[78.34746,24.30334],[78.3485,24.30092],[78.35059,24.29883],[78.35749,24.29481],[78.36775,24.29166],[78.37003,24.2879],[78.37232,24.28586],[78.37599,24.28464],[78.37908,24.28191],[78.38349,24.27362],[78.38572,24.27113],[78.38844,24.2695],[78.39174,24.26862],[78.39906,24.27033],[78.40936,24.27104],[78.41306,24.27259],[78.41742,24.28315],[78.42061,24.28441],[78.42474,24.28502],[78.42929,24.28473],[78.43261,24.28575],[78.44093,24.29323],[78.43949,24.30456],[78.43966,24.30896],[78.44646,24.32107],[78.45701,24.32543],[78.46079,24.32877],[78.46512,24.33123],[78.47402,24.33489],[78.47701,24.33892],[78.47791,24.35262],[78.47902,24.35788],[78.48158,24.36295],[78.49056,24.37314],[78.49603,24.38156],[78.50447,24.38829],[78.50623,24.38984],[78.51166,24.38947],[78.52088,24.38608],[78.52552,24.38287],[78.52836,24.37968],[78.53141,24.37267],[78.53393,24.37],[78.55889,24.35618],[78.56319,24.35674],[78.56898,24.35492],[78.57283,24.35287],[78.58122,24.35491],[78.58476,24.35264],[78.58522,24.34952],[78.58704,24.34541],[78.59103,24.33902],[78.59412,24.33693],[78.59997,24.33494],[78.60534,24.31878],[78.6084,24.3139],[78.61111,24.31134],[78.62125,24.30817],[78.62599,24.30745],[78.62915,24.30547],[78.62986,24.30252],[78.62421,24.29492],[78.62367,24.29174],[78.62572,24.28508],[78.62804,24.28189],[78.63235,24.2821],[78.63771,24.28583],[78.6405,24.285],[78.64558,24.28185],[78.64996,24.27715],[78.66079,24.2694],[78.66415,24.26371],[78.66951,24.24831],[78.6717,24.24413],[78.67546,24.2407],[78.67945,24.24004],[78.68445,24.24059],[78.68749,24.23977],[78.69894,24.23271],[78.70521,24.23018],[78.71347,24.23447],[78.71748,24.23514],[78.72496,24.23486],[78.72748,24.23693],[78.73294,24.2484],[78.73864,24.24952],[78.74166,24.24748],[78.74251,24.24082],[78.74391,24.23781],[78.74726,24.23588],[78.75011,24.23517],[78.75229,24.23499],[78.75618,24.23646],[78.75897,24.23939],[78.7607,24.24297],[78.76311,24.25543],[78.76672,24.2542],[78.77285,24.2463],[78.76714,24.23483],[78.76643,24.23224],[78.76695,24.22958],[78.77417,24.21352],[78.77625,24.21102],[78.78132,24.20804],[78.78266,24.20577],[78.78473,24.19681],[78.78847,24.1873],[78.791,24.18092],[78.79488,24.17714],[78.7981,24.17602],[78.80867,24.17769],[78.81213,24.18009],[78.81438,24.1891],[78.81554,24.20042],[78.81696,24.20429],[78.81998,24.20605],[78.82283,24.20442],[78.8253,24.19822],[78.82653,24.197],[78.83071,24.19708],[78.83417,24.19897],[78.83924,24.20506],[78.84525,24.21045],[78.85302,24.21271],[78.8647,24.20934],[78.86933,24.20982],[78.8802,24.21472],[78.88537,24.21884],[78.88757,24.22467],[78.88636,24.23988],[78.8848,24.24445],[78.88563,24.24977],[78.89213,24.25504],[78.91643,24.26868],[78.91829,24.27225],[78.91981,24.28166],[78.91943,24.28519],[78.91433,24.2906],[78.91366,24.29217],[78.91436,24.29696],[78.93072,24.30994],[78.93538,24.31193],[78.93909,24.31462],[78.95201,24.32702],[78.95755,24.33612],[78.96158,24.33963],[78.96766,24.34288],[78.97154,24.34615],[78.97356,24.34937],[78.97482,24.35265],[78.97502,24.35594],[78.97361,24.36605],[78.97386,24.36927],[78.9777,24.38041],[78.98093,24.39431],[78.98292,24.39856],[78.9876,24.4135],[78.99363,24.4189]]]}}]}