{"type":"FeatureCollection","features":[{"type":"Feature","properties":{"id":"satna","name":"Satna","stateId":"madhya-pradesh","stateName":"Madhya Pradesh","censuscode":429,"type":"district"},"geometry":{"type":"Polygon","coordinates":[[[81.12494,24.89831],[81.12028,24.89268],[81.12227,24.89078],[81.12546,24.88923],[81.12451,24.88609],[81.12494,24.88353],[81.12192,24.87996],[81.11558,24.88214],[81.11258,24.88103],[81.11176,24.87704],[81.11196,24.87112],[81.11107,24.86838],[81.10807,24.86382],[81.10847,24.85995],[81.10779,24.85565],[81.10078,24.84769],[81.09588,24.84634],[81.09592,24.84445],[81.09798,24.83938],[81.09841,24.83394],[81.09529,24.8321],[81.0896,24.83246],[81.08685,24.83167],[81.07547,24.83341],[81.07317,24.83183],[81.06695,24.82402],[81.07199,24.81882],[81.06902,24.81561],[81.07137,24.80279],[81.07026,24.8015],[81.06737,24.80483],[81.062,24.80773],[81.0582,24.80892],[81.05477,24.80374],[81.0511,24.80178],[81.04702,24.79774],[81.05343,24.79579],[81.05587,24.7871],[81.05887,24.78268],[81.06473,24.77974],[81.06816,24.77888],[81.07105,24.77606],[81.08098,24.77424],[81.08267,24.7718],[81.0883,24.77356],[81.09025,24.77107],[81.09854,24.76662],[81.10513,24.76146],[81.11134,24.75077],[81.11997,24.75087],[81.12225,24.74401],[81.12483,24.74107],[81.13493,24.73103],[81.14023,24.73083],[81.1497,24.72021],[81.15606,24.71136],[81.15951,24.7086],[81.18328,24.69859],[81.18171,24.69089],[81.17741,24.69225],[81.17534,24.68526],[81.17452,24.6791],[81.17623,24.6754],[81.17509,24.67262],[81.17159,24.66808],[81.17033,24.66449],[81.16543,24.64534],[81.16568,24.64196],[81.16374,24.63882],[81.17,24.6244],[81.16648,24.61774],[81.16746,24.61356],[81.16416,24.60798],[81.163,24.60302],[81.16411,24.59196],[81.16126,24.58955],[81.16214,24.58325],[81.16083,24.57627],[81.16186,24.57209],[81.16012,24.56786],[81.16017,24.5655],[81.161,24.56414],[81.15845,24.56271],[81.15964,24.56032],[81.15961,24.55179],[81.15697,24.54188],[81.15878,24.53648],[81.15764,24.53305],[81.15839,24.52307],[81.151,24.51805],[81.14663,24.51652],[81.13961,24.5115],[81.14566,24.50805],[81.15501,24.50672],[81.16057,24.49936],[81.16326,24.49754],[81.1669,24.49791],[81.17688,24.50226],[81.18551,24.49855],[81.1891,24.49839],[81.20025,24.50113],[81.20563,24.49882],[81.21182,24.49463],[81.21873,24.492],[81.2232,24.49156],[81.22524,24.49051],[81.22368,24.47302],[81.22439,24.4689],[81.22909,24.4699],[81.23407,24.4724],[81.23548,24.47128],[81.23164,24.45553],[81.23915,24.44434],[81.24441,24.43812],[81.25198,24.43342],[81.25336,24.43046],[81.26074,24.43242],[81.26024,24.42208],[81.2719,24.41061],[81.27821,24.40935],[81.28167,24.40205],[81.28915,24.39844],[81.29133,24.39629],[81.28922,24.38162],[81.28781,24.3832],[81.28586,24.38322],[81.285,24.38206],[81.28487,24.37907],[81.2768,24.38381],[81.27354,24.38371],[81.27061,24.38216],[81.26958,24.38048],[81.26884,24.37001],[81.27021,24.36377],[81.27207,24.36174],[81.28044,24.35763],[81.28397,24.35666],[81.28256,24.35169],[81.27224,24.3298],[81.27064,24.32444],[81.27213,24.32205],[81.28077,24.32363],[81.28674,24.32328],[81.29357,24.32098],[81.29982,24.32229],[81.30622,24.32244],[81.31203,24.31702],[81.31193,24.30882],[81.32081,24.30047],[81.32659,24.2935],[81.32824,24.29243],[81.33132,24.29249],[81.34366,24.29407],[81.34543,24.29352],[81.34688,24.28918],[81.34981,24.28717],[81.34626,24.2816],[81.34694,24.27966],[81.34955,24.27695],[81.34536,24.2732],[81.3425,24.27178],[81.34834,24.25752],[81.35192,24.25425],[81.36129,24.25997],[81.36883,24.26325],[81.38632,24.26721],[81.39076,24.26487],[81.38606,24.26087],[81.38308,24.25583],[81.38352,24.24712],[81.38017,24.23278],[81.37334,24.21466],[81.36868,24.20666],[81.36084,24.1981],[81.35343,24.19276],[81.34759,24.19013],[81.3392,24.18884],[81.33,24.19137],[81.31587,24.19123],[81.29388,24.18905],[81.28583,24.18983],[81.27944,24.18673],[81.26176,24.17429],[81.24873,24.16159],[81.23259,24.15761],[81.2251,24.15287],[81.22397,24.14734],[81.22722,24.12945],[81.20903,24.11376],[81.20132,24.10981],[81.19661,24.1092],[81.1906,24.11039],[81.18443,24.11329],[81.17993,24.12043],[81.17689,24.12381],[81.16594,24.13206],[81.15855,24.13639],[81.14702,24.1367],[81.12845,24.1343],[81.11137,24.12968],[81.07608,24.11589],[81.02677,24.09935],[81.01641,24.09464],[81.01167,24.09249],[81.00353,24.09337],[80.99959,24.0919],[80.99508,24.09142],[80.99221,24.08851],[80.99019,24.08432],[80.9858,24.07815],[80.97666,24.06784],[80.97357,24.06639],[80.96643,24.06616],[80.96187,24.06719],[80.95823,24.06643],[80.95333,24.06891],[80.94909,24.06745],[80.93906,24.06604],[80.91967,24.06538],[80.91565,24.06825],[80.91086,24.07044],[80.89825,24.06787],[80.89502,24.07186],[80.89231,24.07685],[80.88692,24.08289],[80.88232,24.08226],[80.87608,24.08261],[80.8707,24.08056],[80.86636,24.07497],[80.86437,24.06815],[80.86433,24.06254],[80.8628,24.05694],[80.85325,24.04916],[80.8498,24.03768],[80.84363,24.03461],[80.8404,24.02611],[80.8369,24.02588],[80.83109,24.02952],[80.8248,24.02982],[80.81938,24.02743],[80.81613,24.0225],[80.81227,24.01963],[80.80939,24.01638],[80.80864,24.00072],[80.80844,23.99744],[80.80577,23.99402],[80.79925,23.98761],[80.79711,23.98111],[80.80042,23.97345],[80.79958,23.97144],[80.79565,23.96893],[80.78763,23.97012],[80.78391,23.97202],[80.77489,23.98157],[80.76658,23.9877],[80.76329,23.98827],[80.76119,23.98991],[80.7645,24.00038],[80.7667,24.00556],[80.76791,24.01193],[80.76436,24.01867],[80.75886,24.0255],[80.75834,24.02926],[80.77227,24.03714],[80.77939,24.0399],[80.78922,24.03769],[80.79764,24.03831],[80.80528,24.04042],[80.79953,24.04472],[80.79581,24.05043],[80.79498,24.0537],[80.8001,24.06005],[80.80266,24.06456],[80.80075,24.06722],[80.77772,24.07078],[80.76879,24.06938],[80.76358,24.06716],[80.75849,24.06382],[80.75572,24.06796],[80.75018,24.06483],[80.74668,24.06805],[80.74283,24.07231],[80.73656,24.07313],[80.73215,24.07259],[80.72981,24.07795],[80.72671,24.07962],[80.72311,24.07832],[80.72525,24.07296],[80.72293,24.06984],[80.71447,24.06972],[80.71018,24.07367],[80.70766,24.07832],[80.70318,24.08191],[80.70008,24.08588],[80.70031,24.09019],[80.7043,24.09551],[80.72117,24.09509],[80.73696,24.10662],[80.7457,24.11666],[80.74642,24.12084],[80.74333,24.13014],[80.73821,24.13517],[80.73092,24.13405],[80.72505,24.13192],[80.7194,24.13094],[80.70833,24.12306],[80.69256,24.11463],[80.68452,24.11236],[80.67795,24.10932],[80.67804,24.10483],[80.68161,24.09748],[80.68264,24.09074],[80.68209,24.07747],[80.67485,24.08019],[80.66837,24.08663],[80.66065,24.09256],[80.65499,24.09117],[80.64545,24.09179],[80.64163,24.0883],[80.64165,24.08358],[80.65098,24.05916],[80.65138,24.04903],[80.64741,24.05048],[80.64407,24.05974],[80.64088,24.06537],[80.63098,24.07825],[80.62504,24.07484],[80.61756,24.07198],[80.61029,24.06774],[80.6032,24.06613],[80.57896,24.04972],[80.57332,24.04924],[80.56105,24.04385],[80.54894,24.03306],[80.54951,24.04038],[80.55491,24.05478],[80.55304,24.05866],[80.54788,24.0595],[80.54467,24.06157],[80.53953,24.06706],[80.53531,24.06857],[80.52256,24.05844],[80.5218,24.05412],[80.51822,24.05307],[80.51666,24.04909],[80.52947,24.03531],[80.53312,24.03004],[80.52845,24.02388],[80.5197,24.01691],[80.50566,24.00854],[80.49401,24.00043],[80.49352,23.99875],[80.48528,23.99538],[80.47105,23.99271],[80.45762,23.98854],[80.45361,23.98625],[80.44762,23.98451],[80.4361,23.98281],[80.42058,23.9854],[80.41295,23.98351],[80.40882,23.98145],[80.40676,23.97904],[80.40479,23.97326],[80.40216,23.97173],[80.3987,23.97111],[80.39174,23.96622],[80.38796,23.96491],[80.38436,23.96515],[80.37165,23.97038],[80.36281,23.97041],[80.36034,23.96786],[80.35765,23.96701],[80.35573,23.96984],[80.35517,23.97242],[80.35736,23.97651],[80.36088,23.97927],[80.36603,23.98494],[80.37013,23.98668],[80.3763,23.9916],[80.38549,23.99635],[80.39072,24.00037],[80.38953,24.00957],[80.3911,24.01641],[80.39483,24.02321],[80.39165,24.03005],[80.38597,24.03773],[80.38762,24.04145],[80.40249,24.03772],[80.41073,24.03652],[80.41888,24.03416],[80.43923,24.0326],[80.44386,24.03519],[80.44502,24.05376],[80.44806,24.06932],[80.44705,24.07833],[80.44469,24.08622],[80.4445,24.08933],[80.44616,24.09166],[80.45772,24.08721],[80.46789,24.07597],[80.47551,24.07209],[80.48371,24.069],[80.51142,24.07726],[80.52757,24.08818],[80.53444,24.09434],[80.54159,24.09583],[80.54523,24.10286],[80.5498,24.10618],[80.56205,24.11184],[80.55922,24.1173],[80.56075,24.12188],[80.57012,24.12195],[80.57909,24.12318],[80.5814,24.12579],[80.5817,24.13131],[80.58734,24.13213],[80.59508,24.13448],[80.60017,24.13876],[80.60393,24.14474],[80.60869,24.14835],[80.60856,24.15054],[80.60136,24.15343],[80.60887,24.15975],[80.61421,24.16075],[80.61456,24.16258],[80.61125,24.1684],[80.61312,24.16848],[80.62332,24.15914],[80.62628,24.16018],[80.62193,24.16747],[80.62185,24.1726],[80.62928,24.17477],[80.63423,24.17796],[80.63435,24.18349],[80.63899,24.18433],[80.64883,24.18162],[80.651,24.17484],[80.6546,24.17679],[80.65449,24.1859],[80.65626,24.18932],[80.66286,24.18788],[80.66564,24.18887],[80.66718,24.19368],[80.67274,24.19271],[80.67717,24.19292],[80.67662,24.19869],[80.67091,24.19798],[80.6585,24.19458],[80.64947,24.19095],[80.64534,24.19107],[80.64238,24.19355],[80.63973,24.19849],[80.63215,24.1981],[80.62866,24.19258],[80.62647,24.18674],[80.62221,24.18405],[80.62269,24.18871],[80.62191,24.19034],[80.62423,24.19393],[80.62546,24.19828],[80.6238,24.19935],[80.61675,24.2008],[80.6124,24.2026],[80.6089,24.2062],[80.60189,24.20949],[80.59895,24.21271],[80.595,24.21918],[80.59255,24.23519],[80.5892,24.24009],[80.58195,24.24437],[80.57363,24.24463],[80.5734,24.2489],[80.58694,24.24941],[80.5904,24.25275],[80.58959,24.25651],[80.58504,24.26114],[80.57845,24.26425],[80.56578,24.26713],[80.56528,24.2729],[80.56675,24.28106],[80.56909,24.28823],[80.57456,24.29332],[80.57884,24.29958],[80.57577,24.30344],[80.5582,24.30922],[80.55827,24.31285],[80.55519,24.31538],[80.54906,24.31618],[80.54097,24.31978],[80.53813,24.32853],[80.53366,24.33713],[80.53449,24.34156],[80.53203,24.34408],[80.52259,24.34234],[80.51715,24.34283],[80.51357,24.34641],[80.51234,24.35138],[80.51527,24.3571],[80.51327,24.36059],[80.50888,24.36389],[80.50692,24.36929],[80.50316,24.37328],[80.49842,24.37474],[80.49313,24.37021],[80.48206,24.37213],[80.4721,24.37639],[80.47236,24.38681],[80.47008,24.3925],[80.4729,24.41569],[80.46868,24.41875],[80.46348,24.41889],[80.46368,24.42298],[80.46889,24.42273],[80.46773,24.42793],[80.46216,24.4358],[80.45338,24.4393],[80.44447,24.43622],[80.42492,24.44178],[80.42518,24.44547],[80.42836,24.45112],[80.43071,24.4667],[80.4331,24.47047],[80.43334,24.47652],[80.42675,24.47651],[80.42898,24.48155],[80.43181,24.48559],[80.43682,24.48845],[80.43807,24.49812],[80.4399,24.50529],[80.44294,24.5102],[80.44838,24.51207],[80.45853,24.51097],[80.46312,24.51431],[80.46426,24.51843],[80.467,24.52063],[80.46179,24.53046],[80.45834,24.53116],[80.45076,24.52858],[80.44662,24.52904],[80.45352,24.54916],[80.46082,24.55273],[80.45852,24.5647],[80.45998,24.57234],[80.4641,24.58415],[80.46269,24.59289],[80.47233,24.61099],[80.47137,24.61355],[80.4654,24.61359],[80.45298,24.61131],[80.44604,24.6067],[80.43955,24.60912],[80.4324,24.61015],[80.42189,24.60969],[80.41976,24.61318],[80.4254,24.62624],[80.42309,24.63394],[80.40818,24.6513],[80.39733,24.65909],[80.38887,24.67138],[80.38343,24.67723],[80.37758,24.68027],[80.37145,24.68595],[80.36839,24.69067],[80.37945,24.70076],[80.38426,24.70881],[80.38787,24.71083],[80.40326,24.70908],[80.40612,24.71111],[80.40607,24.71867],[80.41002,24.72408],[80.40949,24.72616],[80.40169,24.72709],[80.39539,24.74397],[80.3966,24.74816],[80.40344,24.75705],[80.40921,24.75966],[80.41243,24.77419],[80.41522,24.77519],[80.41945,24.77247],[80.42215,24.76498],[80.42619,24.76227],[80.42903,24.75611],[80.43514,24.74938],[80.44057,24.74681],[80.45927,24.76081],[80.47143,24.76475],[80.47574,24.75644],[80.47753,24.75751],[80.47816,24.76476],[80.48075,24.76506],[80.48325,24.76116],[80.48659,24.76439],[80.48546,24.76769],[80.48125,24.77116],[80.48393,24.77372],[80.48784,24.77406],[80.49499,24.77975],[80.50742,24.77436],[80.51018,24.77657],[80.51098,24.78203],[80.50941,24.78938],[80.53207,24.80242],[80.53981,24.80851],[80.55733,24.8126],[80.57528,24.81921],[80.58676,24.82438],[80.59104,24.82454],[80.59447,24.82655],[80.5964,24.83061],[80.6025,24.83092],[80.60785,24.83393],[80.60656,24.83862],[80.60038,24.83504],[80.59623,24.83523],[80.59852,24.84257],[80.60357,24.84658],[80.63443,24.86529],[80.63515,24.87295],[80.63265,24.87708],[80.62084,24.87551],[80.6031,24.88353],[80.59114,24.89008],[80.58604,24.8968],[80.58045,24.90047],[80.57128,24.90235],[80.55877,24.90373],[80.54492,24.9012],[80.5423,24.90245],[80.54,24.90739],[80.5325,24.91052],[80.52846,24.91463],[80.52357,24.91632],[80.51797,24.91353],[80.51322,24.90935],[80.50544,24.89691],[80.50732,24.89554],[80.50699,24.89215],[80.49077,24.88701],[80.48934,24.88079],[80.48964,24.8632],[80.49189,24.85891],[80.4911,24.85701],[80.4879,24.85465],[80.48347,24.85351],[80.48492,24.88393],[80.48672,24.8892],[80.48981,24.89319],[80.49291,24.90491],[80.49667,24.91038],[80.49666,24.9143],[80.493,24.91755],[80.49218,24.92172],[80.49239,24.92674],[80.4949,24.9308],[80.49427,24.93455],[80.49114,24.93899],[80.49123,24.94372],[80.4897,24.94628],[80.47817,24.96214],[80.47364,24.96972],[80.47356,24.97237],[80.47681,24.97463],[80.48132,24.97628],[80.48048,24.98223],[80.48136,24.98532],[80.48479,24.98947],[80.49507,24.993],[80.50182,25.00004],[80.50129,25.00257],[80.50674,25.00518],[80.50937,25.00532],[80.51638,25.00376],[80.52,25.00411],[80.52147,25.00871],[80.52444,25.0079],[80.53029,25.00284],[80.53369,25.00196],[80.53983,25.00137],[80.5503,25.00265],[80.55059,25.00482],[80.54941,25.00738],[80.54582,25.01056],[80.54386,25.01768],[80.54899,25.0255],[80.54964,25.02973],[80.54848,25.03175],[80.5451,25.03122],[80.53896,25.03227],[80.53631,25.03423],[80.52816,25.03602],[80.52513,25.03748],[80.52037,25.0378],[80.51379,25.0403],[80.50757,25.04073],[80.50445,25.03942],[80.50403,25.04],[80.50227,25.04125],[80.50125,25.05024],[80.50345,25.05115],[80.50532,25.05193],[80.5068,25.05331],[80.50829,25.05468],[80.5104,25.05877],[80.51022,25.06326],[80.50818,25.06687],[80.49869,25.0741],[80.50112,25.07493],[80.50263,25.07545],[80.50653,25.07846],[80.50724,25.08164],[80.50809,25.08545],[80.50809,25.08545],[80.50588,25.08728],[80.50588,25.08728],[80.50244,25.08793],[80.4954,25.08768],[80.48571,25.09227],[80.48282,25.09492],[80.48258,25.09769],[80.48422,25.09811],[80.48842,25.09745],[80.48842,25.09745],[80.48979,25.09792],[80.49203,25.09869],[80.50024,25.0981],[80.50024,25.0981],[80.50283,25.10081],[80.50927,25.10009],[80.51003,25.10001],[80.51762,25.09691],[80.521,25.09412],[80.52238,25.09168],[80.52327,25.08436],[80.52711,25.07783],[80.53623,25.07297],[80.54015,25.07183],[80.54355,25.06871],[80.54694,25.06559],[80.55154,25.06359],[80.55487,25.06392],[80.55673,25.06525],[80.56055,25.06523],[80.56349,25.06683],[80.56811,25.07093],[80.56929,25.07521],[80.56929,25.07521],[80.56923,25.0847],[80.57057,25.08737],[80.57377,25.08311],[80.57377,25.08311],[80.57617,25.08121],[80.58076,25.08174],[80.5868,25.0842],[80.58827,25.0829],[80.58827,25.0829],[80.58927,25.08275],[80.59571,25.08181],[80.59686,25.08029],[80.60136,25.07748],[80.60253,25.07605],[80.60408,25.07414],[80.61266,25.06861],[80.61266,25.06861],[80.61491,25.06815],[80.61491,25.06815],[80.61544,25.06905],[80.61544,25.06906],[80.6149,25.07217],[80.6149,25.07217],[80.61202,25.07838],[80.60816,25.0867],[80.60816,25.0867],[80.60816,25.0867],[80.60251,25.0889],[80.60002,25.09194],[80.59594,25.10502],[80.59953,25.11391],[80.60457,25.11793],[80.60962,25.11873],[80.60962,25.11873],[80.6092,25.11971],[80.60856,25.12123],[80.60856,25.12123],[80.60574,25.12406],[80.59893,25.12748],[80.59827,25.13072],[80.59922,25.13719],[80.59922,25.13719],[80.60278,25.15113],[80.60781,25.15136],[80.61398,25.14519],[80.61366,25.13227],[80.61366,25.13227],[80.61432,25.13148],[80.61651,25.12887],[80.62415,25.13404],[80.62638,25.13333],[80.63064,25.13198],[80.63313,25.13359],[80.63397,25.13155],[80.63618,25.12622],[80.64056,25.11922],[80.6394,25.11575],[80.63285,25.11737],[80.63046,25.11796],[80.63046,25.11796],[80.6274,25.11614],[80.62639,25.11174],[80.62293,25.1098],[80.62323,25.10715],[80.62146,25.10248],[80.61499,25.10246],[80.60951,25.10035],[80.60951,25.10035],[80.61471,25.09752],[80.61663,25.09455],[80.61663,25.09455],[80.62599,25.08962],[80.62819,25.08555],[80.63045,25.08526],[80.63045,25.08526],[80.63012,25.08935],[80.63169,25.09116],[80.63333,25.09152],[80.63679,25.08926],[80.64208,25.08977],[80.64208,25.08977],[80.6425,25.09315],[80.64339,25.09352],[80.6446,25.08993],[80.6446,25.08993],[80.6446,25.08993],[80.64962,25.08912],[80.65869,25.08351],[80.66188,25.07246],[80.66446,25.07044],[80.67237,25.0744],[80.67426,25.07653],[80.67487,25.08025],[80.67645,25.08274],[80.68743,25.07783],[80.68713,25.0718],[80.68605,25.06912],[80.68238,25.0641],[80.67996,25.06335],[80.67996,25.06335],[80.67996,25.06324],[80.68007,25.06059],[80.68007,25.06059],[80.68322,25.05855],[80.68171,25.0502],[80.68171,25.0502],[80.68171,25.0502],[80.68644,25.05061],[80.69504,25.05482],[80.70616,25.05759],[80.70616,25.05759],[80.70625,25.05759],[80.71349,25.05747],[80.71349,25.05747],[80.71765,25.06237],[80.71765,25.06237],[80.71913,25.06331],[80.72258,25.0638],[80.72259,25.0638],[80.73537,25.06787],[80.73738,25.06158],[80.74175,25.05851],[80.75227,25.0584],[80.75961,25.06008],[80.76384,25.05866],[80.77411,25.05722],[80.78411,25.05779],[80.78643,25.05997],[80.78957,25.06565],[80.78781,25.07396],[80.78418,25.08037],[80.77523,25.08166],[80.75932,25.08718],[80.75922,25.09034],[80.76026,25.09146],[80.7575,25.09381],[80.75397,25.09544],[80.74165,25.09736],[80.7375,25.09333],[80.73343,25.09398],[80.7287,25.09741],[80.7272,25.10004],[80.72812,25.11327],[80.73357,25.11889],[80.73064,25.12199],[80.72552,25.12492],[80.71567,25.12342],[80.70908,25.12402],[80.70668,25.12735],[80.70785,25.13311],[80.70914,25.13406],[80.71883,25.13442],[80.723,25.13926],[80.72354,25.14263],[80.72586,25.14257],[80.73128,25.14476],[80.73594,25.14339],[80.73688,25.13889],[80.74052,25.13835],[80.74027,25.13653],[80.74369,25.13122],[80.74631,25.1306],[80.74866,25.13341],[80.75909,25.13771],[80.7678,25.1366],[80.77429,25.13691],[80.78225,25.14263],[80.7849,25.14086],[80.79039,25.13311],[80.79193,25.1344],[80.79437,25.13399],[80.79892,25.13876],[80.80192,25.13835],[80.80613,25.14227],[80.80783,25.14245],[80.81144,25.13957],[80.81651,25.13687],[80.81596,25.12915],[80.81784,25.12675],[80.82688,25.12661],[80.82963,25.12167],[80.82992,25.11892],[80.82976,25.11611],[80.8314,25.11384],[80.83218,25.11072],[80.83593,25.10639],[80.84168,25.10936],[80.84601,25.12359],[80.84304,25.12859],[80.84036,25.13747],[80.84212,25.14167],[80.84572,25.15636],[80.85016,25.16398],[80.85058,25.16725],[80.84939,25.17128],[80.84417,25.18143],[80.84344,25.18649],[80.84458,25.1887],[80.84939,25.1895],[80.85688,25.18605],[80.86866,25.18663],[80.87144,25.18525],[80.87246,25.1839],[80.87784,25.1847],[80.88636,25.19164],[80.89445,25.17324],[80.89732,25.17076],[80.90425,25.16733],[80.91385,25.16057],[80.9132,25.1564],[80.90987,25.15408],[80.89857,25.14245],[80.89671,25.13734],[80.89353,25.1361],[80.88369,25.14052],[80.88103,25.12998],[80.87726,25.12401],[80.8741,25.12162],[80.87323,25.11975],[80.87478,25.11553],[80.8805,25.10542],[80.88123,25.09869],[80.87946,25.09437],[80.87555,25.09015],[80.87247,25.08429],[80.87304,25.08047],[80.88331,25.07569],[80.87886,25.0672],[80.86398,25.05861],[80.85506,25.04942],[80.84934,25.04742],[80.84341,25.03583],[80.83486,25.03534],[80.83731,25.02614],[80.84824,25.0164],[80.85009,25.00869],[80.85843,24.99934],[80.85634,24.99434],[80.85322,24.9897],[80.84454,24.9823],[80.83286,24.98226],[80.82924,24.97869],[80.82678,24.96984],[80.82072,24.96987],[80.81464,24.97121],[80.80693,24.97107],[80.80174,24.96984],[80.7981,24.96797],[80.79806,24.96337],[80.79976,24.96011],[80.81103,24.95314],[80.81031,24.94068],[80.82354,24.93415],[80.82894,24.93283],[80.83712,24.93469],[80.84302,24.93078],[80.84904,24.93181],[80.86475,24.93222],[80.88313,24.937],[80.88499,24.94133],[80.88936,24.94447],[80.89297,24.94516],[80.89684,24.94372],[80.90297,24.93873],[80.9061,24.93798],[80.90818,24.93587],[80.91092,24.93645],[80.90934,24.93964],[80.90145,24.94674],[80.90247,24.95017],[80.90543,24.95299],[80.91967,24.95856],[80.92413,24.96107],[80.92977,24.96286],[80.93664,24.96398],[80.94191,24.9664],[80.94499,24.96879],[80.95066,24.96743],[80.95302,24.96431],[80.95491,24.95744],[80.95486,24.95322],[80.95201,24.94701],[80.95298,24.94345],[80.95798,24.94271],[80.96037,24.93921],[80.96103,24.93577],[80.95925,24.92336],[80.96337,24.92206],[80.96655,24.92858],[80.97383,24.93496],[80.98041,24.93594],[80.98745,24.93443],[80.98607,24.9295],[80.98917,24.92601],[80.99264,24.92894],[80.9994,24.93348],[81.00489,24.93595],[81.00817,24.93657],[81.01687,24.92884],[81.02007,24.92961],[81.02282,24.92798],[81.02496,24.92884],[81.02615,24.93192],[81.02946,24.9335],[81.02931,24.93464],[81.02347,24.93643],[81.02074,24.94009],[81.01533,24.94899],[81.0177,24.95067],[81.02517,24.9428],[81.02742,24.94137],[81.02897,24.94245],[81.02956,24.94476],[81.0281,24.94835],[81.03137,24.94872],[81.03486,24.95133],[81.0513,24.94902],[81.05535,24.95158],[81.05901,24.95167],[81.06561,24.94951],[81.08462,24.94866],[81.0894,24.94662],[81.09065,24.9441],[81.08869,24.9348],[81.08975,24.93218],[81.09307,24.93079],[81.09768,24.92093],[81.10268,24.92023],[81.10472,24.91898],[81.10689,24.91489],[81.11199,24.90916],[81.11565,24.90862],[81.1189,24.90716],[81.12109,24.90199],[81.12494,24.89831]]]}}]}