{"type":"FeatureCollection","features":[{"type":"Feature","properties":{"id":"seoni","name":"Seoni","stateId":"madhya-pradesh","stateName":"Madhya Pradesh","censuscode":456,"type":"district"},"geometry":{"type":"Polygon","coordinates":[[[79.96401,22.85256],[79.97116,22.84281],[79.97472,22.83959],[79.9817,22.83118],[79.98674,22.82825],[79.99795,22.82783],[80.0048,22.82581],[80.00651,22.82346],[80.00929,22.819],[80.01093,22.81132],[80.01589,22.80398],[80.01774,22.79913],[80.02107,22.79394],[80.02656,22.78991],[80.03664,22.78565],[80.04314,22.78172],[80.04993,22.77477],[80.06067,22.76106],[80.0671,22.75816],[80.07204,22.75745],[80.0746,22.75824],[80.0898,22.76629],[80.10311,22.77096],[80.11776,22.76871],[80.17053,22.76631],[80.1792,22.76478],[80.18516,22.76619],[80.19639,22.77601],[80.20303,22.77765],[80.20671,22.78052],[80.20714,22.78762],[80.20615,22.79386],[80.20733,22.79651],[80.21059,22.79949],[80.21574,22.80126],[80.24151,22.79947],[80.24627,22.79794],[80.26502,22.7952],[80.2689,22.79432],[80.27705,22.78971],[80.28143,22.78616],[80.2827,22.78293],[80.28045,22.76595],[80.28368,22.75207],[80.285,22.74744],[80.28544,22.73213],[80.28622,22.7301],[80.29101,22.72563],[80.2881,22.72483],[80.28075,22.72124],[80.27386,22.71961],[80.25249,22.72088],[80.24288,22.71857],[80.24031,22.71651],[80.23875,22.71415],[80.23843,22.70728],[80.23529,22.70153],[80.23439,22.69755],[80.23876,22.69383],[80.24014,22.68932],[80.23735,22.6813],[80.23789,22.67882],[80.23657,22.67595],[80.23531,22.67445],[80.23171,22.67297],[80.22034,22.66986],[80.21542,22.67365],[80.21194,22.67188],[80.20188,22.66155],[80.19566,22.65178],[80.19527,22.64751],[80.19876,22.64305],[80.20788,22.6371],[80.21517,22.63399],[80.21625,22.62873],[80.20832,22.61423],[80.20594,22.61125],[80.19897,22.60638],[80.19288,22.60337],[80.17236,22.60288],[80.16058,22.60019],[80.15273,22.60197],[80.14688,22.61448],[80.14305,22.61682],[80.13608,22.61299],[80.13363,22.6144],[80.1255,22.61474],[80.12311,22.61619],[80.11629,22.62431],[80.11302,22.6271],[80.10458,22.62421],[80.09385,22.62318],[80.09006,22.62204],[80.08716,22.61617],[80.06824,22.60632],[80.06614,22.60754],[80.06107,22.60846],[80.0516,22.60482],[80.04825,22.60481],[80.03917,22.60715],[80.0362,22.60695],[80.03438,22.60541],[80.03316,22.59998],[80.03128,22.59849],[80.01935,22.59699],[80.01366,22.59299],[80.00996,22.58748],[80.00858,22.57824],[80.00509,22.57652],[80.00264,22.57639],[79.99835,22.57798],[79.99252,22.5797],[79.98642,22.57834],[79.98229,22.57627],[79.98058,22.56861],[79.97847,22.56594],[79.96505,22.56625],[79.95788,22.56112],[79.95398,22.55684],[79.96178,22.55418],[79.96326,22.55504],[79.96994,22.54942],[79.97368,22.54801],[79.98241,22.54802],[79.99409,22.54604],[79.99823,22.54752],[80.00645,22.55122],[80.00918,22.55184],[80.01277,22.54452],[80.01697,22.5429],[80.02679,22.54447],[80.03203,22.5425],[80.03503,22.53678],[80.03577,22.53309],[80.03547,22.52796],[80.03173,22.52221],[80.02623,22.52001],[80.024,22.51722],[80.02208,22.51293],[80.0261,22.50351],[80.0318,22.50133],[80.03491,22.50198],[80.03758,22.50161],[80.04023,22.49903],[80.04925,22.48009],[80.05228,22.47001],[80.05259,22.46158],[80.05462,22.45758],[80.06845,22.45439],[80.07148,22.45229],[80.07484,22.44834],[80.07667,22.44381],[80.07869,22.43118],[80.09265,22.42657],[80.09345,22.42367],[80.09321,22.41619],[80.09182,22.40719],[80.08976,22.40448],[80.07585,22.39508],[80.07388,22.39236],[80.07321,22.38553],[80.07082,22.37643],[80.07357,22.37044],[80.07915,22.35408],[80.08258,22.34779],[80.08999,22.34223],[80.09491,22.34064],[80.10026,22.34021],[80.10138,22.33616],[80.10132,22.33273],[80.10029,22.33006],[80.08913,22.31687],[80.08997,22.31355],[80.08964,22.3099],[80.0828,22.29848],[80.0927,22.28164],[80.09311,22.2787],[80.08914,22.27423],[80.09176,22.27059],[80.09496,22.26844],[80.09706,22.2637],[80.09857,22.2529],[80.09848,22.24903],[80.09709,22.24488],[80.09372,22.24062],[80.08594,22.23535],[80.08745,22.23216],[80.0886,22.22684],[80.06657,22.21726],[80.05664,22.21066],[80.04967,22.2037],[80.03864,22.19081],[80.03577,22.18631],[80.035,22.18162],[80.03614,22.17711],[80.04158,22.16707],[80.04383,22.1601],[80.04308,22.14432],[80.0452,22.12685],[80.04819,22.1228],[80.05167,22.12036],[80.05796,22.11749],[80.06028,22.11381],[80.06797,22.09254],[80.06743,22.08661],[80.07057,22.08131],[80.07004,22.07638],[80.06349,22.07948],[80.05205,22.0826],[80.04757,22.0832],[80.04205,22.08211],[80.00515,22.08239],[80.001,22.08101],[79.9979,22.07683],[79.9961,22.07155],[79.99399,22.06941],[79.98915,22.06892],[79.98524,22.06993],[79.96501,22.069],[79.96017,22.06972],[79.95607,22.07136],[79.94596,22.07107],[79.9408,22.07005],[79.92943,22.0618],[79.92616,22.05798],[79.92441,22.05456],[79.92379,22.05097],[79.92454,22.04289],[79.9215,22.03645],[79.92271,22.0343],[79.926,22.03311],[79.92821,22.03072],[79.92355,22.00779],[79.92259,22.00019],[79.92583,21.99136],[79.92406,21.97055],[79.91599,21.96908],[79.8893,21.96649],[79.88236,21.96807],[79.86388,21.96603],[79.8654,21.95726],[79.86256,21.954],[79.85033,21.95243],[79.84088,21.94405],[79.83874,21.93885],[79.84429,21.93605],[79.85327,21.93305],[79.87647,21.92963],[79.88091,21.9283],[79.88478,21.93173],[79.89049,21.93117],[79.89267,21.92855],[79.89021,21.92444],[79.88524,21.92048],[79.87997,21.91043],[79.87513,21.90606],[79.86675,21.90522],[79.87106,21.89878],[79.86156,21.89913],[79.8414,21.90338],[79.84193,21.89667],[79.8411,21.8843],[79.82748,21.87685],[79.81895,21.86865],[79.81191,21.8638],[79.80085,21.85787],[79.78223,21.86242],[79.7776,21.85645],[79.77996,21.85384],[79.78958,21.84791],[79.79553,21.84304],[79.78528,21.83143],[79.78054,21.82311],[79.76951,21.80659],[79.76056,21.80236],[79.74886,21.79848],[79.72078,21.80159],[79.71419,21.80433],[79.6924,21.79929],[79.68772,21.79234],[79.68526,21.78525],[79.69046,21.78065],[79.69221,21.77384],[79.69134,21.76555],[79.68718,21.75711],[79.68374,21.75316],[79.6819,21.74463],[79.67782,21.74332],[79.66875,21.74367],[79.66069,21.7426],[79.65891,21.73929],[79.6577,21.73377],[79.66013,21.73017],[79.66214,21.7229],[79.66488,21.71909],[79.66886,21.70959],[79.6717,21.71262],[79.67246,21.70659],[79.67642,21.70342],[79.67207,21.69928],[79.67422,21.69466],[79.67233,21.69343],[79.66217,21.69411],[79.6558,21.69035],[79.63773,21.69627],[79.63745,21.70334],[79.63159,21.70591],[79.61786,21.70815],[79.60868,21.7085],[79.60123,21.70794],[79.60216,21.70192],[79.60482,21.69633],[79.60632,21.68967],[79.61059,21.68565],[79.60803,21.68074],[79.60762,21.67602],[79.60168,21.6718],[79.59667,21.66697],[79.59516,21.66109],[79.59042,21.65913],[79.58847,21.65526],[79.59039,21.65264],[79.59529,21.64844],[79.59511,21.6435],[79.59167,21.64467],[79.58918,21.64354],[79.58698,21.64788],[79.58033,21.64665],[79.5755,21.63796],[79.57079,21.63394],[79.55488,21.63006],[79.54585,21.62862],[79.54112,21.62626],[79.54321,21.62157],[79.5469,21.61627],[79.54637,21.61035],[79.54249,21.60403],[79.53701,21.5989],[79.52833,21.5977],[79.52462,21.59293],[79.51189,21.5894],[79.51288,21.60151],[79.50914,21.60662],[79.50425,21.61147],[79.50719,21.61874],[79.5093,21.62145],[79.5108,21.62236],[79.51456,21.62195],[79.51854,21.62558],[79.5177,21.63021],[79.51566,21.63244],[79.5087,21.63367],[79.50634,21.63958],[79.50721,21.64478],[79.50536,21.6469],[79.50344,21.65098],[79.50061,21.65957],[79.49695,21.66273],[79.49572,21.66482],[79.49462,21.67312],[79.46454,21.68628],[79.45704,21.68329],[79.44675,21.68119],[79.43825,21.68243],[79.43395,21.6842],[79.42898,21.6895],[79.42177,21.69037],[79.41738,21.68989],[79.4137,21.68449],[79.40643,21.67857],[79.40307,21.67456],[79.40072,21.67351],[79.38903,21.6743],[79.36773,21.67841],[79.35493,21.67778],[79.35425,21.68328],[79.34854,21.68338],[79.32804,21.68723],[79.32614,21.68545],[79.32323,21.68467],[79.29067,21.69272],[79.28265,21.69902],[79.28063,21.70401],[79.27762,21.70782],[79.27072,21.71369],[79.2635,21.71628],[79.2345,21.72266],[79.23389,21.72063],[79.22488,21.71837],[79.22467,21.72359],[79.22665,21.73701],[79.22875,21.74273],[79.22953,21.75498],[79.23204,21.75893],[79.24392,21.76226],[79.2476,21.76571],[79.25154,21.77116],[79.25896,21.77788],[79.26426,21.77566],[79.27672,21.77325],[79.28245,21.7746],[79.28577,21.77815],[79.28395,21.78404],[79.28375,21.78921],[79.291,21.79846],[79.29325,21.8036],[79.29413,21.80964],[79.28742,21.82345],[79.27676,21.83095],[79.2775,21.83457],[79.27959,21.83707],[79.28337,21.83862],[79.28812,21.84771],[79.29807,21.86084],[79.3032,21.86931],[79.30416,21.87834],[79.30883,21.88857],[79.31122,21.8924],[79.31704,21.89599],[79.32026,21.90137],[79.32485,21.90529],[79.32705,21.90969],[79.3255,21.91432],[79.32832,21.91792],[79.34407,21.92125],[79.34857,21.92378],[79.35059,21.93553],[79.35048,21.94208],[79.34125,21.94867],[79.34236,21.95225],[79.34633,21.95684],[79.35613,21.96473],[79.36322,21.96604],[79.3684,21.97209],[79.37441,21.97154],[79.37436,21.9863],[79.37624,21.9915],[79.38416,21.99035],[79.39721,21.9911],[79.40311,22.00068],[79.40312,22.00899],[79.3989,22.01631],[79.40039,22.02014],[79.40467,22.02601],[79.40512,22.03042],[79.40806,22.03681],[79.40875,22.04035],[79.40305,22.04106],[79.3987,22.04048],[79.39331,22.04089],[79.39013,22.04247],[79.38872,22.04567],[79.38958,22.05316],[79.38862,22.06316],[79.38165,22.07584],[79.37834,22.08026],[79.37767,22.08374],[79.37799,22.08909],[79.3805,22.09275],[79.38633,22.09792],[79.3932,22.10209],[79.38671,22.10727],[79.37931,22.11582],[79.36889,22.12199],[79.36454,22.12636],[79.35823,22.12967],[79.35633,22.1327],[79.35382,22.13817],[79.35199,22.14641],[79.34918,22.1531],[79.34323,22.15939],[79.34226,22.16392],[79.34343,22.17595],[79.33884,22.19571],[79.33615,22.20443],[79.33297,22.20681],[79.33249,22.2146],[79.32838,22.21908],[79.3258,22.22443],[79.32587,22.23007],[79.33047,22.2393],[79.33648,22.24029],[79.34355,22.23773],[79.34967,22.22597],[79.35256,22.22505],[79.35917,22.22068],[79.36397,22.21899],[79.36642,22.22107],[79.3679,22.2277],[79.36606,22.23515],[79.36474,22.25178],[79.36512,22.26009],[79.36377,22.26358],[79.34991,22.26993],[79.34875,22.27254],[79.34722,22.28097],[79.34384,22.28476],[79.34102,22.28569],[79.33531,22.28389],[79.33163,22.28012],[79.32622,22.28135],[79.31119,22.28671],[79.30517,22.28979],[79.30118,22.29298],[79.29676,22.29839],[79.29744,22.29985],[79.29947,22.30095],[79.30149,22.30339],[79.29524,22.31729],[79.28696,22.3145],[79.28651,22.31816],[79.28818,22.32275],[79.29205,22.32641],[79.29954,22.32966],[79.30605,22.33442],[79.31773,22.33668],[79.32418,22.33917],[79.32725,22.34272],[79.33235,22.34626],[79.3372,22.34777],[79.34857,22.3484],[79.35398,22.3495],[79.35484,22.35269],[79.34951,22.3653],[79.34958,22.37077],[79.34718,22.3785],[79.3467,22.38321],[79.34412,22.38444],[79.3236,22.38341],[79.32089,22.38515],[79.31845,22.39301],[79.31574,22.39243],[79.31075,22.38946],[79.29871,22.3793],[79.29262,22.37559],[79.28716,22.37344],[79.28531,22.37524],[79.28987,22.38669],[79.29412,22.40895],[79.29903,22.41465],[79.30745,22.41615],[79.32129,22.41585],[79.33697,22.42298],[79.33764,22.42798],[79.33728,22.43659],[79.33531,22.44287],[79.33341,22.44577],[79.33004,22.44525],[79.33052,22.4413],[79.3283,22.43421],[79.32413,22.4334],[79.32106,22.43636],[79.31737,22.44282],[79.31553,22.44405],[79.3119,22.44219],[79.30661,22.44126],[79.30237,22.44184],[79.2929,22.44586],[79.28866,22.44691],[79.28571,22.44662],[79.27127,22.45285],[79.26622,22.45332],[79.26057,22.45106],[79.25307,22.44676],[79.24778,22.4467],[79.24305,22.4478],[79.23678,22.4467],[79.2342,22.44281],[79.22878,22.42426],[79.22461,22.42362],[79.20979,22.42944],[79.20451,22.43043],[79.20364,22.43956],[79.19965,22.44793],[79.20253,22.44973],[79.20592,22.45066],[79.20892,22.45078],[79.21115,22.44996],[79.22251,22.45287],[79.22362,22.456],[79.22786,22.46071],[79.2329,22.46943],[79.23746,22.47326],[79.24249,22.47367],[79.25191,22.4725],[79.25591,22.4739],[79.26642,22.47448],[79.27877,22.47831],[79.29095,22.47923],[79.29925,22.48271],[79.30565,22.483],[79.32157,22.47944],[79.34193,22.48302],[79.34513,22.48564],[79.34655,22.48883],[79.34655,22.49267],[79.34276,22.50587],[79.33549,22.50617],[79.33132,22.50798],[79.32947,22.51426],[79.33101,22.52262],[79.32918,22.52484],[79.32087,22.52827],[79.32119,22.53897],[79.32254,22.54234],[79.33086,22.55216],[79.33356,22.55326],[79.33744,22.55314],[79.33898,22.55442],[79.33824,22.55755],[79.33413,22.56401],[79.33487,22.56768],[79.34059,22.56639],[79.3422,22.56714],[79.34257,22.57418],[79.3438,22.57767],[79.3459,22.57784],[79.34712,22.57185],[79.35063,22.57266],[79.35365,22.57801],[79.35629,22.57998],[79.35697,22.58167],[79.35458,22.58655],[79.35711,22.5898],[79.35932,22.59079],[79.36487,22.59561],[79.37428,22.596],[79.37429,22.59914],[79.3714,22.60362],[79.3674,22.60619],[79.35718,22.60864],[79.35331,22.6115],[79.34415,22.61563],[79.32659,22.61204],[79.32562,22.61559],[79.33637,22.62235],[79.33816,22.62578],[79.33971,22.63189],[79.34426,22.63398],[79.3511,22.64048],[79.35993,22.64239],[79.36349,22.64383],[79.36873,22.6511],[79.37927,22.65672],[79.38069,22.66125],[79.38026,22.66544],[79.3836,22.6687],[79.39241,22.67107],[79.39421,22.67705],[79.40154,22.68303],[79.40396,22.68884],[79.40557,22.69791],[79.39873,22.69879],[79.41242,22.71051],[79.41391,22.71411],[79.41206,22.71714],[79.41311,22.72203],[79.42693,22.72572],[79.4384,22.72477],[79.45511,22.72922],[79.46358,22.73513],[79.4698,22.7407],[79.4732,22.73947],[79.47431,22.73743],[79.47227,22.73349],[79.47102,22.72791],[79.47267,22.72366],[79.48452,22.728],[79.49076,22.72921],[79.49501,22.72803],[79.50122,22.72383],[79.50633,22.7215],[79.51386,22.71991],[79.51774,22.7249],[79.51834,22.73763],[79.52336,22.75151],[79.51529,22.74967],[79.51251,22.75008],[79.51116,22.75428],[79.51944,22.76135],[79.51946,22.76588],[79.51638,22.77106],[79.5167,22.77542],[79.52024,22.78094],[79.52908,22.78865],[79.54319,22.80431],[79.54463,22.81059],[79.54453,22.81757],[79.55344,22.82452],[79.55998,22.82828],[79.5697,22.83169],[79.57469,22.83184],[79.58734,22.84652],[79.5884,22.85058],[79.59967,22.85967],[79.60153,22.86263],[79.60794,22.85878],[79.61468,22.85881],[79.62299,22.86919],[79.62528,22.87337],[79.62238,22.88558],[79.6241,22.89371],[79.62221,22.90232],[79.61551,22.91247],[79.61198,22.91463],[79.60767,22.91488],[79.60063,22.91292],[79.59428,22.92865],[79.5923,22.93208],[79.58551,22.93833],[79.58397,22.94182],[79.59088,22.94343],[79.59602,22.94376],[79.60502,22.94867],[79.61892,22.95211],[79.62298,22.95475],[79.62309,22.95425],[79.62868,22.9451],[79.63618,22.94113],[79.64081,22.9346],[79.64629,22.92964],[79.65174,22.92549],[79.66217,22.92214],[79.66933,22.92205],[79.6827,22.92665],[79.6885,22.92355],[79.69445,22.92266],[79.72275,22.92041],[79.7406,22.91715],[79.74901,22.91736],[79.7506,22.91362],[79.74736,22.90445],[79.74486,22.89986],[79.74735,22.89647],[79.75169,22.89536],[79.75789,22.88853],[79.77364,22.88235],[79.77655,22.8785],[79.76796,22.86651],[79.76365,22.86228],[79.76044,22.85688],[79.76039,22.85008],[79.7628,22.84595],[79.76754,22.84338],[79.7758,22.8431],[79.78174,22.84494],[79.7904,22.85112],[79.79952,22.86096],[79.80473,22.86495],[79.81167,22.868],[79.81705,22.86815],[79.81907,22.86565],[79.81716,22.85211],[79.81856,22.84822],[79.82716,22.84387],[79.82867,22.837],[79.83186,22.83397],[79.83782,22.83109],[79.84367,22.8299],[79.84923,22.83052],[79.85276,22.83352],[79.86334,22.84824],[79.869,22.85426],[79.87313,22.85406],[79.8778,22.85201],[79.88181,22.8517],[79.88487,22.85744],[79.88754,22.85998],[79.90014,22.86277],[79.90265,22.86055],[79.90572,22.84955],[79.90712,22.846],[79.90835,22.84547],[79.91342,22.84794],[79.92135,22.85325],[79.92748,22.85607],[79.94859,22.85846],[79.9551,22.85691],[79.96401,22.85256]]]}}]}