{"type":"FeatureCollection","features":[{"type":"Feature","properties":{"id":"sidhi","name":"Sidhi","stateId":"madhya-pradesh","stateName":"Madhya Pradesh","censuscode":462,"type":"district"},"geometry":{"type":"Polygon","coordinates":[[[82.25893,24.59824],[82.27467,24.59337],[82.28939,24.5939],[82.29945,24.59592],[82.30673,24.59887],[82.31469,24.59174],[82.32363,24.58669],[82.33037,24.5844],[82.34163,24.58314],[82.3451,24.57682],[82.34669,24.56975],[82.35821,24.56803],[82.36331,24.56246],[82.3791,24.55897],[82.37321,24.55026],[82.36905,24.54413],[82.35003,24.52878],[82.34543,24.52169],[82.33855,24.51106],[82.33472,24.50927],[82.31781,24.5003],[82.31286,24.49996],[82.30191,24.50357],[82.29147,24.50154],[82.28457,24.49602],[82.28145,24.48768],[82.27844,24.48251],[82.27191,24.48054],[82.26185,24.48174],[82.25584,24.46777],[82.25076,24.46529],[82.24113,24.46999],[82.23803,24.4582],[82.23956,24.44884],[82.23624,24.44314],[82.22676,24.43882],[82.21747,24.43634],[82.20267,24.42735],[82.1896,24.4252],[82.19233,24.41624],[82.20102,24.41022],[82.20582,24.40298],[82.20652,24.39747],[82.20347,24.39102],[82.19662,24.38671],[82.18973,24.38393],[82.17936,24.38254],[82.17189,24.38402],[82.15912,24.38958],[82.15397,24.391],[82.15134,24.38829],[82.15751,24.38061],[82.16257,24.37079],[82.16644,24.36056],[82.16362,24.35843],[82.15495,24.36158],[82.14884,24.36191],[82.14163,24.35874],[82.13359,24.36268],[82.12587,24.36221],[82.11633,24.36007],[82.10803,24.34638],[82.1078,24.34028],[82.11701,24.32709],[82.11495,24.32421],[82.11033,24.32319],[82.10448,24.3219],[82.0954,24.31802],[82.09234,24.31188],[82.082,24.30789],[82.06683,24.30453],[82.05319,24.31117],[82.04038,24.30982],[82.03155,24.30653],[82.03082,24.30348],[82.03472,24.29935],[82.03832,24.29553],[82.04207,24.2863],[82.0374,24.27833],[82.03252,24.27402],[82.02167,24.2667],[82.01722,24.26047],[81.99989,24.23764],[81.99437,24.23573],[81.98465,24.23238],[81.97646,24.23572],[81.9662,24.24347],[81.96478,24.24615],[81.96388,24.25343],[81.96121,24.25633],[81.95652,24.25506],[81.95429,24.25239],[81.95414,24.24481],[81.95759,24.23498],[81.95311,24.2324],[81.95041,24.23243],[81.94369,24.23791],[81.94013,24.23701],[81.93798,24.234],[81.93769,24.23034],[81.93689,24.22032],[81.93557,24.21692],[81.93308,24.21505],[81.91927,24.21546],[81.91672,24.20935],[81.91325,24.19701],[81.907,24.19143],[81.89714,24.18723],[81.89601,24.17866],[81.89799,24.17083],[81.8976,24.16726],[81.89352,24.16308],[81.89262,24.15572],[81.89121,24.15201],[81.88747,24.14217],[81.88385,24.13701],[81.87832,24.13339],[81.87714,24.12889],[81.87883,24.1238],[81.88512,24.1209],[81.89089,24.12045],[81.90201,24.11737],[81.90649,24.11519],[81.90798,24.11257],[81.90903,24.10333],[81.90734,24.09218],[81.90672,24.0881],[81.90765,24.08484],[81.91099,24.08236],[81.92303,24.07745],[81.94255,24.07121],[81.95227,24.06445],[81.95469,24.05961],[81.95592,24.05155],[81.96268,24.04599],[81.96412,24.03748],[81.96088,24.0302],[81.95966,24.02468],[81.9613,24.02051],[81.9652,24.01712],[81.97879,24.01239],[81.98491,24.01439],[81.99036,24.01782],[81.99543,24.01966],[81.99992,24.01809],[82.00686,24.01164],[82.01259,24.0161],[82.02169,24.03055],[82.02652,24.02659],[82.03169,24.02237],[82.03541,24.01827],[82.03912,24.01419],[82.0441,24.00871],[82.05037,24.0041],[82.05331,24.00292],[82.07755,24.00573],[82.0797,24.01437],[82.08522,24.01977],[82.08811,24.01689],[82.08901,24.01265],[82.09169,23.99991],[82.09359,23.99178],[82.09504,23.98989],[82.10088,23.98984],[82.10786,23.99236],[82.11529,23.99505],[82.12057,23.99506],[82.12699,23.9935],[82.1353,23.99049],[82.14433,23.98382],[82.14874,23.97878],[82.15607,23.97429],[82.15862,23.97409],[82.16128,23.97499],[82.16742,23.98033],[82.16881,23.98381],[82.1687,23.99273],[82.17013,23.9976],[82.17203,24.00026],[82.17489,24.00027],[82.17708,23.9986],[82.18078,23.98945],[82.19499,23.98145],[82.20008,23.98226],[82.21101,23.98736],[82.21617,23.98747],[82.22011,23.9863],[82.21826,23.97975],[82.21803,23.97495],[82.21752,23.96376],[82.21521,23.95975],[82.20813,23.95394],[82.20733,23.94884],[82.21028,23.94586],[82.21511,23.94273],[82.21591,23.92775],[82.21762,23.92533],[82.2215,23.92387],[82.23309,23.91949],[82.23547,23.91783],[82.23576,23.91501],[82.2348,23.91192],[82.22811,23.90542],[82.22629,23.90245],[82.22589,23.89904],[82.22797,23.89634],[82.23439,23.8944],[82.24087,23.89243],[82.24239,23.88973],[82.2404,23.88684],[82.23594,23.88034],[82.22607,23.87438],[82.22456,23.87101],[82.21736,23.86015],[82.21165,23.85153],[82.20334,23.84892],[82.1971,23.84225],[82.1865,23.84057],[82.18126,23.83762],[82.18023,23.83644],[82.17748,23.82322],[82.17602,23.82123],[82.173,23.81929],[82.17015,23.8185],[82.16349,23.82051],[82.1523,23.81778],[82.14182,23.81667],[82.1335,23.81819],[82.12519,23.82162],[82.11651,23.81718],[82.11453,23.81699],[82.10793,23.81859],[82.09685,23.81637],[82.08576,23.81554],[82.07976,23.81825],[82.07102,23.81757],[82.05313,23.81903],[82.05009,23.82339],[82.04827,23.82476],[82.03992,23.82773],[82.03877,23.83032],[82.04208,23.83707],[82.0429,23.84096],[82.04026,23.84347],[82.03624,23.84609],[82.01935,23.85064],[82.01535,23.85332],[82.01344,23.85716],[82.00849,23.86148],[81.9999,23.86097],[81.99169,23.86033],[81.97928,23.85668],[81.97013,23.8554],[81.96787,23.85459],[81.95846,23.8512],[81.95264,23.85523],[81.94779,23.85607],[81.94632,23.85926],[81.94461,23.86035],[81.94166,23.86022],[81.94002,23.8609],[81.94066,23.86504],[81.9394,23.86619],[81.9242,23.87125],[81.92246,23.87014],[81.9176,23.86236],[81.91201,23.85679],[81.90853,23.84949],[81.9058,23.84656],[81.90184,23.84234],[81.89308,23.84001],[81.88617,23.83617],[81.86982,23.83307],[81.86538,23.82704],[81.86067,23.82259],[81.83937,23.81955],[81.83636,23.81534],[81.83185,23.81466],[81.82514,23.80948],[81.81945,23.80774],[81.81335,23.80869],[81.80829,23.81178],[81.80113,23.81265],[81.7952,23.81015],[81.79038,23.81006],[81.78036,23.81241],[81.75292,23.82908],[81.74216,23.83434],[81.73823,23.8375],[81.73458,23.8391],[81.7268,23.83856],[81.72607,23.84151],[81.72913,23.84719],[81.73161,23.84884],[81.73159,23.85501],[81.73074,23.85709],[81.72865,23.85893],[81.72268,23.85998],[81.72027,23.86106],[81.71042,23.86149],[81.71001,23.86708],[81.71072,23.87093],[81.7062,23.87606],[81.7074,23.87956],[81.70514,23.88402],[81.69466,23.88299],[81.69014,23.88783],[81.68725,23.90566],[81.68508,23.90825],[81.67546,23.9137],[81.67267,23.92006],[81.66935,23.92358],[81.66516,23.92255],[81.65941,23.91581],[81.65585,23.91414],[81.64921,23.91314],[81.64503,23.91159],[81.63695,23.90563],[81.63226,23.90489],[81.62219,23.90624],[81.61825,23.90493],[81.6153,23.90123],[81.61327,23.89382],[81.61111,23.89037],[81.60463,23.88699],[81.59878,23.89074],[81.59158,23.89351],[81.57365,23.9084],[81.56428,23.91336],[81.56015,23.91262],[81.55379,23.90982],[81.5487,23.91022],[81.54539,23.91223],[81.5423,23.91802],[81.54004,23.9298],[81.53942,23.93735],[81.54018,23.94522],[81.54183,23.94809],[81.54487,23.95033],[81.55494,23.95393],[81.55625,23.95831],[81.55508,23.96062],[81.55393,23.96241],[81.54714,23.96694],[81.54003,23.97949],[81.53666,23.98212],[81.52667,23.98207],[81.51659,23.97918],[81.50892,23.98047],[81.50612,23.98351],[81.50292,23.99414],[81.50328,24.0007],[81.50591,24.00844],[81.5129,24.01437],[81.51441,24.0183],[81.51338,24.02134],[81.51159,24.02419],[81.50122,24.02854],[81.48881,24.03121],[81.48328,24.03424],[81.48204,24.03725],[81.48325,24.04089],[81.48646,24.04223],[81.49303,24.0431],[81.50688,24.04023],[81.51084,24.04077],[81.51965,24.04439],[81.52472,24.04752],[81.52672,24.04981],[81.52888,24.05321],[81.53326,24.06435],[81.53559,24.06761],[81.53893,24.06956],[81.54443,24.07033],[81.55351,24.06972],[81.55774,24.07081],[81.55957,24.07296],[81.55958,24.07624],[81.55453,24.08242],[81.54652,24.08695],[81.54134,24.08694],[81.53648,24.08543],[81.52746,24.07876],[81.52279,24.07805],[81.51823,24.07839],[81.51407,24.08022],[81.5101,24.08609],[81.50844,24.09128],[81.50771,24.09707],[81.51071,24.1107],[81.51044,24.11449],[81.5069,24.12017],[81.49832,24.12658],[81.49556,24.13627],[81.48965,24.14123],[81.48626,24.148],[81.48711,24.15225],[81.48941,24.15332],[81.4987,24.15483],[81.50098,24.15659],[81.5027,24.16125],[81.50067,24.16546],[81.49651,24.16735],[81.48696,24.16606],[81.48024,24.16711],[81.47445,24.17137],[81.4724,24.17684],[81.47152,24.18629],[81.47552,24.19024],[81.47898,24.1919],[81.48176,24.19424],[81.48352,24.20052],[81.4819,24.22933],[81.4825,24.23651],[81.48142,24.24033],[81.47068,24.26098],[81.46922,24.26893],[81.46385,24.27722],[81.46039,24.28101],[81.45742,24.28229],[81.45443,24.28098],[81.453,24.27705],[81.45432,24.27375],[81.4583,24.26859],[81.45401,24.26376],[81.44793,24.26023],[81.44481,24.25921],[81.43818,24.25869],[81.40304,24.26502],[81.39694,24.26549],[81.39076,24.26487],[81.38632,24.26721],[81.36883,24.26325],[81.36129,24.25997],[81.35192,24.25425],[81.34834,24.25752],[81.3425,24.27178],[81.34536,24.2732],[81.34955,24.27695],[81.34694,24.27966],[81.34626,24.2816],[81.34981,24.28717],[81.34688,24.28918],[81.34543,24.29352],[81.34366,24.29407],[81.33132,24.29249],[81.32824,24.29243],[81.32659,24.2935],[81.32081,24.30047],[81.31193,24.30882],[81.31203,24.31702],[81.30622,24.32244],[81.31432,24.32545],[81.31726,24.336],[81.32055,24.33824],[81.32554,24.34005],[81.33275,24.34119],[81.33833,24.341],[81.34776,24.34781],[81.37351,24.36127],[81.37976,24.36304],[81.38515,24.36336],[81.38844,24.36605],[81.41359,24.37518],[81.42087,24.37874],[81.42341,24.38137],[81.42866,24.38248],[81.43738,24.38664],[81.448,24.38979],[81.45642,24.39337],[81.50179,24.42232],[81.51518,24.42907],[81.53306,24.43538],[81.53939,24.43943],[81.54853,24.44244],[81.57295,24.4474],[81.57882,24.44972],[81.58308,24.45042],[81.59582,24.45549],[81.6001,24.45532],[81.64103,24.4709],[81.65675,24.47784],[81.67846,24.48889],[81.69746,24.50075],[81.71405,24.50392],[81.71584,24.50584],[81.7283,24.50986],[81.73167,24.51163],[81.73657,24.5121],[81.73814,24.51177],[81.74342,24.4999],[81.74612,24.49581],[81.74938,24.49649],[81.75448,24.50034],[81.75623,24.50083],[81.75914,24.49989],[81.76457,24.50266],[81.76952,24.50376],[81.78654,24.50462],[81.78663,24.51162],[81.79011,24.5142],[81.79743,24.51671],[81.79953,24.51599],[81.80354,24.51231],[81.80789,24.51156],[81.81428,24.51291],[81.81881,24.512],[81.82553,24.51374],[81.83069,24.51743],[81.83497,24.51743],[81.83863,24.52012],[81.84044,24.51733],[81.85703,24.52277],[81.88605,24.52974],[81.89095,24.53009],[81.89638,24.52861],[81.89927,24.52859],[81.90076,24.53021],[81.90033,24.53378],[81.89549,24.55163],[81.89578,24.55329],[81.92124,24.55958],[81.92622,24.56378],[81.92846,24.56977],[81.94518,24.57119],[81.94807,24.5718],[81.95107,24.57361],[81.95506,24.54713],[81.95877,24.54821],[81.9634,24.55355],[81.9809,24.55342],[81.98969,24.55405],[81.99352,24.55477],[81.99985,24.55954],[82.00566,24.56302],[82.0155,24.56935],[82.02096,24.57057],[82.03272,24.57086],[82.04551,24.57403],[82.06153,24.57635],[82.06666,24.58349],[82.06871,24.5901],[82.0703,24.60096],[82.0796,24.60109],[82.08993,24.59887],[82.09987,24.59774],[82.11729,24.60065],[82.1231,24.59273],[82.13046,24.59326],[82.13788,24.59506],[82.14328,24.59886],[82.15592,24.59929],[82.16479,24.60039],[82.17579,24.60363],[82.18559,24.60847],[82.18539,24.61307],[82.18009,24.61565],[82.17914,24.61944],[82.18795,24.61952],[82.19935,24.61574],[82.24783,24.60747],[82.25893,24.59824]]]}}]}