{"type":"FeatureCollection","features":[{"type":"Feature","properties":{"id":"umaria","name":"Umaria","stateId":"madhya-pradesh","stateName":"Madhya Pradesh","censuscode":431,"type":"district"},"geometry":{"type":"Polygon","coordinates":[[[81.00251,24.07081],[81.01492,24.05918],[81.02352,24.04635],[81.02929,24.03443],[81.06084,24.00029],[81.06816,23.97012],[81.06987,23.9659],[81.07319,23.96303],[81.07974,23.96201],[81.08705,23.96409],[81.10846,23.96466],[81.12138,23.96937],[81.12761,23.9691],[81.13117,23.96671],[81.13162,23.95962],[81.12939,23.95441],[81.12835,23.94607],[81.1335,23.93312],[81.14081,23.92478],[81.14602,23.92177],[81.15989,23.92557],[81.16392,23.92498],[81.17577,23.91543],[81.17726,23.91295],[81.17789,23.90964],[81.17702,23.90596],[81.17394,23.90313],[81.1639,23.89927],[81.16212,23.8964],[81.16223,23.89111],[81.16461,23.88736],[81.17464,23.87837],[81.18048,23.87803],[81.19286,23.88111],[81.20021,23.88434],[81.2097,23.88106],[81.21535,23.87386],[81.21739,23.86574],[81.21921,23.86175],[81.22367,23.85459],[81.2278,23.85232],[81.23113,23.85213],[81.24242,23.85595],[81.24875,23.85672],[81.2579,23.85376],[81.26478,23.84802],[81.2669,23.84525],[81.26927,23.83877],[81.26907,23.83278],[81.26722,23.83078],[81.24538,23.8273],[81.23403,23.82319],[81.22772,23.82172],[81.21566,23.82213],[81.2053,23.82248],[81.19235,23.8205],[81.18962,23.81913],[81.18599,23.81472],[81.18234,23.80582],[81.18214,23.79565],[81.18533,23.7894],[81.18899,23.78491],[81.1949,23.78057],[81.20536,23.76709],[81.21027,23.75651],[81.21411,23.74499],[81.21786,23.74236],[81.22292,23.74015],[81.23968,23.73531],[81.24253,23.73366],[81.24433,23.73142],[81.24753,23.72459],[81.24813,23.71884],[81.24697,23.70987],[81.24718,23.70373],[81.24749,23.69469],[81.24035,23.69063],[81.23363,23.68484],[81.22909,23.6792],[81.22892,23.67478],[81.23609,23.67005],[81.24051,23.66504],[81.24221,23.66023],[81.24272,23.65617],[81.24208,23.65034],[81.24029,23.64538],[81.23827,23.64045],[81.23826,23.64043],[81.23834,23.64038],[81.23812,23.63255],[81.23987,23.62806],[81.24098,23.6261],[81.24093,23.62431],[81.24619,23.60916],[81.25097,23.5996],[81.25081,23.59592],[81.25,23.59122],[81.24993,23.58415],[81.25116,23.57895],[81.25242,23.57682],[81.25723,23.57463],[81.25724,23.57445],[81.2626,23.57297],[81.27204,23.57053],[81.27921,23.57165],[81.28611,23.57159],[81.28968,23.57015],[81.29475,23.56634],[81.2988,23.56183],[81.30054,23.55757],[81.29795,23.55382],[81.29459,23.55008],[81.29331,23.54641],[81.29337,23.5464],[81.29326,23.54443],[81.294,23.54207],[81.29652,23.53875],[81.29827,23.53426],[81.29798,23.53143],[81.29719,23.52861],[81.29507,23.52156],[81.29399,23.51568],[81.29369,23.51097],[81.29365,23.50743],[81.29335,23.50296],[81.29329,23.49613],[81.29748,23.48148],[81.30024,23.475],[81.30121,23.46467],[81.30521,23.45303],[81.30434,23.45244],[81.3028,23.45104],[81.3015,23.4494],[81.30199,23.4468],[81.30402,23.44561],[81.3063,23.44394],[81.30944,23.43974],[81.30906,23.43857],[81.30931,23.43849],[81.31106,23.43447],[81.31384,23.43185],[81.31459,23.4302],[81.31406,23.42855],[81.31117,23.42791],[81.31135,23.42767],[81.31099,23.42764],[81.30919,23.42671],[81.30893,23.42577],[81.30891,23.42436],[81.30967,23.42341],[81.3117,23.4215],[81.31398,23.41983],[81.31677,23.41769],[81.31694,23.41698],[81.31854,23.41697],[81.32083,23.41601],[81.32311,23.4141],[81.32642,23.41313],[81.33,23.4131],[81.33357,23.41307],[81.3361,23.41092],[81.33581,23.40786],[81.33555,23.40669],[81.33375,23.40529],[81.3317,23.4046],[81.32862,23.40368],[81.32759,23.40228],[81.32833,23.39992],[81.32936,23.39943],[81.33478,23.39982],[81.33685,23.39695],[81.33648,23.39389],[81.33719,23.39277],[81.33871,23.39134],[81.34071,23.38708],[81.34119,23.38425],[81.33963,23.38167],[81.33869,23.38139],[81.33885,23.38102],[81.33757,23.37957],[81.33601,23.37746],[81.33395,23.37512],[81.33342,23.37348],[81.33315,23.37183],[81.33339,23.37089],[81.33516,23.36922],[81.33844,23.36566],[81.34059,23.36306],[81.34053,23.36292],[81.34246,23.3595],[81.34348,23.35854],[81.34525,23.35735],[81.34755,23.35733],[81.35036,23.35778],[81.35163,23.35729],[81.3534,23.35563],[81.35338,23.35398],[81.3526,23.3521],[81.3508,23.35094],[81.34925,23.34954],[81.34845,23.34648],[81.34792,23.3439],[81.34637,23.34273],[81.34623,23.34268],[81.3465,23.34239],[81.34555,23.33661],[81.34703,23.33212],[81.34827,23.32881],[81.34596,23.32742],[81.34389,23.32437],[81.34054,23.3211],[81.34026,23.31922],[81.34073,23.31521],[81.34172,23.31167],[81.34091,23.30743],[81.33935,23.30532],[81.33756,23.3044],[81.33551,23.30371],[81.33523,23.30159],[81.33547,23.2997],[81.3352,23.29829],[81.33468,23.29759],[81.33426,23.2967],[81.32637,23.29342],[81.32521,23.29437],[81.32318,23.29557],[81.31856,23.29278],[81.31599,23.29092],[81.31588,23.29052],[81.31316,23.28835],[81.31087,23.28908],[81.30834,23.29122],[81.30758,23.29123],[81.30321,23.2882],[81.29987,23.28587],[81.29983,23.2821],[81.29801,23.27882],[81.29596,23.27789],[81.29391,23.27697],[81.29186,23.27604],[81.29006,23.27394],[81.28877,23.27277],[81.28693,23.26737],[81.28399,23.25372],[81.28523,23.25018],[81.28699,23.24734],[81.28693,23.24121],[81.28689,23.23697],[81.28324,23.22899],[81.28144,23.22735],[81.27708,23.22527],[81.27121,23.22414],[81.26865,23.22298],[81.26454,23.21995],[81.25733,23.2088],[81.25219,23.21385],[81.23833,23.21804],[81.22555,23.23537],[81.23201,23.24692],[81.23023,23.25585],[81.20297,23.27852],[81.19904,23.28692],[81.19785,23.28945],[81.19359,23.28962],[81.19346,23.28951],[81.19065,23.28703],[81.18513,23.28544],[81.1825,23.287],[81.18082,23.288],[81.17459,23.29402],[81.17238,23.29446],[81.17159,23.29462],[81.16766,23.29806],[81.16814,23.30305],[81.16816,23.30328],[81.16817,23.30342],[81.17019,23.30589],[81.1742,23.30872],[81.17907,23.31217],[81.17942,23.31324],[81.18066,23.31701],[81.17986,23.32392],[81.1797,23.32526],[81.1731,23.32892],[81.17007,23.3306],[81.16954,23.33089],[81.16503,23.3317],[81.16335,23.32485],[81.16193,23.31906],[81.16173,23.31822],[81.14206,23.32039],[81.1396,23.32013],[81.13802,23.31996],[81.13782,23.31994],[81.13824,23.31304],[81.13872,23.30517],[81.14005,23.28328],[81.14054,23.27514],[81.13984,23.26651],[81.13984,23.26651],[81.13978,23.26185],[81.13921,23.24519],[81.13916,23.24231],[81.1387,23.23997],[81.1378,23.23509],[81.13529,23.22983],[81.13456,23.22888],[81.1285,23.22091],[81.12493,23.21621],[81.12122,23.21755],[81.11781,23.21616],[81.11254,23.21086],[81.10694,23.20316],[81.10415,23.20201],[81.10053,23.20197],[81.09729,23.20199],[81.08456,23.19815],[81.06784,23.19436],[81.0632,23.20173],[81.0604,23.205],[81.05743,23.20688],[81.04853,23.20833],[81.03363,23.20696],[81.02799,23.2116],[81.01978,23.22256],[81.01471,23.22313],[81.00874,23.22538],[81.00044,23.2306],[80.99473,23.23232],[80.99431,23.23587],[80.99674,23.24199],[80.99493,23.24378],[80.98844,23.24506],[80.98225,23.24773],[80.97902,23.25088],[80.9733,23.25476],[80.9624,23.26401],[80.95965,23.27567],[80.95586,23.27761],[80.94697,23.28659],[80.94184,23.28887],[80.93776,23.28891],[80.93217,23.28752],[80.92806,23.28551],[80.92258,23.28016],[80.9152,23.25895],[80.89646,23.2476],[80.88096,23.2417],[80.8718,23.23686],[80.86538,23.23052],[80.86481,23.2267],[80.86256,23.22181],[80.85691,23.22021],[80.85389,23.22025],[80.8499,23.22186],[80.83707,23.22996],[80.83438,23.23051],[80.8346,23.23566],[80.83375,23.24042],[80.82915,23.24222],[80.81535,23.24416],[80.81328,23.24952],[80.81322,23.25281],[80.80828,23.25278],[80.79339,23.24986],[80.79109,23.22773],[80.78914,23.22261],[80.78615,23.22098],[80.78088,23.22012],[80.77815,23.2186],[80.77731,23.21682],[80.76272,23.21963],[80.75886,23.22154],[80.75196,23.22592],[80.74289,23.23426],[80.74193,23.23584],[80.74192,23.23845],[80.74486,23.24472],[80.74555,23.24824],[80.74469,23.25195],[80.7413,23.25645],[80.73608,23.26157],[80.73096,23.26222],[80.72631,23.26152],[80.72491,23.26294],[80.72317,23.27234],[80.71718,23.28046],[80.71913,23.28553],[80.72662,23.29399],[80.73425,23.29186],[80.73572,23.2945],[80.73279,23.29668],[80.72806,23.29814],[80.72513,23.30073],[80.72579,23.30286],[80.73073,23.30695],[80.7412,23.31202],[80.74421,23.31435],[80.75488,23.31999],[80.75284,23.3273],[80.75345,23.33019],[80.75825,23.33556],[80.75996,23.34174],[80.75709,23.34403],[80.74321,23.34203],[80.74026,23.34334],[80.73833,23.34603],[80.73753,23.3501],[80.73559,23.35215],[80.72819,23.35648],[80.71151,23.36128],[80.70724,23.36476],[80.70569,23.36832],[80.70166,23.37092],[80.68562,23.36599],[80.67806,23.36488],[80.67467,23.36243],[80.64603,23.36189],[80.64196,23.36241],[80.63092,23.36031],[80.61569,23.35524],[80.60378,23.34932],[80.59434,23.34695],[80.57407,23.35174],[80.57286,23.35285],[80.56101,23.35456],[80.54376,23.3549],[80.54051,23.35673],[80.53952,23.36056],[80.54186,23.36401],[80.55392,23.37098],[80.55712,23.37435],[80.55773,23.37741],[80.55474,23.38098],[80.54672,23.38565],[80.54471,23.38788],[80.54437,23.38974],[80.54429,23.39297],[80.54425,23.39466],[80.5414,23.39753],[80.53323,23.40139],[80.53136,23.40419],[80.52963,23.40833],[80.53092,23.41601],[80.53404,23.42228],[80.53874,23.42929],[80.53962,23.43436],[80.54182,23.43648],[80.54841,23.43813],[80.55401,23.43621],[80.55773,23.43657],[80.5607,23.44057],[80.56358,23.45026],[80.56366,23.45981],[80.56527,23.46761],[80.56208,23.47367],[80.55367,23.48194],[80.54585,23.49281],[80.54553,23.49553],[80.54929,23.50306],[80.54947,23.50596],[80.5471,23.51276],[80.54712,23.51478],[80.54918,23.51985],[80.54965,23.52552],[80.55271,23.52774],[80.55368,23.53027],[80.55116,23.53887],[80.5511,23.54327],[80.55231,23.54522],[80.5563,23.54702],[80.55883,23.54995],[80.56019,23.56197],[80.56229,23.56559],[80.56809,23.56789],[80.57886,23.57533],[80.58775,23.57713],[80.59733,23.57579],[80.59878,23.57738],[80.60097,23.58627],[80.60354,23.58832],[80.60934,23.58639],[80.61255,23.58607],[80.6184,23.5876],[80.62256,23.59247],[80.62374,23.60756],[80.62125,23.61226],[80.62422,23.61564],[80.64164,23.6253],[80.64982,23.63387],[80.65161,23.63714],[80.64332,23.64211],[80.64248,23.64363],[80.64349,23.64865],[80.645,23.65043],[80.65162,23.65415],[80.65647,23.65489],[80.65971,23.65636],[80.66468,23.66149],[80.66994,23.66917],[80.67175,23.67337],[80.67211,23.67661],[80.67053,23.68322],[80.67025,23.69231],[80.67262,23.698],[80.67501,23.70052],[80.67829,23.70806],[80.68064,23.71132],[80.68208,23.72084],[80.68368,23.72458],[80.68746,23.73216],[80.68947,23.73439],[80.69599,23.73528],[80.69939,23.73459],[80.70366,23.73477],[80.70709,23.73599],[80.70934,23.75071],[80.70905,23.75522],[80.71036,23.76081],[80.71358,23.76112],[80.71659,23.75858],[80.72101,23.75193],[80.72365,23.74639],[80.72564,23.73832],[80.72789,23.7361],[80.72982,23.73237],[80.73051,23.72906],[80.73544,23.72731],[80.73977,23.72754],[80.75566,23.71343],[80.76046,23.71139],[80.7698,23.71022],[80.77119,23.70725],[80.77332,23.70548],[80.77532,23.70592],[80.77802,23.70478],[80.7769,23.69988],[80.77725,23.69872],[80.77935,23.69787],[80.78529,23.69791],[80.78828,23.6989],[80.79025,23.69783],[80.7918,23.69498],[80.79523,23.69128],[80.80211,23.68789],[80.80644,23.68372],[80.81361,23.68193],[80.81568,23.67971],[80.81909,23.67249],[80.82158,23.66932],[80.82703,23.66936],[80.84046,23.67188],[80.84417,23.67211],[80.85179,23.67114],[80.85619,23.67153],[80.86891,23.67568],[80.88091,23.67828],[80.89075,23.67743],[80.8945,23.67529],[80.89756,23.67622],[80.90225,23.67922],[80.90415,23.68214],[80.90401,23.69151],[80.90505,23.69867],[80.90633,23.70136],[80.90533,23.70814],[80.90132,23.71324],[80.89973,23.71909],[80.90055,23.72371],[80.90008,23.72903],[80.8968,23.74128],[80.89465,23.75478],[80.89239,23.76163],[80.89195,23.76585],[80.89354,23.76855],[80.89791,23.77004],[80.90622,23.77015],[80.90773,23.77099],[80.91108,23.77574],[80.91328,23.78656],[80.91209,23.7897],[80.90787,23.79508],[80.90618,23.79869],[80.90614,23.80487],[80.90532,23.8084],[80.90598,23.81123],[80.90565,23.8155],[80.90051,23.82591],[80.89775,23.82971],[80.89449,23.83212],[80.89206,23.84255],[80.89205,23.84671],[80.8952,23.85555],[80.89456,23.8607],[80.87951,23.87074],[80.86942,23.87373],[80.86454,23.87594],[80.8624,23.87823],[80.86199,23.88094],[80.86677,23.89053],[80.87752,23.89865],[80.87588,23.90361],[80.86858,23.90522],[80.84623,23.90642],[80.84265,23.90746],[80.84084,23.91068],[80.84024,23.92629],[80.84097,23.93407],[80.83559,23.95323],[80.83724,23.9562],[80.83974,23.95866],[80.84239,23.96418],[80.8466,23.96807],[80.85489,23.96615],[80.86885,23.96548],[80.87189,23.96557],[80.87688,23.96884],[80.87889,23.97286],[80.87862,23.97622],[80.87335,23.97985],[80.87426,23.9829],[80.87887,23.99066],[80.8865,23.99674],[80.88906,23.99869],[80.89032,24.00063],[80.89381,24.00868],[80.89611,24.0119],[80.89988,24.0154],[80.90361,24.01642],[80.91058,24.02864],[80.90942,24.03248],[80.90476,24.03516],[80.9055,24.03856],[80.91366,24.04062],[80.91937,24.04304],[80.92699,24.04246],[80.93601,24.04393],[80.93886,24.04616],[80.93989,24.04979],[80.93787,24.05184],[80.93396,24.04947],[80.93039,24.04981],[80.92935,24.05229],[80.92955,24.05557],[80.93123,24.05797],[80.94381,24.05971],[80.94754,24.0627],[80.95539,24.06337],[80.95823,24.06643],[80.96187,24.06719],[80.96643,24.06616],[80.97357,24.06639],[80.97666,24.06784],[80.9858,24.07815],[80.9858,24.07815],[80.99019,24.08432],[80.99221,24.08851],[80.99508,24.09142],[80.99959,24.0919],[81.00353,24.09337],[81.01167,24.09249],[81.00686,24.08796],[81.00231,24.08507],[81.00128,24.0814],[81.00251,24.07081]]]}}]}