{"type":"FeatureCollection","features":[{"type":"Feature","properties":{"id":"vidisha","name":"Vidisha","stateId":"madhya-pradesh","stateName":"Madhya Pradesh","censuscode":443,"type":"district"},"geometry":{"type":"Polygon","coordinates":[[[77.64899,24.3151],[77.66473,24.31131],[77.67524,24.31051],[77.6865,24.30855],[77.69359,24.30608],[77.69526,24.30314],[77.69726,24.30245],[77.70497,24.30419],[77.70902,24.30402],[77.7158,24.30235],[77.72021,24.30252],[77.73403,24.30512],[77.73851,24.30518],[77.755,24.30853],[77.76059,24.3068],[77.76687,24.3034],[77.7716,24.30288],[77.7759,24.30415],[77.77876,24.30697],[77.78252,24.31487],[77.78682,24.31772],[77.79086,24.31611],[77.79905,24.31091],[77.80876,24.3097],[77.81317,24.30843],[77.81975,24.30323],[77.82214,24.30917],[77.83478,24.3128],[77.84131,24.31315],[77.84554,24.3121],[77.87982,24.31764],[77.8915,24.31505],[77.89515,24.31351],[77.89737,24.30348],[77.89577,24.29781],[77.89236,24.29229],[77.88836,24.28813],[77.88599,24.27962],[77.88801,24.27741],[77.90261,24.27108],[77.90699,24.27017],[77.91783,24.2702],[77.92521,24.26948],[77.92716,24.26837],[77.92914,24.2654],[77.93001,24.26188],[77.92907,24.2544],[77.93196,24.25341],[77.93553,24.25122],[77.93799,24.24642],[77.9401,24.23312],[77.94213,24.23123],[77.94755,24.23164],[77.95345,24.23458],[77.95978,24.24004],[77.96617,24.24786],[77.97372,24.24661],[77.97804,24.24722],[77.98163,24.24559],[77.98444,24.24313],[77.99046,24.24198],[77.99528,24.23891],[77.99725,24.23848],[78.00038,24.23872],[78.00557,24.23788],[78.00778,24.23854],[78.01442,24.24313],[78.01633,24.24652],[78.01858,24.25401],[78.02031,24.26386],[78.02476,24.28078],[78.03032,24.28893],[78.03551,24.28911],[78.04701,24.28409],[78.05032,24.27552],[78.05365,24.27075],[78.06623,24.25885],[78.06952,24.25701],[78.07239,24.25627],[78.06909,24.24635],[78.07132,24.24373],[78.07325,24.24297],[78.07655,24.24198],[78.08049,24.24196],[78.09159,24.24926],[78.09364,24.24739],[78.09611,24.24342],[78.09739,24.23958],[78.0971,24.2351],[78.09569,24.23041],[78.09285,24.22717],[78.09066,24.22694],[78.08743,24.22819],[78.08123,24.23281],[78.07066,24.23908],[78.06736,24.23967],[78.06523,24.23926],[78.06278,24.23687],[78.05911,24.2304],[78.05903,24.22877],[78.07291,24.22357],[78.0791,24.21652],[78.08251,24.21383],[78.09708,24.20948],[78.10489,24.21074],[78.10684,24.21213],[78.108,24.21566],[78.12378,24.21451],[78.13418,24.21088],[78.13578,24.20856],[78.14296,24.20219],[78.13511,24.19566],[78.13141,24.19416],[78.12787,24.18804],[78.12757,24.18213],[78.12884,24.16945],[78.1258,24.16373],[78.12336,24.16275],[78.11463,24.16566],[78.11068,24.16376],[78.10482,24.16365],[78.09835,24.15978],[78.09658,24.15562],[78.10587,24.14808],[78.11083,24.13616],[78.11762,24.12619],[78.13213,24.1238],[78.13424,24.12124],[78.13544,24.11574],[78.12575,24.09256],[78.12739,24.0862],[78.12286,24.07511],[78.12047,24.07176],[78.1188,24.0588],[78.11866,24.04972],[78.11489,24.04643],[78.11058,24.04569],[78.10567,24.04743],[78.10193,24.05525],[78.10127,24.05849],[78.09917,24.06178],[78.09027,24.06481],[78.08596,24.06343],[78.08025,24.05818],[78.07512,24.05547],[78.07393,24.04697],[78.07516,24.04414],[78.08662,24.04336],[78.09103,24.04232],[78.09035,24.03434],[78.09276,24.03179],[78.10452,24.0287],[78.1133,24.02741],[78.11537,24.02914],[78.11846,24.04076],[78.12059,24.04179],[78.12433,24.0415],[78.13086,24.03831],[78.13307,24.03455],[78.14191,24.03105],[78.14257,24.02869],[78.14661,24.02642],[78.15227,24.02405],[78.1572,24.02368],[78.16031,24.01437],[78.16401,24.00946],[78.16719,24.00881],[78.17555,24.00897],[78.18245,24.01139],[78.18357,24.02728],[78.18566,24.02982],[78.1888,24.03173],[78.18981,24.03415],[78.18997,24.04444],[78.19189,24.0504],[78.19756,24.05737],[78.20379,24.06078],[78.20531,24.06407],[78.20764,24.06632],[78.2119,24.06793],[78.21571,24.06717],[78.21869,24.06514],[78.22477,24.0589],[78.23168,24.05457],[78.24392,24.0533],[78.25079,24.0506],[78.25376,24.04414],[78.26339,24.0399],[78.27403,24.03272],[78.2781,24.02876],[78.27886,24.01521],[78.28025,24.00629],[78.28315,24.0007],[78.28525,23.99876],[78.28617,23.99762],[78.28717,23.99586],[78.28847,23.9934],[78.28972,23.99082],[78.29008,23.9879],[78.29061,23.98534],[78.28984,23.98283],[78.28809,23.97969],[78.28595,23.97717],[78.2829,23.97343],[78.28199,23.97174],[78.28209,23.9689],[78.28471,23.96697],[78.28776,23.96632],[78.28877,23.96506],[78.28768,23.96314],[78.28603,23.96081],[78.28247,23.95891],[78.28025,23.95824],[78.27469,23.95724],[78.2732,23.957],[78.26888,23.95572],[78.26724,23.95304],[78.26556,23.94938],[78.26492,23.9459],[78.2659,23.94227],[78.26766,23.93969],[78.26967,23.93792],[78.27148,23.93657],[78.27418,23.934],[78.27669,23.93195],[78.27881,23.93065],[78.2818,23.92954],[78.28503,23.92854],[78.28653,23.92787],[78.28902,23.92628],[78.29104,23.92324],[78.29214,23.92014],[78.29247,23.91806],[78.29303,23.91446],[78.29245,23.91069],[78.29201,23.9067],[78.28979,23.90176],[78.28723,23.89918],[78.28487,23.89499],[78.28031,23.88857],[78.27823,23.88691],[78.27779,23.88246],[78.27747,23.87905],[78.27769,23.87621],[78.27854,23.87356],[78.27921,23.86894],[78.27826,23.86605],[78.27564,23.86318],[78.2712,23.86202],[78.2633,23.86041],[78.26221,23.85872],[78.26269,23.85519],[78.26458,23.85228],[78.26628,23.85068],[78.27045,23.84877],[78.27203,23.84671],[78.27317,23.84406],[78.27523,23.84288],[78.27852,23.84292],[78.28406,23.84495],[78.28683,23.84616],[78.2912,23.84742],[78.29373,23.8478],[78.29541,23.84684],[78.29604,23.84651],[78.29757,23.84289],[78.29817,23.83954],[78.29641,23.83662],[78.29484,23.83429],[78.29631,23.83061],[78.29768,23.82987],[78.2985,23.82833],[78.2973,23.82617],[78.2953,23.82303],[78.29323,23.82028],[78.29263,23.81894],[78.2913,23.81725],[78.2902,23.81585],[78.28874,23.81438],[78.28477,23.81525],[78.2816,23.81625],[78.278,23.81701],[78.27576,23.81802],[78.27364,23.81863],[78.27079,23.81923],[78.26894,23.8188],[78.26526,23.81638],[78.26386,23.81526],[78.26303,23.81253],[78.26591,23.80991],[78.26758,23.80942],[78.27074,23.80946],[78.27334,23.8092],[78.27679,23.80977],[78.27982,23.81056],[78.28179,23.81081],[78.28427,23.81044],[78.28469,23.8071],[78.28456,23.80334],[78.28441,23.80021],[78.28359,23.79644],[78.2839,23.79246],[78.28523,23.79011],[78.28568,23.78843],[78.28661,23.78382],[78.28517,23.78068],[78.28225,23.78197],[78.28055,23.78386],[78.27769,23.78475],[78.2746,23.7843],[78.27151,23.78432],[78.2698,23.78684],[78.27152,23.78801],[78.27384,23.79013],[78.27487,23.79176],[78.27547,23.79316],[78.27533,23.79472],[78.27228,23.7956],[78.26956,23.79615],[78.26757,23.79652],[78.26553,23.79649],[78.26381,23.79543],[78.26179,23.7939],[78.25735,23.78846],[78.25676,23.78637],[78.25611,23.78423],[78.25534,23.78144],[78.25599,23.7796],[78.25788,23.77748],[78.26047,23.7781],[78.26336,23.77912],[78.26693,23.78015],[78.26833,23.77745],[78.2673,23.77571],[78.26518,23.77209],[78.26459,23.77012],[78.26387,23.76849],[78.26296,23.76721],[78.26082,23.76574],[78.25749,23.76482],[78.25535,23.76271],[78.25433,23.76056],[78.25357,23.758],[78.25346,23.75615],[78.25431,23.75385],[78.25443,23.75333],[78.25476,23.75212],[78.25526,23.75184],[78.25675,23.75134],[78.25923,23.75091],[78.2612,23.75151],[78.26442,23.75092],[78.26529,23.75052],[78.2644,23.74809],[78.26299,23.74726],[78.26096,23.74672],[78.25811,23.74696],[78.25494,23.74738],[78.25355,23.74528],[78.25114,23.74144],[78.24931,23.73904],[78.24767,23.73699],[78.24648,23.73438],[78.24533,23.73205],[78.24437,23.72973],[78.24231,23.72715],[78.24055,23.72447],[78.23942,23.72174],[78.24106,23.71927],[78.24102,23.71742],[78.24017,23.71619],[78.23896,23.71439],[78.23767,23.71397],[78.24066,23.71227],[78.24265,23.71086],[78.24435,23.70903],[78.24678,23.70761],[78.24765,23.70716],[78.25056,23.70668],[78.25193,23.70641],[78.25314,23.70769],[78.25426,23.71135],[78.25504,23.71402],[78.25685,23.71717],[78.25737,23.71972],[78.25851,23.72193],[78.26014,23.72433],[78.26505,23.72729],[78.2667,23.72829],[78.26906,23.72792],[78.27018,23.72701],[78.27007,23.72637],[78.26837,23.72432],[78.26788,23.7235],[78.26587,23.72181],[78.26429,23.72005],[78.26382,23.71796],[78.26627,23.71574],[78.26776,23.71448],[78.26976,23.71278],[78.27039,23.7118],[78.27091,23.71007],[78.27113,23.70719],[78.27123,23.705],[78.27323,23.70311],[78.2761,23.70136],[78.27889,23.70053],[78.28204,23.70011],[78.28242,23.69947],[78.28314,23.69671],[78.28188,23.69427],[78.28148,23.69148],[78.28233,23.68832],[78.28459,23.68586],[78.28453,23.68574],[78.28691,23.68369],[78.28823,23.68151],[78.28913,23.67881],[78.29107,23.67693],[78.29159,23.67555],[78.29269,23.67371],[78.2917,23.67139],[78.2905,23.66842],[78.29084,23.66686],[78.29092,23.66496],[78.29003,23.66228],[78.2881,23.65862],[78.28506,23.65523],[78.28336,23.65307],[78.28309,23.64999],[78.2827,23.64676],[78.28188,23.64333],[78.28082,23.64025],[78.27974,23.63787],[78.27842,23.63508],[78.27812,23.63432],[78.27687,23.63055],[78.27573,23.62805],[78.27588,23.62539],[78.277,23.62049],[78.27693,23.61691],[78.27697,23.61413],[78.27695,23.61061],[78.27485,23.60636],[78.27175,23.60267],[78.2702,23.59855],[78.26838,23.59598],[78.26379,23.59256],[78.25747,23.59023],[78.25337,23.58722],[78.24637,23.58418],[78.24198,23.58083],[78.24213,23.57834],[78.24229,23.57597],[78.24319,23.5731],[78.24365,23.57154],[78.24343,23.56981],[78.24159,23.56821],[78.24077,23.56538],[78.23932,23.5631],[78.23614,23.56126],[78.23368,23.56065],[78.23121,23.56074],[78.22922,23.56094],[78.22744,23.56063],[78.22616,23.55968],[78.22563,23.55737],[78.22658,23.55547],[78.22815,23.55382],[78.22927,23.55296],[78.2299,23.55158],[78.23099,23.54911],[78.23102,23.54738],[78.23097,23.54651],[78.22685,23.54547],[78.22465,23.5444],[78.22352,23.54195],[78.22434,23.54004],[78.22557,23.53646],[78.22451,23.53303],[78.22159,23.52875],[78.21621,23.52532],[78.21437,23.52477],[78.21202,23.52504],[78.21057,23.52664],[78.2085,23.52894],[78.20669,23.53071],[78.20471,23.53057],[78.19992,23.53329],[78.19718,23.53552],[78.19585,23.53758],[78.19488,23.54066],[78.19238,23.53836],[78.19031,23.53612],[78.1883,23.53395],[78.18757,23.53289],[78.1855,23.53094],[78.18345,23.52837],[78.18125,23.52636],[78.17948,23.52541],[78.17732,23.5248],[78.17372,23.52579],[78.17101,23.52564],[78.1684,23.52654],[78.16668,23.5264],[78.16489,23.52597],[78.16343,23.52472],[78.16104,23.5233],[78.1578,23.5211],[78.15412,23.51937],[78.15154,23.51869],[78.14754,23.51828],[78.14346,23.51787],[78.14056,23.51761],[78.13758,23.51832],[78.1341,23.51641],[78.13263,23.51487],[78.13155,23.51323],[78.13114,23.51201],[78.131,23.50869],[78.13204,23.50521],[78.13295,23.50179],[78.13361,23.49901],[78.1332,23.49702],[78.13393,23.49395],[78.13441,23.49058],[78.13464,23.48809],[78.13455,23.48599],[78.13456,23.48459],[78.13478,23.48349],[78.13621,23.48206],[78.13758,23.48103],[78.13908,23.48013],[78.14038,23.47969],[78.1425,23.47855],[78.14485,23.47743],[78.14554,23.47744],[78.14854,23.47475],[78.14584,23.47366],[78.14369,23.47311],[78.14022,23.47357],[78.13657,23.4741],[78.13261,23.47496],[78.13101,23.47512],[78.12817,23.4749],[78.12479,23.47368],[78.12081,23.47199],[78.11811,23.47102],[78.11557,23.47092],[78.11144,23.47093],[78.10893,23.46978],[78.10672,23.46894],[78.10317,23.46673],[78.10396,23.4647],[78.10447,23.46314],[78.10419,23.46134],[78.10218,23.45916],[78.09868,23.45835],[78.09578,23.45813],[78.0926,23.45688],[78.08964,23.4533],[78.08836,23.45184],[78.08592,23.4503],[78.08204,23.45044],[78.08013,23.45125],[78.0797,23.45136],[78.07722,23.4521],[78.07475,23.45267],[78.07172,23.45377],[78.06992,23.45481],[78.0677,23.45556],[78.06541,23.45679],[78.06418,23.45667],[78.06308,23.45691],[78.05965,23.45693],[78.05693,23.4576],[78.05314,23.45787],[78.05072,23.46022],[78.04811,23.46251],[78.04457,23.46644],[78.04179,23.46858],[78.03874,23.46928],[78.034,23.46983],[78.03302,23.47009],[78.02967,23.47089],[78.02523,23.47211],[78.02336,23.47183],[78.01973,23.47164],[78.01509,23.47372],[78.01178,23.47247],[78.00776,23.47028],[78.00597,23.46846],[78.00339,23.46704],[78.00085,23.46617],[77.99792,23.46239],[77.99261,23.438],[77.99259,23.42649],[77.99414,23.41488],[77.99832,23.4189],[78.00073,23.41616],[78.00298,23.41491],[78.005,23.4136],[78.00852,23.41221],[78.01153,23.41077],[78.01479,23.40959],[78.01968,23.40953],[78.02282,23.40878],[78.02856,23.40627],[78.03135,23.40407],[78.03353,23.40329],[78.03708,23.40201],[78.03952,23.40192],[78.04262,23.4018],[78.0483,23.40134],[78.04882,23.3979],[78.04905,23.39399],[78.05135,23.39115],[78.05401,23.38897],[78.05651,23.38629],[78.05709,23.38411],[78.05528,23.38092],[78.05449,23.37929],[78.0525,23.37616],[78.05136,23.37244],[78.05097,23.36953],[78.05026,23.36756],[78.04559,23.36431],[78.04177,23.36373],[78.0382,23.36234],[78.03661,23.3604],[78.03319,23.35631],[78.03154,23.35439],[78.02874,23.351],[78.02419,23.3493],[78.02222,23.345],[78.01893,23.34574],[78.01609,23.34802],[78.01388,23.34976],[78.01109,23.35043],[78.00793,23.35052],[78.00696,23.35281],[78.00654,23.35488],[78.00587,23.35726],[78.00533,23.35936],[78.005,23.36004],[78.00436,23.3607],[78.0025,23.36232],[77.99939,23.36234],[77.97662,23.36522],[77.96076,23.37241],[77.95915,23.38258],[77.95715,23.38754],[77.95742,23.39567],[77.95932,23.40029],[77.9587,23.40767],[77.96076,23.41221],[77.95776,23.41482],[77.94645,23.41978],[77.93764,23.42351],[77.93383,23.42579],[77.93147,23.42885],[77.93042,23.43277],[77.92825,23.43668],[77.91908,23.44335],[77.91688,23.4467],[77.91722,23.44997],[77.91532,23.45227],[77.90383,23.4532],[77.89165,23.44856],[77.88757,23.44927],[77.88377,23.44828],[77.87851,23.44201],[77.87441,23.44124],[77.86605,23.44322],[77.85377,23.44442],[77.84287,23.44653],[77.84053,23.4535],[77.8383,23.45529],[77.82077,23.45723],[77.81546,23.45873],[77.81126,23.46128],[77.80106,23.47688],[77.79515,23.48027],[77.78883,23.48545],[77.78283,23.48687],[77.77845,23.4891],[77.77619,23.49816],[77.76851,23.50329],[77.76085,23.50669],[77.76032,23.5087],[77.7639,23.51443],[77.76531,23.51868],[77.7628,23.52169],[77.75892,23.52345],[77.74807,23.52297],[77.742,23.52693],[77.73753,23.5324],[77.73488,23.53454],[77.73025,23.53426],[77.72713,23.53212],[77.72518,23.5283],[77.7225,23.52151],[77.7165,23.52134],[77.71017,23.5196],[77.70614,23.51971],[77.70354,23.51881],[77.70329,23.52523],[77.70233,23.52776],[77.69302,23.53144],[77.6884,23.52683],[77.68287,23.51835],[77.67922,23.51723],[77.67266,23.51793],[77.66497,23.52253],[77.66502,23.52754],[77.66313,23.53055],[77.65888,23.53209],[77.65431,23.53844],[77.64873,23.53892],[77.64381,23.54075],[77.64082,23.54625],[77.6349,23.54753],[77.62907,23.54645],[77.62674,23.54206],[77.62648,23.53337],[77.62844,23.52585],[77.63083,23.52318],[77.64827,23.5106],[77.65258,23.50183],[77.65191,23.49727],[77.64884,23.4927],[77.65179,23.49093],[77.65194,23.48111],[77.65104,23.47817],[77.64453,23.47515],[77.63973,23.47093],[77.63394,23.46807],[77.63159,23.46854],[77.62798,23.46482],[77.62561,23.46382],[77.62137,23.46599],[77.60675,23.47632],[77.60054,23.48627],[77.58182,23.48829],[77.57131,23.48855],[77.56903,23.49519],[77.56816,23.50142],[77.56582,23.50281],[77.56,23.50178],[77.55205,23.49808],[77.54476,23.49826],[77.53391,23.502],[77.52866,23.50204],[77.52435,23.5034],[77.52196,23.51761],[77.51973,23.52247],[77.51691,23.52563],[77.51431,23.53117],[77.5101,23.53222],[77.50835,23.53553],[77.50692,23.54111],[77.50798,23.54817],[77.50655,23.55398],[77.5078,23.55634],[77.51351,23.55833],[77.51209,23.56537],[77.50882,23.57286],[77.50909,23.57596],[77.51304,23.58117],[77.5182,23.58356],[77.5248,23.58253],[77.52802,23.58327],[77.53369,23.58735],[77.54238,23.59156],[77.5447,23.59395],[77.54923,23.59529],[77.55386,23.59434],[77.55773,23.59785],[77.56017,23.60098],[77.56827,23.62071],[77.57105,23.63148],[77.5741,23.63476],[77.57439,23.63867],[77.57579,23.64255],[77.57589,23.64652],[77.57345,23.64934],[77.57991,23.65267],[77.59033,23.65525],[77.59321,23.65899],[77.59719,23.66033],[77.61095,23.66302],[77.62304,23.66387],[77.63198,23.66211],[77.6343,23.66434],[77.63583,23.66951],[77.6463,23.68784],[77.65068,23.69841],[77.65082,23.70016],[77.64908,23.70535],[77.6498,23.708],[77.64991,23.71476],[77.64996,23.71803],[77.64101,23.71377],[77.63546,23.71712],[77.63166,23.71407],[77.62887,23.71345],[77.62022,23.7152],[77.61819,23.71727],[77.61952,23.72597],[77.61071,23.7297],[77.6076,23.72943],[77.60458,23.7305],[77.60587,23.73614],[77.60942,23.7371],[77.60983,23.74061],[77.61392,23.74744],[77.61382,23.74988],[77.61117,23.75151],[77.60264,23.75263],[77.58926,23.75792],[77.57425,23.76863],[77.56588,23.76754],[77.56454,23.76377],[77.56054,23.75948],[77.55531,23.75737],[77.55024,23.75769],[77.53766,23.76353],[77.53511,23.76313],[77.524,23.76644],[77.51576,23.76739],[77.51264,23.77022],[77.51217,23.7734],[77.50744,23.77728],[77.50354,23.77832],[77.50001,23.77759],[77.49831,23.7745],[77.48168,23.76461],[77.47112,23.76049],[77.45747,23.7651],[77.45611,23.77288],[77.45171,23.77919],[77.44623,23.78162],[77.43871,23.77948],[77.43602,23.7835],[77.43494,23.78788],[77.43533,23.7907],[77.44006,23.79316],[77.44727,23.79491],[77.44771,23.79649],[77.43136,23.80397],[77.41761,23.80472],[77.41559,23.80651],[77.41119,23.81463],[77.40921,23.82204],[77.40901,23.82742],[77.40809,23.82891],[77.40365,23.83085],[77.39468,23.83316],[77.39391,23.83709],[77.39436,23.83912],[77.39611,23.84073],[77.40038,23.83975],[77.40128,23.85141],[77.40032,23.8546],[77.39453,23.85774],[77.38782,23.85868],[77.38406,23.86098],[77.3785,23.86891],[77.3748,23.88402],[77.36722,23.88693],[77.33709,23.89321],[77.32475,23.89412],[77.31863,23.89379],[77.31795,23.89947],[77.32212,23.90709],[77.32277,23.91127],[77.32116,23.91391],[77.31808,23.91669],[77.31162,23.91806],[77.30895,23.91937],[77.3081,23.92154],[77.30846,23.92698],[77.30763,23.92921],[77.3058,23.92996],[77.29984,23.92858],[77.29795,23.92882],[77.29673,23.93067],[77.29855,23.93228],[77.3046,23.93511],[77.30605,23.93755],[77.30669,23.94805],[77.3065,23.9536],[77.3045,23.955],[77.30125,23.95494],[77.29971,23.95953],[77.30222,23.96694],[77.30523,23.97034],[77.30356,23.97136],[77.29841,23.97208],[77.29638,23.97354],[77.29554,23.97523],[77.31051,23.98117],[77.31258,23.98239],[77.31316,23.98418],[77.30911,23.98631],[77.30345,23.99258],[77.30321,23.99431],[77.30487,23.99552],[77.2964,23.99876],[77.29446,23.99963],[77.29622,24.0013],[77.30212,24.00091],[77.3045,24.00566],[77.30319,24.01094],[77.31071,24.00977],[77.31176,24.01185],[77.30917,24.01892],[77.30667,24.02258],[77.30439,24.02409],[77.29786,24.02491],[77.28236,24.02342],[77.27961,24.0245],[77.28259,24.03001],[77.28641,24.03324],[77.2903,24.03392],[77.29276,24.0354],[77.29752,24.04101],[77.29531,24.0432],[77.29037,24.04376],[77.2739,24.04098],[77.26964,24.0423],[77.26152,24.05237],[77.26003,24.0561],[77.2644,24.07015],[77.26973,24.07137],[77.27918,24.07495],[77.28902,24.08192],[77.29545,24.0839],[77.29824,24.08844],[77.29621,24.09334],[77.29615,24.09617],[77.29839,24.09935],[77.29244,24.10373],[77.29084,24.10673],[77.29006,24.11991],[77.28876,24.12466],[77.29198,24.12542],[77.29168,24.12889],[77.29385,24.12878],[77.29738,24.12711],[77.30048,24.12845],[77.31203,24.14713],[77.31347,24.15091],[77.31137,24.15432],[77.30462,24.16189],[77.30296,24.16645],[77.31852,24.17079],[77.33156,24.17737],[77.34224,24.18052],[77.34447,24.1829],[77.34591,24.18829],[77.34482,24.19506],[77.34333,24.19835],[77.33201,24.21227],[77.33214,24.21477],[77.33568,24.21599],[77.33916,24.21466],[77.34237,24.21403],[77.34896,24.21429],[77.35181,24.21476],[77.35163,24.21655],[77.34577,24.23082],[77.33865,24.24121],[77.32896,24.24819],[77.3299,24.25149],[77.33271,24.25415],[77.3319,24.25883],[77.32595,24.2694],[77.32495,24.27337],[77.32292,24.28499],[77.32361,24.29383],[77.3279,24.30112],[77.34364,24.31538],[77.34669,24.31915],[77.3495,24.33094],[77.35417,24.3387],[77.35474,24.34331],[77.35822,24.34702],[77.36712,24.34855],[77.37122,24.34816],[77.37234,24.34332],[77.37882,24.34027],[77.38348,24.33907],[77.39162,24.33869],[77.39567,24.33755],[77.40281,24.33087],[77.40909,24.32737],[77.39999,24.31666],[77.39519,24.30723],[77.39518,24.30491],[77.40332,24.30216],[77.40693,24.29963],[77.40394,24.2965],[77.4043,24.29361],[77.39888,24.2858],[77.39844,24.28348],[77.3993,24.27915],[77.40129,24.27523],[77.41231,24.26196],[77.42378,24.25233],[77.42756,24.24864],[77.43041,24.24443],[77.43413,24.24189],[77.44188,24.2392],[77.45147,24.23997],[77.46016,24.24667],[77.46626,24.25268],[77.47328,24.25454],[77.47938,24.26113],[77.48156,24.267],[77.48442,24.26909],[77.48591,24.27145],[77.48628,24.27503],[77.49201,24.2763],[77.49431,24.27343],[77.49537,24.26795],[77.49965,24.26411],[77.50047,24.26088],[77.50413,24.25368],[77.50761,24.25334],[77.52012,24.24922],[77.52696,24.24807],[77.53205,24.24641],[77.54038,24.24585],[77.55363,24.24864],[77.55519,24.25446],[77.55843,24.25493],[77.56277,24.25447],[77.56551,24.25604],[77.57535,24.26821],[77.58038,24.26932],[77.59413,24.26905],[77.59606,24.27227],[77.59558,24.28536],[77.59852,24.29758],[77.60088,24.29862],[77.61127,24.29696],[77.6211,24.29743],[77.62427,24.29905],[77.6348,24.30822],[77.64165,24.31042],[77.64899,24.3151]]]}}]}