{"type":"FeatureCollection","features":[{"type":"Feature","properties":{"id":"west-nimar","name":"West Nimar","stateId":"madhya-pradesh","stateName":"Madhya Pradesh","censuscode":440,"type":"district"},"geometry":{"type":"Polygon","coordinates":[[[76.21357,22.32953],[76.20978,22.32425],[76.20774,22.32067],[76.20612,22.31746],[76.20263,22.3112],[76.20004,22.30537],[76.19768,22.30028],[76.19407,22.29403],[76.19288,22.29065],[76.19005,22.28474],[76.18908,22.28258],[76.18812,22.27996],[76.1869,22.27739],[76.18296,22.27182],[76.1795,22.26897],[76.17615,22.26631],[76.17089,22.26188],[76.16759,22.25957],[76.16378,22.25788],[76.15969,22.25729],[76.15554,22.25717],[76.15091,22.25808],[76.14594,22.25852],[76.14165,22.25862],[76.13558,22.25876],[76.13035,22.25769],[76.12828,22.25725],[76.12281,22.25587],[76.11716,22.25411],[76.10935,22.25113],[76.10453,22.24868],[76.09966,22.24587],[76.09475,22.24214],[76.08975,22.23892],[76.0865,22.23725],[76.08176,22.2342],[76.08009,22.23285],[76.0749,22.23044],[76.0645,22.22586],[76.05946,22.22473],[76.05493,22.22459],[76.04954,22.22473],[76.04623,22.22479],[76.03965,22.22375],[76.03498,22.2224],[76.03051,22.22029],[76.02667,22.21593],[76.02409,22.21403],[76.02444,22.20859],[76.02659,22.20446],[76.02896,22.20108],[76.03277,22.19651],[76.03528,22.19666],[76.03845,22.19527],[76.04197,22.19394],[76.04558,22.194],[76.05042,22.192],[76.05253,22.19087],[76.05349,22.18985],[76.05835,22.18889],[76.06024,22.18939],[76.06194,22.18953],[76.06475,22.19004],[76.06974,22.19077],[76.07409,22.19066],[76.07568,22.19052],[76.07625,22.18971],[76.07729,22.18799],[76.07844,22.18633],[76.07983,22.18682],[76.0843,22.18904],[76.08606,22.18918],[76.08674,22.18902],[76.08869,22.1876],[76.08999,22.18688],[76.09094,22.18584],[76.09496,22.18667],[76.09711,22.18809],[76.09933,22.18952],[76.10096,22.19239],[76.10247,22.19532],[76.10242,22.19885],[76.10238,22.20035],[76.10645,22.20338],[76.10675,22.20576],[76.10767,22.20937],[76.10877,22.21153],[76.11403,22.21162],[76.1161,22.21212],[76.12098,22.21266],[76.123,22.21269],[76.126,22.21286],[76.12857,22.2129],[76.1299,22.21119],[76.13056,22.20986],[76.13122,22.20819],[76.13147,22.20797],[76.13612,22.21001],[76.139,22.2118],[76.14284,22.21245],[76.14631,22.21338],[76.14801,22.21387],[76.15039,22.2139],[76.15351,22.21401],[76.15648,22.21301],[76.15807,22.2131],[76.15998,22.21226],[76.16013,22.2118],[76.16143,22.20916],[76.16297,22.20675],[76.16464,22.20422],[76.1646,22.20121],[76.16419,22.19877],[76.16491,22.19461],[76.16497,22.19061],[76.16319,22.18687],[76.16168,22.18418],[76.15888,22.17949],[76.15676,22.17686],[76.15508,22.17567],[76.15136,22.17508],[76.14707,22.17541],[76.14403,22.17491],[76.14164,22.17469],[76.13907,22.17291],[76.13763,22.17202],[76.13397,22.17155],[76.13089,22.17],[76.12854,22.16671],[76.12727,22.16454],[76.12633,22.16087],[76.12592,22.15843],[76.1253,22.15628],[76.12506,22.15442],[76.12576,22.15351],[76.1274,22.15411],[76.12923,22.15397],[76.13026,22.15416],[76.13157,22.1536],[76.13184,22.15279],[76.13098,22.14867],[76.13002,22.14616],[76.1287,22.14092],[76.12844,22.13738],[76.12824,22.13587],[76.12976,22.13433],[76.13424,22.13185],[76.13618,22.1305],[76.13895,22.12781],[76.14123,22.1249],[76.14327,22.12232],[76.1445,22.1202],[76.14583,22.11686],[76.14661,22.11293],[76.14646,22.10974],[76.14587,22.10695],[76.14518,22.10561],[76.14379,22.10477],[76.1404,22.10378],[76.1371,22.10379],[76.13336,22.10408],[76.13202,22.10406],[76.12941,22.10326],[76.1283,22.10319],[76.12539,22.1025],[76.12491,22.09832],[76.1251,22.096],[76.12508,22.09472],[76.12473,22.09396],[76.12218,22.0934],[76.11938,22.09289],[76.11664,22.09273],[76.11506,22.09224],[76.11263,22.09162],[76.11133,22.092],[76.10915,22.09162],[76.10696,22.09135],[76.10467,22.09021],[76.10409,22.08701],[76.10545,22.08454],[76.1066,22.08068],[76.10722,22.0786],[76.10768,22.0756],[76.10782,22.07277],[76.10758,22.06876],[76.10753,22.06609],[76.10776,22.0625],[76.10746,22.06047],[76.10677,22.05738],[76.10673,22.05634],[76.10654,22.05478],[76.1068,22.05391],[76.11169,22.05417],[76.11315,22.05436],[76.11406,22.05443],[76.11545,22.05284],[76.12293,22.05413],[76.12646,22.05469],[76.12883,22.05509],[76.13078,22.05553],[76.13463,22.05565],[76.13963,22.05619],[76.14395,22.05673],[76.14792,22.0565],[76.14849,22.0561],[76.15424,22.05783],[76.15705,22.0603],[76.16026,22.06314],[76.16143,22.06501],[76.16293,22.068],[76.16434,22.07005],[76.16575,22.07395],[76.16589,22.07726],[76.15919,22.07889],[76.15508,22.07905],[76.15039,22.08048],[76.14884,22.08115],[76.14507,22.08688],[76.14434,22.09052],[76.14347,22.09323],[76.1431,22.09531],[76.14353,22.09734],[76.14695,22.09937],[76.14919,22.10023],[76.15174,22.10079],[76.15369,22.10099],[76.15534,22.10722],[76.15985,22.1139],[76.16568,22.1173],[76.17151,22.11879],[76.17497,22.11995],[76.18027,22.12038],[76.18439,22.12177],[76.18906,22.12116],[76.1905,22.12008],[76.19418,22.11788],[76.19658,22.11722],[76.19963,22.11536],[76.20177,22.11331],[76.2037,22.11015],[76.2054,22.10635],[76.20697,22.10267],[76.20846,22.10014],[76.20979,22.09848],[76.21512,22.09793],[76.21762,22.09849],[76.22042,22.099],[76.22329,22.09911],[76.22602,22.09961],[76.2287,22.09983],[76.22819,22.09866],[76.22671,22.0951],[76.22662,22.09168],[76.22667,22.08814],[76.22696,22.08652],[76.22797,22.08561],[76.22971,22.08431],[76.22966,22.08396],[76.23135,22.08255],[76.23269,22.08094],[76.23422,22.07847],[76.235,22.07483],[76.23426,22.07308],[76.23028,22.07111],[76.22584,22.07],[76.22203,22.06883],[76.21602,22.0674],[76.213,22.0659],[76.21095,22.06303],[76.21056,22.05979],[76.21073,22.0559],[76.21045,22.05097],[76.20978,22.04847],[76.20836,22.04497],[76.20623,22.04255],[76.20359,22.04066],[76.2009,22.03865],[76.19974,22.03868],[76.19682,22.03823],[76.19454,22.03883],[76.191,22.04063],[76.18933,22.04142],[76.18595,22.04194],[76.18379,22.04266],[76.18043,22.04249],[76.17607,22.04346],[76.1738,22.04371],[76.17306,22.04388],[76.17251,22.04376],[76.16954,22.04258],[76.16777,22.03901],[76.16685,22.03691],[76.16627,22.03591],[76.16423,22.03472],[76.16201,22.03289],[76.16151,22.03137],[76.16067,22.02864],[76.16015,22.02562],[76.16045,22.02388],[76.16271,22.02184],[76.16465,22.02059],[76.16743,22.01942],[76.16867,22.01874],[76.17037,22.01703],[76.17169,22.01578],[76.17251,22.01452],[76.17246,22.01237],[76.16998,22.00949],[76.16846,22.00697],[76.1684,22.00489],[76.16863,22.0035],[76.16954,22.0016],[76.16732,22.00042],[76.16149,21.99298],[76.15221,21.98552],[76.14674,21.97892],[76.14967,21.96994],[76.16051,21.96677],[76.15463,21.96144],[76.15229,21.9455],[76.1605,21.92556],[76.16455,21.90282],[76.17121,21.88536],[76.16122,21.88639],[76.15071,21.88354],[76.1281,21.86921],[76.12551,21.85289],[76.11475,21.85657],[76.10385,21.84736],[76.10903,21.81063],[76.11176,21.79278],[76.10751,21.78884],[76.09717,21.78719],[76.09676,21.76904],[76.11767,21.76657],[76.12446,21.76158],[76.12702,21.75295],[76.12216,21.74834],[76.10875,21.74692],[76.1032,21.73796],[76.10861,21.72693],[76.11857,21.72041],[76.13027,21.72226],[76.1456,21.73214],[76.1553,21.73179],[76.16822,21.72207],[76.17149,21.71553],[76.17113,21.70473],[76.17523,21.68616],[76.1628,21.67286],[76.14399,21.67874],[76.13495,21.68898],[76.10897,21.68867],[76.09317,21.67612],[76.07428,21.66121],[76.08198,21.60862],[76.07936,21.57208],[76.0675,21.57001],[76.05657,21.56601],[76.04187,21.55945],[76.02881,21.54815],[76.01947,21.5506],[76.00009,21.55181],[75.9628,21.54782],[75.95811,21.54665],[75.95405,21.54455],[75.95174,21.53562],[75.95273,21.50882],[75.95211,21.49859],[75.94853,21.48088],[75.95634,21.48101],[75.95951,21.48301],[75.96246,21.48018],[75.96734,21.48008],[75.97188,21.48083],[75.97439,21.48398],[75.97678,21.48564],[75.97986,21.48471],[75.98654,21.48347],[75.99013,21.48524],[75.99731,21.48284],[76.00063,21.48193],[76.00458,21.48125],[76.00634,21.47985],[76.00918,21.47693],[76.01018,21.47411],[76.01154,21.47076],[76.01265,21.46725],[76.01278,21.46411],[76.01137,21.45995],[76.01066,21.45784],[76.00922,21.45529],[76.00721,21.45234],[76.00668,21.45006],[76.00819,21.44081],[76.00941,21.43197],[76.01021,21.4244],[76.01077,21.42067],[76.01086,21.41883],[76.01009,21.41655],[76.00901,21.41394],[76.00866,21.41063],[76.00733,21.40789],[76.0062,21.40631],[76.00549,21.40449],[76.00513,21.40186],[76.00452,21.39981],[76.00061,21.3981],[76.00061,21.39775],[76.00029,21.39744],[76.00007,21.39713],[75.99987,21.39682],[75.99967,21.39653],[75.9995,21.39623],[75.99933,21.39593],[75.99918,21.39564],[75.99904,21.39536],[75.9989,21.39508],[75.99877,21.3948],[75.99865,21.39451],[75.99853,21.39424],[75.9984,21.39397],[75.99829,21.3937],[75.99818,21.39344],[75.99807,21.39318],[75.99797,21.39291],[75.99786,21.39266],[75.99775,21.39241],[75.99766,21.39215],[75.99756,21.39191],[75.99746,21.39168],[75.99737,21.39143],[75.99727,21.3912],[75.99718,21.39097],[75.99708,21.39073],[75.99699,21.39051],[75.9969,21.39029],[75.9968,21.39007],[75.99671,21.38985],[75.99661,21.38963],[75.99653,21.38941],[75.99644,21.38919],[75.99635,21.38898],[75.99625,21.38876],[75.99616,21.38855],[75.99607,21.38833],[75.99598,21.38811],[75.99589,21.38789],[75.9958,21.38768],[75.9957,21.38745],[75.99561,21.38723],[75.99551,21.387],[75.99542,21.38677],[75.99532,21.38653],[75.99522,21.3863],[75.99512,21.38606],[75.99502,21.38581],[75.99493,21.38557],[75.99482,21.38533],[75.99471,21.38508],[75.99461,21.38482],[75.99451,21.38456],[75.99441,21.3843],[75.9943,21.38404],[75.99419,21.38377],[75.99409,21.3835],[75.99398,21.38323],[75.99388,21.38296],[75.9938,21.38268],[75.99372,21.38239],[75.99363,21.38211],[75.99356,21.38182],[75.99348,21.38153],[75.9934,21.38125],[75.99332,21.38095],[75.99324,21.38065],[75.99317,21.38035],[75.99311,21.38005],[75.99303,21.37976],[75.99296,21.37945],[75.99289,21.37914],[75.99284,21.37884],[75.99277,21.37852],[75.99271,21.37821],[75.99265,21.3779],[75.99259,21.37759],[75.99253,21.37728],[75.99248,21.37696],[75.99241,21.37665],[75.99236,21.37633],[75.9923,21.37602],[75.99225,21.37569],[75.99219,21.37538],[75.99213,21.37505],[75.99208,21.37474],[75.99201,21.37441],[75.99196,21.3741],[75.99189,21.37377],[75.98512,21.37486],[75.96895,21.39164],[75.9596,21.39386],[75.94814,21.39066],[75.93755,21.39055],[75.93247,21.3892],[75.91662,21.38751],[75.91236,21.38833],[75.90513,21.39331],[75.8971,21.39493],[75.89568,21.39641],[75.88814,21.3973],[75.88215,21.3961],[75.87615,21.39586],[75.87225,21.39318],[75.86817,21.38819],[75.86273,21.38498],[75.85927,21.38498],[75.8513,21.38703],[75.84654,21.38583],[75.84333,21.38714],[75.83252,21.381],[75.81233,21.38502],[75.80529,21.38672],[75.80121,21.38784],[75.79202,21.38691],[75.77357,21.38435],[75.75983,21.3834],[75.75864,21.3832],[75.75437,21.38609],[75.74578,21.38941],[75.74374,21.39089],[75.738,21.39112],[75.73522,21.39041],[75.73257,21.39103],[75.72232,21.38686],[75.72121,21.38869],[75.71343,21.38932],[75.70634,21.38903],[75.69436,21.38727],[75.68924,21.38522],[75.68733,21.38204],[75.68431,21.37995],[75.67796,21.37989],[75.67456,21.37917],[75.6729,21.37807],[75.65826,21.38047],[75.65432,21.37975],[75.64518,21.38019],[75.63925,21.37921],[75.63203,21.3795],[75.62882,21.37896],[75.62617,21.37974],[75.62295,21.38201],[75.62048,21.38561],[75.61889,21.39088],[75.6212,21.39104],[75.62477,21.39086],[75.62875,21.39245],[75.63005,21.39461],[75.62878,21.39733],[75.62102,21.40014],[75.60621,21.40201],[75.60656,21.4151],[75.60521,21.42031],[75.60073,21.42192],[75.59779,21.42165],[75.59194,21.42314],[75.59498,21.43216],[75.59325,21.43671],[75.60387,21.44586],[75.61149,21.45612],[75.60832,21.45989],[75.60297,21.46225],[75.59668,21.46544],[75.58351,21.475],[75.56656,21.47862],[75.55848,21.47933],[75.54793,21.47942],[75.53883,21.47857],[75.53596,21.47922],[75.52793,21.48948],[75.51551,21.48875],[75.5024,21.48798],[75.49844,21.48897],[75.48635,21.49698],[75.4781,21.50664],[75.47354,21.51197],[75.47075,21.5129],[75.4663,21.51654],[75.46586,21.51786],[75.46169,21.53022],[75.46181,21.5329],[75.46223,21.54313],[75.46447,21.54961],[75.46587,21.55256],[75.47011,21.56031],[75.47449,21.56449],[75.48343,21.56789],[75.48236,21.58204],[75.48896,21.59908],[75.49307,21.59985],[75.49866,21.60904],[75.50489,21.61411],[75.50084,21.61749],[75.49966,21.61774],[75.48189,21.62153],[75.47103,21.62516],[75.4705,21.62598],[75.46739,21.63085],[75.46209,21.63594],[75.45267,21.64054],[75.45209,21.64586],[75.44917,21.65065],[75.44508,21.65513],[75.44185,21.65715],[75.44126,21.66008],[75.44356,21.6677],[75.44328,21.66972],[75.4429,21.67256],[75.44042,21.6758],[75.43421,21.67856],[75.42248,21.67918],[75.41495,21.67897],[75.40009,21.67824],[75.39158,21.67782],[75.37351,21.67443],[75.34015,21.66647],[75.33527,21.66246],[75.32829,21.66206],[75.31942,21.65653],[75.31638,21.65073],[75.3131,21.64751],[75.3067,21.64034],[75.29657,21.63427],[75.2917,21.6355],[75.28976,21.64575],[75.28593,21.65107],[75.28105,21.65515],[75.27461,21.65882],[75.27321,21.66218],[75.27535,21.66851],[75.27294,21.67249],[75.2653,21.6739],[75.26822,21.68062],[75.26365,21.68388],[75.24773,21.68854],[75.22069,21.69506],[75.2178,21.7015],[75.21367,21.70377],[75.21072,21.7092],[75.21014,21.71352],[75.2092,21.7206],[75.20919,21.72941],[75.21783,21.73586],[75.22191,21.73763],[75.23219,21.74211],[75.23824,21.74378],[75.24661,21.74413],[75.25265,21.74073],[75.26421,21.74533],[75.26915,21.74245],[75.2791,21.73991],[75.28159,21.74173],[75.27827,21.74663],[75.27547,21.75117],[75.27324,21.7575],[75.27324,21.76284],[75.27586,21.76697],[75.27579,21.76881],[75.28344,21.77559],[75.28506,21.77988],[75.28128,21.78895],[75.27688,21.79611],[75.27608,21.79912],[75.27749,21.80386],[75.27976,21.80651],[75.28744,21.80684],[75.29008,21.80766],[75.2912,21.81212],[75.29557,21.8141],[75.29581,21.81834],[75.29454,21.82088],[75.29462,21.82401],[75.29674,21.82822],[75.29795,21.82914],[75.30519,21.83457],[75.30853,21.83504],[75.30987,21.83895],[75.30807,21.84534],[75.30233,21.85391],[75.3024,21.8576],[75.29963,21.86331],[75.29242,21.86665],[75.28405,21.86854],[75.28078,21.87147],[75.27976,21.87531],[75.27966,21.88036],[75.27954,21.887],[75.28104,21.88917],[75.28935,21.89412],[75.28976,21.89644],[75.28616,21.90323],[75.28487,21.9089],[75.28574,21.91501],[75.29177,21.92284],[75.29566,21.92462],[75.30026,21.92283],[75.30183,21.92039],[75.30545,21.91019],[75.30768,21.9086],[75.31594,21.90674],[75.31678,21.90678],[75.32293,21.90755],[75.33331,21.90958],[75.33699,21.91154],[75.33596,21.9127],[75.33646,21.92101],[75.34074,21.92814],[75.33913,21.93774],[75.33885,21.94816],[75.34246,21.94928],[75.35088,21.95424],[75.35438,21.9584],[75.35444,21.96019],[75.35476,21.97002],[75.35418,21.97258],[75.35547,21.9752],[75.35379,21.98067],[75.35562,21.98202],[75.35863,21.98635],[75.36321,21.98732],[75.36851,21.98753],[75.38336,21.98812],[75.38695,21.98703],[75.39219,21.98673],[75.3971,21.9878],[75.3998,21.99024],[75.4068,22.00126],[75.40644,22.003],[75.41493,22.00326],[75.41842,22.00512],[75.42711,22.01358],[75.43649,22.01797],[75.44521,22.02426],[75.44303,22.02741],[75.43442,22.02789],[75.4272,22.02528],[75.42404,22.02509],[75.4202,22.02765],[75.42003,22.02802],[75.41763,22.03337],[75.41593,22.03958],[75.41525,22.0489],[75.41505,22.05285],[75.41609,22.05755],[75.42207,22.05893],[75.42263,22.05894],[75.42866,22.05905],[75.44252,22.05918],[75.45264,22.05782],[75.45733,22.06229],[75.45762,22.06525],[75.45552,22.06896],[75.45025,22.06972],[75.43424,22.06646],[75.42425,22.06443],[75.42111,22.06424],[75.41755,22.06404],[75.40561,22.06635],[75.40327,22.06536],[75.39402,22.06977],[75.38634,22.07175],[75.38779,22.0729],[75.39053,22.07353],[75.39116,22.07358],[75.39773,22.07403],[75.40269,22.07621],[75.40271,22.07842],[75.39737,22.08139],[75.39631,22.08356],[75.39828,22.08639],[75.39841,22.08833],[75.39683,22.09132],[75.39266,22.09184],[75.39124,22.09281],[75.38885,22.09527],[75.38667,22.09753],[75.38323,22.10096],[75.37861,22.10329],[75.37204,22.10198],[75.37092,22.10205],[75.36555,22.10236],[75.36164,22.10258],[75.36043,22.10319],[75.35884,22.10618],[75.35806,22.10874],[75.35837,22.11096],[75.35534,22.11556],[75.35219,22.11537],[75.34731,22.119],[75.34624,22.12127],[75.34319,22.12376],[75.33583,22.125],[75.32709,22.12344],[75.32257,22.12533],[75.32213,22.12584],[75.3201,22.1282],[75.31996,22.12899],[75.31981,22.12988],[75.31922,22.13342],[75.31915,22.13366],[75.31919,22.13367],[75.32337,22.13634],[75.33228,22.13857],[75.34085,22.13906],[75.36595,22.14277],[75.3716,22.14136],[75.37581,22.14299],[75.37931,22.14166],[75.38482,22.14111],[75.39276,22.13812],[75.39956,22.13731],[75.40366,22.13761],[75.40836,22.13837],[75.42335,22.14452],[75.42557,22.14543],[75.42865,22.14563],[75.44041,22.15056],[75.45075,22.1509],[75.46137,22.15297],[75.47318,22.15321],[75.48455,22.15507],[75.48864,22.15507],[75.49561,22.1568],[75.50459,22.15763],[75.51022,22.16137],[75.51035,22.16876],[75.51807,22.1728],[75.51979,22.17792],[75.51793,22.18557],[75.51985,22.18826],[75.52072,22.19272],[75.52029,22.19861],[75.52223,22.20609],[75.5356,22.22594],[75.53318,22.23949],[75.52991,22.24678],[75.53059,22.25118],[75.53362,22.25978],[75.53351,22.2648],[75.53037,22.27123],[75.52735,22.27379],[75.51618,22.2802],[75.51531,22.28134],[75.51477,22.29122],[75.51333,22.29877],[75.51613,22.30655],[75.51505,22.30977],[75.51021,22.31473],[75.51049,22.31652],[75.50825,22.31972],[75.50823,22.32152],[75.50494,22.32545],[75.49445,22.32535],[75.49173,22.32773],[75.49697,22.33631],[75.49928,22.33756],[75.50522,22.33869],[75.50876,22.34019],[75.50946,22.3428],[75.50875,22.34597],[75.50574,22.35708],[75.50347,22.36265],[75.50536,22.36915],[75.50932,22.37112],[75.51153,22.37121],[75.51971,22.37434],[75.52542,22.37286],[75.52593,22.3716],[75.523,22.36485],[75.52298,22.3622],[75.52526,22.36027],[75.53277,22.36339],[75.53687,22.3638],[75.53633,22.35754],[75.53847,22.35786],[75.55425,22.36678],[75.55692,22.36906],[75.55907,22.37488],[75.56487,22.37173],[75.57358,22.37678],[75.57689,22.37653],[75.57873,22.37107],[75.58612,22.36864],[75.58845,22.36861],[75.59161,22.36525],[75.5933,22.3621],[75.59466,22.36148],[75.60654,22.36293],[75.60893,22.36233],[75.60772,22.36052],[75.60898,22.35811],[75.60744,22.35323],[75.6098,22.35073],[75.61229,22.34584],[75.61064,22.34536],[75.60162,22.34702],[75.59974,22.3448],[75.60019,22.34278],[75.60156,22.34135],[75.60414,22.34064],[75.60967,22.33957],[75.61721,22.33962],[75.62101,22.33991],[75.62208,22.34263],[75.63244,22.34262],[75.63377,22.34361],[75.63791,22.35333],[75.64005,22.35393],[75.64527,22.35297],[75.64589,22.35212],[75.64607,22.34102],[75.64708,22.3382],[75.64968,22.33541],[75.65087,22.33289],[75.65246,22.33268],[75.6561,22.33666],[75.65729,22.34009],[75.65918,22.34173],[75.67086,22.34357],[75.67746,22.34592],[75.68195,22.35113],[75.68733,22.35259],[75.69031,22.35419],[75.6936,22.35678],[75.69467,22.35928],[75.70257,22.36049],[75.70949,22.36267],[75.72095,22.36913],[75.72714,22.36927],[75.73225,22.36697],[75.73762,22.3634],[75.7426,22.36191],[75.75034,22.36086],[75.75431,22.36167],[75.75967,22.36567],[75.77284,22.36689],[75.7806,22.36999],[75.78626,22.37452],[75.79078,22.37678],[75.80186,22.37953],[75.80158,22.38202],[75.80649,22.38631],[75.80413,22.38667],[75.8133,22.3873],[75.81835,22.39229],[75.82386,22.40252],[75.82764,22.40525],[75.83095,22.40533],[75.83827,22.4026],[75.84181,22.39778],[75.84582,22.39428],[75.84772,22.3868],[75.85056,22.38371],[75.85598,22.38063],[75.86686,22.37828],[75.87819,22.3801],[75.88991,22.38762],[75.9007,22.38861],[75.90304,22.38751],[75.90919,22.38644],[75.91035,22.38711],[75.91155,22.39082],[75.9111,22.40247],[75.90895,22.41061],[75.91037,22.41182],[75.91126,22.41526],[75.91321,22.41807],[75.91724,22.42127],[75.92269,22.42322],[75.93421,22.42711],[75.94441,22.4293],[75.95433,22.43363],[75.95691,22.43436],[75.96945,22.43761],[75.97513,22.4373],[75.97655,22.43654],[75.99223,22.42776],[75.99621,22.42097],[75.99776,22.42121],[76.00527,22.42019],[76.00646,22.41915],[76.00881,22.41929],[76.01017,22.41987],[76.01081,22.42149],[76.01047,22.42219],[76.01046,22.42496],[76.01096,22.42756],[76.01132,22.43006],[76.01202,22.43116],[76.01265,22.43273],[76.014,22.43502],[76.01494,22.43655],[76.01561,22.43835],[76.01631,22.43976],[76.01602,22.44098],[76.01399,22.44343],[76.01648,22.44388],[76.01808,22.44391],[76.01937,22.44382],[76.02292,22.44417],[76.02426,22.44414],[76.02545,22.44364],[76.02899,22.44173],[76.02983,22.4407],[76.03202,22.43906],[76.03378,22.43782],[76.03539,22.43703],[76.03567,22.43814],[76.03583,22.44087],[76.03579,22.44197],[76.03587,22.44347],[76.03625,22.44506],[76.03706,22.4464],[76.03799,22.44838],[76.03861,22.44985],[76.04091,22.45256],[76.04271,22.45398],[76.0442,22.45563],[76.04944,22.45839],[76.05124,22.45813],[76.05261,22.45728],[76.05685,22.45313],[76.05803,22.45477],[76.05866,22.45605],[76.05901,22.45838],[76.05867,22.46151],[76.05791,22.46428],[76.05711,22.46653],[76.05527,22.47044],[76.05525,22.47113],[76.05481,22.47344],[76.05517,22.47779],[76.04996,22.47985],[76.0478,22.48021],[76.04388,22.48206],[76.04035,22.48287],[76.03741,22.48485],[76.03556,22.4869],[76.03404,22.48879],[76.03234,22.4902],[76.02921,22.49409],[76.02842,22.49594],[76.02937,22.49896],[76.03054,22.5024],[76.03212,22.50527],[76.03308,22.50737],[76.03317,22.51045],[76.03299,22.51381],[76.03249,22.51711],[76.03217,22.5199],[76.03195,22.52252],[76.03136,22.52508],[76.03115,22.52875],[76.03262,22.52858],[76.03382,22.52813],[76.03517,22.52756],[76.03668,22.52787],[76.03793,22.528],[76.03863,22.52812],[76.0413,22.52913],[76.04314,22.5302],[76.04431,22.53068],[76.04571,22.53146],[76.04643,22.53222],[76.04778,22.53265],[76.04884,22.53232],[76.05212,22.53138],[76.05387,22.53048],[76.05533,22.53092],[76.0574,22.53154],[76.05869,22.53156],[76.06039,22.53193],[76.06253,22.53226],[76.06388,22.53229],[76.0658,22.53179],[76.06705,22.53118],[76.06804,22.53067],[76.06929,22.53],[76.07085,22.52932],[76.07207,22.52935],[76.07411,22.52869],[76.07543,22.52785],[76.07663,22.52647],[76.07936,22.52558],[76.08,22.52711],[76.07997,22.52803],[76.08079,22.52903],[76.08186,22.53033],[76.08273,22.53173],[76.08331,22.53291],[76.08407,22.53414],[76.08367,22.5372],[76.08334,22.538],[76.08337,22.53899],[76.08327,22.54033],[76.08414,22.54184],[76.08704,22.54737],[76.08717,22.54533],[76.0876,22.54331],[76.08847,22.54066],[76.08917,22.538],[76.09042,22.53309],[76.09213,22.52733],[76.09308,22.52224],[76.09439,22.51583],[76.09452,22.51137],[76.09474,22.50812],[76.09521,22.50489],[76.09551,22.50094],[76.09678,22.49749],[76.09769,22.4938],[76.09845,22.49108],[76.09865,22.49021],[76.09961,22.48699],[76.10062,22.48231],[76.1012,22.4793],[76.10214,22.47618],[76.10422,22.47257],[76.10545,22.47067],[76.10726,22.4696],[76.1113,22.46804],[76.11487,22.46723],[76.11611,22.46309],[76.11837,22.4612],[76.1221,22.45947],[76.12581,22.45837],[76.12889,22.45831],[76.13263,22.45791],[76.13537,22.45685],[76.13851,22.45464],[76.14201,22.45208],[76.14392,22.45015],[76.14656,22.4477],[76.1509,22.44429],[76.15431,22.44266],[76.15757,22.44058],[76.16002,22.43876],[76.1621,22.43688],[76.16452,22.4357],[76.16781,22.43442],[76.17232,22.43328],[76.17432,22.43203],[76.17677,22.4301],[76.17983,22.42836],[76.18459,22.42675],[76.18946,22.42596],[76.19139,22.42489],[76.19627,22.42178],[76.20007,22.41987],[76.20229,22.4195],[76.21081,22.41964],[76.21551,22.41821],[76.21866,22.41524],[76.22017,22.41404],[76.22244,22.41171],[76.22516,22.40885],[76.22792,22.405],[76.23203,22.40078],[76.23559,22.39638],[76.23834,22.39259],[76.23847,22.38987],[76.23727,22.38684],[76.23585,22.3831],[76.23497,22.37938],[76.23353,22.37431],[76.23085,22.3694],[76.22645,22.3651],[76.22581,22.36149],[76.22294,22.35699],[76.21916,22.3564],[76.2165,22.35729],[76.21392,22.35759],[76.21142,22.35709],[76.2076,22.35541],[76.20648,22.354],[76.20759,22.35164],[76.21006,22.34919],[76.21283,22.34668],[76.21492,22.3444],[76.21631,22.34262],[76.21773,22.34027],[76.21822,22.3379],[76.21816,22.33604],[76.21753,22.33458],[76.21643,22.33242],[76.21357,22.32953]]]}}]}