{"type":"FeatureCollection","features":[{"type":"Feature","properties":{"id":"north-goa","name":"North Goa","stateId":"goa","stateName":"Goa","censuscode":585,"type":"district"},"geometry":{"type":"Polygon","coordinates":[[[74.11877,15.65246],[74.12173,15.65241],[74.1356,15.64929],[74.13969,15.65084],[74.14786,15.65195],[74.15616,15.65076],[74.15887,15.65456],[74.1664,15.65423],[74.1684,15.67233],[74.17165,15.67359],[74.17602,15.67952],[74.18318,15.68315],[74.19076,15.6811],[74.1912,15.67582],[74.18753,15.67432],[74.1894,15.66709],[74.2047,15.66316],[74.20513,15.66069],[74.20301,15.65632],[74.2064,15.65122],[74.21731,15.65251],[74.22204,15.65516],[74.22167,15.65664],[74.21727,15.66106],[74.22483,15.66871],[74.23012,15.66407],[74.2352,15.66805],[74.23834,15.66782],[74.24864,15.65641],[74.24985,15.64901],[74.25061,15.63615],[74.24789,15.63183],[74.2459,15.62604],[74.24774,15.62535],[74.25283,15.62668],[74.25592,15.62514],[74.26092,15.61928],[74.26201,15.61182],[74.2589,15.60383],[74.25859,15.59241],[74.24978,15.58481],[74.25082,15.57775],[74.24781,15.57475],[74.24772,15.56809],[74.25804,15.56306],[74.26111,15.56571],[74.26337,15.56341],[74.26606,15.55653],[74.27248,15.55097],[74.27647,15.54386],[74.27916,15.53645],[74.28085,15.52829],[74.27637,15.52283],[74.27732,15.52174],[74.27545,15.51525],[74.26162,15.50822],[74.25429,15.50314],[74.2507,15.49906],[74.24978,15.49183],[74.23068,15.48551],[74.22163,15.47675],[74.20431,15.4704],[74.19851,15.46734],[74.19379,15.46228],[74.18884,15.45345],[74.18609,15.44503],[74.17668,15.43854],[74.16736,15.4431],[74.14454,15.43981],[74.14084,15.44048],[74.13743,15.43888],[74.1346,15.43475],[74.12666,15.43762],[74.11791,15.43325],[74.11299,15.42749],[74.1123,15.4239],[74.10968,15.41914],[74.10663,15.42668],[74.09794,15.42523],[74.08865,15.42258],[74.08446,15.41921],[74.07996,15.41684],[74.07633,15.41587],[74.07258,15.41133],[74.07377,15.40326],[74.07729,15.39811],[74.07709,15.39181],[74.08128,15.39061],[74.08636,15.39073],[74.08946,15.38866],[74.09106,15.38426],[74.09811,15.37989],[74.09533,15.37887],[74.09564,15.37623],[74.10059,15.37251],[74.10351,15.36816],[74.10317,15.36066],[74.10389,15.35704],[74.10085,15.35555],[74.10151,15.35129],[74.10449,15.34758],[74.09912,15.34791],[74.09613,15.34152],[74.09338,15.33726],[74.08907,15.33256],[74.08645,15.32997],[74.08593,15.32876],[74.08474,15.32597],[74.08825,15.31663],[74.08904,15.31391],[74.09365,15.29815],[74.10149,15.29299],[74.10744,15.28575],[74.1029,15.27116],[74.09886,15.27108],[74.09552,15.27022],[74.09265,15.27138],[74.08847,15.27644],[74.08564,15.27903],[74.0829,15.27956],[74.07971,15.27714],[74.07611,15.27563],[74.07281,15.27814],[74.07117,15.28346],[74.07068,15.29256],[74.06135,15.29738],[74.05257,15.29912],[74.04381,15.30085],[74.04106,15.30576],[74.0366,15.30667],[74.02758,15.30228],[74.01854,15.30264],[74.01435,15.30402],[74.01114,15.30845],[74.00757,15.32568],[74.00602,15.33314],[74.00531,15.34726],[74.00008,15.35279],[73.99463,15.35484],[73.99335,15.35564],[73.99066,15.35731],[73.98408,15.3618],[73.97641,15.36714],[73.97011,15.36723],[73.96662,15.36728],[73.96503,15.36778],[73.96252,15.36857],[73.95959,15.37109],[73.958,15.37504],[73.95745,15.38113],[73.95563,15.3876],[73.95272,15.39663],[73.95139,15.39801],[73.94976,15.3997],[73.94525,15.40151],[73.9444,15.40185],[73.93894,15.4025],[73.93234,15.40329],[73.9235,15.40435],[73.92347,15.40436],[73.9235,15.40437],[73.92515,15.40542],[73.92678,15.40564],[73.93107,15.4055],[73.94052,15.40761],[73.94076,15.40917],[73.9389,15.40973],[73.93838,15.41006],[73.93008,15.41241],[73.92799,15.41354],[73.92799,15.41401],[73.92637,15.41514],[73.92626,15.4156],[73.92673,15.42147],[73.92676,15.42158],[73.92772,15.42238],[73.92782,15.42248],[73.92782,15.42293],[73.93204,15.4253],[73.93673,15.43071],[73.93731,15.43342],[73.93715,15.43376],[73.93605,15.43614],[73.93398,15.43638],[73.93353,15.43629],[73.92816,15.43462],[73.92265,15.43035],[73.92206,15.42672],[73.92135,15.42605],[73.91902,15.42492],[73.91123,15.42406],[73.91054,15.42292],[73.91015,15.41864],[73.90828,15.41684],[73.9078,15.41661],[73.90487,15.41656],[73.89782,15.41759],[73.89619,15.41806],[73.89584,15.41829],[73.89564,15.41842],[73.88073,15.42866],[73.88007,15.4288],[73.86955,15.43063],[73.86446,15.43224],[73.86228,15.43394],[73.86228,15.43462],[73.86075,15.43703],[73.86069,15.43719],[73.86024,15.43742],[73.86002,15.43855],[73.85954,15.43878],[73.85802,15.44316],[73.85734,15.44385],[73.85656,15.44411],[73.85632,15.4443],[73.85632,15.44476],[73.852,15.44839],[73.85201,15.44885],[73.85177,15.44978],[73.84785,15.45182],[73.84483,15.45253],[73.84343,15.4523],[73.84284,15.45185],[73.84226,15.4505],[73.84249,15.44867],[73.84201,15.44822],[73.84015,15.44846],[73.82811,15.45306],[73.82181,15.45445],[73.81659,15.45478],[73.8044,15.45546],[73.80029,15.4566],[73.79497,15.45816],[73.78565,15.46163],[73.78849,15.46585],[73.79215,15.46684],[73.79355,15.4666],[73.80033,15.46371],[73.80194,15.46299],[73.80375,15.46224],[73.80678,15.46313],[73.80817,15.4645],[73.80865,15.46811],[73.80614,15.47445],[73.80617,15.47899],[73.80734,15.48261],[73.80807,15.48373],[73.81367,15.4887],[73.81402,15.48959],[73.81455,15.49062],[73.81676,15.49243],[73.81683,15.49289],[73.8184,15.49389],[73.81951,15.4943],[73.82184,15.49634],[73.82255,15.49746],[73.82371,15.49792],[73.8328,15.49989],[73.83376,15.5051],[73.82773,15.50808],[73.82541,15.50764],[73.82448,15.50675],[73.82447,15.50628],[73.82307,15.50539],[73.82192,15.50562],[73.81822,15.50744],[73.81565,15.50725],[73.8139,15.50634],[73.81189,15.50363],[73.81097,15.5],[73.809,15.49811],[73.80754,15.49588],[73.80607,15.49421],[73.80557,15.4937],[73.80139,15.49396],[73.78793,15.49879],[73.78607,15.49857],[73.78256,15.49657],[73.78198,15.49498],[73.78022,15.49202],[73.77766,15.49047],[73.7765,15.49025],[73.7727,15.49128],[73.77162,15.49163],[73.76907,15.493],[73.7679,15.49369],[73.7679,15.49413],[73.7672,15.49459],[73.76492,15.49981],[73.76176,15.51776],[73.75881,15.53109],[73.7556,15.53992],[73.75542,15.54466],[73.75497,15.54489],[73.75451,15.54513],[73.75176,15.55238],[73.75012,15.55851],[73.74894,15.56015],[73.74841,15.56197],[73.743,15.56466],[73.743,15.56513],[73.74252,15.56533],[73.7409,15.56944],[73.73591,15.59028],[73.73338,15.59278],[73.73338,15.59324],[73.73119,15.59596],[73.73096,15.59709],[73.73038,15.59845],[73.73087,15.6007],[73.74019,15.60204],[73.74414,15.60361],[73.74554,15.60473],[73.7474,15.60743],[73.74761,15.60759],[73.74922,15.60896],[73.75231,15.61128],[73.75291,15.61436],[73.75349,15.61658],[73.75152,15.6233],[73.75211,15.62581],[73.75528,15.62748],[73.76017,15.62997],[73.76335,15.63163],[73.76651,15.63273],[73.76395,15.63456],[73.76336,15.63499],[73.75935,15.63669],[73.75647,15.63586],[73.75302,15.63476],[73.74929,15.63366],[73.74788,15.63291],[73.7471,15.63255],[73.74406,15.62985],[73.7431,15.62535],[73.73878,15.62164],[73.73771,15.62015],[73.73569,15.61473],[73.73429,15.61359],[73.73314,15.61451],[73.73222,15.61475],[73.73097,15.61906],[73.7305,15.61929],[73.72889,15.62201],[73.72471,15.62405],[73.72472,15.62451],[73.72424,15.62475],[73.72128,15.63449],[73.72059,15.63495],[73.71967,15.63587],[73.71646,15.64402],[73.71483,15.65016],[73.71485,15.65175],[73.71606,15.65628],[73.71561,15.66058],[73.71143,15.66239],[73.71143,15.66286],[73.71098,15.66308],[73.70806,15.67262],[73.70747,15.67319],[73.70611,15.67811],[73.70159,15.69073],[73.69827,15.69419],[73.69764,15.69438],[73.69764,15.69484],[73.69695,15.69507],[73.69672,15.69575],[73.69442,15.69734],[73.69086,15.70624],[73.68974,15.71457],[73.68951,15.71728],[73.69058,15.71817],[73.69197,15.7184],[73.69663,15.71771],[73.69764,15.71948],[73.69969,15.7215],[73.69272,15.72508],[73.69014,15.72473],[73.68711,15.72295],[73.68588,15.72309],[73.68403,15.72324],[73.67804,15.72458],[73.67804,15.72501],[73.67618,15.72774],[73.67573,15.72797],[73.68234,15.729],[73.68786,15.72831],[73.69322,15.72699],[73.69716,15.72382],[73.70157,15.72232],[73.7092,15.72371],[73.71322,15.72498],[73.71832,15.72457],[73.72297,15.72267],[73.72776,15.71934],[73.73177,15.72081],[73.73482,15.72773],[73.73951,15.73266],[73.74909,15.73483],[73.76672,15.73261],[73.77748,15.72534],[73.78423,15.72575],[73.78861,15.72718],[73.79392,15.73429],[73.80374,15.7356],[73.80715,15.73736],[73.81154,15.74199],[73.82426,15.73984],[73.82971,15.75091],[73.83157,15.75827],[73.83003,15.76296],[73.83641,15.76543],[73.83845,15.7682],[73.84093,15.77809],[73.84323,15.78047],[73.84833,15.78029],[73.84714,15.78532],[73.85142,15.78984],[73.85294,15.79593],[73.85687,15.79959],[73.8649,15.79738],[73.86736,15.79529],[73.86626,15.7884],[73.86653,15.78496],[73.87132,15.78128],[73.8717,15.77945],[73.87836,15.77236],[73.87834,15.7692],[73.87581,15.7667],[73.87408,15.75877],[73.87169,15.75462],[73.87393,15.75142],[73.8774,15.74934],[73.90021,15.74441],[73.90646,15.74757],[73.9096,15.74749],[73.91586,15.74491],[73.93716,15.74361],[73.94159,15.73473],[73.94265,15.72533],[73.94782,15.71903],[73.95073,15.71339],[73.94966,15.70946],[73.9479,15.7069],[73.95055,15.70336],[73.94912,15.69886],[73.95766,15.69714],[73.96326,15.68937],[73.96415,15.67881],[73.96354,15.67051],[73.96767,15.66192],[73.96619,15.65681],[73.96269,15.6518],[73.96121,15.64646],[73.96796,15.6311],[73.97342,15.62719],[73.9781,15.62555],[73.98228,15.62278],[73.985,15.61848],[73.99081,15.6133],[73.99451,15.61123],[73.99999,15.61048],[74.00536,15.61151],[74.0202,15.60679],[74.02788,15.61146],[74.03162,15.62302],[74.0492,15.62489],[74.06016,15.62688],[74.06601,15.62885],[74.07307,15.62834],[74.09506,15.64115],[74.10069,15.64104],[74.10529,15.64525],[74.11548,15.6474],[74.11877,15.65246]]]}}]}