{"type":"FeatureCollection","features":[{"type":"Feature","properties":{"id":"aurangabad","name":"Aurangabad","stateId":"bihar","stateName":"Bihar","censuscode":235,"type":"district"},"geometry":{"type":"Polygon","coordinates":[[[84.70468,25.04266],[84.70405,25.03777],[84.70937,25.03245],[84.72307,25.02501],[84.72395,25.0174],[84.72721,25.01346],[84.73587,25.01315],[84.73892,25.01441],[84.74146,25.01651],[84.75372,25.01425],[84.75444,25.00389],[84.74673,24.99976],[84.74509,24.9952],[84.74553,24.98671],[84.7355,24.98605],[84.73037,24.98019],[84.72998,24.97294],[84.73831,24.96659],[84.7376,24.95917],[84.72588,24.95886],[84.72419,24.95703],[84.71185,24.95701],[84.71103,24.95275],[84.71501,24.9497],[84.71348,24.94147],[84.71875,24.93438],[84.71678,24.91949],[84.70979,24.91847],[84.70796,24.91037],[84.70651,24.90877],[84.70512,24.90394],[84.69833,24.90304],[84.68949,24.90462],[84.68754,24.90146],[84.68238,24.9028],[84.68156,24.89912],[84.6818,24.89395],[84.67817,24.89148],[84.67381,24.89115],[84.67239,24.89357],[84.66484,24.89009],[84.66171,24.88584],[84.66868,24.88404],[84.6711,24.88236],[84.67134,24.87597],[84.66546,24.87191],[84.66063,24.8786],[84.64606,24.88244],[84.6405,24.87756],[84.64292,24.87508],[84.64203,24.86674],[84.6483,24.86288],[84.65258,24.85596],[84.66651,24.8508],[84.67249,24.85009],[84.67533,24.84128],[84.67505,24.83381],[84.68389,24.83131],[84.68907,24.83468],[84.69435,24.83214],[84.69788,24.82689],[84.69747,24.81746],[84.70262,24.8122],[84.70345,24.80151],[84.73318,24.79519],[84.73503,24.79012],[84.72595,24.78883],[84.72554,24.78308],[84.73052,24.78134],[84.73107,24.77777],[84.7343,24.77649],[84.73351,24.7669],[84.71689,24.76603],[84.7191,24.75751],[84.72667,24.75265],[84.72727,24.72954],[84.72287,24.70079],[84.71658,24.70058],[84.70942,24.69739],[84.7029,24.69827],[84.69808,24.69064],[84.69885,24.68091],[84.68958,24.67808],[84.66297,24.68275],[84.66396,24.67959],[84.65663,24.68048],[84.65294,24.67542],[84.64592,24.67792],[84.64291,24.67195],[84.64494,24.66377],[84.63923,24.66419],[84.63652,24.65299],[84.62961,24.65181],[84.61899,24.65632],[84.61179,24.66042],[84.61052,24.65462],[84.60382,24.6563],[84.60037,24.64326],[84.59971,24.63049],[84.6005,24.62617],[84.60416,24.62461],[84.59432,24.6156],[84.59716,24.60789],[84.59442,24.60439],[84.59713,24.59719],[84.5914,24.59376],[84.5904,24.58945],[84.57272,24.57771],[84.56498,24.56951],[84.56778,24.56633],[84.57809,24.56671],[84.58131,24.56383],[84.57577,24.55855],[84.56943,24.55707],[84.57122,24.55155],[84.56822,24.54488],[84.56306,24.54162],[84.55671,24.53576],[84.55017,24.53193],[84.54675,24.52745],[84.52047,24.52619],[84.50853,24.51989],[84.48958,24.514],[84.47377,24.53266],[84.46856,24.53739],[84.44998,24.53206],[84.44826,24.53931],[84.44604,24.5568],[84.43867,24.5728],[84.43041,24.5723],[84.42367,24.55241],[84.41766,24.5584],[84.40741,24.56497],[84.41015,24.57072],[84.40463,24.5721],[84.40101,24.56767],[84.3951,24.56717],[84.39318,24.56073],[84.39535,24.55704],[84.39323,24.55205],[84.39397,24.54538],[84.3854,24.54256],[84.38805,24.53066],[84.37338,24.5274],[84.37611,24.5163],[84.37102,24.51015],[84.34889,24.49971],[84.34697,24.49637],[84.32928,24.48928],[84.33323,24.49623],[84.33392,24.50223],[84.32929,24.51268],[84.32671,24.5218],[84.32045,24.52625],[84.31953,24.53323],[84.31706,24.539],[84.30963,24.54669],[84.30506,24.56256],[84.3006,24.5654],[84.28761,24.56277],[84.27688,24.56365],[84.27953,24.55343],[84.28772,24.55134],[84.28591,24.5469],[84.27623,24.54628],[84.27709,24.5408],[84.27237,24.53999],[84.27037,24.53653],[84.26609,24.53712],[84.26477,24.53019],[84.25615,24.53101],[84.25758,24.53516],[84.25592,24.53817],[84.24873,24.54262],[84.2419,24.54298],[84.24266,24.55257],[84.22833,24.54971],[84.22513,24.53457],[84.21658,24.53655],[84.21387,24.5447],[84.20817,24.54881],[84.20756,24.55638],[84.19596,24.55466],[84.19464,24.54865],[84.18925,24.54641],[84.18056,24.54648],[84.18048,24.54133],[84.19005,24.52299],[84.19408,24.52189],[84.18991,24.51773],[84.1899,24.51501],[84.18691,24.50981],[84.17902,24.50918],[84.16879,24.51196],[84.1613,24.517],[84.16355,24.51885],[84.16338,24.5237],[84.17209,24.53307],[84.16832,24.53759],[84.15722,24.53962],[84.15375,24.53962],[84.14397,24.5287],[84.14468,24.51753],[84.14762,24.50416],[84.1442,24.50191],[84.13668,24.50005],[84.13258,24.49769],[84.13024,24.48605],[84.11743,24.48078],[84.10858,24.48726],[84.10464,24.49507],[84.09678,24.50346],[84.09427,24.51394],[84.09738,24.53323],[84.0964,24.53537],[84.09201,24.53798],[84.08606,24.54428],[84.08495,24.55175],[84.08141,24.55683],[84.0824,24.564],[84.0802,24.56884],[84.07546,24.57027],[84.073,24.57429],[84.06748,24.57621],[84.07039,24.58293],[84.06908,24.58857],[84.06582,24.58757],[84.06067,24.58717],[84.05916,24.59072],[84.06087,24.5939],[84.05561,24.60569],[84.05263,24.60614],[84.0545,24.61146],[84.046,24.61856],[84.04103,24.61811],[84.03981,24.62073],[84.03675,24.62178],[84.03457,24.62687],[84.03195,24.62819],[84.02742,24.62596],[84.02343,24.62673],[84.02232,24.63076],[84.00977,24.63451],[84,24.63712],[84.03751,24.69357],[84.06322,24.73197],[84.08958,24.77036],[84.10522,24.78816],[84.13334,24.81281],[84.14939,24.83109],[84.1716,24.84991],[84.24303,24.93233],[84.25805,24.94455],[84.30996,25.00211],[84.31465,25.01622],[84.3217,25.02278],[84.34485,25.03782],[84.35981,25.04455],[84.37046,25.04749],[84.37493,25.05043],[84.38537,25.05488],[84.4162,25.07168],[84.42549,25.07855],[84.43526,25.09918],[84.4401,25.11396],[84.44808,25.12849],[84.46086,25.12266],[84.47569,25.11521],[84.46554,25.10714],[84.46352,25.10186],[84.46732,25.09942],[84.47068,25.09573],[84.47802,25.09044],[84.48131,25.09619],[84.49605,25.09772],[84.50659,25.10412],[84.51124,25.10585],[84.51325,25.10778],[84.52657,25.1078],[84.54488,25.10606],[84.5542,25.11333],[84.55829,25.11372],[84.5605,25.11683],[84.56859,25.11621],[84.57021,25.11884],[84.57462,25.11659],[84.57515,25.10785],[84.58337,25.10379],[84.59508,25.10239],[84.59703,25.10436],[84.59869,25.10384],[84.59562,25.08454],[84.58833,25.08392],[84.58704,25.07506],[84.59304,25.0734],[84.59476,25.07752],[84.60496,25.07958],[84.60437,25.08838],[84.60707,25.09116],[84.60777,25.09675],[84.61781,25.09563],[84.61624,25.10386],[84.62355,25.10641],[84.62886,25.1046],[84.63105,25.09279],[84.63012,25.08559],[84.6321,25.08273],[84.6416,25.08896],[84.64472,25.0952],[84.65139,25.09965],[84.65718,25.10578],[84.66843,25.1022],[84.67946,25.09627],[84.68637,25.10326],[84.69342,25.09759],[84.69901,25.09603],[84.70342,25.09211],[84.7147,25.08683],[84.71506,25.082],[84.71964,25.07946],[84.72296,25.08138],[84.72642,25.07982],[84.72807,25.07724],[84.73288,25.07709],[84.73265,25.07329],[84.73946,25.07127],[84.74062,25.06731],[84.73918,25.05712],[84.73859,25.05308],[84.73495,25.04539],[84.71991,25.04518],[84.70513,25.04614],[84.70468,25.04266]]]}}]}