{"type":"FeatureCollection","features":[{"type":"Feature","properties":{"id":"bhagalpur","name":"Bhagalpur","stateId":"bihar","stateName":"Bihar","censuscode":224,"type":"district"},"geometry":{"type":"Polygon","coordinates":[[[87.23166,25.4515],[87.23068,25.4436],[87.22454,25.43428],[87.22169,25.43111],[87.21657,25.42905],[87.20983,25.42764],[87.20513,25.4151],[87.21912,25.40951],[87.22118,25.40771],[87.22292,25.40414],[87.22331,25.40033],[87.21983,25.39695],[87.22043,25.39336],[87.22206,25.39019],[87.22923,25.38544],[87.22938,25.38319],[87.23514,25.37945],[87.23439,25.37811],[87.23824,25.37543],[87.24796,25.37885],[87.2666,25.37412],[87.27761,25.36974],[87.26609,25.35395],[87.26705,25.35138],[87.27006,25.35277],[87.27336,25.35747],[87.28045,25.36261],[87.28624,25.37395],[87.29563,25.39857],[87.30614,25.40259],[87.30808,25.402],[87.31973,25.40771],[87.32794,25.40826],[87.33355,25.41242],[87.34023,25.41539],[87.34351,25.41537],[87.34728,25.41396],[87.35742,25.41507],[87.36854,25.42298],[87.36733,25.40842],[87.37012,25.40624],[87.38103,25.40328],[87.41029,25.39012],[87.40848,25.38461],[87.41048,25.3801],[87.42009,25.378],[87.42727,25.37536],[87.42994,25.37583],[87.43237,25.37389],[87.43638,25.38041],[87.44198,25.36512],[87.44644,25.36178],[87.45672,25.35942],[87.46207,25.36485],[87.47784,25.36544],[87.48944,25.36688],[87.50422,25.3499],[87.51122,25.35164],[87.51708,25.35169],[87.52817,25.34763],[87.52978,25.35504],[87.53074,25.35557],[87.53213,25.35156],[87.52923,25.34183],[87.53827,25.33571],[87.54363,25.33056],[87.55344,25.33137],[87.55279,25.32409],[87.5501,25.32333],[87.5471,25.3047],[87.54446,25.29669],[87.54569,25.28209],[87.54159,25.28058],[87.53539,25.28008],[87.53149,25.28145],[87.51885,25.29259],[87.50487,25.29274],[87.49609,25.30564],[87.4924,25.29652],[87.48751,25.29561],[87.49357,25.27806],[87.50046,25.27589],[87.49795,25.2719],[87.50157,25.26578],[87.50169,25.26295],[87.50081,25.26016],[87.49355,25.26247],[87.47862,25.24137],[87.47901,25.23192],[87.47778,25.22288],[87.47809,25.19519],[87.47358,25.19367],[87.4728,25.19618],[87.46788,25.19568],[87.46379,25.19832],[87.46106,25.19802],[87.4226,25.21541],[87.4155,25.21563],[87.41366,25.2195],[87.40817,25.22189],[87.40264,25.22619],[87.39782,25.22799],[87.39251,25.22619],[87.38933,25.22395],[87.38319,25.22309],[87.37999,25.21902],[87.37593,25.20554],[87.3745,25.20738],[87.36407,25.2117],[87.36114,25.21388],[87.35383,25.21365],[87.33652,25.21753],[87.33661,25.22265],[87.32955,25.22355],[87.32443,25.20172],[87.32204,25.19743],[87.3218,25.19347],[87.32318,25.18917],[87.32208,25.18679],[87.3167,25.17031],[87.31906,25.16976],[87.32043,25.16787],[87.32108,25.16555],[87.32042,25.16327],[87.31647,25.16083],[87.31567,25.15407],[87.31402,25.1508],[87.30833,25.14584],[87.30776,25.14442],[87.30949,25.14373],[87.30844,25.14112],[87.30946,25.13866],[87.30591,25.13512],[87.30396,25.13519],[87.29929,25.11489],[87.30091,25.11437],[87.30088,25.11247],[87.29881,25.10524],[87.30136,25.10026],[87.29712,25.08984],[87.29161,25.09148],[87.28092,25.09275],[87.27627,25.0942],[87.27048,25.09833],[87.26911,25.10137],[87.2648,25.10515],[87.25663,25.10639],[87.2553,25.10592],[87.25137,25.09962],[87.24712,25.10134],[87.24593,25.1],[87.23993,25.08637],[87.23316,25.08812],[87.22403,25.08909],[87.22171,25.09073],[87.21742,25.09014],[87.21679,25.0858],[87.21438,25.08387],[87.20593,25.07999],[87.20355,25.07421],[87.19384,25.06756],[87.1904,25.06757],[87.18273,25.06457],[87.17991,25.05856],[87.17934,25.05704],[87.17457,25.04952],[87.17435,25.04932],[87.17279,25.05121],[87.1604,25.06313],[87.14863,25.07344],[87.14238,25.0812],[87.13665,25.08552],[87.13179,25.08915],[87.12444,25.09355],[87.11762,25.0946],[87.1045,25.09363],[87.09897,25.09426],[87.08865,25.09852],[87.07784,25.10205],[87.06932,25.10359],[87.03169,25.10638],[87.02667,25.10678],[87.01891,25.10584],[87.01121,25.10518],[87.00328,25.1047],[86.99384,25.10246],[86.97624,25.10261],[86.9686,25.10369],[86.96307,25.10615],[86.95879,25.10669],[86.94986,25.10712],[86.92971,25.10516],[86.92174,25.10386],[86.91014,25.10428],[86.89504,25.10422],[86.88656,25.10469],[86.88066,25.10615],[86.86964,25.11005],[86.85599,25.11232],[86.84715,25.11161],[86.83891,25.10902],[86.82331,25.10501],[86.8192,25.10584],[86.81678,25.10788],[86.81687,25.10953],[86.81533,25.11292],[86.80998,25.11315],[86.80674,25.11127],[86.7987,25.10471],[86.79599,25.1052],[86.79357,25.10927],[86.79065,25.11152],[86.78738,25.11083],[86.78493,25.10863],[86.77867,25.09923],[86.77669,25.09821],[86.77466,25.10005],[86.77551,25.10453],[86.77336,25.10794],[86.77018,25.11094],[86.76651,25.11055],[86.75899,25.10802],[86.75575,25.10807],[86.75372,25.10982],[86.75294,25.11243],[86.75258,25.11696],[86.75142,25.11996],[86.7485,25.12221],[86.74028,25.12377],[86.73652,25.12153],[86.73454,25.11858],[86.73281,25.11257],[86.73071,25.1111],[86.72832,25.11184],[86.72589,25.11379],[86.72212,25.11525],[86.7197,25.11512],[86.71633,25.11495],[86.69952,25.11291],[86.69322,25.11245],[86.69286,25.11256],[86.69402,25.11835],[86.68914,25.11843],[86.68833,25.12114],[86.68466,25.1234],[86.68465,25.11984],[86.68128,25.12204],[86.68,25.13015],[86.68576,25.13982],[86.68915,25.14297],[86.69136,25.14456],[86.69691,25.14327],[86.6991,25.1478],[86.69793,25.15079],[86.70078,25.15647],[86.70603,25.16178],[86.70175,25.16732],[86.70532,25.17023],[86.7076,25.17085],[86.70897,25.17233],[86.71936,25.17067],[86.72144,25.171],[86.72415,25.17243],[86.73309,25.18099],[86.73558,25.18424],[86.72663,25.18509],[86.72457,25.18683],[86.71757,25.18801],[86.71574,25.18756],[86.71416,25.18815],[86.71218,25.19178],[86.70853,25.19329],[86.71063,25.18799],[86.70709,25.18738],[86.70438,25.18843],[86.70262,25.18798],[86.70238,25.19102],[86.70401,25.19595],[86.6971,25.19932],[86.69681,25.20282],[86.69498,25.20214],[86.69311,25.19962],[86.69335,25.19721],[86.69565,25.19318],[86.6936,25.18998],[86.69036,25.18897],[86.68505,25.18911],[86.67946,25.19224],[86.67748,25.1965],[86.67639,25.20672],[86.67249,25.20868],[86.66952,25.21346],[86.6677,25.21468],[86.65711,25.21622],[86.64954,25.21821],[86.65193,25.22107],[86.65145,25.22331],[86.64662,25.22563],[86.6403,25.226],[86.63925,25.23806],[86.64074,25.24063],[86.64374,25.24235],[86.64951,25.24392],[86.67802,25.23988],[86.68567,25.24086],[86.69271,25.24295],[86.7222,25.24498],[86.72694,25.2492],[86.7313,25.25399],[86.74246,25.26196],[86.75965,25.2719],[86.7589,25.26674],[86.76351,25.26718],[86.76707,25.26836],[86.78101,25.27637],[86.77479,25.28943],[86.7826,25.29656],[86.78106,25.30013],[86.78848,25.30634],[86.78964,25.3084],[86.78549,25.31072],[86.78859,25.31586],[86.78881,25.31891],[86.78675,25.32127],[86.78541,25.32466],[86.7956,25.33023],[86.80442,25.3323],[86.81133,25.32824],[86.81565,25.32942],[86.81821,25.33273],[86.81979,25.33646],[86.82486,25.33803],[86.82595,25.34364],[86.84052,25.35521],[86.8467,25.35798],[86.85113,25.35829],[86.85707,25.36279],[86.8601,25.36759],[86.85762,25.37616],[86.85277,25.3774],[86.84843,25.37954],[86.84108,25.38482],[86.83974,25.38855],[86.83977,25.39624],[86.83578,25.40058],[86.83298,25.40518],[86.82943,25.40911],[86.82273,25.41448],[86.82148,25.41679],[86.82516,25.4213],[86.82524,25.42859],[86.82833,25.43275],[86.82874,25.43499],[86.82843,25.44074],[86.82442,25.44391],[86.8279,25.44585],[86.82954,25.44596],[86.83008,25.44895],[86.82563,25.45212],[86.82683,25.45631],[86.82989,25.45853],[86.85681,25.45405],[86.86074,25.46373],[86.86549,25.4629],[86.86615,25.46547],[86.86825,25.46678],[86.87537,25.46329],[86.88036,25.46262],[86.88682,25.46666],[86.89087,25.47208],[86.89915,25.47547],[86.90173,25.47826],[86.90364,25.47865],[86.90787,25.47782],[86.9124,25.47498],[86.91611,25.47369],[86.9193,25.47533],[86.92064,25.48065],[86.91848,25.48429],[86.91321,25.48863],[86.91204,25.49174],[86.92614,25.49388],[86.92662,25.48705],[86.92856,25.48519],[86.93209,25.48489],[86.9311,25.49091],[86.93194,25.49223],[86.93517,25.4917],[86.93955,25.49247],[86.94769,25.48988],[86.94802,25.48655],[86.94528,25.48554],[86.93933,25.48598],[86.93673,25.48519],[86.93575,25.48284],[86.95217,25.4751],[86.95227,25.4778],[86.95364,25.48065],[86.95668,25.48086],[86.9605,25.47813],[86.96172,25.47469],[86.9681,25.47349],[86.97136,25.47169],[86.97087,25.46394],[86.97441,25.46317],[86.97738,25.4721],[86.98264,25.47659],[86.99228,25.47768],[87.00106,25.47032],[87.00694,25.46961],[87.00491,25.47085],[87.01076,25.4755],[87.01704,25.47579],[87.01927,25.48077],[87.02353,25.47759],[87.02471,25.47519],[87.02472,25.47283],[87.02347,25.47008],[87.01813,25.46487],[87.01902,25.46264],[87.02228,25.46175],[87.02733,25.46283],[87.04608,25.47136],[87.04918,25.47089],[87.05219,25.47243],[87.05844,25.47008],[87.06673,25.46916],[87.07348,25.46941],[87.07562,25.47254],[87.07707,25.47684],[87.0806,25.4818],[87.08151,25.48948],[87.08294,25.49377],[87.08669,25.49503],[87.09134,25.49808],[87.09454,25.50233],[87.09704,25.51109],[87.10253,25.51446],[87.10289,25.50431],[87.10202,25.50078],[87.10412,25.48994],[87.10148,25.48446],[87.09755,25.47932],[87.09038,25.47658],[87.08631,25.47409],[87.0853,25.4552],[87.08857,25.45434],[87.08985,25.45089],[87.08737,25.44815],[87.09041,25.44131],[87.09422,25.44578],[87.102,25.44279],[87.10188,25.43911],[87.11105,25.43337],[87.11759,25.43485],[87.11788,25.43593],[87.12469,25.43793],[87.12687,25.4356],[87.12926,25.43701],[87.13295,25.43641],[87.15638,25.43652],[87.16104,25.43801],[87.16451,25.44438],[87.16682,25.44694],[87.17254,25.44994],[87.18413,25.44818],[87.18771,25.44373],[87.18725,25.44169],[87.1897,25.44004],[87.19162,25.44094],[87.19054,25.44358],[87.19252,25.44437],[87.19686,25.44869],[87.20246,25.44595],[87.20964,25.44752],[87.21321,25.4513],[87.21606,25.45642],[87.23166,25.4515]]]}}]}