{"type":"FeatureCollection","features":[{"type":"Feature","properties":{"id":"gopalganj","name":"Gopalganj","stateId":"bihar","stateName":"Bihar","censuscode":217,"type":"district"},"geometry":{"type":"Polygon","coordinates":[[[84.49257,26.60246],[84.48722,26.594],[84.49829,26.57022],[84.51031,26.57014],[84.51516,26.56497],[84.5172,26.55559],[84.51383,26.54254],[84.51288,26.53326],[84.54403,26.507],[84.54698,26.49852],[84.54335,26.48565],[84.55512,26.48206],[84.55893,26.48965],[84.56397,26.49424],[84.56836,26.49299],[84.5769,26.4864],[84.58078,26.48526],[84.57678,26.46911],[84.58885,26.46013],[84.58847,26.45084],[84.59247,26.4498],[84.59089,26.44564],[84.59188,26.44373],[84.589,26.43882],[84.59383,26.43716],[84.61255,26.44635],[84.61777,26.44984],[84.62406,26.45224],[84.62894,26.45827],[84.63731,26.46298],[84.64877,26.46542],[84.65605,26.46475],[84.66138,26.46268],[84.69698,26.43439],[84.70051,26.436],[84.71245,26.42741],[84.71496,26.42485],[84.71764,26.41982],[84.71617,26.41593],[84.71456,26.41458],[84.72279,26.40195],[84.72596,26.40008],[84.73048,26.38296],[84.74076,26.37083],[84.75066,26.36295],[84.7556,26.35202],[84.76508,26.34599],[84.76851,26.34152],[84.7786,26.34133],[84.79845,26.32986],[84.80339,26.32331],[84.80429,26.31996],[84.80969,26.32305],[84.81133,26.31768],[84.81259,26.29653],[84.81021,26.28731],[84.82966,26.2822],[84.8371,26.28542],[84.83837,26.28126],[84.85038,26.27421],[84.86356,26.26479],[84.87175,26.255],[84.87679,26.25522],[84.8835,26.24113],[84.8817,26.2364],[84.88554,26.23348],[84.90934,26.23475],[84.91044,26.22393],[84.9063,26.22059],[84.90309,26.21919],[84.90246,26.21588],[84.89869,26.21478],[84.87419,26.21814],[84.86775,26.22094],[84.86095,26.21497],[84.81236,26.21055],[84.79329,26.20496],[84.78902,26.20973],[84.77213,26.20927],[84.76335,26.21086],[84.75519,26.2125],[84.75693,26.23027],[84.74527,26.22675],[84.73459,26.22867],[84.72999,26.23206],[84.72174,26.23337],[84.71687,26.24044],[84.70762,26.23982],[84.6936,26.23649],[84.68676,26.23887],[84.68465,26.2563],[84.68755,26.26224],[84.68475,26.26652],[84.67622,26.26766],[84.67506,26.27175],[84.65793,26.27272],[84.65341,26.2776],[84.65666,26.30379],[84.64578,26.3045],[84.62349,26.30243],[84.61445,26.30351],[84.60958,26.31087],[84.59798,26.31261],[84.59256,26.31698],[84.59125,26.3232],[84.57266,26.32141],[84.5702,26.31444],[84.55915,26.3129],[84.55658,26.29737],[84.5387,26.30569],[84.5426,26.31109],[84.55116,26.31685],[84.55283,26.32223],[84.53154,26.33723],[84.52295,26.33876],[84.52002,26.33478],[84.51308,26.33073],[84.50688,26.33447],[84.49983,26.33226],[84.48762,26.33469],[84.48471,26.33651],[84.48097,26.34401],[84.47698,26.34152],[84.47047,26.34498],[84.4563,26.34985],[84.46135,26.35537],[84.46032,26.36474],[84.45853,26.36912],[84.43626,26.37413],[84.421,26.36902],[84.41527,26.36966],[84.4063,26.36665],[84.3883,26.37236],[84.38286,26.37006],[84.36553,26.36766],[84.36452,26.36296],[84.36977,26.35395],[84.36932,26.34288],[84.37046,26.33684],[84.36532,26.32874],[84.36478,26.30538],[84.36611,26.29944],[84.35716,26.29816],[84.34835,26.30136],[84.34347,26.30491],[84.34035,26.31069],[84.34154,26.3194],[84.32284,26.3297],[84.31337,26.32152],[84.30733,26.31756],[84.29589,26.31492],[84.2899,26.31647],[84.27939,26.30596],[84.26492,26.31236],[84.25064,26.31324],[84.24493,26.3156],[84.2438,26.32331],[84.23502,26.32482],[84.22889,26.33039],[84.21789,26.33371],[84.21425,26.33868],[84.21128,26.34738],[84.21568,26.35251],[84.20015,26.35645],[84.20185,26.36085],[84.19567,26.36211],[84.18943,26.36832],[84.18041,26.37155],[84.16539,26.37582],[84.16306,26.37372],[84.13983,26.37972],[84.13749,26.38175],[84.12582,26.38277],[84.12425,26.38508],[84.10561,26.38542],[84.10136,26.38793],[84.09879,26.38502],[84.09677,26.38762],[84.09025,26.38716],[84.08965,26.38372],[84.08792,26.38322],[84.0863,26.38146],[84.08107,26.38196],[84.0797,26.38438],[84.0706,26.38756],[84.0709,26.39175],[84.06419,26.39772],[84.06408,26.3995],[84.0542,26.40154],[84.05409,26.40274],[84.05039,26.403],[84.04997,26.40593],[84.04737,26.40785],[84.0453,26.40529],[84.03968,26.41044],[84.0423,26.41122],[84.03091,26.42245],[84.02966,26.42625],[84.02554,26.42933],[84.02409,26.43686],[84.02525,26.43938],[84.02015,26.44585],[84.0182,26.44237],[84.01084,26.44098],[84.00178,26.445],[83.99961,26.44501],[83.99262,26.43227],[83.9911,26.432],[83.97046,26.43451],[83.95546,26.43546],[83.94524,26.43902],[83.92821,26.44285],[83.91732,26.44681],[83.91147,26.44755],[83.91223,26.45834],[83.91074,26.4646],[83.91245,26.46956],[83.9142,26.49162],[83.91671,26.49765],[83.91604,26.50403],[83.91101,26.50769],[83.9101,26.51096],[83.91148,26.51533],[83.92391,26.5175],[83.93975,26.52206],[83.94424,26.52172],[83.9485,26.51856],[83.95509,26.5157],[83.95277,26.51319],[83.95197,26.51077],[83.9549,26.50749],[83.96541,26.5055],[83.97178,26.50591],[83.97464,26.50905],[83.97578,26.51825],[83.97738,26.52314],[83.9798,26.52674],[83.98343,26.52924],[83.99284,26.52877],[83.99954,26.52746],[84.00759,26.5247],[84.00788,26.52236],[84.00993,26.52234],[84.02371,26.52936],[84.02927,26.52942],[84.04005,26.5329],[84.05225,26.5383],[84.05699,26.54084],[84.05804,26.54768],[84.05803,26.54778],[84.0574,26.55486],[84.05859,26.55893],[84.06401,26.56503],[84.06617,26.57075],[84.07212,26.57702],[84.07699,26.57863],[84.08048,26.58183],[84.07957,26.58659],[84.08844,26.59169],[84.09181,26.59694],[84.09108,26.60045],[84.09403,26.60789],[84.09209,26.61238],[84.09282,26.61559],[84.08892,26.62102],[84.09144,26.62387],[84.09316,26.62873],[84.08991,26.63123],[84.0907,26.6341],[84.08973,26.63806],[84.09109,26.64017],[84.09381,26.63745],[84.10339,26.63565],[84.10426,26.6338],[84.10867,26.6329],[84.10865,26.6313],[84.11362,26.62999],[84.11539,26.63456],[84.12493,26.63477],[84.13078,26.63196],[84.1303,26.6349],[84.13343,26.63475],[84.13837,26.63585],[84.14673,26.63382],[84.1488,26.63639],[84.16133,26.63588],[84.16275,26.63104],[84.15783,26.62512],[84.17653,26.62156],[84.17706,26.62368],[84.18625,26.62193],[84.19394,26.62324],[84.21125,26.62175],[84.21314,26.61795],[84.21607,26.61838],[84.22494,26.61611],[84.23123,26.61312],[84.23229,26.61053],[84.23792,26.61065],[84.24019,26.60724],[84.24934,26.6075],[84.25986,26.60539],[84.26811,26.60479],[84.27214,26.6005],[84.28144,26.59685],[84.28268,26.59884],[84.28663,26.59823],[84.28856,26.60407],[84.29601,26.60142],[84.29841,26.60449],[84.30235,26.60301],[84.30422,26.60414],[84.30624,26.61319],[84.31189,26.61497],[84.31573,26.61453],[84.31998,26.61208],[84.3347,26.61285],[84.33928,26.61584],[84.36014,26.61797],[84.37977,26.61295],[84.38804,26.6194],[84.39264,26.61907],[84.4042,26.62331],[84.40975,26.6217],[84.4236,26.62476],[84.41658,26.63563],[84.42904,26.63526],[84.42992,26.62394],[84.42916,26.61884],[84.43357,26.61437],[84.43007,26.61027],[84.42689,26.61163],[84.4249,26.60671],[84.41872,26.60277],[84.41226,26.59297],[84.40997,26.58834],[84.41585,26.58287],[84.41901,26.58554],[84.42192,26.59326],[84.42519,26.59856],[84.4595,26.63108],[84.45846,26.62535],[84.46333,26.62099],[84.46883,26.62098],[84.48679,26.61051],[84.48992,26.60525],[84.49257,26.60246]]]}}]}