{"type":"FeatureCollection","features":[{"type":"Feature","properties":{"id":"kaimur-bhabua","name":"Kaimur (bhabua)","stateId":"bihar","stateName":"Bihar","censuscode":233,"type":"district"},"geometry":{"type":"Polygon","coordinates":[[[83.74621,25.39897],[83.74897,25.39829],[83.75036,25.39867],[83.75647,25.40241],[83.75907,25.40306],[83.7617,25.40226],[83.76641,25.39931],[83.76722,25.39861],[83.76032,25.39649],[83.75808,25.39486],[83.7581,25.39015],[83.77027,25.38603],[83.77551,25.38255],[83.77838,25.37882],[83.77916,25.37065],[83.78029,25.36717],[83.78365,25.36838],[83.7883,25.36883],[83.79594,25.36692],[83.79969,25.36881],[83.80386,25.36661],[83.80385,25.36954],[83.80909,25.3702],[83.81092,25.36793],[83.81142,25.36441],[83.81529,25.36319],[83.81479,25.36038],[83.82792,25.34925],[83.83156,25.34617],[83.83727,25.34509],[83.84234,25.34309],[83.84462,25.34052],[83.84302,25.33904],[83.84592,25.33558],[83.85113,25.33445],[83.86485,25.32752],[83.86608,25.325],[83.86972,25.32218],[83.87178,25.31882],[83.87586,25.31465],[83.87935,25.31309],[83.88513,25.31317],[83.88783,25.30861],[83.89435,25.30316],[83.89702,25.29979],[83.89983,25.2932],[83.89984,25.29318],[83.89985,25.29318],[83.89985,25.29318],[83.89693,25.28948],[83.89739,25.28525],[83.89649,25.28203],[83.89761,25.27951],[83.89782,25.27034],[83.90017,25.26566],[83.90041,25.26327],[83.89857,25.26217],[83.88794,25.2642],[83.88475,25.2629],[83.88498,25.25966],[83.88738,25.25762],[83.88678,25.25308],[83.88204,25.25209],[83.86657,25.25194],[83.86456,25.24493],[83.85666,25.24639],[83.8521,25.24361],[83.83519,25.24333],[83.82922,25.23178],[83.82537,25.21834],[83.81822,25.2192],[83.81793,25.21622],[83.81581,25.21706],[83.81489,25.21375],[83.8088,25.21372],[83.80881,25.20839],[83.81437,25.20445],[83.81685,25.19969],[83.81558,25.18259],[83.8087,25.17759],[83.82225,25.17348],[83.8227,25.16342],[83.82627,25.16181],[83.82565,25.152],[83.8161,25.15215],[83.81645,25.14559],[83.82029,25.14525],[83.81987,25.13894],[83.81877,25.13281],[83.81468,25.12278],[83.80919,25.11367],[83.80962,25.10839],[83.81236,25.10065],[83.81877,25.0917],[83.82424,25.07801],[83.82536,25.0687],[83.82678,25.05693],[83.82171,25.03999],[83.82395,25.0378],[83.82355,25.03653],[83.81856,25.0328],[83.81639,25.03005],[83.8093,25.02346],[83.80888,25.02446],[83.80656,25.02207],[83.80598,25.02005],[83.8037,25.01732],[83.80034,25.01033],[83.80012,25.00756],[83.80099,25.00615],[83.80418,25.00474],[83.80814,25.00052],[83.81007,24.99271],[83.80692,24.99204],[83.80534,24.99066],[83.80519,24.98835],[83.80764,24.98747],[83.81116,24.98814],[83.81973,24.99097],[83.82115,24.98916],[83.81276,24.98437],[83.80861,24.97833],[83.8081,24.97063],[83.81138,24.96448],[83.81203,24.96008],[83.80931,24.95824],[83.8013,24.96083],[83.79976,24.95853],[83.80407,24.95573],[83.80619,24.95289],[83.80366,24.95146],[83.79794,24.94987],[83.79692,24.9478],[83.79869,24.9426],[83.79422,24.94061],[83.79318,24.93802],[83.78862,24.93937],[83.78594,24.93523],[83.77943,24.92991],[83.7818,24.92771],[83.77712,24.92405],[83.77374,24.91606],[83.76682,24.91425],[83.76542,24.91236],[83.76584,24.90844],[83.76475,24.90546],[83.76541,24.90131],[83.76458,24.89844],[83.76137,24.89696],[83.76251,24.88993],[83.76048,24.88683],[83.75814,24.88529],[83.75656,24.88311],[83.75577,24.87932],[83.7567,24.87661],[83.76276,24.87266],[83.7574,24.86924],[83.75794,24.86566],[83.75468,24.86563],[83.75087,24.86818],[83.74801,24.86261],[83.74456,24.86245],[83.74296,24.85849],[83.74013,24.85712],[83.73657,24.85174],[83.72972,24.84952],[83.72893,24.84624],[83.72584,24.84459],[83.72512,24.83907],[83.71965,24.83581],[83.71955,24.8323],[83.72817,24.82605],[83.72984,24.82298],[83.73001,24.81936],[83.72873,24.8162],[83.73069,24.80854],[83.7323,24.80658],[83.73983,24.80544],[83.74753,24.80281],[83.75411,24.80254],[83.75776,24.80316],[83.76038,24.80056],[83.76387,24.79859],[83.77296,24.79744],[83.77701,24.79402],[83.77687,24.79075],[83.77522,24.7877],[83.77601,24.78476],[83.7785,24.78182],[83.78234,24.76671],[83.78574,24.75921],[83.77873,24.7604],[83.7782,24.75718],[83.78015,24.74951],[83.7825,24.74455],[83.78277,24.73845],[83.77517,24.7371],[83.76576,24.7276],[83.76549,24.72433],[83.76754,24.72264],[83.7684,24.72017],[83.76257,24.71968],[83.7621,24.71491],[83.7649,24.71161],[83.76685,24.70498],[83.76595,24.70251],[83.76296,24.70396],[83.76253,24.70695],[83.76093,24.70978],[83.74634,24.68407],[83.74138,24.67322],[83.73398,24.66571],[83.73394,24.65904],[83.73052,24.65497],[83.73452,24.6515],[83.73285,24.64668],[83.73923,24.64399],[83.74203,24.64202],[83.74333,24.63799],[83.7528,24.63155],[83.75391,24.6278],[83.75442,24.62095],[83.75143,24.61504],[83.74766,24.61195],[83.74525,24.60851],[83.74097,24.59541],[83.74041,24.58856],[83.74731,24.58035],[83.7491,24.57689],[83.7451,24.56885],[83.73585,24.56182],[83.72018,24.55913],[83.71803,24.55741],[83.71852,24.55476],[83.71793,24.5516],[83.71419,24.54465],[83.70898,24.54226],[83.69871,24.54214],[83.69702,24.54128],[83.69345,24.54107],[83.68218,24.54112],[83.67156,24.54422],[83.66758,24.54781],[83.66405,24.55449],[83.66099,24.55601],[83.65909,24.55337],[83.64557,24.5441],[83.63937,24.54235],[83.62947,24.54141],[83.60817,24.54064],[83.56842,24.54304],[83.5568,24.54349],[83.53419,24.54173],[83.53019,24.5433],[83.52508,24.54799],[83.52508,24.54799],[83.52586,24.55374],[83.52786,24.55746],[83.53251,24.5661],[83.53191,24.57381],[83.53307,24.57899],[83.53291,24.58382],[83.53142,24.58659],[83.52792,24.58977],[83.52514,24.59749],[83.52536,24.60198],[83.53349,24.61243],[83.54246,24.61435],[83.54638,24.62038],[83.54965,24.6233],[83.54934,24.62492],[83.54684,24.62648],[83.52863,24.62873],[83.53214,24.64081],[83.53189,24.64306],[83.52963,24.64324],[83.52386,24.64153],[83.51512,24.64807],[83.51048,24.64739],[83.50767,24.64809],[83.50548,24.65034],[83.50502,24.65789],[83.50745,24.66715],[83.51015,24.67024],[83.52117,24.67757],[83.52168,24.67982],[83.52062,24.68206],[83.51712,24.6834],[83.50789,24.69316],[83.5037,24.69484],[83.50298,24.7013],[83.50004,24.70377],[83.4976,24.70448],[83.49389,24.70132],[83.49132,24.70157],[83.4887,24.70433],[83.48796,24.70854],[83.48837,24.71481],[83.49129,24.72136],[83.49133,24.72965],[83.49047,24.73352],[83.48785,24.7364],[83.48334,24.73659],[83.47975,24.73423],[83.47498,24.7331],[83.47175,24.73352],[83.47046,24.73369],[83.46111,24.73187],[83.45269,24.73899],[83.4495,24.74256],[83.44228,24.75536],[83.43346,24.76161],[83.42747,24.76835],[83.41934,24.77379],[83.4115,24.77513],[83.40217,24.77792],[83.39485,24.78266],[83.39441,24.78503],[83.39656,24.78997],[83.40061,24.79554],[83.39799,24.80027],[83.39813,24.80286],[83.40368,24.80941],[83.40376,24.81401],[83.40302,24.81862],[83.3994,24.82156],[83.39772,24.82554],[83.39849,24.83147],[83.39725,24.83446],[83.39338,24.83845],[83.39062,24.83863],[83.38887,24.8414],[83.38913,24.84283],[83.38676,24.84451],[83.37639,24.86152],[83.36387,24.86696],[83.36211,24.86893],[83.36539,24.87185],[83.3713,24.87529],[83.37237,24.8769],[83.372,24.87875],[83.36993,24.88065],[83.36436,24.88261],[83.36305,24.88383],[83.36318,24.88578],[83.36431,24.88752],[83.36777,24.88848],[83.36816,24.89015],[83.35954,24.90134],[83.35936,24.90451],[83.36018,24.90612],[83.36414,24.90812],[83.36546,24.90968],[83.36616,24.91226],[83.36549,24.9175],[83.3667,24.93565],[83.36579,24.94423],[83.36607,24.94988],[83.3652,24.95358],[83.35756,24.95775],[83.35449,24.96116],[83.35211,24.9621],[83.34664,24.96176],[83.34871,24.97302],[83.3486,24.97741],[83.35413,24.99027],[83.35441,24.99413],[83.3531,25.00078],[83.35209,25.00863],[83.3503,25.00962],[83.3473,25.01005],[83.33588,25.01446],[83.32789,25.01367],[83.3264,25.01546],[83.3243,25.02546],[83.32474,25.03649],[83.32609,25.03976],[83.3317,25.04615],[83.32971,25.05052],[83.33015,25.05393],[83.33321,25.05407],[83.33448,25.05349],[83.33536,25.05149],[83.33842,25.04909],[83.34035,25.04862],[83.34204,25.0491],[83.34185,25.05613],[83.33947,25.05792],[83.33604,25.0591],[83.33947,25.07143],[83.34049,25.08053],[83.34178,25.08286],[83.34495,25.08442],[83.34629,25.08613],[83.34859,25.09672],[83.3484,25.11045],[83.35117,25.11053],[83.35612,25.10886],[83.36203,25.10843],[83.36565,25.12223],[83.36591,25.12597],[83.36042,25.12926],[83.36231,25.1382],[83.36174,25.14718],[83.36078,25.14984],[83.35911,25.15141],[83.35151,25.15668],[83.35341,25.16469],[83.35504,25.16759],[83.35646,25.17659],[83.35057,25.17684],[83.34632,25.17789],[83.3437,25.17936],[83.34418,25.18154],[83.34956,25.18353],[83.35229,25.18538],[83.35573,25.19101],[83.35796,25.1969],[83.36431,25.19664],[83.36859,25.19433],[83.37495,25.19832],[83.38042,25.1991],[83.3829,25.20049],[83.38605,25.20763],[83.38791,25.20973],[83.39009,25.20878],[83.3937,25.20402],[83.39655,25.205],[83.39833,25.20963],[83.39825,25.2121],[83.39947,25.21357],[83.40339,25.21489],[83.40431,25.22051],[83.40562,25.22319],[83.40986,25.22801],[83.41069,25.23552],[83.41254,25.24037],[83.41526,25.24522],[83.41763,25.24725],[83.42542,25.24408],[83.42769,25.24434],[83.42691,25.25004],[83.4277,25.25129],[83.43089,25.25021],[83.43707,25.24248],[83.43972,25.24249],[83.43951,25.24807],[83.44158,25.25154],[83.44816,25.25719],[83.4513,25.25725],[83.4619,25.24928],[83.46564,25.24841],[83.46863,25.24998],[83.47161,25.25441],[83.47876,25.26068],[83.48026,25.26346],[83.47839,25.26723],[83.47939,25.27014],[83.48863,25.28039],[83.49041,25.28088],[83.49455,25.27749],[83.49797,25.27916],[83.49965,25.28459],[83.50313,25.28528],[83.50408,25.2824],[83.50524,25.281],[83.50656,25.28097],[83.51096,25.28757],[83.51642,25.28421],[83.51953,25.28583],[83.5263,25.29124],[83.52527,25.29648],[83.52532,25.29861],[83.52643,25.30048],[83.52839,25.30132],[83.53147,25.29845],[83.53398,25.29755],[83.53716,25.29945],[83.53954,25.30251],[83.55095,25.30733],[83.55367,25.30786],[83.55501,25.30962],[83.55272,25.31115],[83.54153,25.31087],[83.54302,25.3132],[83.54784,25.31565],[83.55585,25.31386],[83.55959,25.31191],[83.56267,25.31209],[83.56925,25.3141],[83.57263,25.31387],[83.57125,25.30769],[83.57254,25.30618],[83.57774,25.30816],[83.5806,25.31564],[83.58624,25.31469],[83.58719,25.31531],[83.58917,25.32039],[83.59224,25.32292],[83.59642,25.32446],[83.61156,25.32961],[83.61559,25.33035],[83.619,25.33064],[83.623,25.32971],[83.62841,25.32663],[83.63075,25.32758],[83.63313,25.33299],[83.63674,25.33431],[83.63734,25.33597],[83.63685,25.33919],[83.63833,25.34129],[83.64019,25.34011],[83.64712,25.33821],[83.65085,25.33918],[83.65276,25.34306],[83.65494,25.34526],[83.6519,25.35249],[83.65378,25.35568],[83.65859,25.35715],[83.65896,25.35962],[83.65804,25.36348],[83.65859,25.366],[83.66454,25.36171],[83.66717,25.36108],[83.66856,25.36192],[83.66629,25.36725],[83.66859,25.36905],[83.67315,25.36495],[83.67745,25.36252],[83.68059,25.36264],[83.68737,25.36465],[83.69465,25.36751],[83.69734,25.36936],[83.69621,25.3722],[83.68518,25.3748],[83.68359,25.37644],[83.68466,25.37975],[83.69777,25.38389],[83.70115,25.39182],[83.70296,25.39415],[83.70466,25.3944],[83.70732,25.38626],[83.70978,25.38392],[83.71237,25.38422],[83.71785,25.39331],[83.72378,25.3973],[83.72643,25.39788],[83.73369,25.39574],[83.73553,25.39657],[83.73783,25.40429],[83.74089,25.40866],[83.74332,25.4074],[83.74621,25.39897]]]}}]}