{"type":"FeatureCollection","features":[{"type":"Feature","properties":{"id":"katihar","name":"Katihar","stateId":"bihar","stateName":"Bihar","censuscode":212,"type":"district"},"geometry":{"type":"Polygon","coordinates":[[[87.82614,25.88108],[87.82909,25.87157],[87.84079,25.86884],[87.8494,25.86882],[87.85666,25.86719],[87.86211,25.86484],[87.87149,25.86767],[87.87386,25.86458],[87.87691,25.86612],[87.87844,25.85978],[87.88495,25.85859],[87.88741,25.85854],[87.89102,25.86478],[87.90564,25.85997],[87.90756,25.85637],[87.91101,25.85323],[87.91708,25.85189],[87.90351,25.83974],[87.90357,25.83467],[87.90149,25.83332],[87.89879,25.83522],[87.89552,25.83294],[87.89382,25.83301],[87.88956,25.82876],[87.89051,25.82746],[87.89711,25.82666],[87.89996,25.8293],[87.90261,25.82924],[87.90412,25.8278],[87.90001,25.82521],[87.90489,25.82029],[87.91059,25.81907],[87.91664,25.81496],[87.91562,25.81086],[87.91372,25.80956],[87.90927,25.81429],[87.90815,25.8133],[87.90817,25.81118],[87.90733,25.81087],[87.90542,25.81175],[87.90286,25.81122],[87.90116,25.80486],[87.90518,25.80566],[87.90802,25.80416],[87.90917,25.80204],[87.90772,25.80067],[87.9053,25.80042],[87.90412,25.79944],[87.90704,25.7805],[87.90384,25.772],[87.90457,25.76995],[87.90732,25.76943],[87.91105,25.77215],[87.92474,25.77422],[87.93468,25.76805],[87.93527,25.77228],[87.93846,25.77152],[87.94341,25.76814],[87.94356,25.75852],[87.94768,25.75616],[87.94806,25.75344],[87.94466,25.74875],[87.94989,25.74835],[87.95018,25.74403],[87.95706,25.73884],[87.96266,25.73567],[87.96647,25.73235],[87.968,25.72992],[87.96699,25.72491],[87.97764,25.7203],[87.98563,25.7187],[87.98781,25.72194],[87.99376,25.72391],[87.99367,25.72026],[87.99853,25.71938],[88.00312,25.71216],[88.00792,25.70935],[88.0127,25.70677],[88.02259,25.70497],[88.02345,25.70276],[88.02023,25.69774],[88.02024,25.69461],[88.02208,25.69198],[88.0283,25.69178],[88.03269,25.69919],[88.03609,25.69907],[88.03811,25.69674],[88.04065,25.6943],[88.04575,25.6984],[88.04921,25.69496],[88.05107,25.69027],[88.05451,25.69084],[88.0567,25.68607],[88.05497,25.68175],[88.05055,25.67725],[88.04902,25.67418],[88.05124,25.66009],[88.05473,25.65827],[88.05462,25.65573],[88.04982,25.65288],[88.05121,25.64841],[88.05437,25.64421],[88.05315,25.64333],[88.05198,25.64471],[88.05034,25.64319],[88.05022,25.63997],[88.04878,25.6393],[88.046,25.64221],[88.04166,25.64129],[88.04139,25.63713],[88.04665,25.63643],[88.04931,25.63238],[88.06012,25.63317],[88.05331,25.62794],[88.0496,25.62854],[88.04525,25.62762],[88.04276,25.62232],[88.04087,25.61737],[88.04306,25.6159],[88.04623,25.61079],[88.04513,25.60882],[88.04721,25.60584],[88.04187,25.60273],[88.0355,25.60036],[88.03711,25.59859],[88.04145,25.59731],[88.04563,25.5977],[88.0444,25.59538],[88.03703,25.59134],[88.03719,25.58784],[88.0323,25.58624],[88.02684,25.58727],[88.02776,25.58327],[88.03581,25.57469],[88.03104,25.56944],[88.03396,25.56667],[88.03969,25.56626],[88.04401,25.56424],[88.04126,25.56075],[88.03921,25.56181],[88.03538,25.55984],[88.0362,25.55791],[88.03281,25.55363],[88.03558,25.55076],[88.04362,25.54655],[88.04145,25.53711],[88.04483,25.53357],[88.0482,25.53244],[88.05178,25.53472],[88.05457,25.53371],[88.05646,25.53091],[88.06171,25.53031],[88.06383,25.5291],[88.06319,25.52605],[88.07258,25.51682],[88.07454,25.51345],[88.07059,25.50892],[88.06953,25.50657],[88.07212,25.50545],[88.07695,25.50529],[88.07852,25.5043],[88.0755,25.50228],[88.07379,25.49721],[88.07382,25.49026],[88.07608,25.48092],[88.07159,25.48157],[88.06734,25.486],[88.06147,25.4843],[88.05864,25.48704],[88.05516,25.48657],[88.05503,25.48314],[88.05202,25.48303],[88.04782,25.48581],[88.04231,25.48695],[88.04433,25.49197],[88.04021,25.49314],[88.03693,25.48641],[88.03325,25.48655],[88.03441,25.48938],[88.02601,25.49578],[88.02146,25.5009],[88.01568,25.50137],[88.01367,25.50323],[88.01741,25.50797],[88.01323,25.51078],[88.00951,25.50521],[88.00874,25.50009],[88.00996,25.49445],[88.00409,25.4958],[87.99852,25.49825],[87.99238,25.50303],[87.99073,25.5085],[87.98633,25.51623],[87.99357,25.5211],[87.99398,25.52298],[87.99342,25.52432],[87.99182,25.52521],[87.97805,25.52361],[87.97491,25.52645],[87.96989,25.53345],[87.96143,25.53842],[87.95821,25.53683],[87.94871,25.53504],[87.94388,25.53565],[87.93939,25.53532],[87.93188,25.53656],[87.92996,25.53601],[87.92549,25.5312],[87.92195,25.53226],[87.92027,25.5313],[87.92042,25.5256],[87.91959,25.52414],[87.914,25.52449],[87.90888,25.51941],[87.91216,25.51404],[87.90856,25.5116],[87.91065,25.50771],[87.90635,25.50761],[87.90482,25.50468],[87.90169,25.50509],[87.90087,25.51031],[87.894,25.51314],[87.89119,25.51745],[87.88509,25.51633],[87.88634,25.51368],[87.88722,25.50594],[87.87574,25.50337],[87.87458,25.49756],[87.86935,25.4938],[87.86672,25.48643],[87.86638,25.47822],[87.86973,25.47071],[87.87012,25.46829],[87.8693,25.46578],[87.85652,25.46874],[87.85541,25.46539],[87.83968,25.46496],[87.83966,25.4592],[87.83355,25.45923],[87.83147,25.45793],[87.8332,25.45199],[87.83082,25.44979],[87.83163,25.44567],[87.82755,25.44342],[87.82676,25.44018],[87.82508,25.43794],[87.81451,25.43459],[87.81266,25.43519],[87.80417,25.44228],[87.79921,25.44259],[87.79849,25.44602],[87.7924,25.44909],[87.78722,25.44505],[87.78551,25.437],[87.78237,25.42937],[87.77599,25.42918],[87.77175,25.42469],[87.77708,25.41894],[87.77829,25.41533],[87.77711,25.41198],[87.77584,25.41025],[87.77383,25.40919],[87.77,25.4094],[87.76801,25.41247],[87.76564,25.4105],[87.76496,25.40546],[87.76967,25.40532],[87.77232,25.40395],[87.76892,25.39604],[87.76841,25.38944],[87.76854,25.38667],[87.77153,25.37844],[87.77963,25.37241],[87.78254,25.3713],[87.79464,25.3727],[87.79317,25.35533],[87.79066,25.34508],[87.7874,25.33888],[87.78975,25.33291],[87.7972,25.32282],[87.80305,25.32258],[87.80739,25.3239],[87.81682,25.31965],[87.82608,25.31333],[87.83464,25.30394],[87.83687,25.30268],[87.84607,25.2989],[87.8561,25.29796],[87.85706,25.29303],[87.85898,25.2899],[87.86069,25.29006],[87.86182,25.2835],[87.86219,25.27831],[87.85995,25.26846],[87.85705,25.26961],[87.85564,25.26783],[87.85542,25.26203],[87.85669,25.25852],[87.8549,25.25399],[87.85296,25.25281],[87.8512,25.25282],[87.84723,25.25414],[87.84119,25.25037],[87.83793,25.24522],[87.83592,25.24023],[87.83061,25.23712],[87.82843,25.23491],[87.83943,25.21396],[87.84246,25.20371],[87.84226,25.19986],[87.83794,25.20137],[87.83527,25.20465],[87.82685,25.20868],[87.8157,25.21231],[87.80701,25.21883],[87.79328,25.22107],[87.79323,25.22919],[87.79115,25.23687],[87.7909,25.24102],[87.78939,25.24356],[87.78902,25.24674],[87.77484,25.24721],[87.76854,25.24983],[87.73663,25.25368],[87.72683,25.25397],[87.71357,25.25694],[87.71265,25.26031],[87.71377,25.27188],[87.71172,25.27508],[87.70677,25.27828],[87.70223,25.27938],[87.69712,25.28189],[87.6949,25.28543],[87.69614,25.29171],[87.70062,25.2959],[87.69725,25.29909],[87.69934,25.30354],[87.69408,25.30526],[87.68649,25.30476],[87.68673,25.30815],[87.68994,25.30853],[87.68999,25.3106],[87.66465,25.31021],[87.65767,25.30772],[87.63991,25.31282],[87.63768,25.31233],[87.63189,25.31907],[87.63212,25.31618],[87.62857,25.31126],[87.61953,25.316],[87.61279,25.31184],[87.60582,25.31512],[87.5952,25.32234],[87.59523,25.32423],[87.58712,25.32847],[87.58643,25.33276],[87.59361,25.34098],[87.58605,25.34882],[87.58489,25.3472],[87.58546,25.34435],[87.57742,25.34094],[87.57309,25.33433],[87.55344,25.33137],[87.54363,25.33056],[87.53827,25.33571],[87.52923,25.34183],[87.53213,25.35156],[87.53074,25.35557],[87.52978,25.35504],[87.52817,25.34763],[87.51708,25.35169],[87.51122,25.35164],[87.50422,25.3499],[87.48944,25.36688],[87.47784,25.36544],[87.46207,25.36485],[87.45672,25.35942],[87.44644,25.36178],[87.44198,25.36512],[87.43638,25.38041],[87.43237,25.37389],[87.42994,25.37583],[87.42727,25.37536],[87.42009,25.378],[87.41048,25.3801],[87.40848,25.38461],[87.41029,25.39012],[87.38103,25.40328],[87.37012,25.40624],[87.36733,25.40842],[87.36854,25.42298],[87.35742,25.41507],[87.34728,25.41396],[87.34351,25.41537],[87.34023,25.41539],[87.33355,25.41242],[87.32794,25.40826],[87.31973,25.40771],[87.30808,25.402],[87.30614,25.40259],[87.29563,25.39857],[87.28624,25.37395],[87.28045,25.36261],[87.27336,25.35747],[87.27006,25.35277],[87.26705,25.35138],[87.26609,25.35395],[87.27761,25.36974],[87.2666,25.37412],[87.24796,25.37885],[87.23824,25.37543],[87.23439,25.37811],[87.23514,25.37945],[87.22938,25.38319],[87.22923,25.38544],[87.22206,25.39019],[87.22043,25.39336],[87.21983,25.39695],[87.22331,25.40033],[87.22292,25.40414],[87.22118,25.40771],[87.21912,25.40951],[87.20513,25.4151],[87.20983,25.42764],[87.21657,25.42905],[87.22169,25.43111],[87.22454,25.43428],[87.23068,25.4436],[87.23166,25.4515],[87.23509,25.46086],[87.23363,25.46207],[87.23196,25.47013],[87.22909,25.47357],[87.21442,25.48131],[87.21396,25.48363],[87.21276,25.48391],[87.21496,25.4997],[87.21034,25.50085],[87.21037,25.50303],[87.20874,25.50453],[87.20932,25.50624],[87.21595,25.50639],[87.2235,25.50767],[87.22586,25.51954],[87.2295,25.52389],[87.22942,25.53046],[87.22675,25.53446],[87.22919,25.53674],[87.23552,25.53735],[87.24522,25.53998],[87.24667,25.5458],[87.24805,25.54707],[87.25185,25.54876],[87.25755,25.54935],[87.26021,25.55535],[87.26294,25.5572],[87.2682,25.55787],[87.27118,25.56529],[87.26354,25.56794],[87.26707,25.57074],[87.26115,25.57821],[87.26392,25.58829],[87.2602,25.5912],[87.25919,25.59704],[87.25443,25.59779],[87.25575,25.61052],[87.25759,25.61511],[87.25814,25.6205],[87.25266,25.62065],[87.25266,25.62519],[87.25708,25.63515],[87.26254,25.6389],[87.26811,25.64065],[87.27421,25.6414],[87.27851,25.64331],[87.27201,25.64885],[87.26373,25.65296],[87.25852,25.66684],[87.2621,25.66902],[87.25837,25.67491],[87.25418,25.67863],[87.24715,25.68839],[87.24377,25.69634],[87.24361,25.69836],[87.24643,25.70372],[87.25233,25.70838],[87.25535,25.70833],[87.26148,25.71691],[87.26984,25.71457],[87.27285,25.71405],[87.27514,25.71466],[87.27783,25.71376],[87.27579,25.71072],[87.27704,25.70452],[87.28006,25.70136],[87.29546,25.70118],[87.301,25.69941],[87.30416,25.69659],[87.30512,25.69229],[87.31494,25.69307],[87.31735,25.68912],[87.32488,25.68659],[87.33441,25.6864],[87.33794,25.68471],[87.33982,25.6817],[87.34417,25.68286],[87.35337,25.6825],[87.3581,25.68652],[87.36196,25.68677],[87.36691,25.68578],[87.37651,25.68012],[87.37982,25.68073],[87.38281,25.68287],[87.38943,25.68094],[87.39302,25.68224],[87.40298,25.67754],[87.41413,25.67843],[87.41542,25.6747],[87.43191,25.67642],[87.43571,25.6807],[87.45664,25.68],[87.47764,25.68211],[87.48351,25.68193],[87.4874,25.67183],[87.48974,25.67323],[87.49025,25.67033],[87.49284,25.6677],[87.50777,25.66832],[87.50871,25.67104],[87.50691,25.67842],[87.51231,25.67654],[87.52271,25.67457],[87.52415,25.67285],[87.52954,25.672],[87.53204,25.67294],[87.53213,25.67909],[87.53116,25.68132],[87.53403,25.68183],[87.53768,25.68554],[87.54189,25.68526],[87.53916,25.67945],[87.54082,25.67431],[87.53856,25.66923],[87.54052,25.66662],[87.54326,25.66686],[87.54673,25.66953],[87.55115,25.66959],[87.55477,25.66743],[87.55411,25.66407],[87.56199,25.65967],[87.56633,25.65909],[87.57133,25.65946],[87.57403,25.65631],[87.57602,25.65726],[87.57713,25.66183],[87.57609,25.67107],[87.57224,25.67364],[87.55541,25.67983],[87.55572,25.68115],[87.562,25.68297],[87.55607,25.68453],[87.56006,25.6861],[87.56257,25.68577],[87.57122,25.68168],[87.57151,25.68242],[87.57442,25.68241],[87.57433,25.68478],[87.57551,25.68548],[87.5843,25.68431],[87.59542,25.68744],[87.59833,25.68749],[87.60163,25.6865],[87.60383,25.68342],[87.60646,25.68423],[87.61148,25.68081],[87.61778,25.68073],[87.62975,25.68543],[87.63927,25.69172],[87.64204,25.68994],[87.64237,25.6863],[87.65037,25.68051],[87.6547,25.6839],[87.66473,25.68504],[87.66907,25.68861],[87.67154,25.69685],[87.67412,25.70066],[87.68313,25.69735],[87.68513,25.69843],[87.68436,25.70611],[87.68327,25.7084],[87.68208,25.71667],[87.68556,25.7193],[87.68366,25.7234],[87.68689,25.73029],[87.6876,25.74516],[87.69228,25.74802],[87.70277,25.74506],[87.70415,25.74748],[87.70032,25.75086],[87.70351,25.75539],[87.70731,25.75287],[87.70971,25.75301],[87.7096,25.75457],[87.71126,25.75622],[87.71237,25.76239],[87.72027,25.7635],[87.7274,25.76074],[87.73177,25.76361],[87.73888,25.76303],[87.74361,25.7614],[87.74654,25.75925],[87.75493,25.75086],[87.76929,25.75389],[87.77341,25.75401],[87.77581,25.75282],[87.77889,25.74843],[87.7803,25.74366],[87.79149,25.74757],[87.78344,25.75757],[87.78432,25.75885],[87.78945,25.76054],[87.79402,25.7634],[87.80436,25.76544],[87.80729,25.76733],[87.8041,25.76787],[87.80681,25.77685],[87.80968,25.77737],[87.82852,25.78653],[87.82699,25.79805],[87.8215,25.81128],[87.81599,25.82929],[87.79526,25.84252],[87.79969,25.84412],[87.80597,25.843],[87.81671,25.84405],[87.81626,25.84522],[87.82109,25.85606],[87.81663,25.862],[87.81569,25.8675],[87.80414,25.87069],[87.80227,25.87261],[87.80192,25.8755],[87.80835,25.88157],[87.81432,25.88096],[87.82455,25.88158],[87.82614,25.88108]]]}}]}