{"type":"FeatureCollection","features":[{"type":"Feature","properties":{"id":"lakhisarai","name":"Lakhisarai","stateId":"bihar","stateName":"Bihar","censuscode":227,"type":"district"},"geometry":{"type":"Polygon","coordinates":[[[86.06449,25.3341],[86.06772,25.32281],[86.06993,25.31974],[86.0739,25.317],[86.081,25.31473],[86.07901,25.30988],[86.08679,25.30702],[86.09772,25.30529],[86.10261,25.31169],[86.10573,25.30886],[86.11125,25.30069],[86.11459,25.29875],[86.12719,25.28701],[86.13387,25.27444],[86.13363,25.27271],[86.13144,25.27313],[86.12941,25.27227],[86.13025,25.26932],[86.1388,25.26863],[86.14403,25.26919],[86.15287,25.26716],[86.15224,25.26157],[86.15337,25.25886],[86.15593,25.26449],[86.16438,25.26387],[86.17084,25.25904],[86.17162,25.26331],[86.17056,25.2719],[86.18842,25.25965],[86.19254,25.25825],[86.199,25.25757],[86.19612,25.25132],[86.19979,25.24986],[86.20581,25.25017],[86.21793,25.25294],[86.23328,25.2577],[86.24079,25.26462],[86.24619,25.26788],[86.24974,25.27103],[86.262,25.27655],[86.27019,25.27939],[86.26635,25.28504],[86.27645,25.28994],[86.29872,25.29728],[86.29874,25.29727],[86.3062,25.28609],[86.31255,25.28141],[86.32104,25.27683],[86.32589,25.27645],[86.33401,25.28073],[86.33817,25.28247],[86.34381,25.28437],[86.35401,25.28359],[86.35945,25.28078],[86.36283,25.27548],[86.36584,25.2667],[86.38015,25.23653],[86.38505,25.2191],[86.38073,25.2048],[86.37307,25.18218],[86.36879,25.16909],[86.36925,25.15933],[86.36924,25.14354],[86.36384,25.14073],[86.35487,25.13345],[86.33836,25.12338],[86.33221,25.11936],[86.32812,25.1104],[86.32592,25.10275],[86.32368,25.09224],[86.32184,25.0878],[86.31839,25.08334],[86.30942,25.07808],[86.305,25.07651],[86.29463,25.07689],[86.2872,25.07687],[86.28095,25.07528],[86.27341,25.07006],[86.26655,25.06316],[86.26145,25.05921],[86.25518,25.05513],[86.25031,25.05072],[86.24851,25.04701],[86.24766,25.03977],[86.24885,25.0353],[86.25114,25.03244],[86.25428,25.03047],[86.25419,25.02642],[86.25152,25.02155],[86.25021,25.01746],[86.24978,25.01066],[86.24669,25.00544],[86.24447,24.99926],[86.24182,24.99679],[86.23912,24.99533],[86.23509,24.99567],[86.22892,24.9997],[86.2209,25.0074],[86.21297,25.01357],[86.20489,25.02069],[86.19148,25.0327],[86.18946,25.03494],[86.18679,25.03825],[86.17807,25.04739],[86.1757,25.04957],[86.16908,25.05278],[86.16374,25.05327],[86.16014,25.05204],[86.15836,25.05082],[86.15706,25.04681],[86.15614,25.04463],[86.1526,25.03833],[86.15076,25.03582],[86.14369,25.03177],[86.14148,25.02578],[86.13972,25.01848],[86.14052,25.00997],[86.1424,25.00473],[86.1423,25.00068],[86.13791,24.99542],[86.13217,24.99168],[86.12985,24.98763],[86.12946,24.98368],[86.1307,24.97801],[86.13074,24.9723],[86.12852,24.96824],[86.12624,24.96713],[86.12268,24.96875],[86.11749,24.96794],[86.11299,24.96904],[86.11166,24.97075],[86.1094,24.97434],[86.10636,24.9764],[86.10276,24.97718],[86.10101,24.97642],[86.09921,24.97272],[86.09691,24.97115],[86.08679,24.97514],[86.08495,24.97475],[86.08059,24.97234],[86.0766,24.96909],[86.07173,24.96873],[86.06859,24.97512],[86.066,24.97651],[86.06331,24.9768],[86.05798,24.97517],[86.05441,24.97236],[86.04993,24.96747],[86.04595,24.9667],[86.04485,24.96896],[86.04422,24.97276],[86.04203,24.97791],[86.03974,24.98067],[86.03555,24.98185],[86.03199,24.98135],[86.02859,24.98],[86.02271,24.97765],[86.01881,24.97845],[86.01579,24.98087],[86.01329,24.98373],[86.01221,24.98654],[86.01376,24.98934],[86.01504,24.99076],[86.01535,24.99305],[86.01412,24.99485],[86.01178,24.99688],[86.00825,24.99701],[86.00338,24.99444],[85.99786,24.99327],[85.99358,24.9904],[85.98997,24.98879],[85.98694,24.98669],[85.98462,24.98687],[85.98244,24.99],[85.98003,24.99682],[85.97767,24.99991],[85.97157,25.00618],[85.96816,25.00889],[85.96406,25.00988],[85.96241,25.0092],[85.96069,25.00696],[85.95957,25.00028],[85.95799,24.99905],[85.95208,25.00011],[85.94884,25.00252],[85.94403,25.0053],[85.93673,25.00724],[85.92232,25.01259],[85.92022,25.01277],[85.91517,25.01323],[85.91203,25.01316],[85.91024,25.02042],[85.90987,25.02781],[85.91164,25.03105],[85.9143,25.03381],[85.91522,25.03626],[85.91472,25.0407],[85.91832,25.04249],[85.92359,25.04442],[85.93024,25.04398],[85.93294,25.04553],[85.93336,25.04801],[85.93164,25.05894],[85.93255,25.06103],[85.93464,25.06252],[85.9365,25.06337],[85.94621,25.06548],[85.95239,25.06791],[85.9574,25.07113],[85.95953,25.07354],[85.96041,25.07719],[85.95828,25.08372],[85.95847,25.08953],[85.95902,25.093],[85.96132,25.09899],[85.96173,25.10349],[85.96139,25.10884],[85.96131,25.11989],[85.96222,25.13581],[85.96401,25.13943],[85.9685,25.14239],[85.98229,25.1472],[85.98407,25.14884],[85.98621,25.15082],[85.98886,25.1557],[85.98836,25.16217],[85.98364,25.17382],[85.97725,25.18443],[85.97021,25.19419],[85.96179,25.20394],[85.95406,25.21287],[85.95197,25.21802],[85.94973,25.22649],[85.94568,25.233],[85.94213,25.23738],[85.93275,25.23888],[85.91874,25.23947],[85.92557,25.24391],[85.92368,25.24746],[85.92116,25.25013],[85.91326,25.25402],[85.90275,25.26115],[85.90179,25.26503],[85.90422,25.26894],[85.9034,25.27685],[85.90617,25.28116],[85.90431,25.28961],[85.90553,25.29362],[85.90674,25.29826],[85.91246,25.29638],[85.91791,25.30128],[85.92422,25.30145],[85.93018,25.30253],[85.93015,25.30714],[85.9327,25.31258],[85.93081,25.31793],[85.93237,25.32323],[85.94309,25.32382],[85.94985,25.3232],[85.96081,25.31923],[85.99066,25.31305],[85.99751,25.30994],[86.0115,25.30295],[86.0121,25.29856],[86.0132,25.2977],[86.01478,25.29974],[86.01778,25.29844],[86.01729,25.29391],[86.02327,25.29288],[86.02917,25.29313],[86.02904,25.2986],[86.03058,25.30363],[86.03724,25.30659],[86.03757,25.31688],[86.04228,25.33031],[86.04037,25.33303],[86.04848,25.33679],[86.05044,25.33868],[86.05421,25.34058],[86.05632,25.33466],[86.061,25.33344],[86.06449,25.3341]]]}}]}