{"type":"FeatureCollection","features":[{"type":"Feature","properties":{"id":"madhepura","name":"Madhepura","stateId":"bihar","stateName":"Bihar","censuscode":213,"type":"district"},"geometry":{"type":"Polygon","coordinates":[[[87.0931,26.05516],[87.11002,26.05192],[87.1125,26.04906],[87.11613,26.04813],[87.11632,26.04515],[87.1125,26.04408],[87.11049,26.04071],[87.11361,26.03832],[87.11207,26.03599],[87.09617,26.03919],[87.09233,26.03866],[87.08854,26.03699],[87.08442,26.03094],[87.08515,26.02416],[87.0873,26.02063],[87.08297,26.01226],[87.0735,25.99884],[87.0737,25.99351],[87.07201,25.99148],[87.06968,25.99149],[87.06707,25.9942],[87.06157,25.99075],[87.06147,25.98817],[87.05988,25.98605],[87.06134,25.98177],[87.0648,25.98061],[87.07109,25.97486],[87.07272,25.97518],[87.08073,25.97253],[87.0832,25.96988],[87.08127,25.96621],[87.08115,25.96383],[87.08175,25.96045],[87.08176,25.9604],[87.07306,25.96116],[87.0617,25.96596],[87.0599,25.96502],[87.05875,25.96302],[87.058,25.96125],[87.05844,25.95706],[87.05657,25.95325],[87.05483,25.9515],[87.05194,25.95104],[87.04811,25.95292],[87.04512,25.95347],[87.04148,25.9535],[87.03912,25.95257],[87.03872,25.95746],[87.03407,25.95956],[87.03094,25.95819],[87.02904,25.95608],[87.02632,25.95151],[87.02693,25.949],[87.02065,25.94716],[87.01837,25.94514],[87.01313,25.9438],[87.00939,25.9421],[87.00336,25.94307],[86.99979,25.94291],[86.99087,25.94152],[86.99293,25.93378],[86.99975,25.92189],[87.00365,25.91784],[87.00577,25.91228],[87.00991,25.90568],[87.01251,25.90177],[87.0184,25.89472],[87.02011,25.89611],[87.0208,25.89219],[87.02401,25.89315],[87.02857,25.89771],[87.03071,25.89587],[87.03372,25.88928],[87.03528,25.8771],[87.0345,25.87376],[87.032,25.87034],[87.02609,25.86803],[87.02915,25.86562],[87.03133,25.86266],[87.03135,25.86041],[87.03632,25.85484],[87.03959,25.84962],[87.04085,25.84464],[87.04125,25.83525],[87.0395,25.83158],[87.03947,25.82659],[87.03422,25.82104],[87.03498,25.81682],[87.03436,25.81436],[87.03233,25.81276],[87.02919,25.81368],[87.02507,25.8165],[87.02247,25.81661],[87.02049,25.81362],[87.02034,25.80912],[87.02391,25.80057],[87.02125,25.79718],[87.02155,25.79141],[87.02,25.78688],[87.01484,25.77987],[87.0137,25.76129],[87.0138,25.75953],[87.01061,25.7442],[87.01383,25.7378],[87.01588,25.73594],[87.01948,25.73474],[87.01967,25.72954],[87.02389,25.72075],[87.02819,25.71638],[87.03255,25.71296],[87.03678,25.71432],[87.04138,25.71375],[87.04187,25.70965],[87.04824,25.6995],[87.05246,25.68776],[87.05137,25.68174],[87.04726,25.67583],[87.04494,25.67096],[87.04138,25.66677],[87.03181,25.6662],[87.03052,25.66371],[87.03161,25.65866],[87.02998,25.65073],[87.03444,25.64316],[87.03654,25.63511],[87.04104,25.6291],[87.04788,25.62329],[87.04753,25.61435],[87.04577,25.60794],[87.04513,25.59844],[87.04757,25.59331],[87.05805,25.58462],[87.062,25.5799],[87.06142,25.577],[87.06382,25.56518],[87.05578,25.5373],[87.05633,25.53395],[87.0583,25.53162],[87.05673,25.52759],[87.05844,25.5252],[87.06145,25.5233],[87.06602,25.52601],[87.06857,25.52625],[87.07495,25.51992],[87.07823,25.5192],[87.08118,25.52098],[87.08523,25.5258],[87.09736,25.52453],[87.10065,25.5226],[87.10203,25.5197],[87.10253,25.51446],[87.09704,25.51109],[87.09454,25.50233],[87.09134,25.49808],[87.08669,25.49503],[87.08294,25.49377],[87.08151,25.48948],[87.0806,25.4818],[87.07707,25.47684],[87.07562,25.47254],[87.07348,25.46941],[87.06673,25.46916],[87.05844,25.47008],[87.05219,25.47243],[87.04918,25.47089],[87.04608,25.47136],[87.02733,25.46283],[87.02228,25.46175],[87.01902,25.46264],[87.01813,25.46487],[87.02347,25.47008],[87.02472,25.47283],[87.02471,25.47519],[87.02353,25.47759],[87.01927,25.48077],[87.01704,25.47579],[87.01076,25.4755],[87.00491,25.47085],[87.00694,25.46961],[87.00106,25.47032],[86.99228,25.47768],[86.98264,25.47659],[86.97738,25.4721],[86.97441,25.46317],[86.97087,25.46394],[86.97136,25.47169],[86.9681,25.47349],[86.96172,25.47469],[86.9605,25.47813],[86.95668,25.48086],[86.95364,25.48065],[86.95227,25.4778],[86.95217,25.4751],[86.93575,25.48284],[86.93673,25.48519],[86.93933,25.48598],[86.94528,25.48554],[86.94802,25.48655],[86.94769,25.48988],[86.93955,25.49247],[86.93517,25.4917],[86.93194,25.49223],[86.9311,25.49091],[86.93209,25.48489],[86.92856,25.48519],[86.92662,25.48705],[86.92614,25.49388],[86.91204,25.49174],[86.91321,25.48863],[86.91848,25.48429],[86.92064,25.48065],[86.9193,25.47533],[86.91611,25.47369],[86.9124,25.47498],[86.90787,25.47782],[86.90364,25.47865],[86.90173,25.47826],[86.89915,25.47547],[86.89087,25.47208],[86.88682,25.46666],[86.88036,25.46262],[86.87537,25.46329],[86.86825,25.46678],[86.86615,25.46547],[86.86549,25.4629],[86.86074,25.46373],[86.85681,25.45405],[86.82989,25.45853],[86.82683,25.45631],[86.82563,25.45212],[86.83008,25.44895],[86.82954,25.44596],[86.8279,25.44585],[86.82442,25.44391],[86.82102,25.4456],[86.81825,25.4509],[86.81293,25.45667],[86.81371,25.45827],[86.81569,25.45946],[86.82101,25.45897],[86.82128,25.46574],[86.8198,25.46914],[86.81396,25.46797],[86.81146,25.47091],[86.81832,25.47247],[86.82206,25.47274],[86.82579,25.47203],[86.82556,25.47432],[86.83327,25.48196],[86.82864,25.49152],[86.82944,25.49547],[86.82851,25.50156],[86.83429,25.50813],[86.8367,25.51259],[86.84283,25.51708],[86.84418,25.52781],[86.84723,25.52951],[86.84809,25.53105],[86.84869,25.53834],[86.84364,25.5452],[86.84427,25.55014],[86.84363,25.55444],[86.84986,25.56548],[86.85295,25.56947],[86.85091,25.57356],[86.85426,25.5779],[86.8484,25.58069],[86.84603,25.58358],[86.84389,25.5844],[86.84195,25.5867],[86.84205,25.58986],[86.841,25.59245],[86.84499,25.59632],[86.84195,25.60611],[86.84281,25.61505],[86.84128,25.6185],[86.83718,25.62077],[86.83445,25.62067],[86.83234,25.61896],[86.82587,25.61906],[86.82412,25.62085],[86.82409,25.62825],[86.8155,25.63146],[86.81514,25.63284],[86.8094,25.63557],[86.80816,25.63822],[86.81029,25.64056],[86.81256,25.64508],[86.80702,25.64913],[86.80466,25.65242],[86.80566,25.65701],[86.80713,25.6574],[86.81056,25.65657],[86.81602,25.6574],[86.82279,25.66579],[86.82503,25.66687],[86.8295,25.66489],[86.83344,25.66493],[86.83505,25.66704],[86.83585,25.66984],[86.83644,25.67604],[86.84269,25.67812],[86.85063,25.6791],[86.85933,25.67469],[86.86398,25.67604],[86.86156,25.68489],[86.8587,25.6895],[86.85872,25.6957],[86.87061,25.70698],[86.87194,25.71151],[86.8767,25.71647],[86.87525,25.72153],[86.87021,25.72948],[86.86496,25.73118],[86.85013,25.73305],[86.84655,25.73566],[86.84487,25.73831],[86.84619,25.74261],[86.84838,25.74524],[86.85487,25.74117],[86.85863,25.74161],[86.85978,25.74274],[86.86052,25.74612],[86.85744,25.74805],[86.8513,25.74934],[86.85878,25.76232],[86.85951,25.76777],[86.85218,25.77149],[86.85344,25.77602],[86.85545,25.78079],[86.85942,25.78473],[86.86113,25.79001],[86.86055,25.79462],[86.85728,25.79759],[86.85379,25.81403],[86.87073,25.81828],[86.8683,25.82181],[86.86738,25.82481],[86.86365,25.82559],[86.85409,25.83684],[86.8537,25.84186],[86.85145,25.84475],[86.85291,25.85119],[86.8487,25.84936],[86.84808,25.84909],[86.84529,25.86082],[86.84633,25.86421],[86.84068,25.86737],[86.84038,25.86892],[86.84122,25.86959],[86.84261,25.8707],[86.84143,25.87197],[86.83944,25.87148],[86.83129,25.86946],[86.82549,25.86898],[86.82183,25.86971],[86.81014,25.87505],[86.80361,25.8717],[86.79272,25.86366],[86.78866,25.86208],[86.7779,25.86049],[86.76991,25.86224],[86.76502,25.86244],[86.75792,25.86273],[86.75072,25.85771],[86.73661,25.86019],[86.73121,25.86248],[86.72944,25.86647],[86.727,25.86753],[86.72321,25.86768],[86.71871,25.86627],[86.71316,25.86672],[86.71074,25.86986],[86.70475,25.88947],[86.70491,25.8954],[86.70247,25.90511],[86.68874,25.90169],[86.68794,25.90683],[86.68899,25.91625],[86.68594,25.91851],[86.68541,25.92464],[86.69244,25.93492],[86.6905,25.93669],[86.68188,25.93714],[86.67562,25.93587],[86.67377,25.93445],[86.67179,25.92956],[86.66474,25.93007],[86.65043,25.92265],[86.64834,25.92271],[86.64384,25.92578],[86.64235,25.92797],[86.63628,25.92775],[86.63497,25.92982],[86.63362,25.93634],[86.62962,25.94196],[86.62706,25.94372],[86.62439,25.94432],[86.62098,25.94316],[86.61845,25.94361],[86.61802,25.94683],[86.62116,25.95254],[86.62443,25.95592],[86.63193,25.96175],[86.63342,25.96598],[86.63137,25.96671],[86.62615,25.96641],[86.61873,25.96802],[86.61532,25.97029],[86.61117,25.97457],[86.61211,25.98188],[86.60886,25.98956],[86.6099,25.99188],[86.61102,25.99651],[86.6126,26.00749],[86.61589,26.01069],[86.61988,26.01223],[86.62674,26.01257],[86.63085,26.01658],[86.63248,26.01972],[86.63503,26.02847],[86.64205,26.02544],[86.64852,26.02532],[86.66023,26.02216],[86.66858,26.02255],[86.67235,26.02508],[86.6797,26.02588],[86.68022,26.03309],[86.68933,26.03526],[86.68791,26.04145],[86.68958,26.04488],[86.69265,26.04805],[86.69048,26.05274],[86.69306,26.06254],[86.69668,26.0679],[86.7055,26.07384],[86.71497,26.08993],[86.71847,26.09448],[86.72178,26.09656],[86.72538,26.10586],[86.73279,26.11918],[86.73964,26.11996],[86.74715,26.11353],[86.76158,26.1065],[86.76078,26.10208],[86.76934,26.09892],[86.77112,26.09383],[86.78251,26.09377],[86.79426,26.10321],[86.79915,26.10603],[86.80593,26.10646],[86.81106,26.10998],[86.8159,26.11178],[86.82734,26.1109],[86.83074,26.10896],[86.83325,26.10628],[86.83534,26.10222],[86.8385,26.0996],[86.85094,26.09735],[86.86225,26.09337],[86.87255,26.09293],[86.88492,26.09072],[86.91261,26.08779],[86.92366,26.0857],[86.93535,26.08682],[86.97741,26.07153],[86.9859,26.06832],[86.99722,26.06637],[87.00265,26.07028],[87.0083,26.07298],[87.01249,26.07701],[87.01512,26.07782],[87.01876,26.07763],[87.02447,26.07536],[87.03008,26.07148],[87.04013,26.06092],[87.04254,26.06131],[87.04644,26.06442],[87.04903,26.06542],[87.05263,26.06468],[87.05544,26.06315],[87.06136,26.05731],[87.06485,26.05645],[87.0695,26.05744],[87.07841,26.05746],[87.08992,26.05499],[87.0931,26.05516]]]}}]}