{"type":"FeatureCollection","features":[{"type":"Feature","properties":{"id":"madhubani","name":"Madhubani","stateId":"bihar","stateName":"Bihar","censuscode":207,"type":"district"},"geometry":{"type":"Polygon","coordinates":[[[86.72493,26.4312],[86.71168,26.4268],[86.7076,26.41183],[86.70334,26.40654],[86.70173,26.40229],[86.7019,26.39549],[86.69487,26.39155],[86.69377,26.3861],[86.69422,26.38434],[86.69796,26.38115],[86.69323,26.38049],[86.69217,26.37859],[86.69423,26.37265],[86.69183,26.37121],[86.68875,26.37251],[86.67645,26.37351],[86.67299,26.37165],[86.66888,26.3722],[86.66587,26.37036],[86.66571,26.3672],[86.65877,26.36733],[86.65157,26.37037],[86.64646,26.36936],[86.64542,26.36575],[86.63686,26.36352],[86.63022,26.35861],[86.62911,26.35357],[86.62542,26.34999],[86.62213,26.34241],[86.6219,26.338],[86.61783,26.33654],[86.60748,26.34068],[86.60601,26.34127],[86.60393,26.3412],[86.6012,26.34393],[86.59471,26.3448],[86.58878,26.34452],[86.58789,26.33736],[86.57938,26.33753],[86.57267,26.33439],[86.56944,26.3263],[86.55799,26.32415],[86.55265,26.31347],[86.54897,26.30978],[86.53448,26.30921],[86.52543,26.30658],[86.51969,26.29908],[86.51414,26.28359],[86.51169,26.28174],[86.50142,26.28165],[86.49777,26.27419],[86.49624,26.26868],[86.49643,26.26107],[86.51029,26.26072],[86.51118,26.25867],[86.50926,26.25385],[86.51171,26.24791],[86.51286,26.23745],[86.51072,26.22867],[86.50848,26.22533],[86.5049,26.2245],[86.49688,26.22719],[86.49311,26.22573],[86.49196,26.22188],[86.48548,26.22074],[86.47136,26.22206],[86.46868,26.21861],[86.46172,26.21678],[86.45497,26.21661],[86.44937,26.21725],[86.4452,26.21854],[86.44212,26.2263],[86.43763,26.22854],[86.43408,26.22354],[86.43162,26.21671],[86.43208,26.21357],[86.43394,26.2098],[86.42608,26.20133],[86.42258,26.19947],[86.40606,26.20213],[86.40328,26.20434],[86.40216,26.20977],[86.39864,26.20923],[86.39728,26.20526],[86.4039,26.19839],[86.40542,26.18976],[86.40091,26.18629],[86.39923,26.1841],[86.39899,26.17585],[86.40788,26.17461],[86.41355,26.17277],[86.41324,26.16561],[86.42434,26.16284],[86.42479,26.16355],[86.42533,26.1644],[86.42462,26.16714],[86.42523,26.16909],[86.42666,26.17036],[86.42918,26.17061],[86.43152,26.16925],[86.42954,26.16518],[86.42944,26.16271],[86.4329,26.16228],[86.44075,26.16355],[86.44517,26.16943],[86.44581,26.17498],[86.44807,26.1766],[86.45136,26.17509],[86.45439,26.16544],[86.45649,26.16196],[86.4632,26.15795],[86.46323,26.1552],[86.46815,26.15307],[86.47871,26.15464],[86.48377,26.1592],[86.49204,26.16201],[86.4984,26.16269],[86.50167,26.17033],[86.50425,26.17161],[86.50608,26.17065],[86.50731,26.16619],[86.51475,26.16425],[86.5246,26.16043],[86.52738,26.15759],[86.52861,26.15416],[86.52838,26.15044],[86.52439,26.146],[86.5218,26.13963],[86.51672,26.13627],[86.51475,26.13208],[86.50568,26.12508],[86.49251,26.12818],[86.48549,26.13111],[86.47256,26.12957],[86.46653,26.12815],[86.46139,26.1256],[86.45836,26.12024],[86.45751,26.11514],[86.45376,26.11282],[86.44955,26.11181],[86.44648,26.10384],[86.44089,26.10264],[86.43803,26.09816],[86.43738,26.0938],[86.43501,26.09086],[86.43486,26.08629],[86.43376,26.08289],[86.43215,26.08031],[86.42707,26.07717],[86.42887,26.07546],[86.42885,26.07543],[86.42407,26.06608],[86.42292,26.0616],[86.41992,26.05872],[86.41224,26.05923],[86.40813,26.05662],[86.40177,26.05028],[86.40124,26.04691],[86.39988,26.04473],[86.37744,26.04419],[86.36913,26.04922],[86.36985,26.05495],[86.36639,26.06426],[86.35075,26.08284],[86.3499,26.08661],[86.34312,26.0857],[86.33851,26.08795],[86.33672,26.09223],[86.33141,26.0946],[86.32575,26.09541],[86.32231,26.09824],[86.32301,26.10557],[86.31929,26.10577],[86.31874,26.11103],[86.32477,26.11148],[86.32,26.11809],[86.31613,26.1294],[86.31678,26.13913],[86.32179,26.14879],[86.32581,26.14957],[86.32666,26.15284],[86.32281,26.15402],[86.32227,26.15841],[86.31891,26.16073],[86.31761,26.16559],[86.28999,26.17095],[86.28724,26.17695],[86.28126,26.18244],[86.27212,26.1839],[86.26819,26.18164],[86.26119,26.18283],[86.2616,26.19251],[86.25672,26.19578],[86.24061,26.20114],[86.23894,26.20455],[86.23882,26.21073],[86.24344,26.22056],[86.2417,26.2253],[86.24131,26.23182],[86.21494,26.23066],[86.20453,26.22684],[86.19539,26.22813],[86.18023,26.22786],[86.17098,26.23066],[86.17224,26.22778],[86.16895,26.22757],[86.164,26.22844],[86.15916,26.23024],[86.15566,26.23245],[86.15002,26.23945],[86.1478,26.2376],[86.14398,26.23808],[86.14023,26.23408],[86.13545,26.23123],[86.133,26.22599],[86.12978,26.22402],[86.12306,26.2227],[86.12277,26.21639],[86.12092,26.21008],[86.11642,26.20455],[86.1115,26.20512],[86.11162,26.19928],[86.10981,26.19607],[86.10144,26.19972],[86.10114,26.20425],[86.09002,26.2064],[86.08423,26.2127],[86.08381,26.21593],[86.08001,26.21838],[86.07754,26.21694],[86.07218,26.21709],[86.0712,26.21188],[86.06992,26.21003],[86.05624,26.21316],[86.054,26.21031],[86.0549,26.20037],[86.04937,26.19527],[86.04698,26.19768],[86.04563,26.19532],[86.0421,26.19547],[86.033,26.19912],[86.02589,26.19915],[86.02286,26.20095],[86.02148,26.20572],[86.02851,26.21106],[86.02924,26.21736],[86.02755,26.22056],[86.03821,26.22875],[86.04242,26.23392],[86.04369,26.23923],[86.03442,26.24021],[86.032,26.24406],[86.03164,26.24959],[86.02726,26.25008],[86.02128,26.24935],[86.01547,26.25167],[86.01597,26.25566],[86.01273,26.25761],[86.01397,26.26076],[86.00291,26.2669],[86.00648,26.27127],[86.00438,26.27303],[86.00658,26.28096],[86.0042,26.28943],[86.01274,26.29666],[86.01858,26.29999],[86.01825,26.30167],[86.01135,26.30217],[85.99317,26.31588],[85.99058,26.32013],[85.99132,26.32246],[85.98833,26.32498],[85.97859,26.3254],[85.97639,26.32451],[85.97476,26.32225],[85.97062,26.31179],[85.96736,26.31066],[85.96253,26.30842],[85.95776,26.30833],[85.94489,26.30998],[85.94003,26.31149],[85.93215,26.31206],[85.92971,26.31097],[85.92782,26.30911],[85.92481,26.30807],[85.92248,26.30995],[85.91806,26.31113],[85.91814,26.30652],[85.91424,26.30721],[85.91708,26.2995],[85.91755,26.29287],[85.92032,26.29087],[85.91677,26.287],[85.90836,26.28858],[85.90552,26.2903],[85.89979,26.28802],[85.8953,26.28146],[85.88664,26.2797],[85.88341,26.28072],[85.8812,26.27909],[85.88077,26.27702],[85.87633,26.2783],[85.87302,26.28164],[85.86588,26.28232],[85.86382,26.28471],[85.86117,26.28313],[85.85687,26.28447],[85.85552,26.28156],[85.85365,26.28077],[85.84626,26.28464],[85.83574,26.28237],[85.82122,26.29273],[85.813,26.29671],[85.81846,26.30067],[85.81805,26.30529],[85.8127,26.30894],[85.81593,26.31022],[85.8168,26.31216],[85.81718,26.31486],[85.81524,26.31674],[85.81832,26.32551],[85.81814,26.32925],[85.82167,26.33242],[85.82635,26.33005],[85.8326,26.32724],[85.83345,26.33634],[85.83751,26.34359],[85.83982,26.34385],[85.83816,26.34663],[85.83655,26.34597],[85.83015,26.34566],[85.81887,26.34738],[85.81947,26.35406],[85.82117,26.35824],[85.82374,26.35884],[85.83006,26.35851],[85.83102,26.36132],[85.82841,26.36194],[85.82802,26.36401],[85.82608,26.36629],[85.82555,26.36814],[85.81709,26.3757],[85.81783,26.37718],[85.82088,26.37679],[85.82151,26.38146],[85.82261,26.38218],[85.82453,26.38215],[85.83079,26.37907],[85.83215,26.37974],[85.83263,26.38163],[85.83361,26.38213],[85.83716,26.38116],[85.83789,26.38207],[85.83427,26.38305],[85.83489,26.38534],[85.83406,26.39071],[85.83228,26.39131],[85.82848,26.38728],[85.82197,26.38789],[85.82125,26.38963],[85.81693,26.39424],[85.8151,26.39525],[85.81452,26.39762],[85.81532,26.39894],[85.81942,26.40199],[85.81739,26.40253],[85.81679,26.40433],[85.81727,26.40893],[85.81644,26.41136],[85.81258,26.41045],[85.80643,26.41307],[85.79863,26.41324],[85.794,26.41492],[85.79244,26.41108],[85.7903,26.40967],[85.78564,26.41014],[85.78588,26.40634],[85.78755,26.40395],[85.77971,26.40504],[85.77715,26.40473],[85.77464,26.40436],[85.77184,26.40193],[85.76309,26.40528],[85.75891,26.40384],[85.75804,26.40524],[85.75779,26.41129],[85.76386,26.42266],[85.76488,26.428],[85.76888,26.43558],[85.7696,26.43897],[85.76815,26.43996],[85.76836,26.44059],[85.77081,26.44125],[85.77421,26.44494],[85.77367,26.44633],[85.76983,26.44863],[85.7629,26.45051],[85.75659,26.45446],[85.75493,26.46346],[85.75281,26.46868],[85.75274,26.47091],[85.75471,26.47319],[85.75734,26.47362],[85.762,26.47309],[85.76625,26.47131],[85.77703,26.46194],[85.77867,26.46399],[85.79588,26.45604],[85.79722,26.45918],[85.80265,26.46147],[85.80553,26.4613],[85.80693,26.46923],[85.81457,26.47056],[85.814,26.4769],[85.81189,26.47658],[85.80885,26.47783],[85.80804,26.47893],[85.80904,26.48036],[85.805,26.48278],[85.80299,26.48207],[85.7965,26.48301],[85.79416,26.48449],[85.78937,26.4845],[85.79111,26.48223],[85.78963,26.47914],[85.7869,26.4801],[85.7843,26.47795],[85.77855,26.47844],[85.7766,26.47985],[85.77284,26.48048],[85.77221,26.48354],[85.77496,26.48361],[85.77532,26.48504],[85.77427,26.48713],[85.77158,26.48976],[85.76187,26.49042],[85.76063,26.4978],[85.76596,26.49877],[85.76955,26.5047],[85.77294,26.5077],[85.77285,26.50914],[85.77058,26.51039],[85.77056,26.51245],[85.77366,26.51396],[85.77998,26.51918],[85.78343,26.51895],[85.78608,26.51712],[85.79243,26.51813],[85.79248,26.50897],[85.79164,26.50576],[85.78927,26.50298],[85.78885,26.49821],[85.79664,26.49787],[85.79905,26.49956],[85.80011,26.5015],[85.80031,26.50432],[85.80245,26.50601],[85.80481,26.51133],[85.81134,26.51159],[85.81108,26.51383],[85.80792,26.51572],[85.81098,26.51827],[85.81243,26.52239],[85.81922,26.5258],[85.8201,26.5278],[85.82388,26.53132],[85.82754,26.53696],[85.82773,26.54243],[85.81947,26.55078],[85.81195,26.55198],[85.80814,26.55589],[85.81138,26.56338],[85.81246,26.56861],[85.81038,26.5699],[85.80977,26.57118],[85.81289,26.57332],[85.81541,26.57731],[85.8183,26.58579],[85.81452,26.59166],[85.82206,26.59616],[85.81894,26.603],[85.81973,26.60281],[85.82405,26.60246],[85.82716,26.60245],[85.83027,26.60255],[85.83027,26.60507],[85.83047,26.60815],[85.83017,26.61113],[85.83066,26.61302],[85.83308,26.61239],[85.83568,26.61185],[85.8382,26.61114],[85.84392,26.61086],[85.84462,26.61096],[85.84694,26.6106],[85.84924,26.60943],[85.85215,26.60835],[85.85385,26.60429],[85.85456,26.60167],[85.85526,26.59869],[85.85576,26.59715],[85.85617,26.594],[85.85698,26.59148],[85.85627,26.58885],[85.85366,26.58596],[85.85135,26.58271],[85.84905,26.57919],[85.84805,26.57558],[85.84754,26.57206],[85.84845,26.56989],[85.85076,26.56899],[85.85246,26.56837],[85.85537,26.56845],[85.85748,26.56918],[85.85828,26.56954],[85.8613,26.57153],[85.8639,26.57342],[85.86701,26.57523],[85.87183,26.57866],[85.87343,26.57984],[85.87594,26.58156],[85.87835,26.58508],[85.88146,26.58507],[85.88347,26.58264],[85.88608,26.58318],[85.88808,26.58571],[85.88929,26.58878],[85.88989,26.59167],[85.8925,26.59375],[85.89591,26.59474],[85.89862,26.59538],[85.90002,26.59673],[85.90053,26.60016],[85.90173,26.60215],[85.90494,26.60368],[85.90835,26.60504],[85.91047,26.60595],[85.91247,26.60874],[85.91488,26.60928],[85.91789,26.61037],[85.92141,26.61127],[85.92502,26.61208],[85.92623,26.61343],[85.92773,26.61534],[85.92874,26.61615],[85.93034,26.61434],[85.93225,26.61416],[85.93416,26.61678],[85.93666,26.61696],[85.93998,26.61452],[85.94258,26.61453],[85.94449,26.61561],[85.9456,26.61823],[85.9456,26.62102],[85.9457,26.62319],[85.94771,26.62454],[85.95063,26.62581],[85.95193,26.62734],[85.95213,26.63032],[85.95214,26.63357],[85.95274,26.63754],[85.95354,26.64124],[85.95455,26.64432],[85.95525,26.64657],[85.95675,26.64972],[85.96007,26.65189],[85.96449,26.65379],[85.96801,26.65533],[85.97192,26.65803],[85.97594,26.65947],[85.97996,26.65875],[85.98307,26.65695],[85.98658,26.65632],[85.9907,26.65586],[85.99572,26.6555],[86.00024,26.65659],[86.00165,26.65695],[86.00295,26.65684],[86.00727,26.65658],[86.01079,26.65604],[86.0147,26.65603],[86.01591,26.6572],[86.01702,26.66037],[86.02033,26.66181],[86.02615,26.6637],[86.03018,26.66641],[86.03379,26.66659],[86.03832,26.66613],[86.04273,26.66469],[86.04704,26.66342],[86.05287,26.66188],[86.05779,26.66043],[86.06331,26.65935],[86.06842,26.65907],[86.07184,26.65898],[86.07545,26.65411],[86.07675,26.65031],[86.07896,26.6495],[86.08408,26.6475],[86.08869,26.64417],[86.09391,26.6419],[86.09791,26.64042],[86.09832,26.64027],[86.10534,26.6372],[86.10765,26.63575],[86.11367,26.63322],[86.11939,26.63123],[86.1241,26.62969],[86.12701,26.62815],[86.13444,26.62796],[86.13936,26.62859],[86.14197,26.62696],[86.14265,26.62164],[86.14044,26.61613],[86.13942,26.60837],[86.14121,26.60449],[86.14222,26.6043],[86.14352,26.6043],[86.14674,26.60638],[86.15005,26.60853],[86.15478,26.60961],[86.1596,26.61186],[86.16232,26.61357],[86.16562,26.6142],[86.16894,26.61393],[86.17427,26.61654],[86.17638,26.6178],[86.17828,26.61391],[86.18208,26.61363],[86.1837,26.61435],[86.19012,26.61435],[86.19453,26.6146],[86.19694,26.61352],[86.19613,26.61099],[86.19843,26.60792],[86.19913,26.60575],[86.19962,26.60097],[86.19851,26.59691],[86.20111,26.59447],[86.20623,26.59573],[86.20794,26.59536],[86.21175,26.59373],[86.21586,26.59237],[86.21786,26.59083],[86.22167,26.58983],[86.22689,26.59009],[86.2308,26.58991],[86.23381,26.59026],[86.23652,26.59052],[86.23753,26.59133],[86.23704,26.59467],[86.23705,26.59747],[86.23947,26.59928],[86.24408,26.60242],[86.2454,26.60414],[86.24731,26.60711],[86.25004,26.6099],[86.25646,26.61332],[86.26089,26.61421],[86.26601,26.61537],[86.27314,26.61644],[86.27896,26.61625],[86.28327,26.61516],[86.2902,26.61352],[86.29651,26.61296],[86.30124,26.61538],[86.30697,26.61853],[86.31089,26.61978],[86.31671,26.61932],[86.32203,26.61922],[86.32946,26.61875],[86.33659,26.61792],[86.34562,26.61653],[86.3452,26.61374],[86.34388,26.61004],[86.34316,26.60589],[86.34517,26.60552],[86.353,26.60542],[86.35891,26.60441],[86.36704,26.60221],[86.37546,26.59967],[86.38027,26.59793],[86.38638,26.59666],[86.39641,26.59463],[86.3981,26.59224],[86.39871,26.59138],[86.39828,26.58551],[86.40219,26.58397],[86.40739,26.58214],[86.41381,26.58023],[86.42052,26.57796],[86.42773,26.57523],[86.43575,26.57312],[86.44357,26.57174],[86.44828,26.57037],[86.45501,26.56918],[86.46031,26.567],[86.46661,26.56282],[86.4715,26.55946],[86.47731,26.5561],[86.48231,26.55338],[86.48841,26.54983],[86.49582,26.54547],[86.50101,26.5422],[86.50702,26.54037],[86.51525,26.54035],[86.52168,26.54285],[86.5263,26.54355],[86.53362,26.54253],[86.53833,26.54133],[86.54531,26.53572],[86.55091,26.53055],[86.55289,26.52738],[86.55386,26.52169],[86.55593,26.51545],[86.55893,26.51201],[86.5648,26.50576],[86.56948,26.50014],[86.57298,26.49787],[86.57869,26.49658],[86.5888,26.49428],[86.59531,26.49209],[86.60351,26.48917],[86.61103,26.4875],[86.61413,26.48794],[86.61803,26.48602],[86.62121,26.48231],[86.62482,26.48013],[86.62811,26.47812],[86.62898,26.47379],[86.62948,26.47127],[86.63186,26.46855],[86.63546,26.46681],[86.64186,26.46471],[86.64767,26.46296],[86.65376,26.4614],[86.65997,26.45966],[86.66497,26.45846],[86.68249,26.45368],[86.68999,26.45183],[86.69289,26.45101],[86.69729,26.44927],[86.69716,26.44548],[86.69894,26.44195],[86.70283,26.43869],[86.70813,26.43676],[86.71374,26.4361],[86.72014,26.43507],[86.72353,26.4328],[86.72493,26.4312]]]}}]}