{"type":"FeatureCollection","features":[{"type":"Feature","properties":{"id":"munger","name":"Munger","stateId":"bihar","stateName":"Bihar","censuscode":226,"type":"district"},"geometry":{"type":"Polygon","coordinates":[[[86.7313,25.25399],[86.72694,25.2492],[86.7222,25.24498],[86.69271,25.24295],[86.68567,25.24086],[86.67802,25.23988],[86.64951,25.24392],[86.64374,25.24235],[86.64074,25.24063],[86.63925,25.23806],[86.6403,25.226],[86.64662,25.22563],[86.65145,25.22331],[86.65193,25.22107],[86.64954,25.21821],[86.65711,25.21622],[86.6677,25.21468],[86.66952,25.21346],[86.67249,25.20868],[86.67639,25.20672],[86.67748,25.1965],[86.67946,25.19224],[86.68505,25.18911],[86.69036,25.18897],[86.6936,25.18998],[86.69565,25.19318],[86.69335,25.19721],[86.69311,25.19962],[86.69498,25.20214],[86.69681,25.20282],[86.6971,25.19932],[86.70401,25.19595],[86.70238,25.19102],[86.70262,25.18798],[86.70438,25.18843],[86.70709,25.18738],[86.71063,25.18799],[86.70853,25.19329],[86.71218,25.19178],[86.71416,25.18815],[86.71574,25.18756],[86.71757,25.18801],[86.72457,25.18683],[86.72663,25.18509],[86.73558,25.18424],[86.73309,25.18099],[86.72415,25.17243],[86.72144,25.171],[86.71936,25.17067],[86.70897,25.17233],[86.7076,25.17085],[86.70532,25.17023],[86.70175,25.16732],[86.70603,25.16178],[86.70078,25.15647],[86.69793,25.15079],[86.6991,25.1478],[86.69691,25.14327],[86.69136,25.14456],[86.68915,25.14297],[86.68576,25.13982],[86.68,25.13015],[86.68128,25.12204],[86.68465,25.11984],[86.68466,25.1234],[86.68833,25.12114],[86.68914,25.11843],[86.69402,25.11835],[86.69286,25.11256],[86.69228,25.10967],[86.69644,25.10787],[86.69249,25.1001],[86.6848,25.09085],[86.67651,25.09319],[86.67133,25.08663],[86.66776,25.07908],[86.66665,25.0737],[86.66466,25.07038],[86.66298,25.06844],[86.6596,25.06817],[86.65731,25.06714],[86.65936,25.06346],[86.6559,25.05762],[86.65559,25.05579],[86.65827,25.05095],[86.65483,25.04786],[86.65306,25.04414],[86.65282,25.03863],[86.65921,25.02379],[86.66828,25.01183],[86.66755,25.0103],[86.6612,25.01628],[86.65858,25.0159],[86.65526,25.01303],[86.65087,25.01079],[86.65502,25.00226],[86.65022,24.99635],[86.64585,24.99044],[86.64392,24.98599],[86.64337,24.98201],[86.64448,24.97771],[86.64346,24.97491],[86.64024,24.9738],[86.63472,24.97311],[86.62559,24.96232],[86.62043,24.96664],[86.61951,24.9723],[86.61725,24.97353],[86.61438,24.97183],[86.61016,24.97183],[86.60566,24.9726],[86.60185,24.96518],[86.59928,24.95896],[86.60147,24.94884],[86.59196,24.94763],[86.58618,24.94576],[86.57944,24.94679],[86.57682,24.95293],[86.57278,24.9578],[86.5674,24.95905],[86.56168,24.95751],[86.55461,24.95605],[86.5498,24.95318],[86.54579,24.95081],[86.54281,24.95341],[86.54616,24.95844],[86.54844,24.96136],[86.54746,24.96508],[86.54403,24.96776],[86.53887,24.9705],[86.5353,24.97814],[86.53115,24.98396],[86.521,24.98542],[86.50586,24.98515],[86.50397,24.98008],[86.5033,24.97946],[86.50119,24.98047],[86.4857,24.98416],[86.45242,24.99403],[86.44577,24.99846],[86.44393,25.00204],[86.44219,25.00976],[86.44209,25.01264],[86.44181,25.02028],[86.44062,25.02475],[86.43566,25.02883],[86.43107,25.03107],[86.42554,25.03442],[86.41792,25.03814],[86.40949,25.03941],[86.40061,25.0419],[86.39225,25.04667],[86.3895,25.05037],[86.39007,25.05772],[86.39447,25.06897],[86.39947,25.07586],[86.40647,25.08229],[86.41546,25.088],[86.41962,25.09687],[86.42125,25.10251],[86.4222,25.11546],[86.42046,25.12318],[86.41471,25.12969],[86.40228,25.1361],[86.38979,25.13938],[86.38272,25.13783],[86.37959,25.13584],[86.37517,25.13667],[86.37244,25.13862],[86.36924,25.14354],[86.36925,25.15933],[86.36879,25.16909],[86.37307,25.18218],[86.38073,25.2048],[86.38505,25.2191],[86.38015,25.23653],[86.36584,25.2667],[86.36283,25.27548],[86.35945,25.28078],[86.35401,25.28359],[86.34381,25.28437],[86.33817,25.28247],[86.33401,25.28073],[86.32589,25.27645],[86.32104,25.27683],[86.31255,25.28141],[86.3062,25.28609],[86.29874,25.29727],[86.29872,25.29728],[86.29879,25.2973],[86.31417,25.31684],[86.3162,25.31838],[86.32221,25.32294],[86.31503,25.33455],[86.32223,25.33924],[86.32524,25.33733],[86.3328,25.34082],[86.33679,25.34189],[86.33988,25.34148],[86.33896,25.34441],[86.35602,25.35055],[86.36657,25.35603],[86.37038,25.35682],[86.36534,25.36016],[86.3895,25.38068],[86.39018,25.37942],[86.38863,25.37575],[86.38923,25.37236],[86.38882,25.368],[86.39111,25.36363],[86.40429,25.37299],[86.40324,25.37627],[86.40434,25.37914],[86.40314,25.38539],[86.40367,25.38803],[86.40563,25.3878],[86.40701,25.38636],[86.41649,25.39257],[86.41657,25.39476],[86.43215,25.39567],[86.43833,25.40162],[86.45412,25.39806],[86.45768,25.39897],[86.46119,25.39614],[86.45781,25.39282],[86.46322,25.39039],[86.47716,25.399],[86.48211,25.41356],[86.50533,25.41289],[86.51168,25.40947],[86.51573,25.41456],[86.51023,25.41528],[86.51069,25.42376],[86.50947,25.42847],[86.50715,25.44318],[86.50997,25.44707],[86.51103,25.45171],[86.51623,25.45266],[86.52069,25.45512],[86.52335,25.46171],[86.52779,25.46754],[86.53443,25.47291],[86.5356,25.47623],[86.53424,25.48014],[86.53962,25.48591],[86.54312,25.49319],[86.5531,25.49039],[86.55398,25.48953],[86.55518,25.49618],[86.55452,25.49962],[86.56229,25.49683],[86.56918,25.4956],[86.57334,25.4938],[86.58105,25.48551],[86.58322,25.48101],[86.58545,25.47039],[86.59125,25.4613],[86.59334,25.45624],[86.59315,25.44355],[86.597,25.43177],[86.60088,25.42567],[86.61967,25.41353],[86.62906,25.40964],[86.63604,25.40541],[86.6426,25.39769],[86.64318,25.39201],[86.64099,25.37813],[86.63971,25.37664],[86.63883,25.37115],[86.63606,25.36719],[86.62937,25.3627],[86.62719,25.36012],[86.6291,25.35609],[86.63501,25.35716],[86.63513,25.35188],[86.63956,25.34566],[86.64475,25.33984],[86.64945,25.33631],[86.65195,25.33291],[86.65249,25.33044],[86.64728,25.32284],[86.63896,25.31392],[86.63489,25.30648],[86.6372,25.29798],[86.64191,25.28946],[86.65056,25.2768],[86.65216,25.27249],[86.65866,25.27119],[86.66923,25.27153],[86.67208,25.27261],[86.68789,25.27293],[86.70747,25.27094],[86.71701,25.26446],[86.72546,25.25706],[86.7313,25.25399]]]}}]}