{"type":"FeatureCollection","features":[{"type":"Feature","properties":{"id":"muzaffarpur","name":"Muzaffarpur","stateId":"bihar","stateName":"Bihar","censuscode":216,"type":"district"},"geometry":{"type":"Polygon","coordinates":[[[85.7047,26.30662],[85.70509,26.2961],[85.71365,26.29304],[85.7166,26.29099],[85.71663,26.28368],[85.71546,26.27673],[85.71858,26.27622],[85.71813,26.2729],[85.70983,26.27036],[85.7047,26.26605],[85.7018,26.26523],[85.69974,26.26187],[85.70017,26.26065],[85.69733,26.25913],[85.69608,26.2576],[85.70478,26.24959],[85.71011,26.2513],[85.7189,26.25009],[85.71726,26.24557],[85.71693,26.24177],[85.71518,26.24058],[85.70921,26.24199],[85.70262,26.24122],[85.70119,26.23991],[85.6993,26.22958],[85.70018,26.22606],[85.70647,26.22458],[85.70757,26.22573],[85.70749,26.22193],[85.70989,26.22045],[85.70881,26.21782],[85.71019,26.21682],[85.71156,26.21254],[85.71975,26.21053],[85.7206,26.20275],[85.7248,26.20247],[85.72713,26.20099],[85.726,26.19606],[85.72522,26.17846],[85.72374,26.17767],[85.72248,26.16934],[85.72359,26.16495],[85.74125,26.16206],[85.74586,26.15399],[85.74925,26.15177],[85.74997,26.14934],[85.75438,26.14421],[85.75142,26.14298],[85.75143,26.1405],[85.74924,26.13697],[85.74467,26.13197],[85.73578,26.12807],[85.7286,26.12615],[85.72926,26.12142],[85.72868,26.11528],[85.73,26.11175],[85.73315,26.11239],[85.73419,26.11082],[85.73389,26.10887],[85.7303,26.10778],[85.72257,26.10967],[85.71912,26.10983],[85.71538,26.10487],[85.71384,26.0984],[85.71513,26.09027],[85.70751,26.08582],[85.70473,26.087],[85.706,26.08365],[85.70985,26.07876],[85.71016,26.07467],[85.70812,26.06829],[85.70819,26.0653],[85.71149,26.06422],[85.71139,26.06272],[85.70871,26.06264],[85.70379,26.05878],[85.70236,26.05666],[85.69811,26.04426],[85.69059,26.04699],[85.68704,26.04086],[85.68495,26.0342],[85.68131,26.02686],[85.67754,26.02621],[85.67612,26.02801],[85.67451,26.02711],[85.66617,26.02657],[85.6647,26.02335],[85.65995,26.01888],[85.65535,26.01694],[85.65145,26.00829],[85.64758,26.00654],[85.64705,26.00406],[85.6419,26.00319],[85.62732,26.00503],[85.62491,26.00173],[85.62434,25.9982],[85.6223,25.98806],[85.62574,25.98373],[85.62657,25.97951],[85.63212,25.97738],[85.63228,25.97416],[85.634,25.97035],[85.62826,25.9659],[85.62555,25.95448],[85.62681,25.94736],[85.63044,25.94216],[85.63747,25.93799],[85.63435,25.93219],[85.63349,25.92261],[85.62106,25.91917],[85.61903,25.92157],[85.60894,25.9249],[85.60598,25.92381],[85.59917,25.92369],[85.59525,25.92235],[85.59233,25.918],[85.58802,25.91805],[85.58564,25.91683],[85.57864,25.91731],[85.57707,25.92109],[85.57421,25.9202],[85.57347,25.91893],[85.57198,25.91887],[85.56739,25.92082],[85.56284,25.92095],[85.5612,25.91768],[85.55817,25.90578],[85.55422,25.9046],[85.53989,25.90813],[85.53559,25.91896],[85.52544,25.91579],[85.51406,25.905],[85.51108,25.90115],[85.5066,25.90188],[85.50151,25.90482],[85.49374,25.90548],[85.4905,25.91703],[85.48479,25.9214],[85.47159,25.92809],[85.464,25.93145],[85.46532,25.92536],[85.46229,25.92208],[85.45629,25.92274],[85.45201,25.9211],[85.4461,25.92276],[85.44129,25.92243],[85.43524,25.92692],[85.4355,25.92924],[85.43136,25.93008],[85.43013,25.9342],[85.42475,25.93917],[85.41196,25.94082],[85.4102,25.94353],[85.40686,25.9418],[85.40623,25.93823],[85.40007,25.93299],[85.39205,25.93314],[85.38658,25.92728],[85.3699,25.92921],[85.3688,25.93156],[85.36425,25.93228],[85.36428,25.93798],[85.3541,25.93762],[85.33912,25.94695],[85.33371,25.94841],[85.32106,25.94542],[85.31593,25.9412],[85.31093,25.9409],[85.30101,25.94372],[85.29339,25.94169],[85.28591,25.94706],[85.2852,25.95031],[85.28784,25.95173],[85.29058,25.95727],[85.28903,25.96332],[85.29272,25.96916],[85.29329,25.9778],[85.2991,25.98853],[85.29159,25.99357],[85.28398,26.00054],[85.27822,26.00772],[85.27789,26.00932],[85.27481,26.00892],[85.27026,26.01321],[85.25495,26.01254],[85.24902,26.01153],[85.24459,26.01352],[85.23697,26.01514],[85.23524,26.01424],[85.23513,26.01251],[85.23573,26.00612],[85.23366,26.00227],[85.22836,26.00434],[85.22623,26.00257],[85.21593,26.00176],[85.21454,26.00229],[85.21077,26.00187],[85.20858,26.00465],[85.20604,26.00548],[85.19952,26.00533],[85.19294,26.00179],[85.18816,26.00277],[85.18284,26.00942],[85.17045,26.0105],[85.16501,26.00887],[85.15956,26.00901],[85.15962,26.00726],[85.1573,26.00839],[85.15733,26.00639],[85.1487,26.00599],[85.14933,25.99984],[85.1504,25.99163],[85.1491,25.9856],[85.14268,25.98814],[85.13445,25.9886],[85.12855,25.98744],[85.11477,25.99257],[85.10788,25.99147],[85.10736,25.98623],[85.11047,25.98097],[85.10846,25.97705],[85.10316,25.97659],[85.09804,25.97749],[85.09896,25.97347],[85.09825,25.97222],[85.0959,25.9727],[85.09241,25.97531],[85.08706,25.97631],[85.08368,25.97173],[85.07959,25.96853],[85.07496,25.97414],[85.0696,25.97146],[85.06316,25.97781],[85.06038,25.98161],[85.05982,25.98736],[85.05449,25.98917],[85.04479,25.98953],[85.03686,25.9886],[85.02904,25.985],[85.02272,25.98606],[85.01177,25.999],[85.00416,26.00729],[84.99998,26.01288],[84.99407,26.01242],[84.98835,26.00449],[84.98399,26.00225],[84.98081,26.00002],[84.98059,25.99911],[84.98038,25.99846],[84.98013,25.99785],[84.97983,25.99724],[84.97949,25.99668],[84.97912,25.99614],[84.97869,25.99564],[84.97825,25.99518],[84.97776,25.99476],[84.97723,25.99438],[84.97667,25.99406],[84.97608,25.99377],[84.97547,25.99353],[84.97481,25.99336],[84.97413,25.99323],[84.97342,25.99315],[84.97269,25.99313],[84.97194,25.99316],[84.97117,25.99324],[84.97039,25.99338],[84.96962,25.99356],[84.96885,25.99381],[84.96809,25.99409],[84.96686,25.99467],[84.96618,25.99508],[84.96553,25.99554],[84.96495,25.99604],[84.9641,25.99694],[84.96369,25.99751],[84.96333,25.99812],[84.96304,25.99875],[84.96268,26.00001],[84.96011,26.00807],[84.95447,26.00955],[84.9402,26.01673],[84.94116,26.02052],[84.93837,26.02464],[84.93936,26.02744],[84.93689,26.02926],[84.94,26.0387],[84.93515,26.04151],[84.94266,26.0514],[84.94836,26.05306],[84.94941,26.05705],[84.95282,26.06343],[84.95048,26.07244],[84.95058,26.09159],[84.94702,26.09233],[84.94141,26.09539],[84.94245,26.09687],[84.94959,26.1009],[84.95188,26.10454],[84.94928,26.10515],[84.9462,26.10801],[84.94507,26.11744],[84.92893,26.13193],[84.92193,26.13657],[84.91794,26.14248],[84.91737,26.14696],[84.91505,26.15314],[84.91491,26.15981],[84.91963,26.1645],[84.92354,26.17753],[84.91828,26.17978],[84.91504,26.1839],[84.9122,26.1935],[84.90729,26.19706],[84.90585,26.20315],[84.89869,26.21478],[84.90246,26.21588],[84.90309,26.21919],[84.9063,26.22059],[84.91044,26.22393],[84.90934,26.23475],[84.88554,26.23348],[84.8817,26.2364],[84.8835,26.24113],[84.87679,26.25522],[84.88223,26.26008],[84.88462,26.27392],[84.89353,26.29247],[84.8985,26.30749],[84.90403,26.31735],[84.90518,26.32136],[84.91042,26.31887],[84.92282,26.32444],[84.95777,26.32476],[84.97624,26.32262],[84.98313,26.32294],[84.99371,26.33147],[85.00104,26.33176],[85.01052,26.32987],[85.01572,26.32632],[85.01739,26.3225],[85.0216,26.31749],[85.0244,26.31723],[85.02718,26.31876],[85.03459,26.32793],[85.03444,26.32995],[85.0365,26.33145],[85.04544,26.33493],[85.04681,26.3401],[85.06121,26.34222],[85.06415,26.34172],[85.07112,26.33403],[85.07417,26.32885],[85.07899,26.33069],[85.08334,26.32251],[85.08828,26.32407],[85.09007,26.3234],[85.09397,26.32348],[85.09826,26.32049],[85.10451,26.32366],[85.10648,26.32254],[85.11135,26.31655],[85.11526,26.31341],[85.12251,26.31523],[85.12702,26.3141],[85.12843,26.3146],[85.12783,26.31605],[85.13051,26.31596],[85.13266,26.31519],[85.13509,26.31125],[85.13836,26.31232],[85.13979,26.31708],[85.14353,26.3194],[85.14452,26.32141],[85.14777,26.32103],[85.15088,26.31605],[85.15234,26.31534],[85.15868,26.31707],[85.16115,26.31894],[85.16398,26.32766],[85.16541,26.32903],[85.16716,26.33],[85.17117,26.32926],[85.17566,26.33065],[85.17263,26.33299],[85.17575,26.33964],[85.17835,26.33892],[85.18024,26.34063],[85.18438,26.34007],[85.18726,26.33704],[85.18872,26.33289],[85.19188,26.33112],[85.19178,26.32116],[85.19289,26.31879],[85.19296,26.31239],[85.19444,26.31302],[85.19532,26.31531],[85.19407,26.32419],[85.19502,26.32753],[85.19716,26.32635],[85.19809,26.32473],[85.19911,26.32046],[85.19969,26.31037],[85.20172,26.30902],[85.20239,26.31063],[85.20281,26.32082],[85.20495,26.31878],[85.20636,26.31519],[85.20593,26.3053],[85.20418,26.30399],[85.19643,26.30252],[85.19242,26.30331],[85.19276,26.30042],[85.19707,26.29566],[85.20056,26.29412],[85.20229,26.2944],[85.20905,26.30129],[85.21012,26.30042],[85.20918,26.29743],[85.20248,26.28726],[85.20276,26.28524],[85.20454,26.28493],[85.2108,26.29552],[85.21337,26.29653],[85.22309,26.29396],[85.22471,26.30229],[85.22701,26.30232],[85.23431,26.30034],[85.23548,26.30079],[85.23576,26.3024],[85.23229,26.30531],[85.23201,26.3071],[85.2349,26.30765],[85.2382,26.30669],[85.24008,26.305],[85.24025,26.30021],[85.25068,26.30177],[85.25255,26.29886],[85.2554,26.29786],[85.25942,26.29765],[85.26027,26.29884],[85.26262,26.29783],[85.26335,26.30336],[85.26003,26.30334],[85.25857,26.30427],[85.2572,26.30871],[85.25874,26.33098],[85.26413,26.33189],[85.2674,26.32916],[85.27326,26.32811],[85.27561,26.33488],[85.27394,26.33433],[85.27205,26.33544],[85.26736,26.3409],[85.2647,26.34243],[85.26018,26.34345],[85.25548,26.34126],[85.25078,26.34251],[85.24997,26.3397],[85.2473,26.34076],[85.2426,26.34594],[85.24202,26.34877],[85.24065,26.35073],[85.23412,26.35385],[85.23061,26.35337],[85.22799,26.35052],[85.22341,26.35149],[85.22231,26.35403],[85.22244,26.36469],[85.22428,26.36783],[85.22662,26.36999],[85.23758,26.36833],[85.24431,26.36993],[85.24516,26.36738],[85.25001,26.35997],[85.2499,26.35744],[85.25506,26.35334],[85.25704,26.34953],[85.26323,26.3494],[85.26628,26.35225],[85.27189,26.35104],[85.27689,26.34863],[85.2831,26.34926],[85.28266,26.34598],[85.28451,26.34619],[85.28808,26.34908],[85.28955,26.35338],[85.29161,26.35382],[85.29992,26.34394],[85.30587,26.34814],[85.31011,26.3493],[85.31836,26.34662],[85.3289,26.34979],[85.33009,26.34523],[85.3285,26.33868],[85.32918,26.33447],[85.33193,26.33099],[85.33634,26.32743],[85.33867,26.32919],[85.33695,26.33278],[85.33651,26.34003],[85.33786,26.34393],[85.3423,26.34181],[85.34241,26.34457],[85.34675,26.34429],[85.35092,26.33877],[85.35473,26.3377],[85.35262,26.34446],[85.35698,26.34475],[85.36238,26.34699],[85.37237,26.34199],[85.37725,26.3295],[85.37774,26.32523],[85.37663,26.3207],[85.37731,26.31591],[85.38036,26.31213],[85.38376,26.3098],[85.38948,26.30817],[85.39318,26.3079],[85.39531,26.30851],[85.39247,26.31384],[85.39118,26.32036],[85.38402,26.32297],[85.38776,26.325],[85.39295,26.32223],[85.39943,26.31088],[85.40284,26.31844],[85.40999,26.31869],[85.41726,26.30491],[85.41567,26.30206],[85.40917,26.30254],[85.40354,26.30525],[85.40167,26.30447],[85.40091,26.30177],[85.40202,26.29951],[85.40509,26.29648],[85.39726,26.29409],[85.39432,26.29102],[85.39311,26.28736],[85.39359,26.28234],[85.39594,26.27944],[85.39815,26.28039],[85.40263,26.29116],[85.40636,26.29284],[85.41012,26.29222],[85.4132,26.28994],[85.41094,26.2891],[85.4079,26.28989],[85.40546,26.2894],[85.40755,26.28529],[85.40775,26.28211],[85.41,26.27962],[85.41032,26.27598],[85.41226,26.27073],[85.42241,26.28408],[85.42369,26.2874],[85.42946,26.29199],[85.42746,26.28137],[85.42779,26.27872],[85.42302,26.27324],[85.42346,26.2725],[85.43292,26.27636],[85.43994,26.28277],[85.44249,26.28286],[85.43827,26.27301],[85.44033,26.27051],[85.44999,26.29071],[85.45369,26.29084],[85.45628,26.29265],[85.4588,26.30023],[85.46265,26.30138],[85.46565,26.31124],[85.46516,26.31523],[85.46331,26.31875],[85.46707,26.32113],[85.46902,26.32669],[85.47276,26.32803],[85.46915,26.33279],[85.47078,26.33421],[85.4762,26.33421],[85.47765,26.33632],[85.48091,26.33639],[85.48211,26.34857],[85.48403,26.34872],[85.48521,26.35033],[85.48645,26.35468],[85.49037,26.35303],[85.49289,26.35374],[85.49504,26.35601],[85.4976,26.36295],[85.49911,26.36184],[85.50222,26.36353],[85.50307,26.37117],[85.50279,26.37613],[85.50525,26.37753],[85.50704,26.38097],[85.5098,26.38151],[85.52227,26.37571],[85.52585,26.37595],[85.53268,26.37875],[85.53221,26.37449],[85.5352,26.37118],[85.53868,26.37229],[85.5484,26.36963],[85.55255,26.37262],[85.55578,26.38024],[85.55971,26.3856],[85.56239,26.3851],[85.56662,26.3858],[85.57078,26.38926],[85.58046,26.39357],[85.58493,26.38401],[85.57958,26.37251],[85.57515,26.36606],[85.57513,26.36428],[85.58176,26.36413],[85.58838,26.36008],[85.59256,26.3553],[85.59837,26.35488],[85.60231,26.35133],[85.60547,26.35226],[85.61392,26.34991],[85.61709,26.34618],[85.617,26.34187],[85.61599,26.33923],[85.61316,26.34163],[85.61216,26.3364],[85.61276,26.33472],[85.61529,26.33377],[85.61659,26.33485],[85.61978,26.33441],[85.62737,26.33655],[85.63463,26.33265],[85.63561,26.33103],[85.63508,26.32712],[85.62988,26.31982],[85.63227,26.31761],[85.64066,26.31956],[85.64237,26.31862],[85.64961,26.3225],[85.65368,26.31934],[85.65806,26.32049],[85.66125,26.3175],[85.6644,26.31833],[85.67237,26.31494],[85.67857,26.32096],[85.6833,26.32113],[85.69186,26.31848],[85.69693,26.31081],[85.69805,26.30664],[85.70243,26.30826],[85.7047,26.30662]]]}}]}