{"type":"FeatureCollection","features":[{"type":"Feature","properties":{"id":"nalanda","name":"Nalanda","stateId":"bihar","stateName":"Bihar","censuscode":229,"type":"district"},"geometry":{"type":"Polygon","coordinates":[[[85.90553,25.29362],[85.90431,25.28961],[85.90617,25.28116],[85.9034,25.27685],[85.90422,25.26894],[85.90179,25.26503],[85.90275,25.26115],[85.91326,25.25402],[85.92116,25.25013],[85.92368,25.24746],[85.92557,25.24391],[85.91874,25.23947],[85.91025,25.23396],[85.90646,25.23181],[85.89258,25.22892],[85.88505,25.22943],[85.87555,25.23249],[85.87411,25.23861],[85.87003,25.23954],[85.86672,25.2424],[85.86045,25.24172],[85.85426,25.24201],[85.84232,25.23912],[85.83921,25.23243],[85.83552,25.23029],[85.83406,25.2224],[85.82922,25.21798],[85.82399,25.21755],[85.81979,25.21946],[85.81762,25.22559],[85.81289,25.22578],[85.80398,25.22916],[85.80025,25.22949],[85.79657,25.22353],[85.79627,25.21985],[85.79389,25.21847],[85.78735,25.2176],[85.78672,25.22629],[85.78727,25.23448],[85.79285,25.24806],[85.79196,25.25103],[85.78156,25.24497],[85.7772,25.24439],[85.771,25.24467],[85.77162,25.26336],[85.76204,25.26517],[85.75943,25.26144],[85.74584,25.26202],[85.73705,25.26393],[85.73682,25.27334],[85.73451,25.2764],[85.72918,25.27746],[85.72444,25.27614],[85.71669,25.27237],[85.70206,25.26969],[85.70015,25.2661],[85.7011,25.255],[85.69975,25.24385],[85.70021,25.23265],[85.72037,25.2237],[85.72473,25.21897],[85.7247,25.20963],[85.72868,25.20571],[85.72967,25.20078],[85.7285,25.19748],[85.72361,25.19876],[85.72101,25.19497],[85.72054,25.18898],[85.71664,25.18984],[85.70533,25.19009],[85.70194,25.19139],[85.69667,25.19188],[85.69566,25.17934],[85.69628,25.17085],[85.70206,25.17133],[85.70387,25.16731],[85.70148,25.16518],[85.69661,25.16445],[85.69274,25.15938],[85.68957,25.14855],[85.68765,25.13558],[85.66909,25.12573],[85.6633,25.12428],[85.65554,25.12415],[85.63236,25.13212],[85.62426,25.13222],[85.60663,25.12904],[85.60413,25.11267],[85.60441,25.10815],[85.60642,25.10637],[85.60904,25.1086],[85.61198,25.11399],[85.61584,25.11608],[85.62142,25.11591],[85.64095,25.09908],[85.65061,25.08495],[85.66129,25.06631],[85.65766,25.06257],[85.65394,25.06238],[85.65116,25.06299],[85.64869,25.06453],[85.64463,25.06908],[85.64234,25.06991],[85.63949,25.06689],[85.63878,25.06153],[85.63703,25.05869],[85.63307,25.05642],[85.6258,25.0506],[85.61988,25.04428],[85.6129,25.04147],[85.60888,25.03726],[85.6079,25.03312],[85.60025,25.03012],[85.59445,25.03359],[85.59045,25.03308],[85.58541,25.03079],[85.57105,25.02969],[85.5691,25.03132],[85.56634,25.03627],[85.56363,25.03442],[85.55935,25.03366],[85.55823,25.02937],[85.55571,25.02522],[85.55403,25.02008],[85.55527,25.01505],[85.562,25.00767],[85.56707,25.00439],[85.57178,25.00408],[85.57186,25.00247],[85.57061,24.99441],[85.56628,24.99356],[85.56672,24.98779],[85.56618,24.98672],[85.56372,24.98726],[85.562,24.98946],[85.55519,24.98975],[85.55518,24.99532],[85.55408,24.99623],[85.54264,24.99454],[85.54159,24.99795],[85.54034,24.99892],[85.54077,25.00242],[85.53919,25.01364],[85.53704,25.01339],[85.53386,25.0079],[85.52845,25.00645],[85.49961,25.00604],[85.49335,25.00429],[85.48967,25.00198],[85.46234,24.98751],[85.43166,24.97656],[85.42179,24.97506],[85.41022,24.97492],[85.40747,24.97356],[85.40257,24.96934],[85.39652,24.96605],[85.38569,24.9772],[85.38153,24.9758],[85.3818,24.97788],[85.38392,24.98168],[85.39012,24.99085],[85.38951,24.9918],[85.3747,24.98968],[85.36889,24.98928],[85.36545,24.98991],[85.36364,25.00139],[85.36264,25.00278],[85.36195,25.00622],[85.36571,25.01238],[85.36555,25.01663],[85.36318,25.01879],[85.35987,25.01979],[85.3565,25.01972],[85.352,25.01853],[85.35109,25.01761],[85.35007,25.01219],[85.34264,25.01046],[85.34186,25.00688],[85.33513,25.0089],[85.33194,25.00866],[85.32929,25.01038],[85.3303,25.015],[85.32988,25.01759],[85.32641,25.02441],[85.32401,25.02538],[85.30937,25.02797],[85.30386,25.02682],[85.28718,25.03006],[85.28294,25.03059],[85.28002,25.02612],[85.27637,25.02684],[85.27242,25.0254],[85.27139,25.03124],[85.26974,25.03392],[85.26698,25.03452],[85.26337,25.03276],[85.26386,25.02304],[85.26313,25.01488],[85.26208,25.01166],[85.26011,25.00997],[85.25575,25.00846],[85.25098,25.00868],[85.24984,25.0125],[85.24497,25.01601],[85.24242,25.01995],[85.24474,25.02448],[85.24523,25.03087],[85.24037,25.04569],[85.23558,25.05497],[85.22936,25.05663],[85.22318,25.05487],[85.22332,25.04621],[85.22173,25.04344],[85.21862,25.04209],[85.21444,25.03671],[85.21086,25.03448],[85.20229,25.03372],[85.20319,25.0462],[85.20329,25.04763],[85.20476,25.0532],[85.20918,25.05543],[85.21193,25.05893],[85.21527,25.06027],[85.21675,25.06378],[85.21626,25.07352],[85.21139,25.07783],[85.20375,25.09154],[85.20517,25.09481],[85.20932,25.09947],[85.20589,25.10112],[85.20202,25.10102],[85.1983,25.10728],[85.19376,25.10553],[85.18958,25.10519],[85.1854,25.102],[85.17504,25.10123],[85.16865,25.10205],[85.17075,25.11171],[85.17468,25.11917],[85.17321,25.1249],[85.17338,25.12899],[85.17385,25.13699],[85.17584,25.14267],[85.17914,25.14526],[85.18459,25.14689],[85.18787,25.14746],[85.1936,25.14719],[85.19383,25.15076],[85.19073,25.15976],[85.18818,25.16142],[85.18086,25.16376],[85.18181,25.17066],[85.17781,25.1716],[85.17282,25.16662],[85.17033,25.16522],[85.16903,25.16524],[85.16873,25.16975],[85.17126,25.18073],[85.1665,25.19012],[85.16525,25.19435],[85.16682,25.19606],[85.17213,25.19567],[85.17301,25.19744],[85.17392,25.20608],[85.17612,25.20863],[85.18026,25.20988],[85.1814,25.21159],[85.18254,25.21867],[85.1818,25.22313],[85.17787,25.22551],[85.16637,25.22954],[85.16572,25.23595],[85.17197,25.23797],[85.1738,25.24578],[85.1769,25.24733],[85.19021,25.24915],[85.19477,25.2531],[85.19615,25.25613],[85.19853,25.25782],[85.21443,25.25543],[85.21803,25.25646],[85.21964,25.26224],[85.21177,25.26482],[85.20665,25.26498],[85.20232,25.26414],[85.19676,25.26454],[85.19353,25.26869],[85.18298,25.26959],[85.17739,25.27201],[85.17752,25.27737],[85.18288,25.28603],[85.1877,25.29136],[85.18892,25.29404],[85.18829,25.29849],[85.18563,25.30362],[85.18139,25.30887],[85.18203,25.31601],[85.18324,25.31852],[85.18919,25.32485],[85.1904,25.33265],[85.19381,25.33887],[85.19309,25.34625],[85.19468,25.34905],[85.19453,25.35245],[85.19249,25.35762],[85.19273,25.37173],[85.19361,25.37804],[85.19279,25.38163],[85.18517,25.38565],[85.18285,25.38824],[85.18363,25.3919],[85.18677,25.39559],[85.18865,25.40217],[85.19651,25.40328],[85.19814,25.40416],[85.19966,25.40742],[85.20159,25.40813],[85.20772,25.40835],[85.2107,25.41417],[85.21263,25.41568],[85.21789,25.41574],[85.22308,25.41431],[85.22889,25.41443],[85.23344,25.41145],[85.23582,25.40431],[85.23958,25.40343],[85.24619,25.40773],[85.25142,25.41453],[85.25739,25.41245],[85.25866,25.40563],[85.25824,25.40155],[85.26036,25.39799],[85.2651,25.401],[85.27005,25.40159],[85.27395,25.40122],[85.27762,25.39826],[85.27985,25.39757],[85.27976,25.40104],[85.2821,25.40439],[85.28663,25.40043],[85.28701,25.39731],[85.29195,25.39652],[85.29614,25.39453],[85.29739,25.39133],[85.3076,25.39549],[85.30917,25.39748],[85.30762,25.40235],[85.30997,25.40662],[85.3138,25.40597],[85.3155,25.40357],[85.31959,25.40469],[85.32763,25.40481],[85.33073,25.40446],[85.33392,25.40242],[85.34006,25.4039],[85.34431,25.40659],[85.34847,25.41219],[85.35192,25.41091],[85.35274,25.40778],[85.35208,25.40451],[85.36164,25.40276],[85.36389,25.40023],[85.36539,25.40544],[85.37008,25.41381],[85.37079,25.41972],[85.37375,25.42363],[85.3754,25.42752],[85.37885,25.43044],[85.3848,25.42628],[85.38658,25.43055],[85.3908,25.43023],[85.39814,25.43325],[85.40272,25.43378],[85.40357,25.43624],[85.40373,25.45311],[85.40626,25.46101],[85.42018,25.46011],[85.42957,25.45506],[85.43885,25.4465],[85.444,25.44697],[85.45009,25.44459],[85.45668,25.44587],[85.466,25.44498],[85.47226,25.44098],[85.47752,25.44075],[85.48349,25.44251],[85.48594,25.44528],[85.49124,25.44758],[85.49361,25.44483],[85.49843,25.42864],[85.50331,25.42795],[85.51151,25.43019],[85.51746,25.42648],[85.52173,25.42633],[85.52552,25.42751],[85.5278,25.43028],[85.53166,25.42823],[85.53457,25.428],[85.5349,25.42194],[85.54324,25.42492],[85.54696,25.4216],[85.55104,25.42094],[85.55767,25.42528],[85.56063,25.42492],[85.55947,25.41774],[85.56282,25.41819],[85.56636,25.4226],[85.5691,25.42421],[85.57864,25.42457],[85.58038,25.41767],[85.58143,25.40612],[85.58114,25.40354],[85.57731,25.39988],[85.58337,25.39623],[85.59086,25.38488],[85.59502,25.38225],[85.59756,25.3819],[85.59829,25.38534],[85.59723,25.38865],[85.59982,25.39141],[85.60247,25.39078],[85.60817,25.38459],[85.6159,25.38401],[85.62854,25.38112],[85.62864,25.37265],[85.63099,25.36896],[85.63641,25.36774],[85.63945,25.3645],[85.63589,25.35525],[85.63527,25.35152],[85.63613,25.34804],[85.63788,25.34835],[85.63824,25.35203],[85.6435,25.35196],[85.65072,25.34004],[85.64214,25.33401],[85.63213,25.33396],[85.63061,25.32455],[85.63434,25.32216],[85.6399,25.32209],[85.64425,25.32291],[85.64375,25.31595],[85.65194,25.31437],[85.65383,25.31248],[85.65819,25.31411],[85.6607,25.31665],[85.66154,25.32209],[85.66154,25.3289],[85.65924,25.33264],[85.66049,25.33652],[85.66371,25.33691],[85.66701,25.3385],[85.66983,25.34028],[85.67125,25.34382],[85.67412,25.34507],[85.68067,25.34492],[85.68886,25.34616],[85.69192,25.35468],[85.70208,25.35253],[85.70469,25.35298],[85.7069,25.36232],[85.71544,25.35567],[85.71521,25.36023],[85.71641,25.36475],[85.72148,25.36439],[85.72572,25.35617],[85.72309,25.35134],[85.72586,25.34724],[85.73112,25.34752],[85.73331,25.34175],[85.73418,25.33545],[85.74182,25.33412],[85.74351,25.32843],[85.7453,25.3247],[85.74791,25.32175],[85.75469,25.3175],[85.75912,25.3167],[85.76104,25.31688],[85.76307,25.31943],[85.76888,25.31577],[85.77708,25.31834],[85.78291,25.31514],[85.78258,25.31157],[85.78625,25.30918],[85.78853,25.31218],[85.79633,25.30951],[85.80118,25.31106],[85.80689,25.30885],[85.81093,25.2917],[85.81887,25.29017],[85.83703,25.29127],[85.84529,25.29475],[85.85678,25.29516],[85.86354,25.29706],[85.86571,25.28312],[85.87485,25.28242],[85.88089,25.28002],[85.88844,25.28432],[85.88922,25.28943],[85.89277,25.2951],[85.89507,25.2974],[85.89968,25.29348],[85.90553,25.29362]]]}}]}