{"type":"FeatureCollection","features":[{"type":"Feature","properties":{"id":"pashchim-champaran","name":"Pashchim Champaran","stateId":"bihar","stateName":"Bihar","censuscode":203,"type":"district"},"geometry":{"type":"Polygon","coordinates":[[[84.76322,27.00015],[84.74887,26.9816],[84.74933,26.97506],[84.75227,26.96991],[84.75041,26.96212],[84.7441,26.96106],[84.74287,26.95626],[84.73814,26.95281],[84.7302,26.95418],[84.72306,26.95261],[84.71815,26.95038],[84.7165,26.94334],[84.71205,26.94575],[84.70809,26.93874],[84.7019,26.94077],[84.69928,26.93701],[84.70131,26.9235],[84.69825,26.91613],[84.69185,26.91236],[84.68773,26.92034],[84.68118,26.91445],[84.68306,26.90828],[84.68466,26.8907],[84.68886,26.88909],[84.69045,26.87914],[84.69695,26.87699],[84.71908,26.85685],[84.71693,26.85097],[84.72062,26.8446],[84.73087,26.84447],[84.7357,26.842],[84.73609,26.83435],[84.72903,26.83267],[84.72277,26.82643],[84.72741,26.82321],[84.7349,26.82346],[84.74569,26.81717],[84.74546,26.81029],[84.73652,26.79543],[84.73171,26.79968],[84.72813,26.79583],[84.723,26.78751],[84.72098,26.78076],[84.72199,26.76272],[84.72068,26.75637],[84.72523,26.75275],[84.72444,26.7426],[84.70834,26.73649],[84.70468,26.73189],[84.70541,26.72528],[84.7038,26.71606],[84.69635,26.71868],[84.69611,26.71506],[84.68244,26.70031],[84.67271,26.69969],[84.66383,26.68705],[84.65667,26.67956],[84.64873,26.67903],[84.64001,26.6815],[84.64098,26.69141],[84.62878,26.69282],[84.61795,26.69221],[84.61169,26.68815],[84.60491,26.69312],[84.59952,26.6871],[84.60277,26.68137],[84.60122,26.67611],[84.59349,26.67287],[84.59235,26.66859],[84.57371,26.66737],[84.56938,26.66363],[84.56177,26.65925],[84.55097,26.65604],[84.52305,26.6256],[84.52333,26.61699],[84.52801,26.60855],[84.52738,26.60097],[84.5115,26.59841],[84.50522,26.60158],[84.49257,26.60246],[84.48992,26.60525],[84.48679,26.61051],[84.46883,26.62098],[84.46333,26.62099],[84.45846,26.62535],[84.4595,26.63108],[84.42519,26.59856],[84.42192,26.59326],[84.41901,26.58554],[84.41585,26.58287],[84.40997,26.58834],[84.41226,26.59297],[84.41872,26.60277],[84.4249,26.60671],[84.42689,26.61163],[84.43007,26.61027],[84.43357,26.61437],[84.42916,26.61884],[84.42992,26.62394],[84.42904,26.63526],[84.41658,26.63563],[84.414,26.64031],[84.41148,26.66876],[84.37601,26.67632],[84.3641,26.67638],[84.3594,26.6789],[84.35408,26.67792],[84.34635,26.67893],[84.33494,26.68174],[84.33262,26.68595],[84.32783,26.71367],[84.32036,26.73102],[84.31495,26.7351],[84.31601,26.73698],[84.30739,26.75067],[84.29611,26.74883],[84.28797,26.74863],[84.28067,26.74193],[84.27615,26.73945],[84.26872,26.7382],[84.26466,26.73634],[84.26384,26.73165],[84.2617,26.72885],[84.25674,26.72667],[84.25164,26.72815],[84.24335,26.7369],[84.24258,26.74247],[84.234,26.75444],[84.24488,26.76433],[84.25053,26.77277],[84.25791,26.79002],[84.25878,26.79961],[84.26173,26.80601],[84.25623,26.81186],[84.25797,26.81822],[84.25227,26.81914],[84.25592,26.82489],[84.26051,26.82801],[84.25989,26.83513],[84.26156,26.84223],[84.25512,26.85601],[84.25061,26.85973],[84.24487,26.86162],[84.23814,26.86709],[84.23147,26.86744],[84.23061,26.86951],[84.21873,26.86824],[84.20606,26.85844],[84.19906,26.85707],[84.19484,26.85734],[84.19032,26.85462],[84.18598,26.85058],[84.18646,26.84662],[84.18482,26.84318],[84.1869,26.8399],[84.1842,26.83303],[84.17842,26.83177],[84.16678,26.8336],[84.16003,26.8367],[84.14116,26.85289],[84.14137,26.86775],[84.14885,26.87124],[84.14707,26.8735],[84.14817,26.88026],[84.15028,26.8811],[84.1504,26.88478],[84.1398,26.88246],[84.13259,26.8862],[84.13159,26.88983],[84.12121,26.88906],[84.11899,26.8916],[84.11598,26.89225],[84.11021,26.898],[84.1088,26.89238],[84.11064,26.89098],[84.10944,26.88514],[84.10641,26.8835],[84.10216,26.87499],[84.09959,26.87431],[84.09608,26.87607],[84.09746,26.8795],[84.09506,26.88239],[84.08583,26.87593],[84.08112,26.87901],[84.06968,26.88358],[84.06863,26.8879],[84.06159,26.88882],[84.05859,26.89705],[84.0604,26.89876],[84.05698,26.90332],[84.05473,26.90185],[84.05201,26.90623],[84.05368,26.90691],[84.05886,26.91169],[84.05728,26.92893],[84.05484,26.92751],[84.04811,26.92796],[84.0462,26.9301],[84.0483,26.93537],[84.04595,26.9382],[84.03945,26.93664],[84.03844,26.93827],[84.03455,26.93979],[84.03602,26.94603],[84.04135,26.94639],[84.0448,26.94579],[84.04875,26.95138],[84.04828,26.95483],[84.05052,26.95452],[84.05383,26.95794],[84.05632,26.95901],[84.05568,26.96515],[84.05093,26.96508],[84.05315,26.97746],[84.05219,26.97862],[84.04612,26.98108],[84.04871,26.98507],[84.05565,26.98421],[84.05922,26.98786],[84.05402,26.99472],[84.05488,26.99678],[84.05241,27.00017],[84.04963,27.00291],[84.04018,27.00885],[84.04547,27.01635],[84.04571,27.02603],[84.05006,27.03231],[84.05058,27.0417],[84.04539,27.0435],[84.04102,27.04347],[84.03403,27.04173],[84.02196,27.05077],[84.00469,27.05822],[84.00056,27.06555],[84.0009,27.06825],[84.01539,27.06891],[84.02175,27.07825],[84.02671,27.08073],[84.02813,27.08422],[84.02591,27.08874],[84.02876,27.09041],[84.03054,27.09245],[84.02404,27.09704],[84.02147,27.10184],[84.01515,27.10099],[84.01234,27.09723],[84.00733,27.09543],[84.00248,27.0971],[83.99999,27.09579],[83.99105,27.09077],[83.9877,27.08955],[83.98105,27.08886],[83.96478,27.08305],[83.95761,27.08311],[83.95393,27.08416],[83.95066,27.08653],[83.94927,27.0899],[83.95021,27.0992],[83.94841,27.10422],[83.94826,27.10792],[83.94942,27.11356],[83.9513,27.11672],[83.95754,27.12051],[83.96068,27.12323],[83.96235,27.12588],[83.96352,27.12883],[83.96069,27.13596],[83.9608,27.13777],[83.96856,27.14555],[83.97649,27.15773],[83.97822,27.16249],[83.98963,27.17029],[83.99412,27.17562],[83.99504,27.17865],[83.98873,27.19732],[83.98657,27.20029],[83.97454,27.20787],[83.97166,27.21062],[83.97027,27.21351],[83.97327,27.21793],[83.97409,27.22004],[83.97375,27.22212],[83.97152,27.22479],[83.965,27.22791],[83.96583,27.23036],[83.96447,27.23187],[83.95814,27.23516],[83.93532,27.23934],[83.92177,27.2433],[83.91765,27.24482],[83.91193,27.24892],[83.90801,27.25621],[83.90554,27.26492],[83.90622,27.27383],[83.9081,27.27576],[83.91412,27.27794],[83.92057,27.2824],[83.9289,27.28944],[83.93194,27.29315],[83.93573,27.30096],[83.93542,27.30629],[83.93369,27.3132],[83.9268,27.32209],[83.91815,27.32713],[83.90769,27.32686],[83.90368,27.32579],[83.89804,27.3232],[83.88251,27.31294],[83.8692,27.30839],[83.86477,27.30794],[83.86062,27.30881],[83.8581,27.31068],[83.85753,27.31356],[83.85536,27.31636],[83.85265,27.31801],[83.84638,27.31617],[83.84073,27.31805],[83.83909,27.31945],[83.83862,27.32135],[83.83847,27.32262],[83.83947,27.32415],[83.85948,27.33231],[83.86512,27.33703],[83.8664,27.34441],[83.86656,27.34491],[83.86934,27.34853],[83.87169,27.35272],[83.87475,27.35665],[83.87883,27.35995],[83.88062,27.36188],[83.88199,27.36469],[83.88446,27.3677],[83.88591,27.37088],[83.88632,27.37604],[83.88475,27.37943],[83.88216,27.38301],[83.87917,27.38604],[83.87437,27.38867],[83.86938,27.39075],[83.86529,27.39322],[83.86262,27.39607],[83.86102,27.40011],[83.85727,27.4061],[83.85429,27.40912],[83.84989,27.41175],[83.84467,27.41529],[83.84067,27.41847],[83.83707,27.42194],[83.83492,27.42813],[83.83778,27.4326],[83.84144,27.43707],[83.8453,27.44174],[83.85088,27.44597],[83.85646,27.44515],[83.86065,27.44259],[83.86495,27.43959],[83.86945,27.43687],[83.87434,27.43486],[83.88112,27.43487],[83.88705,27.43667],[83.89228,27.43855],[83.89742,27.43909],[83.90419,27.43972],[83.90976,27.43927],[83.91541,27.43989],[83.92043,27.44177],[83.92624,27.44519],[83.93196,27.4478],[83.93598,27.44884],[83.94137,27.44685],[83.94413,27.44581],[83.94709,27.44441],[83.95028,27.44112],[83.9528,27.44124],[83.95562,27.44165],[83.95877,27.44088],[83.96231,27.44129],[83.9642,27.4433],[83.9669,27.44451],[83.97063,27.44537],[83.97035,27.44429],[83.97259,27.44315],[83.97626,27.44185],[83.9788,27.44089],[83.98197,27.43887],[83.98381,27.43754],[83.9872,27.44074],[83.98968,27.44294],[83.9924,27.44397],[84.00009,27.44473],[84.00098,27.44482],[84.00414,27.44342],[84.00813,27.44131],[84.01159,27.43955],[84.01626,27.43817],[84.01962,27.43704],[84.02571,27.43532],[84.02995,27.4362],[84.03224,27.43812],[84.03483,27.44014],[84.03773,27.44271],[84.04073,27.44428],[84.04354,27.44523],[84.04648,27.44491],[84.04993,27.44423],[84.05349,27.4432],[84.05438,27.44457],[84.05433,27.44736],[84.05429,27.44989],[84.05639,27.45145],[84.06083,27.45258],[84.06323,27.45353],[84.06362,27.45507],[84.06518,27.45815],[84.06503,27.46131],[84.06488,27.46419],[84.06644,27.46755],[84.06852,27.47047],[84.06998,27.47374],[84.07063,27.47708],[84.07017,27.48086],[84.07257,27.48207],[84.07468,27.48336],[84.07443,27.4858],[84.07594,27.48609],[84.0794,27.4855],[84.08335,27.48519],[84.08778,27.48615],[84.09078,27.48809],[84.09419,27.49085],[84.09779,27.49315],[84.09928,27.49479],[84.10165,27.49834],[84.10272,27.50702],[84.10206,27.51017],[84.1019,27.51386],[84.10409,27.5166],[84.10638,27.51907],[84.11119,27.52129],[84.11717,27.52093],[84.11922,27.51888],[84.12027,27.51726],[84.12141,27.51494],[84.12369,27.51226],[84.12907,27.5108],[84.13421,27.51186],[84.13752,27.51425],[84.14162,27.51682],[84.14626,27.51833],[84.151,27.51902],[84.15425,27.51862],[84.15621,27.51611],[84.15688,27.51224],[84.15649,27.51061],[84.15582,27.5088],[84.15301,27.50704],[84.15104,27.50422],[84.14967,27.50132],[84.14892,27.49662],[84.14907,27.49382],[84.15125,27.49078],[84.15515,27.48659],[84.15934,27.48394],[84.16342,27.48201],[84.1642,27.48337],[84.16909,27.48163],[84.17158,27.47751],[84.17607,27.47486],[84.18166,27.47349],[84.18675,27.47112],[84.1898,27.47007],[84.19527,27.47005],[84.20113,27.47031],[84.20582,27.46847],[84.21109,27.46746],[84.21114,27.46385],[84.2108,27.45952],[84.21116,27.45564],[84.21193,27.45213],[84.21257,27.44934],[84.213,27.44827],[84.21404,27.44611],[84.21581,27.4428],[84.21849,27.43958],[84.22395,27.43911],[84.22546,27.43985],[84.22618,27.44572],[84.22705,27.44843],[84.22955,27.44964],[84.2341,27.45078],[84.23561,27.45116],[84.24096,27.45177],[84.24389,27.45163],[84.24663,27.45138],[84.25048,27.4509],[84.25515,27.44969],[84.25742,27.44674],[84.25917,27.44432],[84.25974,27.4399],[84.25949,27.43656],[84.26023,27.4346],[84.26521,27.43258],[84.26723,27.43242],[84.27203,27.42896],[84.27452,27.42511],[84.27654,27.41882],[84.2774,27.41441],[84.27849,27.4091],[84.27886,27.40522],[84.27897,27.40423],[84.2781,27.40142],[84.27736,27.39672],[84.28073,27.39442],[84.28459,27.39284],[84.28818,27.38936],[84.29177,27.38589],[84.29421,27.38456],[84.29661,27.38658],[84.2999,27.38977],[84.30372,27.39126],[84.30767,27.39014],[84.31051,27.38972],[84.31602,27.38644],[84.31982,27.38252],[84.32529,27.38105],[84.32925,27.37947],[84.33423,27.37755],[84.34053,27.37535],[84.34629,27.37516],[84.35521,27.37363],[84.35995,27.3745],[84.36441,27.37329],[84.36856,27.37271],[84.3725,27.37284],[84.37622,27.37414],[84.37833,27.37489],[84.37925,27.37517],[84.38289,27.37468],[84.38584,27.37327],[84.38969,27.3715],[84.39326,27.3692],[84.39844,27.36871],[84.40256,27.3693],[84.40559,27.36906],[84.40894,27.36892],[84.41136,27.36922],[84.41509,27.36979],[84.41802,27.37046],[84.42002,27.37121],[84.42437,27.37117],[84.42974,27.37032],[84.43551,27.36939],[84.44169,27.36856],[84.44585,27.36644],[84.45135,27.36352],[84.45479,27.36301],[84.45621,27.36284],[84.46025,27.3629],[84.46443,27.36005],[84.46891,27.35694],[84.47228,27.35453],[84.47542,27.3543],[84.47771,27.3564],[84.48001,27.3585],[84.48313,27.35953],[84.48747,27.35976],[84.49458,27.35766],[84.49712,27.35652],[84.50226,27.35684],[84.50732,27.35599],[84.51239,27.3546],[84.51645,27.35347],[84.5208,27.35279],[84.52678,27.35177],[84.53285,27.35147],[84.53851,27.35108],[84.54629,27.3507],[84.55348,27.34934],[84.56025,27.34922],[84.56642,27.34928],[84.56914,27.34886],[84.57158,27.3478],[84.57817,27.3466],[84.58051,27.34536],[84.5868,27.34263],[84.59257,27.34142],[84.60138,27.33961],[84.60685,27.33831],[84.61059,27.3388],[84.61512,27.33965],[84.61885,27.33987],[84.6218,27.339],[84.62617,27.33651],[84.63273,27.32809],[84.63665,27.32144],[84.63869,27.31921],[84.64259,27.31374],[84.64539,27.308],[84.64878,27.30252],[84.65166,27.29768],[84.65505,27.29265],[84.65906,27.28566],[84.66033,27.28124],[84.66227,27.27919],[84.66647,27.27327],[84.66915,27.26815],[84.67193,27.26312],[84.67605,27.25648],[84.67915,27.24929],[84.68245,27.24237],[84.684,27.23986],[84.68688,27.23457],[84.68987,27.22819],[84.69144,27.22332],[84.69128,27.22025],[84.69044,27.21257],[84.68888,27.20715],[84.68561,27.20252],[84.68618,27.1963],[84.68554,27.19088],[84.68549,27.186],[84.68594,27.1814],[84.68456,27.17814],[84.68227,27.17614],[84.67917,27.17286],[84.67768,27.17122],[84.6791,27.16961],[84.68003,27.16826],[84.68088,27.16448],[84.6809,27.1615],[84.68283,27.16098],[84.68585,27.16137],[84.68805,27.16247],[84.689,27.15977],[84.6869,27.15795],[84.68783,27.15489],[84.68656,27.15199],[84.68579,27.14819],[84.68513,27.14376],[84.68576,27.14161],[84.68429,27.13816],[84.6834,27.13608],[84.68212,27.13435],[84.68122,27.13209],[84.68205,27.12966],[84.68199,27.12704],[84.68019,27.12522],[84.67849,27.1235],[84.67842,27.12097],[84.67827,27.11645],[84.68071,27.11467],[84.67981,27.11321],[84.67609,27.11328],[84.67468,27.11235],[84.67461,27.11001],[84.67644,27.10858],[84.67726,27.10706],[84.6785,27.10463],[84.67831,27.10256],[84.67644,27.09929],[84.67444,27.09728],[84.67385,27.0962],[84.67197,27.09302],[84.67119,27.09067],[84.66969,27.08903],[84.6682,27.08766],[84.6658,27.08556],[84.66159,27.08426],[84.65858,27.08243],[84.65728,27.08097],[84.65678,27.08025],[84.65549,27.07889],[84.65321,27.07616],[84.65051,27.07306],[84.65014,27.07008],[84.64828,27.06618],[84.65002,27.06304],[84.65066,27.06007],[84.64918,27.05698],[84.64953,27.0532],[84.64694,27.0502],[84.64617,27.04667],[84.657,27.04307],[84.65993,27.04165],[84.66569,27.04008],[84.66792,27.03974],[84.67197,27.03761],[84.6748,27.0361],[84.67926,27.03353],[84.68502,27.03205],[84.69038,27.03065],[84.69532,27.03025],[84.70158,27.02894],[84.70452,27.02744],[84.70827,27.02548],[84.71071,27.02325],[84.71344,27.02174],[84.71818,27.02116],[84.72222,27.02019],[84.72306,27.01686],[84.7261,27.01472],[84.73044,27.01458],[84.73427,27.01488],[84.73852,27.01285],[84.74275,27.01153],[84.74559,27.0102],[84.75105,27.00791],[84.76049,27.00166],[84.76322,27.00015]]]}}]}