{"type":"FeatureCollection","features":[{"type":"Feature","properties":{"id":"purba-champaran","name":"Purba Champaran","stateId":"bihar","stateName":"Bihar","censuscode":204,"type":"district"},"geometry":{"type":"Polygon","coordinates":[[[85.25755,26.75616],[85.25743,26.75482],[85.26036,26.74703],[85.25461,26.73385],[85.26077,26.7308],[85.25901,26.71896],[85.25947,26.71211],[85.26298,26.69416],[85.26124,26.68964],[85.25778,26.69278],[85.25471,26.68637],[85.24175,26.67816],[85.24142,26.67373],[85.23957,26.66725],[85.2483,26.65778],[85.25366,26.66779],[85.25605,26.665],[85.25989,26.66457],[85.26201,26.65821],[85.26917,26.65404],[85.26883,26.64956],[85.26988,26.6473],[85.26927,26.64184],[85.26881,26.63771],[85.26883,26.63767],[85.27081,26.63549],[85.27784,26.63099],[85.27842,26.62821],[85.27601,26.62848],[85.27434,26.62141],[85.27201,26.6166],[85.27403,26.61532],[85.26879,26.60887],[85.26523,26.6096],[85.26432,26.60897],[85.26506,26.60027],[85.26384,26.58976],[85.26066,26.58404],[85.25033,26.57615],[85.24956,26.57183],[85.24638,26.56973],[85.24283,26.57133],[85.23491,26.56882],[85.23691,26.56563],[85.24086,26.56162],[85.24064,26.56001],[85.23736,26.5593],[85.23488,26.55564],[85.23631,26.55068],[85.23445,26.54961],[85.23183,26.55015],[85.22484,26.54976],[85.22334,26.54799],[85.22256,26.54316],[85.22033,26.53715],[85.22324,26.53147],[85.22503,26.53151],[85.22692,26.52234],[85.22194,26.51957],[85.22356,26.51374],[85.22693,26.50917],[85.22498,26.50361],[85.22005,26.50301],[85.21822,26.50108],[85.20405,26.49875],[85.18639,26.49841],[85.18349,26.49718],[85.18305,26.49465],[85.18438,26.49337],[85.18148,26.48839],[85.18345,26.48399],[85.18974,26.47772],[85.18866,26.47462],[85.19253,26.4728],[85.19329,26.4691],[85.20151,26.46746],[85.2041,26.45858],[85.21355,26.45405],[85.21637,26.45132],[85.21625,26.44775],[85.20907,26.4473],[85.20932,26.44627],[85.21736,26.43876],[85.21976,26.43303],[85.21126,26.43364],[85.21076,26.42667],[85.22503,26.42423],[85.22709,26.42524],[85.22823,26.42068],[85.23084,26.41645],[85.23344,26.41545],[85.23536,26.4228],[85.2397,26.42258],[85.24177,26.42054],[85.24593,26.42108],[85.2478,26.41812],[85.24587,26.414],[85.2465,26.40996],[85.25402,26.41547],[85.25743,26.41692],[85.26241,26.41301],[85.26159,26.41066],[85.26129,26.41159],[85.25325,26.40828],[85.25368,26.4039],[85.25555,26.40118],[85.2592,26.39831],[85.26517,26.39992],[85.2671,26.39917],[85.26714,26.39915],[85.26698,26.39346],[85.27842,26.38728],[85.27812,26.3915],[85.28312,26.39582],[85.2881,26.3953],[85.28587,26.3887],[85.28751,26.38788],[85.28928,26.38032],[85.29283,26.37844],[85.29234,26.37632],[85.29499,26.37076],[85.28358,26.36887],[85.28117,26.36602],[85.28329,26.36364],[85.29558,26.36114],[85.29793,26.35709],[85.28796,26.35703],[85.28421,26.35436],[85.2831,26.34926],[85.27689,26.34863],[85.27189,26.35104],[85.26628,26.35225],[85.26323,26.3494],[85.25704,26.34953],[85.25506,26.35334],[85.2499,26.35744],[85.25001,26.35997],[85.24516,26.36738],[85.24431,26.36993],[85.23758,26.36833],[85.22662,26.36999],[85.22428,26.36783],[85.22244,26.36469],[85.22231,26.35403],[85.22341,26.35149],[85.22799,26.35052],[85.23061,26.35337],[85.23412,26.35385],[85.24065,26.35073],[85.24202,26.34877],[85.2426,26.34594],[85.2473,26.34076],[85.24997,26.3397],[85.25078,26.34251],[85.25548,26.34126],[85.26018,26.34345],[85.2647,26.34243],[85.26736,26.3409],[85.27205,26.33544],[85.27394,26.33433],[85.27561,26.33488],[85.27326,26.32811],[85.2674,26.32916],[85.26413,26.33189],[85.25874,26.33098],[85.2572,26.30871],[85.25857,26.30427],[85.26003,26.30334],[85.26335,26.30336],[85.26262,26.29783],[85.26027,26.29884],[85.25942,26.29765],[85.2554,26.29786],[85.25255,26.29886],[85.25068,26.30177],[85.24025,26.30021],[85.24008,26.305],[85.2382,26.30669],[85.2349,26.30765],[85.23201,26.3071],[85.23229,26.30531],[85.23576,26.3024],[85.23548,26.30079],[85.23431,26.30034],[85.22701,26.30232],[85.22471,26.30229],[85.22309,26.29396],[85.21337,26.29653],[85.2108,26.29552],[85.20454,26.28493],[85.20276,26.28524],[85.20248,26.28726],[85.20918,26.29743],[85.21012,26.30042],[85.20905,26.30129],[85.20229,26.2944],[85.20056,26.29412],[85.19707,26.29566],[85.19276,26.30042],[85.19242,26.30331],[85.19643,26.30252],[85.20418,26.30399],[85.20593,26.3053],[85.20636,26.31519],[85.20495,26.31878],[85.20281,26.32082],[85.20239,26.31063],[85.20172,26.30902],[85.19969,26.31037],[85.19911,26.32046],[85.19809,26.32473],[85.19716,26.32635],[85.19502,26.32753],[85.19407,26.32419],[85.19532,26.31531],[85.19444,26.31302],[85.19296,26.31239],[85.19289,26.31879],[85.19178,26.32116],[85.19188,26.33112],[85.18872,26.33289],[85.18726,26.33704],[85.18438,26.34007],[85.18024,26.34063],[85.17835,26.33892],[85.17575,26.33964],[85.17263,26.33299],[85.17566,26.33065],[85.17117,26.32926],[85.16716,26.33],[85.16541,26.32903],[85.16398,26.32766],[85.16115,26.31894],[85.15868,26.31707],[85.15234,26.31534],[85.15088,26.31605],[85.14777,26.32103],[85.14452,26.32141],[85.14353,26.3194],[85.13979,26.31708],[85.13836,26.31232],[85.13509,26.31125],[85.13266,26.31519],[85.13051,26.31596],[85.12783,26.31605],[85.12843,26.3146],[85.12702,26.3141],[85.12251,26.31523],[85.11526,26.31341],[85.11135,26.31655],[85.10648,26.32254],[85.10451,26.32366],[85.09826,26.32049],[85.09397,26.32348],[85.09007,26.3234],[85.08828,26.32407],[85.08334,26.32251],[85.07899,26.33069],[85.07417,26.32885],[85.07112,26.33403],[85.06415,26.34172],[85.06121,26.34222],[85.04681,26.3401],[85.04544,26.33493],[85.0365,26.33145],[85.03444,26.32995],[85.03459,26.32793],[85.02718,26.31876],[85.0244,26.31723],[85.0216,26.31749],[85.01739,26.3225],[85.01572,26.32632],[85.01052,26.32987],[85.00104,26.33176],[84.99371,26.33147],[84.98313,26.32294],[84.97624,26.32262],[84.95777,26.32476],[84.92282,26.32444],[84.91042,26.31887],[84.90518,26.32136],[84.90403,26.31735],[84.8985,26.30749],[84.89353,26.29247],[84.88462,26.27392],[84.88223,26.26008],[84.87679,26.25522],[84.87175,26.255],[84.86356,26.26479],[84.85038,26.27421],[84.83837,26.28126],[84.8371,26.28542],[84.82966,26.2822],[84.81021,26.28731],[84.81259,26.29653],[84.81133,26.31768],[84.80969,26.32305],[84.80429,26.31996],[84.80339,26.32331],[84.79845,26.32986],[84.7786,26.34133],[84.76851,26.34152],[84.76508,26.34599],[84.7556,26.35202],[84.75066,26.36295],[84.74076,26.37083],[84.73048,26.38296],[84.72596,26.40008],[84.72279,26.40195],[84.71456,26.41458],[84.71617,26.41593],[84.71764,26.41982],[84.71496,26.42485],[84.71245,26.42741],[84.70051,26.436],[84.69698,26.43439],[84.66138,26.46268],[84.65605,26.46475],[84.64877,26.46542],[84.63731,26.46298],[84.62894,26.45827],[84.62406,26.45224],[84.61777,26.44984],[84.61255,26.44635],[84.59383,26.43716],[84.589,26.43882],[84.59188,26.44373],[84.59089,26.44564],[84.59247,26.4498],[84.58847,26.45084],[84.58885,26.46013],[84.57678,26.46911],[84.58078,26.48526],[84.5769,26.4864],[84.56836,26.49299],[84.56397,26.49424],[84.55893,26.48965],[84.55512,26.48206],[84.54335,26.48565],[84.54698,26.49852],[84.54403,26.507],[84.51288,26.53326],[84.51383,26.54254],[84.5172,26.55559],[84.51516,26.56497],[84.51031,26.57014],[84.49829,26.57022],[84.48722,26.594],[84.49257,26.60246],[84.50522,26.60158],[84.5115,26.59841],[84.52738,26.60097],[84.52801,26.60855],[84.52333,26.61699],[84.52305,26.6256],[84.55097,26.65604],[84.56177,26.65925],[84.56938,26.66363],[84.57371,26.66737],[84.59235,26.66859],[84.59349,26.67287],[84.60122,26.67611],[84.60277,26.68137],[84.59952,26.6871],[84.60491,26.69312],[84.61169,26.68815],[84.61795,26.69221],[84.62878,26.69282],[84.64098,26.69141],[84.64001,26.6815],[84.64873,26.67903],[84.65667,26.67956],[84.66383,26.68705],[84.67271,26.69969],[84.68244,26.70031],[84.69611,26.71506],[84.69635,26.71868],[84.7038,26.71606],[84.70541,26.72528],[84.70468,26.73189],[84.70834,26.73649],[84.72444,26.7426],[84.72523,26.75275],[84.72068,26.75637],[84.72199,26.76272],[84.72098,26.78076],[84.723,26.78751],[84.72813,26.79583],[84.73171,26.79968],[84.73652,26.79543],[84.74546,26.81029],[84.74569,26.81717],[84.7349,26.82346],[84.72741,26.82321],[84.72277,26.82643],[84.72903,26.83267],[84.73609,26.83435],[84.7357,26.842],[84.73087,26.84447],[84.72062,26.8446],[84.71693,26.85097],[84.71908,26.85685],[84.69695,26.87699],[84.69045,26.87914],[84.68886,26.88909],[84.68466,26.8907],[84.68306,26.90828],[84.68118,26.91445],[84.68773,26.92034],[84.69185,26.91236],[84.69825,26.91613],[84.70131,26.9235],[84.69928,26.93701],[84.7019,26.94077],[84.70809,26.93874],[84.71205,26.94575],[84.7165,26.94334],[84.71815,26.95038],[84.72306,26.95261],[84.7302,26.95418],[84.73814,26.95281],[84.74287,26.95626],[84.7441,26.96106],[84.75041,26.96212],[84.75227,26.96991],[84.74933,26.97506],[84.74887,26.9816],[84.76322,27.00015],[84.76479,27.00504],[84.76666,27.00903],[84.76884,27.01283],[84.77304,27.01621],[84.77755,27.01805],[84.7804,27.01537],[84.78415,27.01342],[84.78759,27.01128],[84.79156,27.0077],[84.79222,27.00157],[84.79243,27.0004],[84.79296,26.99751],[84.7973,26.99664],[84.80011,26.9982],[84.80368,27.00043],[84.80541,27.00132],[84.8067,27.00413],[84.81028,27.00794],[84.81379,27.00996],[84.81569,27.01223],[84.81596,27.0144],[84.81623,27.01937],[84.81865,27.0184],[84.82578,27.0207],[84.829,27.02082],[84.83315,27.01887],[84.83619,27.017],[84.83811,27.01602],[84.85782,27.00842],[84.85597,27.00226],[84.85605,27.0005],[84.85609,26.99956],[84.85741,26.9992],[84.85512,26.99585],[84.85635,26.99361],[84.85798,26.99217],[84.8615,26.9912],[84.86473,26.99051],[84.86737,26.98981],[84.87019,26.98929],[84.87302,26.98823],[84.87808,26.98601],[84.88474,26.98299],[84.8904,26.98105],[84.89415,26.97891],[84.8965,26.9756],[84.90095,26.97328],[84.90729,26.97279],[84.91263,26.97282],[84.91877,26.97269],[84.92492,26.97228],[84.93207,26.97171],[84.93863,26.97022],[84.94398,26.96854],[84.94742,26.96685],[84.9556,26.96429],[84.96165,26.96281],[84.96589,26.9604],[84.97107,26.95511],[84.97271,26.95268],[84.97585,26.94928],[84.97941,26.94533],[84.98126,26.94092],[84.97979,26.93685],[84.97618,26.93394],[84.97369,26.93112],[84.97239,26.92985],[84.9718,26.92786],[84.97092,26.9246],[84.97104,26.92217],[84.97146,26.92019],[84.97559,26.91976],[84.98134,26.91944],[84.98737,26.91886],[84.99463,26.91772],[85.00054,26.91603],[85.00169,26.91571],[85.00555,26.91158],[85.00637,26.90959],[85.0068,26.90608],[85.00551,26.90372],[85.00258,26.90442],[85.00173,26.90358],[85.00098,26.90238],[85.0009,26.90131],[85.00097,26.90023],[85.00153,26.89918],[85.00455,26.89794],[85.00788,26.8958],[85.01082,26.89437],[85.01667,26.89324],[85.02159,26.89337],[85.02573,26.89231],[85.02784,26.89187],[85.03358,26.89118],[85.04093,26.89096],[85.04767,26.89038],[85.05372,26.88897],[85.05655,26.8871],[85.05879,26.88458],[85.06002,26.88179],[85.05701,26.87988],[85.0531,26.87931],[85.04694,26.8799],[85.04353,26.87907],[85.04263,26.87861],[85.04193,26.87833],[85.04033,26.87796],[85.03922,26.87724],[85.03771,26.87669],[85.03601,26.87586],[85.0329,26.87449],[85.03141,26.87222],[85.03032,26.87004],[85.02973,26.86806],[85.02916,26.86462],[85.02887,26.86237],[85.02877,26.86182],[85.02837,26.86109],[85.02759,26.85848],[85.0277,26.85713],[85.0273,26.85586],[85.02902,26.85488],[85.03407,26.8531],[85.03739,26.85276],[85.0393,26.8525],[85.04384,26.85172],[85.04616,26.85101],[85.04927,26.85094],[85.05239,26.8507],[85.05672,26.85027],[85.06156,26.84967],[85.06518,26.84951],[85.06719,26.84979],[85.06858,26.8526],[85.07078,26.85343],[85.07351,26.85327],[85.07641,26.85356],[85.07913,26.8543],[85.0787,26.85736],[85.0794,26.85836],[85.08283,26.85721],[85.08456,26.85523],[85.08717,26.85408],[85.08888,26.85489],[85.09078,26.85627],[85.09267,26.85935],[85.09065,26.86113],[85.0873,26.86509],[85.0902,26.86655],[85.09414,26.86594],[85.09735,26.8665],[85.09975,26.8676],[85.10266,26.86969],[85.10547,26.87097],[85.11039,26.87154],[85.11471,26.87165],[85.11844,26.87133],[85.12226,26.87126],[85.1269,26.87029],[85.13104,26.8686],[85.13436,26.86762],[85.13787,26.869],[85.14119,26.87037],[85.14672,26.87085],[85.15195,26.87053],[85.15839,26.86993],[85.16484,26.86843],[85.16856,26.86891],[85.17328,26.8692],[85.17841,26.86959],[85.18324,26.86917],[85.18808,26.86964],[85.193,26.86967],[85.19562,26.86897],[85.19645,26.86581],[85.19596,26.86175],[85.19419,26.85722],[85.19371,26.85288],[85.19394,26.84891],[85.19407,26.84287],[85.1943,26.8389],[85.19382,26.83475],[85.19174,26.82969],[85.18874,26.82597],[85.18614,26.82352],[85.18346,26.81989],[85.18066,26.81635],[85.17926,26.81463],[85.18011,26.80931],[85.18223,26.80662],[85.18436,26.8032],[85.18438,26.80067],[85.18459,26.79796],[85.18803,26.79527],[85.18895,26.79266],[85.19106,26.79159],[85.19468,26.79233],[85.19631,26.78937],[85.19573,26.78539],[85.19454,26.78195],[85.19426,26.78015],[85.19507,26.77862],[85.19721,26.77474],[85.20024,26.77079],[85.20196,26.76864],[85.20379,26.76711],[85.20682,26.76307],[85.20915,26.76046],[85.21338,26.75841],[85.21741,26.75807],[85.22082,26.75908],[85.22734,26.76064],[85.23126,26.76148],[85.23638,26.76295],[85.23939,26.76296],[85.24432,26.76173],[85.24945,26.76085],[85.25238,26.75861],[85.2553,26.75745],[85.25755,26.75616]]]}}]}