{"type":"FeatureCollection","features":[{"type":"Feature","properties":{"id":"rohtas","name":"Rohtas","stateId":"bihar","stateName":"Bihar","censuscode":234,"type":"district"},"geometry":{"type":"Polygon","coordinates":[[[83.52508,24.54799],[83.52508,24.54799],[83.53019,24.5433],[83.53419,24.54173],[83.5568,24.54349],[83.56842,24.54304],[83.60817,24.54064],[83.62947,24.54141],[83.63937,24.54235],[83.64557,24.5441],[83.65909,24.55337],[83.66099,24.55601],[83.66405,24.55449],[83.66758,24.54781],[83.67156,24.54422],[83.68218,24.54112],[83.69345,24.54107],[83.69702,24.54128],[83.69871,24.54214],[83.70898,24.54226],[83.71419,24.54465],[83.71793,24.5516],[83.71852,24.55476],[83.71803,24.55741],[83.72018,24.55913],[83.73585,24.56182],[83.7451,24.56885],[83.7491,24.57689],[83.74731,24.58035],[83.74041,24.58856],[83.74097,24.59541],[83.74525,24.60851],[83.74766,24.61195],[83.75143,24.61504],[83.75442,24.62095],[83.75391,24.6278],[83.7528,24.63155],[83.74333,24.63799],[83.74203,24.64202],[83.73923,24.64399],[83.73285,24.64668],[83.73452,24.6515],[83.73052,24.65497],[83.73394,24.65904],[83.73398,24.66571],[83.74138,24.67322],[83.74634,24.68407],[83.76093,24.70978],[83.76253,24.70695],[83.76296,24.70396],[83.76595,24.70251],[83.76685,24.70498],[83.7649,24.71161],[83.7621,24.71491],[83.76257,24.71968],[83.7684,24.72017],[83.76754,24.72264],[83.76549,24.72433],[83.76576,24.7276],[83.77517,24.7371],[83.78277,24.73845],[83.7825,24.74455],[83.78015,24.74951],[83.7782,24.75718],[83.77873,24.7604],[83.78574,24.75921],[83.78234,24.76671],[83.7785,24.78182],[83.77601,24.78476],[83.77522,24.7877],[83.77687,24.79075],[83.77701,24.79402],[83.77296,24.79744],[83.76387,24.79859],[83.76038,24.80056],[83.75776,24.80316],[83.75411,24.80254],[83.74753,24.80281],[83.73983,24.80544],[83.7323,24.80658],[83.73069,24.80854],[83.72873,24.8162],[83.73001,24.81936],[83.72984,24.82298],[83.72817,24.82605],[83.71955,24.8323],[83.71965,24.83581],[83.72512,24.83907],[83.72584,24.84459],[83.72893,24.84624],[83.72972,24.84952],[83.73657,24.85174],[83.74013,24.85712],[83.74296,24.85849],[83.74456,24.86245],[83.74801,24.86261],[83.75087,24.86818],[83.75468,24.86563],[83.75794,24.86566],[83.7574,24.86924],[83.76276,24.87266],[83.7567,24.87661],[83.75577,24.87932],[83.75656,24.88311],[83.75814,24.88529],[83.76048,24.88683],[83.76251,24.88993],[83.76137,24.89696],[83.76458,24.89844],[83.76541,24.90131],[83.76475,24.90546],[83.76584,24.90844],[83.76542,24.91236],[83.76682,24.91425],[83.77374,24.91606],[83.77712,24.92405],[83.7818,24.92771],[83.77943,24.92991],[83.78594,24.93523],[83.78862,24.93937],[83.79318,24.93802],[83.79422,24.94061],[83.79869,24.9426],[83.79692,24.9478],[83.79794,24.94987],[83.80366,24.95146],[83.80619,24.95289],[83.80407,24.95573],[83.79976,24.95853],[83.8013,24.96083],[83.80931,24.95824],[83.81203,24.96008],[83.81138,24.96448],[83.8081,24.97063],[83.80861,24.97833],[83.81276,24.98437],[83.82115,24.98916],[83.81973,24.99097],[83.81116,24.98814],[83.80764,24.98747],[83.80519,24.98835],[83.80534,24.99066],[83.80692,24.99204],[83.81007,24.99271],[83.80814,25.00052],[83.80418,25.00474],[83.80099,25.00615],[83.80012,25.00756],[83.80034,25.01033],[83.8037,25.01732],[83.80598,25.02005],[83.80656,25.02207],[83.80888,25.02446],[83.8093,25.02346],[83.81639,25.03005],[83.81856,25.0328],[83.82355,25.03653],[83.82395,25.0378],[83.82171,25.03999],[83.82678,25.05693],[83.82536,25.0687],[83.82424,25.07801],[83.81877,25.0917],[83.81236,25.10065],[83.80962,25.10839],[83.80919,25.11367],[83.81468,25.12278],[83.81877,25.13281],[83.81987,25.13894],[83.82029,25.14525],[83.81645,25.14559],[83.8161,25.15215],[83.82565,25.152],[83.82627,25.16181],[83.8227,25.16342],[83.82225,25.17348],[83.8087,25.17759],[83.81558,25.18259],[83.81685,25.19969],[83.81437,25.20445],[83.80881,25.20839],[83.8088,25.21372],[83.81489,25.21375],[83.81581,25.21706],[83.81793,25.21622],[83.81822,25.2192],[83.82537,25.21834],[83.82922,25.23178],[83.83519,25.24333],[83.8521,25.24361],[83.85666,25.24639],[83.86456,25.24493],[83.86657,25.25194],[83.88204,25.25209],[83.88678,25.25308],[83.88738,25.25762],[83.88498,25.25966],[83.88475,25.2629],[83.88794,25.2642],[83.89857,25.26217],[83.90041,25.26327],[83.90017,25.26566],[83.89782,25.27034],[83.89761,25.27951],[83.89649,25.28203],[83.89739,25.28525],[83.89693,25.28948],[83.89985,25.29318],[83.89985,25.29318],[83.90644,25.29365],[83.91049,25.2959],[83.92766,25.29322],[83.94107,25.28713],[83.94454,25.28871],[83.94561,25.28573],[83.94924,25.2856],[83.95166,25.28458],[83.95483,25.28554],[83.95765,25.28523],[83.96196,25.28243],[83.96662,25.28131],[83.97107,25.27852],[83.97694,25.27342],[83.97833,25.27064],[83.98983,25.26424],[83.99281,25.26421],[83.99618,25.26533],[83.99998,25.26768],[84.00248,25.26615],[84.00707,25.26576],[84.01366,25.26196],[84.01639,25.26186],[84.01822,25.26239],[84.01929,25.26632],[84.02227,25.26828],[84.03583,25.26714],[84.03875,25.27522],[84.04114,25.28506],[84.04781,25.28802],[84.0495,25.29647],[84.05837,25.29702],[84.06006,25.30731],[84.05806,25.30927],[84.05774,25.31246],[84.05392,25.31643],[84.0537,25.32013],[84.04446,25.32982],[84.03855,25.33066],[84.0377,25.33515],[84.03533,25.33852],[84.0367,25.34139],[84.0455,25.3416],[84.05212,25.34631],[84.05418,25.35631],[84.04691,25.35855],[84.04763,25.3681],[84.04618,25.37395],[84.06056,25.3723],[84.06217,25.37302],[84.06536,25.37072],[84.07661,25.369],[84.08088,25.36512],[84.09156,25.36339],[84.09783,25.3583],[84.1,25.35888],[84.10066,25.36652],[84.10378,25.36618],[84.10386,25.3615],[84.11095,25.36042],[84.11647,25.35757],[84.12067,25.35936],[84.12284,25.36196],[84.12781,25.36215],[84.13078,25.36666],[84.13701,25.36804],[84.14008,25.37106],[84.14951,25.3703],[84.15627,25.36802],[84.16447,25.36665],[84.16859,25.36947],[84.18312,25.36913],[84.1846,25.36772],[84.20022,25.36668],[84.21365,25.36472],[84.21464,25.36343],[84.21712,25.3602],[84.21856,25.3533],[84.22183,25.34641],[84.23065,25.34506],[84.23568,25.35517],[84.25023,25.35309],[84.25507,25.35322],[84.25606,25.35501],[84.26857,25.35258],[84.27113,25.35717],[84.2755,25.35954],[84.27887,25.35346],[84.2838,25.35208],[84.28434,25.34668],[84.28084,25.3411],[84.28372,25.33517],[84.28246,25.32894],[84.29275,25.32414],[84.30384,25.32502],[84.30483,25.32687],[84.30926,25.32639],[84.31063,25.32244],[84.32207,25.32093],[84.32232,25.31502],[84.32747,25.31415],[84.32834,25.30117],[84.33089,25.299],[84.33644,25.29765],[84.33716,25.29409],[84.33398,25.29156],[84.32642,25.29082],[84.32564,25.28839],[84.32834,25.28465],[84.33577,25.28319],[84.33631,25.28177],[84.3288,25.277],[84.32452,25.27199],[84.32509,25.26907],[84.3305,25.26334],[84.33195,25.25285],[84.32901,25.24315],[84.32849,25.23885],[84.33455,25.23659],[84.33086,25.23081],[84.33048,25.22378],[84.32456,25.22238],[84.32117,25.21535],[84.33333,25.20669],[84.33465,25.20189],[84.34149,25.19907],[84.34559,25.20149],[84.34915,25.20042],[84.35182,25.202],[84.35876,25.19803],[84.35985,25.19537],[84.35813,25.192],[84.36831,25.19252],[84.37409,25.19173],[84.37596,25.19463],[84.38077,25.19349],[84.38342,25.1957],[84.38687,25.19377],[84.38743,25.19073],[84.39868,25.18755],[84.4045,25.18457],[84.40742,25.18711],[84.40605,25.19002],[84.40794,25.19326],[84.42736,25.18729],[84.45412,25.16745],[84.46568,25.1613],[84.46441,25.15902],[84.46065,25.15355],[84.45585,25.14119],[84.45052,25.13394],[84.44808,25.12849],[84.4401,25.11396],[84.43526,25.09918],[84.42549,25.07855],[84.4162,25.07168],[84.38537,25.05488],[84.37493,25.05043],[84.37046,25.04749],[84.35981,25.04455],[84.34485,25.03782],[84.3217,25.02278],[84.31465,25.01622],[84.30996,25.00211],[84.25805,24.94455],[84.24303,24.93233],[84.1716,24.84991],[84.14939,24.83109],[84.13334,24.81281],[84.10522,24.78816],[84.08958,24.77036],[84.06322,24.73197],[84.03751,24.69357],[84,24.63712],[83.98704,24.61424],[83.98011,24.59576],[83.97265,24.58677],[83.96535,24.57548],[83.95592,24.56564],[83.94425,24.55507],[83.94077,24.55089],[83.93623,24.54706],[83.93184,24.54536],[83.9257,24.54494],[83.91052,24.54158],[83.88662,24.53562],[83.87582,24.53201],[83.86606,24.5364],[83.86547,24.53667],[83.85587,24.53541],[83.84928,24.5336],[83.83519,24.53224],[83.82403,24.53034],[83.81675,24.52803],[83.80681,24.52894],[83.8023,24.52851],[83.79583,24.52624],[83.78955,24.52265],[83.75646,24.50958],[83.73856,24.50783],[83.7245,24.50399],[83.7102,24.50636],[83.70352,24.50962],[83.69028,24.51457],[83.67864,24.51376],[83.67038,24.51466],[83.65267,24.51514],[83.60802,24.51216],[83.60027,24.51381],[83.57906,24.5159],[83.55512,24.5229],[83.55031,24.52505],[83.54293,24.52444],[83.53172,24.52477],[83.5174,24.52638],[83.50607,24.52589],[83.50551,24.52779],[83.5011,24.53489],[83.50132,24.54087],[83.51285,24.5432],[83.52508,24.54799],[83.52508,24.54799]]]}}]}