{"type":"FeatureCollection","features":[{"type":"Feature","properties":{"id":"saharsa","name":"Saharsa","stateId":"bihar","stateName":"Bihar","censuscode":214,"type":"district"},"geometry":{"type":"Polygon","coordinates":[[[86.63503,26.02847],[86.63248,26.01972],[86.63085,26.01658],[86.62674,26.01257],[86.61988,26.01223],[86.61589,26.01069],[86.6126,26.00749],[86.61102,25.99651],[86.6099,25.99188],[86.60886,25.98956],[86.61211,25.98188],[86.61117,25.97457],[86.61532,25.97029],[86.61873,25.96802],[86.62615,25.96641],[86.63137,25.96671],[86.63342,25.96598],[86.63193,25.96175],[86.62443,25.95592],[86.62116,25.95254],[86.61802,25.94683],[86.61845,25.94361],[86.62098,25.94316],[86.62439,25.94432],[86.62706,25.94372],[86.62962,25.94196],[86.63362,25.93634],[86.63497,25.92982],[86.63628,25.92775],[86.64235,25.92797],[86.64384,25.92578],[86.64834,25.92271],[86.65043,25.92265],[86.66474,25.93007],[86.67179,25.92956],[86.67377,25.93445],[86.67562,25.93587],[86.68188,25.93714],[86.6905,25.93669],[86.69244,25.93492],[86.68541,25.92464],[86.68594,25.91851],[86.68899,25.91625],[86.68794,25.90683],[86.68874,25.90169],[86.70247,25.90511],[86.70491,25.8954],[86.70475,25.88947],[86.71074,25.86986],[86.71316,25.86672],[86.71871,25.86627],[86.72321,25.86768],[86.727,25.86753],[86.72944,25.86647],[86.73121,25.86248],[86.73661,25.86019],[86.75072,25.85771],[86.75792,25.86273],[86.76502,25.86244],[86.76991,25.86224],[86.7779,25.86049],[86.78866,25.86208],[86.79272,25.86366],[86.80361,25.8717],[86.81014,25.87505],[86.82183,25.86971],[86.82549,25.86898],[86.83129,25.86946],[86.83944,25.87148],[86.84143,25.87197],[86.84261,25.8707],[86.84122,25.86959],[86.84038,25.86892],[86.84068,25.86737],[86.84633,25.86421],[86.84529,25.86082],[86.84808,25.84909],[86.8487,25.84936],[86.85291,25.85119],[86.85145,25.84475],[86.8537,25.84186],[86.85409,25.83684],[86.86365,25.82559],[86.86738,25.82481],[86.8683,25.82181],[86.87073,25.81828],[86.85379,25.81403],[86.85728,25.79759],[86.86055,25.79462],[86.86113,25.79001],[86.85942,25.78473],[86.85545,25.78079],[86.85344,25.77602],[86.85218,25.77149],[86.85951,25.76777],[86.85878,25.76232],[86.8513,25.74934],[86.85744,25.74805],[86.86052,25.74612],[86.85978,25.74274],[86.85863,25.74161],[86.85487,25.74117],[86.84838,25.74524],[86.84619,25.74261],[86.84487,25.73831],[86.84655,25.73566],[86.85013,25.73305],[86.86496,25.73118],[86.87021,25.72948],[86.87525,25.72153],[86.8767,25.71647],[86.87194,25.71151],[86.87061,25.70698],[86.85872,25.6957],[86.8587,25.6895],[86.86156,25.68489],[86.86398,25.67604],[86.85933,25.67469],[86.85063,25.6791],[86.84269,25.67812],[86.83644,25.67604],[86.83585,25.66984],[86.83505,25.66704],[86.83344,25.66493],[86.8295,25.66489],[86.82503,25.66687],[86.82279,25.66579],[86.81602,25.6574],[86.81056,25.65657],[86.80713,25.6574],[86.80566,25.65701],[86.80466,25.65242],[86.80702,25.64913],[86.81256,25.64508],[86.81029,25.64056],[86.80816,25.63822],[86.80275,25.63142],[86.79721,25.62973],[86.78916,25.62588],[86.78007,25.62318],[86.76582,25.62435],[86.76594,25.62975],[86.76831,25.63157],[86.7632,25.63895],[86.76316,25.64176],[86.75997,25.63914],[86.75678,25.63876],[86.75349,25.63929],[86.74914,25.6408],[86.74378,25.64405],[86.743,25.64744],[86.74425,25.65145],[86.73677,25.65711],[86.73421,25.66126],[86.73182,25.66237],[86.72208,25.66414],[86.72268,25.66115],[86.72072,25.6572],[86.71383,25.65386],[86.71018,25.6509],[86.70999,25.64457],[86.71235,25.64367],[86.71547,25.64248],[86.71634,25.64121],[86.7137,25.63767],[86.71191,25.63659],[86.70958,25.64269],[86.70909,25.64396],[86.70581,25.64655],[86.7036,25.64714],[86.69156,25.64312],[86.68888,25.6417],[86.68722,25.63954],[86.68788,25.63746],[86.68523,25.63208],[86.68615,25.63047],[86.68409,25.62715],[86.68087,25.62912],[86.67773,25.62604],[86.67622,25.62077],[86.67387,25.62113],[86.66934,25.62362],[86.66723,25.62828],[86.66739,25.63126],[86.66436,25.6323],[86.66449,25.6377],[86.66222,25.64001],[86.65196,25.64109],[86.6479,25.63595],[86.64119,25.63076],[86.63636,25.63027],[86.62663,25.6275],[86.61926,25.62679],[86.6155,25.62571],[86.6118,25.62252],[86.60722,25.62134],[86.59802,25.62081],[86.59287,25.61429],[86.59508,25.61261],[86.592,25.60929],[86.59816,25.59883],[86.59871,25.59704],[86.59711,25.59579],[86.5924,25.59943],[86.58482,25.6025],[86.57862,25.6038],[86.57666,25.6038],[86.57072,25.60079],[86.56876,25.60142],[86.56535,25.60781],[86.56139,25.6115],[86.55912,25.6122],[86.55069,25.6069],[86.5485,25.60989],[86.54585,25.61174],[86.5435,25.61106],[86.54228,25.60871],[86.53978,25.60614],[86.52971,25.60802],[86.52578,25.60803],[86.51808,25.61174],[86.51224,25.61108],[86.51074,25.61361],[86.50971,25.61878],[86.50845,25.62044],[86.50676,25.62103],[86.49571,25.62032],[86.49481,25.62474],[86.48738,25.63017],[86.48758,25.63166],[86.48675,25.63294],[86.48601,25.63408],[86.48537,25.63901],[86.48461,25.63965],[86.48454,25.63961],[86.48072,25.63754],[86.48008,25.64282],[86.47804,25.64908],[86.48018,25.65124],[86.48541,25.65652],[86.48403,25.65784],[86.47682,25.65397],[86.47563,25.65576],[86.48062,25.65975],[86.47867,25.66165],[86.47773,25.66337],[86.47825,25.66423],[86.477,25.66522],[86.47147,25.66449],[86.47288,25.66632],[86.46907,25.67236],[86.46994,25.6762],[86.46886,25.67724],[86.46658,25.67742],[86.462,25.67617],[86.46107,25.67773],[86.46243,25.68226],[86.45604,25.68337],[86.4627,25.68915],[86.46444,25.69275],[86.46519,25.69809],[86.46332,25.70154],[86.46214,25.69677],[86.46038,25.69469],[86.46002,25.69426],[86.45666,25.69485],[86.45414,25.69704],[86.45104,25.69762],[86.45162,25.69188],[86.43949,25.69807],[86.43804,25.69979],[86.43967,25.7014],[86.43996,25.70168],[86.43979,25.70363],[86.4352,25.70756],[86.43351,25.71065],[86.43187,25.71141],[86.43082,25.70998],[86.42827,25.70653],[86.42614,25.7089],[86.42825,25.71768],[86.42711,25.71865],[86.42593,25.71821],[86.42424,25.71757],[86.42165,25.71919],[86.42531,25.7233],[86.42591,25.72554],[86.42429,25.72831],[86.42137,25.72895],[86.42038,25.72825],[86.41933,25.72752],[86.41718,25.7282],[86.40926,25.73053],[86.40567,25.73473],[86.41361,25.75411],[86.41497,25.76472],[86.41319,25.76524],[86.41273,25.76591],[86.41156,25.76755],[86.41004,25.76732],[86.40897,25.7687],[86.41149,25.77051],[86.41159,25.77058],[86.41225,25.77219],[86.41188,25.7746],[86.40609,25.77301],[86.4045,25.77393],[86.40389,25.77526],[86.40397,25.77687],[86.40738,25.78127],[86.4077,25.78322],[86.40905,25.7842],[86.41362,25.78366],[86.41521,25.78412],[86.41517,25.78646],[86.41309,25.78647],[86.41257,25.78647],[86.41163,25.78785],[86.41222,25.79118],[86.41447,25.79388],[86.41466,25.79501],[86.41478,25.79582],[86.41463,25.79634],[86.41438,25.79626],[86.41004,25.79486],[86.40877,25.80239],[86.40211,25.80281],[86.40078,25.80362],[86.40361,25.80809],[86.40376,25.80992],[86.40174,25.81193],[86.39419,25.81276],[86.38326,25.81228],[86.37978,25.81407],[86.37891,25.81522],[86.37943,25.81677],[86.38331,25.81819],[86.38505,25.81996],[86.3837,25.82096],[86.38239,25.82193],[86.3846,25.82731],[86.3845,25.82989],[86.38034,25.83358],[86.37872,25.83088],[86.37568,25.83107],[86.37209,25.8351],[86.37156,25.83969],[86.37073,25.83917],[86.36928,25.83958],[86.36889,25.84068],[86.36936,25.84274],[86.37423,25.84766],[86.37153,25.85048],[86.36834,25.85043],[86.36664,25.85124],[86.36553,25.85475],[86.36167,25.8563],[86.35333,25.8553],[86.34573,25.85864],[86.34728,25.86117],[86.34507,25.86187],[86.34072,25.86004],[86.33335,25.85925],[86.33123,25.85748],[86.33065,25.85536],[86.32792,25.85514],[86.32113,25.85706],[86.3179,25.85815],[86.31781,25.86217],[86.31115,25.86682],[86.31861,25.87015],[86.3224,25.87224],[86.32103,25.88209],[86.32705,25.88482],[86.33271,25.89152],[86.33475,25.89585],[86.33593,25.90264],[86.34731,25.90467],[86.34557,25.9072],[86.34535,25.90983],[86.34962,25.91396],[86.352,25.92172],[86.35535,25.92421],[86.35981,25.92482],[86.3594,25.92788],[86.36201,25.92932],[86.36278,25.93375],[86.36513,25.93723],[86.36862,25.938],[86.37466,25.93398],[86.38032,25.93223],[86.37929,25.92644],[86.38246,25.92375],[86.40107,25.92623],[86.40406,25.92715],[86.40707,25.93078],[86.40381,25.93048],[86.40107,25.93157],[86.40043,25.93339],[86.40104,25.93629],[86.39656,25.93762],[86.39335,25.93939],[86.3923,25.93718],[86.38947,25.93865],[86.38811,25.94294],[86.38877,25.9442],[86.38837,25.94447],[86.38702,25.94536],[86.38695,25.94683],[86.38917,25.94935],[86.38633,25.95045],[86.38167,25.95032],[86.38014,25.95199],[86.38055,25.9532],[86.38361,25.95492],[86.38638,25.95541],[86.38569,25.9598],[86.38287,25.96278],[86.37881,25.95911],[86.37762,25.95994],[86.37814,25.96104],[86.37884,25.96253],[86.37717,25.96381],[86.37925,25.96661],[86.38188,25.96806],[86.38399,25.96821],[86.38753,25.97192],[86.38587,25.97533],[86.38187,25.97837],[86.38117,25.97994],[86.38174,25.9804],[86.383,25.98144],[86.38153,25.98339],[86.37961,25.98637],[86.38047,25.98656],[86.38246,25.9858],[86.38469,25.98494],[86.38326,25.98788],[86.3794,25.99163],[86.37957,25.9928],[86.38414,25.99601],[86.38506,26.00765],[86.38071,26.00918],[86.37944,26.00816],[86.37878,26.00763],[86.37751,26.00891],[86.37689,26.01297],[86.3756,26.01517],[86.373,26.01708],[86.37215,26.02034],[86.3764,26.02416],[86.37269,26.02447],[86.37247,26.02742],[86.377,26.03032],[86.37738,26.03167],[86.37576,26.03238],[86.37385,26.03321],[86.37342,26.03627],[86.37734,26.03882],[86.37854,26.04077],[86.37744,26.04419],[86.39988,26.04473],[86.40124,26.04691],[86.40177,26.05028],[86.40813,26.05662],[86.41224,26.05923],[86.41992,26.05872],[86.42292,26.0616],[86.42407,26.06608],[86.42885,26.07543],[86.42886,26.07542],[86.43068,26.07314],[86.43745,26.07801],[86.44518,26.07346],[86.45057,26.0772],[86.454,26.07844],[86.45761,26.07736],[86.45968,26.07396],[86.46024,26.0628],[86.46268,26.05874],[86.47818,26.05468],[86.48602,26.04846],[86.48879,26.0547],[86.49222,26.05999],[86.49645,26.06295],[86.5057,26.06431],[86.50766,26.05686],[86.5053,26.05061],[86.50164,26.04477],[86.49149,26.03774],[86.48888,26.03453],[86.49013,26.02711],[86.49698,26.01955],[86.50705,26.01314],[86.50924,26.0101],[86.5103,26.00297],[86.5137,26.00153],[86.51669,25.99837],[86.52397,26.00516],[86.52816,26.01318],[86.54153,26.0175],[86.54486,26.02869],[86.54846,26.03324],[86.55231,26.03491],[86.56268,26.03227],[86.56767,26.03012],[86.57658,26.02901],[86.60343,26.02189],[86.60977,26.02411],[86.61433,26.0276],[86.61891,26.02943],[86.62465,26.03001],[86.62691,26.02969],[86.63503,26.02847]]]}}]}