{"type":"FeatureCollection","features":[{"type":"Feature","properties":{"id":"sheikhpura","name":"Sheikhpura","stateId":"bihar","stateName":"Bihar","censuscode":228,"type":"district"},"geometry":{"type":"Polygon","coordinates":[[[85.91874,25.23947],[85.93275,25.23888],[85.94213,25.23738],[85.94568,25.233],[85.94973,25.22649],[85.95197,25.21802],[85.95406,25.21287],[85.96179,25.20394],[85.97021,25.19419],[85.97725,25.18443],[85.98364,25.17382],[85.98836,25.16217],[85.98886,25.1557],[85.98621,25.15082],[85.98407,25.14884],[85.98229,25.1472],[85.9685,25.14239],[85.96401,25.13943],[85.96222,25.13581],[85.96131,25.11989],[85.96139,25.10884],[85.96173,25.10349],[85.96132,25.09899],[85.95902,25.093],[85.95847,25.08953],[85.95828,25.08372],[85.96041,25.07719],[85.95953,25.07354],[85.9574,25.07113],[85.95239,25.06791],[85.94621,25.06548],[85.9365,25.06337],[85.93464,25.06252],[85.93255,25.06103],[85.93164,25.05894],[85.93336,25.04801],[85.93294,25.04553],[85.93024,25.04398],[85.92359,25.04442],[85.91832,25.04249],[85.91472,25.0407],[85.91522,25.03626],[85.9143,25.03381],[85.91164,25.03105],[85.90987,25.02781],[85.91024,25.02042],[85.91203,25.01316],[85.90824,25.01202],[85.90608,25.01083],[85.899,25.00694],[85.89162,25.00252],[85.88765,25.00184],[85.88098,25.00209],[85.8752,25.00167],[85.86946,25.00004],[85.86219,24.99602],[85.85802,24.99381],[85.85329,24.99135],[85.84075,24.98419],[85.83813,24.9829],[85.83798,24.98308],[85.83762,24.9855],[85.84013,24.98709],[85.83828,24.98759],[85.83871,24.98982],[85.836,24.99423],[85.82136,24.99],[85.81684,24.98711],[85.81029,24.9769],[85.80678,24.97315],[85.80104,24.97727],[85.79512,24.98003],[85.79658,24.98251],[85.79229,24.9888],[85.78786,24.99057],[85.78328,25.00248],[85.78424,25.00614],[85.77697,25.00772],[85.77311,25.00771],[85.77002,25.00487],[85.76927,25.00249],[85.77239,24.99276],[85.76798,24.99276],[85.76519,24.99092],[85.75843,24.99204],[85.75463,24.99428],[85.75304,25.0024],[85.75299,25.00355],[85.74675,25.00852],[85.74796,25.01834],[85.76298,25.01795],[85.77011,25.01851],[85.77282,25.01999],[85.77406,25.02311],[85.77329,25.02547],[85.76902,25.02637],[85.76745,25.02845],[85.769,25.03182],[85.76732,25.03707],[85.7712,25.04477],[85.77004,25.04993],[85.76999,25.05947],[85.77403,25.06743],[85.77074,25.0771],[85.7707,25.08102],[85.77677,25.08221],[85.77406,25.08832],[85.77707,25.09338],[85.77306,25.09715],[85.76707,25.10016],[85.75957,25.10223],[85.75886,25.10748],[85.75499,25.10884],[85.75249,25.10654],[85.74678,25.09879],[85.74145,25.09731],[85.73521,25.09722],[85.72882,25.09611],[85.72449,25.09293],[85.71501,25.09882],[85.71149,25.0992],[85.70803,25.1005],[85.7036,25.09901],[85.70076,25.09645],[85.69829,25.10003],[85.69897,25.10374],[85.69737,25.1077],[85.68622,25.11294],[85.68164,25.11139],[85.67414,25.10549],[85.67069,25.10533],[85.6669,25.10673],[85.6627,25.10714],[85.65775,25.10521],[85.65123,25.10448],[85.64095,25.09908],[85.62142,25.11591],[85.61584,25.11608],[85.61198,25.11399],[85.60904,25.1086],[85.60642,25.10637],[85.60441,25.10815],[85.60413,25.11267],[85.60663,25.12904],[85.62426,25.13222],[85.63236,25.13212],[85.65554,25.12415],[85.6633,25.12428],[85.66909,25.12573],[85.68765,25.13558],[85.68957,25.14855],[85.69274,25.15938],[85.69661,25.16445],[85.70148,25.16518],[85.70387,25.16731],[85.70206,25.17133],[85.69628,25.17085],[85.69566,25.17934],[85.69667,25.19188],[85.70194,25.19139],[85.70533,25.19009],[85.71664,25.18984],[85.72054,25.18898],[85.72101,25.19497],[85.72361,25.19876],[85.7285,25.19748],[85.72967,25.20078],[85.72868,25.20571],[85.7247,25.20963],[85.72473,25.21897],[85.72037,25.2237],[85.70021,25.23265],[85.69975,25.24385],[85.7011,25.255],[85.70015,25.2661],[85.70206,25.26969],[85.71669,25.27237],[85.72444,25.27614],[85.72918,25.27746],[85.73451,25.2764],[85.73682,25.27334],[85.73705,25.26393],[85.74584,25.26202],[85.75943,25.26144],[85.76204,25.26517],[85.77162,25.26336],[85.771,25.24467],[85.7772,25.24439],[85.78156,25.24497],[85.79196,25.25103],[85.79285,25.24806],[85.78727,25.23448],[85.78672,25.22629],[85.78735,25.2176],[85.79389,25.21847],[85.79627,25.21985],[85.79657,25.22353],[85.80025,25.22949],[85.80398,25.22916],[85.81289,25.22578],[85.81762,25.22559],[85.81979,25.21946],[85.82399,25.21755],[85.82922,25.21798],[85.83406,25.2224],[85.83552,25.23029],[85.83921,25.23243],[85.84232,25.23912],[85.85426,25.24201],[85.86045,25.24172],[85.86672,25.2424],[85.87003,25.23954],[85.87411,25.23861],[85.87555,25.23249],[85.88505,25.22943],[85.89258,25.22892],[85.90646,25.23181],[85.91025,25.23396],[85.91874,25.23947]]]}}]}