{"type":"FeatureCollection","features":[{"type":"Feature","properties":{"id":"sitamarhi","name":"Sitamarhi","stateId":"bihar","stateName":"Bihar","censuscode":206,"type":"district"},"geometry":{"type":"Polygon","coordinates":[[[85.81894,26.603],[85.82206,26.59616],[85.81452,26.59166],[85.8183,26.58579],[85.81541,26.57731],[85.81289,26.57332],[85.80977,26.57118],[85.81038,26.5699],[85.81246,26.56861],[85.81138,26.56338],[85.80814,26.55589],[85.81195,26.55198],[85.81947,26.55078],[85.82773,26.54243],[85.82754,26.53696],[85.82388,26.53132],[85.8201,26.5278],[85.81922,26.5258],[85.81243,26.52239],[85.81098,26.51827],[85.80792,26.51572],[85.81108,26.51383],[85.81134,26.51159],[85.80481,26.51133],[85.80245,26.50601],[85.80031,26.50432],[85.80011,26.5015],[85.79905,26.49956],[85.79664,26.49787],[85.78885,26.49821],[85.78927,26.50298],[85.79164,26.50576],[85.79248,26.50897],[85.79243,26.51813],[85.78608,26.51712],[85.78343,26.51895],[85.77998,26.51918],[85.77366,26.51396],[85.77056,26.51245],[85.77058,26.51039],[85.77285,26.50914],[85.77294,26.5077],[85.76955,26.5047],[85.76596,26.49877],[85.76063,26.4978],[85.76187,26.49042],[85.77158,26.48976],[85.77427,26.48713],[85.77532,26.48504],[85.77496,26.48361],[85.77221,26.48354],[85.77284,26.48048],[85.7766,26.47985],[85.77855,26.47844],[85.7843,26.47795],[85.7869,26.4801],[85.78963,26.47914],[85.79111,26.48223],[85.78937,26.4845],[85.79416,26.48449],[85.7965,26.48301],[85.80299,26.48207],[85.805,26.48278],[85.80904,26.48036],[85.80804,26.47893],[85.80885,26.47783],[85.81189,26.47658],[85.814,26.4769],[85.81457,26.47056],[85.80693,26.46923],[85.80553,26.4613],[85.80265,26.46147],[85.79722,26.45918],[85.79588,26.45604],[85.77867,26.46399],[85.77703,26.46194],[85.76625,26.47131],[85.762,26.47309],[85.75734,26.47362],[85.75471,26.47319],[85.75274,26.47091],[85.75281,26.46868],[85.75493,26.46346],[85.75659,26.45446],[85.7629,26.45051],[85.76983,26.44863],[85.77367,26.44633],[85.77421,26.44494],[85.77081,26.44125],[85.76836,26.44059],[85.76815,26.43996],[85.7696,26.43897],[85.76888,26.43558],[85.7667,26.43481],[85.75853,26.43555],[85.7534,26.43447],[85.74527,26.43435],[85.73822,26.43635],[85.72524,26.44776],[85.7179,26.4455],[85.71483,26.44796],[85.71024,26.44595],[85.70791,26.44161],[85.70907,26.43877],[85.71138,26.43655],[85.71195,26.43349],[85.70932,26.43043],[85.70699,26.42297],[85.69835,26.41635],[85.69122,26.41484],[85.69023,26.4137],[85.69017,26.40841],[85.68872,26.40296],[85.6971,26.3918],[85.69231,26.377],[85.69325,26.37602],[85.69618,26.37563],[85.70079,26.37644],[85.70368,26.37115],[85.70438,26.36792],[85.7073,26.36437],[85.71172,26.36178],[85.71472,26.36208],[85.71816,26.36128],[85.71746,26.35911],[85.71591,26.35752],[85.70637,26.35702],[85.70388,26.35435],[85.70176,26.35328],[85.6899,26.35425],[85.67591,26.35726],[85.67402,26.35584],[85.67314,26.35378],[85.67419,26.35204],[85.67788,26.3509],[85.68515,26.35028],[85.68597,26.34756],[85.69613,26.34455],[85.70159,26.33976],[85.70192,26.34637],[85.69959,26.35072],[85.70082,26.35174],[85.70729,26.35269],[85.71602,26.35147],[85.72453,26.34933],[85.73163,26.34372],[85.73197,26.34182],[85.73044,26.33918],[85.7293,26.32763],[85.73407,26.32423],[85.73174,26.31706],[85.72528,26.31652],[85.72926,26.31192],[85.72458,26.3083],[85.7226,26.31374],[85.71232,26.31399],[85.71122,26.3102],[85.7047,26.30662],[85.70243,26.30826],[85.69805,26.30664],[85.69693,26.31081],[85.69186,26.31848],[85.6833,26.32113],[85.67857,26.32096],[85.67237,26.31494],[85.6644,26.31833],[85.66125,26.3175],[85.65806,26.32049],[85.65368,26.31934],[85.64961,26.3225],[85.64237,26.31862],[85.64066,26.31956],[85.63227,26.31761],[85.62988,26.31982],[85.63508,26.32712],[85.63561,26.33103],[85.63463,26.33265],[85.62737,26.33655],[85.61978,26.33441],[85.61659,26.33485],[85.61529,26.33377],[85.61276,26.33472],[85.61216,26.3364],[85.61316,26.34163],[85.61599,26.33923],[85.617,26.34187],[85.61709,26.34618],[85.61392,26.34991],[85.60547,26.35226],[85.60231,26.35133],[85.59837,26.35488],[85.59256,26.3553],[85.58838,26.36008],[85.58176,26.36413],[85.57513,26.36428],[85.57515,26.36606],[85.57958,26.37251],[85.58493,26.38401],[85.58046,26.39357],[85.57078,26.38926],[85.56662,26.3858],[85.56239,26.3851],[85.55971,26.3856],[85.55578,26.38024],[85.55255,26.37262],[85.5484,26.36963],[85.53868,26.37229],[85.5352,26.37118],[85.53221,26.37449],[85.53268,26.37875],[85.52585,26.37595],[85.52227,26.37571],[85.5098,26.38151],[85.50704,26.38097],[85.50525,26.37753],[85.50279,26.37613],[85.50307,26.37117],[85.50222,26.36353],[85.49911,26.36184],[85.4976,26.36295],[85.49504,26.35601],[85.49289,26.35374],[85.49037,26.35303],[85.48645,26.35468],[85.48521,26.35033],[85.48403,26.34872],[85.48211,26.34857],[85.48091,26.33639],[85.47765,26.33632],[85.4762,26.33421],[85.47078,26.33421],[85.46915,26.33279],[85.47276,26.32803],[85.46902,26.32669],[85.46707,26.32113],[85.46331,26.31875],[85.46516,26.31523],[85.46565,26.31124],[85.46265,26.30138],[85.4588,26.30023],[85.45628,26.29265],[85.45369,26.29084],[85.44999,26.29071],[85.44033,26.27051],[85.43827,26.27301],[85.44249,26.28286],[85.43994,26.28277],[85.43292,26.27636],[85.42346,26.2725],[85.42302,26.27324],[85.42779,26.27872],[85.42746,26.28137],[85.42946,26.29199],[85.42369,26.2874],[85.42241,26.28408],[85.41226,26.27073],[85.41032,26.27598],[85.41,26.27962],[85.40775,26.28211],[85.40755,26.28529],[85.40546,26.2894],[85.4079,26.28989],[85.41094,26.2891],[85.4132,26.28994],[85.41012,26.29222],[85.40636,26.29284],[85.40263,26.29116],[85.39815,26.28039],[85.39594,26.27944],[85.39359,26.28234],[85.39311,26.28736],[85.39432,26.29102],[85.39726,26.29409],[85.40509,26.29648],[85.40202,26.29951],[85.40091,26.30177],[85.40167,26.30447],[85.40354,26.30525],[85.40917,26.30254],[85.41567,26.30206],[85.41726,26.30491],[85.40999,26.31869],[85.40284,26.31844],[85.39943,26.31088],[85.39295,26.32223],[85.38776,26.325],[85.38402,26.32297],[85.39118,26.32036],[85.39247,26.31384],[85.39531,26.30851],[85.39318,26.3079],[85.38948,26.30817],[85.38376,26.3098],[85.38036,26.31213],[85.37731,26.31591],[85.37663,26.3207],[85.37774,26.32523],[85.37725,26.3295],[85.37237,26.34199],[85.36238,26.34699],[85.35698,26.34475],[85.35262,26.34446],[85.35473,26.3377],[85.35092,26.33877],[85.34675,26.34429],[85.34241,26.34457],[85.3423,26.34181],[85.33786,26.34393],[85.33651,26.34003],[85.33695,26.33278],[85.33867,26.32919],[85.33634,26.32743],[85.33193,26.33099],[85.32918,26.33447],[85.3285,26.33868],[85.33009,26.34523],[85.3289,26.34979],[85.31836,26.34662],[85.31011,26.3493],[85.30587,26.34814],[85.29992,26.34394],[85.29161,26.35382],[85.28955,26.35338],[85.28808,26.34908],[85.28451,26.34619],[85.28266,26.34598],[85.2831,26.34926],[85.28421,26.35436],[85.28796,26.35703],[85.29793,26.35709],[85.29558,26.36114],[85.28329,26.36364],[85.28117,26.36602],[85.28358,26.36887],[85.29499,26.37076],[85.29234,26.37632],[85.29283,26.37844],[85.28928,26.38032],[85.28751,26.38788],[85.28587,26.3887],[85.2881,26.3953],[85.28312,26.39582],[85.27812,26.3915],[85.27842,26.38728],[85.26698,26.39346],[85.26714,26.39915],[85.2671,26.39917],[85.26712,26.39919],[85.27842,26.41538],[85.28124,26.42412],[85.2851,26.43098],[85.28896,26.43527],[85.2868,26.43976],[85.28234,26.44313],[85.28056,26.44697],[85.2829,26.44937],[85.29804,26.45917],[85.31542,26.46879],[85.32336,26.47417],[85.34048,26.48607],[85.3457,26.48856],[85.35022,26.48896],[85.36072,26.48805],[85.36702,26.48719],[85.37718,26.48794],[85.38029,26.48894],[85.38315,26.49114],[85.38493,26.49937],[85.38813,26.50834],[85.3882,26.51628],[85.38645,26.52067],[85.3832,26.52363],[85.37337,26.52829],[85.36802,26.53238],[85.36695,26.53376],[85.36657,26.53681],[85.36761,26.53981],[85.37434,26.55031],[85.37631,26.55424],[85.37519,26.55685],[85.36959,26.55741],[85.36413,26.55889],[85.36125,26.56101],[85.35983,26.56852],[85.35942,26.59531],[85.35245,26.62046],[85.3493,26.63182],[85.34777,26.63445],[85.3426,26.64061],[85.33578,26.64388],[85.33084,26.64463],[85.32173,26.64601],[85.31624,26.64592],[85.31097,26.64582],[85.29634,26.64365],[85.27932,26.63815],[85.26885,26.63768],[85.26883,26.63767],[85.26881,26.63771],[85.26927,26.64184],[85.26988,26.6473],[85.26883,26.64956],[85.26917,26.65404],[85.26201,26.65821],[85.25989,26.66457],[85.25605,26.665],[85.25366,26.66779],[85.2483,26.65778],[85.23957,26.66725],[85.24142,26.67373],[85.24175,26.67816],[85.25471,26.68637],[85.25778,26.69278],[85.26124,26.68964],[85.26298,26.69416],[85.25947,26.71211],[85.25901,26.71896],[85.26077,26.7308],[85.25461,26.73385],[85.26036,26.74703],[85.25743,26.75482],[85.25755,26.75616],[85.25842,26.75566],[85.26074,26.75558],[85.26446,26.75461],[85.26949,26.75409],[85.27532,26.75339],[85.28045,26.75315],[85.28557,26.75291],[85.2907,26.75238],[85.29574,26.75169],[85.30166,26.75216],[85.3078,26.7522],[85.31404,26.75024],[85.31755,26.74881],[85.32229,26.74775],[85.32491,26.74641],[85.32763,26.7448],[85.33407,26.74302],[85.33679,26.74141],[85.3418,26.74476],[85.3453,26.74812],[85.3498,26.75239],[85.35399,26.757],[85.35891,26.76136],[85.36181,26.76308],[85.36493,26.76309],[85.37218,26.7578],[85.37719,26.76062],[85.3812,26.76407],[85.38449,26.7714],[85.38799,26.77456],[85.3898,26.77466],[85.39482,26.77514],[85.39943,26.77723],[85.40394,26.78068],[85.40525,26.78366],[85.40823,26.78927],[85.40944,26.79089],[85.41436,26.79092],[85.41908,26.78994],[85.42211,26.78824],[85.42563,26.78617],[85.43257,26.78702],[85.43427,26.78919],[85.43759,26.78919],[85.44424,26.78561],[85.45119,26.7823],[85.45471,26.78095],[85.45685,26.78153],[85.45872,26.78205],[85.46123,26.7845],[85.46334,26.78622],[85.46726,26.78714],[85.47057,26.78805],[85.47529,26.78933],[85.47699,26.79033],[85.47919,26.79304],[85.47928,26.79756],[85.48017,26.80226],[85.48551,26.79956],[85.48924,26.79813],[85.49296,26.7967],[85.49637,26.7968],[85.49706,26.80087],[85.49825,26.80412],[85.49824,26.80845],[85.50105,26.8127],[85.50747,26.81543],[85.51139,26.81508],[85.51732,26.81519],[85.52256,26.81286],[85.54501,26.83739],[85.55498,26.8339],[85.55718,26.83725],[85.55897,26.84284],[85.5634,26.84213],[85.56733,26.84079],[85.56932,26.84666],[85.57132,26.85307],[85.57633,26.85959],[85.58488,26.85808],[85.58811,26.85412],[85.58833,26.84825],[85.59516,26.85034],[85.6031,26.85362],[85.60943,26.85696],[85.61274,26.86085],[85.61735,26.86647],[85.62438,26.87388],[85.63716,26.87229],[85.63999,26.86507],[85.64211,26.85795],[85.64323,26.85307],[85.64384,26.85317],[85.65521,26.84986],[85.66216,26.84788],[85.66648,26.84635],[85.67806,26.84467],[85.68299,26.84197],[85.69466,26.83666],[85.70604,26.83118],[85.71349,26.82614],[85.72185,26.81983],[85.72638,26.81668],[85.729,26.80992],[85.7274,26.80676],[85.73122,26.80126],[85.73596,26.79486],[85.73627,26.78917],[85.73588,26.77753],[85.73449,26.77057],[85.73389,26.76498],[85.73159,26.75911],[85.72999,26.75342],[85.72989,26.74837],[85.73191,26.74458],[85.73543,26.73836],[85.73373,26.73528],[85.73373,26.73384],[85.73233,26.73195],[85.73023,26.72923],[85.72973,26.72689],[85.72722,26.72409],[85.72712,26.72092],[85.72844,26.71786],[85.72824,26.71533],[85.72613,26.71171],[85.72503,26.70965],[85.72714,26.70694],[85.72715,26.70513],[85.72504,26.70034],[85.72505,26.69682],[85.72415,26.69258],[85.72415,26.69069],[85.72416,26.68707],[85.72556,26.68437],[85.72406,26.68103],[85.72678,26.67661],[85.7284,26.6693],[85.73222,26.66778],[85.73604,26.66462],[85.73625,26.65758],[85.73727,26.65036],[85.7423,26.64486],[85.74953,26.64082],[85.75867,26.63784],[85.76218,26.63605],[85.7661,26.63307],[85.76891,26.63172],[85.77795,26.62975],[85.79141,26.62688],[85.80225,26.62517],[85.80467,26.62085],[85.80627,26.61832],[85.80708,26.61634],[85.80747,26.61489],[85.80707,26.61417],[85.80638,26.61345],[85.80848,26.61128],[85.81049,26.60948],[85.8128,26.60714],[85.81581,26.60498],[85.81822,26.60317],[85.81894,26.603]]]}}]}