{"type":"FeatureCollection","features":[{"type":"Feature","properties":{"id":"vaishali","name":"Vaishali","stateId":"bihar","stateName":"Bihar","censuscode":220,"type":"district"},"geometry":{"type":"Polygon","coordinates":[[[85.63349,25.92261],[85.63837,25.91452],[85.63675,25.90854],[85.62768,25.90417],[85.62579,25.89948],[85.62746,25.8957],[85.62727,25.89331],[85.62332,25.89204],[85.62641,25.88898],[85.62653,25.88571],[85.62366,25.88414],[85.6215,25.87539],[85.61552,25.87425],[85.61125,25.87183],[85.60871,25.86582],[85.6117,25.85677],[85.60912,25.85318],[85.60929,25.8487],[85.60538,25.84587],[85.60209,25.84227],[85.60328,25.84086],[85.60755,25.84138],[85.61507,25.83478],[85.61505,25.83282],[85.60895,25.82963],[85.60866,25.8267],[85.61813,25.8198],[85.61395,25.81584],[85.60955,25.80792],[85.60811,25.80231],[85.6056,25.79712],[85.60775,25.79261],[85.61149,25.7903],[85.60699,25.78499],[85.61024,25.78418],[85.6128,25.77214],[85.6173,25.77039],[85.62058,25.77188],[85.62174,25.76917],[85.62803,25.77176],[85.62964,25.76926],[85.62743,25.76253],[85.62454,25.76114],[85.62577,25.75848],[85.62374,25.75662],[85.62042,25.7565],[85.62052,25.75421],[85.62351,25.75243],[85.61211,25.72841],[85.61328,25.72632],[85.61521,25.72554],[85.6124,25.70688],[85.60806,25.70506],[85.60123,25.70477],[85.60017,25.69922],[85.5858,25.69665],[85.58434,25.68761],[85.57918,25.68476],[85.57835,25.68305],[85.57221,25.68379],[85.57263,25.67993],[85.56276,25.65645],[85.56005,25.65466],[85.56078,25.65212],[85.55813,25.64998],[85.5585,25.64108],[85.55797,25.63799],[85.55403,25.63134],[85.55332,25.62068],[85.55128,25.61761],[85.54001,25.61768],[85.5345,25.60158],[85.53411,25.58488],[85.5386,25.58377],[85.54097,25.57473],[85.55291,25.57293],[85.55402,25.57101],[85.551,25.56969],[85.54732,25.56223],[85.55469,25.5613],[85.5568,25.55868],[85.55859,25.54081],[85.55343,25.53756],[85.55183,25.5334],[85.54452,25.54965],[85.53828,25.55055],[85.53308,25.54381],[85.53288,25.53342],[85.53781,25.50889],[85.53881,25.50547],[85.53322,25.50611],[85.52715,25.50579],[85.52078,25.50231],[85.51634,25.50373],[85.51225,25.49956],[85.51081,25.49435],[85.50609,25.48466],[85.50245,25.48532],[85.49995,25.48831],[85.49657,25.49449],[85.47883,25.49633],[85.47533,25.49797],[85.46921,25.49897],[85.46621,25.50076],[85.45965,25.50171],[85.43773,25.51476],[85.43023,25.49649],[85.42093,25.5005],[85.40743,25.50471],[85.40009,25.50665],[85.39358,25.50582],[85.38213,25.50641],[85.35023,25.51009],[85.34344,25.51191],[85.32839,25.51189],[85.31924,25.51306],[85.31147,25.51547],[85.30687,25.51926],[85.30261,25.52447],[85.27615,25.56656],[85.2632,25.58072],[85.25156,25.59611],[85.24432,25.60133],[85.23318,25.60738],[85.2203,25.61357],[85.19496,25.62399],[85.2011,25.63135],[85.20231,25.63679],[85.19792,25.64886],[85.19831,25.65471],[85.19754,25.66379],[85.20027,25.67496],[85.19342,25.70114],[85.19232,25.71098],[85.19005,25.72153],[85.17871,25.7403],[85.17598,25.75339],[85.17919,25.75956],[85.17753,25.76953],[85.18151,25.78139],[85.18196,25.78742],[85.17666,25.79773],[85.17579,25.80471],[85.17117,25.81501],[85.16719,25.8328],[85.16425,25.83559],[85.15784,25.83384],[85.15064,25.84245],[85.12528,25.85308],[85.11945,25.86035],[85.11832,25.87402],[85.11843,25.88592],[85.11629,25.89143],[85.09564,25.91605],[85.0831,25.92474],[85.07809,25.93719],[85.07505,25.94938],[85.07569,25.95896],[85.07446,25.96517],[85.0696,25.97146],[85.07496,25.97414],[85.07959,25.96853],[85.08368,25.97173],[85.08706,25.97631],[85.09241,25.97531],[85.0959,25.9727],[85.09825,25.97222],[85.09896,25.97347],[85.09804,25.97749],[85.10316,25.97659],[85.10846,25.97705],[85.11047,25.98097],[85.10736,25.98623],[85.10788,25.99147],[85.11477,25.99257],[85.12855,25.98744],[85.13445,25.9886],[85.14268,25.98814],[85.1491,25.9856],[85.1504,25.99163],[85.14933,25.99984],[85.1487,26.00599],[85.15733,26.00639],[85.1573,26.00839],[85.15962,26.00726],[85.15956,26.00901],[85.16501,26.00887],[85.17045,26.0105],[85.18284,26.00942],[85.18816,26.00277],[85.19294,26.00179],[85.19952,26.00533],[85.20604,26.00548],[85.20858,26.00465],[85.21077,26.00187],[85.21454,26.00229],[85.21593,26.00176],[85.22623,26.00257],[85.22836,26.00434],[85.23366,26.00227],[85.23573,26.00612],[85.23513,26.01251],[85.23524,26.01424],[85.23697,26.01514],[85.24459,26.01352],[85.24902,26.01153],[85.25495,26.01254],[85.27026,26.01321],[85.27481,26.00892],[85.27789,26.00932],[85.27822,26.00772],[85.28398,26.00054],[85.29159,25.99357],[85.2991,25.98853],[85.29329,25.9778],[85.29272,25.96916],[85.28903,25.96332],[85.29058,25.95727],[85.28784,25.95173],[85.2852,25.95031],[85.28591,25.94706],[85.29339,25.94169],[85.30101,25.94372],[85.31093,25.9409],[85.31593,25.9412],[85.32106,25.94542],[85.33371,25.94841],[85.33912,25.94695],[85.3541,25.93762],[85.36428,25.93798],[85.36425,25.93228],[85.3688,25.93156],[85.3699,25.92921],[85.38658,25.92728],[85.39205,25.93314],[85.40007,25.93299],[85.40623,25.93823],[85.40686,25.9418],[85.4102,25.94353],[85.41196,25.94082],[85.42475,25.93917],[85.43013,25.9342],[85.43136,25.93008],[85.4355,25.92924],[85.43524,25.92692],[85.44129,25.92243],[85.4461,25.92276],[85.45201,25.9211],[85.45629,25.92274],[85.46229,25.92208],[85.46532,25.92536],[85.464,25.93145],[85.47159,25.92809],[85.48479,25.9214],[85.4905,25.91703],[85.49374,25.90548],[85.50151,25.90482],[85.5066,25.90188],[85.51108,25.90115],[85.51406,25.905],[85.52544,25.91579],[85.53559,25.91896],[85.53989,25.90813],[85.55422,25.9046],[85.55817,25.90578],[85.5612,25.91768],[85.56284,25.92095],[85.56739,25.92082],[85.57198,25.91887],[85.57347,25.91893],[85.57421,25.9202],[85.57707,25.92109],[85.57864,25.91731],[85.58564,25.91683],[85.58802,25.91805],[85.59233,25.918],[85.59525,25.92235],[85.59917,25.92369],[85.60598,25.92381],[85.60894,25.9249],[85.61903,25.92157],[85.62106,25.91917],[85.63349,25.92261]],[[85.33662,25.51408],[85.33796,25.51722],[85.3378,25.5221],[85.33457,25.5245],[85.31802,25.52995],[85.31538,25.5258],[85.31461,25.52265],[85.31683,25.5193],[85.32582,25.51538],[85.33081,25.51422],[85.33662,25.51408]]]}}]}