{"type":"FeatureCollection","features":[{"type":"Feature","properties":{"id":"anantapur","name":"Anantapur","stateId":"andhra-pradesh","stateName":"Andhra Pradesh","censuscode":553,"type":"district"},"geometry":{"type":"Polygon","coordinates":[[[78.14427,14.9453],[78.14382,14.94009],[78.13711,14.93614],[78.12567,14.93371],[78.11887,14.92724],[78.09971,14.87281],[78.09959,14.86039],[78.10804,14.85688],[78.11689,14.85593],[78.11685,14.84601],[78.11137,14.82594],[78.1052,14.81964],[78.09256,14.82371],[78.08678,14.82643],[78.0827,14.82111],[78.07929,14.81124],[78.07447,14.8028],[78.06679,14.79103],[78.06028,14.78337],[78.05627,14.7768],[78.07014,14.76504],[78.07647,14.75822],[78.08545,14.75551],[78.08654,14.74884],[78.0844,14.74126],[78.07591,14.72801],[78.07428,14.72087],[78.08126,14.72021],[78.09078,14.72161],[78.09706,14.72055],[78.10366,14.7164],[78.10609,14.71117],[78.10697,14.70272],[78.11156,14.70246],[78.11721,14.69438],[78.12366,14.69411],[78.13096,14.69772],[78.14028,14.69405],[78.14414,14.68431],[78.14043,14.6689],[78.13711,14.66227],[78.13759,14.64586],[78.13507,14.64135],[78.12926,14.63432],[78.13401,14.6284],[78.12771,14.62485],[78.1114,14.62965],[78.10501,14.62877],[78.09755,14.62539],[78.09463,14.61985],[78.08798,14.60209],[78.08318,14.59249],[78.07853,14.57891],[78.07213,14.57227],[78.06391,14.56934],[78.05519,14.56384],[78.05372,14.55876],[78.05369,14.54769],[78.04715,14.5386],[78.0381,14.53726],[78.02792,14.539],[78.02257,14.54109],[78.00003,14.53965],[77.99848,14.54059],[77.99243,14.53983],[77.98749,14.54054],[77.98449,14.54576],[77.98484,14.56011],[77.97456,14.57178],[77.96992,14.57563],[77.96672,14.58352],[77.96374,14.57873],[77.9603,14.57601],[77.95504,14.57345],[77.94729,14.56673],[77.95297,14.55979],[77.96258,14.55581],[77.97073,14.54728],[77.97515,14.54067],[77.97962,14.53554],[77.97548,14.53047],[77.97702,14.52482],[77.98486,14.51669],[77.99162,14.50904],[77.99475,14.50598],[77.99651,14.50109],[78.00001,14.49842],[78.01395,14.48854],[78.02342,14.48014],[78.03761,14.46392],[78.05126,14.45632],[78.06167,14.44717],[78.10977,14.40876],[78.13994,14.38233],[78.15132,14.37375],[78.17842,14.3606],[78.19291,14.35556],[78.2068,14.34744],[78.21739,14.34273],[78.22648,14.33169],[78.23549,14.32248],[78.24599,14.31526],[78.25651,14.31215],[78.26453,14.31132],[78.28693,14.30492],[78.29748,14.29839],[78.31836,14.29187],[78.33213,14.28929],[78.36518,14.28731],[78.39363,14.28395],[78.40293,14.28163],[78.42575,14.27934],[78.42367,14.26799],[78.41382,14.23619],[78.41005,14.2077],[78.41529,14.20259],[78.42304,14.20117],[78.42629,14.20581],[78.43383,14.1984],[78.43324,14.19019],[78.42632,14.17494],[78.42545,14.16638],[78.42835,14.15502],[78.43289,14.1475],[78.45301,14.13607],[78.46512,14.11299],[78.46487,14.10414],[78.46209,14.09632],[78.45481,14.08935],[78.44791,14.08962],[78.44715,14.0814],[78.45096,14.07565],[78.45253,14.0676],[78.44951,14.05527],[78.44611,14.04865],[78.44257,14.02889],[78.44312,14.02285],[78.45145,14.01688],[78.46652,14.01367],[78.47106,14.01082],[78.46615,14.00039],[78.46565,13.99392],[78.45682,13.98613],[78.44046,13.98064],[78.43234,13.97933],[78.4277,13.97777],[78.4231,13.96955],[78.41693,13.96277],[78.39965,13.95253],[78.38756,13.94069],[78.38339,13.94009],[78.37642,13.94245],[78.37358,13.94585],[78.37386,13.95113],[78.37208,13.95453],[78.36611,13.95096],[78.3489,13.93544],[78.33887,13.93604],[78.3362,13.92694],[78.3328,13.91951],[78.33043,13.91797],[78.32234,13.91908],[78.31333,13.91513],[78.30759,13.90978],[78.30293,13.90723],[78.29967,13.90296],[78.29723,13.89317],[78.29369,13.89147],[78.28854,13.893],[78.28328,13.89574],[78.27554,13.89529],[78.27726,13.89172],[78.27505,13.88691],[78.27496,13.8829],[78.27362,13.87815],[78.27,13.87405],[78.2682,13.86798],[78.26577,13.86496],[78.26535,13.8587],[78.261,13.85736],[78.25846,13.85474],[78.24581,13.85077],[78.24425,13.84676],[78.24988,13.83971],[78.25427,13.83268],[78.25558,13.8271],[78.2542,13.81701],[78.2561,13.80656],[78.25941,13.80269],[78.26248,13.79721],[78.25738,13.79157],[78.24147,13.78332],[78.22972,13.7802],[78.22274,13.78151],[78.20709,13.78232],[78.20195,13.78534],[78.18924,13.7874],[78.16827,13.78399],[78.15802,13.78579],[78.14456,13.78182],[78.13494,13.78321],[78.12728,13.78562],[78.1242,13.79638],[78.11801,13.80703],[78.11665,13.81226],[78.12624,13.83044],[78.12247,13.84952],[78.11495,13.86214],[78.10626,13.86135],[78.09723,13.86348],[78.08375,13.86346],[78.07972,13.88047],[78.07675,13.88302],[78.06913,13.88526],[78.06346,13.88782],[78.05705,13.89298],[78.04985,13.89515],[78.05144,13.88183],[78.05166,13.87225],[78.05009,13.86652],[78.04658,13.86132],[78.0243,13.8628],[78.01904,13.8649],[78.01344,13.87011],[78.00013,13.87077],[77.99378,13.87003],[77.99089,13.86516],[77.98987,13.85716],[77.97902,13.83501],[77.97442,13.82853],[77.95318,13.8283],[77.95673,13.83313],[77.95663,13.83768],[77.95428,13.84811],[77.95033,13.87931],[77.95096,13.88849],[77.95803,13.89273],[77.98016,13.89689],[77.98658,13.90165],[77.98319,13.91361],[77.98312,13.92053],[77.98187,13.92814],[77.98201,13.9325],[77.98643,13.94587],[77.98707,13.95589],[77.97487,13.95877],[77.96971,13.95817],[77.96374,13.95012],[77.96271,13.94526],[77.9592,13.93615],[77.9575,13.93495],[77.95445,13.93663],[77.94727,13.93281],[77.94406,13.92611],[77.93815,13.91701],[77.92823,13.90689],[77.92001,13.90542],[77.91433,13.90761],[77.90882,13.91049],[77.90404,13.91586],[77.89801,13.91947],[77.89563,13.92584],[77.89615,13.93582],[77.89528,13.93927],[77.87067,13.93485],[77.86228,13.93512],[77.85419,13.93634],[77.83827,13.93513],[77.82973,13.93851],[77.8264,13.94284],[77.82234,13.93895],[77.8166,13.93054],[77.81447,13.92551],[77.81448,13.91661],[77.81551,13.91121],[77.81922,13.90269],[77.82285,13.89911],[77.82917,13.89725],[77.83324,13.88793],[77.83549,13.87965],[77.82742,13.87406],[77.83597,13.86868],[77.81902,13.86015],[77.81606,13.85471],[77.81099,13.84871],[77.80272,13.84898],[77.79455,13.84793],[77.78421,13.8439],[77.78225,13.83972],[77.78562,13.83206],[77.78848,13.82803],[77.78863,13.8247],[77.78669,13.82092],[77.77739,13.81655],[77.76348,13.81552],[77.75631,13.81418],[77.74915,13.81175],[77.74169,13.81138],[77.73652,13.80968],[77.72657,13.80066],[77.72093,13.79844],[77.72323,13.7912],[77.72085,13.78266],[77.72231,13.76875],[77.72127,13.75871],[77.7216,13.75412],[77.71916,13.74569],[77.71691,13.74071],[77.71551,13.74215],[77.71033,13.73896],[77.7036,13.76935],[77.69274,13.76653],[77.68686,13.76356],[77.67652,13.76017],[77.67171,13.76013],[77.6778,13.77044],[77.67976,13.778],[77.67821,13.78535],[77.67198,13.78371],[77.66454,13.7845],[77.65702,13.78366],[77.62222,13.76808],[77.61834,13.76321],[77.62053,13.75465],[77.64169,13.74912],[77.64471,13.74308],[77.64153,13.74068],[77.63647,13.73777],[77.62919,13.73522],[77.62356,13.73617],[77.61212,13.75033],[77.60344,13.75134],[77.59473,13.74454],[77.58938,13.73831],[77.58144,13.73438],[77.57441,13.73711],[77.56386,13.72417],[77.55589,13.7281],[77.55287,13.73586],[77.54927,13.7426],[77.54719,13.75138],[77.53716,13.75348],[77.52731,13.75146],[77.52276,13.74465],[77.53036,13.73871],[77.53427,13.73289],[77.53524,13.72669],[77.53555,13.7147],[77.53328,13.70488],[77.52926,13.69555],[77.52004,13.69334],[77.51565,13.69646],[77.51461,13.70031],[77.51447,13.70811],[77.51044,13.71204],[77.49495,13.71439],[77.48732,13.7108],[77.49,13.70642],[77.49115,13.6993],[77.49277,13.69431],[77.49057,13.68731],[77.48411,13.68521],[77.4573,13.68335],[77.45233,13.70329],[77.45352,13.70816],[77.46093,13.71164],[77.46436,13.72017],[77.46557,13.73056],[77.4656,13.73785],[77.46755,13.74141],[77.47011,13.75109],[77.46959,13.75655],[77.4662,13.75731],[77.46137,13.7855],[77.4598,13.78786],[77.45817,13.79297],[77.46013,13.79877],[77.46485,13.80449],[77.46298,13.80725],[77.45412,13.80946],[77.44791,13.80971],[77.44279,13.80663],[77.436,13.79541],[77.42738,13.79635],[77.42417,13.79832],[77.42682,13.80318],[77.42654,13.80709],[77.42196,13.80756],[77.41885,13.80625],[77.41592,13.8066],[77.41547,13.80982],[77.42093,13.81474],[77.42001,13.8191],[77.42231,13.82271],[77.43198,13.83404],[77.43351,13.83708],[77.43177,13.84248],[77.42598,13.84087],[77.41113,13.83873],[77.40638,13.83972],[77.39699,13.84022],[77.38825,13.83852],[77.37997,13.83855],[77.38023,13.84544],[77.37462,13.85045],[77.36653,13.85288],[77.35925,13.85159],[77.35401,13.84678],[77.34689,13.84204],[77.34171,13.83661],[77.33424,13.83198],[77.32698,13.83292],[77.32309,13.84688],[77.31779,13.85826],[77.31381,13.86435],[77.30289,13.86065],[77.29654,13.85711],[77.29236,13.85312],[77.28977,13.84807],[77.28197,13.84987],[77.26272,13.84649],[77.25719,13.8465],[77.25977,13.86314],[77.25045,13.86729],[77.24742,13.87286],[77.24592,13.88056],[77.24548,13.88848],[77.2482,13.89582],[77.24675,13.90104],[77.24047,13.90187],[77.23208,13.9024],[77.22849,13.89576],[77.22752,13.8887],[77.22361,13.8762],[77.21813,13.86836],[77.21473,13.86734],[77.21543,13.88535],[77.2115,13.88806],[77.20914,13.88175],[77.20753,13.87343],[77.20346,13.86645],[77.19928,13.86313],[77.18532,13.86672],[77.18164,13.86828],[77.18472,13.87826],[77.18609,13.8852],[77.1857,13.89014],[77.18783,13.89805],[77.18869,13.90815],[77.18807,13.91761],[77.18345,13.92423],[77.17647,13.92315],[77.16594,13.91526],[77.16234,13.90661],[77.16343,13.89811],[77.16815,13.88926],[77.16883,13.88312],[77.17139,13.87307],[77.16896,13.86384],[77.15464,13.86663],[77.14579,13.86585],[77.13655,13.85675],[77.13028,13.85619],[77.13166,13.84982],[77.1469,13.84473],[77.15223,13.84179],[77.15437,13.83571],[77.1644,13.83235],[77.16879,13.82763],[77.16848,13.82235],[77.16272,13.81824],[77.16189,13.81429],[77.16287,13.81066],[77.16063,13.80746],[77.16227,13.80504],[77.16255,13.80022],[77.16505,13.79402],[77.17066,13.78729],[77.17581,13.78251],[77.17797,13.779],[77.17629,13.76834],[77.17322,13.76163],[77.16477,13.76188],[77.15334,13.76168],[77.14407,13.76257],[77.14066,13.75994],[77.13003,13.75778],[77.11743,13.76149],[77.10167,13.76772],[77.09216,13.76493],[77.09162,13.76137],[77.08676,13.76024],[77.08568,13.75284],[77.087,13.74422],[77.07786,13.74556],[77.06637,13.74565],[77.06105,13.75128],[77.05363,13.76284],[77.04141,13.776],[77.03256,13.77815],[77.02605,13.77655],[77.02463,13.7684],[77.02005,13.75418],[77.01762,13.73943],[77.00812,13.74335],[77.00006,13.74819],[76.99873,13.74922],[76.99781,13.752],[76.99826,13.75618],[76.99626,13.75976],[76.99507,13.76684],[76.99243,13.77316],[76.99043,13.7832],[76.98727,13.79241],[76.99091,13.79532],[76.99183,13.79962],[76.98975,13.81079],[76.98605,13.81378],[76.9748,13.81681],[76.97437,13.82096],[76.97751,13.82544],[76.98251,13.82793],[76.98997,13.83432],[76.99223,13.8458],[76.99592,13.84609],[77.00012,13.84555],[77.01201,13.85669],[77.01314,13.86076],[77.01404,13.86949],[77.01832,13.87068],[77.01863,13.87383],[77.0177,13.87803],[77.02261,13.89431],[77.02326,13.89994],[77.03383,13.90376],[77.04733,13.90401],[77.04185,13.93217],[77.02455,13.94132],[77.0199,13.946],[77.01399,13.95388],[77.00528,13.95693],[77.00091,13.9592],[77.00016,13.95986],[76.99482,13.96315],[76.996,13.97673],[76.99712,13.98226],[77.00017,13.98794],[76.99078,13.99394],[76.98308,14.00027],[76.98338,14.00026],[76.9809,14.00299],[76.96989,14.00861],[76.95419,14.01312],[76.95035,14.01701],[76.94792,14.0218],[76.94635,14.02692],[76.93665,14.02903],[76.93925,14.04696],[76.9435,14.05389],[76.94883,14.05351],[76.9553,14.05415],[76.97715,14.05873],[76.97983,14.06404],[76.98063,14.0716],[76.97786,14.07472],[76.97744,14.08203],[76.97367,14.08604],[76.96568,14.08926],[76.95696,14.09164],[76.95181,14.09152],[76.95405,14.09767],[76.95372,14.10283],[76.95206,14.10921],[76.94838,14.11813],[76.94283,14.12137],[76.93236,14.13339],[76.9278,14.13522],[76.92248,14.13065],[76.91787,14.12828],[76.90377,14.13302],[76.89619,14.13397],[76.88894,14.13714],[76.89218,14.14235],[76.89443,14.15698],[76.89667,14.1651],[76.90201,14.168],[76.9225,14.16382],[76.9283,14.16954],[76.94235,14.17205],[76.94462,14.17388],[76.94689,14.18419],[76.94458,14.19295],[76.947,14.19546],[76.94941,14.19447],[76.95445,14.18998],[76.95918,14.18721],[76.96392,14.1817],[76.97112,14.18052],[76.97823,14.18051],[76.98369,14.17914],[76.99178,14.17877],[76.99992,14.18],[77.01162,14.18112],[77.01962,14.17932],[77.02544,14.17899],[77.02697,14.1747],[77.0267,14.17063],[77.02165,14.159],[77.02059,14.13851],[77.01946,14.13373],[77.02486,14.13164],[77.02594,14.12866],[77.02203,14.12387],[77.02272,14.1183],[77.02228,14.11245],[77.01399,14.10448],[77.01613,14.09842],[77.02043,14.09507],[77.02974,14.08976],[77.0303,14.08358],[77.02601,14.06785],[77.02949,14.05969],[77.03429,14.05841],[77.04068,14.05788],[77.04906,14.05812],[77.05707,14.05606],[77.07496,14.05368],[77.07547,14.04596],[77.08245,14.04458],[77.09676,14.04481],[77.10269,14.04726],[77.11001,14.04714],[77.11621,14.04862],[77.12719,14.04878],[77.1308,14.04135],[77.13398,14.02527],[77.14021,14.01632],[77.13905,14.01087],[77.14053,14.0048],[77.14571,14.00386],[77.15061,14.00021],[77.15083,14.00021],[77.15358,13.99831],[77.16069,13.99731],[77.16462,14.00023],[77.16443,14.00023],[77.16905,14.00448],[77.16794,14.01295],[77.17767,14.01532],[77.20092,14.00962],[77.21408,14.01166],[77.22527,14.01471],[77.23371,14.01477],[77.24906,14.01315],[77.26227,14.02782],[77.27104,14.03339],[77.27806,14.03498],[77.28077,14.02307],[77.27918,14.01491],[77.28509,14.0138],[77.2918,14.01844],[77.29891,14.02142],[77.30466,14.02995],[77.31019,14.03366],[77.32016,14.03177],[77.32317,14.02841],[77.32371,14.02228],[77.32693,14.01622],[77.33082,14.01229],[77.33688,14.00189],[77.33642,14.00036],[77.33652,14.00035],[77.3371,13.99737],[77.34026,13.99507],[77.35246,13.99263],[77.36061,13.98938],[77.36024,13.98336],[77.35379,13.96766],[77.35406,13.96244],[77.35059,13.95797],[77.36894,13.95258],[77.36952,13.94942],[77.35955,13.93557],[77.34952,13.91936],[77.35044,13.91311],[77.35283,13.91046],[77.35528,13.90368],[77.36584,13.90273],[77.39748,13.90491],[77.39895,13.88713],[77.40337,13.88769],[77.40417,13.88778],[77.41564,13.89607],[77.42611,13.90218],[77.43277,13.90932],[77.43456,13.9165],[77.42963,13.91921],[77.41726,13.92183],[77.41553,13.92884],[77.41475,13.94331],[77.42967,13.94623],[77.43579,13.95058],[77.43613,13.9636],[77.43797,13.96922],[77.4377,13.97599],[77.43366,13.98048],[77.42752,13.98405],[77.41718,13.98409],[77.39346,13.98113],[77.38259,13.97623],[77.37961,13.98261],[77.3801,13.98881],[77.38676,14.00038],[77.39026,14.01445],[77.38193,14.01916],[77.36915,14.02304],[77.35688,14.02348],[77.35081,14.02607],[77.3329,14.02991],[77.33796,14.04681],[77.34123,14.05475],[77.34466,14.06079],[77.35685,14.06036],[77.36531,14.06592],[77.36811,14.07294],[77.37914,14.07885],[77.38641,14.09738],[77.39245,14.10046],[77.40223,14.11044],[77.4032,14.11756],[77.4012,14.12163],[77.39649,14.12555],[77.38708,14.1236],[77.37995,14.11954],[77.36561,14.11565],[77.35911,14.11228],[77.35517,14.10618],[77.35121,14.10294],[77.35314,14.11735],[77.35315,14.12475],[77.35436,14.13124],[77.3615,14.13066],[77.37167,14.13405],[77.38337,14.13654],[77.38542,14.14522],[77.38931,14.15465],[77.39625,14.16048],[77.39639,14.17219],[77.40416,14.17344],[77.41644,14.17668],[77.42306,14.17626],[77.43025,14.17206],[77.46077,14.17002],[77.4702,14.17128],[77.49551,14.16019],[77.50744,14.15809],[77.50967,14.16425],[77.51378,14.17138],[77.51734,14.17915],[77.5164,14.18408],[77.5111,14.18776],[77.50802,14.20031],[77.50662,14.21155],[77.49997,14.22102],[77.49974,14.2271],[77.49694,14.23466],[77.50315,14.24743],[77.50566,14.25656],[77.50621,14.26753],[77.50308,14.27874],[77.49895,14.27826],[77.49117,14.28223],[77.48611,14.29172],[77.48588,14.29068],[77.47516,14.28637],[77.4614,14.27911],[77.45028,14.28444],[77.44909,14.29779],[77.44897,14.3166],[77.43412,14.31169],[77.43242,14.32762],[77.42726,14.3288],[77.4158,14.33388],[77.40135,14.33591],[77.39211,14.33161],[77.38527,14.32382],[77.3803,14.31186],[77.38146,14.30194],[77.38768,14.28977],[77.39157,14.27925],[77.39087,14.27241],[77.39641,14.26821],[77.40759,14.26724],[77.41137,14.25546],[77.41279,14.24359],[77.41569,14.23048],[77.42138,14.22397],[77.42237,14.21888],[77.42157,14.21015],[77.39787,14.19779],[77.39041,14.19871],[77.38671,14.20941],[77.38822,14.21704],[77.38319,14.22356],[77.37083,14.23013],[77.3619,14.23684],[77.36572,14.2504],[77.36473,14.26708],[77.3657,14.27609],[77.35984,14.27743],[77.34977,14.27725],[77.32693,14.28013],[77.31379,14.2805],[77.30172,14.28311],[77.29174,14.28138],[77.28582,14.2827],[77.28811,14.29706],[77.28888,14.30889],[77.2873,14.33767],[77.27943,14.33829],[77.27345,14.33355],[77.26395,14.33222],[77.25738,14.32712],[77.25117,14.32105],[77.23801,14.31757],[77.22893,14.32145],[77.21577,14.31946],[77.20228,14.32074],[77.18539,14.33276],[77.18261,14.33268],[77.17772,14.3366],[77.17004,14.33683],[77.16556,14.34259],[77.15792,14.34408],[77.15223,14.33852],[77.14629,14.34243],[77.14128,14.34032],[77.13764,14.3369],[77.13836,14.33037],[77.13668,14.32013],[77.13153,14.30786],[77.12305,14.29774],[77.11765,14.29385],[77.11629,14.28127],[77.11268,14.2681],[77.1213,14.26318],[77.11735,14.25483],[77.11879,14.24629],[77.11627,14.23836],[77.11577,14.22786],[77.11089,14.21967],[77.101,14.21586],[77.09063,14.21482],[77.08107,14.21569],[77.07331,14.22419],[77.06589,14.23046],[77.06096,14.23859],[77.05523,14.24581],[77.04623,14.24702],[77.0386,14.24673],[77.03012,14.24291],[77.01801,14.2413],[77.0096,14.23778],[77.00002,14.24175],[76.99824,14.23917],[76.99481,14.24258],[76.98789,14.24431],[76.98101,14.24357],[76.97511,14.24136],[76.96693,14.24203],[76.95671,14.24027],[76.94875,14.24242],[76.94311,14.2462],[76.94125,14.25485],[76.93886,14.25958],[76.93103,14.27045],[76.93004,14.27822],[76.94071,14.28268],[76.949,14.28774],[76.95399,14.29282],[76.95535,14.30009],[76.95193,14.30649],[76.94814,14.31142],[76.94175,14.31443],[76.92829,14.31565],[76.92192,14.31825],[76.91125,14.3213],[76.90402,14.32519],[76.89035,14.3455],[76.88405,14.35228],[76.88356,14.35727],[76.88804,14.39614],[76.89169,14.3983],[76.89726,14.39873],[76.90158,14.40034],[76.90613,14.40419],[76.91807,14.41942],[76.92396,14.41733],[76.94184,14.40723],[76.94665,14.40546],[76.94867,14.40919],[76.94975,14.41484],[76.94937,14.43114],[76.94774,14.44573],[76.94883,14.45098],[76.96366,14.4513],[76.96943,14.45765],[76.97929,14.47627],[76.97848,14.48418],[76.97416,14.48498],[76.96084,14.48546],[76.9504,14.488],[76.91138,14.48994],[76.89911,14.48652],[76.8903,14.48171],[76.8851,14.47629],[76.87497,14.47419],[76.86856,14.4804],[76.86516,14.49284],[76.8589,14.50457],[76.84856,14.51481],[76.83668,14.52071],[76.83299,14.52786],[76.83215,14.52868],[76.82427,14.52595],[76.81539,14.5294],[76.80959,14.53046],[76.80421,14.53331],[76.79915,14.54628],[76.79057,14.55859],[76.78844,14.5675],[76.78251,14.58482],[76.78062,14.5958],[76.77866,14.59604],[76.77705,14.59267],[76.76519,14.60173],[76.76445,14.60745],[76.76725,14.61735],[76.77372,14.66171],[76.7755,14.67922],[76.7853,14.69585],[76.78975,14.71246],[76.80229,14.73995],[76.79922,14.74648],[76.79233,14.75716],[76.79059,14.76722],[76.78542,14.77962],[76.78447,14.78454],[76.81519,14.78675],[76.82095,14.78782],[76.82158,14.79077],[76.82496,14.79195],[76.83067,14.79233],[76.83564,14.78946],[76.83805,14.79027],[76.83923,14.80547],[76.84148,14.80948],[76.8512,14.80767],[76.85305,14.80938],[76.8539,14.81715],[76.85283,14.81959],[76.84873,14.82093],[76.84726,14.82963],[76.8445,14.8334],[76.84434,14.83535],[76.84861,14.83857],[76.85365,14.84403],[76.85837,14.86667],[76.85592,14.86782],[76.85511,14.87814],[76.85327,14.8852],[76.84745,14.88673],[76.84797,14.89168],[76.85034,14.89559],[76.86454,14.89646],[76.86697,14.90704],[76.86812,14.917],[76.86772,14.9209],[76.86968,14.94283],[76.86785,14.96042],[76.86863,14.96922],[76.84527,14.96633],[76.83996,14.96425],[76.83663,14.95864],[76.83197,14.95617],[76.82771,14.95876],[76.82432,14.96431],[76.81948,14.96895],[76.80085,14.96802],[76.77597,14.9737],[76.76762,14.97492],[76.7657,14.98033],[76.76246,14.9845],[76.76081,14.988],[76.76306,14.9901],[76.76619,14.99449],[76.76902,14.9941],[76.77006,14.99585],[76.7719,15.00067],[76.77338,15.00561],[76.7836,15.01093],[76.78843,15.0217],[76.78564,15.02836],[76.78462,15.03924],[76.77883,15.04894],[76.77492,15.05907],[76.7746,15.06326],[76.77634,15.07008],[76.77952,15.07412],[76.77798,15.07635],[76.78014,15.07825],[76.78239,15.07654],[76.78771,15.08063],[76.78603,15.08378],[76.78801,15.08574],[76.79136,15.0854],[76.80077,15.09571],[76.81577,15.08523],[76.82519,15.07987],[76.83338,15.07932],[76.84138,15.07752],[76.84719,15.07122],[76.86462,15.06181],[76.86814,15.0551],[76.87385,15.04915],[76.88083,15.03383],[76.89285,15.03692],[76.9004,15.03706],[76.90966,15.03449],[76.91778,15.03615],[76.92361,15.03373],[76.93597,15.03154],[76.94708,15.03228],[76.95502,15.02969],[76.97121,15.01847],[76.98624,15.01568],[76.98797,15.02574],[77.00016,15.029],[77.00313,15.03239],[77.00518,15.03493],[77.01381,15.03492],[77.02753,15.03302],[77.04206,15.03296],[77.05151,15.0346],[77.05343,15.02926],[77.05104,15.02144],[77.04565,15.0109],[77.05559,15.00973],[77.06618,15.00701],[77.07332,15.00657],[77.08357,15.00549],[77.08525,15.01337],[77.08682,15.02775],[77.09302,15.02851],[77.09554,15.03318],[77.10647,15.03282],[77.11438,15.03407],[77.11642,15.04361],[77.12088,15.04559],[77.1232,15.05611],[77.12573,15.06055],[77.13033,15.07368],[77.1324,15.09909],[77.14419,15.10533],[77.15254,15.11279],[77.15887,15.12597],[77.15757,15.13706],[77.16126,15.14528],[77.17712,15.14207],[77.18208,15.14232],[77.18787,15.15493],[77.19248,15.15632],[77.19484,15.15616],[77.19749,15.15847],[77.20382,15.15723],[77.21465,15.15359],[77.21484,15.15146],[77.2214,15.14977],[77.22183,15.14712],[77.2287,15.14462],[77.23869,15.14299],[77.25257,15.14292],[77.26021,15.14151],[77.26536,15.14136],[77.26998,15.13712],[77.27184,15.12966],[77.27863,15.13095],[77.29382,15.13037],[77.29897,15.14251],[77.30218,15.15258],[77.31057,15.15318],[77.32082,15.1754],[77.33992,15.17489],[77.35197,15.17579],[77.35433,15.19332],[77.3565,15.19638],[77.35666,15.19983],[77.35926,15.20087],[77.36096,15.20496],[77.36586,15.22129],[77.37307,15.22039],[77.38646,15.21624],[77.39697,15.21662],[77.40536,15.2178],[77.40936,15.22258],[77.42568,15.22234],[77.43243,15.21967],[77.43446,15.21547],[77.43566,15.20841],[77.45287,15.20473],[77.44824,15.21092],[77.45154,15.21305],[77.4527,15.21995],[77.46933,15.21391],[77.47928,15.20917],[77.48419,15.20804],[77.48666,15.21103],[77.49865,15.21417],[77.50018,15.21836],[77.50495,15.22039],[77.5267,15.22287],[77.53066,15.22127],[77.54336,15.209],[77.5491,15.20638],[77.5578,15.20462],[77.5659,15.20177],[77.57271,15.1984],[77.58214,15.18791],[77.58759,15.18419],[77.59694,15.18186],[77.61249,15.18154],[77.61679,15.20385],[77.63594,15.20603],[77.64068,15.22104],[77.64399,15.2215],[77.65101,15.22445],[77.652,15.22934],[77.66234,15.23172],[77.66938,15.23139],[77.67629,15.22951],[77.67896,15.22537],[77.6791,15.21917],[77.68533,15.21316],[77.68994,15.21225],[77.69155,15.20875],[77.69634,15.20708],[77.69924,15.20348],[77.70044,15.19998],[77.69809,15.19543],[77.69617,15.18249],[77.69996,15.17969],[77.70912,15.18114],[77.71284,15.18449],[77.71711,15.17857],[77.72121,15.17094],[77.73191,15.16895],[77.73321,15.14878],[77.74788,15.14261],[77.75105,15.12785],[77.77459,15.12232],[77.77332,15.11186],[77.77864,15.1102],[77.78235,15.10878],[77.78684,15.10763],[77.78969,15.1049],[77.79359,15.10379],[77.79941,15.11447],[77.80366,15.11834],[77.81109,15.12256],[77.81404,15.12546],[77.81455,15.13332],[77.81873,15.14029],[77.82393,15.14013],[77.84065,15.14245],[77.84239,15.13034],[77.84901,15.12904],[77.85604,15.13314],[77.87618,15.13396],[77.88102,15.14288],[77.88833,15.17515],[77.89484,15.17653],[77.90371,15.17615],[77.91423,15.17307],[77.92116,15.17012],[77.9214,15.16684],[77.92377,15.16339],[77.92508,15.15793],[77.92238,15.15189],[77.92616,15.15058],[77.92634,15.1488],[77.91519,15.14069],[77.91236,15.13522],[77.91645,15.13019],[77.91604,15.12856],[77.90936,15.12858],[77.9086,15.12323],[77.91316,15.12196],[77.91735,15.11927],[77.93528,15.11071],[77.96525,15.10275],[77.96795,15.11412],[77.96947,15.12391],[77.97677,15.13744],[77.99281,15.13637],[77.99813,15.13538],[78.00013,15.13214],[78.01027,15.12375],[78.01786,15.11972],[78.02529,15.11426],[78.02559,15.10267],[78.0251,15.09485],[78.02244,15.0882],[78.01506,15.07666],[78.00942,15.07382],[78.00289,15.07226],[78.00015,15.07237],[77.99477,15.07516],[77.99382,15.06889],[77.99786,15.06526],[77.99593,15.06388],[77.99404,15.05095],[77.99606,15.04648],[78.00015,15.04456],[78.00547,15.05162],[78.01383,15.05768],[78.01645,15.05498],[78.01745,15.04977],[78.01956,15.02527],[78.02403,15.01891],[78.03557,15.00757],[78.04557,15.00008],[78.06178,14.99472],[78.09086,14.98118],[78.09544,14.97596],[78.10352,14.96932],[78.12552,14.96619],[78.14142,14.95626],[78.14451,14.94812],[78.14427,14.9453]]]}}]}