{"type":"FeatureCollection","features":[{"type":"Feature","properties":{"id":"mahbubnagar","name":"Mahbubnagar","stateId":"andhra-pradesh","stateName":"Andhra Pradesh","censuscode":538,"type":"district"},"geometry":{"type":"Polygon","coordinates":[[[78.70168,16.933],[78.71817,16.92674],[78.73322,16.92008],[78.75034,16.90985],[78.74174,16.90013],[78.73107,16.88165],[78.72799,16.87128],[78.73614,16.86025],[78.75124,16.85436],[78.76107,16.86609],[78.77038,16.87467],[78.77804,16.88057],[78.78453,16.86809],[78.78431,16.8582],[78.77814,16.84394],[78.7844,16.838],[78.79357,16.82615],[78.80441,16.82295],[78.80256,16.81408],[78.7954,16.80539],[78.79723,16.79188],[78.7972,16.77929],[78.79297,16.76059],[78.78873,16.75292],[78.78227,16.74674],[78.77726,16.74486],[78.76276,16.74474],[78.75874,16.73787],[78.76324,16.72723],[78.75748,16.70669],[78.74813,16.70394],[78.74058,16.69982],[78.72724,16.68728],[78.71863,16.68087],[78.71197,16.66936],[78.71738,16.6486],[78.70138,16.64893],[78.68969,16.64818],[78.67983,16.64927],[78.67399,16.64846],[78.67765,16.63862],[78.68498,16.62335],[78.69575,16.61964],[78.71084,16.59648],[78.71811,16.58132],[78.70966,16.5701],[78.70226,16.56318],[78.69505,16.56122],[78.68521,16.55349],[78.67976,16.55572],[78.67845,16.56367],[78.67346,16.56928],[78.67111,16.56378],[78.66888,16.5545],[78.66641,16.5419],[78.65671,16.54721],[78.63951,16.55023],[78.63687,16.53752],[78.63522,16.53501],[78.62796,16.53339],[78.62338,16.53053],[78.6182,16.52898],[78.61414,16.52315],[78.61775,16.51902],[78.63141,16.52579],[78.63661,16.52442],[78.64775,16.53393],[78.65966,16.52725],[78.6648,16.52645],[78.67349,16.52807],[78.67906,16.53333],[78.68249,16.5378],[78.6936,16.53501],[78.71804,16.5377],[78.74935,16.53577],[78.75854,16.5359],[78.76631,16.53401],[78.77259,16.53098],[78.77871,16.52561],[78.79451,16.51634],[78.80482,16.51771],[78.82542,16.53276],[78.83579,16.54209],[78.84476,16.5474],[78.85619,16.55044],[78.86199,16.54952],[78.87043,16.54409],[78.87372,16.54282],[78.88812,16.54768],[78.90684,16.55036],[78.91291,16.55036],[78.92487,16.53628],[78.92828,16.52387],[78.9322,16.51746],[78.96265,16.50067],[78.98106,16.49397],[79.00011,16.49522],[79.0172,16.48984],[79.06902,16.46044],[79.09884,16.43946],[79.11802,16.42303],[79.15375,16.40528],[79.19118,16.38185],[79.21931,16.36975],[79.23113,16.35733],[79.23574,16.34381],[79.23776,16.30729],[79.23303,16.25721],[79.22667,16.24678],[79.21548,16.23781],[79.19996,16.22984],[79.18453,16.22424],[79.17065,16.22733],[79.15907,16.23168],[79.15036,16.23631],[79.14103,16.24339],[79.13085,16.2449],[79.07636,16.24504],[79.06181,16.24944],[79.05025,16.2518],[79.03863,16.25258],[79.02782,16.25109],[79.01784,16.24726],[79.00008,16.2351],[78.98569,16.22985],[78.96662,16.22398],[78.94868,16.21655],[78.93307,16.20907],[78.91563,16.19776],[78.91301,16.18861],[78.91317,16.17168],[78.92848,16.1405],[78.9295,16.12872],[78.92491,16.12037],[78.92098,16.11569],[78.91811,16.11208],[78.90881,16.10448],[78.89668,16.1054],[78.88025,16.11696],[78.87696,16.1284],[78.87557,16.142],[78.87385,16.15059],[78.87046,16.1598],[78.86394,16.16529],[78.85376,16.16621],[78.84532,16.1634],[78.83959,16.15843],[78.83798,16.14882],[78.83876,16.13967],[78.84145,16.12686],[78.84562,16.11759],[78.84781,16.10958],[78.84691,16.101],[78.84405,16.09415],[78.8291,16.06898],[78.82131,16.05897],[78.81552,16.05297],[78.79754,16.03947],[78.78255,16.03037],[78.7614,16.02774],[78.74642,16.02785],[78.73338,16.02973],[78.72105,16.03332],[78.6939,16.04698],[78.68229,16.0556],[78.67564,16.06234],[78.665,16.07795],[78.65392,16.0892],[78.64368,16.09789],[78.62416,16.1053],[78.61062,16.10282],[78.59969,16.09361],[78.58353,16.07672],[78.5742,16.06824],[78.56621,16.06274],[78.55396,16.06255],[78.53988,16.06864],[78.52784,16.07137],[78.50255,16.07933],[78.45788,16.0872],[78.42776,16.08896],[78.41243,16.08704],[78.39098,16.0779],[78.37675,16.06591],[78.3598,16.06056],[78.34709,16.0588],[78.3378,16.05312],[78.33022,16.04326],[78.32287,16.03518],[78.29879,16.03449],[78.28763,16.03806],[78.27471,16.0407],[78.2632,16.03723],[78.25791,16.03162],[78.26524,16.01105],[78.26632,16.00072],[78.25953,15.98445],[78.25767,15.97686],[78.25494,15.97432],[78.25394,15.96608],[78.2506,15.95299],[78.24946,15.9431],[78.24455,15.93511],[78.23445,15.92952],[78.21194,15.92308],[78.20319,15.91825],[78.18652,15.90645],[78.1857,15.90096],[78.188,15.89368],[78.18561,15.88581],[78.18035,15.87856],[78.17718,15.87247],[78.17519,15.85922],[78.17119,15.85504],[78.15743,15.85507],[78.15489,15.85599],[78.14439,15.85624],[78.13227,15.85493],[78.13335,15.84093],[78.12624,15.83628],[78.11601,15.83318],[78.10756,15.8339],[78.06998,15.85047],[78.06476,15.8563],[78.05512,15.87659],[78.04694,15.87803],[78.04604,15.90389],[78.04248,15.90786],[78.03497,15.90845],[78.03043,15.90435],[78.02313,15.90091],[78.0209,15.89457],[78.01278,15.87774],[78.00804,15.86501],[77.99977,15.86675],[77.97896,15.87983],[77.96915,15.8816],[77.95004,15.88058],[77.93428,15.88216],[77.91348,15.89049],[77.89355,15.90148],[77.88224,15.90154],[77.87277,15.89793],[77.86149,15.8813],[77.85593,15.87935],[77.84556,15.87946],[77.83964,15.88101],[77.8311,15.87929],[77.82348,15.87498],[77.81496,15.87252],[77.80489,15.87079],[77.79547,15.87205],[77.78456,15.87473],[77.77584,15.87869],[77.76565,15.88219],[77.75522,15.88126],[77.74437,15.88388],[77.73749,15.88755],[77.73038,15.89012],[77.72161,15.89189],[77.71279,15.88941],[77.70492,15.88574],[77.69795,15.88062],[77.68895,15.87918],[77.6643,15.88177],[77.65357,15.88416],[77.64491,15.88834],[77.63732,15.89699],[77.63099,15.90429],[77.62406,15.90891],[77.61907,15.91297],[77.6116,15.91685],[77.6039,15.91385],[77.5936,15.9121],[77.58524,15.9153],[77.57675,15.9174],[77.55389,15.91871],[77.53676,15.92113],[77.51441,15.92584],[77.51953,15.94839],[77.52084,15.96239],[77.51982,15.96807],[77.51394,15.97235],[77.51042,15.97757],[77.5104,15.98365],[77.51329,16.00071],[77.51498,16.00711],[77.50656,16.01039],[77.50514,16.01619],[77.50343,16.01872],[77.50367,16.02199],[77.4969,16.03038],[77.49554,16.03544],[77.50049,16.0525],[77.4993,16.05456],[77.50103,16.05956],[77.50435,16.05904],[77.50775,16.07799],[77.49779,16.08437],[77.49767,16.08851],[77.50267,16.10195],[77.50826,16.10625],[77.5142,16.10826],[77.50749,16.11418],[77.5002,16.11935],[77.49497,16.12085],[77.49141,16.12045],[77.49331,16.13113],[77.4928,16.15204],[77.4915,16.15772],[77.4883,16.16318],[77.49306,16.18328],[77.49961,16.19172],[77.49961,16.19994],[77.49838,16.21074],[77.49998,16.21757],[77.50701,16.22027],[77.51348,16.21952],[77.51586,16.22176],[77.51545,16.22791],[77.5069,16.22935],[77.49827,16.22757],[77.4934,16.22889],[77.49354,16.24635],[77.49217,16.25433],[77.5036,16.26237],[77.50484,16.26519],[77.50587,16.27231],[77.51776,16.27524],[77.524,16.27541],[77.52912,16.27431],[77.53053,16.27156],[77.5385,16.26718],[77.54447,16.28717],[77.54792,16.29159],[77.55423,16.29521],[77.56976,16.30227],[77.57404,16.29933],[77.57914,16.29352],[77.5855,16.29065],[77.59513,16.29144],[77.5971,16.29471],[77.59318,16.30023],[77.59581,16.30919],[77.59565,16.31654],[77.59144,16.325],[77.58918,16.33258],[77.5964,16.34205],[77.59122,16.34246],[77.57659,16.34046],[77.55924,16.34604],[77.55418,16.34915],[77.54901,16.35421],[77.5398,16.35738],[77.53326,16.36278],[77.52346,16.3745],[77.51471,16.37456],[77.49902,16.38014],[77.48587,16.3821],[77.46576,16.37975],[77.45339,16.3801],[77.4425,16.37872],[77.43958,16.37694],[77.43215,16.36936],[77.42655,16.36712],[77.41608,16.36694],[77.40543,16.37028],[77.3924,16.37602],[77.37742,16.38411],[77.35672,16.38077],[77.34708,16.38387],[77.33684,16.39243],[77.31103,16.3981],[77.29859,16.40366],[77.28865,16.40704],[77.28217,16.41473],[77.27871,16.42175],[77.27317,16.42708],[77.2683,16.43402],[77.2621,16.45126],[77.25632,16.45723],[77.23899,16.47197],[77.24268,16.4768],[77.24833,16.47612],[77.25536,16.47182],[77.28929,16.47547],[77.29595,16.4776],[77.29976,16.4853],[77.30083,16.48984],[77.30059,16.49541],[77.31309,16.4933],[77.31762,16.49151],[77.32845,16.48492],[77.33399,16.48469],[77.34773,16.48608],[77.34768,16.48889],[77.35197,16.48953],[77.35572,16.48734],[77.36227,16.48718],[77.37042,16.48815],[77.37131,16.49097],[77.37143,16.4978],[77.37322,16.50614],[77.37703,16.51004],[77.38322,16.51475],[77.38531,16.51556],[77.39287,16.51614],[77.39769,16.5189],[77.40478,16.51999],[77.4162,16.51787],[77.41955,16.52189],[77.41985,16.54803],[77.40574,16.55078],[77.40461,16.55423],[77.40122,16.55688],[77.40069,16.55952],[77.39895,16.56222],[77.39675,16.56342],[77.39444,16.56372],[77.39556,16.56916],[77.4017,16.56733],[77.40629,16.57026],[77.42147,16.56791],[77.42516,16.56917],[77.44095,16.58521],[77.44751,16.58607],[77.46067,16.58503],[77.46466,16.5875],[77.46847,16.58825],[77.46848,16.59123],[77.46562,16.59468],[77.46306,16.59606],[77.46461,16.59957],[77.46849,16.59916],[77.46896,16.60146],[77.4679,16.60882],[77.45813,16.61141],[77.45807,16.61778],[77.4598,16.62399],[77.46558,16.62875],[77.46673,16.63318],[77.47013,16.6399],[77.47561,16.64748],[77.47365,16.65087],[77.46566,16.65277],[77.45899,16.64881],[77.45273,16.64277],[77.44826,16.63973],[77.44254,16.64014],[77.43711,16.64157],[77.4404,16.64645],[77.43664,16.64698],[77.43444,16.64864],[77.43224,16.65398],[77.42533,16.65588],[77.42098,16.65863],[77.42069,16.66668],[77.44131,16.67047],[77.45061,16.67806],[77.46592,16.67627],[77.46926,16.68219],[77.47172,16.70069],[77.47167,16.70626],[77.47298,16.71259],[77.47102,16.7158],[77.46523,16.71702],[77.46047,16.71454],[77.4526,16.71742],[77.44956,16.71764],[77.44151,16.71138],[77.43739,16.71294],[77.43412,16.71552],[77.42953,16.71557],[77.42751,16.71834],[77.42822,16.72161],[77.43084,16.72218],[77.43162,16.72494],[77.43043,16.72655],[77.42978,16.73086],[77.43192,16.73328],[77.43538,16.74023],[77.43944,16.75333],[77.44131,16.76689],[77.43935,16.78137],[77.44161,16.78695],[77.44865,16.78378],[77.47149,16.78039],[77.47531,16.78292],[77.47579,16.78895],[77.47591,16.80005],[77.4699,16.80458],[77.46686,16.80826],[77.46352,16.82148],[77.46072,16.82746],[77.4645,16.8478],[77.46439,16.8582],[77.46166,16.88292],[77.45652,16.88511],[77.45629,16.88521],[77.4583,16.88975],[77.45986,16.90826],[77.45796,16.90986],[77.45742,16.91262],[77.46416,16.91653],[77.46942,16.91768],[77.4718,16.92072],[77.47192,16.92778],[77.46865,16.92848],[77.46757,16.93262],[77.47002,16.93813],[77.46835,16.94336],[77.4687,16.94992],[77.4681,16.95623],[77.47322,16.95739],[77.47779,16.96301],[77.48324,16.97158],[77.48403,16.9787],[77.4824,16.99376],[77.48603,17.0007],[77.48727,17.00219],[77.49763,17.00935],[77.50347,17.01084],[77.50226,17.0187],[77.49607,17.02514],[77.49727,17.03646],[77.4959,17.0423],[77.49079,17.04812],[77.48706,17.05687],[77.48205,17.06441],[77.47941,17.07329],[77.48183,17.07567],[77.4809,17.07962],[77.47239,17.08449],[77.4678,17.09008],[77.46423,17.09619],[77.46656,17.10741],[77.46909,17.11209],[77.47358,17.11673],[77.48161,17.11938],[77.48565,17.13378],[77.48037,17.13769],[77.47662,17.14271],[77.48061,17.14976],[77.47914,17.17456],[77.48855,17.17666],[77.49889,17.17497],[77.5065,17.17159],[77.51322,17.17365],[77.53004,17.16817],[77.53955,17.16613],[77.54523,17.15796],[77.54774,17.14472],[77.55212,17.14015],[77.56002,17.13746],[77.56937,17.13312],[77.58019,17.13011],[77.58537,17.13923],[77.58933,17.15041],[77.59649,17.15006],[77.59828,17.15066],[77.60349,17.14869],[77.60766,17.1489],[77.61267,17.14945],[77.61408,17.15228],[77.61782,17.15346],[77.62326,17.15298],[77.62084,17.15716],[77.61748,17.16706],[77.64457,17.17383],[77.64935,17.18197],[77.66617,17.18245],[77.66995,17.1803],[77.67137,17.18106],[77.6795,17.17951],[77.68497,17.17507],[77.69726,17.17626],[77.70426,17.17396],[77.70501,17.17695],[77.6983,17.18035],[77.69731,17.1843],[77.70048,17.19128],[77.69696,17.19814],[77.70408,17.20348],[77.71073,17.20049],[77.71555,17.20271],[77.72056,17.20292],[77.71921,17.20826],[77.72806,17.2059],[77.73054,17.2026],[77.7284,17.19275],[77.72869,17.18707],[77.73523,17.18207],[77.74156,17.18056],[77.73793,17.20282],[77.7352,17.20918],[77.73522,17.22176],[77.73886,17.23012],[77.74921,17.22726],[77.75523,17.22783],[77.75678,17.22146],[77.76167,17.22167],[77.76259,17.22587],[77.77321,17.22784],[77.77318,17.23118],[77.77705,17.2327],[77.7754,17.23676],[77.78014,17.23438],[77.79324,17.23063],[77.79089,17.22533],[77.78922,17.21831],[77.77804,17.2122],[77.7759,17.20942],[77.77203,17.20825],[77.76671,17.20212],[77.76747,17.19638],[77.7725,17.19412],[77.77644,17.1869],[77.77948,17.17774],[77.78271,17.17701],[77.78774,17.17378],[77.78888,17.16649],[77.78786,17.15867],[77.78808,17.15356],[77.77083,17.12908],[77.77485,17.12624],[77.77811,17.1204],[77.77677,17.11677],[77.77906,17.11351],[77.77968,17.11111],[77.76908,17.10695],[77.76152,17.08961],[77.76384,17.08198],[77.76175,17.0745],[77.75486,17.06187],[77.75834,17.05885],[77.76704,17.06041],[77.77504,17.05851],[77.7787,17.04838],[77.78821,17.04287],[77.78319,17.02882],[77.77838,17.0181],[77.76853,17.01929],[77.76305,17.0111],[77.76443,17.00329],[77.76303,17.00051],[77.76171,16.99364],[77.75774,16.98768],[77.76135,16.98233],[77.76221,16.97767],[77.75829,16.96957],[77.74916,16.95573],[77.74273,16.94925],[77.73077,16.94295],[77.73082,16.9399],[77.7403,16.938],[77.74095,16.92368],[77.74456,16.9127],[77.74143,16.90047],[77.74087,16.89282],[77.73925,16.88829],[77.73797,16.88076],[77.75843,16.87239],[77.76296,16.87227],[77.76887,16.87662],[77.77324,16.87863],[77.78237,16.87798],[77.79542,16.87462],[77.80433,16.88454],[77.8096,16.88901],[77.81413,16.88946],[77.82128,16.8841],[77.82198,16.87864],[77.82147,16.86496],[77.82791,16.86117],[77.84156,16.85676],[77.84246,16.85889],[77.84461,16.85998],[77.8495,16.8571],[77.85856,16.85443],[77.86304,16.85982],[77.86693,16.86199],[77.86859,16.85928],[77.8662,16.85578],[77.8659,16.85326],[77.87281,16.85388],[77.87664,16.8556],[77.90983,16.86126],[77.91538,16.85894],[77.91435,16.85326],[77.91768,16.85026],[77.92406,16.84743],[77.92949,16.84845],[77.93765,16.86164],[77.94171,16.86427],[77.95592,16.86751],[77.96394,16.85634],[77.9681,16.85179],[77.97245,16.84976],[77.97776,16.84985],[77.98356,16.85513],[77.98775,16.86046],[77.99077,16.87361],[77.98499,16.87874],[77.98229,16.87329],[77.97907,16.86991],[77.96911,16.86919],[77.96792,16.87236],[77.97176,16.88033],[77.96982,16.88925],[77.97662,16.89043],[77.98439,16.89661],[78.00002,16.89898],[78.01107,16.90172],[78.01471,16.90597],[78.01415,16.91168],[78.01676,16.91446],[78.01563,16.92035],[78.01355,16.92732],[78.00941,16.9348],[78.01469,16.94334],[78.01419,16.95009],[78.00002,16.95237],[77.99279,16.95572],[77.98863,16.95993],[77.99859,16.97295],[78.00002,16.97573],[78.00303,16.97803],[78.00085,16.97931],[78.00002,16.9799],[77.99726,16.98278],[77.99707,16.98938],[77.98502,16.99978],[77.9833,17.00099],[77.97834,17.00244],[77.97919,17.00831],[77.97412,17.00926],[77.96873,17.01221],[77.96236,17.01153],[77.95095,17.01588],[77.95098,17.0195],[77.94621,17.01971],[77.9404,17.02357],[77.93655,17.02832],[77.9331,17.03737],[77.93287,17.04575],[77.92543,17.05122],[77.92292,17.06235],[77.92951,17.06698],[77.93927,17.0713],[77.94335,17.07472],[77.95058,17.07378],[77.94738,17.07991],[77.93807,17.08014],[77.93465,17.0831],[77.93589,17.08575],[77.94179,17.08585],[77.94512,17.08862],[77.95358,17.09029],[77.9558,17.09742],[77.9645,17.09742],[77.97195,17.09919],[77.97739,17.09802],[77.98565,17.10272],[77.9906,17.1031],[77.99156,17.11035],[77.99374,17.1165],[77.99311,17.12081],[77.99197,17.12275],[77.99261,17.12689],[78.00022,17.13096],[78.00946,17.13943],[78.01555,17.14825],[78.02404,17.16734],[78.02791,17.17283],[78.0428,17.17716],[78.04986,17.18627],[78.05544,17.1959],[78.06775,17.19873],[78.07755,17.19741],[78.08557,17.19512],[78.08868,17.18706],[78.08753,17.17588],[78.09503,17.17089],[78.09855,17.15125],[78.08678,17.1347],[78.08544,17.12536],[78.09054,17.11573],[78.10246,17.1014],[78.11848,17.10937],[78.13222,17.1124],[78.14326,17.1098],[78.16425,17.10187],[78.1828,17.09993],[78.18413,17.10411],[78.1853,17.11386],[78.18001,17.1334],[78.19139,17.1405],[78.19313,17.14605],[78.1872,17.14896],[78.17872,17.15073],[78.17188,17.15599],[78.17081,17.16282],[78.17343,17.17101],[78.19,17.17772],[78.19821,17.17973],[78.2139,17.18566],[78.22033,17.19306],[78.22287,17.20227],[78.22677,17.20609],[78.24305,17.20628],[78.25344,17.20446],[78.26213,17.20597],[78.26564,17.21517],[78.27093,17.225],[78.28246,17.2282],[78.29437,17.2242],[78.29879,17.21226],[78.30137,17.19587],[78.30736,17.18371],[78.31037,17.17333],[78.3098,17.16272],[78.30781,17.15058],[78.30993,17.14628],[78.31958,17.14006],[78.32899,17.13225],[78.33981,17.12048],[78.34522,17.10781],[78.35207,17.09987],[78.35403,17.09157],[78.36144,17.08983],[78.36719,17.08523],[78.35925,17.07997],[78.35065,17.08291],[78.35041,17.07467],[78.36594,17.06941],[78.37142,17.06161],[78.38078,17.04456],[78.38912,17.03486],[78.40181,17.02817],[78.4133,17.02343],[78.42612,17.01813],[78.44318,17.00771],[78.45316,17.00001],[78.45356,16.99324],[78.45869,16.99062],[78.46092,16.98178],[78.46618,16.98174],[78.47435,16.98501],[78.4792,16.98793],[78.48396,16.99204],[78.48718,16.99999],[78.49113,17.00499],[78.49646,17.00933],[78.50424,17.01319],[78.51078,17.01328],[78.5158,17.01121],[78.51749,17.00845],[78.51799,17.00421],[78.51722,16.99996],[78.52249,16.99217],[78.53159,16.98717],[78.54894,16.98472],[78.56213,16.9807],[78.56828,16.96715],[78.57429,16.96087],[78.58517,16.95184],[78.60353,16.95518],[78.6149,16.95897],[78.62268,16.95875],[78.64994,16.95544],[78.65649,16.9512],[78.66251,16.94542],[78.67618,16.93814],[78.68711,16.93074],[78.70168,16.933]]]}}]}