{"type":"FeatureCollection","features":[{"type":"Feature","properties":{"id":"rangareddy","name":"Rangareddy","stateId":"andhra-pradesh","stateName":"Andhra Pradesh","censuscode":537,"type":"district"},"geometry":{"type":"Polygon","coordinates":[[[78.72005,17.66675],[78.71409,17.65164],[78.71006,17.63527],[78.70228,17.62591],[78.69817,17.61355],[78.70025,17.60384],[78.69537,17.60186],[78.69013,17.59666],[78.69111,17.59368],[78.69675,17.58896],[78.69122,17.58377],[78.68773,17.57799],[78.69895,17.55983],[78.70405,17.54462],[78.70644,17.53406],[78.71336,17.52441],[78.71357,17.5189],[78.71123,17.48864],[78.72083,17.48081],[78.72682,17.47746],[78.72667,17.47202],[78.71898,17.4681],[78.71454,17.46324],[78.71329,17.43917],[78.72426,17.44291],[78.73759,17.44003],[78.74737,17.44172],[78.75469,17.44753],[78.76038,17.44412],[78.76214,17.42777],[78.75802,17.41576],[78.75335,17.40667],[78.74594,17.39804],[78.74781,17.39253],[78.74761,17.38566],[78.74372,17.37806],[78.74304,17.37027],[78.74059,17.35944],[78.75157,17.35871],[78.77001,17.34859],[78.77034,17.34068],[78.76505,17.33698],[78.75351,17.33118],[78.74692,17.32577],[78.7568,17.31868],[78.76654,17.31502],[78.76955,17.31127],[78.76771,17.30934],[78.75379,17.30218],[78.74731,17.29683],[78.75678,17.28698],[78.76124,17.27963],[78.75555,17.27197],[78.76293,17.26437],[78.77107,17.25855],[78.80649,17.24891],[78.81772,17.24428],[78.82706,17.23643],[78.81396,17.20905],[78.784,17.21516],[78.76931,17.21924],[78.77513,17.2125],[78.77933,17.20589],[78.78129,17.19631],[78.79114,17.19334],[78.79055,17.1824],[78.79465,17.17287],[78.78373,17.16123],[78.78605,17.15159],[78.79552,17.14094],[78.80831,17.13348],[78.8181,17.12971],[78.83242,17.12706],[78.83935,17.12502],[78.84355,17.11789],[78.84162,17.11057],[78.82598,17.11386],[78.82459,17.10618],[78.84145,17.09447],[78.85024,17.08708],[78.85564,17.0792],[78.84622,17.06911],[78.84542,17.06316],[78.84613,17.0518],[78.83848,17.04267],[78.82724,17.04015],[78.79926,17.04837],[78.79297,17.04342],[78.78853,17.03856],[78.80301,17.03753],[78.82013,17.03228],[78.82886,17.02485],[78.83068,17.01785],[78.81864,17.00702],[78.80723,16.9995],[78.79757,16.99052],[78.79456,16.98035],[78.78983,16.97338],[78.77646,16.97728],[78.75926,16.97779],[78.75508,16.97001],[78.75484,16.96613],[78.74214,16.96853],[78.73014,16.96915],[78.71781,16.96845],[78.70697,16.96249],[78.70206,16.94523],[78.69853,16.93938],[78.70168,16.933],[78.68711,16.93074],[78.67618,16.93814],[78.66251,16.94542],[78.65649,16.9512],[78.64994,16.95544],[78.62268,16.95875],[78.6149,16.95897],[78.60353,16.95518],[78.58517,16.95184],[78.57429,16.96087],[78.56828,16.96715],[78.56213,16.9807],[78.54894,16.98472],[78.53159,16.98717],[78.52249,16.99217],[78.51722,16.99996],[78.51799,17.00421],[78.51749,17.00845],[78.5158,17.01121],[78.51078,17.01328],[78.50424,17.01319],[78.49646,17.00933],[78.49113,17.00499],[78.48718,16.99999],[78.48396,16.99204],[78.4792,16.98793],[78.47435,16.98501],[78.46618,16.98174],[78.46092,16.98178],[78.45869,16.99062],[78.45356,16.99324],[78.45316,17.00001],[78.44318,17.00771],[78.42612,17.01813],[78.4133,17.02343],[78.40181,17.02817],[78.38912,17.03486],[78.38078,17.04456],[78.37142,17.06161],[78.36594,17.06941],[78.35041,17.07467],[78.35065,17.08291],[78.35925,17.07997],[78.36719,17.08523],[78.36144,17.08983],[78.35403,17.09157],[78.35207,17.09987],[78.34522,17.10781],[78.33981,17.12048],[78.32899,17.13225],[78.31958,17.14006],[78.30993,17.14628],[78.30781,17.15058],[78.3098,17.16272],[78.31037,17.17333],[78.30736,17.18371],[78.30137,17.19587],[78.29879,17.21226],[78.29437,17.2242],[78.28246,17.2282],[78.27093,17.225],[78.26564,17.21517],[78.26213,17.20597],[78.25344,17.20446],[78.24305,17.20628],[78.22677,17.20609],[78.22287,17.20227],[78.22033,17.19306],[78.2139,17.18566],[78.19821,17.17973],[78.19,17.17772],[78.17343,17.17101],[78.17081,17.16282],[78.17188,17.15599],[78.17872,17.15073],[78.1872,17.14896],[78.19313,17.14605],[78.19139,17.1405],[78.18001,17.1334],[78.1853,17.11386],[78.18413,17.10411],[78.1828,17.09993],[78.16425,17.10187],[78.14326,17.1098],[78.13222,17.1124],[78.11848,17.10937],[78.10246,17.1014],[78.09054,17.11573],[78.08544,17.12536],[78.08678,17.1347],[78.09855,17.15125],[78.09503,17.17089],[78.08753,17.17588],[78.08868,17.18706],[78.08557,17.19512],[78.07755,17.19741],[78.06775,17.19873],[78.05544,17.1959],[78.04986,17.18627],[78.0428,17.17716],[78.02791,17.17283],[78.02404,17.16734],[78.01555,17.14825],[78.00946,17.13943],[78.00022,17.13096],[77.99261,17.12689],[77.99197,17.12275],[77.99311,17.12081],[77.99374,17.1165],[77.99156,17.11035],[77.9906,17.1031],[77.98565,17.10272],[77.97739,17.09802],[77.97195,17.09919],[77.9645,17.09742],[77.9558,17.09742],[77.95358,17.09029],[77.94512,17.08862],[77.94179,17.08585],[77.93589,17.08575],[77.93465,17.0831],[77.93807,17.08014],[77.94738,17.07991],[77.95058,17.07378],[77.94335,17.07472],[77.93927,17.0713],[77.92951,17.06698],[77.92292,17.06235],[77.92543,17.05122],[77.93287,17.04575],[77.9331,17.03737],[77.93655,17.02832],[77.9404,17.02357],[77.94621,17.01971],[77.95098,17.0195],[77.95095,17.01588],[77.96236,17.01153],[77.96873,17.01221],[77.97412,17.00926],[77.97919,17.00831],[77.97834,17.00244],[77.9833,17.00099],[77.98502,16.99978],[77.99707,16.98938],[77.99726,16.98278],[78.00002,16.9799],[78.00085,16.97931],[78.00303,16.97803],[78.00002,16.97573],[77.99859,16.97295],[77.98863,16.95993],[77.99279,16.95572],[78.00002,16.95237],[78.01419,16.95009],[78.01469,16.94334],[78.00941,16.9348],[78.01355,16.92732],[78.01563,16.92035],[78.01676,16.91446],[78.01415,16.91168],[78.01471,16.90597],[78.01107,16.90172],[78.00002,16.89898],[77.98439,16.89661],[77.97662,16.89043],[77.96982,16.88925],[77.97176,16.88033],[77.96792,16.87236],[77.96911,16.86919],[77.97907,16.86991],[77.98229,16.87329],[77.98499,16.87874],[77.99077,16.87361],[77.98775,16.86046],[77.98356,16.85513],[77.97776,16.84985],[77.97245,16.84976],[77.9681,16.85179],[77.96394,16.85634],[77.95592,16.86751],[77.94171,16.86427],[77.93765,16.86164],[77.92949,16.84845],[77.92406,16.84743],[77.91768,16.85026],[77.91435,16.85326],[77.91538,16.85894],[77.90983,16.86126],[77.87664,16.8556],[77.87281,16.85388],[77.8659,16.85326],[77.8662,16.85578],[77.86859,16.85928],[77.86693,16.86199],[77.86304,16.85982],[77.85856,16.85443],[77.8495,16.8571],[77.84461,16.85998],[77.84246,16.85889],[77.84156,16.85676],[77.82791,16.86117],[77.82147,16.86496],[77.82198,16.87864],[77.82128,16.8841],[77.81413,16.88946],[77.8096,16.88901],[77.80433,16.88454],[77.79542,16.87462],[77.78237,16.87798],[77.77324,16.87863],[77.76887,16.87662],[77.76296,16.87227],[77.75843,16.87239],[77.73797,16.88076],[77.73925,16.88829],[77.74087,16.89282],[77.74143,16.90047],[77.74456,16.9127],[77.74095,16.92368],[77.7403,16.938],[77.73082,16.9399],[77.73077,16.94295],[77.74273,16.94925],[77.74916,16.95573],[77.75829,16.96957],[77.76221,16.97767],[77.76135,16.98233],[77.75774,16.98768],[77.76171,16.99364],[77.76303,17.00051],[77.76443,17.00329],[77.76305,17.0111],[77.76853,17.01929],[77.77838,17.0181],[77.78319,17.02882],[77.78821,17.04287],[77.7787,17.04838],[77.77504,17.05851],[77.76704,17.06041],[77.75834,17.05885],[77.75486,17.06187],[77.76175,17.0745],[77.76384,17.08198],[77.76152,17.08961],[77.76908,17.10695],[77.77968,17.11111],[77.77906,17.11351],[77.77677,17.11677],[77.77811,17.1204],[77.77485,17.12624],[77.77083,17.12908],[77.78808,17.15356],[77.78786,17.15867],[77.78888,17.16649],[77.78774,17.17378],[77.78271,17.17701],[77.77948,17.17774],[77.77644,17.1869],[77.7725,17.19412],[77.76747,17.19638],[77.76671,17.20212],[77.77203,17.20825],[77.7759,17.20942],[77.77804,17.2122],[77.78922,17.21831],[77.79089,17.22533],[77.79324,17.23063],[77.78014,17.23438],[77.7754,17.23676],[77.77705,17.2327],[77.77318,17.23118],[77.77321,17.22784],[77.76259,17.22587],[77.76167,17.22167],[77.75678,17.22146],[77.75523,17.22783],[77.74921,17.22726],[77.73886,17.23012],[77.73522,17.22176],[77.7352,17.20918],[77.73793,17.20282],[77.74156,17.18056],[77.73523,17.18207],[77.72869,17.18707],[77.7284,17.19275],[77.73054,17.2026],[77.72806,17.2059],[77.71921,17.20826],[77.72056,17.20292],[77.71555,17.20271],[77.71073,17.20049],[77.70408,17.20348],[77.69696,17.19814],[77.70048,17.19128],[77.69731,17.1843],[77.6983,17.18035],[77.70501,17.17695],[77.70426,17.17396],[77.69726,17.17626],[77.68497,17.17507],[77.6795,17.17951],[77.67137,17.18106],[77.66995,17.1803],[77.66617,17.18245],[77.64935,17.18197],[77.64457,17.17383],[77.61748,17.16706],[77.62084,17.15716],[77.62326,17.15298],[77.61782,17.15346],[77.61408,17.15228],[77.61267,17.14945],[77.60766,17.1489],[77.60349,17.14869],[77.59828,17.15066],[77.59649,17.15006],[77.58933,17.15041],[77.58537,17.13923],[77.58019,17.13011],[77.56937,17.13312],[77.56002,17.13746],[77.55212,17.14015],[77.54774,17.14472],[77.54523,17.15796],[77.53955,17.16613],[77.53004,17.16817],[77.51322,17.17365],[77.5065,17.17159],[77.49889,17.17497],[77.48855,17.17666],[77.47914,17.17456],[77.48061,17.14976],[77.47662,17.14271],[77.48037,17.13769],[77.48565,17.13378],[77.48161,17.11938],[77.47358,17.11673],[77.46909,17.11209],[77.46656,17.10741],[77.45627,17.11093],[77.4523,17.11481],[77.44248,17.11787],[77.43762,17.11445],[77.42734,17.11734],[77.41558,17.12378],[77.4075,17.12646],[77.40265,17.13515],[77.38004,17.14108],[77.3791,17.15187],[77.37054,17.15449],[77.36364,17.16476],[77.36856,17.16809],[77.36719,17.17261],[77.37202,17.17961],[77.37118,17.18632],[77.3744,17.19319],[77.3804,17.19612],[77.3854,17.19685],[77.3952,17.19551],[77.39716,17.21006],[77.40252,17.21189],[77.40273,17.21465],[77.39688,17.21459],[77.38826,17.21606],[77.38496,17.21942],[77.38402,17.22286],[77.38769,17.2264],[77.39594,17.23165],[77.39954,17.23593],[77.40253,17.23498],[77.40917,17.2405],[77.41867,17.23301],[77.42151,17.23591],[77.42375,17.24471],[77.42422,17.25242],[77.42633,17.25634],[77.44112,17.26447],[77.44625,17.27169],[77.45347,17.27297],[77.45831,17.27899],[77.45659,17.28971],[77.45078,17.2919],[77.43777,17.29132],[77.44151,17.29974],[77.44419,17.30086],[77.45175,17.31649],[77.45341,17.31795],[77.45515,17.33025],[77.45628,17.33096],[77.45887,17.34092],[77.46012,17.34799],[77.45674,17.35181],[77.4535,17.35305],[77.45362,17.36603],[77.45534,17.37346],[77.48314,17.37261],[77.47915,17.37114],[77.4762,17.36618],[77.47828,17.36218],[77.48643,17.35748],[77.49622,17.35854],[77.50299,17.35711],[77.51364,17.36232],[77.52473,17.36511],[77.53193,17.37517],[77.53409,17.38093],[77.53049,17.38188],[77.52522,17.38936],[77.53749,17.40188],[77.53942,17.40712],[77.53749,17.40911],[77.53061,17.409],[77.51454,17.41552],[77.51399,17.43022],[77.52724,17.43965],[77.53736,17.44392],[77.55278,17.43791],[77.56174,17.43828],[77.57655,17.43254],[77.57594,17.44155],[77.57717,17.45719],[77.59445,17.45113],[77.59993,17.44572],[77.60853,17.44614],[77.61468,17.44727],[77.61551,17.45595],[77.61416,17.46767],[77.61501,17.47296],[77.61971,17.47443],[77.63066,17.47423],[77.63812,17.47527],[77.64455,17.47905],[77.64671,17.48648],[77.64834,17.49793],[77.65207,17.50238],[77.65689,17.50627],[77.65309,17.49458],[77.65222,17.48423],[77.66906,17.47937],[77.68822,17.47595],[77.68889,17.48831],[77.69117,17.49465],[77.6922,17.50161],[77.68982,17.50871],[77.6868,17.51995],[77.69051,17.52733],[77.70042,17.52925],[77.70737,17.5281],[77.74326,17.54985],[77.76137,17.5593],[77.75995,17.57371],[77.76229,17.58131],[77.76579,17.58478],[77.77135,17.58642],[77.77422,17.60202],[77.7681,17.6126],[77.76283,17.61286],[77.75923,17.61518],[77.74998,17.61236],[77.74986,17.6181],[77.74616,17.6179],[77.74767,17.62475],[77.75276,17.62329],[77.76925,17.62646],[77.77763,17.62658],[77.78012,17.62837],[77.78412,17.63904],[77.7876,17.63762],[77.79799,17.62494],[77.80126,17.62737],[77.81605,17.62628],[77.82496,17.63588],[77.82799,17.64612],[77.8559,17.64333],[77.85906,17.62807],[77.86131,17.62154],[77.86671,17.62002],[77.86756,17.61089],[77.8737,17.60392],[77.8751,17.60037],[77.87339,17.59634],[77.87073,17.59264],[77.87155,17.58633],[77.87428,17.58095],[77.90157,17.57906],[77.91403,17.57529],[77.9229,17.57403],[77.93384,17.56525],[77.9358,17.55785],[77.93985,17.55237],[77.93838,17.53891],[77.94772,17.53667],[77.95436,17.53689],[77.96358,17.53504],[77.97492,17.51869],[77.96628,17.50467],[77.9679,17.49446],[77.96527,17.48375],[77.97574,17.48364],[77.98272,17.48588],[77.99173,17.50724],[77.99584,17.50014],[78.00002,17.49623],[78.00608,17.48848],[78.01258,17.48155],[78.0195,17.47544],[78.02777,17.47135],[78.03601,17.46482],[78.04482,17.46068],[78.05439,17.45976],[78.06049,17.47137],[78.05167,17.47586],[78.05494,17.48422],[78.06349,17.48296],[78.06481,17.48907],[78.06527,17.49683],[78.05848,17.5023],[78.05907,17.50882],[78.06661,17.50834],[78.07096,17.52115],[78.08187,17.52438],[78.08249,17.50824],[78.08535,17.49709],[78.1036,17.49246],[78.11062,17.48277],[78.11881,17.48259],[78.1344,17.48802],[78.14289,17.48711],[78.14772,17.48141],[78.14565,17.47268],[78.15796,17.46465],[78.16711,17.46322],[78.17989,17.47042],[78.19432,17.47972],[78.18855,17.49005],[78.20116,17.48914],[78.21391,17.48641],[78.21912,17.4627],[78.21839,17.45065],[78.21866,17.43979],[78.23013,17.43979],[78.23683,17.42765],[78.24681,17.42626],[78.2558,17.42281],[78.263,17.41895],[78.27109,17.42278],[78.27348,17.42936],[78.27331,17.43532],[78.28873,17.43328],[78.29521,17.44564],[78.30312,17.45561],[78.30627,17.46546],[78.29699,17.4915],[78.31089,17.49204],[78.31712,17.49753],[78.32713,17.50083],[78.33564,17.50465],[78.34398,17.51449],[78.35455,17.52352],[78.35468,17.52913],[78.35327,17.53481],[78.34896,17.54371],[78.35832,17.55492],[78.36223,17.55806],[78.36456,17.56625],[78.36474,17.57388],[78.37208,17.58251],[78.37238,17.59088],[78.37575,17.60365],[78.3702,17.61014],[78.36106,17.61796],[78.36042,17.62335],[78.3758,17.62841],[78.38204,17.63287],[78.38425,17.64135],[78.38724,17.66518],[78.39567,17.67296],[78.40219,17.67271],[78.42027,17.66962],[78.42833,17.68789],[78.43026,17.70095],[78.43996,17.69949],[78.45082,17.71235],[78.45647,17.70678],[78.46483,17.70142],[78.47258,17.69514],[78.48319,17.69076],[78.496,17.68871],[78.50177,17.68394],[78.51343,17.68584],[78.51908,17.69711],[78.52667,17.69961],[78.5353,17.69677],[78.55084,17.68887],[78.55963,17.68689],[78.57177,17.68719],[78.57634,17.69222],[78.58227,17.70057],[78.59889,17.70079],[78.60843,17.68688],[78.61373,17.68061],[78.61565,17.66903],[78.62534,17.66761],[78.63384,17.66752],[78.64338,17.67081],[78.65249,17.67702],[78.65694,17.68301],[78.66392,17.69582],[78.67505,17.69526],[78.68295,17.69282],[78.6861,17.68564],[78.70344,17.68431],[78.72005,17.66675]],[[78.51164,17.45434],[78.49887,17.47061],[78.49125,17.4759],[78.47879,17.47307],[78.46351,17.44596],[78.45373,17.43567],[78.44878,17.42761],[78.44974,17.4013],[78.44451,17.40537],[78.43572,17.41612],[78.42721,17.42869],[78.42096,17.4337],[78.41148,17.43327],[78.4002,17.4239],[78.39253,17.41223],[78.38977,17.39911],[78.39121,17.38862],[78.40124,17.35661],[78.41126,17.34873],[78.4225,17.34618],[78.44053,17.34464],[78.45019,17.34581],[78.44752,17.33453],[78.4504,17.32398],[78.45625,17.31667],[78.46776,17.3073],[78.47178,17.30373],[78.47627,17.30143],[78.48241,17.30353],[78.50043,17.31986],[78.51534,17.32968],[78.51431,17.34085],[78.51544,17.35007],[78.52593,17.36087],[78.52939,17.37072],[78.52174,17.39001],[78.52216,17.39895],[78.52714,17.42111],[78.53669,17.43987],[78.54042,17.45499],[78.54018,17.46267],[78.53331,17.46361],[78.52469,17.45779],[78.51589,17.45266],[78.51164,17.45434]]]}}]}