{"type":"FeatureCollection","features":[{"type":"Feature","properties":{"id":"srikakulam","name":"Srikakulam","stateId":"andhra-pradesh","stateName":"Andhra Pradesh","censuscode":542,"type":"district"},"geometry":{"type":"Polygon","coordinates":[[[84.76858,19.08002],[84.76625,19.07514],[84.76214,19.06938],[84.7616,19.06801],[84.76039,19.06674],[84.75545,19.05477],[84.75356,19.0538],[84.74952,19.05438],[84.74345,19.05852],[84.74037,19.05821],[84.7391,19.05781],[84.73285,19.0553],[84.72797,19.05134],[84.72309,19.03807],[84.72319,19.03456],[84.72452,19.03136],[84.72502,19.03002],[84.72798,19.02862],[84.73081,19.0294],[84.73253,19.03105],[84.73373,19.03774],[84.734,19.03901],[84.73491,19.04],[84.73602,19.04265],[84.73731,19.04512],[84.73841,19.04711],[84.74075,19.04957],[84.7427,19.04986],[84.74479,19.04915],[84.74561,19.04696],[84.7461,19.04495],[84.7457,19.04295],[84.7453,19.04062],[84.7449,19.03879],[84.74453,19.03764],[84.7434,19.035],[84.73645,19.02844],[84.73446,19.026],[84.73381,19.0252],[84.73286,19.02276],[84.73169,19.02158],[84.71755,19.01014],[84.71368,19.00439],[84.71088,19.00183],[84.70772,18.99633],[84.70598,18.9913],[84.70346,18.98832],[84.70313,18.98716],[84.69836,18.97959],[84.6962,18.9768],[84.69564,18.97544],[84.69212,18.96946],[84.6914,18.96882],[84.68956,18.96692],[84.68726,18.96547],[84.6864,18.96297],[84.68353,18.96037],[84.67282,18.952],[84.67159,18.9497],[84.67007,18.94834],[84.66917,18.94756],[84.6686,18.94642],[84.66161,18.94083],[84.66084,18.93965],[84.65496,18.93366],[84.65294,18.93235],[84.65169,18.93155],[84.63747,18.92039],[84.63267,18.91634],[84.63101,18.91401],[84.62472,18.90797],[84.623,18.90633],[84.62241,18.90612],[84.62003,18.90242],[84.61913,18.9015],[84.6183,18.90102],[84.61614,18.89818],[84.61334,18.89317],[84.61212,18.89203],[84.61148,18.89112],[84.609,18.88825],[84.6089,18.88756],[84.60764,18.8864],[84.6057,18.88345],[84.59783,18.87469],[84.59176,18.87136],[84.58629,18.87213],[84.57988,18.87407],[84.5737,18.8753],[84.57188,18.87551],[84.56932,18.87573],[84.55806,18.87452],[84.55749,18.87406],[84.5577,18.87112],[84.5576,18.87043],[84.55881,18.86979],[84.57116,18.86947],[84.57206,18.86929],[84.58024,18.86767],[84.5812,18.86703],[84.58214,18.8623],[84.58305,18.85711],[84.57979,18.84301],[84.57302,18.83814],[84.57131,18.83647],[84.56931,18.82895],[84.56567,18.82343],[84.56071,18.80744],[84.5566,18.80168],[84.55507,18.78627],[84.55359,18.78331],[84.55038,18.78044],[84.54351,18.77566],[84.53435,18.77001],[84.53106,18.76799],[84.52719,18.76469],[84.52643,18.76443],[84.5262,18.76379],[84.51663,18.75604],[84.51558,18.75465],[84.50984,18.74907],[84.50855,18.74836],[84.50754,18.74742],[84.50729,18.74718],[84.50589,18.74544],[84.50066,18.74071],[84.50025,18.73998],[84.49333,18.73393],[84.49234,18.73163],[84.4893,18.7289],[84.48891,18.72815],[84.48222,18.72138],[84.47793,18.7145],[84.47426,18.71018],[84.47356,18.70995],[84.47335,18.70927],[84.46854,18.70407],[84.46694,18.70131],[84.46625,18.70037],[84.45538,18.68936],[84.45405,18.68801],[84.44827,18.67703],[84.44554,18.67358],[84.44292,18.67327],[84.43911,18.67429],[84.43779,18.67809],[84.43707,18.67875],[84.43493,18.67847],[84.43388,18.67821],[84.43236,18.67725],[84.42996,18.67086],[84.42857,18.6697],[84.4217,18.66849],[84.41947,18.66866],[84.41813,18.66869],[84.41598,18.66835],[84.41344,18.66764],[84.41169,18.6669],[84.41114,18.66615],[84.41166,18.66538],[84.41351,18.66458],[84.41656,18.66325],[84.4196,18.66206],[84.42186,18.66176],[84.42431,18.66145],[84.42886,18.66222],[84.43704,18.66428],[84.43847,18.66387],[84.44188,18.66125],[84.44216,18.6599],[84.44335,18.65971],[84.44338,18.65858],[84.44192,18.65604],[84.44136,18.6549],[84.43755,18.65118],[84.43686,18.65017],[84.42495,18.64177],[84.42257,18.64072],[84.4194,18.63918],[84.4123,18.63644],[84.40979,18.63365],[84.40391,18.62466],[84.40298,18.62443],[84.40009,18.62209],[84.39987,18.6214],[84.3915,18.61337],[84.38923,18.61133],[84.38805,18.61065],[84.38729,18.60996],[84.38606,18.60791],[84.38549,18.60674],[84.38163,18.60337],[84.38121,18.60223],[84.37928,18.60068],[84.37782,18.59761],[84.37752,18.597],[84.37625,18.59584],[84.37546,18.59535],[84.37443,18.59354],[84.36944,18.58682],[84.36527,18.57949],[84.36252,18.57647],[84.36158,18.57408],[84.35861,18.56549],[84.35724,18.56386],[84.35399,18.56219],[84.35021,18.56308],[84.34846,18.56524],[84.34815,18.57031],[84.3491,18.57193],[84.35034,18.57394],[84.35108,18.57522],[84.35102,18.57841],[84.34814,18.58308],[84.34407,18.57961],[84.34033,18.57468],[84.33914,18.57419],[84.3344,18.57382],[84.3336,18.57336],[84.33316,18.5722],[84.33313,18.56928],[84.33441,18.56594],[84.33444,18.55847],[84.33303,18.55728],[84.33018,18.55766],[84.3237,18.55995],[84.32366,18.56087],[84.32246,18.56173],[84.32152,18.56193],[84.31492,18.56061],[84.31388,18.55967],[84.31338,18.5574],[84.31003,18.55437],[84.30981,18.55366],[84.30998,18.55231],[84.31154,18.551],[84.3122,18.54921],[84.31141,18.54467],[84.31074,18.54375],[84.30866,18.54189],[84.29746,18.53585],[84.28933,18.53139],[84.28451,18.52626],[84.28346,18.52553],[84.27921,18.52283],[84.27654,18.52037],[84.2743,18.51874],[84.27291,18.51457],[84.27417,18.51163],[84.27634,18.51034],[84.27989,18.51236],[84.28482,18.5173],[84.28839,18.52101],[84.29063,18.52347],[84.29288,18.52593],[84.29642,18.52797],[84.29771,18.52895],[84.29889,18.52984],[84.29909,18.53003],[84.30377,18.53224],[84.32106,18.53661],[84.32525,18.53808],[84.33579,18.54559],[84.33647,18.54642],[84.33885,18.54791],[84.34008,18.54845],[84.3444,18.5514],[84.34776,18.5552],[84.34907,18.54838],[84.34311,18.54266],[84.34241,18.54196],[84.33489,18.53698],[84.32711,18.53099],[84.32446,18.52894],[84.32321,18.52793],[84.31924,18.52423],[84.30739,18.5147],[84.29838,18.50752],[84.2871,18.49859],[84.28256,18.49499],[84.28131,18.49337],[84.27423,18.48687],[84.27054,18.48405],[84.26493,18.47883],[84.26055,18.47526],[84.256,18.47089],[84.2552,18.46952],[84.25384,18.46791],[84.25221,18.46697],[84.25171,18.46445],[84.25124,18.464],[84.25031,18.46305],[84.24172,18.45703],[84.23899,18.45458],[84.2336,18.4524],[84.22749,18.44636],[84.22291,18.4428],[84.22152,18.44184],[84.2152,18.43494],[84.21373,18.43381],[84.21204,18.43161],[84.21065,18.43067],[84.20915,18.4295],[84.20871,18.42836],[84.20789,18.42788],[84.20602,18.42532],[84.20046,18.4195],[84.19917,18.4179],[84.19253,18.41271],[84.19129,18.41086],[84.19085,18.41039],[84.18546,18.40457],[84.18196,18.40176],[84.17477,18.39509],[84.17154,18.3912],[84.16158,18.38171],[84.15829,18.37775],[84.15729,18.37613],[84.14921,18.36867],[84.14785,18.36705],[84.14345,18.36002],[84.14282,18.35853],[84.14193,18.35681],[84.14161,18.35598],[84.13797,18.35181],[84.13659,18.35065],[84.13495,18.34993],[84.12979,18.34885],[84.1167,18.35027],[84.1042,18.34897],[84.09632,18.34712],[84.09247,18.34567],[84.08533,18.34051],[84.07853,18.33757],[84.07019,18.33585],[84.06758,18.33576],[84.06108,18.33589],[84.04626,18.34021],[84.03947,18.34451],[84.02806,18.3474],[84.02658,18.34775],[84.01967,18.34866],[84.01438,18.35077],[84.01021,18.35324],[84.00178,18.35707],[83.99631,18.35955],[83.99267,18.35827],[83.99083,18.35229],[83.993,18.3497],[83.99968,18.34737],[84.01049,18.34495],[84.01199,18.34458],[84.01251,18.34368],[84.01322,18.34348],[84.01994,18.34163],[84.02097,18.34148],[84.02494,18.34087],[84.02643,18.3402],[84.02878,18.33986],[84.04077,18.33462],[84.04197,18.33388],[84.04221,18.33325],[84.05023,18.32811],[84.0586,18.32519],[84.0644,18.32509],[84.07277,18.32631],[84.07928,18.32969],[84.08257,18.33045],[84.08648,18.33374],[84.09113,18.33616],[84.09521,18.33721],[84.10878,18.34006],[84.11183,18.34061],[84.11944,18.33904],[84.12015,18.33861],[84.12114,18.33795],[84.12142,18.33683],[84.1217,18.33571],[84.12288,18.33552],[84.12314,18.33486],[84.12556,18.33289],[84.12726,18.33181],[84.12739,18.32865],[84.12676,18.321],[84.12611,18.313],[84.12385,18.30659],[84.11836,18.301],[84.11191,18.29713],[84.10186,18.29191],[84.10119,18.2912],[84.09347,18.28848],[84.07521,18.27864],[84.07434,18.27753],[84.07104,18.27476],[84.0585,18.26397],[84.05786,18.26342],[84.05389,18.2615],[84.03988,18.25654],[84.0301,18.25192],[84.00624,18.24373],[83.99205,18.23626],[83.97687,18.23037],[83.97614,18.22991],[83.97382,18.22841],[83.96484,18.22254],[83.95959,18.21718],[83.95427,18.21362],[83.94898,18.21453],[83.94281,18.21643],[83.93921,18.21834],[83.93868,18.21967],[83.93866,18.22034],[83.93769,18.22123],[83.93551,18.22252],[83.93211,18.22492],[83.92973,18.22552],[83.92703,18.22496],[83.92578,18.22428],[83.92545,18.21949],[83.92722,18.21615],[83.93327,18.21226],[83.93376,18.21183],[83.9336,18.20979],[83.93362,18.20911],[83.93269,18.20815],[83.92716,18.20615],[83.8976,18.19712],[83.88646,18.19134],[83.88114,18.18755],[83.88024,18.18639],[83.87892,18.18296],[83.87615,18.17959],[83.87446,18.17581],[83.86944,18.1709],[83.85566,18.16524],[83.83927,18.16088],[83.83529,18.15916],[83.8204,18.15437],[83.80906,18.15016],[83.80543,18.14848],[83.78809,18.1427],[83.77737,18.13921],[83.77666,18.13896],[83.77645,18.13826],[83.77113,18.13528],[83.75926,18.12979],[83.75162,18.125],[83.74044,18.12001],[83.73864,18.11805],[83.72833,18.11452],[83.71538,18.10798],[83.70305,18.10171],[83.69206,18.09183],[83.6798,18.08421],[83.6784,18.0837],[83.67464,18.08266],[83.66995,18.08336],[83.6555,18.09815],[83.64476,18.11054],[83.64147,18.11216],[83.63382,18.11126],[83.62357,18.12128],[83.61919,18.12689],[83.62624,18.13383],[83.61749,18.14077],[83.60922,18.14857],[83.60463,18.15668],[83.60375,18.16607],[83.60371,18.1676],[83.61112,18.17339],[83.61174,18.17549],[83.61149,18.18976],[83.60885,18.1909],[83.60803,18.19092],[83.60712,18.19093],[83.59529,18.19676],[83.59159,18.19571],[83.57967,18.19706],[83.57695,18.19935],[83.57517,18.20162],[83.57702,18.20271],[83.57613,18.20384],[83.57528,18.20722],[83.57444,18.2106],[83.57449,18.21284],[83.57458,18.21731],[83.57554,18.21953],[83.57658,18.22511],[83.57662,18.22735],[83.57393,18.23076],[83.57213,18.23192],[83.56742,18.22641],[83.56371,18.22536],[83.56095,18.22541],[83.55912,18.22544],[83.55732,18.22772],[83.55738,18.22995],[83.55648,18.23109],[83.55559,18.23223],[83.55191,18.2323],[83.55009,18.23345],[83.5492,18.23459],[83.55108,18.2368],[83.55485,18.24121],[83.55767,18.2445],[83.56048,18.24669],[83.56055,18.25005],[83.56059,18.25229],[83.55791,18.2557],[83.55527,18.26135],[83.55159,18.26142],[83.5497,18.25922],[83.54872,18.25588],[83.54672,18.24808],[83.54379,18.2403],[83.53639,18.23707],[83.53178,18.23716],[83.52813,18.23835],[83.5254,18.23952],[83.52265,18.23957],[83.52086,18.24184],[83.52092,18.2452],[83.52099,18.24856],[83.52105,18.25192],[83.52207,18.25637],[83.51933,18.25755],[83.51938,18.25979],[83.51942,18.26202],[83.52135,18.26647],[83.52416,18.26866],[83.53236,18.26515],[83.53705,18.26954],[83.53898,18.27397],[83.53808,18.27511],[83.52984,18.27639],[83.52712,18.27868],[83.52531,18.27984],[83.52544,18.28655],[83.52547,18.28767],[83.52088,18.28775],[83.51538,18.28898],[83.50991,18.29132],[83.49994,18.29823],[83.49622,18.29605],[83.49149,18.28943],[83.48779,18.28837],[83.48687,18.28839],[83.48505,18.28955],[83.48326,18.29182],[83.48143,18.29298],[83.4787,18.29414],[83.47415,18.29647],[83.46958,18.29767],[83.46593,18.29886],[83.46328,18.30451],[83.45792,18.31244],[83.45615,18.31583],[83.4534,18.31589],[83.45061,18.31481],[83.44321,18.31271],[83.4409,18.31267],[83.43965,18.31424],[83.43204,18.32373],[83.43176,18.32613],[83.43312,18.32959],[83.43502,18.33032],[83.43712,18.33047],[83.43877,18.33159],[83.43867,18.33354],[83.43895,18.33744],[83.43992,18.3397],[83.439,18.34411],[83.43745,18.34385],[83.43362,18.34407],[83.43153,18.34409],[83.43035,18.34563],[83.42981,18.34912],[83.42929,18.35457],[83.42946,18.35802],[83.43037,18.36026],[83.43173,18.36391],[83.43307,18.36571],[83.43262,18.37041],[83.43188,18.37143],[83.42935,18.37248],[83.42774,18.37234],[83.42641,18.37306],[83.42696,18.37531],[83.42799,18.37751],[83.42893,18.37884],[83.43114,18.3786],[83.43294,18.37857],[83.43406,18.37962],[83.43439,18.38072],[83.43587,18.38189],[83.43885,18.38206],[83.44272,18.38304],[83.44525,18.38538],[83.44335,18.39028],[83.44236,18.39291],[83.44099,18.3949],[83.44118,18.4007],[83.44079,18.40247],[83.4396,18.40216],[83.43633,18.40102],[83.43326,18.39884],[83.43008,18.39896],[83.42768,18.40271],[83.42603,18.40464],[83.42314,18.40545],[83.42054,18.40701],[83.41749,18.40954],[83.41419,18.41543],[83.4157,18.41835],[83.41861,18.42266],[83.42361,18.42716],[83.42747,18.4317],[83.43147,18.43533],[83.4353,18.43832],[83.4348,18.44256],[83.43904,18.4428],[83.44191,18.44313],[83.44443,18.44266],[83.44687,18.44299],[83.44801,18.44606],[83.44941,18.44803],[83.4521,18.44807],[83.45436,18.44598],[83.45453,18.44329],[83.45683,18.44213],[83.46028,18.44023],[83.46366,18.43879],[83.46829,18.43732],[83.47241,18.43773],[83.47624,18.4378],[83.47961,18.44015],[83.48027,18.44234],[83.483,18.44089],[83.48675,18.43865],[83.48947,18.43744],[83.4925,18.43582],[83.49693,18.43567],[83.49967,18.4356],[83.50305,18.43474],[83.50659,18.43416],[83.50905,18.43679],[83.51068,18.43934],[83.51417,18.43813],[83.51716,18.43542],[83.52238,18.43436],[83.52586,18.43372],[83.52971,18.43299],[83.53117,18.43484],[83.53172,18.43744],[83.53286,18.43987],[83.53379,18.44167],[83.53563,18.44233],[83.53665,18.44199],[83.5387,18.44139],[83.54046,18.4401],[83.54366,18.43889],[83.54674,18.43757],[83.54889,18.43709],[83.55022,18.43699],[83.55186,18.43851],[83.55282,18.43824],[83.55327,18.43692],[83.5531,18.43612],[83.55585,18.43341],[83.55457,18.43109],[83.55379,18.4294],[83.55582,18.43063],[83.55973,18.43122],[83.57293,18.43139],[83.57466,18.43434],[83.57355,18.43793],[83.56726,18.44628],[83.56833,18.44984],[83.57102,18.45284],[83.5868,18.45771],[83.59343,18.46202],[83.59246,18.46726],[83.59034,18.47097],[83.57686,18.48291],[83.56203,18.49253],[83.55944,18.49772],[83.56315,18.5053],[83.56932,18.5073],[83.58453,18.50882],[83.59397,18.51135],[83.60214,18.51459],[83.60949,18.51981],[83.60793,18.52982],[83.61005,18.55031],[83.60951,18.56055],[83.60627,18.56206],[83.58871,18.5609],[83.58365,18.5614],[83.56129,18.56738],[83.55256,18.56354],[83.54884,18.55953],[83.54129,18.54902],[83.5347,18.54692],[83.52785,18.54878],[83.52307,18.55292],[83.51959,18.55925],[83.51984,18.56488],[83.52265,18.57322],[83.52307,18.5785],[83.52107,18.59329],[83.52404,18.59889],[83.53334,18.60591],[83.53812,18.61247],[83.54147,18.62006],[83.54258,18.63289],[83.54252,18.64733],[83.54527,18.67061],[83.53065,18.68971],[83.52587,18.69964],[83.52714,18.7048],[83.53005,18.71108],[83.53539,18.71815],[83.54332,18.72496],[83.55115,18.73013],[83.55796,18.73399],[83.57198,18.73996],[83.57985,18.74739],[83.58507,18.75479],[83.61516,18.76624],[83.63231,18.77167],[83.64045,18.77552],[83.64733,18.77978],[83.65257,18.78406],[83.66532,18.79906],[83.67221,18.80457],[83.67838,18.80605],[83.685,18.804],[83.69807,18.79661],[83.71038,18.79075],[83.72905,18.78319],[83.73787,18.77863],[83.74821,18.77483],[83.75175,18.77785],[83.75576,18.78958],[83.757,18.80184],[83.75855,18.80871],[83.76128,18.81448],[83.76577,18.82035],[83.7704,18.8244],[83.77514,18.82611],[83.7839,18.82677],[83.7997,18.82588],[83.80908,18.82665],[83.82083,18.82943],[83.82377,18.83287],[83.82277,18.84362],[83.82273,18.85413],[83.82188,18.85852],[83.81963,18.86195],[83.80629,18.87209],[83.7977,18.88058],[83.78964,18.89282],[83.7836,18.89897],[83.7782,18.91004],[83.77899,18.90976],[83.7851,18.91285],[83.78777,18.91619],[83.78484,18.9275],[83.77758,18.94136],[83.77295,18.94479],[83.76917,18.95296],[83.7629,18.95039],[83.75806,18.95272],[83.75605,18.9597],[83.7567,18.96676],[83.75366,18.97153],[83.74941,18.97535],[83.74725,18.98671],[83.74876,18.99213],[83.75692,18.99892],[83.75829,19.00067],[83.75895,19.00153],[83.76009,19.00158],[83.76122,19.00141],[83.76237,19.00162],[83.7635,19.00186],[83.76462,19.00216],[83.76545,19.00281],[83.76612,19.00372],[83.76712,19.00431],[83.76824,19.00472],[83.7694,19.00503],[83.77056,19.0053],[83.77173,19.00557],[83.7729,19.00586],[83.77406,19.00621],[83.77515,19.00668],[83.77615,19.00733],[83.77709,19.00803],[83.77786,19.00884],[83.77832,19.00987],[83.77878,19.01089],[83.77923,19.01191],[83.77971,19.01292],[83.78025,19.0139],[83.78087,19.01484],[83.78159,19.0157],[83.7824,19.01649],[83.7833,19.0172],[83.7843,19.01776],[83.78539,19.01813],[83.78654,19.01825],[83.78802,19.01819],[83.78915,19.01804],[83.79029,19.01782],[83.79141,19.01758],[83.79252,19.01734],[83.79363,19.01704],[83.79469,19.01662],[83.79596,19.01607],[83.79661,19.00661],[83.79882,19.00065],[83.81019,18.99014],[83.81573,18.97676],[83.81831,18.9732],[83.82244,18.96157],[83.82373,18.95706],[83.82108,18.94201],[83.82256,18.93848],[83.82657,18.93455],[83.82883,18.93043],[83.82461,18.91789],[83.82613,18.91561],[83.83074,18.91396],[83.84258,18.9178],[83.84539,18.91711],[83.84795,18.91258],[83.84931,18.90617],[83.84999,18.8968],[83.84438,18.8813],[83.8437,18.8777],[83.84479,18.87331],[83.85136,18.86003],[83.85567,18.85627],[83.86677,18.85168],[83.87204,18.84772],[83.87457,18.83217],[83.87789,18.82716],[83.88161,18.8265],[83.89093,18.82843],[83.89234,18.82657],[83.89306,18.8188],[83.89458,18.81418],[83.89834,18.81564],[83.90317,18.82364],[83.90623,18.82519],[83.90967,18.82569],[83.91544,18.82516],[83.92828,18.82036],[83.93032,18.81733],[83.93407,18.81536],[83.94126,18.81567],[83.94339,18.81196],[83.94427,18.80803],[83.94746,18.80544],[83.95137,18.80513],[83.95669,18.80589],[83.95887,18.80889],[83.96328,18.81191],[83.97169,18.81296],[83.97704,18.81269],[83.98998,18.80889],[83.99917,18.81354],[84.00761,18.81368],[84.01502,18.81309],[84.02014,18.80954],[84.02353,18.81031],[84.02728,18.80654],[84.02995,18.80755],[84.03136,18.81006],[84.03469,18.81112],[84.03834,18.80919],[84.0384,18.80437],[84.04193,18.79906],[84.04635,18.79639],[84.05557,18.79246],[84.05522,18.78885],[84.05735,18.7863],[84.05569,18.7834],[84.05683,18.77966],[84.06119,18.77738],[84.06624,18.7771],[84.06809,18.7717],[84.07341,18.76076],[84.07753,18.75883],[84.0855,18.75795],[84.08696,18.75519],[84.0894,18.75373],[84.0932,18.75428],[84.09641,18.7562],[84.09927,18.75434],[84.10833,18.76177],[84.1152,18.76389],[84.12169,18.76424],[84.12652,18.76213],[84.13054,18.75739],[84.13709,18.76198],[84.13554,18.77037],[84.13895,18.7739],[84.14258,18.77587],[84.148,18.77679],[84.15569,18.78086],[84.15894,18.78485],[84.16249,18.7851],[84.16691,18.78414],[84.16785,18.78143],[84.16575,18.7783],[84.17019,18.77769],[84.17459,18.77926],[84.18738,18.7781],[84.18906,18.78663],[84.19408,18.78871],[84.19789,18.78587],[84.21137,18.79176],[84.22423,18.7964],[84.22897,18.79561],[84.23182,18.79341],[84.23451,18.79631],[84.23821,18.79478],[84.23867,18.78927],[84.25353,18.78259],[84.25971,18.78167],[84.26641,18.78402],[84.27172,18.7897],[84.27569,18.78949],[84.28071,18.79167],[84.28282,18.79636],[84.28605,18.79885],[84.2914,18.8],[84.30786,18.79095],[84.31181,18.78994],[84.31465,18.79088],[84.31633,18.78766],[84.31996,18.78842],[84.32042,18.79141],[84.32319,18.79539],[84.33442,18.79889],[84.33968,18.80124],[84.34105,18.80427],[84.33699,18.81372],[84.33676,18.81819],[84.35154,18.82113],[84.34821,18.82743],[84.34988,18.83068],[84.3517,18.83186],[84.35261,18.83593],[84.35177,18.84187],[84.3455,18.84536],[84.34341,18.85054],[84.34158,18.86066],[84.34156,18.86707],[84.34184,18.87293],[84.34344,18.87578],[84.34722,18.87499],[84.3518,18.87184],[84.3544,18.86906],[84.35888,18.86002],[84.36153,18.86062],[84.36264,18.86176],[84.36575,18.86046],[84.36983,18.86019],[84.37675,18.86808],[84.37886,18.87248],[84.37898,18.87632],[84.37365,18.88079],[84.36873,18.88176],[84.36704,18.88098],[84.36126,18.88413],[84.35925,18.88685],[84.35885,18.89225],[84.36215,18.89198],[84.37875,18.88452],[84.38148,18.88559],[84.38547,18.88319],[84.39061,18.87838],[84.3936,18.88081],[84.39502,18.88676],[84.39349,18.89211],[84.38643,18.89454],[84.38161,18.89791],[84.37507,18.89838],[84.3723,18.90226],[84.37271,18.90529],[84.37715,18.90484],[84.38146,18.90307],[84.38584,18.90229],[84.39425,18.89893],[84.40135,18.89495],[84.4052,18.8952],[84.41718,18.89971],[84.41945,18.90302],[84.41808,18.90734],[84.41506,18.91018],[84.41352,18.91518],[84.41692,18.91715],[84.42533,18.90973],[84.42769,18.91394],[84.43673,18.92273],[84.42731,18.93872],[84.42448,18.9423],[84.42294,18.94703],[84.42763,18.95832],[84.44187,18.97211],[84.44505,18.97466],[84.44796,18.97588],[84.44203,18.98575],[84.43528,18.99154],[84.43525,18.99157],[84.43373,18.99287],[84.43286,18.99804],[84.43341,19.00065],[84.43257,19.00421],[84.42735,19.0097],[84.42535,19.01385],[84.42273,19.01697],[84.42196,19.02119],[84.42244,19.02269],[84.42734,19.02136],[84.42949,19.01737],[84.43711,19.01004],[84.44028,19.01073],[84.44469,19.00634],[84.45136,19.00345],[84.45545,19.00066],[84.45948,18.99725],[84.47013,18.99222],[84.47894,18.99017],[84.48034,18.99159],[84.48297,19.00067],[84.4828,19.00495],[84.48511,19.01678],[84.48933,19.0188],[84.49666,19.02983],[84.50502,19.03375],[84.51034,19.03813],[84.51436,19.04431],[84.51715,19.04633],[84.53436,19.04759],[84.53869,19.05301],[84.54202,19.05422],[84.55492,19.05497],[84.56081,19.05629],[84.56692,19.06841],[84.57332,19.07389],[84.57515,19.07233],[84.57572,19.0695],[84.57779,19.06927],[84.58363,19.07342],[84.5853,19.07099],[84.5823,19.04646],[84.58086,19.04403],[84.58252,19.03612],[84.58532,19.02786],[84.59488,19.02196],[84.59731,19.02236],[84.60418,19.02871],[84.60767,19.04187],[84.61475,19.05433],[84.61663,19.05566],[84.62135,19.05565],[84.61952,19.05866],[84.61868,19.06264],[84.61988,19.06374],[84.63045,19.06459],[84.63257,19.0617],[84.63324,19.05922],[84.6372,19.05852],[84.64152,19.06446],[84.64398,19.06607],[84.65486,19.06502],[84.66165,19.06126],[84.66614,19.07257],[84.67033,19.07338],[84.67171,19.07522],[84.66673,19.07984],[84.66129,19.0899],[84.65585,19.09309],[84.65175,19.09332],[84.64188,19.08756],[84.64076,19.08352],[84.63859,19.0815],[84.63158,19.0833],[84.62697,19.08538],[84.62372,19.09405],[84.62393,19.09884],[84.62156,19.10115],[84.61679,19.09971],[84.61271,19.10145],[84.61009,19.10538],[84.60293,19.12398],[84.59883,19.12988],[84.599,19.13259],[84.60179,19.1323],[84.61653,19.12622],[84.63267,19.12706],[84.63646,19.12949],[84.6475,19.13103],[84.64881,19.13357],[84.65441,19.12917],[84.66054,19.13171],[84.66442,19.1302],[84.66828,19.13066],[84.6716,19.13695],[84.67299,19.14405],[84.67249,19.15346],[84.67037,19.15624],[84.6721,19.16547],[84.67638,19.16443],[84.68042,19.16563],[84.68514,19.16222],[84.68849,19.15852],[84.6992,19.16046],[84.70463,19.15907],[84.70914,19.15993],[84.71229,19.15779],[84.71355,19.15236],[84.70442,19.13396],[84.701,19.13038],[84.7009,19.12836],[84.70484,19.12448],[84.70541,19.11917],[84.70464,19.11767],[84.71892,19.10892],[84.76858,19.08002]]]}}]}