{"type":"FeatureCollection","features":[{"type":"Feature","properties":{"id":"jashpur","name":"Jashpur","stateId":"chhattisgarh","stateName":"Chhattisgarh","censuscode":402,"type":"district"},"geometry":{"type":"Polygon","coordinates":[[[84.04097,23.16889],[84.03829,23.16218],[84.03624,23.15494],[84.03742,23.15044],[84.0405,23.14381],[84.04082,23.13953],[84.0431,23.13604],[84.04712,23.13321],[84.0524,23.13162],[84.06,23.12559],[84.06272,23.12184],[84.06607,23.11374],[84.0686,23.11106],[84.07384,23.10828],[84.08359,23.11102],[84.09498,23.11066],[84.10446,23.106],[84.11204,23.10043],[84.11736,23.0933],[84.11955,23.08841],[84.12328,23.08737],[84.13356,23.08639],[84.13646,23.08279],[84.13801,23.07875],[84.13879,23.06871],[84.13786,23.06464],[84.13297,23.05816],[84.13191,23.05477],[84.13045,23.04629],[84.13075,23.03793],[84.13169,23.03207],[84.13372,23.02734],[84.13877,23.01959],[84.1444,23.00764],[84.14544,22.99986],[84.15127,22.98959],[84.15217,22.98398],[84.15063,22.97653],[84.15506,22.9653],[84.16164,22.96582],[84.17491,22.97241],[84.17841,22.97852],[84.17764,22.98662],[84.17566,22.99641],[84.1802,23.00015],[84.18101,23.00174],[84.17966,23.0086],[84.18243,23.01329],[84.18374,23.02189],[84.1861,23.02394],[84.19698,23.0251],[84.2053,23.02038],[84.20697,23.01653],[84.20383,23.00551],[84.20809,23.00025],[84.21904,22.98785],[84.22195,22.9789],[84.22409,22.97795],[84.23385,22.98155],[84.24443,22.98189],[84.24852,22.97437],[84.25791,22.97294],[84.26162,22.97521],[84.26908,22.98155],[84.2749,22.9894],[84.27841,22.99035],[84.27811,22.98567],[84.27589,22.98054],[84.27893,22.97247],[84.28557,22.96279],[84.29632,22.96319],[84.31372,22.96907],[84.32146,22.97379],[84.32522,22.97813],[84.33214,22.98089],[84.33877,22.9807],[84.35056,22.9753],[84.35519,22.97745],[84.36845,22.97614],[84.37749,22.97667],[84.38034,22.97374],[84.38333,22.96792],[84.38469,22.96334],[84.38473,22.95356],[84.38618,22.95054],[84.38889,22.94739],[84.39339,22.94404],[84.39598,22.94041],[84.39658,22.92543],[84.39323,22.91853],[84.38312,22.9109],[84.3778,22.90333],[84.37971,22.90012],[84.38364,22.89944],[84.38517,22.89486],[84.38511,22.88959],[84.38281,22.88314],[84.38384,22.87764],[84.38289,22.87539],[84.37839,22.87389],[84.37687,22.87067],[84.37681,22.86627],[84.36485,22.86235],[84.35481,22.8649],[84.34911,22.86092],[84.34531,22.86079],[84.34195,22.86198],[84.33641,22.86129],[84.32726,22.85116],[84.32534,22.84551],[84.32554,22.8369],[84.32733,22.8378],[84.32463,22.81898],[84.31946,22.81215],[84.31863,22.80511],[84.31691,22.80079],[84.31041,22.80028],[84.30876,22.79689],[84.30323,22.79544],[84.29726,22.78898],[84.29405,22.77855],[84.29463,22.77275],[84.29464,22.77274],[84.29225,22.76522],[84.28839,22.76196],[84.28572,22.76321],[84.28098,22.76742],[84.26705,22.76677],[84.26119,22.7648],[84.26068,22.76255],[84.25856,22.75991],[84.24863,22.75019],[84.23669,22.74199],[84.23234,22.73701],[84.23169,22.72921],[84.23459,22.72501],[84.2364,22.70712],[84.23464,22.69986],[84.23919,22.6905],[84.2347,22.67893],[84.22756,22.67085],[84.22174,22.66651],[84.21663,22.66495],[84.21415,22.667],[84.20857,22.66712],[84.20396,22.66571],[84.19858,22.66219],[84.18731,22.65178],[84.17181,22.64725],[84.16441,22.64287],[84.15692,22.63636],[84.1391,22.6377],[84.12231,22.63717],[84.11424,22.63857],[84.10464,22.63491],[84.10096,22.63454],[84.08739,22.63843],[84.06632,22.60931],[84.05989,22.60452],[84.05515,22.59606],[84.04894,22.5941],[84.04061,22.59318],[84.02838,22.58914],[84.02705,22.5847],[84.0248,22.58085],[84.01808,22.57692],[84.01209,22.57148],[84.01097,22.56386],[84.0112,22.55681],[84.00916,22.54856],[84.00645,22.54147],[84.0086,22.53596],[84.01192,22.53211],[84.01221,22.52672],[84.00952,22.52286],[84.00133,22.53079],[84,22.52936],[83.99287,22.52746],[83.98713,22.52398],[83.9836,22.52038],[83.9815,22.51596],[83.98087,22.51113],[83.98313,22.50422],[83.98772,22.50074],[83.99747,22.49642],[84,22.49602],[84.0041,22.4928],[84.02003,22.4873],[84.02251,22.48449],[84.02869,22.47415],[84.03083,22.4728],[84.04165,22.47201],[84.04574,22.47098],[84.04855,22.46622],[84.0465,22.45086],[84.0484,22.44009],[84.04701,22.43507],[84.03971,22.4282],[84.03098,22.42435],[84.03298,22.42127],[84.02915,22.41235],[84.02574,22.40897],[84.02144,22.40628],[84.01949,22.4011],[84.01695,22.3983],[84.01599,22.39362],[84.00866,22.38259],[84.00867,22.37807],[84.01122,22.3699],[84.00819,22.3719],[84.0044,22.37078],[83.99997,22.37147],[83.99238,22.36859],[83.98522,22.36733],[83.97399,22.36008],[83.96364,22.36327],[83.95934,22.36342],[83.95027,22.36066],[83.93661,22.35847],[83.93107,22.35967],[83.92632,22.36196],[83.92257,22.36184],[83.91238,22.35479],[83.904,22.34188],[83.879,22.34111],[83.87421,22.3432],[83.87121,22.34578],[83.86806,22.34594],[83.86038,22.34096],[83.85464,22.333],[83.85008,22.32852],[83.83649,22.32611],[83.83226,22.32179],[83.82957,22.31781],[83.82772,22.31243],[83.82719,22.30726],[83.82787,22.29824],[83.8265,22.29466],[83.82307,22.29341],[83.81187,22.29208],[83.80506,22.29215],[83.80474,22.29183],[83.80466,22.29218],[83.80512,22.29605],[83.80079,22.30003],[83.79899,22.30293],[83.79751,22.30646],[83.79705,22.31117],[83.78925,22.31183],[83.78553,22.3133],[83.78125,22.31921],[83.77435,22.32021],[83.77161,22.32139],[83.76803,22.32452],[83.76478,22.33519],[83.76211,22.33876],[83.75728,22.34302],[83.75478,22.35257],[83.74698,22.36031],[83.74106,22.37842],[83.72286,22.38264],[83.71742,22.38296],[83.71125,22.38173],[83.70282,22.37789],[83.69411,22.3781],[83.68393,22.38231],[83.6773,22.38274],[83.65812,22.39076],[83.6509,22.3949],[83.64527,22.40968],[83.64197,22.41574],[83.63938,22.41866],[83.63247,22.42325],[83.62609,22.42515],[83.62184,22.43299],[83.61773,22.43843],[83.61043,22.44302],[83.60747,22.44437],[83.59947,22.44802],[83.5936,22.4507],[83.58906,22.45335],[83.58541,22.4555],[83.57955,22.46236],[83.57753,22.4718],[83.57886,22.47684],[83.58419,22.48696],[83.58868,22.49548],[83.5905,22.50229],[83.59281,22.51139],[83.59409,22.51958],[83.59543,22.52815],[83.5958,22.53055],[83.59615,22.53279],[83.59572,22.53529],[83.58972,22.54059],[83.58178,22.54391],[83.57504,22.54416],[83.5614,22.53463],[83.55248,22.52369],[83.5459,22.51808],[83.54375,22.51625],[83.52751,22.51415],[83.52266,22.51352],[83.52063,22.51307],[83.51478,22.51177],[83.50674,22.5079],[83.50264,22.50275],[83.4996,22.49674],[83.49673,22.49294],[83.49406,22.49327],[83.48869,22.49625],[83.48328,22.50144],[83.47042,22.50634],[83.46451,22.51163],[83.45984,22.51487],[83.45427,22.52154],[83.45165,22.52381],[83.44936,22.52359],[83.44548,22.5268],[83.44327,22.53321],[83.43563,22.54048],[83.42244,22.54805],[83.40672,22.55375],[83.40324,22.55705],[83.40236,22.5613],[83.41101,22.56977],[83.41252,22.5757],[83.41399,22.58149],[83.41336,22.60296],[83.41039,22.61086],[83.40878,22.6123],[83.40574,22.61502],[83.40417,22.6157],[83.4071,22.62134],[83.41004,22.62385],[83.41276,22.62563],[83.41606,22.62639],[83.41987,22.62815],[83.42154,22.62949],[83.42332,22.63092],[83.42485,22.63274],[83.42629,22.63454],[83.42755,22.63718],[83.42853,22.64057],[83.4316,22.64759],[83.43483,22.65138],[83.43815,22.65518],[83.44091,22.65825],[83.44158,22.661],[83.44051,22.66581],[83.43918,22.66814],[83.43816,22.67084],[83.43771,22.67202],[83.43923,22.67463],[83.44042,22.67474],[83.44687,22.67531],[83.46462,22.67118],[83.48159,22.66909],[83.50738,22.65918],[83.50832,22.6607],[83.50954,22.66264],[83.51093,22.67146],[83.5131,22.67544],[83.51439,22.67563],[83.52406,22.67706],[83.53017,22.67869],[83.5353,22.68101],[83.54702,22.68815],[83.5472,22.68832],[83.55579,22.697],[83.55729,22.69785],[83.56081,22.69985],[83.56449,22.69737],[83.56482,22.69493],[83.56818,22.69158],[83.57509,22.69237],[83.58448,22.68553],[83.60393,22.67584],[83.6331,22.66575],[83.64614,22.6587],[83.65166,22.65503],[83.65459,22.65152],[83.65779,22.64654],[83.66303,22.63375],[83.66803,22.62899],[83.67431,22.62613],[83.67502,22.62781],[83.67524,22.62833],[83.68269,22.63516],[83.68607,22.64006],[83.68843,22.64724],[83.69084,22.66336],[83.68956,22.67129],[83.68664,22.67853],[83.68366,22.68176],[83.6388,22.70275],[83.63385,22.7074],[83.63286,22.71404],[83.63443,22.7289],[83.6376,22.73252],[83.63879,22.73297],[83.64711,22.73613],[83.65276,22.73921],[83.6527,22.73936],[83.64986,22.74738],[83.65179,22.74828],[83.65437,22.74948],[83.65483,22.75002],[83.65627,22.75172],[83.65694,22.75724],[83.65485,22.75895],[83.65247,22.76398],[83.65988,22.77837],[83.65553,22.78516],[83.6521,22.80416],[83.65236,22.80776],[83.64854,22.82263],[83.6462,22.82418],[83.63604,22.82528],[83.63123,22.82732],[83.62855,22.83008],[83.62479,22.83844],[83.61977,22.84252],[83.60356,22.8491],[83.60061,22.85094],[83.59606,22.85657],[83.59984,22.86543],[83.59619,22.86687],[83.58616,22.86826],[83.57946,22.87276],[83.57292,22.889],[83.56264,22.89516],[83.55365,22.90473],[83.53911,22.91628],[83.52808,22.93105],[83.51483,22.94294],[83.51181,22.94804],[83.5097,22.95599],[83.51003,22.96365],[83.51294,22.97772],[83.5158,22.98389],[83.52179,22.98948],[83.52297,22.99006],[83.52561,22.99134],[83.5261,22.99187],[83.53304,22.99937],[83.53322,23.00087],[83.53701,23.00714],[83.54019,23.00978],[83.5464,23.01909],[83.55115,23.03032],[83.54591,23.04077],[83.53274,23.05271],[83.52577,23.05763],[83.50779,23.0591],[83.50297,23.06353],[83.50221,23.06735],[83.50349,23.0715],[83.51081,23.08086],[83.51103,23.08849],[83.51817,23.09328],[83.52385,23.0982],[83.53247,23.10779],[83.53733,23.11764],[83.54225,23.12164],[83.54297,23.12191],[83.55298,23.12571],[83.55381,23.12651],[83.56046,23.13287],[83.56176,23.14344],[83.55458,23.16645],[83.55521,23.1739],[83.55693,23.17381],[83.56796,23.17321],[83.56854,23.17445],[83.57245,23.18289],[83.57715,23.18892],[83.57793,23.18875],[83.59438,23.18512],[83.60401,23.18115],[83.60486,23.18273],[83.61779,23.20682],[83.62162,23.21297],[83.62605,23.21657],[83.62639,23.21653],[83.63437,23.21562],[83.6444,23.21812],[83.65892,23.22475],[83.67147,23.22647],[83.67767,23.22427],[83.68765,23.22289],[83.70049,23.21853],[83.7027,23.20843],[83.70768,23.20369],[83.71831,23.20485],[83.72285,23.20729],[83.72283,23.20747],[83.72221,23.21487],[83.72572,23.22381],[83.72752,23.22492],[83.73517,23.22966],[83.74218,23.23252],[83.75033,23.23759],[83.76069,23.23208],[83.77063,23.22461],[83.77731,23.22124],[83.78269,23.2225],[83.78299,23.22332],[83.79115,23.24526],[83.79229,23.24458],[83.80069,23.23954],[83.83182,23.2334],[83.83902,23.22783],[83.84496,23.22454],[83.85393,23.22204],[83.87284,23.20802],[83.88203,23.20305],[83.88676,23.19349],[83.89541,23.18266],[83.90852,23.18177],[83.91588,23.17455],[83.92036,23.17115],[83.92952,23.16637],[83.92777,23.15607],[83.93141,23.14738],[83.94103,23.14699],[83.94212,23.1482],[83.94619,23.15268],[83.94773,23.16105],[83.94893,23.16302],[83.95027,23.16338],[83.96,23.16599],[83.97073,23.16496],[83.96928,23.16645],[83.96612,23.16968],[83.96559,23.17376],[83.96996,23.18062],[83.97118,23.18083],[83.98209,23.1827],[83.99101,23.18317],[83.99976,23.18166],[84.0007,23.18169],[84.0143,23.18619],[84.02079,23.18758],[84.02667,23.18232],[84.02878,23.178],[84.03553,23.17389],[84.04097,23.16889]]]}}]}