{"type":"FeatureCollection","features":[{"type":"Feature","properties":{"id":"kabeerdham","name":"Kabeerdham","stateId":"chhattisgarh","stateName":"Chhattisgarh","censuscode":407,"type":"district"},"geometry":{"type":"Polygon","coordinates":[[[81.35521,22.51364],[81.36295,22.5128],[81.36904,22.51495],[81.37376,22.51393],[81.38051,22.51032],[81.38599,22.5049],[81.38687,22.49752],[81.3864,22.493],[81.38794,22.48497],[81.39208,22.47747],[81.39031,22.46226],[81.39344,22.45084],[81.39613,22.44454],[81.4038,22.44102],[81.42138,22.44823],[81.42619,22.45392],[81.42791,22.45911],[81.4251,22.46484],[81.42486,22.47331],[81.4317,22.47892],[81.43905,22.48017],[81.44083,22.4774],[81.44324,22.46919],[81.44974,22.46587],[81.45531,22.4671],[81.45758,22.47227],[81.45061,22.47124],[81.4512,22.47836],[81.44636,22.47915],[81.44808,22.48434],[81.45151,22.4867],[81.44638,22.49069],[81.44534,22.49361],[81.45351,22.49553],[81.46061,22.4907],[81.46794,22.49404],[81.47724,22.49368],[81.48366,22.49187],[81.48713,22.49302],[81.4891,22.48736],[81.48454,22.47957],[81.48387,22.46938],[81.48633,22.45884],[81.49749,22.44401],[81.4979,22.43815],[81.49701,22.42918],[81.49237,22.42521],[81.48894,22.41833],[81.49233,22.41067],[81.50829,22.39876],[81.51293,22.39438],[81.51722,22.39366],[81.52121,22.38593],[81.52289,22.3786],[81.52715,22.37213],[81.53778,22.35841],[81.548,22.34888],[81.56321,22.34724],[81.56389,22.34444],[81.55724,22.33918],[81.55193,22.33327],[81.54648,22.32381],[81.53888,22.31997],[81.52679,22.31609],[81.52238,22.3138],[81.52728,22.31046],[81.52649,22.30804],[81.52978,22.30723],[81.53032,22.30142],[81.53656,22.28987],[81.53311,22.27644],[81.54198,22.27499],[81.55121,22.27],[81.55289,22.26625],[81.55358,22.25633],[81.55258,22.25049],[81.55233,22.23995],[81.54397,22.23554],[81.54054,22.23034],[81.54033,22.22391],[81.53488,22.21713],[81.53653,22.21199],[81.53994,22.20781],[81.53668,22.20266],[81.54033,22.19366],[81.53182,22.18201],[81.52797,22.17502],[81.52646,22.16328],[81.52808,22.15642],[81.52395,22.15064],[81.52323,22.1433],[81.51522,22.13947],[81.51254,22.13552],[81.5112,22.12795],[81.51116,22.12154],[81.51111,22.1115],[81.51464,22.10494],[81.51791,22.09033],[81.5217,22.08713],[81.52429,22.08273],[81.5162,22.06499],[81.51376,22.05513],[81.50557,22.05425],[81.50379,22.04872],[81.50088,22.02949],[81.51041,22.03063],[81.51098,22.02332],[81.50886,22.01646],[81.50424,22.0132],[81.48535,22.01856],[81.47142,22.01565],[81.47787,22.00704],[81.48061,22.00129],[81.48335,21.9932],[81.48325,21.9896],[81.48075,21.98514],[81.47287,21.97493],[81.47233,21.96959],[81.47718,21.95952],[81.46865,21.95258],[81.46015,21.94193],[81.45937,21.93757],[81.45904,21.91607],[81.45196,21.91249],[81.44704,21.9113],[81.44354,21.9094],[81.44363,21.90644],[81.44964,21.90089],[81.44533,21.89974],[81.43856,21.9021],[81.43507,21.90246],[81.43145,21.9012],[81.4268,21.90308],[81.42449,21.90477],[81.42311,21.90722],[81.42148,21.91582],[81.41867,21.91712],[81.4158,21.91225],[81.4122,21.90081],[81.41205,21.89797],[81.40998,21.8928],[81.40707,21.88956],[81.39411,21.88078],[81.3937,21.87608],[81.39595,21.86746],[81.39481,21.8581],[81.39992,21.85344],[81.40141,21.8503],[81.40146,21.84175],[81.40421,21.83429],[81.40037,21.83095],[81.3956,21.83091],[81.38698,21.83286],[81.38024,21.83882],[81.37712,21.83941],[81.36691,21.83468],[81.36299,21.83424],[81.3559,21.83583],[81.34491,21.83988],[81.34001,21.83979],[81.33761,21.83864],[81.32901,21.82867],[81.3258,21.82612],[81.32441,21.8216],[81.32573,21.81833],[81.3316,21.81139],[81.33163,21.80785],[81.3297,21.79763],[81.32941,21.79165],[81.33014,21.78594],[81.33435,21.78354],[81.33652,21.78121],[81.33703,21.77563],[81.33842,21.77341],[81.34464,21.77193],[81.34433,21.76996],[81.34264,21.76758],[81.33834,21.76498],[81.32951,21.76379],[81.32355,21.76097],[81.31465,21.75839],[81.30802,21.76295],[81.30265,21.76501],[81.30083,21.7671],[81.29754,21.76793],[81.28842,21.76203],[81.28382,21.7617],[81.27559,21.75847],[81.27146,21.75564],[81.26792,21.75531],[81.26303,21.75015],[81.26063,21.74887],[81.25327,21.74722],[81.24966,21.74717],[81.24503,21.74957],[81.22633,21.75375],[81.22521,21.75109],[81.22678,21.74103],[81.22486,21.73132],[81.22609,21.72411],[81.22918,21.72189],[81.23681,21.71873],[81.23232,21.71008],[81.22482,21.70557],[81.21998,21.70442],[81.21607,21.7045],[81.20852,21.70999],[81.20539,21.70918],[81.19722,21.70496],[81.19428,21.70532],[81.19253,21.70742],[81.18905,21.70813],[81.18324,21.70204],[81.17645,21.70315],[81.17644,21.70316],[81.1743,21.70603],[81.16557,21.71034],[81.16068,21.71406],[81.15336,21.71089],[81.13379,21.71518],[81.13231,21.71427],[81.13091,21.71207],[81.13047,21.70665],[81.12753,21.70786],[81.12023,21.71447],[81.10839,21.72835],[81.10506,21.7304],[81.10182,21.73134],[81.09214,21.73117],[81.08349,21.73101],[81.07284,21.72953],[81.06819,21.72809],[81.06176,21.72427],[81.05723,21.72384],[81.04434,21.72641],[81.04336,21.72716],[81.0449,21.73506],[81.04442,21.737],[81.03734,21.7387],[81.02632,21.7397],[81.02286,21.7388],[81.01435,21.73398],[81.00872,21.7305],[81.0002,21.72524],[80.99833,21.72525],[80.99655,21.72563],[80.99576,21.72647],[80.99365,21.72836],[80.99029,21.7312],[80.98305,21.73704],[80.97951,21.73927],[80.97698,21.74224],[80.97552,21.74547],[80.97504,21.74722],[80.97096,21.75534],[80.9699,21.75802],[80.96257,21.76125],[80.95664,21.76363],[80.95359,21.76494],[80.95292,21.76724],[80.95376,21.77423],[80.95346,21.77738],[80.95341,21.78059],[80.95267,21.78328],[80.95235,21.78426],[80.94915,21.79055],[80.94787,21.79194],[80.94427,21.79822],[80.94409,21.80053],[80.94274,21.80422],[80.93832,21.80636],[80.93517,21.80749],[80.93321,21.80869],[80.93194,21.81054],[80.93149,21.81174],[80.93107,21.81285],[80.93088,21.81432],[80.9305,21.81635],[80.927,21.82355],[80.92078,21.82175],[80.9116,21.82033],[80.89958,21.82077],[80.87751,21.82302],[80.8657,21.82557],[80.85822,21.82847],[80.85155,21.82944],[80.84465,21.82992],[80.84409,21.83181],[80.84287,21.83219],[80.84069,21.83483],[80.83981,21.83753],[80.83929,21.84016],[80.83868,21.84621],[80.83987,21.84909],[80.84132,21.85071],[80.84468,21.85183],[80.84742,21.85277],[80.84817,21.85646],[80.84693,21.85882],[80.84401,21.86248],[80.84366,21.86701],[80.84462,21.86881],[80.84667,21.87158],[80.84658,21.87538],[80.8436,21.87853],[80.84105,21.88248],[80.8384,21.88424],[80.83711,21.88475],[80.83243,21.88661],[80.83106,21.8893],[80.83123,21.89097],[80.83155,21.89465],[80.83079,21.89782],[80.83244,21.90381],[80.83153,21.90835],[80.83321,21.91187],[80.83399,21.91349],[80.83706,21.91834],[80.83839,21.92003],[80.83953,21.92165],[80.84152,21.92592],[80.8429,21.92784],[80.84354,21.9317],[80.84355,21.93555],[80.84262,21.93692],[80.84203,21.94077],[80.84038,21.94651],[80.83884,21.94731],[80.83774,21.94706],[80.83596,21.94688],[80.83327,21.94697],[80.83039,21.94718],[80.82921,21.94821],[80.82815,21.95044],[80.82802,21.95131],[80.82659,21.95342],[80.82545,21.95663],[80.82721,21.95797],[80.82868,21.95804],[80.83152,21.95669],[80.83585,21.9573],[80.83879,21.95778],[80.84284,21.95747],[80.84639,21.9576],[80.85036,21.95827],[80.85279,21.96077],[80.85374,21.96348],[80.85444,21.96676],[80.85551,21.96987],[80.85738,21.97266],[80.8587,21.97496],[80.85953,21.97825],[80.86011,21.98113],[80.86015,21.98332],[80.86158,21.98707],[80.86248,21.98863],[80.86343,21.99169],[80.86421,21.99307],[80.86542,21.99526],[80.86632,21.99758],[80.86634,21.99995],[80.87562,22.01102],[80.87654,22.01631],[80.87598,22.03337],[80.87715,22.03836],[80.88439,22.05047],[80.88365,22.05656],[80.88598,22.06036],[80.89203,22.06047],[80.89546,22.06216],[80.89826,22.06572],[80.90179,22.07625],[80.90521,22.10104],[80.91314,22.11414],[80.91789,22.11885],[80.9242,22.12059],[80.93185,22.12038],[80.94599,22.11874],[80.95261,22.11721],[80.95759,22.11274],[80.96459,22.09693],[80.97259,22.08179],[80.97281,22.07898],[80.96915,22.06176],[80.97047,22.05819],[80.9789,22.05414],[80.98073,22.05162],[80.98592,22.04818],[80.98967,22.04883],[80.99483,22.04836],[80.99516,22.05208],[80.99681,22.05636],[80.99825,22.05795],[80.9999,22.05753],[81.00625,22.06137],[81.01135,22.06988],[81.0045,22.08071],[81.007,22.08948],[81.01104,22.09428],[81.01077,22.09671],[81.00715,22.10064],[80.99991,22.10499],[80.99734,22.10886],[80.99433,22.11043],[80.98729,22.11258],[80.98376,22.11258],[80.9814,22.11114],[80.97934,22.11166],[80.97789,22.11442],[80.97884,22.12124],[80.98052,22.12344],[80.99378,22.13063],[80.99993,22.13128],[81.01226,22.13249],[81.02289,22.13249],[81.02451,22.14005],[81.02472,22.15361],[81.02616,22.16499],[81.02425,22.17076],[81.02039,22.1772],[81.0188,22.18371],[81.02263,22.18811],[81.02862,22.18674],[81.03222,22.18853],[81.03187,22.19282],[81.03288,22.19739],[81.03059,22.20252],[81.02632,22.20746],[81.02289,22.21378],[81.02282,22.21986],[81.02656,22.22884],[81.04344,22.23737],[81.04756,22.24022],[81.05599,22.24384],[81.06164,22.24352],[81.06994,22.24651],[81.07637,22.24593],[81.07972,22.24141],[81.09181,22.24643],[81.09893,22.26752],[81.10398,22.27711],[81.12099,22.29402],[81.12216,22.30287],[81.12186,22.3122],[81.11761,22.32109],[81.11642,22.32922],[81.11917,22.33422],[81.12281,22.34366],[81.11771,22.35255],[81.11401,22.36172],[81.10812,22.38274],[81.10982,22.39076],[81.11181,22.41027],[81.11064,22.42153],[81.11208,22.43223],[81.11717,22.44054],[81.12993,22.44704],[81.14122,22.45143],[81.15527,22.4553],[81.16502,22.47391],[81.17127,22.48134],[81.17786,22.48742],[81.18727,22.48958],[81.19408,22.48865],[81.19985,22.48193],[81.20045,22.47317],[81.20225,22.46723],[81.20138,22.46156],[81.20933,22.45626],[81.21697,22.45335],[81.2256,22.45116],[81.23077,22.45113],[81.24032,22.45466],[81.24761,22.4587],[81.26273,22.472],[81.26345,22.48757],[81.26769,22.49306],[81.27398,22.49365],[81.2787,22.49535],[81.28271,22.49894],[81.28745,22.49832],[81.29894,22.48884],[81.30503,22.48612],[81.31121,22.48131],[81.32315,22.48926],[81.32139,22.49915],[81.32206,22.51542],[81.32664,22.51905],[81.33019,22.52385],[81.33914,22.52189],[81.35521,22.51364]]]}}]}