{"type":"FeatureCollection","features":[{"type":"Feature","properties":{"id":"korba","name":"Korba","stateId":"chhattisgarh","stateName":"Chhattisgarh","censuscode":404,"type":"district"},"geometry":{"type":"Polygon","coordinates":[[[82.26458,22.29811],[82.26476,22.30123],[82.26656,22.30497],[82.27208,22.31285],[82.27378,22.32142],[82.27357,22.32647],[82.2719,22.33106],[82.26819,22.33461],[82.26226,22.33522],[82.25962,22.33465],[82.25628,22.33393],[82.24688,22.33376],[82.24305,22.33369],[82.24085,22.33365],[82.23629,22.33064],[82.23327,22.32953],[82.22858,22.3305],[82.22598,22.33186],[82.22041,22.33741],[82.21764,22.33735],[82.2155,22.32826],[82.2101,22.31855],[82.20852,22.31571],[82.20612,22.31387],[82.20224,22.31304],[82.1979,22.31688],[82.1937,22.31801],[82.19361,22.31817],[82.19347,22.31803],[82.18804,22.31829],[82.18599,22.32007],[82.18466,22.32332],[82.18133,22.32567],[82.17505,22.32309],[82.16982,22.32371],[82.16475,22.32848],[82.14329,22.3298],[82.14044,22.33085],[82.14645,22.33528],[82.15068,22.33955],[82.15311,22.3432],[82.15529,22.34943],[82.1564,22.37473],[82.1513,22.38365],[82.16597,22.38417],[82.16805,22.3847],[82.16879,22.38708],[82.16976,22.39784],[82.17108,22.39985],[82.18288,22.40713],[82.18405,22.41181],[82.18371,22.41486],[82.18116,22.41646],[82.17757,22.42102],[82.17327,22.43039],[82.17146,22.43757],[82.17094,22.43963],[82.16803,22.44308],[82.16301,22.44536],[82.15274,22.44735],[82.14608,22.45149],[82.14389,22.45714],[82.14379,22.46313],[82.14571,22.47918],[82.14586,22.48041],[82.14734,22.48601],[82.15151,22.49285],[82.15843,22.49754],[82.16105,22.50027],[82.16254,22.51259],[82.16679,22.53011],[82.16196,22.53727],[82.15658,22.54186],[82.16466,22.54515],[82.17145,22.55224],[82.17243,22.55305],[82.17833,22.55638],[82.18582,22.5652],[82.19173,22.57102],[82.19863,22.57782],[82.2001,22.57938],[82.20257,22.58255],[82.20579,22.59107],[82.20943,22.59534],[82.21469,22.59536],[82.23218,22.59178],[82.23546,22.59229],[82.23965,22.6054],[82.24197,22.61899],[82.24016,22.62325],[82.23941,22.63192],[82.23975,22.63673],[82.24007,22.64149],[82.24177,22.64612],[82.24223,22.65159],[82.24389,22.65571],[82.22145,22.66073],[82.21341,22.66067],[82.20675,22.65957],[82.2044,22.66181],[82.20414,22.66365],[82.20268,22.6657],[82.19618,22.66884],[82.19243,22.66981],[82.18955,22.66976],[82.18315,22.66681],[82.17816,22.66532],[82.17641,22.66746],[82.17518,22.67706],[82.17605,22.68745],[82.17566,22.69344],[82.17083,22.69581],[82.1696,22.69915],[82.16818,22.7092],[82.16862,22.71394],[82.16857,22.71475],[82.16662,22.72341],[82.1666,22.72783],[82.16349,22.73202],[82.15428,22.73915],[82.15237,22.74415],[82.15557,22.75129],[82.15652,22.76085],[82.15675,22.76223],[82.16047,22.78416],[82.16191,22.79264],[82.16132,22.80462],[82.16211,22.81059],[82.16116,22.81337],[82.15861,22.81525],[82.15659,22.81905],[82.15796,22.82971],[82.15789,22.83791],[82.15444,22.83962],[82.14928,22.84015],[82.14932,22.84218],[82.15938,22.84986],[82.16208,22.85506],[82.16903,22.86814],[82.1722,22.87199],[82.17842,22.87822],[82.18884,22.88812],[82.19371,22.89422],[82.20059,22.90084],[82.20949,22.91011],[82.21449,22.91759],[82.2185,22.92545],[82.22286,22.93635],[82.22402,22.9401],[82.22412,22.94046],[82.24231,22.93737],[82.26028,22.9383],[82.2671,22.9415],[82.27816,22.95079],[82.29519,22.96016],[82.30102,22.96212],[82.32204,22.96685],[82.33141,22.96677],[82.33499,22.97045],[82.33925,22.97891],[82.34426,22.98399],[82.35033,22.98872],[82.36663,22.99538],[82.3724,22.99689],[82.39045,22.99717],[82.39641,22.99632],[82.40765,22.99221],[82.41144,22.98975],[82.41424,22.98545],[82.41519,22.97757],[82.4204,22.97379],[82.42586,22.97226],[82.43697,22.97102],[82.44572,22.96742],[82.45074,22.96646],[82.459,22.96619],[82.46886,22.9677],[82.47252,22.9676],[82.48486,22.96481],[82.49348,22.96816],[82.50607,22.96726],[82.51377,22.96745],[82.54211,22.97439],[82.55482,22.97464],[82.56724,22.97253],[82.57299,22.96979],[82.57591,22.96508],[82.56749,22.96099],[82.56594,22.95955],[82.56432,22.95696],[82.56427,22.95552],[82.57401,22.94813],[82.57549,22.94439],[82.57547,22.94264],[82.57544,22.9398],[82.57811,22.93646],[82.57663,22.9275],[82.57693,22.92088],[82.57613,22.91669],[82.577,22.91365],[82.57935,22.911],[82.5829,22.90895],[82.58909,22.90826],[82.59492,22.9043],[82.59666,22.89793],[82.59484,22.89503],[82.59431,22.89419],[82.59177,22.8935],[82.58718,22.8935],[82.58346,22.89452],[82.58182,22.89429],[82.58012,22.89406],[82.57956,22.88935],[82.5803,22.88515],[82.57931,22.88165],[82.57132,22.86606],[82.57039,22.86527],[82.56909,22.86416],[82.56174,22.86297],[82.56153,22.86294],[82.55961,22.86156],[82.55819,22.85438],[82.55887,22.84794],[82.56037,22.84409],[82.57333,22.83078],[82.57823,22.82883],[82.589,22.83086],[82.60672,22.82933],[82.61849,22.82343],[82.62946,22.81925],[82.63559,22.81776],[82.64569,22.8111],[82.65077,22.80961],[82.65827,22.80927],[82.66477,22.81088],[82.67561,22.81665],[82.67694,22.81758],[82.69675,22.83142],[82.6969,22.83144],[82.7066,22.83287],[82.71558,22.83195],[82.72315,22.82988],[82.72482,22.82879],[82.74791,22.8046],[82.75434,22.8011],[82.76065,22.79633],[82.76194,22.79243],[82.76913,22.78858],[82.77042,22.786],[82.76992,22.78157],[82.77134,22.77801],[82.77789,22.76962],[82.79702,22.75813],[82.8037,22.75537],[82.80959,22.75393],[82.82134,22.74737],[82.83482,22.74329],[82.84943,22.74398],[82.8625,22.74691],[82.86826,22.74714],[82.87524,22.74288],[82.88643,22.7331],[82.90157,22.71694],[82.90732,22.71252],[82.91999,22.70486],[82.92623,22.6994],[82.93402,22.69065],[82.9371,22.68456],[82.94618,22.67427],[82.97205,22.66154],[82.97627,22.66061],[82.98198,22.66071],[82.99167,22.66249],[82.99546,22.66054],[82.99997,22.65435],[83.00252,22.65328],[83.0076,22.64996],[83.01104,22.64644],[83.01404,22.64044],[83.01886,22.63981],[83.04248,22.6537],[83.04308,22.65417],[83.05312,22.66201],[83.05455,22.66289],[83.06036,22.66647],[83.0703,22.66984],[83.09145,22.67455],[83.11444,22.67688],[83.11745,22.6751],[83.12099,22.66977],[83.12447,22.66021],[83.12447,22.65136],[83.12046,22.6459],[83.1061,22.63922],[83.10146,22.63522],[83.09921,22.63225],[83.09766,22.62318],[83.10074,22.606],[83.09966,22.5945],[83.09657,22.58557],[83.09421,22.57565],[83.098,22.56573],[83.10266,22.55663],[83.10882,22.53822],[83.10727,22.52805],[83.10885,22.51961],[83.10893,22.51112],[83.1022,22.5024],[83.09739,22.49836],[83.09406,22.49444],[83.09195,22.4891],[83.08905,22.47372],[83.09065,22.46662],[83.09456,22.46258],[83.09748,22.45825],[83.09291,22.44822],[83.09309,22.44183],[83.09557,22.43065],[83.09831,22.42667],[83.10065,22.42654],[83.10469,22.42796],[83.11405,22.42353],[83.11611,22.4202],[83.11169,22.41692],[83.11029,22.39681],[83.11123,22.39291],[83.11124,22.38814],[83.10966,22.38507],[83.10594,22.38399],[83.10406,22.38238],[83.10451,22.37819],[83.10632,22.3737],[83.10968,22.36978],[83.11093,22.36466],[83.1066,22.35899],[83.08979,22.34736],[83.08533,22.34012],[83.0836,22.33461],[83.08495,22.31786],[83.08279,22.31375],[83.07665,22.30793],[83.07165,22.305],[83.06437,22.2942],[83.05863,22.28918],[83.05516,22.284],[83.05402,22.27927],[83.05432,22.27461],[83.05931,22.26845],[83.06172,22.26202],[83.05841,22.25812],[83.04928,22.25502],[83.03779,22.24925],[83.036,22.24506],[83.03853,22.2392],[83.04825,22.23274],[83.05084,22.2275],[83.05296,22.21788],[83.05423,22.20466],[83.05295,22.19885],[83.0426,22.1909],[83.03831,22.1839],[83.03377,22.1737],[83.0305,22.16898],[83.02538,22.16837],[83.01507,22.16937],[83.00435,22.16561],[82.99903,22.16515],[82.9943,22.16376],[82.9865,22.16604],[82.98095,22.16605],[82.97528,22.16498],[82.96892,22.1624],[82.96331,22.15225],[82.96305,22.14714],[82.96187,22.14409],[82.95245,22.14593],[82.94677,22.14554],[82.94455,22.14089],[82.94144,22.13101],[82.93976,22.1286],[82.94088,22.12208],[82.94093,22.12204],[82.94088,22.12202],[82.93611,22.12092],[82.92855,22.123],[82.92089,22.1295],[82.91315,22.13287],[82.90668,22.13697],[82.9048,22.13839],[82.90207,22.14128],[82.89778,22.1505],[82.89216,22.16256],[82.87994,22.16887],[82.8716,22.17151],[82.86476,22.17081],[82.85909,22.16908],[82.85492,22.16409],[82.85405,22.16024],[82.85251,22.1576],[82.85021,22.15645],[82.84693,22.15568],[82.84407,22.15568],[82.8233,22.15566],[82.81732,22.14968],[82.8147,22.14777],[82.81007,22.14527],[82.80415,22.14285],[82.79751,22.14214],[82.79686,22.1393],[82.80058,22.13288],[82.79618,22.13057],[82.77928,22.12609],[82.76911,22.12167],[82.77262,22.12428],[82.76204,22.11922],[82.75586,22.10947],[82.75578,22.1035],[82.75768,22.09988],[82.75445,22.09653],[82.74738,22.09417],[82.74349,22.09709],[82.74189,22.09123],[82.73746,22.08744],[82.73072,22.08628],[82.73196,22.07972],[82.73568,22.07293],[82.73778,22.0554],[82.74235,22.04721],[82.74217,22.04353],[82.7405,22.03877],[82.73731,22.03763],[82.73237,22.03736],[82.72735,22.03855],[82.72051,22.0418],[82.71498,22.0466],[82.71257,22.04977],[82.70746,22.06543],[82.7057,22.07541],[82.7049,22.07993],[82.70386,22.08292],[82.70303,22.0853],[82.69993,22.08821],[82.69148,22.09039],[82.68622,22.08928],[82.67853,22.08049],[82.67566,22.08026],[82.67311,22.08123],[82.66948,22.08709],[82.66473,22.09151],[82.65799,22.0949],[82.64937,22.09923],[82.64941,22.10126],[82.64744,22.10636],[82.6411,22.11531],[82.63652,22.12367],[82.63634,22.13445],[82.63952,22.13532],[82.64503,22.14876],[82.64679,22.1521],[82.65202,22.16208],[82.65594,22.17343],[82.65916,22.18276],[82.66007,22.18836],[82.65681,22.19367],[82.65368,22.1976],[82.649,22.20347],[82.64541,22.21182],[82.64489,22.21515],[82.64655,22.22423],[82.6448,22.22565],[82.64426,22.23781],[82.64195,22.24107],[82.63844,22.24362],[82.6265,22.25009],[82.62497,22.25269],[82.61466,22.25646],[82.60281,22.25759],[82.59799,22.25896],[82.59412,22.25866],[82.59164,22.25318],[82.59214,22.24847],[82.59064,22.2427],[82.58657,22.23537],[82.5808,22.22537],[82.57857,22.22228],[82.5697,22.21893],[82.56404,22.21792],[82.55461,22.2109],[82.54922,22.20841],[82.54545,22.20783],[82.5421,22.20825],[82.5388,22.21144],[82.5387,22.21632],[82.5369,22.22602],[82.53543,22.22991],[82.53541,22.22993],[82.52975,22.23987],[82.52855,22.24198],[82.52553,22.24536],[82.5238,22.24996],[82.52052,22.25237],[82.51368,22.25023],[82.50974,22.25079],[82.50548,22.24877],[82.49666,22.24669],[82.49414,22.24409],[82.49273,22.24105],[82.48891,22.23846],[82.48405,22.23362],[82.47758,22.22379],[82.47192,22.22114],[82.46742,22.21682],[82.46291,22.21372],[82.46037,22.21642],[82.45119,22.22264],[82.43987,22.2255],[82.43568,22.23197],[82.43106,22.24092],[82.42524,22.24728],[82.41086,22.25598],[82.40829,22.2562],[82.40191,22.25879],[82.39732,22.26218],[82.40408,22.26953],[82.41483,22.27752],[82.42015,22.28253],[82.41498,22.28621],[82.40779,22.29875],[82.4035,22.30251],[82.40006,22.30385],[82.37993,22.3014],[82.37798,22.30825],[82.37305,22.31514],[82.3562,22.32443],[82.35215,22.32523],[82.34677,22.32292],[82.34161,22.32254],[82.33361,22.3233],[82.32885,22.32273],[82.32504,22.32021],[82.3221,22.31634],[82.31726,22.30997],[82.31653,22.30902],[82.30828,22.2957],[82.30384,22.29322],[82.30384,22.29321],[82.30065,22.28854],[82.29683,22.28572],[82.29344,22.2857],[82.28628,22.28717],[82.27225,22.29431],[82.26431,22.29341],[82.26458,22.29811]],[[83.00648,22.25626],[82.99969,22.25032],[82.9981,22.2486],[82.99315,22.2482],[82.98653,22.24029],[82.987,22.23627],[82.98944,22.23437],[82.99815,22.23507],[83.00696,22.2335],[83.01874,22.23406],[83.02085,22.23479],[83.02235,22.23695],[83.02163,22.23939],[83.01622,22.24747],[83.01148,22.25314],[83.00648,22.25626]]]}}]}