{"type":"FeatureCollection","features":[{"type":"Feature","properties":{"id":"mahasamund","name":"Mahasamund","stateId":"chhattisgarh","stateName":"Chhattisgarh","censuscode":411,"type":"district"},"geometry":{"type":"Polygon","coordinates":[[[82.93457,21.49445],[82.93458,21.49445],[82.93971,21.49307],[82.94775,21.4935],[82.95761,21.49133],[82.96215,21.48504],[82.96797,21.47088],[82.97671,21.47552],[82.98132,21.47368],[82.98941,21.46605],[82.99432,21.46426],[83.00003,21.4576],[83.00582,21.4587],[83.01023,21.4625],[83.01354,21.46703],[83.01584,21.46784],[83.0171,21.46956],[83.01628,21.47373],[83.01911,21.48656],[83.02283,21.48709],[83.02727,21.48608],[83.04151,21.48037],[83.04841,21.4795],[83.04977,21.47796],[83.0529,21.47263],[83.05493,21.46524],[83.05554,21.45551],[83.05516,21.45258],[83.05269,21.44756],[83.05289,21.44498],[83.05417,21.44135],[83.06065,21.43477],[83.06569,21.43258],[83.08908,21.4305],[83.09902,21.42608],[83.10515,21.42568],[83.11098,21.42689],[83.12354,21.42077],[83.12734,21.41825],[83.12765,21.41642],[83.12581,21.4147],[83.11753,21.41304],[83.11746,21.41],[83.11831,21.40749],[83.12254,21.40039],[83.12738,21.39907],[83.13228,21.39867],[83.13351,21.39741],[83.13578,21.39215],[83.13361,21.37928],[83.1371,21.37509],[83.14433,21.36879],[83.14714,21.36449],[83.14854,21.36353],[83.15407,21.36598],[83.15659,21.37154],[83.16027,21.37571],[83.17316,21.38504],[83.17931,21.39231],[83.1836,21.39964],[83.19127,21.39546],[83.1939,21.39265],[83.19438,21.38772],[83.19265,21.3824],[83.19296,21.38108],[83.19658,21.38302],[83.19892,21.38531],[83.20586,21.397],[83.21125,21.39649],[83.21916,21.39367],[83.22277,21.39052],[83.22479,21.38765],[83.2257,21.38175],[83.22876,21.38031],[83.23918,21.37967],[83.24605,21.38105],[83.24796,21.38254],[83.27291,21.3769],[83.27724,21.37828],[83.27674,21.37046],[83.278,21.36251],[83.27331,21.34872],[83.26785,21.34047],[83.26218,21.33522],[83.263,21.33262],[83.26808,21.33005],[83.26142,21.32291],[83.26133,21.31571],[83.26601,21.30548],[83.2799,21.2995],[83.28201,21.29396],[83.28178,21.28906],[83.27855,21.2839],[83.27492,21.27201],[83.26998,21.27602],[83.26453,21.27895],[83.25559,21.28069],[83.24967,21.27982],[83.23911,21.26873],[83.23213,21.27035],[83.22559,21.26351],[83.22138,21.25428],[83.22194,21.24385],[83.22629,21.22716],[83.22246,21.22714],[83.22163,21.22404],[83.2226,21.21896],[83.21481,21.20487],[83.21846,21.19468],[83.21727,21.19158],[83.21246,21.18754],[83.20927,21.18095],[83.20679,21.17757],[83.20732,21.17243],[83.20664,21.16551],[83.20097,21.16119],[83.20001,21.14302],[83.19735,21.13912],[83.19024,21.13562],[83.18388,21.13431],[83.17712,21.13508],[83.16865,21.13501],[83.16066,21.12933],[83.15601,21.12343],[83.14498,21.11339],[83.14126,21.10881],[83.12712,21.10464],[83.11556,21.11125],[83.10246,21.10786],[83.09938,21.10951],[83.09599,21.11098],[83.08887,21.11022],[83.07871,21.11158],[83.07164,21.1146],[83.06703,21.1194],[83.05868,21.12065],[83.05412,21.12368],[83.04788,21.1224],[83.04374,21.12466],[83.04003,21.12781],[83.03637,21.12947],[83.03683,21.13475],[83.0259,21.14158],[83.02318,21.14312],[83.01776,21.14875],[83.01502,21.14991],[83.01284,21.14921],[83.00641,21.15151],[83.00027,21.15763],[82.99072,21.15162],[82.98722,21.16079],[82.97891,21.15964],[82.97244,21.15908],[82.97092,21.16498],[82.96694,21.17713],[82.96337,21.17877],[82.95631,21.17305],[82.94963,21.16632],[82.94469,21.16444],[82.93531,21.16431],[82.92923,21.16148],[82.92173,21.1639],[82.91526,21.16353],[82.90962,21.16622],[82.90244,21.16306],[82.89474,21.15702],[82.88655,21.15234],[82.88017,21.1543],[82.87615,21.16297],[82.87099,21.1586],[82.86681,21.16051],[82.86134,21.16022],[82.85409,21.16137],[82.85445,21.16587],[82.84731,21.16655],[82.8198,21.16172],[82.81418,21.15981],[82.81112,21.15623],[82.80291,21.15375],[82.79908,21.14827],[82.79618,21.14244],[82.78942,21.14418],[82.76485,21.16167],[82.75962,21.16284],[82.74268,21.16095],[82.73458,21.16226],[82.72848,21.16201],[82.71878,21.15884],[82.71286,21.15795],[82.70786,21.15632],[82.7014,21.15585],[82.6993,21.15989],[82.69187,21.1611],[82.66939,21.15377],[82.65316,21.15472],[82.64328,21.15244],[82.64014,21.14567],[82.64142,21.13937],[82.64572,21.13465],[82.65195,21.13185],[82.6551,21.12801],[82.65266,21.12372],[82.64691,21.12006],[82.64445,21.11469],[82.64567,21.10955],[82.65238,21.10497],[82.65034,21.10085],[82.64271,21.09509],[82.6392,21.09006],[82.63323,21.07993],[82.62929,21.07831],[82.6226,21.07827],[82.61674,21.0743],[82.61647,21.06703],[82.62739,21.04756],[82.62967,21.03975],[82.61597,21.0214],[82.61509,21.01536],[82.61181,21.00908],[82.60249,21.00035],[82.58943,20.99],[82.58549,20.98217],[82.57388,20.97024],[82.5603,20.94475],[82.5531,20.93822],[82.54322,20.9328],[82.53362,20.93098],[82.52662,20.92796],[82.5208,20.9205],[82.51047,20.91716],[82.50102,20.91262],[82.49304,20.90678],[82.49053,20.90293],[82.49205,20.88286],[82.4919,20.87621],[82.48874,20.8648],[82.48931,20.85866],[82.48502,20.85008],[82.47565,20.84599],[82.47078,20.84302],[82.46723,20.83901],[82.46969,20.83373],[82.46986,20.83095],[82.46644,20.82722],[82.46091,20.8246],[82.45575,20.82557],[82.45206,20.82744],[82.44848,20.82712],[82.44679,20.83054],[82.44389,20.83288],[82.43033,20.82934],[82.42293,20.8298],[82.42088,20.83288],[82.41303,20.84051],[82.41477,20.8468],[82.41467,20.8513],[82.40966,20.85654],[82.40986,20.86122],[82.4088,20.86569],[82.39018,20.87316],[82.38405,20.87014],[82.37541,20.86731],[82.36643,20.86974],[82.36329,20.87313],[82.36357,20.87954],[82.36657,20.88588],[82.354,20.887],[82.3493,20.87323],[82.34928,20.87325],[82.34705,20.88019],[82.34123,20.88304],[82.33466,20.88329],[82.3245,20.88357],[82.32092,20.88611],[82.31784,20.88892],[82.31527,20.8931],[82.31103,20.89749],[82.30682,20.9028],[82.30228,20.90655],[82.29383,20.91036],[82.28859,20.91292],[82.28561,20.91619],[82.28507,20.91896],[82.28532,20.92208],[82.28597,20.93127],[82.2856,20.93303],[82.28437,20.93534],[82.27101,20.93849],[82.24795,20.94197],[82.24351,20.94535],[82.22752,20.95009],[82.22388,20.94904],[82.2264,20.94155],[82.22593,20.93705],[82.22472,20.93495],[82.21885,20.93513],[82.21019,20.93857],[82.19935,20.94075],[82.19222,20.94748],[82.19117,20.94982],[82.18712,20.96504],[82.18126,20.96586],[82.17586,20.97109],[82.17381,20.9851],[82.17171,20.99204],[82.16762,21.00047],[82.16675,21.00358],[82.16401,21.0134],[82.16141,21.01602],[82.16104,21.01768],[82.15476,21.01694],[82.14778,21.01779],[82.13529,21.01878],[82.12856,21.02072],[82.12321,21.02355],[82.11344,21.02535],[82.10335,21.02784],[82.0968,21.03257],[82.09275,21.03677],[82.09033,21.03865],[82.08527,21.04138],[82.08124,21.04426],[82.07569,21.04879],[82.00775,21.08661],[81.9957,21.10673],[81.99661,21.1219],[81.99853,21.13191],[82.00066,21.13676],[82.0025,21.14189],[82.00726,21.14523],[82.0109,21.15078],[82.01604,21.16112],[82.01926,21.17258],[82.02066,21.18328],[82.0208,21.18854],[82.01967,21.21923],[82.02381,21.22725],[82.02763,21.23246],[82.031,21.23566],[82.05434,21.25774],[82.06838,21.27102],[82.07651,21.27597],[82.08337,21.27859],[82.09624,21.2835],[82.10792,21.28795],[82.11858,21.29093],[82.12195,21.29268],[82.12808,21.29586],[82.13523,21.30082],[82.14161,21.30644],[82.14699,21.31292],[82.15443,21.3219],[82.16171,21.32543],[82.16622,21.32762],[82.16997,21.33483],[82.17208,21.33763],[82.18031,21.34849],[82.18154,21.35767],[82.18915,21.36612],[82.19179,21.37105],[82.19416,21.37774],[82.19149,21.37704],[82.19785,21.381],[82.20526,21.38347],[82.21655,21.4013],[82.22349,21.40994],[82.2291,21.41579],[82.23555,21.42563],[82.24158,21.43309],[82.25074,21.43396],[82.25346,21.43254],[82.25,21.4256],[82.25252,21.41728],[82.25883,21.41423],[82.26392,21.41177],[82.26701,21.40823],[82.27094,21.40574],[82.2736,21.40354],[82.2769,21.40053],[82.27893,21.39304],[82.2788,21.38956],[82.27858,21.38385],[82.26965,21.38453],[82.26214,21.38253],[82.25593,21.37554],[82.25109,21.36834],[82.2468,21.36454],[82.25721,21.35269],[82.25768,21.34578],[82.2573,21.34045],[82.26019,21.32614],[82.25431,21.3208],[82.24944,21.31765],[82.24644,21.31457],[82.24612,21.31283],[82.25383,21.31022],[82.25754,21.30953],[82.26078,21.30892],[82.26383,21.30557],[82.26749,21.29916],[82.27943,21.29686],[82.27926,21.28685],[82.27868,21.28187],[82.28146,21.27235],[82.29046,21.26978],[82.30073,21.26773],[82.30141,21.27877],[82.31546,21.27938],[82.31839,21.28982],[82.32568,21.29091],[82.33162,21.28833],[82.33546,21.28303],[82.33857,21.28123],[82.34723,21.28248],[82.3538,21.28173],[82.35409,21.2762],[82.34971,21.2725],[82.34803,21.26682],[82.35212,21.26455],[82.35597,21.26587],[82.36039,21.26598],[82.36672,21.27426],[82.37496,21.27348],[82.38047,21.26879],[82.38672,21.26161],[82.39435,21.26544],[82.39496,21.27721],[82.39762,21.28849],[82.40124,21.29349],[82.41695,21.3041],[82.42625,21.30763],[82.4339,21.30714],[82.44222,21.30535],[82.44795,21.30176],[82.44904,21.29714],[82.44163,21.28925],[82.44178,21.28189],[82.44587,21.28007],[82.4509,21.27548],[82.45739,21.27621],[82.45969,21.28905],[82.46135,21.2939],[82.46902,21.29424],[82.47293,21.29325],[82.47905,21.29481],[82.46692,21.30789],[82.46553,21.32292],[82.47277,21.32132],[82.47579,21.32523],[82.48664,21.31741],[82.49562,21.31432],[82.49772,21.31411],[82.50552,21.31333],[82.5142,21.31502],[82.52112,21.31758],[82.53119,21.3266],[82.53301,21.32805],[82.53656,21.32548],[82.54184,21.32229],[82.54992,21.31992],[82.55356,21.31915],[82.55946,21.31932],[82.56656,21.32086],[82.56893,21.32198],[82.57637,21.32583],[82.58202,21.32933],[82.58684,21.33303],[82.59277,21.33486],[82.59472,21.33511],[82.60162,21.33526],[82.60644,21.33582],[82.61069,21.33694],[82.61485,21.33862],[82.63453,21.34048],[82.64295,21.34383],[82.64912,21.34777],[82.65046,21.34563],[82.66301,21.33492],[82.67929,21.32865],[82.68932,21.32982],[82.69916,21.32995],[82.70271,21.34498],[82.70249,21.36321],[82.70444,21.37201],[82.70047,21.38441],[82.69948,21.39345],[82.70232,21.40297],[82.70218,21.40766],[82.69994,21.43703],[82.69854,21.44968],[82.69006,21.48124],[82.73302,21.48976],[82.7518,21.5036],[82.76304,21.51425],[82.7724,21.51951],[82.78555,21.50878],[82.7918,21.50654],[82.79624,21.50711],[82.80655,21.50664],[82.82093,21.50259],[82.82818,21.50145],[82.8284,21.50687],[82.82317,21.51977],[82.82242,21.52622],[82.82443,21.52849],[82.83127,21.52633],[82.8358,21.53085],[82.83778,21.53624],[82.84296,21.539],[82.85233,21.53993],[82.8627,21.54636],[82.86861,21.54819],[82.87588,21.55043],[82.88075,21.54813],[82.88432,21.54447],[82.88844,21.54025],[82.89706,21.52922],[82.89813,21.52442],[82.90237,21.5201],[82.90427,21.51586],[82.90943,21.50432],[82.91317,21.49741],[82.91593,21.49268],[82.92015,21.48791],[82.92817,21.49033],[82.93147,21.49245],[82.93456,21.49444],[82.93457,21.49445]]]}}]}