{"type":"FeatureCollection","features":[{"type":"Feature","properties":{"id":"baksa","name":"Baksa","stateId":"assam","stateName":"Assam","censuscode":324,"type":"district"},"geometry":{"type":"Polygon","coordinates":[[[91.78311,26.49367],[91.77991,26.49523],[91.77022,26.49707],[91.7572,26.49842],[91.74782,26.49913],[91.7419,26.49736],[91.73738,26.49289],[91.73286,26.48842],[91.72847,26.48543],[91.72371,26.47839],[91.72221,26.47111],[91.71678,26.4656],[91.71141,26.46083],[91.70481,26.46059],[91.68853,26.46217],[91.67214,26.4671],[91.66296,26.47],[91.65569,26.48015],[91.64562,26.48682],[91.64283,26.49664],[91.64286,26.50144],[91.64146,26.51301],[91.63622,26.51413],[91.6284,26.51398],[91.62357,26.51508],[91.622,26.51593],[91.62078,26.52046],[91.61866,26.52431],[91.61451,26.52832],[91.60542,26.53009],[91.59952,26.53302],[91.59768,26.53649],[91.59811,26.54117],[91.59719,26.54789],[91.5953,26.55413],[91.59381,26.56145],[91.59174,26.56576],[91.58857,26.56821],[91.58278,26.57224],[91.57568,26.57222],[91.57076,26.5723],[91.56422,26.575],[91.55394,26.57715],[91.54646,26.57632],[91.54022,26.57207],[91.5359,26.57211],[91.53244,26.57125],[91.5304,26.56919],[91.53043,26.56614],[91.53114,26.56386],[91.53224,26.5624],[91.52873,26.55767],[91.52514,26.55544],[91.52333,26.55252],[91.52372,26.55],[91.52438,26.54718],[91.52484,26.54548],[91.52368,26.54279],[91.51873,26.5426],[91.51577,26.54393],[91.51378,26.54241],[91.51207,26.5406],[91.51195,26.53922],[91.51085,26.53736],[91.50884,26.53557],[91.50522,26.53306],[91.50196,26.53109],[91.49859,26.53133],[91.49466,26.53551],[91.49274,26.53814],[91.49003,26.54222],[91.48747,26.54795],[91.48506,26.55201],[91.48148,26.55671],[91.48017,26.56263],[91.47891,26.56577],[91.47367,26.57253],[91.47456,26.57551],[91.47152,26.57934],[91.46248,26.58167],[91.45967,26.58132],[91.45501,26.5775],[91.45089,26.56949],[91.44668,26.56037],[91.43933,26.55758],[91.43322,26.5547],[91.42723,26.5532],[91.41912,26.5488],[91.41852,26.54552],[91.4173,26.54228],[91.41296,26.53512],[91.40476,26.52962],[91.38206,26.52739],[91.37408,26.5277],[91.36269,26.52437],[91.35466,26.52079],[91.3511,26.51883],[91.3508,26.51553],[91.34971,26.50341],[91.34801,26.50159],[91.34335,26.49777],[91.33576,26.49555],[91.32993,26.49237],[91.32435,26.49195],[91.31359,26.49217],[91.30532,26.49277],[91.29827,26.49661],[91.29281,26.50448],[91.2926,26.50894],[91.29654,26.5117],[91.29775,26.51494],[91.29839,26.5221],[91.29733,26.52744],[91.29538,26.5298],[91.29436,26.53209],[91.29383,26.53656],[91.29492,26.54535],[91.30041,26.55161],[91.30657,26.55837],[91.30744,26.56468],[91.31101,26.57357],[91.31027,26.57917],[91.30654,26.58221],[91.29968,26.58132],[91.2984,26.58086],[91.29535,26.57775],[91.2912,26.57611],[91.28293,26.57671],[91.27772,26.57708],[91.27234,26.57553],[91.26558,26.57574],[91.26594,26.57627],[91.26194,26.57988],[91.25951,26.58366],[91.25892,26.59091],[91.26023,26.60218],[91.26079,26.60851],[91.25686,26.61628],[91.25124,26.6189],[91.24207,26.61984],[91.23926,26.61949],[91.23751,26.61712],[91.23505,26.61369],[91.23283,26.61302],[91.23069,26.61317],[91.22876,26.61322],[91.22631,26.61293],[91.22357,26.61329],[91.22351,26.61267],[91.22307,26.61161],[91.22204,26.61168],[91.22066,26.61178],[91.22004,26.61073],[91.21992,26.60934],[91.21912,26.60815],[91.21667,26.60599],[91.21431,26.60475],[91.21143,26.60355],[91.20991,26.6021],[91.20931,26.60121],[91.21054,26.59941],[91.21274,26.59878],[91.21409,26.59838],[91.21438,26.59773],[91.21565,26.59639],[91.21368,26.59373],[91.20951,26.59169],[91.20674,26.59173],[91.20355,26.5929],[91.20069,26.59591],[91.19939,26.59881],[91.19999,26.60172],[91.20105,26.60586],[91.19919,26.6102],[91.19557,26.61046],[91.19292,26.608],[91.19052,26.60833],[91.18716,26.61153],[91.185,26.61262],[91.18188,26.61456],[91.1783,26.61715],[91.17445,26.6207],[91.17288,26.62455],[91.17296,26.62938],[91.17153,26.63478],[91.1702,26.63737],[91.16798,26.64174],[91.16787,26.64642],[91.16927,26.6524],[91.16735,26.65815],[91.16447,26.66085],[91.1618,26.66213],[91.15766,26.6643],[91.15435,26.66422],[91.15338,26.66304],[91.15169,26.6616],[91.14942,26.65943],[91.14928,26.65788],[91.15001,26.65627],[91.15107,26.65448],[91.15038,26.65266],[91.14912,26.65212],[91.14662,26.65324],[91.14544,26.65363],[91.14386,26.65343],[91.1418,26.65171],[91.14133,26.65034],[91.14158,26.64721],[91.14395,26.64657],[91.14607,26.64704],[91.14754,26.646],[91.14849,26.645],[91.1483,26.64283],[91.14817,26.64128],[91.14858,26.63813],[91.14845,26.63658],[91.14772,26.6343],[91.14469,26.6314],[91.14387,26.6299],[91.1435,26.62774],[91.1443,26.62503],[91.14551,26.62292],[91.148,26.62165],[91.14861,26.6188],[91.14614,26.61633],[91.14329,26.61357],[91.14138,26.61152],[91.13918,26.60825],[91.13985,26.60602],[91.14202,26.60306],[91.14245,26.60007],[91.1418,26.59668],[91.14084,26.59363],[91.13996,26.59151],[91.14125,26.58846],[91.14288,26.58523],[91.14671,26.58152],[91.14734,26.57883],[91.1478,26.57615],[91.14792,26.57364],[91.14772,26.57132],[91.1464,26.56814],[91.1446,26.56546],[91.1448,26.56373],[91.14118,26.55265],[91.13746,26.54543],[91.12985,26.54292],[91.11908,26.54313],[91.11565,26.53922],[91.11291,26.53609],[91.10816,26.52756],[91.10667,26.52461],[91.10508,26.52057],[91.10206,26.51774],[91.09839,26.518],[91.09396,26.52025],[91.08985,26.52248],[91.08404,26.5265],[91.07689,26.53283],[91.07247,26.53868],[91.06934,26.54167],[91.06535,26.54528],[91.06182,26.5472],[91.05501,26.55045],[91.05068,26.5538],[91.05036,26.55715],[91.04838,26.55923],[91.04068,26.55922],[91.02873,26.56006],[91.02435,26.55926],[91.02244,26.55857],[91.02119,26.55838],[91.01718,26.55764],[91.01339,26.55588],[91.00778,26.55316],[91.00531,26.55068],[90.99599,26.54415],[90.98527,26.54688],[90.9805,26.54869],[90.97505,26.54907],[90.96957,26.54897],[90.96433,26.54539],[90.95101,26.54337],[90.94196,26.54006],[90.93903,26.53929],[90.93775,26.53962],[90.9378,26.5416],[90.93691,26.54494],[90.93552,26.5469],[90.93141,26.54742],[90.93017,26.5481],[90.92861,26.55113],[90.92843,26.5536],[90.92692,26.55557],[90.92502,26.55617],[90.92059,26.55613],[90.91854,26.55639],[90.91848,26.55873],[90.92132,26.56157],[90.92363,26.5627],[90.92424,26.56371],[90.92467,26.56567],[90.92412,26.56687],[90.92218,26.56701],[90.9206,26.56677],[90.91952,26.56778],[90.91994,26.56962],[90.92131,26.57198],[90.92071,26.57401],[90.91853,26.57743],[90.91837,26.5785],[90.91897,26.58103],[90.9204,26.58245],[90.9195,26.58415],[90.91712,26.58513],[90.91497,26.58587],[90.91386,26.58805],[90.913,26.58869],[90.90799,26.58787],[90.90602,26.58766],[90.90357,26.58631],[90.89475,26.58061],[90.89183,26.57836],[90.88948,26.57829],[90.88177,26.57778],[90.87893,26.57657],[90.87782,26.57419],[90.87563,26.57142],[90.87351,26.57098],[90.87169,26.57099],[90.86881,26.56921],[90.86878,26.56582],[90.87081,26.56369],[90.87081,26.55913],[90.87121,26.5563],[90.87043,26.55331],[90.86805,26.54974],[90.8669,26.54397],[90.86919,26.53727],[90.87158,26.5364],[90.87389,26.53449],[90.87552,26.53086],[90.87605,26.5279],[90.87634,26.5252],[90.87527,26.5234],[90.87123,26.52321],[90.86713,26.52245],[90.86544,26.52093],[90.8643,26.51972],[90.86209,26.51976],[90.8597,26.52062],[90.85733,26.52184],[90.85411,26.52321],[90.85508,26.52537],[90.85662,26.53388],[90.85054,26.53349],[90.84559,26.53584],[90.83401,26.53861],[90.83344,26.54001],[90.83308,26.54087],[90.83155,26.54065],[90.83203,26.55621],[90.8241,26.56003],[90.82167,26.56374],[90.82026,26.56814],[90.83098,26.5753],[90.84746,26.57104],[90.85023,26.57188],[90.85185,26.57762],[90.85347,26.57899],[90.85543,26.58254],[90.85372,26.58297],[90.85614,26.59527],[90.85778,26.5978],[90.86368,26.59895],[90.86853,26.59826],[90.87143,26.59985],[90.87319,26.60237],[90.87453,26.60627],[90.877,26.6164],[90.88229,26.62009],[90.88691,26.62125],[90.89378,26.62454],[90.89387,26.62458],[90.89433,26.62506],[90.9005,26.63144],[90.90228,26.63474],[90.90241,26.63499],[90.90324,26.63954],[90.90328,26.64061],[90.90399,26.65833],[90.90283,26.66155],[90.90276,26.66174],[90.89768,26.66381],[90.897,26.66601],[90.89757,26.66975],[90.90012,26.67711],[90.90021,26.67725],[90.90334,26.68238],[90.90166,26.68604],[90.90161,26.68614],[90.90229,26.6893],[90.90347,26.69096],[90.90378,26.69115],[90.90973,26.69476],[90.91191,26.69753],[90.91202,26.69767],[90.91437,26.70497],[90.91457,26.70522],[90.91848,26.71032],[90.91859,26.71323],[90.9186,26.71338],[90.91617,26.7176],[90.91663,26.72621],[90.91694,26.72657],[90.92497,26.73578],[90.92591,26.73978],[90.92594,26.73994],[90.93216,26.74461],[90.93671,26.75584],[90.93841,26.75833],[90.93854,26.75843],[90.9412,26.76047],[90.94111,26.76273],[90.94111,26.76284],[90.94139,26.76337],[90.94502,26.77021],[90.94579,26.77431],[90.94585,26.77462],[90.95409,26.77656],[90.95423,26.77666],[90.95779,26.77915],[90.95911,26.78321],[90.95916,26.78336],[90.95916,26.78337],[90.96526,26.78418],[90.98034,26.78491],[90.99177,26.78705],[91.0004,26.78778],[91.00758,26.78616],[91.01816,26.78495],[91.03523,26.78038],[91.04582,26.77852],[91.05829,26.77895],[91.06186,26.78179],[91.0799,26.79996],[91.09341,26.81791],[91.10093,26.81926],[91.11007,26.81368],[91.12117,26.81165],[91.134,26.80792],[91.14828,26.80845],[91.18457,26.81086],[91.20654,26.80812],[91.22143,26.80829],[91.24105,26.80833],[91.25326,26.80567],[91.26646,26.80436],[91.28096,26.79621],[91.29364,26.78822],[91.29912,26.7845],[91.31403,26.78266],[91.33147,26.77977],[91.34034,26.77897],[91.34524,26.78109],[91.36364,26.78878],[91.37674,26.79549],[91.38361,26.80079],[91.38875,26.80862],[91.39388,26.81679],[91.40198,26.82914],[91.40614,26.83442],[91.41238,26.83484],[91.42445,26.8271],[91.44057,26.81652],[91.44553,26.81431],[91.4515,26.81112],[91.45849,26.80703],[91.47168,26.79723],[91.48212,26.79101],[91.49663,26.78898],[91.5148,26.79203],[91.53478,26.79501],[91.56401,26.79905],[91.59455,26.80392],[91.60407,26.80771],[91.61595,26.81593],[91.62757,26.82045],[91.63614,26.81998],[91.65732,26.8142],[91.68298,26.80383],[91.69092,26.80417],[91.70092,26.81092],[91.70585,26.81088],[91.70788,26.81092],[91.71085,26.79661],[91.71269,26.78951],[91.71535,26.78384],[91.71569,26.77676],[91.72141,26.75311],[91.72643,26.74268],[91.731,26.73578],[91.73697,26.72932],[91.73607,26.71219],[91.74347,26.69862],[91.74171,26.69227],[91.74591,26.68686],[91.74668,26.68317],[91.74623,26.67863],[91.74431,26.67486],[91.74383,26.66871],[91.7382,26.66815],[91.73667,26.6645],[91.73593,26.65766],[91.73712,26.65253],[91.74177,26.6516],[91.74371,26.64824],[91.74815,26.64629],[91.74619,26.64297],[91.74135,26.64056],[91.74163,26.63751],[91.74648,26.63738],[91.7508,26.63635],[91.75089,26.63376],[91.7485,26.6315],[91.746,26.63066],[91.74134,26.6317],[91.7392,26.62972],[91.74004,26.62586],[91.74861,26.62712],[91.74917,26.62539],[91.74611,26.62249],[91.74498,26.61894],[91.74282,26.61569],[91.74269,26.61207],[91.74626,26.6107],[91.74195,26.60466],[91.74266,26.60114],[91.74742,26.60344],[91.75221,26.60401],[91.75302,26.60192],[91.75067,26.59914],[91.74984,26.59506],[91.74587,26.58994],[91.75053,26.5859],[91.75023,26.58269],[91.75151,26.57877],[91.756,26.57582],[91.76119,26.57633],[91.76395,26.57393],[91.7684,26.56818],[91.76821,26.56456],[91.77511,26.55238],[91.77806,26.54901],[91.78174,26.54792],[91.78105,26.54448],[91.78251,26.54003],[91.78674,26.53658],[91.77997,26.52834],[91.78414,26.5292],[91.78725,26.52876],[91.78638,26.52555],[91.78233,26.52462],[91.78014,26.52286],[91.7864,26.51973],[91.78573,26.51675],[91.783,26.51455],[91.78282,26.51132],[91.78738,26.50482],[91.7891,26.49942],[91.78939,26.49852],[91.78494,26.49588],[91.78311,26.49367]]]}}]}