{"type":"FeatureCollection","features":[{"type":"Feature","properties":{"id":"bongaigaon","name":"Bongaigaon","stateId":"assam","stateName":"Assam","censuscode":319,"type":"district"},"geometry":{"type":"Polygon","coordinates":[[[90.85418,26.52336],[90.85336,26.52153],[90.85426,26.51742],[90.85265,26.50788],[90.85511,26.50179],[90.85397,26.49886],[90.84929,26.49702],[90.84681,26.49837],[90.84154,26.50418],[90.83866,26.5041],[90.83153,26.50128],[90.82856,26.49907],[90.82515,26.49242],[90.8198,26.4942],[90.81629,26.4985],[90.8123,26.50028],[90.80967,26.49973],[90.80892,26.49241],[90.80646,26.49422],[90.80832,26.48625],[90.80723,26.4824],[90.80737,26.4786],[90.81022,26.47672],[90.82037,26.47633],[90.82187,26.46127],[90.82889,26.45307],[90.82891,26.44967],[90.82175,26.44104],[90.81815,26.43901],[90.81189,26.43895],[90.80445,26.4407],[90.79927,26.44456],[90.79697,26.44452],[90.791,26.44147],[90.78989,26.44061],[90.7898,26.43872],[90.79719,26.42844],[90.80241,26.42792],[90.82118,26.43228],[90.8235,26.43364],[90.82561,26.43362],[90.82903,26.43214],[90.83057,26.43218],[90.83229,26.43223],[90.83575,26.43351],[90.84164,26.43853],[90.84516,26.44414],[90.84755,26.44544],[90.85469,26.44093],[90.86024,26.43649],[90.86237,26.43375],[90.86215,26.43145],[90.85904,26.42491],[90.85397,26.41804],[90.85247,26.41218],[90.84725,26.40225],[90.84739,26.40196],[90.84944,26.39768],[90.84855,26.39406],[90.85066,26.38948],[90.85348,26.38616],[90.85365,26.38602],[90.85978,26.38091],[90.86359,26.37538],[90.86392,26.36828],[90.8614,26.36162],[90.85827,26.36068],[90.85163,26.36052],[90.84412,26.35783],[90.84271,26.35791],[90.8351,26.36081],[90.82962,26.36537],[90.82691,26.3665],[90.82153,26.36558],[90.81103,26.35479],[90.80816,26.35073],[90.80744,26.34866],[90.80767,26.34306],[90.80416,26.33866],[90.79296,26.32795],[90.79274,26.32542],[90.79542,26.3251],[90.79781,26.32334],[90.80485,26.32067],[90.80742,26.3132],[90.80471,26.30682],[90.80304,26.30587],[90.80199,26.30625],[90.8019,26.30628],[90.79819,26.30546],[90.79368,26.30263],[90.77947,26.30336],[90.77028,26.30664],[90.76676,26.31054],[90.76264,26.31294],[90.75372,26.30859],[90.75009,26.30472],[90.7493,26.30231],[90.74569,26.29987],[90.73428,26.29543],[90.72302,26.28357],[90.72204,26.28191],[90.72158,26.27661],[90.72293,26.2679],[90.73479,26.26811],[90.73583,26.26551],[90.73613,26.25906],[90.73362,26.25752],[90.72889,26.25665],[90.7266,26.25742],[90.71942,26.26355],[90.70561,26.25575],[90.68765,26.25726],[90.68063,26.2564],[90.66789,26.25192],[90.66454,26.24897],[90.6585,26.24603],[90.65602,26.24138],[90.60899,26.23039],[90.56376,26.21744],[90.52301,26.20794],[90.50875,26.19972],[90.46583,26.20496],[90.42407,26.19881],[90.4022,26.19014],[90.39468,26.18758],[90.37933,26.18146],[90.38031,26.18872],[90.38114,26.20644],[90.38001,26.21318],[90.37991,26.22136],[90.38184,26.22389],[90.38556,26.22553],[90.39116,26.22491],[90.39655,26.22216],[90.39838,26.22037],[90.40226,26.22063],[90.40714,26.22399],[90.41822,26.23439],[90.42213,26.23632],[90.42988,26.24433],[90.44056,26.24321],[90.44242,26.24412],[90.44315,26.24665],[90.43785,26.25118],[90.43359,26.25696],[90.43341,26.25916],[90.4342,26.26064],[90.43805,26.26206],[90.44077,26.26089],[90.44368,26.25401],[90.44925,26.24959],[90.45089,26.2486],[90.45236,26.24877],[90.45474,26.25042],[90.45526,26.25214],[90.44865,26.25812],[90.44619,26.26165],[90.44604,26.26447],[90.44844,26.26871],[90.45205,26.27169],[90.45396,26.27224],[90.46085,26.26592],[90.46376,26.26498],[90.4702,26.26481],[90.47315,26.26606],[90.47579,26.26868],[90.47646,26.27133],[90.47399,26.27238],[90.46837,26.27242],[90.45964,26.27249],[90.45933,26.27697],[90.45911,26.28021],[90.46043,26.2844],[90.46144,26.27817],[90.46149,26.27783],[90.46398,26.27723],[90.47323,26.27785],[90.47217,26.28069],[90.46823,26.28204],[90.46684,26.28804],[90.46762,26.28895],[90.47138,26.28898],[90.47845,26.288],[90.48286,26.28941],[90.48376,26.29016],[90.48404,26.29222],[90.48364,26.29597],[90.48177,26.29932],[90.48135,26.30181],[90.48274,26.30507],[90.48162,26.30802],[90.47266,26.32122],[90.47055,26.32618],[90.47331,26.32743],[90.47705,26.33108],[90.47604,26.33236],[90.47375,26.33295],[90.46543,26.33013],[90.46029,26.33772],[90.45821,26.33876],[90.46042,26.34295],[90.45699,26.34954],[90.45887,26.35229],[90.46088,26.35607],[90.45644,26.35788],[90.45326,26.35356],[90.45019,26.34739],[90.44832,26.34579],[90.4461,26.34627],[90.44462,26.36177],[90.43877,26.35847],[90.43929,26.35715],[90.44211,26.34993],[90.44207,26.34556],[90.44128,26.34389],[90.43847,26.34288],[90.43618,26.34364],[90.43417,26.34745],[90.43559,26.35395],[90.42897,26.36004],[90.42641,26.36477],[90.42422,26.3633],[90.41732,26.36225],[90.40527,26.36309],[90.39985,26.36272],[90.38591,26.36616],[90.38344,26.36768],[90.38193,26.36988],[90.38438,26.37141],[90.38467,26.37183],[90.38626,26.3741],[90.38671,26.37328],[90.38807,26.37076],[90.38948,26.3704],[90.3912,26.37648],[90.39348,26.38016],[90.39864,26.38542],[90.39886,26.38788],[90.39751,26.39097],[90.39756,26.39101],[90.39951,26.40129],[90.4035,26.41365],[90.41011,26.43324],[90.40981,26.43401],[90.4106,26.4333],[90.41352,26.43072],[90.41939,26.43185],[90.42112,26.43239],[90.42305,26.43247],[90.42488,26.43127],[90.42533,26.42798],[90.42485,26.42498],[90.42467,26.42282],[90.42466,26.41979],[90.42585,26.41667],[90.42784,26.41459],[90.4282,26.41305],[90.42701,26.41031],[90.42604,26.40734],[90.42739,26.40616],[90.42931,26.40603],[90.4328,26.40753],[90.4384,26.40825],[90.4401,26.40553],[90.44132,26.40566],[90.44238,26.40689],[90.44309,26.40967],[90.44377,26.41201],[90.44528,26.41277],[90.446,26.40991],[90.44702,26.40767],[90.44962,26.40706],[90.45212,26.40819],[90.45382,26.4083],[90.45576,26.40557],[90.45755,26.40393],[90.4609,26.4037],[90.46237,26.40686],[90.46265,26.41031],[90.46305,26.41223],[90.46106,26.41432],[90.45956,26.41659],[90.46023,26.41893],[90.4589,26.42032],[90.46078,26.42258],[90.4628,26.42374],[90.46296,26.42569],[90.46074,26.428],[90.4616,26.42968],[90.46281,26.43263],[90.46433,26.43644],[90.46444,26.43773],[90.46451,26.43859],[90.46808,26.44096],[90.47006,26.44169],[90.47101,26.44445],[90.47174,26.44743],[90.47229,26.45108],[90.47464,26.45331],[90.47591,26.45409],[90.47966,26.45579],[90.4949,26.45448],[90.50748,26.45466],[90.51844,26.45598],[90.52601,26.45085],[90.52486,26.43704],[90.52462,26.42729],[90.52577,26.42053],[90.53197,26.4196],[90.53807,26.42433],[90.54287,26.42709],[90.54863,26.42773],[90.55203,26.43418],[90.55118,26.44452],[90.55207,26.45526],[90.55703,26.46674],[90.56183,26.4695],[90.56352,26.47607],[90.56363,26.48429],[90.56112,26.49525],[90.55673,26.50429],[90.56415,26.51098],[90.57069,26.51414],[90.57415,26.51442],[90.59102,26.51122],[90.5968,26.50518],[90.6,26.49571],[90.60491,26.48612],[90.60907,26.48121],[90.61418,26.48086],[90.61715,26.4822],[90.62789,26.48764],[90.63334,26.49807],[90.63014,26.50086],[90.62428,26.50588],[90.62147,26.51327],[90.6219,26.51838],[90.63256,26.52279],[90.64265,26.52725],[90.65628,26.52632],[90.66406,26.52373],[90.66809,26.51729],[90.67557,26.51112],[90.68012,26.51081],[90.68693,26.51035],[90.69048,26.50496],[90.69472,26.50108],[90.69425,26.49545],[90.69442,26.49082],[90.69823,26.4885],[90.70203,26.4857],[90.70692,26.48652],[90.71119,26.48767],[90.71225,26.485],[90.71572,26.48418],[90.71842,26.48573],[90.72117,26.4841],[90.72348,26.48105],[90.72454,26.48213],[90.72825,26.48419],[90.73306,26.48415],[90.73714,26.483],[90.74041,26.48365],[90.74425,26.48338],[90.74565,26.48097],[90.7485,26.47673],[90.75265,26.47644],[90.75302,26.47323],[90.75516,26.47193],[90.75929,26.47512],[90.76278,26.47835],[90.76391,26.48405],[90.76798,26.48666],[90.77302,26.48545],[90.77499,26.48213],[90.7774,26.47647],[90.77966,26.47285],[90.78669,26.47236],[90.79047,26.47528],[90.79315,26.4803],[90.79052,26.48337],[90.78469,26.48667],[90.78182,26.49063],[90.77747,26.49613],[90.77422,26.49954],[90.76771,26.5023],[90.7623,26.50672],[90.76013,26.51149],[90.76163,26.51775],[90.76544,26.52096],[90.77748,26.52273],[90.78483,26.52223],[90.78995,26.52187],[90.79528,26.52411],[90.79717,26.52745],[90.79715,26.53092],[90.80059,26.53357],[90.80356,26.53452],[90.81212,26.53307],[90.8177,26.53065],[90.82436,26.52962],[90.83311,26.5267],[90.8384,26.52459],[90.84808,26.52508],[90.85093,26.52459],[90.85418,26.52336]]]}}]}