{"type":"FeatureCollection","features":[{"type":"Feature","properties":{"id":"cachar","name":"Cachar","stateId":"assam","stateName":"Assam","censuscode":316,"type":"district"},"geometry":{"type":"Polygon","coordinates":[[[93.25235,24.97158],[93.25237,24.96905],[93.25817,24.96906],[93.2627,24.96278],[93.26277,24.96028],[93.26003,24.95527],[93.26026,24.95027],[93.26182,24.94777],[93.26182,24.94777],[93.26182,24.94777],[93.25893,24.94777],[93.25299,24.95151],[93.24869,24.95151],[93.24881,24.94901],[93.25036,24.94652],[93.25053,24.94277],[93.25355,24.93903],[93.25355,24.93903],[93.25355,24.93903],[93.24926,24.93903],[93.24637,24.94027],[93.24352,24.94028],[93.24077,24.93778],[93.23943,24.93528],[93.23947,24.93402],[93.24088,24.93403],[93.24499,24.93585],[93.2465,24.93652],[93.2465,24.93652],[93.24793,24.93653],[93.24662,24.93277],[93.24247,24.92776],[93.24392,24.92651],[93.24963,24.92651],[93.2521,24.91739],[93.25268,24.91523],[93.24986,24.91147],[93.24986,24.91147],[93.24986,24.91147],[93.24127,24.91147],[93.23983,24.91272],[93.23841,24.91146],[93.24129,24.9077],[93.24275,24.90392],[93.24277,24.90015],[93.24134,24.89765],[93.24134,24.89765],[93.24134,24.89765],[93.23561,24.89889],[93.23277,24.89513],[93.23277,24.89135],[93.23277,24.89135],[93.23277,24.89135],[93.2299,24.89135],[93.2342,24.88633],[93.23278,24.88129],[93.23278,24.88129],[93.23278,24.88129],[93.22848,24.88129],[93.22563,24.87752],[93.22849,24.87375],[93.22418,24.87123],[93.22132,24.86745],[93.21846,24.86619],[93.21559,24.86116],[93.21367,24.85841],[93.21367,24.85841],[93.21211,24.85733],[93.20952,24.85552],[93.20808,24.85301],[93.20808,24.85301],[93.20808,24.85301],[93.20522,24.85175],[93.20522,24.85175],[93.19947,24.85425],[93.1966,24.853],[93.19804,24.84923],[93.20092,24.84671],[93.20093,24.84043],[93.20093,24.84043],[93.20093,24.84043],[93.19519,24.84295],[93.19375,24.84043],[93.19663,24.83666],[93.19807,24.83666],[93.19951,24.83792],[93.19951,24.83792],[93.19951,24.83792],[93.20094,24.83667],[93.19808,24.83289],[93.19808,24.83289],[93.19808,24.83289],[93.19521,24.83414],[93.19378,24.83415],[93.19235,24.83289],[93.19235,24.83038],[93.1947,24.83038],[93.19666,24.83038],[93.19237,24.82283],[93.19095,24.81907],[93.19526,24.81279],[93.19814,24.81154],[93.1967,24.80776],[93.19384,24.80525],[93.19242,24.80273],[93.19242,24.80273],[93.19242,24.80273],[93.18954,24.80273],[93.18525,24.80147],[93.18095,24.80147],[93.17952,24.79895],[93.17953,24.79518],[93.17811,24.79267],[93.17811,24.79267],[93.17811,24.79267],[93.17667,24.79266],[93.17523,24.79392],[93.17378,24.80021],[93.16805,24.79768],[93.16519,24.79517],[93.16519,24.79517],[93.16519,24.79517],[93.1609,24.79391],[93.15661,24.78888],[93.15233,24.78637],[93.15233,24.78637],[93.15231,24.79013],[93.15087,24.79264],[93.14799,24.79515],[93.14369,24.7964],[93.14224,24.79766],[93.13936,24.80142],[93.13648,24.8077],[93.13076,24.80266],[93.13076,24.80266],[93.13076,24.80266],[93.12645,24.80518],[93.12072,24.80517],[93.11928,24.80768],[93.12212,24.81145],[93.1221,24.81648],[93.11957,24.81424],[93.11925,24.81396],[93.11066,24.80893],[93.10924,24.80641],[93.11214,24.79887],[93.10788,24.78756],[93.10501,24.78505],[93.10504,24.78127],[93.10647,24.78002],[93.10076,24.77499],[93.10221,24.76996],[93.10509,24.7662],[93.10368,24.75992],[93.09942,24.75112],[93.09944,24.74735],[93.10087,24.74609],[93.09802,24.74106],[93.10089,24.73856],[93.10233,24.73982],[93.10231,24.74358],[93.10231,24.74358],[93.10231,24.74358],[93.10303,24.74326],[93.10518,24.74233],[93.10662,24.73857],[93.10378,24.73354],[93.09664,24.7285],[93.09665,24.72473],[93.0938,24.72096],[93.0938,24.72096],[93.0938,24.72096],[93.09237,24.72096],[93.09338,24.71831],[93.09381,24.71719],[93.0924,24.71217],[93.08814,24.70588],[93.08814,24.70588],[93.08814,24.70588],[93.07808,24.71089],[93.07524,24.70712],[93.07957,24.70085],[93.08244,24.69834],[93.08389,24.69457],[93.08963,24.68956],[93.09252,24.68454],[93.09253,24.68077],[93.09112,24.67701],[93.09113,24.6745],[93.09257,24.67324],[93.09686,24.6745],[93.10081,24.67682],[93.10114,24.67702],[93.10114,24.67702],[93.10401,24.67577],[93.10403,24.672],[93.10262,24.66823],[93.09834,24.66321],[93.09694,24.65944],[93.09696,24.65568],[93.09555,24.65317],[93.09557,24.6494],[93.09557,24.6494],[93.09557,24.6494],[93.08842,24.64939],[93.08556,24.64813],[93.08415,24.64437],[93.08859,24.63058],[93.08866,24.62431],[93.08866,24.62431],[93.08866,24.62431],[93.08149,24.6243],[93.07863,24.62304],[93.07869,24.61803],[93.08162,24.61428],[93.086,24.61053],[93.08603,24.60802],[93.07605,24.60048],[93.07465,24.59672],[93.07469,24.59295],[93.07908,24.5892],[93.08779,24.58672],[93.09789,24.588],[93.10367,24.58425],[93.10594,24.58061],[93.10619,24.58021],[93.10619,24.58021],[93.10577,24.58004],[93.10368,24.57923],[93.09649,24.57921],[93.09544,24.57689],[93.08636,24.56787],[93.08636,24.56787],[93.08636,24.56787],[93.07769,24.57162],[93.07046,24.57286],[93.06038,24.57158],[93.07192,24.5578],[93.06477,24.544],[93.06477,24.544],[93.06477,24.544],[93.06045,24.55151],[93.05191,24.54148],[93.05052,24.53395],[93.0477,24.52768],[93.05203,24.52142],[93.05205,24.5164],[93.04064,24.51136],[93.03923,24.50759],[93.04353,24.50257],[93.03496,24.49374],[93.04489,24.47858],[93.04768,24.47224],[93.04741,24.46072],[93.04741,24.46072],[93.03707,24.45793],[93.03588,24.44073],[93.03129,24.42565],[93.03846,24.41435],[93.03827,24.4079],[93.03827,24.4079],[93.03827,24.4079],[93.02833,24.40313],[93.01512,24.39935],[93.01512,24.39935],[93.00805,24.40221],[93.0056,24.40877],[92.99965,24.40013],[92.9972,24.39843],[92.99451,24.39882],[92.99107,24.40236],[92.98749,24.40453],[92.9846,24.40445],[92.97944,24.40659],[92.97485,24.40466],[92.97001,24.39813],[92.95953,24.39282],[92.95953,24.39282],[92.95771,24.39461],[92.95732,24.39499],[92.95687,24.39576],[92.95392,24.40083],[92.95324,24.40144],[92.95309,24.40157],[92.95133,24.40172],[92.95046,24.40179],[92.94891,24.40114],[92.94336,24.3988],[92.93977,24.39802],[92.93776,24.396],[92.93695,24.39369],[92.93494,24.39253],[92.92689,24.39564],[92.92461,24.39923],[92.92291,24.39962],[92.92184,24.40117],[92.92265,24.40273],[92.91081,24.40994],[92.90857,24.40021],[92.905,24.3961],[92.90513,24.39242],[92.90444,24.3915],[92.90444,24.3915],[92.90444,24.3915],[92.90143,24.39077],[92.90023,24.39048],[92.90023,24.39048],[92.89563,24.39136],[92.89563,24.39136],[92.89366,24.39238],[92.89101,24.39886],[92.89007,24.39937],[92.8873,24.39872],[92.88353,24.40013],[92.8775,24.39599],[92.8775,24.39599],[92.8775,24.39599],[92.87317,24.39435],[92.87109,24.39417],[92.86222,24.39662],[92.85838,24.39555],[92.8538,24.39115],[92.85098,24.38952],[92.84841,24.38329],[92.84689,24.38063],[92.84623,24.37948],[92.84506,24.3784],[92.84359,24.37704],[92.84359,24.37704],[92.84359,24.37704],[92.83941,24.37788],[92.83894,24.37798],[92.83555,24.3758],[92.8324,24.37379],[92.83204,24.37356],[92.83204,24.37356],[92.83204,24.37356],[92.82909,24.37467],[92.82832,24.37497],[92.82806,24.37547],[92.82751,24.37651],[92.82761,24.38277],[92.82546,24.38493],[92.82477,24.38563],[92.82467,24.38619],[92.82439,24.38769],[92.82546,24.3898],[92.82595,24.39075],[92.831,24.39663],[92.83071,24.39769],[92.83071,24.39769],[92.82969,24.39895],[92.82913,24.39919],[92.82416,24.40138],[92.8209,24.4037],[92.8205,24.40399],[92.8198,24.40548],[92.81772,24.40995],[92.81678,24.40971],[92.81583,24.40947],[92.81583,24.40947],[92.81583,24.40947],[92.81319,24.41017],[92.81054,24.41086],[92.81074,24.41223],[92.81079,24.41259],[92.8101,24.41254],[92.80884,24.41246],[92.80884,24.41246],[92.80827,24.41412],[92.80845,24.41483],[92.80889,24.41654],[92.8068,24.41704],[92.80656,24.4171],[92.80563,24.41681],[92.80367,24.4162],[92.80321,24.41606],[92.8031,24.41603],[92.80022,24.4163],[92.80021,24.4163],[92.80021,24.4163],[92.79945,24.41871],[92.79945,24.41871],[92.79945,24.41871],[92.80322,24.41897],[92.80365,24.42023],[92.80272,24.42312],[92.80226,24.42453],[92.79973,24.42922],[92.79752,24.43163],[92.7972,24.43197],[92.79675,24.43308],[92.79334,24.44131],[92.78934,24.45335],[92.78572,24.46102],[92.78387,24.46848],[92.78211,24.47142],[92.78171,24.47208],[92.78077,24.47568],[92.77866,24.48379],[92.76475,24.51816],[92.76475,24.51816],[92.76326,24.5187],[92.76305,24.51878],[92.7616,24.51813],[92.7616,24.51813],[92.76159,24.51814],[92.7592,24.51851],[92.75957,24.52121],[92.75957,24.52122],[92.75958,24.52123],[92.76177,24.52463],[92.76338,24.52982],[92.77522,24.54613],[92.77308,24.54853],[92.77302,24.55095],[92.77301,24.55169],[92.77611,24.55551],[92.77921,24.55933],[92.78065,24.55957],[92.78032,24.56923],[92.77433,24.56941],[92.76414,24.56657],[92.76414,24.56657],[92.76414,24.56657],[92.76066,24.57663],[92.76063,24.57671],[92.75501,24.5827],[92.75332,24.58211],[92.75331,24.58211],[92.75177,24.58221],[92.75016,24.58231],[92.74875,24.58288],[92.74593,24.584],[92.74159,24.58339],[92.74159,24.58339],[92.73875,24.5867],[92.73786,24.58649],[92.73453,24.58568],[92.73516,24.58253],[92.72565,24.56905],[92.72565,24.56905],[92.71924,24.56497],[92.71765,24.56846],[92.71641,24.5684],[92.71475,24.56832],[92.70489,24.56397],[92.70484,24.56404],[92.70478,24.56402],[92.70195,24.56833],[92.70096,24.56981],[92.69765,24.57248],[92.68972,24.57886],[92.68618,24.58047],[92.68617,24.58047],[92.67873,24.58152],[92.67679,24.58125],[92.67678,24.58126],[92.67185,24.58736],[92.66988,24.59107],[92.66988,24.59108],[92.66988,24.59108],[92.67037,24.59418],[92.67221,24.59661],[92.67356,24.59844],[92.66956,24.60671],[92.66975,24.60809],[92.66993,24.60942],[92.66993,24.60942],[92.66993,24.60942],[92.67843,24.60932],[92.68133,24.61085],[92.68133,24.61085],[92.68133,24.61085],[92.69016,24.61255],[92.6939,24.61545],[92.69404,24.6155],[92.69412,24.61556],[92.69648,24.61639],[92.69633,24.61696],[92.69603,24.61811],[92.69356,24.62108],[92.68101,24.62878],[92.67893,24.62791],[92.67502,24.62625],[92.67497,24.62625],[92.67485,24.62621],[92.66998,24.62626],[92.66998,24.62626],[92.66998,24.62626],[92.6666,24.63873],[92.6666,24.63877],[92.66659,24.63882],[92.66883,24.65879],[92.66694,24.66168],[92.66692,24.66171],[92.66692,24.66173],[92.66642,24.66953],[92.65989,24.66924],[92.65875,24.67199],[92.65785,24.67443],[92.65779,24.67458],[92.65757,24.67648],[92.65576,24.69174],[92.65788,24.6959],[92.65921,24.71161],[92.65854,24.72006],[92.6572,24.72274],[92.65649,24.72826],[92.65613,24.73573],[92.6573,24.74178],[92.65882,24.74638],[92.65916,24.74745],[92.66596,24.76206],[92.66598,24.7621],[92.66577,24.76543],[92.66577,24.76543],[92.66746,24.7675],[92.66721,24.7703],[92.66655,24.77707],[92.66851,24.78471],[92.66977,24.78984],[92.66984,24.78987],[92.66984,24.78988],[92.6725,24.79123],[92.67254,24.79125],[92.68401,24.80243],[92.68464,24.80654],[92.6803,24.81318],[92.67793,24.81458],[92.67792,24.81458],[92.67112,24.81482],[92.67111,24.81482],[92.66581,24.81402],[92.66051,24.81321],[92.66001,24.8133],[92.65679,24.81388],[92.64339,24.8191],[92.63978,24.81906],[92.63977,24.8191],[92.6364,24.82736],[92.63576,24.83143],[92.63575,24.83144],[92.63578,24.83148],[92.63893,24.83552],[92.63546,24.84153],[92.63177,24.84785],[92.63173,24.84798],[92.63167,24.84809],[92.63087,24.85135],[92.63103,24.85193],[92.63136,24.85314],[92.63125,24.85319],[92.62068,24.85803],[92.61808,24.85877],[92.6103,24.86093],[92.61026,24.86099],[92.61024,24.861],[92.59806,24.8779],[92.59804,24.87794],[92.59743,24.87776],[92.58214,24.87313],[92.58216,24.87144],[92.58216,24.871],[92.59039,24.86717],[92.59255,24.86403],[92.58909,24.86193],[92.58909,24.86193],[92.58909,24.86193],[92.578,24.86832],[92.57282,24.86999],[92.56031,24.8721],[92.55274,24.87014],[92.54563,24.86506],[92.54111,24.863],[92.54111,24.863],[92.54111,24.863],[92.53644,24.86195],[92.53524,24.86168],[92.53045,24.85938],[92.53045,24.85938],[92.52584,24.85871],[92.52584,24.85871],[92.52067,24.86946],[92.51908,24.87123],[92.51984,24.87175],[92.51623,24.87493],[92.50947,24.87401],[92.50361,24.8721],[92.50361,24.8721],[92.49894,24.87397],[92.49894,24.87397],[92.49774,24.87912],[92.49456,24.88489],[92.49425,24.89094],[92.49543,24.89618],[92.49551,24.90612],[92.49132,24.91659],[92.49003,24.92137],[92.48646,24.9276],[92.48437,24.93103],[92.48782,24.93375],[92.48979,24.93736],[92.4887,24.94233],[92.48434,24.94295],[92.47839,24.94321],[92.47147,24.94247],[92.46533,24.94156],[92.46008,24.9411],[92.45503,24.94226],[92.45145,24.94722],[92.45163,24.95255],[92.45598,24.95437],[92.46114,24.95519],[92.46459,24.958],[92.46587,24.96252],[92.45952,24.96693],[92.45406,24.96909],[92.44892,24.96944],[92.44347,24.96907],[92.43762,24.96815],[92.43098,24.96958],[92.42295,24.97444],[92.41987,24.98022],[92.41984,24.98735],[92.42023,24.99178],[92.42248,24.99847],[92.42268,25.00343],[92.42513,25.00922],[92.427,25.01753],[92.42678,25.02458],[92.42534,25.02952],[92.43242,25.0308],[92.43839,25.03162],[92.43839,25.03162],[92.44227,25.03771],[92.44702,25.0399],[92.44702,25.0399],[92.45151,25.0388],[92.45469,25.03446],[92.45729,25.03287],[92.46024,25.03302],[92.46373,25.03496],[92.46513,25.04506],[92.46334,25.04798],[92.46064,25.04742],[92.46034,25.05249],[92.46252,25.05367],[92.46302,25.05358],[92.46416,25.0534],[92.46647,25.05499],[92.468,25.0592],[92.4714,25.06471],[92.47512,25.06861],[92.47705,25.07606],[92.48068,25.08365],[92.48026,25.09355],[92.48084,25.09822],[92.48484,25.10587],[92.48484,25.10587],[92.48484,25.10587],[92.49962,25.10593],[92.51027,25.10323],[92.52699,25.10358],[92.53247,25.10169],[92.5385,25.09703],[92.5434,25.09731],[92.54504,25.09704],[92.54918,25.10366],[92.54918,25.10366],[92.54918,25.10366],[92.5586,25.10347],[92.56061,25.10407],[92.56478,25.10182],[92.56605,25.10113],[92.57485,25.10151],[92.58006,25.10232],[92.58783,25.10494],[92.58783,25.10494],[92.59637,25.10606],[92.6033,25.11023],[92.6033,25.11023],[92.6033,25.11023],[92.60538,25.11036],[92.61392,25.10447],[92.62117,25.10195],[92.6233,25.10191],[92.62685,25.10656],[92.62685,25.10656],[92.63061,25.10786],[92.63488,25.10785],[92.63682,25.10896],[92.63898,25.11371],[92.64354,25.11681],[92.64354,25.11681],[92.64354,25.11681],[92.64825,25.11783],[92.65265,25.11707],[92.65626,25.11492],[92.65747,25.11298],[92.66068,25.11364],[92.6625,25.11326],[92.66642,25.11053],[92.67273,25.10812],[92.67757,25.10868],[92.68506,25.11377],[92.68506,25.11377],[92.68506,25.11377],[92.68744,25.11437],[92.6928,25.11385],[92.69653,25.11078],[92.69836,25.10947],[92.70202,25.1087],[92.70785,25.11089],[92.71277,25.116],[92.71277,25.116],[92.71277,25.116],[92.71666,25.11742],[92.71685,25.11749],[92.71685,25.11749],[92.72044,25.11544],[92.7231,25.11288],[92.72613,25.1121],[92.72841,25.11702],[92.73747,25.12408],[92.73822,25.12558],[92.7375,25.12811],[92.73201,25.13768],[92.73348,25.14287],[92.73348,25.14287],[92.73348,25.14287],[92.73663,25.14094],[92.73753,25.13952],[92.73861,25.13917],[92.74004,25.14057],[92.74004,25.14057],[92.74004,25.14057],[92.74675,25.13529],[92.75064,25.13572],[92.75659,25.1386],[92.75659,25.1386],[92.75982,25.12792],[92.76572,25.12124],[92.76746,25.11694],[92.76851,25.11067],[92.76782,25.10346],[92.77694,25.09468],[92.78367,25.08657],[92.78614,25.08526],[92.78827,25.08505],[92.79895,25.08584],[92.80278,25.08536],[92.80866,25.08311],[92.8274,25.07251],[92.82917,25.07143],[92.83102,25.0684],[92.83062,25.06182],[92.83132,25.06028],[92.83602,25.05491],[92.84131,25.05311],[92.85271,25.05868],[92.85626,25.06217],[92.8587,25.06323],[92.8587,25.06323],[92.8587,25.06323],[92.86605,25.06358],[92.86986,25.06583],[92.86999,25.06592],[92.87,25.06592],[92.87565,25.0651],[92.88293,25.06683],[92.88293,25.06683],[92.88581,25.06819],[92.88979,25.07374],[92.90176,25.07944],[92.90176,25.07944],[92.90176,25.07944],[92.9142,25.08012],[92.92382,25.07957],[92.93578,25.07707],[92.94201,25.07442],[92.94607,25.07037],[92.95198,25.07035],[92.95597,25.07332],[92.95622,25.08358],[92.95734,25.08612],[92.95734,25.08612],[92.95734,25.08612],[92.96248,25.08823],[92.96248,25.08823],[92.96814,25.08845],[92.97852,25.08485],[92.98298,25.08736],[92.98853,25.09356],[92.98853,25.09356],[92.98853,25.09356],[92.99361,25.09504],[92.99996,25.0952],[93.00832,25.09617],[93.01921,25.09529],[93.02204,25.09959],[93.02204,25.09959],[93.02204,25.09959],[93.03342,25.10339],[93.04404,25.10293],[93.04962,25.09888],[93.04794,25.09356],[93.04139,25.0849],[93.03034,25.07511],[93.03034,25.07511],[93.03034,25.07511],[93.0237,25.07351],[93.01765,25.06115],[93.02624,25.05215],[93.02933,25.04678],[93.03854,25.03961],[93.04033,25.03623],[93.04987,25.03265],[93.05677,25.02677],[93.05718,25.0239],[93.06089,25.02263],[93.06388,25.01528],[93.06388,25.01528],[93.06308,25.01493],[93.06145,25.01422],[93.06145,25.01422],[93.05927,25.01171],[93.05884,25.00793],[93.0623,25.00619],[93.06323,25.00197],[93.06863,25.00257],[93.07197,25.00012],[93.07193,24.99724],[93.17072,24.9966],[93.18076,24.99524],[93.18389,24.99523],[93.18441,24.99477],[93.18575,24.99473],[93.18675,24.99648],[93.18675,24.99648],[93.18675,24.99648],[93.18959,24.99647],[93.18959,24.99019],[93.19387,24.99143],[93.19812,24.99016],[93.19953,24.98765],[93.19811,24.98514],[93.20094,24.98262],[93.20656,24.98008],[93.21359,24.98255],[93.21642,24.98629],[93.21642,24.98629],[93.21642,24.98629],[93.21921,24.98627],[93.22338,24.98498],[93.22475,24.98372],[93.22895,24.98495],[93.23169,24.98368],[93.23305,24.98242],[93.22877,24.97619],[93.23424,24.97366],[93.23562,24.97367],[93.23702,24.97617],[93.23702,24.97617],[93.23702,24.97617],[93.23841,24.97617],[93.23974,24.97241],[93.24251,24.97241],[93.24391,24.9699],[93.24393,24.96739],[93.24675,24.9674],[93.25235,24.97158],[93.25235,24.97158],[93.25235,24.97158]]]}}]}