{"type":"FeatureCollection","features":[{"type":"Feature","properties":{"id":"darrang","name":"Darrang","stateId":"assam","stateName":"Assam","censuscode":325,"type":"district"},"geometry":{"type":"Polygon","coordinates":[[[92.32865,26.67036],[92.3349,26.66867],[92.3358,26.66873],[92.33853,26.66532],[92.33539,26.66162],[92.33605,26.65616],[92.33324,26.652],[92.3336,26.65039],[92.33535,26.64946],[92.34006,26.64945],[92.34124,26.64867],[92.34229,26.64731],[92.34147,26.64488],[92.33944,26.64459],[92.3391,26.64309],[92.34538,26.63696],[92.34342,26.6365],[92.34141,26.63744],[92.33647,26.64136],[92.33292,26.64081],[92.33004,26.63677],[92.33425,26.6322],[92.33545,26.63022],[92.33546,26.62791],[92.32571,26.61644],[92.32509,26.61395],[92.32628,26.61254],[92.33205,26.61077],[92.33169,26.60788],[92.32806,26.60606],[92.32975,26.60444],[92.3419,26.60028],[92.34275,26.59719],[92.34024,26.5961],[92.32923,26.59584],[92.32808,26.59166],[92.33388,26.58745],[92.33516,26.58653],[92.34382,26.58148],[92.3548,26.58496],[92.36382,26.58564],[92.36695,26.58058],[92.36479,26.58069],[92.36207,26.57782],[92.35898,26.57665],[92.35771,26.57438],[92.35816,26.57173],[92.35986,26.57004],[92.36296,26.56879],[92.36832,26.5681],[92.36977,26.5663],[92.36972,26.56346],[92.368,26.56136],[92.36892,26.55775],[92.37249,26.55333],[92.38028,26.54049],[92.38585,26.53451],[92.38385,26.53112],[92.38208,26.5308],[92.37403,26.52998],[92.36828,26.53077],[92.35583,26.53014],[92.35301,26.52886],[92.34946,26.52434],[92.33281,26.51456],[92.32858,26.51106],[92.32813,26.50927],[92.33528,26.51013],[92.34456,26.50815],[92.34645,26.50214],[92.34489,26.5013],[92.33035,26.49399],[92.32605,26.49107],[92.31764,26.48713],[92.31392,26.48399],[92.30557,26.47591],[92.30407,26.47259],[92.30081,26.46859],[92.29457,26.46257],[92.29129,26.4595],[92.28218,26.45388],[92.27398,26.45144],[92.26234,26.4518],[92.25734,26.45128],[92.24981,26.44764],[92.24357,26.44157],[92.23938,26.43064],[92.2296,26.42165],[92.2225,26.41682],[92.21748,26.41475],[92.2136,26.41489],[92.20896,26.41713],[92.20711,26.41934],[92.2044,26.42088],[92.18952,26.42352],[92.18147,26.42299],[92.16513,26.4169],[92.15642,26.41059],[92.14407,26.39855],[92.13607,26.38586],[92.13104,26.37999],[92.12712,26.37085],[92.11256,26.35888],[92.10876,26.35654],[92.10644,26.35304],[92.10383,26.34313],[92.09794,26.34033],[92.08617,26.33695],[92.07601,26.31428],[92.07278,26.31166],[92.06886,26.31091],[92.06534,26.30805],[92.06428,26.30322],[92.05863,26.29277],[92.05081,26.28081],[92.04557,26.27544],[92.03286,26.26982],[92.02876,26.27049],[92.02457,26.27281],[92.0204,26.27609],[92.01737,26.2799],[92.01327,26.2788],[92.00492,26.27362],[91.99991,26.2716],[91.99203,26.26892],[91.98436,26.27484],[91.95598,26.25371],[91.95109,26.25133],[91.94605,26.24749],[91.93512,26.24138],[91.93158,26.24253],[91.92666,26.24576],[91.91695,26.2405],[91.91518,26.23339],[91.90479,26.22531],[91.89313,26.22145],[91.89245,26.21893],[91.87788,26.21558],[91.86933,26.21875],[91.85756,26.21558],[91.84443,26.21433],[91.83859,26.21148],[91.83085,26.20997],[91.81836,26.20567],[91.81355,26.207],[91.79368,26.20215],[91.77953,26.19774],[91.76167,26.19989],[91.75532,26.20469],[91.75012,26.21052],[91.74837,26.21629],[91.74945,26.22082],[91.75075,26.22189],[91.75545,26.22575],[91.76636,26.23077],[91.7705,26.23917],[91.77327,26.24092],[91.77797,26.24028],[91.78175,26.24109],[91.78695,26.24401],[91.78766,26.24884],[91.7866,26.25356],[91.78862,26.26078],[91.7932,26.26809],[91.79318,26.27142],[91.79057,26.27583],[91.79102,26.28342],[91.78708,26.29624],[91.78714,26.30039],[91.78864,26.30272],[91.7867,26.30465],[91.79003,26.30564],[91.79142,26.30901],[91.79435,26.30891],[91.79718,26.31842],[91.79954,26.315],[91.80241,26.31444],[91.80746,26.31621],[91.81123,26.31645],[91.81357,26.31906],[91.81395,26.32349],[91.81686,26.32563],[91.82202,26.32481],[91.82429,26.33191],[91.82258,26.33654],[91.82277,26.35195],[91.82404,26.36373],[91.82212,26.3672],[91.82281,26.37088],[91.82059,26.37902],[91.81441,26.38319],[91.80927,26.38124],[91.80639,26.38451],[91.80701,26.38749],[91.80469,26.38959],[91.80165,26.39096],[91.80031,26.39477],[91.80068,26.39857],[91.80008,26.40081],[91.79706,26.40724],[91.78573,26.40867],[91.78316,26.41117],[91.78306,26.41796],[91.7801,26.41933],[91.78102,26.4257],[91.77884,26.42504],[91.77658,26.42616],[91.77549,26.43055],[91.77366,26.43167],[91.77483,26.43694],[91.77308,26.43956],[91.77486,26.44344],[91.77203,26.44625],[91.77226,26.44837],[91.77091,26.45224],[91.7681,26.45578],[91.76894,26.45949],[91.76926,26.46095],[91.76685,26.46616],[91.77739,26.46618],[91.77973,26.4695],[91.78121,26.47385],[91.78091,26.47903],[91.78232,26.48344],[91.78046,26.4868],[91.78123,26.49139],[91.78494,26.49588],[91.78939,26.49852],[91.7891,26.49942],[91.82784,26.50925],[91.84554,26.52857],[91.86323,26.54063],[91.8739,26.54519],[91.88761,26.54569],[91.89524,26.54511],[91.89913,26.55019],[91.89942,26.55323],[91.90161,26.55844],[91.90783,26.56104],[91.9173,26.56185],[91.91943,26.5663],[91.92064,26.57004],[91.92439,26.5736],[91.93046,26.57467],[91.9364,26.57422],[91.94459,26.57052],[91.94798,26.57026],[91.95433,26.56517],[91.95375,26.55907],[91.96519,26.55359],[91.9695,26.55403],[91.97409,26.55751],[91.97578,26.55841],[91.97603,26.55796],[91.97615,26.55837],[91.98188,26.56182],[91.98434,26.56212],[91.98567,26.56469],[91.98614,26.56684],[91.98954,26.56852],[91.99261,26.5695],[91.99661,26.56895],[92.00341,26.5694],[92.0037,26.56906],[92.0093,26.56863],[92.01516,26.56741],[92.02807,26.55951],[92.0311,26.55544],[92.03546,26.54742],[92.04546,26.5359],[92.04934,26.53177],[92.05137,26.52623],[92.05701,26.52273],[92.0635,26.51915],[92.06568,26.51515],[92.06572,26.5067],[92.07214,26.50236],[92.07001,26.49792],[92.06957,26.49334],[92.06984,26.48718],[92.07702,26.48202],[92.08211,26.48163],[92.08586,26.48517],[92.09009,26.48485],[92.09414,26.49144],[92.0945,26.49526],[92.08753,26.50271],[92.08451,26.50678],[92.08078,26.51244],[92.08221,26.51848],[92.08434,26.52292],[92.08563,26.52743],[92.08783,26.53263],[92.09151,26.53542],[92.09619,26.53966],[92.09917,26.54404],[92.09898,26.55097],[92.09603,26.5558],[92.09208,26.55918],[92.08622,26.5604],[92.08169,26.55768],[92.07517,26.55204],[92.07135,26.54773],[92.06866,26.5464],[92.06089,26.54546],[92.05941,26.54788],[92.05701,26.5496],[92.05646,26.55272],[92.0542,26.55596],[92.05055,26.56239],[92.04675,26.56729],[92.04544,26.58044],[92.04587,26.58501],[92.0483,26.5925],[92.0544,26.60278],[92.05845,26.60938],[92.06043,26.6123],[92.06821,26.61324],[92.07148,26.62066],[92.07634,26.62869],[92.07669,26.62862],[92.08194,26.63049],[92.08744,26.62935],[92.08904,26.62923],[92.09228,26.63234],[92.09332,26.6349],[92.09596,26.63734],[92.09823,26.63861],[92.1085,26.63974],[92.1102,26.64081],[92.11477,26.64382],[92.11982,26.64631],[92.12354,26.64602],[92.12713,26.64718],[92.13399,26.64905],[92.14225,26.64865],[92.14743,26.64969],[92.1506,26.65209],[92.15694,26.654],[92.16126,26.65727],[92.16417,26.65969],[92.16747,26.66063],[92.17707,26.66037],[92.17794,26.66102],[92.18036,26.66396],[92.18471,26.66746],[92.18939,26.66878],[92.19775,26.66669],[92.20219,26.66562],[92.20727,26.66282],[92.21357,26.65608],[92.2153,26.65186],[92.21676,26.64477],[92.21767,26.64038],[92.22431,26.63433],[92.22779,26.63166],[92.23335,26.62834],[92.23785,26.6251],[92.23956,26.61511],[92.23885,26.60507],[92.23858,26.60221],[92.23903,26.59857],[92.24244,26.59518],[92.24456,26.58948],[92.24545,26.58485],[92.24544,26.58196],[92.24916,26.57903],[92.25131,26.5791],[92.25805,26.58242],[92.26023,26.58561],[92.26559,26.58856],[92.27023,26.59228],[92.27202,26.59694],[92.27284,26.60265],[92.27361,26.61052],[92.27445,26.61646],[92.27487,26.62076],[92.27568,26.62358],[92.27895,26.62693],[92.28466,26.62792],[92.29004,26.62822],[92.29319,26.63037],[92.29431,26.63365],[92.2965,26.63973],[92.29801,26.64418],[92.30017,26.65819],[92.30056,26.66488],[92.30365,26.67185],[92.30556,26.67507],[92.31086,26.67729],[92.31357,26.67756],[92.31999,26.67489],[92.32284,26.67395],[92.32865,26.67036]]]}}]}