{"type":"FeatureCollection","features":[{"type":"Feature","properties":{"id":"dibrugarh","name":"Dibrugarh","stateId":"assam","stateName":"Assam","censuscode":310,"type":"district"},"geometry":{"type":"Polygon","coordinates":[[[95.27759,27.6824],[95.28246,27.67699],[95.29213,27.66976],[95.29573,27.65776],[95.29818,27.65265],[95.29995,27.64748],[95.30362,27.63607],[95.3096,27.6173],[95.32283,27.58732],[95.31768,27.58449],[95.30915,27.5831],[95.30308,27.58326],[95.30243,27.5786],[95.29907,27.57506],[95.29391,27.57682],[95.29169,27.56838],[95.28399,27.5687],[95.2789,27.57293],[95.27671,27.5673],[95.27904,27.55989],[95.28525,27.55506],[95.28184,27.54659],[95.27493,27.54989],[95.27125,27.54656],[95.26659,27.53617],[95.27236,27.52519],[95.26733,27.52349],[95.2671,27.51577],[95.2642,27.51014],[95.2596,27.50786],[95.25305,27.50681],[95.23895,27.50254],[95.23205,27.49607],[95.2306,27.48588],[95.23042,27.48092],[95.23092,27.47205],[95.22182,27.45781],[95.23068,27.44672],[95.2343,27.44017],[95.2393,27.43453],[95.24527,27.43254],[95.25233,27.43261],[95.25217,27.42614],[95.26051,27.41773],[95.25898,27.41036],[95.2707,27.40547],[95.27805,27.41142],[95.28507,27.40774],[95.29638,27.41161],[95.30191,27.40863],[95.30792,27.39838],[95.31535,27.39122],[95.32536,27.38907],[95.34067,27.38937],[95.35126,27.39152],[95.37658,27.38049],[95.38037,27.38532],[95.37858,27.39165],[95.39739,27.39131],[95.42,27.38172],[95.42498,27.37486],[95.43169,27.37191],[95.44122,27.36292],[95.45079,27.36892],[95.4742,27.36432],[95.47669,27.34239],[95.46117,27.33838],[95.45307,27.33001],[95.46432,27.32125],[95.47046,27.30611],[95.45168,27.29488],[95.45823,27.28507],[95.46586,27.27135],[95.46527,27.2666],[95.44712,27.25229],[95.44949,27.24663],[95.45802,27.23215],[95.46267,27.23991],[95.45947,27.24744],[95.46946,27.25948],[95.47382,27.26285],[95.4822,27.25274],[95.48737,27.25056],[95.49144,27.24261],[95.48766,27.23994],[95.48096,27.22624],[95.47493,27.22077],[95.4743,27.21755],[95.47108,27.21711],[95.46982,27.21215],[95.46011,27.20734],[95.4593,27.20348],[95.46242,27.1969],[95.46618,27.19129],[95.46899,27.18435],[95.46746,27.17939],[95.46401,27.17596],[95.46831,27.16611],[95.46414,27.16084],[95.45901,27.1571],[95.46018,27.15424],[95.4636,27.15335],[95.46535,27.1514],[95.46613,27.1486],[95.46396,27.14415],[95.46132,27.134],[95.45805,27.12942],[95.45367,27.12967],[95.45102,27.13264],[95.44741,27.13214],[95.44583,27.12809],[95.44126,27.12662],[95.42947,27.12789],[95.42054,27.12464],[95.40658,27.11219],[95.39643,27.10835],[95.3864,27.1056],[95.38574,27.09898],[95.37726,27.09608],[95.37295,27.09558],[95.37394,27.10192],[95.3686,27.10128],[95.36808,27.10364],[95.36875,27.10374],[95.37097,27.10408],[95.37156,27.10533],[95.37376,27.10998],[95.37317,27.11216],[95.36639,27.11571],[95.36371,27.1238],[95.36619,27.12728],[95.36886,27.13346],[95.36917,27.13577],[95.36705,27.14628],[95.3629,27.15124],[95.36003,27.15766],[95.36112,27.16014],[95.35933,27.16755],[95.35513,27.16981],[95.34842,27.17089],[95.34604,27.17213],[95.34551,27.17397],[95.34716,27.17738],[95.34579,27.18076],[95.3385,27.1835],[95.33577,27.18573],[95.33056,27.18694],[95.31986,27.18654],[95.31711,27.18357],[95.31415,27.18406],[95.31019,27.18834],[95.30625,27.1887],[95.30334,27.19218],[95.30011,27.19382],[95.30017,27.19439],[95.29546,27.19491],[95.2894,27.19681],[95.28367,27.19606],[95.28639,27.19459],[95.28582,27.19205],[95.28349,27.19295],[95.28098,27.19247],[95.28015,27.19147],[95.28075,27.18825],[95.27379,27.1887],[95.27249,27.19047],[95.26835,27.1925],[95.26864,27.18842],[95.26724,27.18523],[95.26264,27.1895],[95.26097,27.18868],[95.26071,27.18782],[95.2604,27.18684],[95.26132,27.18408],[95.25939,27.18365],[95.25795,27.18531],[95.25775,27.18899],[95.25619,27.19145],[95.25277,27.19106],[95.24776,27.18888],[95.24248,27.18762],[95.24063,27.18627],[95.24375,27.18176],[95.24144,27.17978],[95.23475,27.17885],[95.23484,27.17643],[95.23495,27.17627],[95.23653,27.17397],[95.23943,27.17228],[95.24048,27.1693],[95.23353,27.17133],[95.23022,27.1723],[95.22672,27.16621],[95.22106,27.16442],[95.21918,27.16601],[95.21941,27.16641],[95.22045,27.16827],[95.21411,27.1728],[95.21129,27.17168],[95.21085,27.16914],[95.21455,27.16751],[95.2153,27.16718],[95.21424,27.16377],[95.20149,27.16236],[95.20021,27.1608],[95.2012,27.15798],[95.19407,27.15565],[95.19296,27.15737],[95.19424,27.15825],[95.19019,27.15867],[95.18817,27.16043],[95.18481,27.16159],[95.18374,27.15888],[95.18414,27.15722],[95.18804,27.15105],[95.18394,27.14875],[95.18008,27.14773],[95.17855,27.14535],[95.17877,27.14502],[95.17998,27.14318],[95.17961,27.14081],[95.17629,27.1371],[95.17466,27.1399],[95.17533,27.14131],[95.17624,27.1432],[95.17532,27.14549],[95.17059,27.14187],[95.17256,27.13637],[95.16748,27.13435],[95.1666,27.1325],[95.16267,27.13101],[95.16509,27.12673],[95.16135,27.12766],[95.1593,27.13165],[95.15782,27.13453],[95.15493,27.13426],[95.1539,27.13275],[95.15314,27.13165],[95.15362,27.12883],[95.15537,27.12598],[95.15267,27.12497],[95.1506,27.12713],[95.15036,27.13334],[95.14171,27.1367],[95.1354,27.1345],[95.13461,27.13742],[95.13041,27.13749],[95.12826,27.13355],[95.1279,27.13078],[95.12461,27.13005],[95.12253,27.13342],[95.11898,27.13407],[95.11752,27.13031],[95.11798,27.1287],[95.11625,27.12788],[95.11449,27.13056],[95.11331,27.13463],[95.10357,27.13537],[95.09609,27.13593],[95.06231,27.13562],[95.05958,27.13796],[95.05463,27.15115],[95.05049,27.15365],[95.04108,27.15186],[95.03247,27.14497],[95.02737,27.14385],[95.01736,27.14512],[95.0079,27.14766],[94.99984,27.14687],[94.98973,27.14626],[94.98127,27.1503],[94.98527,27.15917],[94.98448,27.16565],[94.98625,27.16972],[94.97612,27.19436],[94.97524,27.21183],[94.97306,27.2226],[94.97016,27.2287],[94.95849,27.22067],[94.92711,27.18966],[94.88748,27.15664],[94.86674,27.13151],[94.8567,27.11734],[94.84905,27.10811],[94.84305,27.09459],[94.83715,27.09379],[94.83093,27.0954],[94.82697,27.09998],[94.82287,27.09858],[94.82014,27.0999],[94.81418,27.09881],[94.8148,27.10572],[94.81879,27.1085],[94.82065,27.11412],[94.81226,27.11538],[94.8097,27.11758],[94.80572,27.11895],[94.80308,27.11987],[94.79783,27.1189],[94.76581,27.12752],[94.76045,27.14242],[94.76235,27.14925],[94.758,27.15088],[94.76463,27.15277],[94.76497,27.15286],[94.76752,27.15723],[94.77285,27.16022],[94.77272,27.16309],[94.77518,27.16549],[94.77792,27.16992],[94.78122,27.17159],[94.77588,27.17436],[94.77614,27.18023],[94.77495,27.18406],[94.77716,27.18876],[94.78149,27.19074],[94.78074,27.19832],[94.77908,27.20346],[94.77772,27.2124],[94.77163,27.21631],[94.7729,27.22278],[94.77949,27.2386],[94.77537,27.24163],[94.76763,27.24515],[94.76393,27.24893],[94.75791,27.24491],[94.74852,27.24385],[94.7425,27.24528],[94.74204,27.24884],[94.74742,27.26125],[94.75354,27.26902],[94.75232,27.27194],[94.74575,27.27456],[94.73354,27.27375],[94.72189,27.26477],[94.71859,27.25654],[94.72509,27.25109],[94.72612,27.24594],[94.72094,27.24451],[94.71511,27.2456],[94.71074,27.25068],[94.7085,27.26679],[94.70466,27.27091],[94.69958,27.27087],[94.69552,27.26814],[94.68648,27.24679],[94.68222,27.2444],[94.66297,27.24706],[94.64661,27.24655],[94.63582,27.22274],[94.62472,27.2017],[94.61784,27.17585],[94.60816,27.15925],[94.59577,27.14513],[94.59117,27.14907],[94.58743,27.15698],[94.58147,27.16341],[94.57744,27.17051],[94.57061,27.17847],[94.57612,27.18693],[94.58068,27.19226],[94.58282,27.20185],[94.58243,27.20977],[94.57997,27.21513],[94.58849,27.24021],[94.59009,27.2503],[94.58751,27.25848],[94.58815,27.26642],[94.59491,27.27416],[94.60232,27.28645],[94.61538,27.30548],[94.61377,27.30808],[94.61606,27.31457],[94.61261,27.32083],[94.60742,27.32486],[94.61521,27.3302],[94.62237,27.33231],[94.63491,27.3202],[94.63796,27.31974],[94.64233,27.3253],[94.63986,27.33117],[94.64203,27.33731],[94.64512,27.34037],[94.66654,27.34898],[94.66849,27.35683],[94.66833,27.36316],[94.66485,27.37114],[94.66543,27.37621],[94.6728,27.37774],[94.68795,27.38305],[94.69224,27.38958],[94.69012,27.39989],[94.68911,27.40982],[94.69327,27.41881],[94.70066,27.42258],[94.72319,27.42678],[94.72887,27.43971],[94.7329,27.44118],[94.73973,27.4389],[94.74308,27.43598],[94.74673,27.4349],[94.75249,27.44468],[94.75492,27.45634],[94.76016,27.46386],[94.76328,27.47082],[94.77467,27.48284],[94.77972,27.4846],[94.787,27.48256],[94.7956,27.48159],[94.79965,27.49035],[94.82163,27.50527],[94.81851,27.51481],[94.84302,27.53184],[94.85428,27.54482],[94.87272,27.55662],[94.88254,27.57348],[94.89676,27.58428],[94.90765,27.58511],[94.91433,27.58966],[94.92261,27.60039],[94.9311,27.6047],[94.9493,27.6086],[94.95843,27.62763],[94.98309,27.64614],[94.9855,27.65055],[94.99987,27.65403],[95.02221,27.65636],[95.02976,27.6584],[95.03429,27.66465],[95.04228,27.6677],[95.05227,27.66218],[95.06413,27.65993],[95.08461,27.65933],[95.10768,27.66222],[95.1228,27.68011],[95.1421,27.68413],[95.14836,27.68637],[95.15886,27.6916],[95.16802,27.69401],[95.17746,27.69531],[95.19763,27.70472],[95.20751,27.70799],[95.2062,27.6986],[95.20508,27.69318],[95.20525,27.68779],[95.2027,27.68138],[95.19579,27.67285],[95.19492,27.66679],[95.20369,27.66096],[95.21471,27.65596],[95.2262,27.65222],[95.23444,27.65582],[95.23975,27.65397],[95.25015,27.65546],[95.26035,27.65862],[95.26781,27.66484],[95.27346,27.67198],[95.27759,27.6824]]]}}]}