{"type":"FeatureCollection","features":[{"type":"Feature","properties":{"id":"goalpara","name":"Goalpara","stateId":"assam","stateName":"Assam","censuscode":302,"type":"district"},"geometry":{"type":"Polygon","coordinates":[[[90.9391,26.09378],[90.93927,26.09196],[90.9436,26.08825],[90.94884,26.08945],[90.95346,26.08098],[90.96122,26.08185],[90.96126,26.08015],[90.96441,26.07515],[90.98137,26.06117],[90.98701,26.06001],[90.98928,26.05742],[90.9946,26.05688],[91.00005,26.0548],[91.00599,26.05281],[91.01297,26.05264],[91.01822,26.04794],[91.02979,26.03974],[91.0345,26.0416],[91.03986,26.04484],[91.04554,26.04198],[91.05275,26.04025],[91.05834,26.04458],[91.06921,26.04392],[91.07271,26.03646],[91.08133,26.03697],[91.08618,26.03024],[91.09178,26.02864],[91.09176,26.02369],[91.09343,26.01976],[91.09725,26.01513],[91.09742,26.0119],[91.10069,26.00923],[91.10062,26.0048],[91.09196,26.00024],[91.08791,25.98218],[91.08405,25.97904],[91.08356,25.97362],[91.07718,25.97108],[91.07052,25.96445],[91.05111,25.94098],[91.05472,25.93727],[91.05396,25.9333],[91.04795,25.92782],[91.04379,25.9212],[91.03989,25.9089],[91.03611,25.90212],[91.03304,25.89391],[91.03234,25.88749],[91.0314,25.88801],[91.0288,25.88783],[91.02373,25.88673],[91.01685,25.88378],[91.00447,25.88596],[91.00003,25.88815],[90.98796,25.88942],[90.97856,25.88893],[90.9745,25.88716],[90.97063,25.88667],[90.96979,25.89049],[90.97049,25.89613],[90.9701,25.90483],[90.96388,25.92719],[90.96116,25.93344],[90.95709,25.93621],[90.94884,25.93862],[90.94605,25.94707],[90.94078,25.94427],[90.93794,25.94065],[90.93536,25.93918],[90.92162,25.94268],[90.91918,25.94268],[90.91958,25.92766],[90.92239,25.91283],[90.91935,25.91458],[90.9158,25.91983],[90.90449,25.92913],[90.8987,25.93105],[90.90036,25.93491],[90.89977,25.93701],[90.89571,25.9386],[90.8917,25.94316],[90.88633,25.9513],[90.88478,25.95019],[90.88357,25.9458],[90.8786,25.94867],[90.87577,25.94627],[90.87623,25.94248],[90.87294,25.94195],[90.86017,25.94389],[90.84663,25.94438],[90.84443,25.94274],[90.84322,25.93801],[90.84013,25.93778],[90.83959,25.94683],[90.83566,25.94485],[90.83141,25.94701],[90.82728,25.94468],[90.82386,25.94801],[90.81802,25.95008],[90.81332,25.95175],[90.81211,25.94679],[90.80052,25.94107],[90.79512,25.93535],[90.78511,25.92086],[90.7819,25.91392],[90.78147,25.9079],[90.77245,25.90814],[90.76115,25.9107],[90.76107,25.91619],[90.7624,25.92127],[90.75351,25.91888],[90.74889,25.91193],[90.74579,25.91257],[90.74398,25.91485],[90.74964,25.92157],[90.7561,25.93359],[90.75417,25.93371],[90.75095,25.93196],[90.7476,25.93242],[90.74377,25.94054],[90.74819,25.94614],[90.74729,25.94906],[90.74812,25.95025],[90.74953,25.95227],[90.75094,25.95695],[90.74707,25.9563],[90.74431,25.95483],[90.74378,25.95455],[90.73579,25.95221],[90.7289,25.9484],[90.72419,25.94882],[90.72127,25.95436],[90.71663,25.95184],[90.6896,25.95047],[90.6792,25.93616],[90.67373,25.93394],[90.65755,25.92935],[90.64139,25.92303],[90.63091,25.9167],[90.63042,25.91098],[90.63251,25.90626],[90.63028,25.90107],[90.62836,25.89861],[90.61777,25.89923],[90.61432,25.90717],[90.61167,25.90774],[90.61009,25.912],[90.61116,25.9193],[90.63261,25.93714],[90.60902,25.94666],[90.60558,25.9515],[90.59552,25.95183],[90.59093,25.95364],[90.58613,25.95952],[90.58248,25.95776],[90.57646,25.94788],[90.57642,25.94374],[90.57502,25.93877],[90.56691,25.93531],[90.55702,25.92887],[90.55049,25.91963],[90.54285,25.91522],[90.53727,25.90856],[90.52914,25.90078],[90.52169,25.89626],[90.51622,25.89602],[90.51478,25.89992],[90.52221,25.90917],[90.52988,25.92804],[90.53591,25.93231],[90.53746,25.93605],[90.53851,25.9454],[90.53819,25.95778],[90.53358,25.96161],[90.52781,25.96965],[90.51733,25.98213],[90.50953,25.99578],[90.50396,26.00113],[90.50175,26.00342],[90.49619,26.00628],[90.49343,26.00941],[90.48508,26.01379],[90.48115,26.01504],[90.47476,26.01238],[90.46916,26.007],[90.46295,26.00302],[90.46178,26.00113],[90.46138,25.99937],[90.45097,25.99632],[90.43249,25.98885],[90.42133,25.99214],[90.4204,25.99665],[90.41785,26.00112],[90.41496,26.00568],[90.41149,26.00738],[90.40413,26.00909],[90.40123,26.01205],[90.40043,26.01396],[90.39789,26.01392],[90.39131,26.01108],[90.38475,26.01147],[90.36897,26.01015],[90.35063,26.00279],[90.34884,26.00108],[90.34331,25.9967],[90.34089,25.99002],[90.33392,25.98835],[90.33303,25.98256],[90.3283,25.97425],[90.29058,25.96379],[90.28182,25.96305],[90.23142,25.95505],[90.21681,25.95381],[90.21518,25.95555],[90.21251,25.96149],[90.19806,25.95692],[90.19353,25.95316],[90.18975,25.9455],[90.18659,25.94438],[90.18462,25.94693],[90.18021,25.957],[90.17676,25.95868],[90.17259,25.95731],[90.16762,25.95729],[90.16251,25.95819],[90.15861,25.96015],[90.15775,25.96372],[90.15753,25.96464],[90.15154,25.96442],[90.14417,25.95808],[90.13823,25.95776],[90.13261,25.95872],[90.12739,25.95711],[90.12416,25.95767],[90.12282,25.96121],[90.12249,25.96595],[90.1271,25.96966],[90.1317,25.96776],[90.13499,25.96801],[90.13844,25.97235],[90.14749,25.97526],[90.14885,25.97994],[90.15377,25.9808],[90.16127,25.98686],[90.1729,25.98873],[90.17482,25.99003],[90.18042,25.99099],[90.18026,25.99551],[90.17764,26.00083],[90.17856,26.00447],[90.18274,26.00969],[90.18334,26.01256],[90.18148,26.0114],[90.17848,26.00954],[90.1791,26.01342],[90.17537,26.01658],[90.17901,26.01875],[90.18404,26.02004],[90.18935,26.0225],[90.19293,26.02501],[90.19386,26.02828],[90.19262,26.03174],[90.18866,26.03671],[90.17805,26.03839],[90.17489,26.04013],[90.17231,26.0433],[90.17266,26.04774],[90.17378,26.05073],[90.17708,26.05676],[90.17959,26.05968],[90.18111,26.06526],[90.17925,26.06434],[90.17545,26.0658],[90.16261,26.07387],[90.15851,26.07792],[90.15753,26.08219],[90.16251,26.08372],[90.16584,26.08584],[90.17541,26.09481],[90.185,26.10698],[90.18798,26.11254],[90.19034,26.12007],[90.19678,26.12642],[90.1993,26.12416],[90.20209,26.12328],[90.20864,26.12364],[90.21026,26.12554],[90.21125,26.12893],[90.21407,26.13099],[90.21878,26.13102],[90.22102,26.13251],[90.22329,26.13755],[90.22865,26.13782],[90.23255,26.13893],[90.24063,26.13844],[90.24286,26.13952],[90.24849,26.148],[90.25182,26.16865],[90.25026,26.17165],[90.2496,26.17511],[90.2516,26.1774],[90.26105,26.18051],[90.26521,26.18296],[90.27371,26.18608],[90.27727,26.18444],[90.2811,26.18499],[90.29174,26.18578],[90.29643,26.18426],[90.30081,26.18182],[90.31402,26.17931],[90.32493,26.18017],[90.32823,26.17918],[90.33174,26.17367],[90.33765,26.17294],[90.34417,26.1752],[90.36623,26.17724],[90.37715,26.17906],[90.37933,26.18146],[90.39468,26.18758],[90.4022,26.19014],[90.42407,26.19881],[90.46583,26.20496],[90.50875,26.19972],[90.52301,26.20794],[90.56376,26.21744],[90.60899,26.23039],[90.65602,26.24138],[90.65563,26.23644],[90.66171,26.22831],[90.66425,26.22282],[90.66607,26.22061],[90.66659,26.21767],[90.6687,26.21338],[90.6701,26.21211],[90.67048,26.20835],[90.67342,26.20389],[90.6787,26.18524],[90.69342,26.15813],[90.69514,26.15299],[90.69835,26.15042],[90.70076,26.14947],[90.7099,26.14718],[90.71284,26.13897],[90.71621,26.13876],[90.71549,26.13745],[90.71556,26.13656],[90.71565,26.13526],[90.7173,26.13501],[90.72216,26.1318],[90.72526,26.13464],[90.73469,26.13521],[90.74166,26.1371],[90.75853,26.13696],[90.77589,26.13467],[90.7804,26.13422],[90.78876,26.13164],[90.80711,26.12332],[90.81783,26.12065],[90.82554,26.11708],[90.83468,26.11506],[90.8415,26.11104],[90.85056,26.1166],[90.86234,26.11304],[90.86348,26.11245],[90.86632,26.1062],[90.87179,26.09754],[90.88104,26.09489],[90.89416,26.09462],[90.90312,26.09367],[90.90565,26.09324],[90.91274,26.08989],[90.91673,26.08904],[90.92628,26.09204],[90.93303,26.0968],[90.93616,26.09762],[90.9391,26.09378]]]}}]}