{"type":"FeatureCollection","features":[{"type":"Feature","properties":{"id":"hailakandi","name":"Hailakandi","stateId":"assam","stateName":"Assam","censuscode":318,"type":"district"},"geometry":{"type":"Polygon","coordinates":[[[92.59806,24.8779],[92.61024,24.861],[92.61026,24.86099],[92.6103,24.86093],[92.61808,24.85877],[92.62068,24.85803],[92.63125,24.85319],[92.63136,24.85314],[92.63103,24.85193],[92.63087,24.85135],[92.63167,24.84809],[92.63173,24.84798],[92.63177,24.84785],[92.63546,24.84153],[92.63893,24.83552],[92.63578,24.83148],[92.63575,24.83144],[92.63576,24.83143],[92.6364,24.82736],[92.63977,24.8191],[92.63978,24.81906],[92.64339,24.8191],[92.65679,24.81388],[92.66001,24.8133],[92.66051,24.81321],[92.66581,24.81402],[92.67111,24.81482],[92.67112,24.81482],[92.67792,24.81458],[92.67793,24.81458],[92.6803,24.81318],[92.68464,24.80654],[92.68401,24.80243],[92.67254,24.79125],[92.6725,24.79123],[92.66984,24.78988],[92.66984,24.78987],[92.66977,24.78984],[92.66851,24.78471],[92.66655,24.77707],[92.66721,24.7703],[92.66746,24.7675],[92.66577,24.76543],[92.66577,24.76543],[92.66598,24.7621],[92.66596,24.76206],[92.65916,24.74745],[92.65882,24.74638],[92.6573,24.74178],[92.65613,24.73573],[92.65649,24.72826],[92.6572,24.72274],[92.65854,24.72006],[92.65921,24.71161],[92.65788,24.6959],[92.65576,24.69174],[92.65757,24.67648],[92.65779,24.67458],[92.65785,24.67443],[92.65875,24.67199],[92.65989,24.66924],[92.66642,24.66953],[92.66692,24.66173],[92.66692,24.66171],[92.66694,24.66168],[92.66883,24.65879],[92.66659,24.63882],[92.6666,24.63877],[92.6666,24.63873],[92.66998,24.62626],[92.66998,24.62626],[92.66998,24.62626],[92.67485,24.62621],[92.67497,24.62625],[92.67502,24.62625],[92.67893,24.62791],[92.68101,24.62878],[92.69356,24.62108],[92.69603,24.61811],[92.69633,24.61696],[92.69648,24.61639],[92.69412,24.61556],[92.69404,24.6155],[92.6939,24.61545],[92.69016,24.61255],[92.68133,24.61085],[92.68133,24.61085],[92.68133,24.61085],[92.67843,24.60932],[92.66993,24.60942],[92.66993,24.60942],[92.66993,24.60942],[92.66975,24.60809],[92.66956,24.60671],[92.67356,24.59844],[92.67221,24.59661],[92.67037,24.59418],[92.66988,24.59108],[92.66988,24.59108],[92.66988,24.59107],[92.67185,24.58736],[92.67678,24.58126],[92.67679,24.58125],[92.67873,24.58152],[92.68617,24.58047],[92.68618,24.58047],[92.68972,24.57886],[92.69765,24.57248],[92.70096,24.56981],[92.70195,24.56833],[92.70478,24.56402],[92.70484,24.56404],[92.70489,24.56397],[92.71475,24.56832],[92.71641,24.5684],[92.71765,24.56846],[92.71924,24.56497],[92.72565,24.56905],[92.72565,24.56905],[92.73516,24.58253],[92.73453,24.58568],[92.73786,24.58649],[92.73875,24.5867],[92.74159,24.58339],[92.74159,24.58339],[92.74593,24.584],[92.74875,24.58288],[92.75016,24.58231],[92.75177,24.58221],[92.75331,24.58211],[92.75332,24.58211],[92.75501,24.5827],[92.76063,24.57671],[92.76066,24.57663],[92.76414,24.56657],[92.76414,24.56657],[92.76414,24.56657],[92.77433,24.56941],[92.78032,24.56923],[92.78065,24.55957],[92.77921,24.55933],[92.77611,24.55551],[92.77301,24.55169],[92.77302,24.55095],[92.77308,24.54853],[92.77522,24.54613],[92.76338,24.52982],[92.76177,24.52463],[92.75958,24.52123],[92.75957,24.52122],[92.75957,24.52121],[92.7592,24.51851],[92.76159,24.51814],[92.7616,24.51813],[92.7616,24.51813],[92.76305,24.51878],[92.76326,24.5187],[92.76475,24.51816],[92.76475,24.51816],[92.76407,24.51614],[92.75874,24.50908],[92.75325,24.5044],[92.75322,24.50438],[92.75405,24.49854],[92.75406,24.49847],[92.75087,24.49171],[92.74837,24.48588],[92.74315,24.47198],[92.73007,24.45013],[92.72329,24.43334],[92.71764,24.41362],[92.71371,24.4078],[92.7137,24.40778],[92.71372,24.40282],[92.71372,24.40272],[92.70693,24.38987],[92.70692,24.38984],[92.70695,24.38456],[92.70695,24.38444],[92.70293,24.38124],[92.70359,24.37366],[92.70189,24.37267],[92.69775,24.3724],[92.69637,24.37146],[92.6945,24.36702],[92.69274,24.36528],[92.6937,24.36241],[92.69339,24.36109],[92.69126,24.35963],[92.69116,24.354],[92.69116,24.35388],[92.69016,24.35226],[92.68747,24.34948],[92.68351,24.34737],[92.68327,24.34496],[92.67912,24.34527],[92.67428,24.34729],[92.6665,24.34313],[92.66474,24.34272],[92.66361,24.34426],[92.66274,24.34131],[92.66173,24.34096],[92.66045,24.34242],[92.66038,24.3425],[92.66022,24.34267],[92.65867,24.34151],[92.65797,24.34098],[92.65792,24.34099],[92.65702,24.34104],[92.65709,24.33908],[92.65597,24.33665],[92.65191,24.33282],[92.65154,24.3304],[92.65136,24.32787],[92.6499,24.32817],[92.64986,24.32818],[92.64891,24.32837],[92.64926,24.32688],[92.64929,24.32676],[92.64854,24.3263],[92.64834,24.32646],[92.64823,24.32654],[92.64476,24.32936],[92.64545,24.32678],[92.64462,24.32537],[92.64453,24.32522],[92.64049,24.32627],[92.63936,24.32729],[92.63879,24.32931],[92.63621,24.33026],[92.63607,24.33181],[92.63663,24.33187],[92.63674,24.33188],[92.63776,24.332],[92.63726,24.33308],[92.63556,24.33329],[92.63543,24.3333],[92.63017,24.33095],[92.62996,24.331],[92.6257,24.33206],[92.62382,24.33026],[92.62296,24.3285],[92.6229,24.32837],[92.62289,24.32835],[92.62262,24.31799],[92.62262,24.31788],[92.61896,24.30911],[92.61916,24.30606],[92.61756,24.30201],[92.61755,24.30197],[92.61755,24.30197],[92.61782,24.29736],[92.61782,24.29732],[92.61631,24.28896],[92.61629,24.28884],[92.61674,24.28667],[92.61806,24.28581],[92.6182,24.28572],[92.61856,24.28548],[92.6188,24.28469],[92.61889,24.28439],[92.61889,24.28439],[92.61854,24.27904],[92.61853,24.27893],[92.6163,24.27292],[92.61527,24.26818],[92.61526,24.26814],[92.61498,24.26134],[92.61498,24.26124],[92.61256,24.25346],[92.61107,24.25097],[92.60744,24.24772],[92.60544,24.24683],[92.60544,24.24683],[92.60335,24.24686],[92.59545,24.24696],[92.59357,24.2464],[92.59307,24.24625],[92.59089,24.24364],[92.5875,24.24252],[92.58134,24.24304],[92.56411,24.2478],[92.55847,24.24562],[92.55792,24.24549],[92.55019,24.24364],[92.5485,24.24115],[92.54838,24.24097],[92.54667,24.2355],[92.54665,24.23544],[92.54648,24.23251],[92.54731,24.22963],[92.54691,24.22227],[92.54691,24.22216],[92.5453,24.21766],[92.54175,24.21194],[92.54196,24.20838],[92.54099,24.20399],[92.53682,24.19972],[92.5368,24.1997],[92.53593,24.19767],[92.53731,24.19428],[92.53733,24.19424],[92.53725,24.19409],[92.53099,24.18124],[92.53261,24.17909],[92.53263,24.17906],[92.53296,24.17861],[92.53246,24.17835],[92.5324,24.17832],[92.53103,24.1752],[92.5294,24.17421],[92.52916,24.17259],[92.52491,24.17072],[92.52127,24.17074],[92.5171,24.17402],[92.51466,24.17331],[92.5131,24.1714],[92.51431,24.16802],[92.51325,24.16709],[92.50816,24.16704],[92.51152,24.16264],[92.51234,24.16041],[92.50908,24.16072],[92.5063,24.16465],[92.50441,24.16515],[92.50278,24.16451],[92.50199,24.15995],[92.49968,24.15837],[92.49428,24.1578],[92.48762,24.16009],[92.48542,24.16007],[92.48449,24.15926],[92.48444,24.15718],[92.4835,24.15602],[92.48219,24.15497],[92.48075,24.15496],[92.48309,24.15182],[92.48247,24.1506],[92.48021,24.15019],[92.48017,24.14799],[92.47829,24.1466],[92.48102,24.14082],[92.48041,24.1392],[92.47914,24.13879],[92.47437,24.14081],[92.47287,24.13993],[92.47288,24.13786],[92.47072,24.13698],[92.46813,24.13592],[92.46638,24.13296],[92.46551,24.13267],[92.46437,24.13455],[92.46261,24.1343],[92.45679,24.14143],[92.4502,24.14164],[92.44349,24.15105],[92.44143,24.1508],[92.43836,24.14921],[92.43704,24.14932],[92.43616,24.15039],[92.43484,24.16056],[92.43774,24.16708],[92.43736,24.16846],[92.43407,24.17211],[92.43384,24.17934],[92.43282,24.18123],[92.4218,24.18651],[92.41863,24.19234],[92.41939,24.20046],[92.41789,24.2089],[92.4182,24.21964],[92.41975,24.23317],[92.42224,24.24613],[92.42208,24.25108],[92.42346,24.25115],[92.42529,24.25008],[92.43255,24.25366],[92.43931,24.26817],[92.44549,24.27318],[92.45446,24.28673],[92.46387,24.29873],[92.47034,24.30943],[92.47667,24.32284],[92.48159,24.34089],[92.48188,24.34624],[92.48336,24.35034],[92.49244,24.36746],[92.4924,24.3732],[92.49594,24.38094],[92.49552,24.38703],[92.49619,24.39216],[92.50042,24.40013],[92.50073,24.41117],[92.50213,24.41999],[92.50655,24.43745],[92.50702,24.44419],[92.50597,24.45102],[92.50694,24.45902],[92.50816,24.46541],[92.50794,24.46984],[92.51053,24.47981],[92.50632,24.48868],[92.50632,24.48868],[92.50887,24.49572],[92.50883,24.50141],[92.50753,24.5083],[92.50837,24.51527],[92.51054,24.52253],[92.5084,24.53239],[92.51629,24.55232],[92.5191,24.56701],[92.51691,24.57382],[92.51684,24.57624],[92.51406,24.57776],[92.50579,24.59141],[92.50529,24.60343],[92.5092,24.60295],[92.50867,24.61657],[92.51021,24.62384],[92.5109,24.62454],[92.51026,24.62561],[92.50737,24.62565],[92.50659,24.62684],[92.50669,24.63449],[92.50531,24.64287],[92.50528,24.6488],[92.50333,24.65843],[92.50433,24.66069],[92.50413,24.66212],[92.50298,24.66516],[92.49725,24.67402],[92.49722,24.67947],[92.4984,24.6831],[92.50134,24.68607],[92.50402,24.69093],[92.50562,24.6998],[92.51055,24.70893],[92.51123,24.70981],[92.51123,24.70981],[92.51394,24.71058],[92.51575,24.71451],[92.52195,24.72135],[92.52276,24.72395],[92.52228,24.72947],[92.52344,24.73621],[92.52303,24.74028],[92.52723,24.74614],[92.53314,24.74977],[92.54494,24.75995],[92.54555,24.76397],[92.54318,24.77206],[92.54756,24.77728],[92.54786,24.77941],[92.54627,24.78244],[92.54466,24.78938],[92.54413,24.793],[92.54413,24.793],[92.54505,24.79864],[92.54787,24.802],[92.54804,24.80402],[92.55098,24.80951],[92.55462,24.81415],[92.56336,24.81947],[92.57346,24.83171],[92.58119,24.83897],[92.58662,24.84914],[92.58904,24.85813],[92.58909,24.86193],[92.59255,24.86403],[92.59039,24.86717],[92.58216,24.871],[92.58216,24.87144],[92.58214,24.87313],[92.59743,24.87776],[92.59804,24.87794],[92.59806,24.8779]]]}}]}