{"type":"FeatureCollection","features":[{"type":"Feature","properties":{"id":"kamrup","name":"Kamrup","stateId":"assam","stateName":"Assam","censuscode":321,"type":"district"},"geometry":{"type":"Polygon","coordinates":[[[91.58278,26.57224],[91.58857,26.56821],[91.59174,26.56576],[91.59381,26.56145],[91.5953,26.55413],[91.59719,26.54789],[91.59811,26.54117],[91.59768,26.53649],[91.59952,26.53302],[91.60542,26.53009],[91.61451,26.52832],[91.61866,26.52431],[91.62078,26.52046],[91.622,26.51593],[91.62357,26.51508],[91.6284,26.51398],[91.63622,26.51413],[91.64146,26.51301],[91.64286,26.50144],[91.64283,26.49664],[91.64562,26.48682],[91.65569,26.48015],[91.66296,26.47],[91.67214,26.4671],[91.68853,26.46217],[91.70481,26.46059],[91.71141,26.46083],[91.71678,26.4656],[91.72221,26.47111],[91.72371,26.47839],[91.72847,26.48543],[91.73286,26.48842],[91.73738,26.49289],[91.7419,26.49736],[91.74782,26.49913],[91.7572,26.49842],[91.77022,26.49707],[91.77991,26.49523],[91.78311,26.49367],[91.78123,26.49139],[91.78046,26.4868],[91.78232,26.48344],[91.78091,26.47903],[91.78121,26.47385],[91.77973,26.4695],[91.77739,26.46618],[91.76685,26.46616],[91.76926,26.46095],[91.76894,26.45949],[91.7681,26.45578],[91.77091,26.45224],[91.77226,26.44837],[91.77203,26.44625],[91.77486,26.44344],[91.77308,26.43956],[91.77483,26.43694],[91.77366,26.43167],[91.77549,26.43055],[91.77658,26.42616],[91.77884,26.42504],[91.78102,26.4257],[91.7801,26.41933],[91.78306,26.41796],[91.78316,26.41117],[91.78573,26.40867],[91.79706,26.40724],[91.80008,26.40081],[91.80068,26.39857],[91.80031,26.39477],[91.80165,26.39096],[91.80469,26.38959],[91.80701,26.38749],[91.80639,26.38451],[91.80927,26.38124],[91.81441,26.38319],[91.82059,26.37902],[91.82281,26.37088],[91.82212,26.3672],[91.82404,26.36373],[91.82277,26.35195],[91.82258,26.33654],[91.82429,26.33191],[91.82202,26.32481],[91.81686,26.32563],[91.81395,26.32349],[91.81357,26.31906],[91.81123,26.31645],[91.80746,26.31621],[91.80241,26.31444],[91.79954,26.315],[91.79718,26.31842],[91.79435,26.30891],[91.79142,26.30901],[91.79003,26.30564],[91.7867,26.30465],[91.78864,26.30272],[91.78714,26.30039],[91.78708,26.29624],[91.79102,26.28342],[91.79057,26.27583],[91.79318,26.27142],[91.7932,26.26809],[91.78862,26.26078],[91.7866,26.25356],[91.78766,26.24884],[91.78695,26.24401],[91.78175,26.24109],[91.77797,26.24028],[91.77327,26.24092],[91.7705,26.23917],[91.76636,26.23077],[91.75545,26.22575],[91.75075,26.22189],[91.74945,26.22082],[91.74837,26.21629],[91.75012,26.21052],[91.75532,26.20469],[91.76159,26.19995],[91.74706,26.19439],[91.72613,26.1834],[91.72211,26.18094],[91.71327,26.17705],[91.70394,26.17368],[91.6977,26.17057],[91.6907,26.16702],[91.68601,26.16314],[91.68295,26.1593],[91.67767,26.15286],[91.67577,26.14795],[91.67318,26.14327],[91.67097,26.13887],[91.66452,26.13349],[91.66127,26.13146],[91.65796,26.13073],[91.65582,26.13105],[91.65363,26.13073],[91.65131,26.12911],[91.64972,26.12939],[91.64797,26.13001],[91.6449,26.12886],[91.6416,26.12634],[91.63918,26.12359],[91.63818,26.12057],[91.63486,26.11382],[91.63007,26.11076],[91.62069,26.10674],[91.60069,26.11083],[91.5943,26.11587],[91.59293,26.12069],[91.59233,26.12399],[91.59007,26.12691],[91.5843,26.12927],[91.57828,26.13358],[91.57555,26.13648],[91.56539,26.14225],[91.55736,26.14324],[91.55212,26.14208],[91.55113,26.1414],[91.55113,26.1414],[91.55102,26.14128],[91.54918,26.14015],[91.5455,26.13835],[91.54295,26.1356],[91.54232,26.13309],[91.54145,26.12802],[91.5412,26.12377],[91.54073,26.11868],[91.54023,26.1131],[91.53933,26.10767],[91.53752,26.10414],[91.53455,26.09813],[91.53443,26.09721],[91.53444,26.09721],[91.53432,26.09671],[91.5333,26.09023],[91.53243,26.08528],[91.53163,26.07646],[91.53121,26.07186],[91.53196,26.06602],[91.52789,26.04008],[91.52688,26.0336],[91.52402,26.03033],[91.51773,26.02694],[91.51208,26.02582],[91.50575,26.02667],[91.50172,26.02928],[91.4969,26.03273],[91.49353,26.03799],[91.48599,26.04434],[91.48022,26.05132],[91.47088,26.05201],[91.46392,26.05059],[91.45675,26.04688],[91.45527,26.04467],[91.45446,26.04049],[91.4533,26.0371],[91.45285,26.03212],[91.45441,26.03046],[91.45785,26.02596],[91.46129,26.02146],[91.46222,26.01754],[91.46194,26.01447],[91.46312,26.00859],[91.46616,26.00451],[91.47008,26.00116],[91.46977,25.99771],[91.47142,25.99477],[91.4729,25.99249],[91.47507,25.98994],[91.4748,25.98692],[91.47434,25.98457],[91.47386,25.97657],[91.473,25.97229],[91.47074,25.96855],[91.46999,25.96557],[91.47166,25.96284],[91.47298,25.95884],[91.46983,25.95321],[91.46893,25.9485],[91.46662,25.94151],[91.46703,25.9354],[91.46849,25.92769],[91.47135,25.91685],[91.47381,25.91211],[91.47358,25.90691],[91.47343,25.89998],[91.47531,25.8942],[91.47643,25.89064],[91.4759,25.88742],[91.47414,25.88386],[91.47419,25.87908],[91.47261,25.86965],[91.47177,25.86559],[91.47112,25.86108],[91.47227,25.85783],[91.47131,25.85812],[91.45755,25.85041],[91.44999,25.84476],[91.44699,25.84013],[91.44381,25.84074],[91.43346,25.84687],[91.42693,25.85268],[91.42152,25.85385],[91.41537,25.85305],[91.40773,25.84901],[91.40385,25.85024],[91.39119,25.84645],[91.38479,25.8461],[91.37954,25.84405],[91.37319,25.84347],[91.36638,25.83967],[91.35958,25.84065],[91.35601,25.83692],[91.35127,25.83954],[91.34709,25.83863],[91.3452,25.8353],[91.33915,25.83762],[91.33629,25.83805],[91.33488,25.83291],[91.33515,25.8313],[91.33348,25.82944],[91.32769,25.82301],[91.30902,25.7956],[91.29958,25.77749],[91.28997,25.76336],[91.28226,25.75591],[91.27915,25.75093],[91.2783,25.7462],[91.26496,25.74856],[91.25806,25.7471],[91.23519,25.72846],[91.22657,25.72273],[91.22414,25.72535],[91.21857,25.72322],[91.20074,25.7303],[91.19472,25.72891],[91.19509,25.73542],[91.19145,25.73827],[91.19196,25.7628],[91.18849,25.76622],[91.18872,25.76928],[91.18398,25.77268],[91.18274,25.77566],[91.18678,25.78192],[91.18758,25.79436],[91.19008,25.80262],[91.19379,25.81003],[91.19101,25.8149],[91.19273,25.8201],[91.19716,25.82572],[91.19736,25.82993],[91.2055,25.83985],[91.20154,25.84696],[91.201,25.85414],[91.19936,25.85833],[91.19592,25.85456],[91.18837,25.84929],[91.18463,25.84345],[91.18191,25.84209],[91.17108,25.84498],[91.16456,25.84865],[91.15579,25.84943],[91.14833,25.8467],[91.14084,25.8415],[91.13464,25.84132],[91.12928,25.83758],[91.12372,25.83072],[91.08433,25.82875],[91.06952,25.82519],[91.06623,25.8198],[91.06201,25.82171],[91.0529,25.82834],[91.06023,25.83147],[91.06482,25.8355],[91.07052,25.83573],[91.07589,25.83775],[91.07602,25.8419],[91.08155,25.85204],[91.06892,25.84585],[91.05214,25.84825],[91.04502,25.83884],[91.02798,25.82701],[91.02385,25.82208],[91.01576,25.82055],[91.00916,25.82024],[91.00383,25.82172],[91.00465,25.82528],[91.01176,25.83772],[91.01581,25.8483],[91.0162,25.85665],[91.01821,25.85852],[91.02491,25.86078],[91.0296,25.86607],[91.0322,25.8793],[91.03234,25.88749],[91.03304,25.89391],[91.03611,25.90212],[91.03989,25.9089],[91.04379,25.9212],[91.04795,25.92782],[91.05396,25.9333],[91.05472,25.93727],[91.05111,25.94098],[91.07052,25.96445],[91.07718,25.97108],[91.08356,25.97362],[91.08405,25.97904],[91.08791,25.98218],[91.09196,26.00024],[91.10062,26.0048],[91.10069,26.00923],[91.09742,26.0119],[91.09725,26.01513],[91.09343,26.01976],[91.09176,26.02369],[91.09178,26.02864],[91.08618,26.03024],[91.08133,26.03697],[91.07271,26.03646],[91.06921,26.04392],[91.05834,26.04458],[91.05275,26.04025],[91.04554,26.04198],[91.03986,26.04484],[91.0345,26.0416],[91.02979,26.03974],[91.01822,26.04794],[91.01297,26.05264],[91.00599,26.05281],[91.00005,26.0548],[90.9946,26.05688],[90.98928,26.05742],[90.98701,26.06001],[90.98137,26.06117],[90.96441,26.07515],[90.96126,26.08015],[90.96122,26.08185],[90.95346,26.08098],[90.94884,26.08945],[90.9436,26.08825],[90.93927,26.09196],[90.9391,26.09378],[90.95349,26.09499],[90.95829,26.09691],[90.97218,26.10709],[90.97576,26.11148],[90.98729,26.12001],[90.99183,26.12421],[91.00013,26.12701],[91.00522,26.12937],[91.00916,26.12859],[91.02138,26.12316],[91.02797,26.11942],[91.03429,26.12081],[91.03916,26.12503],[91.04574,26.12803],[91.05172,26.12833],[91.05474,26.13112],[91.05529,26.13515],[91.05883,26.13931],[91.07669,26.15607],[91.08385,26.15992],[91.09393,26.16381],[91.10302,26.16172],[91.11916,26.15341],[91.13365,26.15834],[91.14898,26.15935],[91.16818,26.16936],[91.18374,26.17366],[91.22816,26.17991],[91.23676,26.18217],[91.23263,26.17703],[91.24971,26.16806],[91.25755,26.16316],[91.28885,26.15819],[91.29972,26.1575],[91.30618,26.15986],[91.31103,26.16079],[91.32152,26.16062],[91.3333,26.16194],[91.33851,26.16534],[91.34201,26.16525],[91.34598,26.16273],[91.35126,26.16301],[91.35555,26.16488],[91.35866,26.16438],[91.37211,26.15659],[91.39379,26.13922],[91.39986,26.13663],[91.40942,26.13744],[91.41588,26.13622],[91.4218,26.16612],[91.4222,26.17222],[91.42156,26.18178],[91.41919,26.18617],[91.41539,26.19737],[91.41489,26.20273],[91.41892,26.20412],[91.4214,26.20955],[91.42286,26.21414],[91.42341,26.22662],[91.42571,26.23298],[91.42767,26.23613],[91.43373,26.23715],[91.43339,26.2409],[91.43113,26.24258],[91.42668,26.24344],[91.42013,26.2434],[91.41575,26.24511],[91.41323,26.25216],[91.41544,26.26059],[91.42046,26.26496],[91.42708,26.2642],[91.44064,26.25974],[91.44444,26.26263],[91.45362,26.27259],[91.45181,26.29044],[91.45216,26.30304],[91.45414,26.30739],[91.45819,26.31109],[91.45119,26.31139],[91.45032,26.31289],[91.45919,26.31803],[91.4802,26.3178],[91.49423,26.31896],[91.49958,26.32298],[91.50395,26.32173],[91.50804,26.32174],[91.51032,26.32614],[91.51396,26.32725],[91.52002,26.32724],[91.52796,26.32979],[91.53137,26.33234],[91.53649,26.33355],[91.53437,26.33645],[91.52946,26.33696],[91.52369,26.33859],[91.52137,26.34235],[91.52204,26.34855],[91.52493,26.35536],[91.52878,26.36147],[91.53483,26.36624],[91.53853,26.37062],[91.53525,26.37325],[91.52875,26.37401],[91.52786,26.37794],[91.5361,26.3886],[91.53591,26.39303],[91.54335,26.40059],[91.54674,26.40648],[91.54595,26.40919],[91.5427,26.41384],[91.54445,26.41651],[91.55026,26.41667],[91.55456,26.41438],[91.56168,26.41637],[91.56169,26.42189],[91.56465,26.42433],[91.56688,26.43316],[91.56502,26.43681],[91.56295,26.44402],[91.55686,26.45549],[91.55598,26.46181],[91.55496,26.46917],[91.55497,26.46916],[91.55491,26.4693],[91.55366,26.47318],[91.5541,26.47576],[91.55483,26.47832],[91.55529,26.48008],[91.55577,26.48086],[91.55734,26.48164],[91.55943,26.48149],[91.562,26.48229],[91.56228,26.48425],[91.56228,26.48641],[91.56151,26.48782],[91.5604,26.48889],[91.55942,26.49014],[91.55938,26.49194],[91.55956,26.49283],[91.56021,26.4944],[91.55932,26.49564],[91.55884,26.49702],[91.55898,26.49854],[91.5596,26.49985],[91.56012,26.50107],[91.55999,26.50189],[91.55899,26.50296],[91.55759,26.50414],[91.55677,26.50609],[91.55661,26.50763],[91.55686,26.51032],[91.55733,26.51109],[91.55779,26.51178],[91.55764,26.51341],[91.55721,26.51525],[91.55729,26.51614],[91.55799,26.51726],[91.55768,26.51935],[91.55667,26.52141],[91.55653,26.52313],[91.55663,26.52429],[91.557,26.52508],[91.55719,26.52714],[91.55677,26.52906],[91.55684,26.53094],[91.55718,26.53254],[91.55814,26.5331],[91.5585,26.53379],[91.5594,26.5349],[91.5592,26.53599],[91.55875,26.53648],[91.5579,26.536],[91.55769,26.53475],[91.55667,26.53456],[91.55575,26.53544],[91.55628,26.53684],[91.5571,26.53822],[91.55796,26.53996],[91.55692,26.54283],[91.55761,26.54377],[91.55808,26.54454],[91.55704,26.54516],[91.55471,26.54596],[91.55438,26.5468],[91.55517,26.54773],[91.55652,26.54826],[91.5582,26.54913],[91.55986,26.55089],[91.56089,26.55226],[91.56201,26.55353],[91.56233,26.55485],[91.56156,26.55635],[91.5614,26.5578],[91.56252,26.55799],[91.56466,26.55729],[91.56528,26.55752],[91.56625,26.55826],[91.5661,26.5589],[91.56489,26.55989],[91.56418,26.56084],[91.56366,26.56178],[91.56414,26.56264],[91.56527,26.56292],[91.56648,26.56301],[91.56797,26.56398],[91.56865,26.56591],[91.56917,26.56831],[91.56948,26.57062],[91.57004,26.5726],[91.57076,26.5723],[91.57568,26.57222],[91.58278,26.57224]]]}}]}