{"type":"FeatureCollection","features":[{"type":"Feature","properties":{"id":"kamrup-metropolitan","name":"Kamrup Metropolitan","stateId":"assam","stateName":"Assam","censuscode":322,"type":"district"},"geometry":{"type":"Polygon","coordinates":[[[91.96025,26.24368],[91.95851,26.23875],[91.95826,26.23524],[91.95915,26.23145],[91.96195,26.22771],[91.96947,26.22462],[91.97877,26.21758],[91.99991,26.20444],[92.00533,26.20323],[92.00669,26.20218],[92.00824,26.20362],[92.01056,26.20442],[92.017,26.20523],[92.02245,26.20144],[92.0264,26.20051],[92.03071,26.20668],[92.03284,26.20782],[92.03448,26.20769],[92.03896,26.20477],[92.04077,26.20132],[92.04292,26.19938],[92.04603,26.19933],[92.0483,26.20417],[92.04851,26.21336],[92.0634,26.19717],[92.06566,26.19628],[92.07409,26.19634],[92.07971,26.19508],[92.08386,26.18564],[92.08635,26.1849],[92.0924,26.18847],[92.09446,26.18777],[92.09575,26.18475],[92.0941,26.18269],[92.08624,26.17821],[92.08392,26.17757],[92.09589,26.17588],[92.11087,26.17106],[92.11726,26.17595],[92.12498,26.17832],[92.13195,26.17843],[92.13357,26.17743],[92.13457,26.17348],[92.14948,26.16253],[92.15408,26.16119],[92.15619,26.16285],[92.15679,26.16627],[92.1586,26.16712],[92.16109,26.16626],[92.16512,26.16341],[92.17038,26.16336],[92.16942,26.15705],[92.16506,26.14818],[92.16682,26.13357],[92.17084,26.1178],[92.17211,26.11541],[92.17425,26.10104],[92.17042,26.09345],[92.17029,26.09166],[92.1759,26.0817],[92.18042,26.07789],[92.1712,26.07598],[92.15679,26.06646],[92.15263,26.0633],[92.15108,26.06004],[92.14833,26.05697],[92.14588,26.05605],[92.14026,26.05124],[92.13521,26.04431],[92.12913,26.04433],[92.12548,26.04332],[92.11835,26.04499],[92.11102,26.04816],[92.09549,26.04698],[92.08329,26.0421],[92.081,26.04027],[92.07578,26.03877],[92.07262,26.03634],[92.06536,26.03321],[92.05503,26.03134],[92.05236,26.03155],[92.04181,26.03475],[92.0383,26.03793],[92.03695,26.03822],[92.03009,26.03844],[92.02608,26.03698],[92.02441,26.03781],[92.01984,26.03814],[92.0104,26.03801],[92.00563,26.03659],[92.00267,26.03774],[91.99987,26.03741],[91.99331,26.03961],[91.98965,26.03731],[91.98648,26.02913],[91.98042,26.02444],[91.96007,26.0175],[91.95468,26.01642],[91.94859,26.01313],[91.94356,26.01262],[91.93624,26.0133],[91.93018,26.00224],[91.92909,26.00026],[91.92811,25.99838],[91.92437,25.99817],[91.92185,25.99878],[91.92181,26.00024],[91.921,26.00589],[91.91794,26.00898],[91.91915,26.01241],[91.91928,26.02012],[91.91397,26.02249],[91.90978,26.02577],[91.90326,26.02494],[91.8943,26.02823],[91.88559,26.02869],[91.87256,26.0509],[91.87176,26.05557],[91.87767,26.08327],[91.87825,26.09644],[91.86717,26.09906],[91.85632,26.10353],[91.82908,26.11691],[91.82186,26.11752],[91.8181,26.11021],[91.81335,26.10394],[91.8106,26.10261],[91.80433,26.10373],[91.7929,26.08582],[91.78713,26.08538],[91.78297,26.0871],[91.78106,26.09006],[91.762,26.07012],[91.73382,26.05806],[91.73714,26.05549],[91.73552,26.04987],[91.72896,26.04576],[91.72571,26.02918],[91.72717,26.02611],[91.72529,26.01866],[91.72367,26.0007],[91.72225,25.97715],[91.72407,25.96392],[91.72261,25.95292],[91.71637,25.94609],[91.7106,25.94323],[91.70336,25.94076],[91.70441,25.93679],[91.69475,25.92798],[91.68883,25.92011],[91.68105,25.9162],[91.67843,25.91072],[91.67174,25.90428],[91.66968,25.90708],[91.66439,25.90878],[91.65933,25.90679],[91.65394,25.90658],[91.65038,25.91266],[91.63531,25.9247],[91.62527,25.92993],[91.61368,25.93888],[91.61348,25.94355],[91.62717,25.94491],[91.63264,25.94357],[91.63663,25.95943],[91.6405,25.96378],[91.6347,25.96973],[91.6306,25.97592],[91.62938,25.98133],[91.62731,25.98483],[91.63127,25.99407],[91.62932,25.99658],[91.63304,25.99877],[91.63465,26.0008],[91.63563,26.00385],[91.63472,26.0129],[91.63601,26.01679],[91.63479,26.02135],[91.62873,26.02292],[91.62292,26.02598],[91.61919,26.02367],[91.60452,26.0216],[91.59947,26.01977],[91.59972,26.01603],[91.59082,26.02914],[91.5868,26.03097],[91.57854,26.03211],[91.57274,26.02648],[91.5715,26.02074],[91.57239,26.01584],[91.57127,26.01095],[91.56782,26.00651],[91.56877,26.00276],[91.56805,26.00084],[91.5575,25.98562],[91.5539,25.97391],[91.55159,25.97411],[91.53995,25.96741],[91.53981,25.96113],[91.53507,25.96127],[91.52851,25.96036],[91.52646,25.95845],[91.52115,25.95719],[91.52085,25.95184],[91.52242,25.93994],[91.51894,25.93737],[91.50426,25.91981],[91.50596,25.91338],[91.5082,25.91213],[91.50964,25.91278],[91.51339,25.91447],[91.51946,25.91906],[91.52431,25.92388],[91.53851,25.93303],[91.53393,25.92275],[91.52739,25.91982],[91.51115,25.90881],[91.50376,25.89753],[91.50586,25.89121],[91.50121,25.89152],[91.49893,25.89278],[91.49553,25.89464],[91.49115,25.89392],[91.48599,25.89013],[91.48128,25.88376],[91.47856,25.87712],[91.47735,25.87031],[91.47998,25.8678],[91.49626,25.86459],[91.50088,25.86625],[91.51034,25.86649],[91.5161,25.86999],[91.51981,25.8737],[91.52232,25.87706],[91.52479,25.88496],[91.52836,25.88914],[91.53231,25.88871],[91.53461,25.88718],[91.53515,25.88309],[91.53143,25.8799],[91.52795,25.87192],[91.52432,25.87339],[91.52167,25.87216],[91.51531,25.8656],[91.51043,25.86385],[91.49859,25.86139],[91.48562,25.86198],[91.48098,25.85676],[91.47755,25.85627],[91.47227,25.85783],[91.47112,25.86108],[91.47177,25.86559],[91.47261,25.86965],[91.47419,25.87908],[91.47414,25.88386],[91.4759,25.88742],[91.47643,25.89064],[91.47531,25.8942],[91.47343,25.89998],[91.47358,25.90691],[91.47381,25.91211],[91.47135,25.91685],[91.46849,25.92769],[91.46703,25.9354],[91.46662,25.94151],[91.46893,25.9485],[91.46983,25.95321],[91.47298,25.95884],[91.47166,25.96284],[91.46999,25.96557],[91.47074,25.96855],[91.473,25.97229],[91.47386,25.97657],[91.47434,25.98457],[91.4748,25.98692],[91.47507,25.98994],[91.4729,25.99249],[91.47142,25.99477],[91.46977,25.99771],[91.47008,26.00116],[91.46616,26.00451],[91.46312,26.00859],[91.46194,26.01447],[91.46222,26.01754],[91.46129,26.02146],[91.45785,26.02596],[91.45441,26.03046],[91.45285,26.03212],[91.4533,26.0371],[91.45446,26.04049],[91.45527,26.04467],[91.45675,26.04688],[91.46392,26.05059],[91.47088,26.05201],[91.48022,26.05132],[91.48599,26.04434],[91.49353,26.03799],[91.4969,26.03273],[91.50172,26.02928],[91.50575,26.02667],[91.51208,26.02582],[91.51773,26.02694],[91.52402,26.03033],[91.52688,26.0336],[91.52789,26.04008],[91.53196,26.06602],[91.53121,26.07186],[91.53163,26.07646],[91.53243,26.08528],[91.5333,26.09023],[91.53432,26.09671],[91.53444,26.09721],[91.53443,26.09721],[91.53455,26.09813],[91.53752,26.10414],[91.53933,26.10767],[91.54023,26.1131],[91.54073,26.11868],[91.5412,26.12377],[91.54145,26.12802],[91.54232,26.13309],[91.54295,26.1356],[91.5455,26.13835],[91.54918,26.14015],[91.55102,26.14128],[91.55113,26.1414],[91.55113,26.1414],[91.55212,26.14208],[91.55736,26.14324],[91.56539,26.14225],[91.57555,26.13648],[91.57828,26.13358],[91.5843,26.12927],[91.59007,26.12691],[91.59233,26.12399],[91.59293,26.12069],[91.5943,26.11587],[91.60069,26.11083],[91.62069,26.10674],[91.63007,26.11076],[91.63486,26.11382],[91.63818,26.12057],[91.63918,26.12359],[91.6416,26.12634],[91.6449,26.12886],[91.64797,26.13001],[91.64972,26.12939],[91.65131,26.12911],[91.65363,26.13073],[91.65582,26.13105],[91.65796,26.13073],[91.66127,26.13146],[91.66452,26.13349],[91.67097,26.13887],[91.67318,26.14327],[91.67577,26.14795],[91.67767,26.15286],[91.68295,26.1593],[91.68601,26.16314],[91.6907,26.16702],[91.6977,26.17057],[91.70394,26.17368],[91.71327,26.17705],[91.72211,26.18094],[91.72613,26.1834],[91.74706,26.19439],[91.76159,26.19995],[91.76167,26.19989],[91.77953,26.19774],[91.79368,26.20215],[91.81355,26.207],[91.81836,26.20567],[91.83085,26.20997],[91.83859,26.21148],[91.84443,26.21433],[91.85756,26.21558],[91.86933,26.21875],[91.87788,26.21558],[91.89245,26.21893],[91.89313,26.22145],[91.90479,26.22531],[91.91518,26.23339],[91.91695,26.2405],[91.92666,26.24576],[91.93158,26.24253],[91.93512,26.24138],[91.94605,26.24749],[91.95109,26.25133],[91.95598,26.25371],[91.96001,26.24782],[91.96025,26.24368]]]}}]}