{"type":"FeatureCollection","features":[{"type":"Feature","properties":{"id":"karimganj","name":"Karimganj","stateId":"assam","stateName":"Assam","censuscode":317,"type":"district"},"geometry":{"type":"Polygon","coordinates":[[[92.49894,24.87397],[92.50361,24.8721],[92.50361,24.8721],[92.50947,24.87401],[92.51623,24.87493],[92.51984,24.87175],[92.51908,24.87123],[92.52067,24.86946],[92.52584,24.85871],[92.52584,24.85871],[92.53045,24.85938],[92.53045,24.85938],[92.53524,24.86168],[92.53644,24.86195],[92.54111,24.863],[92.54111,24.863],[92.54111,24.863],[92.54563,24.86506],[92.55274,24.87014],[92.56031,24.8721],[92.57282,24.86999],[92.578,24.86832],[92.58909,24.86193],[92.58909,24.86193],[92.58909,24.86193],[92.58904,24.85813],[92.58662,24.84914],[92.58119,24.83897],[92.57346,24.83171],[92.56336,24.81947],[92.55462,24.81415],[92.55098,24.80951],[92.54804,24.80402],[92.54787,24.802],[92.54505,24.79864],[92.54413,24.793],[92.54413,24.793],[92.54466,24.78938],[92.54627,24.78244],[92.54786,24.77941],[92.54756,24.77728],[92.54318,24.77206],[92.54555,24.76397],[92.54494,24.75995],[92.53314,24.74977],[92.52723,24.74614],[92.52303,24.74028],[92.52344,24.73621],[92.52228,24.72947],[92.52276,24.72395],[92.52195,24.72135],[92.51575,24.71451],[92.51394,24.71058],[92.51123,24.70981],[92.51123,24.70981],[92.51055,24.70893],[92.50562,24.6998],[92.50402,24.69093],[92.50134,24.68607],[92.4984,24.6831],[92.49722,24.67947],[92.49725,24.67402],[92.50298,24.66516],[92.50413,24.66212],[92.50433,24.66069],[92.50333,24.65843],[92.50528,24.6488],[92.50531,24.64287],[92.50669,24.63449],[92.50659,24.62684],[92.50737,24.62565],[92.51026,24.62561],[92.5109,24.62454],[92.51021,24.62384],[92.50867,24.61657],[92.5092,24.60295],[92.50529,24.60343],[92.50579,24.59141],[92.51406,24.57776],[92.51684,24.57624],[92.51691,24.57382],[92.5191,24.56701],[92.51629,24.55232],[92.5084,24.53239],[92.51054,24.52253],[92.50837,24.51527],[92.50753,24.5083],[92.50883,24.50141],[92.50887,24.49572],[92.50632,24.48868],[92.50632,24.48868],[92.51053,24.47981],[92.50794,24.46984],[92.50816,24.46541],[92.50694,24.45902],[92.50597,24.45102],[92.50702,24.44419],[92.50655,24.43745],[92.50213,24.41999],[92.50073,24.41117],[92.50042,24.40013],[92.49619,24.39216],[92.49552,24.38703],[92.49594,24.38094],[92.4924,24.3732],[92.49244,24.36746],[92.48336,24.35034],[92.48188,24.34624],[92.48159,24.34089],[92.47667,24.32284],[92.47034,24.30943],[92.46387,24.29873],[92.45446,24.28673],[92.44549,24.27318],[92.43931,24.26817],[92.43255,24.25366],[92.42529,24.25008],[92.42346,24.25115],[92.42208,24.25108],[92.41618,24.25141],[92.40657,24.24993],[92.39545,24.25055],[92.3763,24.24936],[92.31392,24.25076],[92.31035,24.24951],[92.30337,24.25087],[92.29647,24.24992],[92.29169,24.24946],[92.28466,24.25024],[92.25948,24.24868],[92.24045,24.2489],[92.21282,24.24764],[92.26408,24.36038],[92.26814,24.36549],[92.26758,24.37146],[92.26826,24.37302],[92.27226,24.37577],[92.2725,24.37755],[92.2699,24.3804],[92.2727,24.3844],[92.27312,24.38665],[92.27047,24.38915],[92.26987,24.39305],[92.26425,24.39579],[92.26268,24.40303],[92.26268,24.40303],[92.26328,24.40631],[92.26276,24.40803],[92.26276,24.40803],[92.25941,24.41172],[92.25603,24.4172],[92.25756,24.43073],[92.25658,24.43451],[92.23933,24.44551],[92.23615,24.44847],[92.23606,24.45203],[92.23522,24.45466],[92.23244,24.4567],[92.23122,24.45864],[92.23131,24.4637],[92.22906,24.47023],[92.23045,24.47829],[92.234,24.48295],[92.23958,24.48816],[92.23677,24.49107],[92.23651,24.49257],[92.23559,24.49502],[92.2352,24.49641],[92.23479,24.49758],[92.23449,24.49853],[92.23342,24.50171],[92.23399,24.50578],[92.23374,24.52014],[92.23371,24.52736],[92.23229,24.53703],[92.23246,24.54389],[92.2341,24.5523],[92.23406,24.56151],[92.23402,24.57216],[92.23339,24.58101],[92.23148,24.58869],[92.2291,24.59437],[92.22404,24.59859],[92.22154,24.60527],[92.22252,24.60888],[92.22713,24.61423],[92.23176,24.61831],[92.23421,24.62211],[92.23754,24.62953],[92.23989,24.63703],[92.24006,24.64399],[92.23964,24.64824],[92.23626,24.65292],[92.23308,24.65716],[92.22891,24.66265],[92.22742,24.66644],[92.22541,24.67266],[92.22617,24.67998],[92.22872,24.6845],[92.23136,24.69138],[92.23371,24.69681],[92.23942,24.70161],[92.24446,24.70334],[92.2494,24.70255],[92.25742,24.70131],[92.26096,24.70439],[92.26352,24.70783],[92.26607,24.71244],[92.26722,24.7214],[92.2672,24.72799],[92.26787,24.73268],[92.2705,24.74263],[92.27059,24.74769],[92.26968,24.7513],[92.26806,24.75878],[92.26448,24.76411],[92.26476,24.76908],[92.26583,24.77414],[92.268,24.77776],[92.27026,24.78075],[92.27352,24.78292],[92.27884,24.7852],[92.28309,24.78719],[92.28308,24.79126],[92.2796,24.79478],[92.27463,24.80144],[92.27422,24.80631],[92.27368,24.81661],[92.27266,24.82284],[92.27176,24.82871],[92.26412,24.83139],[92.25888,24.82939],[92.25325,24.82928],[92.24749,24.83305],[92.24746,24.83919],[92.24883,24.84389],[92.24901,24.84932],[92.24692,24.85301],[92.24175,24.85688],[92.23699,24.86102],[92.23628,24.86571],[92.24309,24.86962],[92.24634,24.87252],[92.24959,24.87767],[92.25343,24.88148],[92.25361,24.886],[92.252,24.89168],[92.24714,24.89591],[92.24346,24.90005],[92.24364,24.90394],[92.25046,24.90767],[92.25867,24.90878],[92.27016,24.90971],[92.27649,24.90928],[92.28066,24.90777],[92.28551,24.90769],[92.29223,24.91042],[92.29864,24.91577],[92.3032,24.91597],[92.30766,24.91625],[92.31263,24.91021],[92.31265,24.90489],[92.31514,24.90073],[92.32446,24.89733],[92.33199,24.89329],[92.33795,24.88806],[92.34311,24.88293],[92.34885,24.88294],[92.35092,24.88774],[92.35566,24.89019],[92.35746,24.88576],[92.36272,24.88117],[92.3656,24.87748],[92.36927,24.87506],[92.37422,24.87461],[92.37928,24.87245],[92.38195,24.86966],[92.38545,24.8619],[92.39605,24.85506],[92.40269,24.85535],[92.40743,24.85915],[92.41077,24.8635],[92.41662,24.86396],[92.42048,24.86018],[92.42405,24.85802],[92.43039,24.8574],[92.43801,24.85959],[92.44332,24.86853],[92.45114,24.87415],[92.45736,24.87579],[92.46439,24.87527],[92.47351,24.87149],[92.48133,24.86816],[92.48717,24.86681],[92.49332,24.86674],[92.49777,24.86792],[92.49894,24.87397]]]}}]}