{"type":"FeatureCollection","features":[{"type":"Feature","properties":{"id":"kokrajhar","name":"Kokrajhar","stateId":"assam","stateName":"Assam","censuscode":300,"type":"district"},"geometry":{"type":"Polygon","coordinates":[[[90.42509,26.89857],[90.42831,26.88749],[90.429,26.8794],[90.42819,26.86629],[90.42643,26.85153],[90.42559,26.84146],[90.42478,26.83164],[90.42335,26.82259],[90.42547,26.81525],[90.42496,26.80748],[90.42192,26.80025],[90.42166,26.7938],[90.42141,26.78919],[90.42185,26.78465],[90.42479,26.77908],[90.42737,26.77574],[90.42903,26.76954],[90.42797,26.76497],[90.42798,26.76021],[90.43119,26.75622],[90.43273,26.75185],[90.43312,26.7467],[90.43118,26.74293],[90.42734,26.73928],[90.42702,26.7387],[90.42547,26.73465],[90.42507,26.7298],[90.4223,26.72425],[90.42148,26.72089],[90.42137,26.71797],[90.42156,26.71528],[90.42068,26.71119],[90.4189,26.70936],[90.41553,26.708],[90.41108,26.70671],[90.40983,26.70472],[90.40839,26.70384],[90.40655,26.70286],[90.40572,26.70109],[90.40522,26.6999],[90.406,26.6979],[90.40701,26.69686],[90.40682,26.69126],[90.40439,26.68813],[90.40164,26.68441],[90.3997,26.68064],[90.40074,26.68008],[90.40227,26.67888],[90.40299,26.67773],[90.40125,26.67639],[90.39839,26.67633],[90.39562,26.67566],[90.39339,26.66996],[90.39204,26.66675],[90.3906,26.66417],[90.3893,26.66157],[90.3879,26.65935],[90.38759,26.65559],[90.38529,26.65232],[90.37713,26.64384],[90.37479,26.64022],[90.37236,26.63867],[90.37103,26.639],[90.36948,26.63996],[90.36838,26.63979],[90.36843,26.63881],[90.36834,26.63772],[90.36934,26.63655],[90.36925,26.63546],[90.36806,26.6342],[90.36593,26.63312],[90.3647,26.63137],[90.36511,26.62976],[90.36698,26.62768],[90.36692,26.62696],[90.36577,26.62618],[90.36423,26.62555],[90.36157,26.62292],[90.35933,26.62039],[90.3582,26.61985],[90.35605,26.61853],[90.35616,26.61657],[90.35735,26.61454],[90.35721,26.61284],[90.35512,26.61042],[90.35478,26.608],[90.35587,26.60635],[90.35587,26.60476],[90.35677,26.60251],[90.35818,26.60144],[90.35874,26.60006],[90.35982,26.59828],[90.36127,26.59782],[90.36382,26.59741],[90.36375,26.59656],[90.36363,26.5951],[90.36381,26.59399],[90.36505,26.59257],[90.36631,26.59139],[90.36791,26.58945],[90.36765,26.58618],[90.36808,26.58322],[90.367,26.58158],[90.36604,26.57982],[90.36582,26.57886],[90.36521,26.57792],[90.36386,26.57801],[90.36092,26.57857],[90.35896,26.57785],[90.35582,26.57428],[90.35493,26.57336],[90.3537,26.57161],[90.35483,26.57044],[90.35636,26.56924],[90.35892,26.56748],[90.35933,26.56575],[90.35854,26.56446],[90.35535,26.56357],[90.35382,26.56307],[90.35376,26.56075],[90.35408,26.55963],[90.35409,26.55817],[90.3552,26.55517],[90.35799,26.55437],[90.36056,26.55433],[90.36141,26.55317],[90.36049,26.55177],[90.35965,26.55146],[90.35822,26.55058],[90.35702,26.54919],[90.35763,26.54842],[90.36049,26.54848],[90.36266,26.54845],[90.36502,26.54586],[90.36797,26.54383],[90.37042,26.54221],[90.37191,26.54223],[90.37516,26.54384],[90.37775,26.54404],[90.38064,26.54287],[90.38242,26.54141],[90.3824,26.53629],[90.38215,26.53314],[90.38291,26.53089],[90.38518,26.53049],[90.38811,26.53152],[90.39087,26.53036],[90.39161,26.52946],[90.39229,26.52783],[90.39174,26.52616],[90.38833,26.5226],[90.38599,26.52056],[90.38525,26.51805],[90.38636,26.51676],[90.38852,26.51503],[90.39059,26.51538],[90.39342,26.5169],[90.39482,26.51912],[90.39781,26.52075],[90.40044,26.51984],[90.40249,26.51666],[90.40093,26.5142],[90.39879,26.51288],[90.39703,26.51129],[90.39644,26.50913],[90.39729,26.50786],[90.39843,26.50693],[90.39948,26.50649],[90.40093,26.50603],[90.40216,26.50448],[90.40133,26.50259],[90.39963,26.50002],[90.39708,26.49872],[90.39603,26.49745],[90.39584,26.49515],[90.39597,26.49343],[90.39782,26.49282],[90.40236,26.49203],[90.40361,26.49073],[90.40388,26.48912],[90.40269,26.48786],[90.40057,26.48678],[90.3977,26.48649],[90.39603,26.48599],[90.39461,26.48352],[90.3949,26.48045],[90.39632,26.47792],[90.39951,26.47551],[90.4015,26.47172],[90.40206,26.46863],[90.40207,26.46546],[90.40048,26.45922],[90.40044,26.45715],[90.40094,26.45334],[90.40124,26.44868],[90.40161,26.44658],[90.40349,26.44475],[90.40565,26.44302],[90.40692,26.44038],[90.40908,26.43694],[90.40934,26.43521],[90.41011,26.43324],[90.4035,26.41365],[90.39951,26.40129],[90.39756,26.39101],[90.39751,26.39097],[90.39886,26.38788],[90.39864,26.38542],[90.39348,26.38016],[90.3912,26.37648],[90.38948,26.3704],[90.38807,26.37076],[90.38671,26.37328],[90.38626,26.3741],[90.38467,26.37183],[90.38438,26.37141],[90.38193,26.36988],[90.38344,26.36768],[90.38591,26.36616],[90.39985,26.36272],[90.40527,26.36309],[90.41732,26.36225],[90.42422,26.3633],[90.42641,26.36477],[90.42897,26.36004],[90.42909,26.35993],[90.41656,26.34528],[90.41143,26.3405],[90.40774,26.33975],[90.4026,26.33867],[90.39882,26.3348],[90.39514,26.33036],[90.39031,26.32726],[90.38658,26.3241],[90.38211,26.32155],[90.37702,26.31919],[90.37539,26.3166],[90.37509,26.31292],[90.37699,26.3091],[90.37825,26.30532],[90.37851,26.30075],[90.37816,26.29651],[90.3767,26.29405],[90.37476,26.29346],[90.3728,26.2926],[90.36814,26.29163],[90.36249,26.292],[90.35654,26.29254],[90.35131,26.28834],[90.34701,26.28393],[90.33902,26.28076],[90.33354,26.27928],[90.32823,26.27807],[90.32342,26.27895],[90.32079,26.28155],[90.31775,26.28871],[90.31804,26.29424],[90.31909,26.29943],[90.32367,26.30524],[90.3282,26.31248],[90.33227,26.3179],[90.33596,26.32249],[90.33977,26.32863],[90.34321,26.33409],[90.34925,26.33838],[90.35359,26.34136],[90.35669,26.34457],[90.35835,26.34944],[90.3566,26.35311],[90.35347,26.35531],[90.34973,26.35982],[90.3484,26.36858],[90.34697,26.37038],[90.3438,26.37031],[90.33877,26.36666],[90.3373,26.36405],[90.33407,26.36128],[90.33084,26.36036],[90.32908,26.36134],[90.32304,26.35634],[90.32079,26.35526],[90.31988,26.35285],[90.31358,26.34811],[90.31283,26.3503],[90.3092,26.3452],[90.30491,26.3427],[90.30192,26.33794],[90.30192,26.33794],[90.29478,26.33861],[90.29472,26.33861],[90.28959,26.33635],[90.29205,26.33328],[90.29246,26.33091],[90.29043,26.32581],[90.2892,26.32316],[90.28721,26.32156],[90.28253,26.31981],[90.27747,26.32312],[90.2763,26.32774],[90.27527,26.32863],[90.27504,26.32883],[90.27214,26.33035],[90.27091,26.331],[90.26024,26.33428],[90.25749,26.3347],[90.25669,26.33068],[90.255,26.32796],[90.25494,26.32787],[90.25372,26.32703],[90.25244,26.32615],[90.25123,26.3261],[90.24945,26.32744],[90.24563,26.32786],[90.24556,26.32787],[90.24394,26.32523],[90.24072,26.32376],[90.24068,26.32375],[90.23018,26.33251],[90.22518,26.32977],[90.2214,26.32934],[90.22073,26.33164],[90.23123,26.34954],[90.22269,26.34936],[90.21894,26.35036],[90.22133,26.35253],[90.22592,26.35234],[90.23181,26.35454],[90.23596,26.36183],[90.23631,26.36522],[90.2345,26.3699],[90.22861,26.37321],[90.23025,26.37913],[90.23022,26.38264],[90.22873,26.38534],[90.22872,26.38536],[90.2229,26.38378],[90.20899,26.3769],[90.21077,26.36244],[90.20798,26.35865],[90.19715,26.35302],[90.1912,26.34522],[90.18132,26.34521],[90.17626,26.34225],[90.17422,26.34238],[90.17111,26.34562],[90.15668,26.35282],[90.15665,26.35283],[90.15435,26.35296],[90.14347,26.3494],[90.12233,26.33914],[90.10916,26.3293],[90.10509,26.3266],[90.10659,26.32571],[90.11198,26.32484],[90.11883,26.32414],[90.1212,26.32139],[90.11811,26.31874],[90.11547,26.31813],[90.11106,26.31686],[90.10861,26.31495],[90.10781,26.31215],[90.11326,26.30843],[90.11841,26.30809],[90.12413,26.30409],[90.12701,26.30054],[90.12932,26.29702],[90.13275,26.29317],[90.13583,26.29219],[90.14127,26.29183],[90.14478,26.29264],[90.14818,26.2919],[90.15093,26.2868],[90.15242,26.28022],[90.14998,26.27494],[90.14418,26.27065],[90.13645,26.26752],[90.13191,26.26471],[90.12913,26.26229],[90.12329,26.26112],[90.12188,26.25784],[90.12118,26.2527],[90.12134,26.24388],[90.12119,26.23844],[90.12397,26.2336],[90.12609,26.23139],[90.13303,26.22834],[90.13687,26.22602],[90.13726,26.22366],[90.1367,26.2167],[90.13678,26.21047],[90.13947,26.20459],[90.14049,26.20297],[90.13879,26.19971],[90.13479,26.19634],[90.12925,26.19541],[90.12378,26.19524],[90.11778,26.19563],[90.11253,26.19468],[90.10181,26.18993],[90.09486,26.18571],[90.08314,26.17921],[90.07171,26.1727],[90.06601,26.16606],[90.05776,26.15623],[90.05678,26.14748],[90.0576,26.14328],[90.05611,26.13897],[90.05068,26.13569],[90.04427,26.13092],[90.03347,26.12876],[90.02166,26.13185],[90.00039,26.14255],[89.98622,26.14502],[89.97705,26.14534],[89.96507,26.14274],[89.94661,26.13796],[89.94412,26.13915],[89.92869,26.13651],[89.91965,26.13475],[89.91385,26.13408],[89.90016,26.13521],[89.88419,26.13674],[89.87859,26.14228],[89.87902,26.14407],[89.87312,26.14574],[89.87085,26.14977],[89.86878,26.15275],[89.86914,26.1574],[89.87038,26.16224],[89.87203,26.16862],[89.87008,26.17678],[89.86944,26.17967],[89.86997,26.18275],[89.87155,26.18472],[89.87414,26.18844],[89.87349,26.19108],[89.8712,26.19122],[89.86661,26.18763],[89.86424,26.18674],[89.86036,26.18854],[89.86003,26.19167],[89.86223,26.19412],[89.86784,26.1961],[89.87074,26.20006],[89.87167,26.20467],[89.87054,26.20863],[89.86635,26.21019],[89.86116,26.21726],[89.86119,26.2214],[89.86441,26.22587],[89.86816,26.22978],[89.8701,26.2325],[89.86777,26.23576],[89.86398,26.23885],[89.8574,26.2429],[89.85572,26.24715],[89.85522,26.25185],[89.85319,26.25534],[89.85462,26.25888],[89.85864,26.25889],[89.86551,26.25845],[89.86786,26.25908],[89.86939,26.26028],[89.87146,26.26482],[89.87127,26.26975],[89.87382,26.27659],[89.87584,26.28035],[89.87747,26.28284],[89.88071,26.29118],[89.88401,26.29668],[89.88566,26.30305],[89.88672,26.30558],[89.88799,26.30836],[89.88816,26.30856],[89.89104,26.31311],[89.89178,26.31724],[89.89477,26.32046],[89.89632,26.32415],[89.89638,26.3249],[89.89799,26.3267],[89.90087,26.3286],[89.90142,26.33027],[89.9009,26.33163],[89.8994,26.334],[89.90027,26.33698],[89.89842,26.34032],[89.89154,26.34113],[89.88794,26.34344],[89.88794,26.3461],[89.89205,26.34754],[89.8939,26.3497],[89.89316,26.35373],[89.89033,26.35523],[89.89094,26.35766],[89.89291,26.35867],[89.89176,26.36007],[89.88961,26.3621],[89.88731,26.36509],[89.88513,26.3694],[89.88285,26.37257],[89.87923,26.3747],[89.87482,26.37479],[89.86834,26.37539],[89.86635,26.37684],[89.86153,26.3798],[89.8601,26.38205],[89.86223,26.38439],[89.86224,26.3844],[89.85815,26.39592],[89.85532,26.39822],[89.85402,26.39986],[89.8518,26.40268],[89.85105,26.39772],[89.85014,26.39575],[89.84947,26.39429],[89.84573,26.39108],[89.84537,26.39076],[89.83565,26.39014],[89.83559,26.39014],[89.83297,26.39342],[89.83229,26.3964],[89.83448,26.40321],[89.83831,26.41223],[89.83837,26.41221],[89.84135,26.4112],[89.84986,26.41015],[89.84986,26.41015],[89.85481,26.41414],[89.85266,26.41975],[89.85281,26.42167],[89.85476,26.42218],[89.85802,26.42449],[89.86023,26.43398],[89.86272,26.43804],[89.86617,26.44035],[89.87453,26.44834],[89.87447,26.4572],[89.87566,26.45981],[89.87525,26.4639],[89.87216,26.46573],[89.8675,26.46599],[89.86743,26.46599],[89.86609,26.47469],[89.8578,26.4877],[89.86006,26.49422],[89.86073,26.50506],[89.85864,26.51714],[89.85958,26.52099],[89.86698,26.53037],[89.86743,26.5372],[89.86657,26.54309],[89.86979,26.5482],[89.86952,26.56068],[89.87066,26.56575],[89.87018,26.57018],[89.86673,26.57446],[89.86722,26.57778],[89.87506,26.57941],[89.88275,26.58413],[89.87942,26.58911],[89.87734,26.59461],[89.87776,26.59747],[89.88045,26.60106],[89.88185,26.60624],[89.88249,26.61294],[89.87688,26.61485],[89.87687,26.61485],[89.86709,26.61504],[89.86426,26.61711],[89.86231,26.6233],[89.86258,26.63198],[89.86657,26.63545],[89.87895,26.6434],[89.88112,26.64619],[89.88166,26.64939],[89.87805,26.65175],[89.87336,26.65651],[89.8736,26.66064],[89.87517,26.66256],[89.87585,26.66611],[89.87466,26.67084],[89.87481,26.6737],[89.87681,26.67911],[89.87678,26.68342],[89.86679,26.70024],[89.86232,26.70367],[89.86517,26.7085],[89.86367,26.72011],[89.86501,26.72429],[89.86389,26.73111],[89.86787,26.73688],[89.87306,26.73455],[89.87896,26.73161],[89.8867,26.72806],[89.89484,26.72426],[89.90291,26.72353],[89.91175,26.72353],[89.92625,26.72247],[89.937,26.72314],[89.94525,26.72285],[89.95289,26.723],[89.96315,26.72303],[89.97266,26.72457],[89.99,26.72662],[89.99969,26.72989],[90.00741,26.73419],[90.02501,26.73038],[90.03921,26.72958],[90.05049,26.72889],[90.0559,26.72972],[90.07284,26.73194],[90.08292,26.73502],[90.09101,26.73734],[90.10031,26.7396],[90.11959,26.74492],[90.13308,26.74887],[90.15135,26.75472],[90.16611,26.76031],[90.17867,26.76487],[90.19394,26.77039],[90.19237,26.78154],[90.19054,26.78702],[90.18828,26.79824],[90.18784,26.80392],[90.18932,26.80954],[90.19224,26.8142],[90.19717,26.8271],[90.19995,26.83283],[90.20978,26.84339],[90.22012,26.8535],[90.23149,26.85804],[90.24961,26.85773],[90.2582,26.85681],[90.26759,26.85517],[90.28256,26.85191],[90.29563,26.84827],[90.30672,26.84801],[90.31692,26.85063],[90.34615,26.87189],[90.351,26.87621],[90.35462,26.88746],[90.35793,26.89257],[90.36028,26.89587],[90.36927,26.89782],[90.38535,26.899],[90.3962,26.90008],[90.40494,26.90077],[90.4149,26.90167],[90.42509,26.89857]]]}}]}