{"type":"FeatureCollection","features":[{"type":"Feature","properties":{"id":"lakhimpur","name":"Lakhimpur","stateId":"assam","stateName":"Assam","censuscode":307,"type":"district"},"geometry":{"type":"Polygon","coordinates":[[[94.32689,27.33565],[94.33704,27.32766],[94.34268,27.32856],[94.35215,27.3284],[94.35599,27.32735],[94.36201,27.32468],[94.36999,27.32536],[94.37282,27.32934],[94.37838,27.32954],[94.38769,27.32798],[94.39528,27.32517],[94.39995,27.31768],[94.41793,27.30897],[94.42262,27.30853],[94.43241,27.31117],[94.44423,27.31079],[94.45314,27.30573],[94.46252,27.30487],[94.46951,27.31058],[94.47603,27.31916],[94.4845,27.32403],[94.49101,27.32555],[94.49727,27.32498],[94.50299,27.32657],[94.50946,27.32103],[94.51397,27.31213],[94.5174,27.30758],[94.52285,27.30001],[94.52525,27.29343],[94.52468,27.28854],[94.52355,27.27876],[94.52196,27.27184],[94.5209,27.26275],[94.52751,27.25155],[94.53749,27.24215],[94.54639,27.23708],[94.55051,27.23176],[94.55571,27.22209],[94.56399,27.2185],[94.5714,27.21428],[94.57922,27.21355],[94.58063,27.21371],[94.58243,27.20977],[94.58282,27.20185],[94.58068,27.19226],[94.57612,27.18693],[94.57061,27.17847],[94.56334,27.18136],[94.56333,27.17348],[94.54793,27.17091],[94.52586,27.15854],[94.53177,27.15337],[94.53425,27.14635],[94.52972,27.14143],[94.51509,27.14163],[94.51332,27.13992],[94.50983,27.12029],[94.50477,27.11995],[94.49454,27.12244],[94.49186,27.12709],[94.4916,27.13312],[94.49081,27.13364],[94.48488,27.13752],[94.47914,27.1352],[94.47537,27.13121],[94.47539,27.1219],[94.47133,27.11416],[94.46304,27.11133],[94.45859,27.11474],[94.44737,27.11645],[94.43959,27.11914],[94.43323,27.11671],[94.42865,27.11212],[94.4291,27.09982],[94.42562,27.09515],[94.41906,27.09074],[94.41086,27.09234],[94.39359,27.09747],[94.38467,27.0952],[94.36861,27.09754],[94.35965,27.0925],[94.35322,27.08557],[94.34683,27.08255],[94.33849,27.08103],[94.3252,27.08734],[94.31758,27.07266],[94.3142,27.06989],[94.30892,27.07224],[94.30394,27.08],[94.29798,27.08562],[94.28744,27.09095],[94.28261,27.0951],[94.26756,27.0921],[94.2605,27.08728],[94.2548,27.08485],[94.23953,27.07316],[94.23173,27.05911],[94.2272,27.04554],[94.22465,27.03796],[94.2272,27.03549],[94.22585,27.03178],[94.2202,27.02998],[94.20386,27.02891],[94.19927,27.03495],[94.19589,27.03705],[94.19125,27.03562],[94.18821,27.02802],[94.19016,27.02157],[94.19299,27.0159],[94.19331,27.01073],[94.19223,27.00802],[94.18709,27.00041],[94.18232,26.99706],[94.17951,26.9992],[94.17589,26.9993],[94.17126,26.99718],[94.16484,26.99915],[94.16003,26.99888],[94.15568,26.99369],[94.13868,26.98938],[94.14157,26.97615],[94.14004,26.97214],[94.13535,26.96917],[94.12037,26.97054],[94.11252,26.97004],[94.10158,26.96667],[94.08754,26.96057],[94.07911,26.96023],[94.06892,26.97773],[94.06128,26.98023],[94.0542,26.97915],[94.04495,26.97374],[94.04217,26.96754],[94.02899,26.95618],[94.02799,26.9472],[94.03056,26.93457],[94.02699,26.92991],[94.01394,26.92748],[94.00846,26.93452],[93.99994,26.93985],[93.99669,26.93645],[93.98808,26.92748],[93.97661,26.92342],[93.96399,26.92597],[93.94823,26.9286],[93.93659,26.92936],[93.92426,26.92654],[93.91937,26.92185],[93.92021,26.91451],[93.91995,26.90825],[93.89401,26.89053],[93.8945,26.88628],[93.89798,26.87885],[93.8987,26.87174],[93.89416,26.86467],[93.88076,26.85533],[93.86621,26.85774],[93.85821,26.85759],[93.85016,26.85216],[93.84344,26.85207],[93.84087,26.84842],[93.8384,26.8404],[93.82662,26.8252],[93.82166,26.82319],[93.80837,26.82285],[93.80221,26.82468],[93.79083,26.83017],[93.77371,26.84369],[93.77454,26.84928],[93.78142,26.85126],[93.79041,26.85745],[93.78343,26.87289],[93.78337,26.87783],[93.78098,26.88447],[93.77613,26.88821],[93.77339,26.88891],[93.76612,26.89079],[93.7578,26.8915],[93.75049,26.89416],[93.74645,26.90044],[93.74509,26.90777],[93.74977,26.9122],[93.75253,26.9189],[93.75011,26.92496],[93.74991,26.93065],[93.7469,26.93705],[93.74797,26.9478],[93.74489,26.95828],[93.73895,26.9643],[93.72941,26.9694],[93.72737,26.97467],[93.711,26.98331],[93.70508,26.98508],[93.7035,26.9895],[93.70015,26.99173],[93.70756,27.0006],[93.70746,27.00526],[93.72082,27.01615],[93.73578,27.02413],[93.74831,27.0293],[93.77036,27.04017],[93.77368,27.0524],[93.77558,27.05924],[93.78103,27.05022],[93.78307,27.05769],[93.7893,27.05108],[93.79588,27.05458],[93.79953,27.06073],[93.8104,27.0594],[93.81475,27.06751],[93.82065,27.06176],[93.82474,27.06514],[93.83011,27.06577],[93.83395,27.06968],[93.83862,27.07501],[93.83624,27.07967],[93.8349,27.08443],[93.83323,27.08926],[93.82855,27.09622],[93.82917,27.10881],[93.82391,27.11891],[93.81692,27.11949],[93.81333,27.12317],[93.8155,27.12891],[93.80761,27.13472],[93.80883,27.14414],[93.81061,27.14868],[93.81906,27.15517],[93.83102,27.16756],[93.84192,27.17037],[93.8492,27.17668],[93.85951,27.188],[93.86951,27.19574],[93.88769,27.22127],[93.89505,27.22787],[93.90313,27.23843],[93.92101,27.25403],[93.93601,27.26521],[93.94102,27.27016],[93.95865,27.29165],[93.97482,27.30521],[93.98309,27.31064],[93.98784,27.31744],[93.99234,27.32152],[93.99818,27.32474],[94.00283,27.32699],[94.00217,27.33157],[94.01196,27.33573],[94.03224,27.34482],[94.0438,27.35011],[94.05047,27.35557],[94.05698,27.35964],[94.06308,27.36036],[94.0653,27.36572],[94.07081,27.3712],[94.07462,27.37981],[94.08855,27.40137],[94.09551,27.40775],[94.10213,27.41073],[94.10872,27.41486],[94.1193,27.42777],[94.12557,27.43178],[94.13809,27.44266],[94.14304,27.44525],[94.15669,27.45726],[94.16245,27.46326],[94.161,27.46679],[94.15947,27.47486],[94.16649,27.47779],[94.1702,27.48098],[94.17697,27.48086],[94.18918,27.48759],[94.19353,27.4931],[94.1975,27.49423],[94.21459,27.4947],[94.21767,27.49989],[94.22394,27.50377],[94.26198,27.5202],[94.27058,27.51569],[94.27644,27.51037],[94.2822,27.50092],[94.28135,27.47737],[94.27992,27.46802],[94.28449,27.45781],[94.29197,27.44853],[94.29754,27.44487],[94.307,27.43693],[94.30726,27.43625],[94.30901,27.43544],[94.32184,27.42297],[94.32369,27.41151],[94.32577,27.39508],[94.32575,27.38801],[94.32511,27.38242],[94.32439,27.37613],[94.32344,27.36775],[94.32318,27.35859],[94.32293,27.34943],[94.32463,27.34363],[94.32689,27.33565]]]}}]}