{"type":"FeatureCollection","features":[{"type":"Feature","properties":{"id":"marigaon","name":"Marigaon","stateId":"assam","stateName":"Assam","censuscode":304,"type":"district"},"geometry":{"type":"Polygon","coordinates":[[[92.40234,26.13816],[92.39172,26.14067],[92.38815,26.13966],[92.38483,26.13572],[92.37937,26.13168],[92.37369,26.13069],[92.37055,26.12047],[92.35766,26.11021],[92.35271,26.10801],[92.34834,26.10785],[92.34571,26.10682],[92.34709,26.10287],[92.33307,26.09696],[92.32801,26.09632],[92.32017,26.09136],[92.31618,26.08682],[92.31424,26.08159],[92.31492,26.07539],[92.31419,26.07427],[92.31247,26.07469],[92.31131,26.07743],[92.30927,26.07795],[92.30402,26.07498],[92.30353,26.07472],[92.30163,26.07497],[92.29928,26.07739],[92.29795,26.07713],[92.29589,26.07603],[92.29202,26.07203],[92.2921,26.07105],[92.29003,26.06824],[92.28271,26.06743],[92.27567,26.06328],[92.2757,26.06415],[92.2743,26.06487],[92.27064,26.06622],[92.26768,26.06367],[92.25346,26.06265],[92.24318,26.06084],[92.23036,26.06596],[92.22041,26.06848],[92.21815,26.06763],[92.21561,26.06802],[92.21405,26.06931],[92.21247,26.06944],[92.21093,26.06902],[92.21138,26.06752],[92.21032,26.06691],[92.20388,26.06838],[92.19142,26.06524],[92.19042,26.06724],[92.18668,26.06755],[92.18442,26.06871],[92.18252,26.06688],[92.18097,26.06759],[92.18305,26.07455],[92.18042,26.07789],[92.1759,26.0817],[92.17029,26.09166],[92.17042,26.09345],[92.17425,26.10104],[92.17211,26.11541],[92.17084,26.1178],[92.16682,26.13357],[92.16506,26.14818],[92.16942,26.15705],[92.17038,26.16336],[92.16512,26.16341],[92.16109,26.16626],[92.1586,26.16712],[92.15679,26.16627],[92.15619,26.16285],[92.15408,26.16119],[92.14948,26.16253],[92.13457,26.17348],[92.13357,26.17743],[92.13195,26.17843],[92.12498,26.17832],[92.11726,26.17595],[92.11087,26.17106],[92.09589,26.17588],[92.08392,26.17757],[92.08624,26.17821],[92.0941,26.18269],[92.09575,26.18475],[92.09446,26.18777],[92.0924,26.18847],[92.08635,26.1849],[92.08386,26.18564],[92.07971,26.19508],[92.07409,26.19634],[92.06566,26.19628],[92.0634,26.19717],[92.04851,26.21336],[92.0483,26.20417],[92.04603,26.19933],[92.04292,26.19938],[92.04077,26.20132],[92.03896,26.20477],[92.03448,26.20769],[92.03284,26.20782],[92.03071,26.20668],[92.0264,26.20051],[92.02245,26.20144],[92.017,26.20523],[92.01056,26.20442],[92.00824,26.20362],[92.00669,26.20218],[92.00533,26.20323],[91.99991,26.20444],[91.97877,26.21758],[91.96947,26.22462],[91.96195,26.22771],[91.95915,26.23145],[91.95826,26.23524],[91.95851,26.23875],[91.96025,26.24368],[91.96001,26.24782],[91.95598,26.25371],[91.98436,26.27484],[91.99203,26.26892],[91.99991,26.2716],[92.00492,26.27362],[92.01327,26.2788],[92.01737,26.2799],[92.0204,26.27609],[92.02457,26.27281],[92.02876,26.27049],[92.03286,26.26982],[92.04557,26.27544],[92.05081,26.28081],[92.05863,26.29277],[92.06428,26.30322],[92.06534,26.30805],[92.06886,26.31091],[92.07278,26.31166],[92.07601,26.31428],[92.08617,26.33695],[92.09794,26.34033],[92.10383,26.34313],[92.10644,26.35304],[92.10876,26.35654],[92.11256,26.35888],[92.12712,26.37085],[92.13104,26.37999],[92.13607,26.38586],[92.14407,26.39855],[92.15642,26.41059],[92.16513,26.4169],[92.18147,26.42299],[92.18952,26.42352],[92.2044,26.42088],[92.20711,26.41934],[92.20896,26.41713],[92.2136,26.41489],[92.21748,26.41475],[92.2225,26.41682],[92.2296,26.42165],[92.23938,26.43064],[92.24357,26.44157],[92.24981,26.44764],[92.25734,26.45128],[92.26234,26.4518],[92.27398,26.45144],[92.28218,26.45388],[92.29129,26.4595],[92.29457,26.46257],[92.30081,26.46859],[92.30407,26.47259],[92.30557,26.47591],[92.31392,26.48399],[92.31764,26.48713],[92.32605,26.49107],[92.33035,26.49399],[92.34489,26.5013],[92.34645,26.50214],[92.3478,26.50581],[92.35059,26.50623],[92.36067,26.5049],[92.36562,26.50524],[92.38576,26.51699],[92.38799,26.51687],[92.39156,26.51437],[92.4046,26.51403],[92.41963,26.51563],[92.41978,26.51567],[92.42488,26.51675],[92.42848,26.51118],[92.44013,26.49899],[92.44266,26.48457],[92.44079,26.46783],[92.44008,26.46166],[92.43765,26.44368],[92.43417,26.41828],[92.44206,26.40507],[92.44803,26.40302],[92.45371,26.40094],[92.46344,26.39739],[92.47395,26.39355],[92.47883,26.39182],[92.48443,26.38984],[92.49065,26.38762],[92.49561,26.38595],[92.50685,26.38222],[92.51727,26.37771],[92.53044,26.372],[92.54082,26.36633],[92.54645,26.36318],[92.55145,26.36049],[92.55825,26.35232],[92.55824,26.34748],[92.55498,26.33853],[92.54049,26.32398],[92.53872,26.31522],[92.53735,26.30782],[92.53617,26.30086],[92.52297,26.27704],[92.51255,26.26366],[92.50678,26.25597],[92.49559,26.25126],[92.47101,26.24897],[92.45049,26.24432],[92.43845,26.24296],[92.43262,26.23492],[92.42756,26.21945],[92.41989,26.19259],[92.41705,26.18218],[92.40739,26.15035],[92.40234,26.13816]]]}}]}