{"type":"FeatureCollection","features":[{"type":"Feature","properties":{"id":"nagaon","name":"Nagaon","stateId":"assam","stateName":"Assam","censuscode":305,"type":"district"},"geometry":{"type":"Polygon","coordinates":[[[93.3045,26.57824],[93.29767,26.57819],[93.29169,26.57315],[93.28814,26.57114],[93.27678,26.5725],[93.26468,26.56747],[93.25957,26.56842],[93.25396,26.56809],[93.25199,26.56347],[93.24071,26.55511],[93.23975,26.55164],[93.24111,26.54915],[93.25349,26.55025],[93.26063,26.55049],[93.26218,26.5489],[93.25192,26.54505],[93.25323,26.5426],[93.25678,26.54335],[93.25953,26.54158],[93.26587,26.53748],[93.26715,26.53331],[93.26052,26.53268],[93.26094,26.53044],[93.26891,26.53087],[93.27366,26.54049],[93.27635,26.54341],[93.27913,26.54196],[93.2789,26.53564],[93.27777,26.53096],[93.2724,26.52725],[93.27617,26.52266],[93.28093,26.52011],[93.2857,26.52093],[93.29214,26.52046],[93.29525,26.51736],[93.29764,26.5116],[93.30017,26.50808],[93.29961,26.50364],[93.29517,26.5023],[93.29378,26.50579],[93.29158,26.50834],[93.28824,26.50914],[93.28954,26.51175],[93.28936,26.51554],[93.28724,26.51642],[93.27961,26.51474],[93.27609,26.51215],[93.27776,26.50666],[93.26937,26.50577],[93.26962,26.50956],[93.27448,26.51276],[93.27598,26.51875],[93.2602,26.52118],[93.25179,26.52074],[93.2494,26.52725],[93.24892,26.52763],[93.24777,26.52854],[93.24775,26.53044],[93.23747,26.53519],[93.23367,26.53363],[93.22995,26.53534],[93.22426,26.53662],[93.22197,26.52784],[93.21532,26.52888],[93.21478,26.52663],[93.21828,26.5233],[93.22136,26.52249],[93.22102,26.51968],[93.21615,26.52113],[93.21433,26.51933],[93.21463,26.5186],[93.21938,26.50718],[93.216,26.50705],[93.21143,26.50961],[93.2115,26.51318],[93.21028,26.51787],[93.20696,26.52551],[93.20205,26.53386],[93.19756,26.5355],[93.19208,26.5308],[93.18662,26.5296],[93.16675,26.52165],[93.16396,26.52435],[93.17776,26.53053],[93.18026,26.53323],[93.18413,26.53462],[93.18674,26.53845],[93.19116,26.54066],[93.19542,26.54178],[93.19921,26.54024],[93.20274,26.54278],[93.20698,26.54797],[93.21114,26.55121],[93.21394,26.55603],[93.209,26.56139],[93.20038,26.56572],[93.18926,26.56746],[93.17228,26.55346],[93.15808,26.5475],[93.1541,26.54938],[93.15037,26.5554],[93.14619,26.55371],[93.13985,26.54727],[93.13812,26.54069],[93.13369,26.5387],[93.12497,26.53785],[93.12137,26.53605],[93.12404,26.53232],[93.12104,26.52904],[93.10775,26.53086],[93.10521,26.53391],[93.10674,26.53767],[93.10493,26.53925],[93.09853,26.54022],[93.09344,26.54335],[93.08869,26.54171],[93.0793,26.54288],[93.07314,26.54145],[93.06382,26.54171],[93.04705,26.5354],[93.04816,26.52987],[93.05249,26.52642],[93.04753,26.52582],[93.04226,26.51726],[93.03641,26.51285],[93.01541,26.50409],[93.01445,26.49725],[93.00884,26.49371],[93.01227,26.48721],[93.01249,26.48209],[93.01735,26.47767],[93.02264,26.47747],[93.02541,26.47933],[93.03219,26.48138],[93.04212,26.48564],[93.04747,26.48608],[93.05043,26.48784],[93.06576,26.48931],[93.07207,26.48925],[93.07225,26.49333],[93.06991,26.49621],[93.07036,26.49937],[93.07181,26.50032],[93.07495,26.4963],[93.07575,26.49339],[93.07603,26.49237],[93.0778,26.49343],[93.07918,26.49426],[93.08245,26.49352],[93.09317,26.50003],[93.09577,26.49669],[93.08742,26.49344],[93.08299,26.48768],[93.06899,26.48289],[93.06795,26.47749],[93.07584,26.47751],[93.07918,26.47631],[93.07905,26.47293],[93.08032,26.46951],[93.08315,26.47099],[93.09358,26.46825],[93.09524,26.46484],[93.0926,26.46245],[93.09305,26.45907],[93.09598,26.45907],[93.1021,26.46251],[93.10267,26.46212],[93.1059,26.45988],[93.10682,26.46167],[93.10647,26.46385],[93.10791,26.46559],[93.1105,26.4669],[93.10989,26.46879],[93.10737,26.4708],[93.10245,26.47237],[93.1056,26.47388],[93.1084,26.47421],[93.10868,26.47628],[93.1134,26.47941],[93.11708,26.48396],[93.12033,26.48465],[93.12093,26.48291],[93.122,26.47986],[93.12433,26.48179],[93.12499,26.48405],[93.12299,26.48965],[93.12144,26.49397],[93.12475,26.49545],[93.12853,26.49714],[93.12965,26.49505],[93.12791,26.49362],[93.12644,26.4924],[93.13244,26.48787],[93.13536,26.4893],[93.13091,26.48428],[93.13232,26.48107],[93.13256,26.48052],[93.13488,26.48246],[93.14023,26.48693],[93.14054,26.48395],[93.13504,26.47712],[93.11551,26.47194],[93.11472,26.46956],[93.11901,26.46838],[93.12545,26.46822],[93.13156,26.46438],[93.12923,26.46313],[93.12839,26.46018],[93.12596,26.46099],[93.12384,26.45792],[93.10959,26.44922],[93.11075,26.4472],[93.11103,26.44673],[93.11408,26.44741],[93.11562,26.44618],[93.11382,26.44419],[93.11417,26.44207],[93.11652,26.4424],[93.11891,26.44055],[93.1115,26.43819],[93.1023,26.43223],[93.10161,26.43497],[93.10373,26.43764],[93.10921,26.44101],[93.10944,26.44268],[93.10352,26.44647],[93.09956,26.44354],[93.09085,26.43903],[93.07641,26.43376],[93.07322,26.4309],[93.07509,26.42932],[93.08108,26.42889],[93.08618,26.43109],[93.09334,26.43419],[93.09768,26.4345],[93.09624,26.43269],[93.09066,26.43128],[93.0783,26.42048],[93.07283,26.42011],[93.07284,26.42292],[93.07123,26.42382],[93.06786,26.41655],[93.06213,26.41655],[93.05611,26.41482],[93.05255,26.41458],[93.05155,26.41722],[93.05212,26.42084],[93.05635,26.41937],[93.05746,26.42121],[93.0569,26.42419],[93.05444,26.43391],[93.0494,26.43447],[93.04731,26.43743],[93.03265,26.42405],[93.0248,26.42138],[93.01882,26.42085],[93.00631,26.42571],[92.99994,26.42307],[92.99486,26.42008],[92.98759,26.41828],[92.98314,26.42114],[92.98136,26.42127],[92.97835,26.41955],[92.97387,26.41549],[92.97066,26.41415],[92.96698,26.4142],[92.96559,26.41354],[92.96246,26.40905],[92.95356,26.40358],[92.95332,26.39758],[92.9522,26.3963],[92.94654,26.39981],[92.94459,26.40191],[92.94242,26.40187],[92.92885,26.39803],[92.92258,26.39458],[92.91476,26.3923],[92.91455,26.39586],[92.91328,26.39613],[92.91172,26.39511],[92.90908,26.3934],[92.90881,26.39434],[92.90742,26.39913],[92.90527,26.3992],[92.89955,26.38815],[92.89812,26.38679],[92.89526,26.38956],[92.8935,26.38912],[92.89196,26.38442],[92.88604,26.38177],[92.88535,26.37934],[92.88686,26.37925],[92.89236,26.38074],[92.89593,26.38283],[92.90622,26.38268],[92.90969,26.37837],[92.91963,26.3792],[92.92184,26.37998],[92.92243,26.38089],[92.92325,26.38215],[92.9243,26.38202],[92.92618,26.3818],[92.92895,26.38035],[92.92673,26.37726],[92.92149,26.37335],[92.92042,26.36804],[92.91521,26.36228],[92.91407,26.3595],[92.91412,26.35725],[92.915,26.35531],[92.91635,26.35447],[92.91838,26.35422],[92.92559,26.35546],[92.93178,26.3539],[92.93488,26.35189],[92.9375,26.3513],[92.94003,26.35187],[92.94341,26.35079],[92.9452,26.34212],[92.94763,26.33594],[92.9441,26.32665],[92.94181,26.32436],[92.93728,26.3222],[92.92308,26.31311],[92.92182,26.31326],[92.91973,26.31577],[92.91694,26.31559],[92.91121,26.31329],[92.90188,26.30769],[92.89877,26.30516],[92.896,26.30153],[92.8975,26.29978],[92.89816,26.2961],[92.89581,26.29063],[92.89413,26.28927],[92.88438,26.28552],[92.88146,26.28564],[92.87318,26.28997],[92.86344,26.29387],[92.85867,26.29677],[92.85671,26.2991],[92.85739,26.30002],[92.85788,26.30068],[92.85651,26.30226],[92.85397,26.30227],[92.85025,26.30427],[92.84517,26.29627],[92.84332,26.28558],[92.84142,26.28047],[92.83195,26.27066],[92.82787,26.27133],[92.82478,26.27081],[92.82441,26.26463],[92.82193,26.26517],[92.82135,26.26279],[92.82157,26.25899],[92.81832,26.23835],[92.81925,26.23382],[92.82785,26.2303],[92.82925,26.22705],[92.82909,26.22353],[92.82084,26.21507],[92.81562,26.21629],[92.8122,26.21604],[92.80763,26.21861],[92.79957,26.2215],[92.79735,26.20625],[92.80328,26.2021],[92.80762,26.20357],[92.81747,26.20512],[92.82443,26.20621],[92.82928,26.2047],[92.84391,26.20567],[92.85162,26.20144],[92.86244,26.20229],[92.87247,26.20444],[92.88443,26.20836],[92.88824,26.20774],[92.90148,26.2031],[92.91084,26.20155],[92.92418,26.20331],[92.92906,26.20323],[92.9335,26.20084],[92.94128,26.20139],[92.94434,26.20076],[92.94785,26.1973],[92.94965,26.19319],[92.95536,26.18765],[92.95623,26.18525],[92.95607,26.18156],[92.95829,26.17337],[92.95768,26.16943],[92.95536,26.1657],[92.95068,26.16215],[92.95025,26.15881],[92.94564,26.15526],[92.94388,26.15206],[92.93657,26.15036],[92.93508,26.14889],[92.93514,26.14834],[92.93532,26.14648],[92.93276,26.14498],[92.93425,26.14104],[92.93767,26.13823],[92.94384,26.13731],[92.94603,26.13614],[92.95528,26.13879],[92.96022,26.13877],[92.97035,26.12848],[92.972,26.1281],[92.97438,26.12935],[92.98337,26.12733],[92.99491,26.1221],[92.99994,26.12068],[93.00175,26.11736],[93.00401,26.11523],[93.00744,26.11481],[93.01172,26.11116],[93.01614,26.11179],[93.01644,26.11276],[93.02176,26.11115],[93.02351,26.11169],[93.02414,26.10766],[93.03042,26.10427],[93.03726,26.10692],[93.03891,26.10649],[93.03918,26.10504],[93.03847,26.10419],[93.03725,26.10274],[93.0378,26.10068],[93.04094,26.09641],[93.0398,26.09241],[93.04001,26.08999],[93.04597,26.08593],[93.0507,26.08716],[93.05235,26.08674],[93.05302,26.08511],[93.05478,26.08539],[93.05893,26.08812],[93.05915,26.08596],[93.06379,26.08121],[93.06638,26.08219],[93.0706,26.07986],[93.07094,26.0825],[93.07268,26.08228],[93.07399,26.08211],[93.0744,26.0843],[93.07835,26.08318],[93.08019,26.07938],[93.08402,26.07841],[93.0835,26.07967],[93.08296,26.08098],[93.08603,26.08379],[93.08691,26.08381],[93.0866,26.07995],[93.08868,26.07741],[93.09328,26.0791],[93.09387,26.07802],[93.09163,26.07562],[93.09247,26.07449],[93.0979,26.07682],[93.10076,26.07693],[93.10427,26.07596],[93.1055,26.07449],[93.10829,26.07499],[93.10825,26.0701],[93.09647,26.03197],[93.10996,26.03472],[93.11956,26.03447],[93.12537,26.03135],[93.12903,26.02755],[93.13158,26.02265],[93.14298,26.01731],[93.14561,26.01367],[93.14728,26.00684],[93.15329,26.00042],[93.1548,25.99481],[93.15698,25.99219],[93.16018,25.99044],[93.15846,25.98029],[93.16195,25.97481],[93.1628,25.96739],[93.162,25.96582],[93.16349,25.96215],[93.16725,25.95604],[93.16979,25.95423],[93.17335,25.9538],[93.17517,25.94991],[93.17478,25.94501],[93.17838,25.94033],[93.18795,25.90226],[93.19181,25.8969],[93.2003,25.89077],[93.20773,25.8832],[93.21555,25.87441],[93.21814,25.86943],[93.22352,25.8631],[93.23679,25.85306],[93.2387,25.84634],[93.24527,25.83673],[93.24704,25.83083],[93.24633,25.8261],[93.24786,25.81898],[93.24615,25.81452],[93.24842,25.80943],[93.25135,25.80761],[93.25085,25.80214],[93.25166,25.79674],[93.24954,25.7894],[93.2521,25.78667],[93.25059,25.7813],[93.24878,25.7784],[93.24167,25.76998],[93.24134,25.76606],[93.23517,25.76392],[93.23385,25.75849],[93.23505,25.75281],[93.23467,25.74739],[93.22816,25.73132],[93.22299,25.72521],[93.20989,25.72813],[93.18505,25.72947],[93.17764,25.7249],[93.16998,25.71687],[93.14514,25.7129],[93.14627,25.71895],[93.14887,25.72284],[93.1505,25.72953],[93.1511,25.73752],[93.14793,25.73737],[93.13329,25.74709],[93.13034,25.75009],[93.13235,25.75597],[93.13159,25.76119],[93.12899,25.76257],[93.125,25.76245],[93.11049,25.77083],[93.10899,25.77419],[93.10301,25.77286],[93.10008,25.77412],[93.08811,25.77159],[93.08152,25.76316],[93.0756,25.7667],[93.07117,25.76687],[93.06992,25.77042],[93.07165,25.77377],[93.07261,25.77457],[93.07483,25.77641],[93.07819,25.77673],[93.078,25.78169],[93.0635,25.78372],[93.05761,25.78872],[93.04902,25.7946],[93.03482,25.80838],[93.0281,25.81616],[93.02312,25.8247],[93.0167,25.83191],[93.01294,25.8391],[93.01197,25.84594],[92.99996,25.85403],[92.99891,25.85589],[92.99674,25.86047],[92.98717,25.87513],[92.98319,25.87441],[92.96602,25.8745],[92.93145,25.86887],[92.9113,25.86726],[92.90465,25.86588],[92.89509,25.86545],[92.89063,25.86703],[92.8891,25.8695],[92.87687,25.8668],[92.87547,25.86703],[92.87484,25.86713],[92.87206,25.86641],[92.8719,25.86935],[92.86961,25.87302],[92.86747,25.87893],[92.86197,25.88344],[92.85769,25.88886],[92.8526,25.89982],[92.84952,25.90469],[92.85922,25.92182],[92.8551,25.92323],[92.8516,25.92297],[92.84568,25.91784],[92.83771,25.91328],[92.83032,25.91759],[92.82399,25.92243],[92.82063,25.92315],[92.81379,25.92131],[92.81039,25.91805],[92.80518,25.91863],[92.80301,25.92132],[92.80023,25.92884],[92.79431,25.93638],[92.79468,25.93887],[92.79803,25.94166],[92.79847,25.95411],[92.80207,25.95523],[92.80945,25.95397],[92.80996,25.95427],[92.80939,25.9572],[92.80648,25.96028],[92.80013,25.96304],[92.79225,25.95888],[92.78566,25.9522],[92.78268,25.95044],[92.78015,25.94962],[92.77642,25.94993],[92.77106,25.95276],[92.7657,25.96181],[92.76523,25.96404],[92.7701,25.97641],[92.76855,25.98175],[92.7689,25.9844],[92.77252,25.98818],[92.77233,25.98921],[92.76843,25.9894],[92.76782,25.98916],[92.76477,25.98798],[92.76395,25.99005],[92.76813,25.99314],[92.77045,25.9933],[92.7771,25.99375],[92.78071,25.99666],[92.77977,25.99866],[92.77789,25.99946],[92.77532,25.99972],[92.7656,25.9979],[92.76319,25.99885],[92.76222,26.00059],[92.76311,26.00411],[92.76512,26.00559],[92.7675,26.00649],[92.7835,26.00808],[92.78479,26.00943],[92.78398,26.01172],[92.78011,26.01452],[92.77356,26.01571],[92.76181,26.01467],[92.76031,26.01643],[92.76103,26.02053],[92.76471,26.02539],[92.76554,26.03013],[92.76116,26.03338],[92.7602,26.03659],[92.75204,26.03832],[92.74946,26.04029],[92.75072,26.04331],[92.75412,26.04655],[92.7567,26.05248],[92.75407,26.05652],[92.75269,26.06104],[92.72054,26.05745],[92.71942,26.05662],[92.71448,26.04902],[92.71292,26.04306],[92.71405,26.03807],[92.71797,26.03555],[92.71904,26.03102],[92.71597,26.02739],[92.71739,26.02362],[92.71732,26.02137],[92.71399,26.01807],[92.71208,26.01905],[92.71142,26.01939],[92.71006,26.01816],[92.70798,26.02042],[92.70398,26.01832],[92.70001,26.02014],[92.6988,26.02023],[92.69649,26.01892],[92.69366,26.02087],[92.69253,26.02258],[92.68853,26.02319],[92.6872,26.02552],[92.68452,26.02673],[92.68377,26.02603],[92.68413,26.02454],[92.6808,26.02568],[92.67974,26.02536],[92.67709,26.02456],[92.67637,26.02599],[92.67087,26.02801],[92.66555,26.02328],[92.65918,26.01986],[92.65862,26.01921],[92.66037,26.01522],[92.65965,26.01094],[92.66166,26.00615],[92.66008,26.00313],[92.65999,26.00073],[92.65844,25.99861],[92.6476,25.99786],[92.64203,25.99666],[92.63772,25.99189],[92.63718,25.989],[92.63251,25.98804],[92.62883,25.98511],[92.62408,25.98437],[92.61545,25.97743],[92.60829,25.97482],[92.6067,25.9756],[92.60087,25.97554],[92.59374,25.96447],[92.58973,25.96408],[92.58146,25.96475],[92.57854,25.96367],[92.57646,25.96118],[92.57329,25.96068],[92.56032,25.964],[92.55223,25.97013],[92.55734,25.97646],[92.565,25.98932],[92.57293,26.0008],[92.57296,26.00351],[92.57124,26.0044],[92.56968,26.0065],[92.57283,26.01174],[92.57999,26.01645],[92.58546,26.01795],[92.59479,26.02184],[92.59565,26.02572],[92.59162,26.02736],[92.58819,26.02752],[92.58458,26.03004],[92.58325,26.03473],[92.58628,26.04229],[92.5875,26.05399],[92.58936,26.05791],[92.59801,26.06842],[92.59928,26.07611],[92.59331,26.08376],[92.59127,26.08406],[92.5836,26.08943],[92.57897,26.09417],[92.57823,26.09565],[92.579,26.09786],[92.57919,26.10996],[92.57586,26.11375],[92.5752,26.11387],[92.56835,26.11508],[92.56042,26.11325],[92.55654,26.11328],[92.54763,26.10761],[92.54726,26.10477],[92.54366,26.10216],[92.54036,26.09759],[92.5361,26.0956],[92.53388,26.10051],[92.52672,26.1007],[92.5234,26.10166],[92.52212,26.10445],[92.52232,26.11368],[92.52455,26.12036],[92.52381,26.12437],[92.52439,26.12612],[92.52557,26.12734],[92.52614,26.13221],[92.52999,26.13996],[92.53061,26.14285],[92.52805,26.14804],[92.52293,26.15011],[92.51705,26.14491],[92.51138,26.1411],[92.50925,26.14261],[92.5068,26.1463],[92.50257,26.14851],[92.50002,26.14886],[92.49368,26.14901],[92.48752,26.14668],[92.47841,26.14164],[92.47751,26.14185],[92.47666,26.14558],[92.47498,26.14652],[92.47118,26.14626],[92.46837,26.1428],[92.46148,26.13728],[92.46022,26.13449],[92.45729,26.13494],[92.45428,26.13407],[92.44784,26.12592],[92.44423,26.12359],[92.44403,26.12185],[92.43668,26.12145],[92.43496,26.11986],[92.43476,26.11524],[92.43186,26.11028],[92.42187,26.11847],[92.41895,26.11833],[92.40605,26.11771],[92.40595,26.11909],[92.4082,26.12237],[92.40757,26.12506],[92.41277,26.1291],[92.41501,26.1333],[92.41354,26.13551],[92.40234,26.13816],[92.40739,26.15035],[92.41705,26.18218],[92.41989,26.19259],[92.42756,26.21945],[92.43262,26.23492],[92.43845,26.24296],[92.45049,26.24432],[92.47101,26.24897],[92.49559,26.25126],[92.50678,26.25597],[92.51255,26.26366],[92.52297,26.27704],[92.53617,26.30086],[92.53735,26.30782],[92.53872,26.31522],[92.54049,26.32398],[92.55498,26.33853],[92.55824,26.34748],[92.55825,26.35232],[92.55145,26.36049],[92.54645,26.36318],[92.54082,26.36633],[92.53044,26.372],[92.51727,26.37771],[92.50685,26.38222],[92.49561,26.38595],[92.49065,26.38762],[92.48443,26.38984],[92.47883,26.39182],[92.47395,26.39355],[92.46344,26.39739],[92.45371,26.40094],[92.44803,26.40302],[92.44206,26.40507],[92.43417,26.41828],[92.43765,26.44368],[92.44008,26.46166],[92.44079,26.46783],[92.44266,26.48457],[92.44013,26.49899],[92.42848,26.51118],[92.42488,26.51675],[92.43821,26.51957],[92.44442,26.52017],[92.44819,26.51996],[92.45351,26.51847],[92.45525,26.51499],[92.45629,26.50735],[92.45998,26.50254],[92.46337,26.4995],[92.46711,26.49751],[92.47537,26.4954],[92.48207,26.49658],[92.4889,26.50036],[92.49489,26.50256],[92.51231,26.50687],[92.52897,26.50919],[92.53673,26.50889],[92.54723,26.50602],[92.55871,26.50494],[92.56691,26.50281],[92.5693,26.50124],[92.58097,26.5],[92.60623,26.50849],[92.62035,26.51139],[92.63574,26.51614],[92.64181,26.51731],[92.65687,26.51786],[92.66615,26.52018],[92.6705,26.51907],[92.67482,26.51673],[92.68423,26.50921],[92.68774,26.50859],[92.69164,26.51063],[92.70544,26.52566],[92.71224,26.53059],[92.7172,26.53328],[92.72701,26.53515],[92.72816,26.53454],[92.72894,26.53202],[92.72917,26.52252],[92.7301,26.52075],[92.73611,26.51708],[92.74227,26.51462],[92.74945,26.5124],[92.75563,26.51171],[92.75801,26.51337],[92.75971,26.51912],[92.75963,26.52493],[92.762,26.52901],[92.76524,26.53184],[92.76743,26.53875],[92.76881,26.54724],[92.77367,26.55621],[92.79451,26.55714],[92.79978,26.5576],[92.80211,26.55851],[92.82588,26.57494],[92.83574,26.58037],[92.84261,26.58316],[92.85216,26.58519],[92.85911,26.58469],[92.86424,26.58306],[92.87119,26.58222],[92.87423,26.58314],[92.88011,26.58747],[92.89097,26.59327],[92.89665,26.59545],[92.91132,26.59384],[92.91941,26.59589],[92.92433,26.59811],[92.93648,26.61206],[92.94072,26.61548],[92.94431,26.6171],[92.95364,26.61843],[92.96572,26.61831],[92.98413,26.61502],[92.99073,26.61319],[92.99401,26.60905],[92.99994,26.60321],[93.00906,26.59823],[93.02101,26.59645],[93.04163,26.59409],[93.05722,26.59481],[93.06801,26.59396],[93.07437,26.59454],[93.08561,26.58915],[93.09586,26.58208],[93.10738,26.57571],[93.11548,26.57447],[93.12443,26.57738],[93.13541,26.58425],[93.16209,26.59877],[93.17371,26.60967],[93.17999,26.61203],[93.19569,26.61529],[93.21817,26.62547],[93.22511,26.63439],[93.23121,26.64456],[93.2351,26.66561],[93.2395,26.67437],[93.24689,26.68369],[93.25318,26.68535],[93.26651,26.68166],[93.27581,26.68257],[93.29042,26.68711],[93.29222,26.69508],[93.29849,26.69835],[93.30417,26.69729],[93.30925,26.69811],[93.31089,26.69146],[93.31888,26.68538],[93.319,26.6809],[93.32171,26.67881],[93.31941,26.67532],[93.31165,26.66877],[93.31301,26.66316],[93.32241,26.65698],[93.3215,26.64909],[93.31659,26.6401],[93.31135,26.63658],[93.29266,26.63698],[93.28842,26.6349],[93.29608,26.61668],[93.30237,26.60483],[93.2981,26.59206],[93.29597,26.58841],[93.29646,26.58606],[93.30642,26.58057],[93.3045,26.57824]]]}}]}