{"type":"FeatureCollection","features":[{"type":"Feature","properties":{"id":"sonitpur","name":"Sonitpur","stateId":"assam","stateName":"Assam","censuscode":306,"type":"district"},"geometry":{"type":"Polygon","coordinates":[[[92.3635,26.58561],[92.36885,26.59729],[92.37371,26.60374],[92.37918,26.60787],[92.3852,26.60891],[92.38678,26.61638],[92.38708,26.6194],[92.3908,26.6229],[92.39758,26.62312],[92.40207,26.62581],[92.40328,26.62951],[92.40723,26.63527],[92.40829,26.63747],[92.40874,26.64199],[92.40758,26.6474],[92.40054,26.65328],[92.39344,26.6584],[92.39038,26.66168],[92.3909,26.66695],[92.39043,26.67079],[92.38668,26.67564],[92.38665,26.684],[92.38692,26.69538],[92.37835,26.70289],[92.36767,26.70601],[92.36527,26.71608],[92.35919,26.73175],[92.35756,26.74099],[92.35822,26.74778],[92.35516,26.75106],[92.35093,26.75975],[92.34518,26.77008],[92.34349,26.77059],[92.34335,26.77197],[92.33936,26.77781],[92.33826,26.78256],[92.34101,26.78505],[92.34081,26.78729],[92.33629,26.79167],[92.33779,26.79482],[92.33327,26.80158],[92.33271,26.80554],[92.33772,26.81107],[92.33638,26.813],[92.33386,26.81461],[92.33489,26.81856],[92.33456,26.82143],[92.33522,26.82254],[92.33739,26.82264],[92.34103,26.82434],[92.33473,26.83065],[92.33549,26.83315],[92.33505,26.83532],[92.33771,26.84028],[92.3394,26.84597],[92.34309,26.84864],[92.34293,26.85198],[92.3463,26.85477],[92.34631,26.85644],[92.34785,26.85826],[92.34866,26.86145],[92.34641,26.86428],[92.34654,26.86848],[92.34788,26.87312],[92.34566,26.87941],[92.3448,26.8852],[92.35014,26.89017],[92.3527,26.90567],[92.35607,26.91076],[92.35644,26.91319],[92.35865,26.9163],[92.36225,26.92462],[92.36761,26.93125],[92.37046,26.93009],[92.40289,26.92478],[92.41503,26.94269],[92.42891,26.94196],[92.44531,26.9535],[92.4493,26.95912],[92.4627,26.96178],[92.46941,26.96153],[92.48685,26.96318],[92.49374,26.96317],[92.50811,26.9652],[92.51852,26.96283],[92.53482,26.9617],[92.55664,26.95745],[92.58822,26.96019],[92.64844,26.98574],[92.64831,26.9939],[92.64718,27.00081],[92.64764,27.00835],[92.64213,27.01686],[92.65352,27.02309],[92.66006,27.0359],[92.66197,27.03683],[92.68539,27.03002],[92.70529,27.02584],[92.71664,27.02434],[92.73046,27.02664],[92.77201,27.03122],[92.78818,27.02885],[92.82726,27.01659],[92.83942,27.01165],[92.87521,27.00575],[92.88611,27.00038],[92.89302,26.99784],[92.90249,26.99428],[92.91936,26.98263],[92.9176,26.96773],[92.92042,26.96219],[92.92905,26.95861],[92.93539,26.95487],[92.95395,26.94682],[92.96417,26.94378],[92.97551,26.9387],[92.98322,26.93348],[92.98526,26.9338],[92.98921,26.93168],[92.99627,26.92964],[92.99691,26.92917],[92.99993,26.92818],[93.02183,26.91463],[93.04063,26.91566],[93.065,26.91976],[93.07127,26.92196],[93.07876,26.91767],[93.09426,26.91324],[93.11135,26.92497],[93.1866,26.93635],[93.2247,26.9467],[93.26912,26.95351],[93.35011,26.96065],[93.37638,26.95776],[93.39287,26.95737],[93.43875,26.95337],[93.44993,26.9514],[93.46586,26.94076],[93.47013,26.93612],[93.4823,26.93738],[93.48883,26.94029],[93.49138,26.93572],[93.52782,26.94576],[93.54746,26.94886],[93.57273,26.9512],[93.58613,26.94971],[93.59772,26.95222],[93.6264,26.96122],[93.64205,26.96177],[93.65698,26.96345],[93.67763,26.96801],[93.70015,26.99173],[93.7035,26.9895],[93.70508,26.98508],[93.711,26.98331],[93.72737,26.97467],[93.72941,26.9694],[93.73895,26.9643],[93.74489,26.95828],[93.74797,26.9478],[93.7469,26.93705],[93.74991,26.93065],[93.75011,26.92496],[93.75253,26.9189],[93.74977,26.9122],[93.74509,26.90777],[93.74645,26.90044],[93.75049,26.89416],[93.7578,26.8915],[93.76612,26.89079],[93.77339,26.88891],[93.77613,26.88821],[93.78098,26.88447],[93.78337,26.87783],[93.78343,26.87289],[93.79041,26.85745],[93.78142,26.85126],[93.77454,26.84928],[93.77371,26.84369],[93.7672,26.83688],[93.76185,26.82246],[93.75965,26.81364],[93.75507,26.80519],[93.74677,26.80066],[93.73895,26.80844],[93.72847,26.81475],[93.71836,26.81716],[93.71273,26.81748],[93.69736,26.7977],[93.69075,26.79532],[93.67237,26.8002],[93.65791,26.79162],[93.65155,26.78906],[93.64962,26.78398],[93.65079,26.77756],[93.6566,26.76073],[93.66281,26.73685],[93.66983,26.72516],[93.67361,26.71267],[93.66702,26.71397],[93.65149,26.70491],[93.63922,26.70632],[93.62026,26.71239],[93.60262,26.71572],[93.56748,26.72381],[93.56182,26.72782],[93.5642,26.73613],[93.55544,26.7374],[93.54703,26.74194],[93.54185,26.74819],[93.53584,26.75374],[93.52395,26.75524],[93.51111,26.76035],[93.49431,26.75696],[93.47289,26.75896],[93.46258,26.75692],[93.45098,26.75123],[93.44523,26.74598],[93.43357,26.74449],[93.41719,26.74748],[93.40966,26.75179],[93.40518,26.75293],[93.38231,26.74438],[93.37398,26.74259],[93.35937,26.73748],[93.3493,26.73154],[93.34399,26.72312],[93.34207,26.71527],[93.33771,26.70745],[93.33159,26.70626],[93.32502,26.7061],[93.32088,26.70242],[93.30925,26.69811],[93.30417,26.69729],[93.29849,26.69835],[93.29222,26.69508],[93.29042,26.68711],[93.27581,26.68257],[93.26651,26.68166],[93.25318,26.68535],[93.24689,26.68369],[93.2395,26.67437],[93.2351,26.66561],[93.23121,26.64456],[93.22511,26.63439],[93.21817,26.62547],[93.19569,26.61529],[93.17999,26.61203],[93.17371,26.60967],[93.16209,26.59877],[93.13541,26.58425],[93.12443,26.57738],[93.11548,26.57447],[93.10738,26.57571],[93.09586,26.58208],[93.08561,26.58915],[93.07437,26.59454],[93.06801,26.59396],[93.05722,26.59481],[93.04163,26.59409],[93.02101,26.59645],[93.00906,26.59823],[92.99994,26.60321],[92.99401,26.60905],[92.99073,26.61319],[92.98413,26.61502],[92.96572,26.61831],[92.95364,26.61843],[92.94431,26.6171],[92.94072,26.61548],[92.93648,26.61206],[92.92433,26.59811],[92.91941,26.59589],[92.91132,26.59384],[92.89665,26.59545],[92.89097,26.59327],[92.88011,26.58747],[92.87423,26.58314],[92.87119,26.58222],[92.86424,26.58306],[92.85911,26.58469],[92.85216,26.58519],[92.84261,26.58316],[92.83574,26.58037],[92.82588,26.57494],[92.80211,26.55851],[92.79978,26.5576],[92.79451,26.55714],[92.77367,26.55621],[92.76881,26.54724],[92.76743,26.53875],[92.76524,26.53184],[92.762,26.52901],[92.75963,26.52493],[92.75971,26.51912],[92.75801,26.51337],[92.75563,26.51171],[92.74945,26.5124],[92.74227,26.51462],[92.73611,26.51708],[92.7301,26.52075],[92.72917,26.52252],[92.72894,26.53202],[92.72816,26.53454],[92.72701,26.53515],[92.7172,26.53328],[92.71224,26.53059],[92.70544,26.52566],[92.69164,26.51063],[92.68774,26.50859],[92.68423,26.50921],[92.67482,26.51673],[92.6705,26.51907],[92.66615,26.52018],[92.65687,26.51786],[92.64181,26.51731],[92.63574,26.51614],[92.62035,26.51139],[92.60623,26.50849],[92.58097,26.5],[92.5693,26.50124],[92.56691,26.50281],[92.55871,26.50494],[92.54723,26.50602],[92.53673,26.50889],[92.52897,26.50919],[92.51231,26.50687],[92.49489,26.50256],[92.4889,26.50036],[92.48207,26.49658],[92.47537,26.4954],[92.46711,26.49751],[92.46337,26.4995],[92.45998,26.50254],[92.45629,26.50735],[92.45525,26.51499],[92.45351,26.51847],[92.44819,26.51996],[92.44442,26.52017],[92.43821,26.51957],[92.42488,26.51675],[92.41978,26.51567],[92.41963,26.51563],[92.4046,26.51403],[92.39156,26.51437],[92.38799,26.51687],[92.38576,26.51699],[92.36562,26.50524],[92.36067,26.5049],[92.35059,26.50623],[92.3478,26.50581],[92.34645,26.50214],[92.34456,26.50815],[92.33528,26.51013],[92.32813,26.50927],[92.32858,26.51106],[92.33281,26.51456],[92.34946,26.52434],[92.35301,26.52886],[92.35583,26.53014],[92.36828,26.53077],[92.37403,26.52998],[92.38208,26.5308],[92.38385,26.53112],[92.38585,26.53451],[92.38028,26.54049],[92.37249,26.55333],[92.36892,26.55775],[92.368,26.56136],[92.36972,26.56346],[92.36977,26.5663],[92.36832,26.5681],[92.36296,26.56879],[92.35986,26.57004],[92.35816,26.57173],[92.35771,26.57438],[92.35898,26.57665],[92.36207,26.57782],[92.36479,26.58069],[92.36695,26.58058],[92.36382,26.58564],[92.3635,26.58561]]]}}]}