{"type":"FeatureCollection","features":[{"type":"Feature","properties":{"id":"tinsukia","name":"Tinsukia","stateId":"assam","stateName":"Assam","censuscode":309,"type":"district"},"geometry":{"type":"Polygon","coordinates":[[[95.88199,27.54684],[95.88207,27.53943],[95.88051,27.52336],[95.88138,27.51605],[95.87904,27.51337],[95.88236,27.50861],[95.88765,27.50478],[95.89017,27.49966],[95.88658,27.49707],[95.88098,27.49459],[95.87958,27.49269],[95.87968,27.48616],[95.88177,27.4809],[95.8789,27.46905],[95.87672,27.46456],[95.86654,27.46249],[95.86165,27.45976],[95.85993,27.45608],[95.86424,27.44546],[95.86,27.4425],[95.85562,27.44081],[95.85336,27.43821],[95.84989,27.42835],[95.84977,27.42374],[95.85616,27.42108],[95.85803,27.41822],[95.85835,27.41408],[95.8677,27.4105],[95.86705,27.41257],[95.8646,27.41469],[95.86364,27.41825],[95.86531,27.4224],[95.87619,27.42874],[95.88301,27.43746],[95.88907,27.43744],[95.89076,27.43302],[95.8898,27.42496],[95.89039,27.41973],[95.89472,27.41158],[95.8946,27.40768],[95.89221,27.40306],[95.89338,27.39932],[95.90042,27.4046],[95.90648,27.41654],[95.90833,27.42594],[95.91155,27.43326],[95.91721,27.43645],[95.93364,27.43996],[95.94336,27.43963],[95.95024,27.43824],[95.95343,27.43666],[95.95385,27.43397],[95.95083,27.43045],[95.95329,27.42646],[95.9576,27.42605],[95.96135,27.42187],[95.9639,27.42865],[95.96734,27.42983],[95.96775,27.42446],[95.96829,27.41725],[95.97207,27.42351],[95.9736,27.4299],[95.97808,27.42864],[95.97811,27.42541],[95.98052,27.42334],[95.9812,27.41922],[95.97834,27.41843],[95.97978,27.41495],[95.98973,27.41479],[95.99148,27.41246],[95.99118,27.40762],[95.99483,27.4054],[96.00124,27.39648],[96.00026,27.39057],[96.00223,27.38648],[96.00853,27.38017],[96.01072,27.37421],[96.0151,27.36838],[96.02104,27.36415],[96.0185,27.36079],[96.01331,27.35693],[96.00327,27.35738],[96.00223,27.35705],[95.99709,27.35641],[95.99499,27.35317],[95.99379,27.34436],[95.97746,27.33525],[95.97431,27.3323],[95.97014,27.32992],[95.97238,27.32757],[95.9843,27.32725],[95.97812,27.3256],[95.96881,27.32477],[95.96912,27.32134],[95.96793,27.3175],[95.96269,27.31726],[95.96565,27.31458],[95.96329,27.30999],[95.94067,27.30255],[95.91883,27.29221],[95.91239,27.28613],[95.90652,27.28489],[95.90248,27.28084],[95.9046,27.27924],[95.90435,27.27285],[95.9012,27.26938],[95.89814,27.25728],[95.89402,27.25599],[95.88771,27.25631],[95.88249,27.25995],[95.87766,27.26045],[95.87245,27.25996],[95.86554,27.26976],[95.86096,27.27289],[95.86076,27.27652],[95.86204,27.28314],[95.86061,27.28733],[95.85038,27.2863],[95.83809,27.28023],[95.81036,27.27414],[95.80867,27.27868],[95.80667,27.28125],[95.80647,27.28499],[95.80094,27.28196],[95.79098,27.27873],[95.78487,27.27242],[95.7572,27.26769],[95.74014,27.26326],[95.7366,27.26012],[95.7321,27.25992],[95.72568,27.25263],[95.72131,27.25099],[95.71571,27.25249],[95.70212,27.24906],[95.69567,27.2516],[95.68467,27.25089],[95.67965,27.24965],[95.67945,27.2474],[95.63726,27.23046],[95.63441,27.23337],[95.61941,27.23013],[95.60763,27.22498],[95.59946,27.22324],[95.59037,27.22316],[95.57821,27.23584],[95.57864,27.24084],[95.57482,27.24478],[95.56361,27.24624],[95.55652,27.24813],[95.55455,27.25312],[95.53524,27.26446],[95.53015,27.26293],[95.52636,27.26012],[95.52089,27.2576],[95.51662,27.26251],[95.51135,27.26017],[95.51105,27.25285],[95.50669,27.2485],[95.49144,27.24261],[95.48737,27.25056],[95.4822,27.25274],[95.47382,27.26285],[95.46946,27.25948],[95.45947,27.24744],[95.46267,27.23991],[95.45802,27.23215],[95.44949,27.24663],[95.44712,27.25229],[95.46527,27.2666],[95.46586,27.27135],[95.45823,27.28507],[95.45168,27.29488],[95.47046,27.30611],[95.46432,27.32125],[95.45307,27.33001],[95.46117,27.33838],[95.47669,27.34239],[95.4742,27.36432],[95.45079,27.36892],[95.44122,27.36292],[95.43169,27.37191],[95.42498,27.37486],[95.42,27.38172],[95.39739,27.39131],[95.37858,27.39165],[95.38037,27.38532],[95.37658,27.38049],[95.35126,27.39152],[95.34067,27.38937],[95.32536,27.38907],[95.31535,27.39122],[95.30792,27.39838],[95.30191,27.40863],[95.29638,27.41161],[95.28507,27.40774],[95.27805,27.41142],[95.2707,27.40547],[95.25898,27.41036],[95.26051,27.41773],[95.25217,27.42614],[95.25233,27.43261],[95.24527,27.43254],[95.2393,27.43453],[95.2343,27.44017],[95.23068,27.44672],[95.22182,27.45781],[95.23092,27.47205],[95.23042,27.48092],[95.2306,27.48588],[95.23205,27.49607],[95.23895,27.50254],[95.25305,27.50681],[95.2596,27.50786],[95.2642,27.51014],[95.2671,27.51577],[95.26733,27.52349],[95.27236,27.52519],[95.26659,27.53617],[95.27125,27.54656],[95.27493,27.54989],[95.28184,27.54659],[95.28525,27.55506],[95.27904,27.55989],[95.27671,27.5673],[95.2789,27.57293],[95.28399,27.5687],[95.29169,27.56838],[95.29391,27.57682],[95.29907,27.57506],[95.30243,27.5786],[95.30308,27.58326],[95.30915,27.5831],[95.31768,27.58449],[95.32283,27.58732],[95.3096,27.6173],[95.30362,27.63607],[95.29995,27.64748],[95.29818,27.65265],[95.29573,27.65776],[95.29213,27.66976],[95.28246,27.67699],[95.27759,27.6824],[95.28433,27.69075],[95.29032,27.69392],[95.29885,27.69551],[95.32156,27.69534],[95.3441,27.702],[95.39328,27.72342],[95.4022,27.72535],[95.41077,27.73228],[95.42135,27.73824],[95.44415,27.75749],[95.45247,27.76586],[95.45973,27.77438],[95.46273,27.78275],[95.46322,27.78902],[95.47005,27.80887],[95.47707,27.81636],[95.48053,27.82311],[95.47946,27.8296],[95.4836,27.83257],[95.48675,27.83795],[95.48782,27.84429],[95.49296,27.85222],[95.50506,27.85715],[95.51691,27.85743],[95.51762,27.87043],[95.51766,27.87688],[95.52303,27.88528],[95.52796,27.893],[95.53476,27.89552],[95.54525,27.89739],[95.54608,27.90086],[95.54555,27.90856],[95.56679,27.9176],[95.56801,27.92669],[95.57299,27.93748],[95.58231,27.93865],[95.5904,27.9367],[95.59874,27.94621],[95.60851,27.95283],[95.82747,27.97203],[95.95834,27.96349],[95.97887,27.9628],[95.97179,27.95364],[95.96661,27.94694],[95.95369,27.93614],[95.95294,27.93347],[95.95374,27.93147],[95.95892,27.92715],[95.95519,27.92452],[95.95666,27.92109],[95.95383,27.91708],[95.94485,27.9069],[95.94066,27.90407],[95.93966,27.89751],[95.92997,27.89712],[95.92634,27.89521],[95.92526,27.89027],[95.92987,27.88477],[95.92715,27.88279],[95.92507,27.88458],[95.9226,27.88473],[95.92391,27.88043],[95.91997,27.87702],[95.9153,27.8751],[95.9142,27.87238],[95.91266,27.86726],[95.90747,27.87149],[95.90829,27.86471],[95.90184,27.86093],[95.89634,27.86148],[95.89336,27.85129],[95.87498,27.83404],[95.86759,27.83274],[95.85335,27.82839],[95.84726,27.82439],[95.84461,27.81574],[95.83621,27.81006],[95.83018,27.80795],[95.82436,27.80354],[95.81253,27.788],[95.80879,27.78424],[95.80756,27.77784],[95.80214,27.77113],[95.79658,27.7669],[95.79,27.75932],[95.78171,27.75249],[95.78594,27.73401],[95.773,27.72874],[95.76382,27.72719],[95.75936,27.72538],[95.75982,27.72094],[95.76417,27.71689],[95.77161,27.71021],[95.7737,27.70551],[95.77442,27.69953],[95.77372,27.69412],[95.77559,27.69085],[95.77981,27.68853],[95.79416,27.68638],[95.79552,27.67828],[95.78649,27.67736],[95.78145,27.6733],[95.77946,27.66644],[95.77883,27.66034],[95.78019,27.6546],[95.78718,27.6497],[95.79578,27.64682],[95.80237,27.643],[95.8005,27.63696],[95.79825,27.63355],[95.79832,27.62986],[95.78825,27.62629],[95.78593,27.62139],[95.788,27.61737],[95.79692,27.61214],[95.79887,27.60173],[95.81042,27.59915],[95.82003,27.59888],[95.82499,27.59687],[95.82105,27.58941],[95.82059,27.58411],[95.82199,27.57553],[95.82848,27.57555],[95.83268,27.57266],[95.837,27.56493],[95.84062,27.56036],[95.84672,27.56171],[95.85279,27.55936],[95.86301,27.54625],[95.86767,27.54474],[95.87426,27.5448],[95.88199,27.54684]]]}}]}