{"type":"FeatureCollection","features":[{"type":"Feature","properties":{"id":"bokaro","name":"Bokaro","stateId":"jharkhand","stateName":"Jharkhand","censuscode":355,"type":"district"},"geometry":{"type":"Polygon","coordinates":[[[85.91971,23.95583],[85.91981,23.95424],[85.92549,23.95126],[85.92875,23.94791],[85.93091,23.94257],[85.93138,23.93527],[85.93006,23.9285],[85.93115,23.92597],[85.93469,23.92648],[85.94088,23.92952],[85.94289,23.93049],[85.9453,23.9327],[85.94711,23.93273],[85.95028,23.92975],[85.95207,23.92516],[85.95245,23.91898],[85.95293,23.91112],[85.95386,23.9073],[85.95726,23.90053],[85.95998,23.89877],[85.96856,23.89779],[85.9775,23.89827],[85.98347,23.90007],[85.98835,23.902],[85.99871,23.90641],[86.00151,23.90793],[86.006,23.90969],[86.00988,23.9111],[86.01801,23.91134],[86.02213,23.90933],[86.02516,23.90553],[86.02669,23.90178],[86.02871,23.89995],[86.03206,23.89871],[86.03589,23.89911],[86.04323,23.90177],[86.05144,23.90357],[86.05667,23.90189],[86.06252,23.89834],[86.07131,23.89544],[86.09478,23.88922],[86.11239,23.89073],[86.11329,23.89263],[86.11914,23.89397],[86.11471,23.88868],[86.11565,23.88629],[86.11811,23.88572],[86.12264,23.88747],[86.12214,23.88382],[86.11947,23.88051],[86.12009,23.87793],[86.12245,23.87519],[86.12088,23.86877],[86.12239,23.86667],[86.12789,23.86644],[86.13143,23.86209],[86.13503,23.86273],[86.14072,23.8606],[86.14165,23.8577],[86.13947,23.85406],[86.14017,23.85175],[86.14372,23.84757],[86.14206,23.84467],[86.13882,23.84301],[86.13829,23.84119],[86.14333,23.83429],[86.14499,23.83046],[86.14705,23.82879],[86.15251,23.83063],[86.15889,23.82848],[86.16318,23.8293],[86.1655,23.81326],[86.16219,23.80226],[86.16412,23.79384],[86.1657,23.78938],[86.16896,23.78586],[86.17515,23.78359],[86.17447,23.7777],[86.17578,23.77506],[86.17925,23.77254],[86.18384,23.77065],[86.18631,23.76808],[86.18406,23.76318],[86.18904,23.75977],[86.19066,23.74771],[86.18785,23.74289],[86.18835,23.73409],[86.18306,23.73167],[86.18052,23.72762],[86.1719,23.72806],[86.17191,23.72805],[86.18004,23.72228],[86.1877,23.71911],[86.19796,23.71584],[86.2046,23.71225],[86.20872,23.71091],[86.21395,23.70892],[86.22453,23.70746],[86.23356,23.7069],[86.2439,23.70691],[86.25875,23.70793],[86.26286,23.70592],[86.27572,23.70696],[86.29951,23.70395],[86.3081,23.70369],[86.31293,23.70423],[86.35684,23.70169],[86.37179,23.70197],[86.37715,23.69087],[86.37982,23.68432],[86.38282,23.67985],[86.38676,23.67542],[86.39147,23.67162],[86.39744,23.6679],[86.40352,23.66534],[86.40997,23.66424],[86.41627,23.66213],[86.42261,23.65873],[86.4267,23.6403],[86.4341,23.6308],[86.44087,23.62367],[86.44471,23.62168],[86.44539,23.61859],[86.44544,23.61103],[86.44036,23.61038],[86.43626,23.61304],[86.4331,23.61226],[86.43047,23.60684],[86.42401,23.60534],[86.41939,23.60326],[86.41619,23.59996],[86.41205,23.58992],[86.40602,23.59139],[86.39525,23.59071],[86.39278,23.5873],[86.38676,23.5863],[86.38803,23.58088],[86.3876,23.57745],[86.38872,23.57398],[86.38396,23.5708],[86.38068,23.57048],[86.37889,23.5633],[86.37372,23.56118],[86.37065,23.55902],[86.37006,23.55333],[86.36743,23.55163],[86.36632,23.54811],[86.3638,23.54505],[86.36632,23.54047],[86.36456,23.53564],[86.3655,23.53267],[86.36965,23.53008],[86.37078,23.5275],[86.37345,23.52458],[86.37283,23.52087],[86.37086,23.51747],[86.36272,23.51492],[86.36286,23.51228],[86.35953,23.49847],[86.36441,23.49164],[86.36785,23.49395],[86.37641,23.49233],[86.37794,23.48815],[86.37776,23.48474],[86.37632,23.48372],[86.37431,23.48602],[86.37021,23.48423],[86.36131,23.48363],[86.35478,23.47457],[86.35805,23.47027],[86.35765,23.46571],[86.35286,23.46325],[86.34371,23.46318],[86.34415,23.45907],[86.34622,23.45449],[86.33718,23.44934],[86.3351,23.45033],[86.33446,23.45707],[86.33204,23.45965],[86.32705,23.45657],[86.32097,23.45476],[86.31793,23.45069],[86.3123,23.4503],[86.30599,23.44581],[86.30618,23.44274],[86.31161,23.43829],[86.31583,23.43972],[86.31811,23.43942],[86.31869,23.43354],[86.32005,23.4304],[86.31915,23.42819],[86.30583,23.42219],[86.29551,23.42499],[86.28824,23.42957],[86.28701,23.43755],[86.28652,23.4417],[86.28433,23.44321],[86.27934,23.44104],[86.27307,23.44208],[86.27216,23.44005],[86.26961,23.43865],[86.26371,23.44031],[86.25832,23.43958],[86.25594,23.43767],[86.25253,23.43624],[86.25383,23.43293],[86.25891,23.42696],[86.25672,23.42432],[86.25234,23.4213],[86.24906,23.42169],[86.24578,23.42468],[86.24497,23.42781],[86.24543,23.43376],[86.23701,23.4316],[86.23056,23.43775],[86.23092,23.44489],[86.23325,23.45166],[86.24109,23.45804],[86.24465,23.47172],[86.23818,23.47275],[86.23124,23.47191],[86.22912,23.46684],[86.22998,23.4593],[86.22687,23.45803],[86.21562,23.46127],[86.20919,23.46071],[86.2055,23.46607],[86.2013,23.4655],[86.19772,23.46644],[86.19272,23.47039],[86.18696,23.46893],[86.18474,23.46974],[86.1851,23.47713],[86.1783,23.48053],[86.17388,23.47809],[86.15893,23.47898],[86.15151,23.47506],[86.14867,23.47931],[86.14929,23.48324],[86.15184,23.4881],[86.15117,23.49595],[86.16109,23.50619],[86.15927,23.51169],[86.16054,23.52107],[86.14892,23.52926],[86.15029,23.53714],[86.15571,23.54308],[86.15873,23.55014],[86.15929,23.55348],[86.15447,23.55739],[86.1523,23.56053],[86.15443,23.56579],[86.1542,23.56729],[86.15078,23.56963],[86.14463,23.57187],[86.14208,23.57112],[86.13777,23.56809],[86.13271,23.5686],[86.12547,23.57575],[86.11626,23.57257],[86.1109,23.5738],[86.1076,23.57572],[86.10441,23.57279],[86.09963,23.57184],[86.09402,23.56947],[86.08875,23.5704],[86.07885,23.57005],[86.0775,23.58029],[86.07139,23.58254],[86.05742,23.5807],[86.05296,23.58566],[86.04347,23.58525],[86.04145,23.57689],[86.0362,23.57656],[86.03124,23.5741],[86.02373,23.56542],[86.01711,23.56304],[86.01686,23.55347],[86.0272,23.54732],[86.02467,23.54426],[86.03115,23.53361],[86.03314,23.52611],[86.03765,23.52284],[86.03878,23.5199],[86.03884,23.50673],[86.05466,23.50452],[86.05693,23.50346],[86.05757,23.50091],[86.05329,23.49555],[86.04744,23.49216],[86.04183,23.49223],[86.03515,23.48908],[86.03168,23.48999],[86.02644,23.48982],[86.02154,23.48707],[86.01632,23.48507],[86.01167,23.4846],[86.00746,23.48071],[86.00084,23.47744],[85.99648,23.47829],[85.98177,23.47264],[85.97392,23.46728],[85.96329,23.46385],[85.95903,23.46154],[85.95591,23.45737],[85.95003,23.45654],[85.94408,23.45706],[85.92367,23.46424],[85.91886,23.46918],[85.91252,23.47362],[85.89743,23.47785],[85.88376,23.47771],[85.88924,23.4827],[85.88934,23.48467],[85.88527,23.48613],[85.88667,23.4884],[85.88577,23.48972],[85.88381,23.4902],[85.88302,23.49214],[85.87839,23.49438],[85.87749,23.49704],[85.87009,23.49852],[85.86979,23.50044],[85.86767,23.50296],[85.86374,23.5042],[85.86092,23.50421],[85.85644,23.5015],[85.85307,23.50022],[85.84866,23.50003],[85.84238,23.50103],[85.8394,23.50353],[85.83874,23.50671],[85.83946,23.51064],[85.84283,23.51777],[85.84168,23.52101],[85.83526,23.52435],[85.83112,23.52487],[85.82365,23.53527],[85.82675,23.53881],[85.83831,23.54221],[85.84037,23.54905],[85.84281,23.54952],[85.84109,23.55375],[85.83514,23.56169],[85.82651,23.56103],[85.82337,23.56301],[85.81943,23.56224],[85.81554,23.56269],[85.8109,23.58014],[85.81001,23.58948],[85.80679,23.59355],[85.80423,23.59964],[85.80065,23.60162],[85.79835,23.60716],[85.7976,23.60766],[85.79323,23.60551],[85.79436,23.61307],[85.78946,23.61492],[85.79355,23.62149],[85.78573,23.6265],[85.78438,23.6309],[85.78211,23.63321],[85.77489,23.63525],[85.7719,23.63989],[85.7739,23.65672],[85.7735,23.66024],[85.77126,23.66607],[85.76815,23.67112],[85.7643,23.67341],[85.76111,23.67292],[85.75846,23.66695],[85.75598,23.6555],[85.75196,23.64763],[85.74111,23.64013],[85.73673,23.63916],[85.73203,23.63982],[85.72841,23.63748],[85.72381,23.62629],[85.71923,23.61992],[85.71436,23.61774],[85.7116,23.61816],[85.70516,23.62327],[85.70285,23.62852],[85.70014,23.62941],[85.69253,23.62544],[85.68766,23.62908],[85.68413,23.63147],[85.68045,23.63024],[85.67929,23.6268],[85.68015,23.62339],[85.67903,23.6206],[85.67422,23.61981],[85.67118,23.61725],[85.67189,23.615],[85.66977,23.61323],[85.66632,23.61366],[85.66484,23.61098],[85.6662,23.60786],[85.66622,23.60506],[85.66388,23.60085],[85.65535,23.59084],[85.64863,23.59237],[85.64547,23.59462],[85.63804,23.59771],[85.63445,23.60001],[85.63221,23.60438],[85.62674,23.61147],[85.62302,23.61423],[85.61949,23.61548],[85.6161,23.61575],[85.61509,23.62224],[85.61664,23.65757],[85.61591,23.66701],[85.61846,23.66986],[85.61841,23.67443],[85.61077,23.68365],[85.61062,23.68642],[85.61821,23.69288],[85.6203,23.69583],[85.62177,23.70569],[85.6221,23.71573],[85.62091,23.72688],[85.61659,23.73165],[85.61665,23.74931],[85.63011,23.75394],[85.63284,23.75712],[85.63419,23.76026],[85.63825,23.76376],[85.64215,23.76853],[85.64966,23.77312],[85.65103,23.78105],[85.65074,23.79047],[85.65502,23.79642],[85.65362,23.80487],[85.65121,23.80612],[85.64638,23.80501],[85.64134,23.80503],[85.63735,23.78939],[85.6348,23.78663],[85.62679,23.78309],[85.62167,23.77916],[85.6179,23.77866],[85.61279,23.7803],[85.61026,23.7878],[85.60855,23.7893],[85.60508,23.79042],[85.60371,23.79394],[85.60037,23.79581],[85.59736,23.79991],[85.59494,23.80821],[85.59915,23.81461],[85.59829,23.81796],[85.59269,23.82836],[85.59228,23.83161],[85.5833,23.83514],[85.58614,23.84092],[85.58955,23.84464],[85.59368,23.84673],[85.61501,23.854],[85.61732,23.85571],[85.61858,23.86149],[85.61521,23.86951],[85.61291,23.87306],[85.6129,23.87836],[85.61508,23.88717],[85.62281,23.89425],[85.63451,23.90213],[85.63965,23.90511],[85.64939,23.90885],[85.65193,23.91275],[85.65902,23.91603],[85.66178,23.91817],[85.6603,23.92007],[85.65712,23.92201],[85.65689,23.92637],[85.64979,23.92962],[85.64724,23.93208],[85.64716,23.93311],[85.64694,23.93617],[85.6496,23.94041],[85.66141,23.93948],[85.66678,23.94079],[85.6718,23.94306],[85.67461,23.95142],[85.67248,23.9548],[85.66866,23.95782],[85.66935,23.95862],[85.67647,23.95955],[85.67766,23.96619],[85.67928,23.96858],[85.68183,23.96594],[85.68487,23.9654],[85.69164,23.96658],[85.69952,23.96285],[85.70157,23.96089],[85.70047,23.95698],[85.69528,23.95768],[85.69201,23.95589],[85.68766,23.94906],[85.68848,23.94404],[85.70453,23.92152],[85.71218,23.91573],[85.71793,23.91638],[85.71937,23.9116],[85.71993,23.90561],[85.72349,23.904],[85.72504,23.90788],[85.72532,23.91175],[85.72769,23.91537],[85.73434,23.92213],[85.74425,23.92662],[85.74251,23.93012],[85.7442,23.93298],[85.74736,23.93392],[85.74981,23.93044],[85.75312,23.92859],[85.76769,23.92658],[85.76993,23.92374],[85.76768,23.91033],[85.77236,23.90497],[85.77924,23.90048],[85.7866,23.90036],[85.78681,23.89692],[85.78884,23.88633],[85.79221,23.88351],[85.80206,23.88139],[85.80378,23.87924],[85.80088,23.87385],[85.80185,23.87059],[85.80426,23.86859],[85.80585,23.86595],[85.80516,23.86359],[85.80637,23.86116],[85.80949,23.85949],[85.80779,23.85668],[85.80769,23.84632],[85.81579,23.84163],[85.81783,23.83878],[85.8167,23.83372],[85.83081,23.83185],[85.83403,23.8321],[85.83852,23.82956],[85.84371,23.83685],[85.84776,23.84034],[85.86414,23.85035],[85.86668,23.85409],[85.86705,23.85749],[85.86849,23.86119],[85.86816,23.86575],[85.8704,23.86878],[85.872,23.87268],[85.87458,23.87721],[85.88106,23.88564],[85.8841,23.89168],[85.88852,23.89596],[85.89061,23.9013],[85.89038,23.90658],[85.89125,23.91148],[85.88642,23.91382],[85.88563,23.91706],[85.88599,23.92062],[85.88829,23.92637],[85.88862,23.93083],[85.88745,23.93562],[85.88547,23.93824],[85.88452,23.94146],[85.8877,23.94945],[85.89017,23.95319],[85.89356,23.95447],[85.89762,23.95245],[85.90068,23.95366],[85.90355,23.95283],[85.90756,23.94873],[85.91444,23.94538],[85.91372,23.95354],[85.91523,23.95535],[85.91971,23.95583]]]}}]}