{"type":"FeatureCollection","features":[{"type":"Feature","properties":{"id":"chatra","name":"Chatra","stateId":"jharkhand","stateName":"Jharkhand","censuscode":347,"type":"district"},"geometry":{"type":"MultiPolygon","coordinates":[[[[84.8027,24.52933],[84.809,24.52097],[84.82685,24.52468],[84.83996,24.51136],[84.83526,24.48591],[84.83451,24.47004],[84.84077,24.46952],[84.84005,24.4611],[84.83794,24.45915],[84.8417,24.45248],[84.84929,24.45542],[84.85479,24.46588],[84.86465,24.46073],[84.86433,24.45755],[84.86705,24.4566],[84.87023,24.45761],[84.87475,24.46687],[84.88002,24.46579],[84.88354,24.46276],[84.88746,24.46278],[84.88533,24.44379],[84.88732,24.43205],[84.88517,24.42266],[84.88961,24.41713],[84.89916,24.3986],[84.90542,24.39388],[84.90773,24.38217],[84.90165,24.37513],[84.90525,24.37222],[84.91053,24.37241],[84.9202,24.37575],[84.93256,24.37815],[84.94217,24.37658],[84.95515,24.37191],[84.97576,24.37609],[84.9976,24.41234],[85.01789,24.41621],[85.0218,24.41923],[85.02786,24.42214],[85.03928,24.42547],[85.04291,24.42324],[85.04673,24.42426],[85.04943,24.41842],[85.06045,24.41528],[85.06464,24.41664],[85.06756,24.42476],[85.07177,24.43073],[85.07623,24.4358],[85.08334,24.44001],[85.08284,24.42191],[85.0809,24.41317],[85.08171,24.40863],[85.08016,24.40672],[85.07754,24.40535],[85.07636,24.40138],[85.07815,24.39987],[85.07262,24.38696],[85.08778,24.38098],[85.08781,24.38096],[85.08392,24.37137],[85.08457,24.3656],[85.08633,24.36002],[85.09463,24.3515],[85.09883,24.34572],[85.10278,24.33616],[85.10587,24.33874],[85.1096,24.34034],[85.1187,24.34017],[85.1279,24.33881],[85.13222,24.33652],[85.13954,24.34123],[85.14019,24.3532],[85.13778,24.36101],[85.14023,24.36223],[85.14597,24.36215],[85.15364,24.3613],[85.16086,24.35606],[85.16441,24.3556],[85.16742,24.34631],[85.17195,24.34457],[85.18321,24.34427],[85.18642,24.34218],[85.18715,24.33894],[85.18891,24.33727],[85.19359,24.33632],[85.19621,24.33338],[85.20065,24.33399],[85.20751,24.34437],[85.21292,24.34654],[85.2233,24.34818],[85.22865,24.34902],[85.23222,24.35127],[85.23683,24.35049],[85.24202,24.35076],[85.24825,24.34976],[85.25793,24.34799],[85.26256,24.34702],[85.26726,24.34496],[85.27194,24.34494],[85.28296,24.34257],[85.28902,24.34299],[85.29381,24.34609],[85.29867,24.34612],[85.30498,24.3418],[85.31466,24.33791],[85.32997,24.32757],[85.335,24.32678],[85.34277,24.32233],[85.35203,24.32117],[85.35059,24.31777],[85.34298,24.31277],[85.3391,24.31073],[85.33559,24.31255],[85.33595,24.31574],[85.3331,24.31859],[85.32523,24.31951],[85.32274,24.31575],[85.32355,24.3117],[85.3261,24.30925],[85.32615,24.30362],[85.31995,24.30152],[85.32057,24.28675],[85.31958,24.28277],[85.31956,24.28275],[85.31924,24.28149],[85.31899,24.2785],[85.31901,24.27848],[85.31899,24.27846],[85.31863,24.27414],[85.31724,24.27323],[85.31564,24.27218],[85.3144,24.26866],[85.31562,24.2668],[85.31638,24.26564],[85.31424,24.2602],[85.31331,24.25784],[85.30768,24.25127],[85.30173,24.24801],[85.29998,24.24437],[85.30231,24.23509],[85.2968,24.23137],[85.30066,24.22769],[85.30176,24.22665],[85.30298,24.21963],[85.30263,24.21176],[85.29997,24.21028],[85.29313,24.21078],[85.29048,24.21033],[85.29048,24.21033],[85.28891,24.21006],[85.28529,24.21708],[85.26918,24.22564],[85.25955,24.22587],[85.24987,24.22496],[85.23937,24.23179],[85.2353,24.23269],[85.22679,24.2317],[85.2227,24.23207],[85.21244,24.23045],[85.20262,24.23589],[85.19722,24.23754],[85.18841,24.23741],[85.18049,24.23844],[85.17021,24.23717],[85.16675,24.23771],[85.16023,24.24069],[85.15175,24.22953],[85.14782,24.2258],[85.14672,24.22153],[85.14461,24.21849],[85.14547,24.21531],[85.14008,24.21009],[85.14117,24.20535],[85.14653,24.19868],[85.14817,24.19157],[85.1465,24.18609],[85.1462,24.17992],[85.14274,24.16869],[85.14788,24.1694],[85.1512,24.16805],[85.15905,24.14922],[85.16765,24.13985],[85.1716,24.13438],[85.16996,24.13179],[85.16714,24.13084],[85.16512,24.12831],[85.16849,24.12776],[85.17004,24.12532],[85.16771,24.12303],[85.17164,24.12155],[85.17072,24.11479],[85.17182,24.11073],[85.17463,24.10903],[85.18286,24.10728],[85.19022,24.1042],[85.19563,24.09999],[85.20198,24.09634],[85.20409,24.09406],[85.21319,24.09021],[85.22032,24.08917],[85.22705,24.08702],[85.24086,24.0776],[85.24445,24.07304],[85.24666,24.06512],[85.24435,24.05311],[85.24524,24.04638],[85.25084,24.03046],[85.25103,24.02735],[85.24882,24.02589],[85.23764,24.02274],[85.2292,24.02068],[85.22494,24.00832],[85.22399,24.00073],[85.21513,23.9953],[85.21327,23.98614],[85.21036,23.98195],[85.2057,23.97791],[85.20272,23.97285],[85.20244,23.96773],[85.20325,23.9616],[85.19933,23.95944],[85.1959,23.95425],[85.18776,23.94945],[85.18342,23.95042],[85.17994,23.95184],[85.17177,23.95519],[85.15205,23.95652],[85.14616,23.95473],[85.14003,23.95911],[85.13586,23.9636],[85.13706,23.96775],[85.13276,23.97206],[85.12409,23.97665],[85.11913,23.97778],[85.11681,23.97547],[85.10737,23.98019],[85.10501,23.97866],[85.09624,23.97923],[85.09027,23.97378],[85.08326,23.96305],[85.07275,23.96516],[85.0785,23.97566],[85.07818,23.9822],[85.07431,23.98729],[85.0607,23.98767],[85.05687,23.98863],[85.04616,23.98831],[85.04426,23.98754],[85.03739,23.98667],[85.03509,23.98458],[85.0324,23.97757],[85.03371,23.97369],[85.03361,23.96781],[85.041,23.96754],[85.04642,23.96482],[85.05307,23.96358],[85.05531,23.96229],[85.05521,23.95785],[85.0486,23.95362],[85.04377,23.94933],[85.0394,23.94386],[85.04398,23.93433],[85.04111,23.9323],[85.03982,23.92936],[85.04174,23.92592],[85.04596,23.92407],[85.04454,23.91842],[85.02604,23.91866],[85.01807,23.9028],[85.02237,23.89625],[85.02212,23.89067],[85.02322,23.88658],[85.03446,23.8805],[85.03077,23.87307],[85.03202,23.87146],[85.02849,23.86738],[85.02953,23.86218],[85.03685,23.85547],[85.04622,23.8494],[85.04858,23.84693],[85.05241,23.84493],[85.05777,23.83844],[85.05896,23.83456],[85.0577,23.8301],[85.0519,23.83029],[85.0469,23.83134],[85.04606,23.82583],[85.04699,23.81774],[85.04409,23.81558],[85.04568,23.81038],[85.0455,23.80714],[85.0451,23.80013],[85.04733,23.79673],[85.04866,23.79193],[85.04925,23.78614],[85.0483,23.78178],[85.04559,23.77699],[85.04764,23.77067],[85.04734,23.76571],[85.04865,23.75596],[85.04857,23.74888],[85.05243,23.74524],[85.06142,23.73899],[85.0635,23.73336],[85.06022,23.73156],[85.0548,23.73569],[85.05145,23.73646],[85.04752,23.73578],[85.04576,23.73336],[85.04593,23.73139],[85.04995,23.73091],[85.05057,23.72616],[85.05468,23.72475],[85.05482,23.71861],[85.05375,23.71351],[85.05375,23.71351],[85.05375,23.71351],[85.04975,23.71127],[85.04856,23.70779],[85.04659,23.7058],[85.04139,23.70329],[85.04121,23.69947],[85.0385,23.69302],[85.03613,23.68963],[85.03263,23.68912],[85.01773,23.68698],[85.01546,23.69133],[85.01175,23.69285],[85.01143,23.68675],[85.00717,23.67831],[84.99752,23.68125],[84.99227,23.68937],[84.98956,23.69998],[84.98766,23.70348],[84.97864,23.70598],[84.97595,23.70784],[84.97248,23.71472],[84.96863,23.71504],[84.96387,23.71379],[84.96104,23.71197],[84.96144,23.72137],[84.94112,23.72708],[84.93849,23.72896],[84.93567,23.73712],[84.92859,23.75113],[84.92721,23.76332],[84.92785,23.76791],[84.92123,23.77036],[84.9099,23.77173],[84.90296,23.77507],[84.90406,23.78364],[84.907,23.78841],[84.90622,23.79118],[84.90746,23.79669],[84.90905,23.79958],[84.91195,23.80179],[84.91758,23.80434],[84.93961,23.80211],[84.94495,23.8026],[84.94628,23.81882],[84.94453,23.82432],[84.94766,23.82886],[84.94828,23.83509],[84.94771,23.84235],[84.94316,23.85274],[84.93281,23.85601],[84.92936,23.85841],[84.9307,23.86158],[84.93424,23.8665],[84.93968,23.86988],[84.94613,23.87189],[84.94959,23.87431],[84.94959,23.88144],[84.94828,23.88191],[84.94582,23.89143],[84.94008,23.90575],[84.93489,23.91042],[84.92683,23.91184],[84.92658,23.91551],[84.92914,23.92011],[84.93025,23.92711],[84.93332,23.9307],[84.93518,23.9348],[84.93334,23.93984],[84.92511,23.94766],[84.92307,23.95061],[84.90626,23.95009],[84.89969,23.94811],[84.8943,23.94441],[84.8893,23.94278],[84.88777,23.94793],[84.88418,23.95199],[84.87905,23.95374],[84.87139,23.95368],[84.86396,23.95543],[84.8525,23.96316],[84.84599,23.96496],[84.83035,23.95743],[84.82513,23.97113],[84.82545,23.98329],[84.81527,23.97949],[84.80993,23.97545],[84.80542,23.96978],[84.79962,23.97115],[84.79265,23.9687],[84.78482,23.96968],[84.77983,23.96947],[84.77428,23.96672],[84.77189,23.96586],[84.75924,23.96703],[84.75992,23.96866],[84.76211,23.96942],[84.76597,23.97523],[84.76803,23.9756],[84.76885,23.97671],[84.76833,23.97788],[84.76656,23.9783],[84.76382,23.97784],[84.75995,23.98599],[84.76235,23.99081],[84.77007,24.00865],[84.76879,24.01221],[84.76322,24.01629],[84.7586,24.02692],[84.752,24.03211],[84.75137,24.03405],[84.75427,24.04125],[84.75302,24.04248],[84.74667,24.03963],[84.74297,24.04808],[84.73926,24.04673],[84.73408,24.04304],[84.72962,24.04099],[84.7205,24.04444],[84.70972,24.0392],[84.7094,24.0322],[84.7117,24.02688],[84.70121,24.02271],[84.69361,24.02411],[84.68876,24.02349],[84.68496,24.01985],[84.682,24.01346],[84.67801,24.0099],[84.67563,24.00448],[84.67073,24.00173],[84.6658,24.00114],[84.66163,24.00485],[84.65499,24.00685],[84.64679,24.00518],[84.64114,23.9976],[84.63746,23.99075],[84.63184,23.98143],[84.62933,23.98024],[84.62525,23.9824],[84.62261,23.98338],[84.61912,23.98356],[84.6157,23.98257],[84.60745,23.98932],[84.60638,23.98956],[84.59873,23.98303],[84.59303,23.98661],[84.59049,23.98712],[84.58555,23.98624],[84.58555,23.98624],[84.57624,23.98521],[84.57295,23.9838],[84.57056,23.98484],[84.56615,23.99066],[84.55901,24.00258],[84.55401,24.01625],[84.55671,24.0268],[84.56445,24.03294],[84.56137,24.03703],[84.55422,24.04346],[84.55351,24.04958],[84.56411,24.0521],[84.56704,24.05555],[84.5748,24.07042],[84.56325,24.07766],[84.55383,24.10331],[84.56488,24.11603],[84.57235,24.11801],[84.58019,24.14148],[84.55209,24.15311],[84.54984,24.16049],[84.54506,24.16806],[84.53851,24.17074],[84.53509,24.1775],[84.53189,24.18079],[84.5284,24.19129],[84.53739,24.19897],[84.53654,24.203],[84.52888,24.20689],[84.52114,24.19956],[84.51106,24.20069],[84.50154,24.19953],[84.48863,24.20131],[84.47672,24.20694],[84.47647,24.20705],[84.47325,24.21017],[84.47427,24.21944],[84.47349,24.22875],[84.46922,24.23154],[84.44852,24.23898],[84.44481,24.24364],[84.45635,24.26098],[84.4576,24.26764],[84.46706,24.26524],[84.47166,24.26782],[84.47288,24.2658],[84.47034,24.26253],[84.46613,24.25921],[84.48395,24.26254],[84.48866,24.2642],[84.48837,24.26972],[84.48554,24.27611],[84.50093,24.28695],[84.50428,24.29262],[84.50969,24.29445],[84.50863,24.29871],[84.51194,24.30579],[84.51059,24.31528],[84.5181,24.31705],[84.52158,24.32349],[84.52482,24.33355],[84.53289,24.33934],[84.52678,24.34569],[84.52622,24.353],[84.53412,24.36086],[84.53537,24.36467],[84.53147,24.36859],[84.52894,24.37608],[84.5491,24.37654],[84.55325,24.37354],[84.56345,24.37955],[84.5732,24.38378],[84.57173,24.38972],[84.56653,24.39693],[84.56864,24.40165],[84.57281,24.40728],[84.57991,24.41216],[84.58747,24.41023],[84.58924,24.4013],[84.59732,24.40421],[84.6016,24.40385],[84.60835,24.40083],[84.61991,24.40107],[84.62258,24.40366],[84.62667,24.40191],[84.63028,24.40381],[84.63623,24.40004],[84.65042,24.39849],[84.66562,24.39364],[84.66749,24.39588],[84.67033,24.41049],[84.67517,24.41284],[84.67577,24.42615],[84.67323,24.42829],[84.67361,24.43105],[84.6814,24.44099],[84.68629,24.45618],[84.69146,24.45904],[84.70146,24.46164],[84.71392,24.4722],[84.7203,24.46848],[84.72489,24.46868],[84.73229,24.4728],[84.74745,24.48812],[84.7494,24.49631],[84.77035,24.50161],[84.78726,24.5047],[84.79104,24.51755],[84.79707,24.52139],[84.8027,24.52933]],[[84.50091,24.2651],[84.50355,24.26308],[84.5072,24.26323],[84.51003,24.26547],[84.51099,24.26849],[84.50898,24.27268],[84.50731,24.2773],[84.50491,24.28189],[84.50118,24.28345],[84.49901,24.28294],[84.49734,24.27946],[84.49672,24.27688],[84.49891,24.26886],[84.50091,24.2651]]],[[[84.49406,24.3173],[84.49003,24.31484],[84.48792,24.31225],[84.48648,24.30915],[84.48598,24.30276],[84.48275,24.30243],[84.47581,24.30514],[84.47253,24.30825],[84.46939,24.3174],[84.47652,24.31819],[84.48216,24.3172],[84.48514,24.31593],[84.48874,24.31823],[84.49868,24.32971],[84.50483,24.33407],[84.50823,24.33239],[84.50903,24.32768],[84.50642,24.32394],[84.50319,24.32107],[84.49406,24.3173]]]]}}]}