{"type":"FeatureCollection","features":[{"type":"Feature","properties":{"id":"deoghar","name":"Deoghar","stateId":"jharkhand","stateName":"Jharkhand","censuscode":350,"type":"district"},"geometry":{"type":"Polygon","coordinates":[[[86.91711,24.53966],[86.91321,24.5327],[86.91314,24.52673],[86.91199,24.52165],[86.91386,24.51255],[86.91457,24.50579],[86.91378,24.50005],[86.91342,24.49483],[86.91175,24.48955],[86.90915,24.48549],[86.90674,24.48225],[86.90336,24.47543],[86.89938,24.46705],[86.89356,24.45939],[86.88981,24.45461],[86.88697,24.44705],[86.88574,24.44005],[86.88514,24.43346],[86.88543,24.42805],[86.89364,24.43184],[86.8979,24.42593],[86.89353,24.4241],[86.89768,24.4199],[86.90064,24.41408],[86.90397,24.41128],[86.90989,24.41223],[86.91426,24.40904],[86.92091,24.41302],[86.92417,24.41923],[86.93235,24.41736],[86.93608,24.42126],[86.94177,24.41948],[86.93932,24.40842],[86.93648,24.40136],[86.93199,24.39603],[86.92517,24.39323],[86.92467,24.38815],[86.92559,24.38321],[86.93213,24.37901],[86.92993,24.37325],[86.93716,24.35947],[86.95336,24.35875],[86.96358,24.35486],[86.96454,24.34844],[86.96475,24.34163],[86.96276,24.33312],[86.96236,24.32609],[86.96217,24.32144],[86.96243,24.3172],[86.9684,24.31181],[86.9795,24.31063],[86.988,24.30651],[86.99675,24.31191],[86.99854,24.31224],[86.99994,24.31175],[87.02544,24.32591],[87.03279,24.31742],[87.03618,24.31027],[87.03537,24.30367],[87.03448,24.29779],[87.03471,24.29059],[87.0344,24.28093],[87.03711,24.27189],[87.04046,24.26612],[87.04487,24.26218],[87.05135,24.25963],[87.05863,24.2574],[87.06546,24.2552],[87.0712,24.25301],[87.07003,24.24783],[87.06705,24.24532],[87.06374,24.24244],[87.05986,24.23887],[87.05801,24.23342],[87.05656,24.22818],[87.05352,24.22504],[87.0501,24.2196],[87.05286,24.21444],[87.05265,24.21239],[87.05277,24.20912],[87.05534,24.20441],[87.05046,24.19966],[87.04658,24.19533],[87.04287,24.19898],[87.03752,24.20216],[87.03362,24.20202],[87.02766,24.20348],[87.02553,24.2058],[87.02165,24.20945],[87.0181,24.20869],[87.00301,24.21453],[86.99436,24.21754],[86.98829,24.21848],[86.97946,24.21996],[86.97443,24.2172],[86.97268,24.21331],[86.97478,24.208],[86.97804,24.20161],[86.97654,24.19237],[86.9775,24.1864],[86.9637,24.18384],[86.95845,24.17831],[86.95303,24.16951],[86.94986,24.16861],[86.94156,24.17062],[86.9392,24.16411],[86.93786,24.15995],[86.93603,24.15136],[86.93415,24.1438],[86.93452,24.13866],[86.94444,24.13717],[86.95435,24.13206],[86.96238,24.12889],[86.96246,24.12221],[86.96404,24.11536],[86.96785,24.11399],[86.974,24.11139],[86.97951,24.10944],[86.97947,24.10939],[86.97258,24.09974],[86.97573,24.08869],[86.97658,24.08032],[86.97297,24.07407],[86.97312,24.06259],[86.96381,24.06143],[86.95642,24.05578],[86.95941,24.05002],[86.95161,24.04542],[86.94351,24.0446],[86.93069,24.04787],[86.91846,24.05386],[86.91313,24.05972],[86.91797,24.06466],[86.91262,24.06681],[86.9017,24.06475],[86.89174,24.07072],[86.88197,24.07484],[86.87894,24.0728],[86.87784,24.06905],[86.87349,24.06685],[86.86767,24.06854],[86.86213,24.06583],[86.84694,24.06199],[86.84374,24.05627],[86.83329,24.05649],[86.82283,24.07766],[86.8136,24.0781],[86.8105,24.08027],[86.80978,24.08811],[86.80836,24.08911],[86.80425,24.08422],[86.79799,24.08838],[86.79389,24.08396],[86.78814,24.0828],[86.7882,24.07177],[86.78275,24.06996],[86.77473,24.07254],[86.768,24.07149],[86.76546,24.07777],[86.75923,24.08235],[86.75604,24.08591],[86.76196,24.09137],[86.75713,24.09814],[86.75208,24.09842],[86.74389,24.09953],[86.73032,24.10399],[86.71837,24.10775],[86.71263,24.11076],[86.7056,24.11035],[86.70077,24.11126],[86.69537,24.11676],[86.69264,24.12207],[86.69334,24.13349],[86.69544,24.14241],[86.69855,24.14382],[86.70453,24.14447],[86.71022,24.14726],[86.70883,24.15562],[86.70674,24.16202],[86.70223,24.16427],[86.69988,24.16597],[86.69489,24.16897],[86.6905,24.16629],[86.68897,24.1619],[86.68616,24.15624],[86.68531,24.15184],[86.68499,24.14644],[86.68253,24.14316],[86.68025,24.139],[86.67709,24.13589],[86.67422,24.13452],[86.6685,24.13446],[86.66478,24.13379],[86.65757,24.13357],[86.65212,24.13442],[86.64587,24.1361],[86.63515,24.13747],[86.62554,24.13772],[86.62245,24.13886],[86.61881,24.14086],[86.61325,24.14283],[86.60983,24.14205],[86.60543,24.14186],[86.59979,24.1433],[86.59546,24.14386],[86.59223,24.14342],[86.58891,24.14048],[86.5842,24.14122],[86.5808,24.14223],[86.57677,24.1423],[86.57571,24.14015],[86.56594,24.1477],[86.55477,24.15407],[86.54885,24.15091],[86.54331,24.1522],[86.53189,24.15482],[86.52789,24.15632],[86.52538,24.15317],[86.52061,24.14936],[86.51541,24.1477],[86.50915,24.14772],[86.50417,24.14939],[86.49831,24.15062],[86.48929,24.15206],[86.49605,24.16295],[86.50042,24.17485],[86.50535,24.18322],[86.50603,24.19159],[86.50463,24.19853],[86.50816,24.20242],[86.5121,24.20636],[86.51322,24.21569],[86.51783,24.22291],[86.51347,24.22938],[86.5123,24.23407],[86.51699,24.23811],[86.5155,24.24303],[86.5131,24.24855],[86.51361,24.25865],[86.51281,24.26386],[86.51066,24.26949],[86.50956,24.2751],[86.50693,24.28218],[86.50155,24.28323],[86.49556,24.28417],[86.49081,24.28642],[86.48856,24.28934],[86.48705,24.29606],[86.48181,24.29762],[86.47894,24.30164],[86.47839,24.30644],[86.47689,24.31044],[86.47427,24.31342],[86.47498,24.32063],[86.47539,24.3279],[86.47244,24.32996],[86.46955,24.33155],[86.46367,24.33289],[86.46268,24.33735],[86.46527,24.34091],[86.46716,24.34337],[86.46956,24.34709],[86.47024,24.35124],[86.46952,24.35257],[86.46358,24.35415],[86.45982,24.35581],[86.45876,24.36004],[86.45976,24.36476],[86.45875,24.36833],[86.4584,24.36963],[86.46124,24.37496],[86.46798,24.37772],[86.47187,24.38599],[86.47331,24.39613],[86.46987,24.40871],[86.47188,24.41475],[86.46989,24.41945],[86.47204,24.42283],[86.47962,24.42372],[86.48827,24.42592],[86.49478,24.42595],[86.4944,24.4348],[86.49813,24.44024],[86.49718,24.44787],[86.49734,24.45497],[86.4907,24.45974],[86.49597,24.46851],[86.495,24.47516],[86.49704,24.47964],[86.49649,24.48525],[86.50154,24.48617],[86.50435,24.48815],[86.50375,24.49885],[86.51197,24.51855],[86.52977,24.53659],[86.53668,24.53378],[86.54237,24.53729],[86.54679,24.53748],[86.55291,24.53589],[86.55755,24.54427],[86.56414,24.54932],[86.56087,24.56011],[86.56454,24.56012],[86.56794,24.56394],[86.57427,24.56364],[86.58446,24.5687],[86.58937,24.57361],[86.59011,24.58613],[86.59598,24.5935],[86.60108,24.59788],[86.6062,24.6003],[86.60914,24.60587],[86.61551,24.60822],[86.6159,24.60333],[86.61558,24.60273],[86.61413,24.60013],[86.61312,24.59517],[86.62506,24.59552],[86.62447,24.58532],[86.63334,24.58046],[86.64038,24.57753],[86.64745,24.57697],[86.65191,24.56808],[86.6621,24.56407],[86.67454,24.56152],[86.68382,24.56699],[86.68765,24.56595],[86.69276,24.5713],[86.70149,24.56979],[86.71602,24.57442],[86.72473,24.57908],[86.73768,24.57669],[86.74118,24.58172],[86.74561,24.58737],[86.75174,24.59039],[86.7507,24.60374],[86.75697,24.61883],[86.76015,24.61561],[86.77521,24.61734],[86.78159,24.61643],[86.78128,24.62036],[86.7832,24.62062],[86.78692,24.61571],[86.79015,24.61115],[86.79254,24.60546],[86.79295,24.60026],[86.80043,24.59771],[86.80037,24.60158],[86.79858,24.60605],[86.79639,24.60933],[86.79345,24.6118],[86.79193,24.61396],[86.79169,24.61806],[86.79792,24.61617],[86.80043,24.61296],[86.80267,24.6094],[86.80356,24.60662],[86.80414,24.60435],[86.80472,24.60203],[86.80624,24.59947],[86.80783,24.59835],[86.81182,24.5954],[86.81052,24.59155],[86.81093,24.58628],[86.81229,24.58205],[86.81365,24.57776],[86.80926,24.57529],[86.80724,24.57289],[86.80638,24.56962],[86.80621,24.56685],[86.80631,24.56552],[86.81102,24.56505],[86.81475,24.5647],[86.8196,24.56912],[86.82428,24.57027],[86.82748,24.56925],[86.8316,24.56693],[86.83753,24.56899],[86.84306,24.56921],[86.84458,24.56372],[86.84469,24.55957],[86.84481,24.55502],[86.8531,24.55391],[86.86061,24.55142],[86.86344,24.55756],[86.86759,24.56122],[86.87546,24.56234],[86.87918,24.56593],[86.88238,24.56827],[86.88507,24.564],[86.88994,24.56131],[86.89011,24.55544],[86.89269,24.555],[86.89905,24.55581],[86.90435,24.55073],[86.90713,24.54547],[86.91176,24.54195],[86.91711,24.53966]]]}}]}