{"type":"FeatureCollection","features":[{"type":"Feature","properties":{"id":"giridih","name":"Giridih","stateId":"jharkhand","stateName":"Jharkhand","censuscode":349,"type":"district"},"geometry":{"type":"Polygon","coordinates":[[[86.4584,24.36963],[86.45875,24.36833],[86.45976,24.36476],[86.45876,24.36004],[86.45982,24.35581],[86.46358,24.35415],[86.46952,24.35257],[86.47024,24.35124],[86.46956,24.34709],[86.46716,24.34337],[86.46527,24.34091],[86.46268,24.33735],[86.46367,24.33289],[86.46955,24.33155],[86.47244,24.32996],[86.47539,24.3279],[86.47498,24.32063],[86.47427,24.31342],[86.47689,24.31044],[86.47839,24.30644],[86.47894,24.30164],[86.48181,24.29762],[86.48705,24.29606],[86.48856,24.28934],[86.49081,24.28642],[86.49556,24.28417],[86.50155,24.28323],[86.50693,24.28218],[86.50956,24.2751],[86.51066,24.26949],[86.51281,24.26386],[86.51361,24.25865],[86.5131,24.24855],[86.5155,24.24303],[86.51699,24.23811],[86.5123,24.23407],[86.51347,24.22938],[86.51783,24.22291],[86.51322,24.21569],[86.5121,24.20636],[86.50816,24.20242],[86.50463,24.19853],[86.50603,24.19159],[86.50535,24.18322],[86.50042,24.17485],[86.49605,24.16295],[86.48929,24.15206],[86.49831,24.15062],[86.50417,24.14939],[86.50915,24.14772],[86.51541,24.1477],[86.52061,24.14936],[86.52538,24.15317],[86.52789,24.15632],[86.53189,24.15482],[86.54331,24.1522],[86.54885,24.15091],[86.55477,24.15407],[86.56594,24.1477],[86.57571,24.14015],[86.57045,24.1395],[86.56793,24.13509],[86.56747,24.12699],[86.56415,24.12352],[86.56104,24.11164],[86.55815,24.10228],[86.55565,24.09927],[86.55179,24.09645],[86.54801,24.08526],[86.54735,24.07697],[86.54387,24.07245],[86.53858,24.06877],[86.53539,24.06298],[86.53292,24.0566],[86.52125,24.05329],[86.51585,24.05166],[86.50704,24.04978],[86.49918,24.04453],[86.4933,24.04545],[86.48928,24.04415],[86.48381,24.04413],[86.48031,24.03443],[86.48091,24.02604],[86.48682,24.02945],[86.48675,24.02347],[86.48161,24.02213],[86.4747,24.02021],[86.47089,24.01797],[86.464,24.01943],[86.4575,24.02233],[86.45112,24.02748],[86.4461,24.03031],[86.44088,24.03147],[86.43452,24.0306],[86.42792,24.02944],[86.42388,24.02996],[86.41466,24.03489],[86.40622,24.03793],[86.39878,24.04052],[86.39328,24.04795],[86.39064,24.05458],[86.38729,24.059],[86.38221,24.0596],[86.37747,24.0586],[86.3731,24.05352],[86.36869,24.05071],[86.36062,24.05131],[86.35415,24.05382],[86.34928,24.05546],[86.34392,24.05452],[86.33667,24.05234],[86.33827,24.04981],[86.33587,24.04685],[86.33649,24.04271],[86.33519,24.04163],[86.33041,24.04048],[86.32254,24.03748],[86.3216,24.03573],[86.32354,24.03411],[86.32658,24.03263],[86.3295,24.02979],[86.33287,24.02836],[86.33755,24.02771],[86.34232,24.02669],[86.34283,24.0236],[86.3425,24.0211],[86.34051,24.01869],[86.33597,24.01795],[86.33215,24.01636],[86.32817,24.01329],[86.32635,24.01085],[86.32321,24.00653],[86.31545,23.99766],[86.3052,23.99044],[86.30317,23.984],[86.30509,23.97783],[86.30286,23.97429],[86.30086,23.96676],[86.2901,23.94588],[86.29275,23.91424],[86.2798,23.93306],[86.27454,23.93221],[86.26896,23.92965],[86.26276,23.93002],[86.25903,23.93129],[86.24549,23.94208],[86.24143,23.94332],[86.22238,23.94619],[86.21284,23.94492],[86.2051,23.94779],[86.19786,23.94838],[86.18616,23.9451],[86.18074,23.94504],[86.17274,23.94266],[86.16507,23.93801],[86.16062,23.93766],[86.15193,23.93489],[86.13724,23.93649],[86.13429,23.9312],[86.12985,23.91886],[86.1315,23.91259],[86.12849,23.91038],[86.12723,23.90239],[86.12385,23.89732],[86.12041,23.89549],[86.11914,23.89397],[86.11329,23.89263],[86.11239,23.89073],[86.09478,23.88922],[86.07131,23.89544],[86.06252,23.89834],[86.05667,23.90189],[86.05144,23.90357],[86.04323,23.90177],[86.03589,23.89911],[86.03206,23.89871],[86.02871,23.89995],[86.02669,23.90178],[86.02516,23.90553],[86.02213,23.90933],[86.01801,23.91134],[86.00988,23.9111],[86.006,23.90969],[86.00151,23.90793],[85.99871,23.90641],[85.98835,23.902],[85.98347,23.90007],[85.9775,23.89827],[85.96856,23.89779],[85.95998,23.89877],[85.95726,23.90053],[85.95386,23.9073],[85.95293,23.91112],[85.95245,23.91898],[85.95207,23.92516],[85.95028,23.92975],[85.94711,23.93273],[85.9453,23.9327],[85.94289,23.93049],[85.94088,23.92952],[85.93469,23.92648],[85.93115,23.92597],[85.93006,23.9285],[85.93138,23.93527],[85.93091,23.94257],[85.92875,23.94791],[85.92549,23.95126],[85.91981,23.95424],[85.91971,23.95583],[85.92338,23.95623],[85.92957,23.95538],[85.93383,23.9626],[85.93441,23.9694],[85.92704,23.97836],[85.92206,23.97774],[85.9206,23.98102],[85.91589,23.98152],[85.91375,23.98466],[85.90627,23.98763],[85.90221,23.98801],[85.89852,23.99163],[85.89652,24.00343],[85.89553,24.01216],[85.89146,24.01686],[85.88723,24.01928],[85.88346,24.02028],[85.88437,24.0259],[85.89184,24.03167],[85.89165,24.03403],[85.88135,24.03436],[85.87919,24.03839],[85.87694,24.03784],[85.8743,24.03845],[85.87285,24.04225],[85.87351,24.046],[85.87046,24.04998],[85.86842,24.04913],[85.86587,24.05067],[85.8679,24.054],[85.86574,24.05615],[85.86087,24.05353],[85.85742,24.05318],[85.8505,24.05611],[85.85024,24.05893],[85.84657,24.06079],[85.84494,24.06268],[85.84794,24.06667],[85.84537,24.06856],[85.84074,24.06565],[85.8389,24.06579],[85.83495,24.06758],[85.83431,24.0709],[85.83077,24.07378],[85.82493,24.07704],[85.82044,24.07831],[85.8181,24.07728],[85.80994,24.07016],[85.80567,24.07013],[85.79784,24.07188],[85.79545,24.07363],[85.79963,24.08236],[85.79263,24.08432],[85.78004,24.08936],[85.76776,24.09601],[85.77294,24.10645],[85.76561,24.10857],[85.76136,24.10494],[85.75714,24.10317],[85.74766,24.10544],[85.74072,24.10523],[85.7359,24.10243],[85.7331,24.09983],[85.73042,24.10012],[85.73039,24.10014],[85.72671,24.10298],[85.71804,24.10316],[85.71507,24.10477],[85.70789,24.10514],[85.70988,24.11455],[85.70963,24.11928],[85.71242,24.12391],[85.70776,24.13012],[85.70163,24.13535],[85.68851,24.14517],[85.67862,24.14912],[85.66983,24.15612],[85.67319,24.16134],[85.67467,24.1674],[85.67535,24.17352],[85.67866,24.18286],[85.71199,24.1931],[85.72554,24.19595],[85.73016,24.19823],[85.73182,24.20256],[85.73171,24.20616],[85.7388,24.2061],[85.74261,24.20763],[85.74845,24.20792],[85.7575,24.21069],[85.76455,24.21706],[85.77241,24.21391],[85.7831,24.2166],[85.79301,24.22096],[85.79814,24.23018],[85.8007,24.23207],[85.80704,24.22651],[85.81108,24.22403],[85.81766,24.2176],[85.81948,24.21984],[85.82781,24.22358],[85.83542,24.22286],[85.84413,24.22394],[85.84618,24.22298],[85.84998,24.21883],[85.85354,24.21741],[85.85692,24.21929],[85.85257,24.22425],[85.85321,24.22981],[85.85529,24.23535],[85.85552,24.24173],[85.85041,24.25481],[85.84876,24.25762],[85.84483,24.25876],[85.83928,24.25858],[85.83458,24.25956],[85.83317,24.26386],[85.85099,24.27742],[85.85667,24.2831],[85.85745,24.28715],[85.86016,24.29216],[85.86986,24.29479],[85.86979,24.29995],[85.87135,24.30509],[85.86836,24.31238],[85.86904,24.31735],[85.86667,24.31866],[85.86635,24.32138],[85.86776,24.32502],[85.86787,24.32989],[85.86615,24.3349],[85.86349,24.33429],[85.85985,24.33525],[85.85492,24.3349],[85.85128,24.33546],[85.8502,24.34081],[85.8446,24.3473],[85.84465,24.35269],[85.84734,24.35754],[85.84831,24.3613],[85.85242,24.36775],[85.85019,24.37289],[85.85124,24.37774],[85.84766,24.38132],[85.85071,24.3912],[85.85003,24.3951],[85.85218,24.401],[85.84927,24.40717],[85.84898,24.41101],[85.85289,24.42008],[85.84125,24.42792],[85.83775,24.42952],[85.83615,24.43174],[85.83172,24.44652],[85.83204,24.44983],[85.83904,24.4555],[85.84354,24.45974],[85.84859,24.46312],[85.85095,24.4668],[85.85344,24.46875],[85.86271,24.48983],[85.8667,24.50308],[85.86399,24.51298],[85.86787,24.52686],[85.86654,24.52978],[85.85347,24.5396],[85.84017,24.5474],[85.8361,24.54902],[85.82571,24.55045],[85.81713,24.5506],[85.81221,24.55135],[85.8099,24.55259],[85.80817,24.5576],[85.80472,24.55874],[85.80679,24.56475],[85.80574,24.56911],[85.80681,24.57624],[85.8019,24.58018],[85.79454,24.59204],[85.79454,24.59877],[85.79666,24.60368],[85.80144,24.6088],[85.80359,24.61272],[85.79004,24.60763],[85.78627,24.60872],[85.77713,24.61311],[85.77145,24.6138],[85.76758,24.61634],[85.76473,24.62599],[85.76638,24.62941],[85.77508,24.63896],[85.77998,24.64727],[85.78524,24.65168],[85.7862,24.65915],[85.79018,24.66533],[85.7955,24.66986],[85.80106,24.67322],[85.80986,24.67394],[85.82801,24.66748],[85.83406,24.66974],[85.84103,24.67048],[85.84209,24.67274],[85.83729,24.67992],[85.83706,24.6848],[85.83385,24.68571],[85.83292,24.69297],[85.82985,24.69834],[85.82894,24.7063],[85.82708,24.71148],[85.82102,24.71596],[85.81988,24.72242],[85.82236,24.72976],[85.83023,24.73507],[85.83882,24.73742],[85.84765,24.73883],[85.85491,24.73818],[85.85792,24.7425],[85.86259,24.7417],[85.86539,24.73847],[85.8769,24.74004],[85.88482,24.73852],[85.89346,24.73582],[85.89505,24.73883],[85.89513,24.74151],[85.88983,24.74818],[85.8908,24.75405],[85.89755,24.75463],[85.90052,24.75396],[85.90189,24.75535],[85.9016,24.75639],[85.91141,24.76157],[85.91735,24.75397],[85.92778,24.74488],[85.93449,24.74083],[85.94949,24.73476],[85.95709,24.73247],[85.96743,24.73206],[85.9729,24.73264],[85.97695,24.73394],[85.9795,24.73665],[85.98267,24.74632],[85.98404,24.74799],[86.00675,24.75173],[86.01288,24.76602],[86.01635,24.76833],[86.02076,24.76934],[86.02644,24.76811],[86.0295,24.76972],[86.03455,24.77064],[86.03855,24.7731],[86.04122,24.77652],[86.04574,24.77701],[86.0498,24.77775],[86.05462,24.77864],[86.05733,24.77989],[86.05937,24.77354],[86.05962,24.76807],[86.05974,24.76212],[86.05658,24.75615],[86.05209,24.75228],[86.04828,24.74828],[86.04275,24.74772],[86.04356,24.74421],[86.0458,24.7417],[86.04944,24.74426],[86.06176,24.74674],[86.06715,24.74807],[86.06992,24.75205],[86.09327,24.74674],[86.11221,24.7364],[86.11598,24.73267],[86.1176,24.72447],[86.12263,24.71933],[86.1253,24.71211],[86.13108,24.70564],[86.13574,24.69052],[86.13863,24.68089],[86.14023,24.67602],[86.13664,24.67197],[86.13258,24.67131],[86.13511,24.66649],[86.13292,24.65475],[86.12976,24.64847],[86.12486,24.64243],[86.12846,24.63061],[86.1286,24.62449],[86.12982,24.62025],[86.1322,24.61239],[86.13734,24.60951],[86.13986,24.60412],[86.15119,24.60364],[86.15882,24.6003],[86.16353,24.58985],[86.1722,24.5843],[86.20145,24.5858],[86.22223,24.59181],[86.22308,24.60343],[86.22391,24.61239],[86.23677,24.6029],[86.24524,24.59745],[86.24936,24.59278],[86.25502,24.58579],[86.26396,24.58381],[86.26799,24.57758],[86.2706,24.57652],[86.27271,24.58262],[86.27615,24.57848],[86.27993,24.57631],[86.28334,24.57489],[86.28257,24.57976],[86.28025,24.58343],[86.28685,24.58486],[86.29481,24.58502],[86.29906,24.58677],[86.30811,24.58385],[86.31649,24.58226],[86.31865,24.58657],[86.32927,24.58479],[86.3291,24.58127],[86.32498,24.57962],[86.3258,24.57517],[86.31741,24.56889],[86.31452,24.56643],[86.31624,24.56381],[86.31047,24.55901],[86.31625,24.54808],[86.31457,24.54157],[86.30776,24.53273],[86.3097,24.52848],[86.31391,24.52711],[86.31695,24.51459],[86.31881,24.50925],[86.31611,24.50714],[86.30988,24.49906],[86.30802,24.49433],[86.30462,24.4898],[86.30412,24.48333],[86.30026,24.47724],[86.29195,24.47761],[86.28822,24.47129],[86.28552,24.46281],[86.30726,24.45763],[86.30518,24.4551],[86.30593,24.44984],[86.31011,24.44569],[86.32189,24.44477],[86.32583,24.44103],[86.33905,24.44106],[86.35414,24.44137],[86.35703,24.44458],[86.3598,24.44293],[86.36901,24.42769],[86.37418,24.42515],[86.37956,24.41677],[86.38751,24.41327],[86.40494,24.40123],[86.40725,24.39722],[86.42182,24.38018],[86.43135,24.3791],[86.43691,24.37712],[86.44033,24.37784],[86.45251,24.36944],[86.4584,24.36963]]]}}]}