{"type":"FeatureCollection","features":[{"type":"Feature","properties":{"id":"godda","name":"Godda","stateId":"jharkhand","stateName":"Jharkhand","censuscode":351,"type":"district"},"geometry":{"type":"Polygon","coordinates":[[[87.47809,25.19519],[87.48345,25.17504],[87.49488,25.1529],[87.50027,25.13721],[87.47641,25.10605],[87.47976,25.1008],[87.48675,25.09845],[87.49238,25.09397],[87.49522,25.08563],[87.49879,25.08267],[87.50272,25.07532],[87.5121,25.06575],[87.51977,25.06193],[87.52303,25.05778],[87.51918,25.05735],[87.51452,25.05449],[87.50996,25.05484],[87.50957,25.05589],[87.50676,25.05209],[87.511,25.04019],[87.50566,25.02745],[87.49812,25.01882],[87.49214,25.0156],[87.48886,25.0151],[87.48274,25.01172],[87.475,25.00085],[87.46872,24.99376],[87.46696,24.98985],[87.46876,24.98705],[87.47296,24.98519],[87.4772,24.98246],[87.47806,24.97787],[87.47791,24.97231],[87.47747,24.96763],[87.47508,24.96801],[87.47356,24.96155],[87.47202,24.95417],[87.46592,24.95276],[87.46644,24.94743],[87.46252,24.94276],[87.46238,24.93743],[87.45908,24.93287],[87.45928,24.92807],[87.45916,24.92329],[87.45997,24.91692],[87.4647,24.91759],[87.46985,24.91676],[87.46934,24.91163],[87.46879,24.90726],[87.46714,24.90278],[87.4641,24.89861],[87.46035,24.89619],[87.45491,24.89397],[87.45659,24.88852],[87.45962,24.88444],[87.46428,24.88021],[87.46807,24.87656],[87.4679,24.87293],[87.45933,24.87064],[87.45997,24.86146],[87.46552,24.86258],[87.46975,24.85813],[87.47481,24.8603],[87.47827,24.86035],[87.47943,24.8578],[87.47489,24.85666],[87.47272,24.85439],[87.47706,24.85467],[87.47638,24.85],[87.47974,24.84689],[87.47946,24.84435],[87.47844,24.83733],[87.47963,24.83137],[87.48353,24.82732],[87.48431,24.82298],[87.48689,24.81786],[87.4915,24.81438],[87.49496,24.80959],[87.49855,24.80492],[87.50436,24.8013],[87.51201,24.79803],[87.51096,24.79735],[87.50145,24.79116],[87.49733,24.78869],[87.49961,24.78611],[87.4963,24.78392],[87.49304,24.78438],[87.4898,24.78559],[87.48738,24.78777],[87.48569,24.78831],[87.48355,24.78817],[87.48084,24.78799],[87.47602,24.78894],[87.4702,24.79012],[87.46527,24.79285],[87.46181,24.79257],[87.45947,24.78776],[87.45659,24.78105],[87.45305,24.7762],[87.44862,24.77097],[87.44319,24.76551],[87.43872,24.76131],[87.43744,24.75637],[87.43788,24.75267],[87.44069,24.75113],[87.44458,24.75083],[87.44864,24.74581],[87.45382,24.73949],[87.45714,24.73551],[87.45979,24.73241],[87.45733,24.72841],[87.45722,24.72547],[87.46286,24.72428],[87.46435,24.72027],[87.46521,24.71524],[87.46506,24.71022],[87.46581,24.70571],[87.46947,24.69941],[87.47125,24.69316],[87.47282,24.68604],[87.46952,24.6802],[87.47178,24.6729],[87.47282,24.66722],[87.47367,24.65861],[87.47229,24.65136],[87.46978,24.64748],[87.46631,24.64298],[87.46089,24.63793],[87.45505,24.63427],[87.45134,24.62983],[87.44919,24.62565],[87.4495,24.62086],[87.45026,24.61796],[87.45318,24.61612],[87.46172,24.61627],[87.46382,24.61041],[87.46625,24.602],[87.45754,24.59585],[87.45746,24.59101],[87.45775,24.58564],[87.46172,24.58275],[87.46583,24.58094],[87.46948,24.57812],[87.46898,24.57449],[87.46613,24.56975],[87.46254,24.56814],[87.45863,24.56687],[87.45287,24.56408],[87.44714,24.56354],[87.4409,24.56537],[87.43886,24.55957],[87.43446,24.55913],[87.42816,24.55756],[87.42399,24.55571],[87.42238,24.55274],[87.42062,24.54879],[87.41724,24.54584],[87.41198,24.54639],[87.40969,24.54435],[87.40893,24.54043],[87.4085,24.53693],[87.40636,24.53672],[87.40536,24.54049],[87.40296,24.5437],[87.39993,24.5464],[87.39537,24.547],[87.39202,24.54544],[87.39271,24.54179],[87.39234,24.53498],[87.39055,24.52855],[87.38984,24.52348],[87.39064,24.51862],[87.39402,24.51407],[87.39785,24.51078],[87.40561,24.50598],[87.40477,24.50164],[87.40019,24.50147],[87.39485,24.50191],[87.3882,24.50236],[87.38113,24.50421],[87.37812,24.5079],[87.37778,24.51333],[87.37542,24.51835],[87.37236,24.52284],[87.36806,24.52806],[87.36349,24.53553],[87.35967,24.54045],[87.35684,24.5439],[87.35276,24.54686],[87.3492,24.55194],[87.34622,24.55731],[87.3429,24.56106],[87.34063,24.56087],[87.33667,24.564],[87.33383,24.56682],[87.3325,24.57014],[87.33284,24.57459],[87.33263,24.57736],[87.3311,24.57924],[87.32836,24.58114],[87.32532,24.58292],[87.32066,24.58589],[87.3167,24.58908],[87.31569,24.59233],[87.31433,24.59657],[87.30973,24.5959],[87.3029,24.59723],[87.29759,24.59571],[87.29147,24.5976],[87.2878,24.59986],[87.28457,24.60159],[87.28114,24.60304],[87.27773,24.60235],[87.27428,24.59929],[87.27036,24.59427],[87.26513,24.59107],[87.25932,24.58967],[87.25401,24.58814],[87.24907,24.58574],[87.24388,24.5874],[87.23724,24.58885],[87.23236,24.59027],[87.22581,24.5923],[87.22338,24.59009],[87.21936,24.58767],[87.21492,24.58885],[87.21233,24.59162],[87.20984,24.59312],[87.20691,24.5937],[87.20155,24.59652],[87.19647,24.60101],[87.19195,24.60464],[87.18821,24.60697],[87.1824,24.60609],[87.17909,24.60784],[87.17565,24.61155],[87.1718,24.61494],[87.16598,24.61464],[87.16117,24.61347],[87.15612,24.61391],[87.15104,24.61616],[87.1457,24.61898],[87.1403,24.6225],[87.13623,24.62627],[87.13205,24.62854],[87.128,24.62808],[87.12355,24.62809],[87.11949,24.62901],[87.11243,24.62932],[87.10869,24.63022],[87.10268,24.6322],[87.09821,24.63481],[87.09238,24.63776],[87.08818,24.63722],[87.0822,24.63694],[87.07758,24.6393],[87.071,24.64209],[87.06524,24.64242],[87.06089,24.63927],[87.05787,24.63382],[87.05574,24.62683],[87.05026,24.62497],[87.05168,24.63184],[87.05468,24.63795],[87.05628,24.64437],[87.05689,24.65019],[87.05826,24.65643],[87.06065,24.6616],[87.06121,24.66599],[87.0606,24.6715],[87.06482,24.67315],[87.06606,24.67811],[87.06722,24.68242],[87.06971,24.68593],[87.07292,24.68936],[87.07522,24.69213],[87.07652,24.69538],[87.07678,24.69973],[87.07728,24.704],[87.07714,24.70822],[87.07854,24.71177],[87.07959,24.71338],[87.08252,24.71546],[87.08363,24.71965],[87.0862,24.72283],[87.08777,24.72539],[87.08826,24.72785],[87.0873,24.7301],[87.08711,24.7335],[87.08724,24.73678],[87.08631,24.73782],[87.08441,24.73699],[87.08296,24.7365],[87.08153,24.73727],[87.08168,24.73899],[87.08228,24.74076],[87.07991,24.74138],[87.07951,24.74391],[87.08049,24.74556],[87.08239,24.74633],[87.08574,24.74742],[87.08753,24.74917],[87.08714,24.75159],[87.0869,24.75251],[87.08902,24.75448],[87.091,24.75664],[87.09224,24.75914],[87.09079,24.76232],[87.08933,24.76533],[87.08847,24.76879],[87.08849,24.77378],[87.08879,24.78004],[87.09155,24.78326],[87.09398,24.78604],[87.09717,24.78892],[87.09882,24.79308],[87.10162,24.79838],[87.10263,24.80227],[87.10255,24.80481],[87.09991,24.80519],[87.09669,24.80346],[87.09483,24.80487],[87.09229,24.80668],[87.08942,24.80736],[87.08735,24.80815],[87.08675,24.81028],[87.08329,24.80913],[87.0831,24.81258],[87.08358,24.81498],[87.08328,24.81889],[87.08454,24.82301],[87.08634,24.82511],[87.09021,24.82396],[87.09372,24.82379],[87.09718,24.82431],[87.10093,24.82695],[87.10351,24.8306],[87.10566,24.83551],[87.10838,24.84001],[87.11061,24.84522],[87.11203,24.84807],[87.11548,24.85152],[87.12045,24.85628],[87.12513,24.85471],[87.12931,24.85373],[87.13328,24.85521],[87.13578,24.85823],[87.13869,24.86031],[87.14477,24.85999],[87.15047,24.85996],[87.15691,24.85917],[87.15763,24.86382],[87.15328,24.86314],[87.15388,24.86861],[87.15558,24.87313],[87.16047,24.87719],[87.16249,24.88143],[87.16407,24.88635],[87.16419,24.89027],[87.16293,24.8968],[87.1603,24.90081],[87.15621,24.90387],[87.15475,24.90579],[87.15372,24.90886],[87.15249,24.91354],[87.15363,24.91848],[87.15569,24.9219],[87.15868,24.92462],[87.1606,24.92719],[87.16132,24.93236],[87.15813,24.9372],[87.1546,24.94278],[87.15479,24.95003],[87.15678,24.9564],[87.1586,24.96364],[87.15795,24.96925],[87.15806,24.97506],[87.15903,24.98376],[87.15973,24.99158],[87.15253,25.00047],[87.15204,25.00416],[87.15055,25.00702],[87.14995,25.01138],[87.15027,25.01856],[87.15285,25.02489],[87.15512,25.02682],[87.15839,25.0271],[87.16442,25.03158],[87.17105,25.04339],[87.17111,25.04644],[87.17435,25.04932],[87.17457,25.04952],[87.17934,25.05704],[87.17991,25.05856],[87.18273,25.06457],[87.1904,25.06757],[87.19384,25.06756],[87.20355,25.07421],[87.20593,25.07999],[87.21438,25.08387],[87.21679,25.0858],[87.21742,25.09014],[87.22171,25.09073],[87.22403,25.08909],[87.23316,25.08812],[87.23993,25.08637],[87.24593,25.1],[87.24712,25.10134],[87.25137,25.09962],[87.2553,25.10592],[87.25663,25.10639],[87.2648,25.10515],[87.26911,25.10137],[87.27048,25.09833],[87.27627,25.0942],[87.28092,25.09275],[87.29161,25.09148],[87.29712,25.08984],[87.30136,25.10026],[87.29881,25.10524],[87.30088,25.11247],[87.30091,25.11437],[87.29929,25.11489],[87.30396,25.13519],[87.30591,25.13512],[87.30946,25.13866],[87.30844,25.14112],[87.30949,25.14373],[87.30776,25.14442],[87.30833,25.14584],[87.31402,25.1508],[87.31567,25.15407],[87.31647,25.16083],[87.32042,25.16327],[87.32108,25.16555],[87.32043,25.16787],[87.31906,25.16976],[87.3167,25.17031],[87.32208,25.18679],[87.32318,25.18917],[87.3218,25.19347],[87.32204,25.19743],[87.32443,25.20172],[87.32955,25.22355],[87.33661,25.22265],[87.33652,25.21753],[87.35383,25.21365],[87.36114,25.21388],[87.36407,25.2117],[87.3745,25.20738],[87.37593,25.20554],[87.37999,25.21902],[87.38319,25.22309],[87.38933,25.22395],[87.39251,25.22619],[87.39782,25.22799],[87.40264,25.22619],[87.40817,25.22189],[87.41366,25.2195],[87.4155,25.21563],[87.4226,25.21541],[87.46106,25.19802],[87.46379,25.19832],[87.46788,25.19568],[87.4728,25.19618],[87.47358,25.19367],[87.47809,25.19519]]]}}]}