{"type":"FeatureCollection","features":[{"type":"Feature","properties":{"id":"jamtara","name":"Jamtara","stateId":"jharkhand","stateName":"Jharkhand","censuscode":363,"type":"district"},"geometry":{"type":"Polygon","coordinates":[[[86.97947,24.10939],[86.97956,24.10942],[86.98112,24.11405],[86.9805,24.11934],[86.98204,24.12544],[86.98522,24.12853],[86.9905,24.12783],[86.99687,24.12671],[86.99735,24.12631],[87.0003,24.12701],[87.02159,24.12871],[87.02494,24.13298],[87.02671,24.1377],[87.02583,24.14189],[87.02399,24.1451],[87.02206,24.14842],[87.02358,24.14863],[87.027,24.14497],[87.02884,24.14379],[87.02992,24.14327],[87.0358,24.14106],[87.04026,24.13938],[87.04483,24.13737],[87.04602,24.13685],[87.04634,24.1367],[87.04907,24.13512],[87.05219,24.1333],[87.05702,24.12801],[87.05863,24.12618],[87.06054,24.1219],[87.06069,24.12157],[87.06281,24.11815],[87.06862,24.1141],[87.07346,24.11133],[87.07429,24.11085],[87.08253,24.10581],[87.08555,24.10595],[87.08882,24.10506],[87.09209,24.10435],[87.09478,24.1058],[87.09897,24.10708],[87.10152,24.10594],[87.10124,24.10255],[87.09935,24.09931],[87.10131,24.09655],[87.10514,24.09499],[87.10617,24.0919],[87.10724,24.08752],[87.10897,24.08255],[87.113,24.0772],[87.11427,24.07105],[87.11668,24.06569],[87.12003,24.06074],[87.12477,24.05592],[87.13009,24.05013],[87.13645,24.0454],[87.14154,24.04296],[87.14741,24.04388],[87.15425,24.04218],[87.16466,24.03489],[87.16533,24.0345],[87.17036,24.03211],[87.17723,24.03124],[87.1828,24.03015],[87.19258,24.02853],[87.1988,24.02728],[87.2079,24.02842],[87.21587,24.0273],[87.22207,24.02507],[87.23091,24.02512],[87.238,24.02623],[87.2407,24.01922],[87.24455,24.01645],[87.24566,24.01234],[87.24589,24.0074],[87.24886,24.0027],[87.2507,24.00024],[87.25109,23.99971],[87.25145,23.99934],[87.25217,23.99873],[87.25258,23.99846],[87.25301,23.99822],[87.25346,23.99801],[87.25392,23.99783],[87.2544,23.99768],[87.2549,23.99756],[87.25539,23.99747],[87.25589,23.99742],[87.25639,23.9974],[87.25689,23.99742],[87.25738,23.99747],[87.2579,23.99756],[87.25841,23.99768],[87.25891,23.99785],[87.25938,23.99806],[87.25981,23.9983],[87.26022,23.99857],[87.26059,23.99887],[87.26094,23.99921],[87.26124,23.99958],[87.26151,23.99996],[87.2617,24.00079],[87.26248,24.00147],[87.2661,24.00459],[87.26799,24.00081],[87.26734,23.99679],[87.2722,23.98949],[87.2733,23.98634],[87.2713,23.98355],[87.26601,23.97981],[87.2648,23.97164],[87.26681,23.96789],[87.26979,23.96521],[87.27451,23.96705],[87.28329,23.9593],[87.29192,23.95924],[87.29706,23.95745],[87.29572,23.94921],[87.29715,23.94052],[87.29034,23.93566],[87.29304,23.92774],[87.2929,23.92202],[87.29973,23.90039],[87.29588,23.90052],[87.29779,23.89197],[87.29071,23.88543],[87.28649,23.88603],[87.28353,23.88378],[87.27563,23.87479],[87.27012,23.87667],[87.26697,23.88001],[87.26935,23.8818],[87.26612,23.894],[87.26155,23.89996],[87.2651,23.90392],[87.26443,23.90601],[87.26189,23.90939],[87.25768,23.9119],[87.25347,23.90881],[87.24957,23.90219],[87.25132,23.89675],[87.24834,23.88668],[87.25053,23.88244],[87.24966,23.87992],[87.2501,23.87025],[87.25428,23.8677],[87.25132,23.85844],[87.25265,23.85317],[87.25674,23.84953],[87.2579,23.84474],[87.26041,23.84119],[87.25093,23.82996],[87.24794,23.82806],[87.24401,23.82675],[87.23898,23.82724],[87.23435,23.8249],[87.22498,23.82909],[87.22378,23.83268],[87.22757,23.8367],[87.22935,23.84455],[87.2332,23.84477],[87.23695,23.84643],[87.24036,23.85011],[87.24146,23.85493],[87.23306,23.85715],[87.22773,23.85949],[87.222,23.8528],[87.21807,23.85213],[87.21257,23.85487],[87.20829,23.84804],[87.20471,23.84936],[87.19958,23.84398],[87.19691,23.8423],[87.19383,23.8427],[87.19397,23.84817],[87.20067,23.85272],[87.20092,23.85611],[87.19263,23.85903],[87.18954,23.85476],[87.18586,23.85339],[87.1819,23.85431],[87.17823,23.85807],[87.1744,23.85964],[87.17198,23.86233],[87.16199,23.86672],[87.15821,23.86742],[87.15281,23.86451],[87.14609,23.86693],[87.14391,23.86922],[87.14114,23.86996],[87.13626,23.86878],[87.13318,23.86427],[87.13497,23.85997],[87.13475,23.85674],[87.13565,23.85275],[87.14303,23.84766],[87.15111,23.83847],[87.15928,23.82762],[87.16442,23.83018],[87.16749,23.8295],[87.17172,23.82147],[87.16118,23.80562],[87.15891,23.80036],[87.15402,23.79629],[87.14883,23.79827],[87.14448,23.80196],[87.1389,23.79825],[87.12946,23.79695],[87.1183,23.79872],[87.11557,23.80096],[87.11997,23.80198],[87.12163,23.80386],[87.12141,23.80669],[87.11789,23.80743],[87.11302,23.80376],[87.11124,23.80142],[87.10104,23.81138],[87.09664,23.8115],[87.09373,23.80969],[87.08985,23.80714],[87.08197,23.81099],[87.07813,23.81421],[87.06959,23.81537],[87.06231,23.81813],[87.0398,23.83866],[87.02784,23.84235],[87.01887,23.84876],[87.0075,23.85429],[86.99998,23.85533],[86.98557,23.85818],[86.97733,23.86462],[86.97239,23.86708],[86.96852,23.86656],[86.96504,23.86409],[86.96319,23.86093],[86.96124,23.8514],[86.95671,23.84767],[86.94868,23.84466],[86.94187,23.84667],[86.93363,23.85176],[86.93091,23.85562],[86.92968,23.86764],[86.91242,23.88126],[86.90921,23.88071],[86.90056,23.88169],[86.89692,23.87814],[86.89016,23.87509],[86.88563,23.86825],[86.88082,23.86414],[86.88093,23.85922],[86.8878,23.85838],[86.88572,23.84399],[86.89033,23.83617],[86.89026,23.83229],[86.89243,23.82913],[86.89321,23.82398],[86.8899,23.82101],[86.88779,23.8163],[86.88247,23.81527],[86.88247,23.82314],[86.87883,23.82903],[86.87864,23.83627],[86.87677,23.84596],[86.86641,23.84395],[86.8626,23.84129],[86.86003,23.83427],[86.84999,23.82365],[86.84059,23.82106],[86.83149,23.81501],[86.82634,23.81312],[86.81939,23.81396],[86.81488,23.81593],[86.81261,23.81994],[86.81346,23.82634],[86.81205,23.82988],[86.80927,23.83246],[86.80579,23.83441],[86.803,23.83364],[86.79845,23.83315],[86.7867,23.85797],[86.78269,23.86277],[86.77749,23.86643],[86.77333,23.87251],[86.76962,23.87609],[86.76577,23.87847],[86.74883,23.88379],[86.74335,23.88123],[86.73401,23.87447],[86.73113,23.87643],[86.72476,23.8841],[86.72205,23.89206],[86.71952,23.90706],[86.71274,23.91699],[86.70678,23.92298],[86.69003,23.9255],[86.67242,23.93664],[86.65815,23.94004],[86.64745,23.94592],[86.64234,23.9518],[86.60023,23.97474],[86.5968,23.98051],[86.58693,23.99022],[86.57976,23.99914],[86.57391,24.00156],[86.54217,24.00562],[86.52448,23.99905],[86.51744,24.00047],[86.50454,24.00715],[86.50204,24.00983],[86.50044,24.01151],[86.4984,24.01294],[86.49679,24.01386],[86.49501,24.01418],[86.49291,24.01365],[86.49126,24.01291],[86.48826,24.01141],[86.48601,24.01059],[86.48293,24.01029],[86.48045,24.01119],[86.47752,24.01323],[86.47395,24.01532],[86.47089,24.01797],[86.4747,24.02021],[86.48161,24.02213],[86.48675,24.02347],[86.48682,24.02945],[86.48091,24.02604],[86.48031,24.03443],[86.48381,24.04413],[86.48928,24.04415],[86.4933,24.04545],[86.49918,24.04453],[86.50704,24.04978],[86.51585,24.05166],[86.52125,24.05329],[86.53292,24.0566],[86.53539,24.06298],[86.53858,24.06877],[86.54387,24.07245],[86.54735,24.07697],[86.54801,24.08526],[86.55179,24.09645],[86.55565,24.09927],[86.55815,24.10228],[86.56104,24.11164],[86.56415,24.12352],[86.56747,24.12699],[86.56793,24.13509],[86.57045,24.1395],[86.57571,24.14015],[86.57677,24.1423],[86.5808,24.14223],[86.5842,24.14122],[86.58891,24.14048],[86.59223,24.14342],[86.59546,24.14386],[86.59979,24.1433],[86.60543,24.14186],[86.60983,24.14205],[86.61325,24.14283],[86.61881,24.14086],[86.62245,24.13886],[86.62554,24.13772],[86.63515,24.13747],[86.64587,24.1361],[86.65212,24.13442],[86.65757,24.13357],[86.66478,24.13379],[86.6685,24.13446],[86.67422,24.13452],[86.67709,24.13589],[86.68025,24.139],[86.68253,24.14316],[86.68499,24.14644],[86.68531,24.15184],[86.68616,24.15624],[86.68897,24.1619],[86.6905,24.16629],[86.69489,24.16897],[86.69988,24.16597],[86.70223,24.16427],[86.70674,24.16202],[86.70883,24.15562],[86.71022,24.14726],[86.70453,24.14447],[86.69855,24.14382],[86.69544,24.14241],[86.69334,24.13349],[86.69264,24.12207],[86.69537,24.11676],[86.70077,24.11126],[86.7056,24.11035],[86.71263,24.11076],[86.71837,24.10775],[86.73032,24.10399],[86.74389,24.09953],[86.75208,24.09842],[86.75713,24.09814],[86.76196,24.09137],[86.75604,24.08591],[86.75923,24.08235],[86.76546,24.07777],[86.768,24.07149],[86.77473,24.07254],[86.78275,24.06996],[86.7882,24.07177],[86.78814,24.0828],[86.79389,24.08396],[86.79799,24.08838],[86.80425,24.08422],[86.80836,24.08911],[86.80978,24.08811],[86.8105,24.08027],[86.8136,24.0781],[86.82283,24.07766],[86.83329,24.05649],[86.84374,24.05627],[86.84694,24.06199],[86.86213,24.06583],[86.86767,24.06854],[86.87349,24.06685],[86.87784,24.06905],[86.87894,24.0728],[86.88197,24.07484],[86.89174,24.07072],[86.9017,24.06475],[86.91262,24.06681],[86.91797,24.06466],[86.91313,24.05972],[86.91846,24.05386],[86.93069,24.04787],[86.94351,24.0446],[86.95161,24.04542],[86.95941,24.05002],[86.95642,24.05578],[86.96381,24.06143],[86.97312,24.06259],[86.97297,24.07407],[86.97658,24.08032],[86.97573,24.08869],[86.97258,24.09974],[86.97947,24.10939]]]}}]}