{"type":"FeatureCollection","features":[{"type":"Feature","properties":{"id":"khunti","name":"Khunti","stateId":"jharkhand","stateName":"Jharkhand","censuscode":365,"type":"district"},"geometry":{"type":"Polygon","coordinates":[[[85.61387,22.93333],[85.6071,22.93568],[85.59326,22.92188],[85.58342,22.90988],[85.58096,22.90565],[85.58219,22.89975],[85.58348,22.89819],[85.5911,22.89861],[85.60357,22.89544],[85.60038,22.89161],[85.59146,22.8854],[85.58808,22.88083],[85.58039,22.86599],[85.56196,22.86133],[85.56061,22.86573],[85.56086,22.87418],[85.56001,22.88061],[85.54888,22.87451],[85.54384,22.86975],[85.54138,22.86599],[85.53407,22.86846],[85.53426,22.86568],[85.53063,22.86371],[85.53254,22.85329],[85.52842,22.84472],[85.52327,22.84326],[85.52142,22.83637],[85.52093,22.8304],[85.51491,22.82888],[85.51694,22.82026],[85.51687,22.80856],[85.51683,22.80855],[85.51259,22.80735],[85.50466,22.8005],[85.50036,22.80009],[85.49177,22.80319],[85.48256,22.80456],[85.4712,22.79984],[85.46413,22.80023],[85.45799,22.80166],[85.45407,22.80547],[85.45302,22.80981],[85.44921,22.8182],[85.44772,22.81924],[85.44374,22.81958],[85.4406,22.82165],[85.43826,22.82911],[85.43562,22.83275],[85.43243,22.83529],[85.42057,22.83161],[85.41805,22.83577],[85.4143,22.83668],[85.40814,22.84385],[85.4009,22.84423],[85.39028,22.84136],[85.38831,22.84622],[85.39186,22.85469],[85.38951,22.86319],[85.38576,22.86509],[85.37421,22.86175],[85.3731,22.8621],[85.35804,22.87136],[85.35668,22.87849],[85.35255,22.88009],[85.34383,22.87954],[85.34254,22.88498],[85.33375,22.88222],[85.32141,22.88073],[85.31827,22.88246],[85.31494,22.88239],[85.31279,22.88429],[85.30996,22.88277],[85.30863,22.8771],[85.30574,22.87431],[85.29898,22.87509],[85.29112,22.87298],[85.28959,22.8703],[85.28781,22.87214],[85.28634,22.86902],[85.2829,22.87028],[85.28172,22.8694],[85.27781,22.86412],[85.27615,22.86046],[85.27375,22.86201],[85.26878,22.85973],[85.26885,22.8562],[85.26688,22.85446],[85.26769,22.84971],[85.2661,22.84576],[85.26205,22.84471],[85.25897,22.84654],[85.25604,22.84387],[85.24961,22.83463],[85.24426,22.83443],[85.23479,22.83706],[85.22858,22.83772],[85.22299,22.83393],[85.21602,22.82411],[85.20633,22.81855],[85.20057,22.81436],[85.19792,22.8177],[85.19602,22.81236],[85.19118,22.81199],[85.19,22.8143],[85.19423,22.8204],[85.1944,22.82383],[85.19182,22.82532],[85.18303,22.82487],[85.17859,22.82953],[85.17367,22.83309],[85.16869,22.83463],[85.16224,22.83234],[85.15863,22.82913],[85.15649,22.82379],[85.16019,22.82167],[85.14874,22.8062],[85.14084,22.77784],[85.14076,22.76493],[85.1395,22.75884],[85.14044,22.75162],[85.14715,22.74489],[85.146,22.74152],[85.14283,22.73796],[85.13263,22.73745],[85.12975,22.73587],[85.12977,22.73089],[85.13137,22.72749],[85.13011,22.72198],[85.13232,22.72014],[85.13203,22.71661],[85.12744,22.71323],[85.12297,22.70857],[85.12189,22.70191],[85.12253,22.69422],[85.12408,22.68781],[85.12018,22.68385],[85.1196,22.67337],[85.11722,22.66769],[85.1159,22.65785],[85.09692,22.65039],[85.09647,22.64461],[85.09378,22.63961],[85.09204,22.6326],[85.08846,22.62726],[85.08393,22.62579],[85.08059,22.62038],[85.07725,22.61667],[85.07746,22.61413],[85.08782,22.60817],[85.09073,22.60535],[85.09718,22.59567],[85.0948,22.58641],[85.09206,22.58141],[85.09223,22.57448],[85.0895,22.57197],[85.08019,22.57059],[85.07702,22.5733],[85.07447,22.57763],[85.07211,22.58467],[85.07219,22.5971],[85.07299,22.60161],[85.06982,22.60478],[85.05786,22.60806],[85.05637,22.61071],[85.05764,22.62038],[85.05247,22.634],[85.05687,22.65068],[85.06177,22.66332],[85.05758,22.66799],[85.05112,22.67061],[85.04553,22.67452],[85.04359,22.68041],[85.05009,22.69606],[85.0536,22.70829],[85.05564,22.71803],[85.05884,22.72796],[85.05896,22.73479],[85.05462,22.74068],[85.05233,22.74641],[85.04827,22.75233],[85.03167,22.75371],[85.02541,22.7578],[85.02208,22.76446],[85.01535,22.76641],[85.01075,22.77007],[85.00778,22.78266],[85.00589,22.78441],[85.00111,22.7837],[84.99154,22.78503],[84.979,22.78511],[84.97897,22.78511],[84.98503,22.79936],[85.00113,22.80233],[85.00374,22.80206],[85.00736,22.80352],[85.00834,22.80984],[85.00818,22.81652],[85.00539,22.82824],[85.00229,22.83184],[85.00271,22.83938],[85.0012,22.84122],[84.99266,22.85752],[84.98787,22.86901],[84.99082,22.88697],[84.99105,22.89573],[84.9888,22.89681],[84.98199,22.89716],[84.98723,22.91575],[84.99057,22.92187],[84.99588,22.92438],[85.00132,22.92312],[85.00934,22.91814],[85.00961,22.91164],[85.01152,22.91305],[85.01552,22.92321],[85.01636,22.92762],[85.0152,22.93065],[85.01315,22.93315],[85.01562,22.94317],[85.0149,22.94727],[85.00996,22.94682],[85.00537,22.94495],[85.00137,22.9503],[84.99615,22.95433],[84.99135,22.96094],[84.98534,22.96423],[84.97294,22.96703],[84.96417,22.96595],[84.95229,22.96266],[84.94689,22.96494],[84.94447,22.97369],[84.94303,22.98382],[84.94271,22.99476],[84.94666,22.99951],[84.94608,23.00649],[84.94551,23.00998],[84.94261,23.01146],[84.96774,23.01505],[84.98419,23.03126],[84.99661,23.06017],[84.99709,23.07272],[85.01138,23.0911],[85.02744,23.09685],[85.03681,23.10492],[85.0423,23.12986],[85.04772,23.15272],[85.04812,23.16317],[85.05411,23.20067],[85.09112,23.22038],[85.13638,23.21886],[85.16395,23.2284],[85.18951,23.24428],[85.21675,23.24544],[85.23636,23.22592],[85.2791,23.21817],[85.28008,23.2186],[85.28679,23.20751],[85.29985,23.19811],[85.31487,23.18417],[85.32393,23.18236],[85.33324,23.18651],[85.33623,23.19386],[85.33717,23.20376],[85.34473,23.20449],[85.34932,23.19837],[85.35232,23.1928],[85.36175,23.187],[85.374,23.18408],[85.38285,23.19023],[85.38886,23.1925],[85.39472,23.1913],[85.40839,23.18386],[85.41351,23.17771],[85.44776,23.17401],[85.46293,23.17694],[85.467,23.18425],[85.46765,23.19963],[85.47199,23.21339],[85.4786,23.21713],[85.49106,23.21917],[85.49738,23.22888],[85.50016,23.24369],[85.50914,23.25102],[85.52749,23.25125],[85.55354,23.27752],[85.58505,23.27218],[85.57736,23.25152],[85.55765,23.21454],[85.54167,23.15858],[85.55173,23.12889],[85.59641,23.11469],[85.60274,23.10399],[85.58982,23.06676],[85.58016,23.05246],[85.59418,23.01006],[85.6156,22.98204],[85.61939,22.96515],[85.61387,22.93333]]]}}]}