{"type":"FeatureCollection","features":[{"type":"Feature","properties":{"id":"kodarma","name":"Kodarma","stateId":"jharkhand","stateName":"Jharkhand","censuscode":348,"type":"district"},"geometry":{"type":"Polygon","coordinates":[[[85.70789,24.10514],[85.70789,24.10514],[85.70095,24.09865],[85.6968,24.09707],[85.68886,24.09787],[85.68489,24.09594],[85.68043,24.09638],[85.66195,24.10972],[85.6578,24.11752],[85.65301,24.12313],[85.64544,24.12672],[85.64234,24.13008],[85.63591,24.1339],[85.62708,24.12825],[85.62033,24.12855],[85.6163,24.1295],[85.60453,24.13229],[85.59719,24.13247],[85.58157,24.12888],[85.5763,24.12931],[85.57529,24.13599],[85.5735,24.1403],[85.56858,24.14615],[85.56107,24.15078],[85.56048,24.15612],[85.5571,24.15992],[85.55115,24.16374],[85.54334,24.16547],[85.53662,24.16522],[85.52191,24.16741],[85.51149,24.16726],[85.50506,24.16875],[85.49967,24.17233],[85.49603,24.17618],[85.5,24.18463],[85.50382,24.19564],[85.50649,24.19776],[85.51631,24.19543],[85.52304,24.19684],[85.52598,24.19903],[85.52806,24.20336],[85.51913,24.20998],[85.52624,24.22839],[85.5265,24.23279],[85.53503,24.23163],[85.53768,24.233],[85.54384,24.23319],[85.54959,24.24162],[85.55927,24.23819],[85.56106,24.24032],[85.56512,24.23867],[85.56662,24.24887],[85.56862,24.25523],[85.5726,24.26002],[85.58576,24.26439],[85.59591,24.26315],[85.60431,24.28165],[85.61182,24.29262],[85.61072,24.29808],[85.61341,24.30067],[85.61689,24.30133],[85.62163,24.29904],[85.62546,24.29877],[85.62813,24.30003],[85.63124,24.31503],[85.63718,24.32275],[85.63663,24.32699],[85.63898,24.3344],[85.6372,24.33732],[85.63049,24.33133],[85.62394,24.33116],[85.61265,24.33369],[85.60975,24.33685],[85.60663,24.34476],[85.60305,24.34578],[85.59925,24.34465],[85.59421,24.34063],[85.58959,24.33921],[85.58559,24.3407],[85.58199,24.34398],[85.57638,24.35749],[85.57261,24.35827],[85.56995,24.3569],[85.56964,24.35034],[85.56867,24.34815],[85.56522,24.34625],[85.5594,24.34787],[85.54943,24.35405],[85.54636,24.355],[85.54401,24.35328],[85.54212,24.35015],[85.53709,24.33916],[85.53437,24.33825],[85.52904,24.33992],[85.52389,24.34048],[85.52081,24.33691],[85.51814,24.33147],[85.51209,24.32438],[85.50109,24.33194],[85.49663,24.33263],[85.48928,24.33377],[85.47803,24.33838],[85.47239,24.33981],[85.46935,24.33873],[85.46734,24.33527],[85.46485,24.33285],[85.46063,24.3327],[85.45666,24.34091],[85.44908,24.343],[85.44131,24.34125],[85.43162,24.34137],[85.43142,24.34794],[85.43224,24.35252],[85.43091,24.35613],[85.42758,24.3601],[85.4221,24.36484],[85.41829,24.35848],[85.41567,24.35594],[85.41143,24.35463],[85.40677,24.35496],[85.39444,24.35074],[85.38642,24.34923],[85.38361,24.34669],[85.38211,24.34311],[85.38167,24.33933],[85.38194,24.33149],[85.37575,24.32572],[85.37383,24.31499],[85.36839,24.31294],[85.36058,24.30828],[85.35784,24.30458],[85.35314,24.30211],[85.34298,24.31277],[85.35059,24.31777],[85.35203,24.32117],[85.34277,24.32233],[85.335,24.32678],[85.32997,24.32757],[85.31466,24.33791],[85.30498,24.3418],[85.29867,24.34612],[85.29381,24.34609],[85.28902,24.34299],[85.28296,24.34257],[85.27194,24.34494],[85.26726,24.34496],[85.26256,24.34702],[85.25793,24.34799],[85.24825,24.34976],[85.24202,24.35076],[85.23683,24.35049],[85.23222,24.35127],[85.22865,24.34902],[85.2233,24.34818],[85.21292,24.34654],[85.20751,24.34437],[85.20065,24.33399],[85.19621,24.33338],[85.19359,24.33632],[85.18891,24.33727],[85.18715,24.33894],[85.18642,24.34218],[85.18321,24.34427],[85.17195,24.34457],[85.16742,24.34631],[85.16441,24.3556],[85.16086,24.35606],[85.15364,24.3613],[85.14597,24.36215],[85.14023,24.36223],[85.13778,24.36101],[85.14019,24.3532],[85.13954,24.34123],[85.13222,24.33652],[85.1279,24.33881],[85.1187,24.34017],[85.1096,24.34034],[85.10587,24.33874],[85.10278,24.33616],[85.09883,24.34572],[85.09463,24.3515],[85.08633,24.36002],[85.08457,24.3656],[85.08392,24.37137],[85.08781,24.38096],[85.09655,24.37941],[85.09959,24.38174],[85.10308,24.39098],[85.10579,24.39413],[85.11646,24.39903],[85.12219,24.40923],[85.12611,24.40934],[85.12781,24.40864],[85.13405,24.41172],[85.15508,24.4184],[85.16241,24.41823],[85.16497,24.42437],[85.17149,24.4279],[85.17648,24.42968],[85.17595,24.432],[85.17337,24.43369],[85.17195,24.436],[85.17084,24.44163],[85.16845,24.44348],[85.16586,24.45143],[85.15974,24.45393],[85.15705,24.45602],[85.15641,24.45944],[85.1578,24.46303],[85.16004,24.4643],[85.17037,24.46736],[85.17462,24.46753],[85.177,24.46626],[85.18344,24.46815],[85.18972,24.46884],[85.19764,24.46876],[85.20636,24.46758],[85.21036,24.47314],[85.22289,24.47274],[85.23104,24.47139],[85.23564,24.47961],[85.24243,24.48004],[85.24654,24.48901],[85.2536,24.49547],[85.26153,24.49812],[85.27666,24.49857],[85.28905,24.49741],[85.28813,24.49996],[85.28945,24.50396],[85.28903,24.50936],[85.28689,24.51406],[85.28645,24.51928],[85.28961,24.52686],[85.29514,24.52858],[85.30444,24.52882],[85.31959,24.52677],[85.32563,24.52483],[85.32957,24.52579],[85.33862,24.52644],[85.34498,24.5282],[85.35288,24.52821],[85.36821,24.52992],[85.37732,24.52981],[85.38982,24.53276],[85.39041,24.53543],[85.39562,24.53732],[85.4022,24.54151],[85.41009,24.54517],[85.41364,24.54589],[85.41806,24.54534],[85.43455,24.53755],[85.44028,24.53634],[85.44931,24.53971],[85.45355,24.54025],[85.46358,24.53948],[85.47914,24.54806],[85.48793,24.5484],[85.49347,24.55103],[85.49641,24.54943],[85.50143,24.5509],[85.50449,24.54879],[85.50446,24.54717],[85.50694,24.54418],[85.50952,24.54317],[85.51016,24.53603],[85.50938,24.53174],[85.51132,24.53004],[85.52177,24.52816],[85.52526,24.52487],[85.54112,24.53252],[85.5434,24.53634],[85.5473,24.55064],[85.54683,24.55645],[85.54515,24.56174],[85.54342,24.56409],[85.54376,24.56554],[85.54598,24.56616],[85.55076,24.56477],[85.55928,24.55971],[85.56156,24.55644],[85.56321,24.55713],[85.56353,24.56095],[85.57139,24.56216],[85.57524,24.5655],[85.5727,24.57196],[85.57407,24.57851],[85.56918,24.58128],[85.56835,24.58396],[85.5698,24.59155],[85.57216,24.59693],[85.57684,24.60049],[85.58353,24.60328],[85.58891,24.60038],[85.59809,24.59734],[85.60518,24.59786],[85.6148,24.5911],[85.61546,24.58535],[85.62237,24.58325],[85.6289,24.58418],[85.63971,24.58089],[85.65118,24.57864],[85.67159,24.58228],[85.6772,24.58844],[85.68013,24.59329],[85.68043,24.59596],[85.67927,24.59852],[85.67746,24.59976],[85.67902,24.61971],[85.67587,24.63083],[85.67262,24.63655],[85.67125,24.64132],[85.67056,24.64475],[85.66812,24.64692],[85.66763,24.65087],[85.67066,24.66124],[85.67028,24.66496],[85.66774,24.66783],[85.66671,24.67056],[85.66692,24.67498],[85.65745,24.67947],[85.65521,24.68211],[85.6565,24.68726],[85.68661,24.694],[85.69401,24.70113],[85.7036,24.71369],[85.70335,24.71747],[85.70569,24.72128],[85.71039,24.72559],[85.71172,24.72894],[85.7123,24.74025],[85.71509,24.74788],[85.71251,24.7518],[85.71053,24.75763],[85.71045,24.76366],[85.71174,24.76899],[85.71617,24.7758],[85.71678,24.78114],[85.71929,24.78349],[85.72796,24.78712],[85.72995,24.79906],[85.7353,24.80081],[85.73677,24.80862],[85.73951,24.81661],[85.74201,24.82151],[85.74374,24.82278],[85.75427,24.82005],[85.76525,24.81524],[85.76772,24.81521],[85.77242,24.81267],[85.77576,24.80897],[85.77555,24.80421],[85.77636,24.80304],[85.78419,24.79912],[85.78618,24.80067],[85.79267,24.79886],[85.81759,24.7947],[85.81952,24.79955],[85.82497,24.80716],[85.8295,24.80913],[85.83414,24.80983],[85.84886,24.80827],[85.86071,24.80785],[85.87093,24.80565],[85.88467,24.80052],[85.89656,24.7919],[85.89406,24.78585],[85.90853,24.77014],[85.91141,24.76157],[85.9016,24.75639],[85.90189,24.75535],[85.90052,24.75396],[85.89755,24.75463],[85.8908,24.75405],[85.88983,24.74818],[85.89513,24.74151],[85.89505,24.73883],[85.89346,24.73582],[85.88482,24.73852],[85.8769,24.74004],[85.86539,24.73847],[85.86259,24.7417],[85.85792,24.7425],[85.85491,24.73818],[85.84765,24.73883],[85.83882,24.73742],[85.83023,24.73507],[85.82236,24.72976],[85.81988,24.72242],[85.82102,24.71596],[85.82708,24.71148],[85.82894,24.7063],[85.82985,24.69834],[85.83292,24.69297],[85.83385,24.68571],[85.83706,24.6848],[85.83729,24.67992],[85.84209,24.67274],[85.84103,24.67048],[85.83406,24.66974],[85.82801,24.66748],[85.80986,24.67394],[85.80106,24.67322],[85.7955,24.66986],[85.79018,24.66533],[85.7862,24.65915],[85.78524,24.65168],[85.77998,24.64727],[85.77508,24.63896],[85.76638,24.62941],[85.76473,24.62599],[85.76758,24.61634],[85.77145,24.6138],[85.77713,24.61311],[85.78627,24.60872],[85.79004,24.60763],[85.80359,24.61272],[85.80144,24.6088],[85.79666,24.60368],[85.79454,24.59877],[85.79454,24.59204],[85.8019,24.58018],[85.80681,24.57624],[85.80574,24.56911],[85.80679,24.56475],[85.80472,24.55874],[85.80817,24.5576],[85.8099,24.55259],[85.81221,24.55135],[85.81713,24.5506],[85.82571,24.55045],[85.8361,24.54902],[85.84017,24.5474],[85.85347,24.5396],[85.86654,24.52978],[85.86787,24.52686],[85.86399,24.51298],[85.8667,24.50308],[85.86271,24.48983],[85.85344,24.46875],[85.85095,24.4668],[85.84859,24.46312],[85.84354,24.45974],[85.83904,24.4555],[85.83204,24.44983],[85.83172,24.44652],[85.83615,24.43174],[85.83775,24.42952],[85.84125,24.42792],[85.85289,24.42008],[85.84898,24.41101],[85.84927,24.40717],[85.85218,24.401],[85.85003,24.3951],[85.85071,24.3912],[85.84766,24.38132],[85.85124,24.37774],[85.85019,24.37289],[85.85242,24.36775],[85.84831,24.3613],[85.84734,24.35754],[85.84465,24.35269],[85.8446,24.3473],[85.8502,24.34081],[85.85128,24.33546],[85.85492,24.3349],[85.85985,24.33525],[85.86349,24.33429],[85.86615,24.3349],[85.86787,24.32989],[85.86776,24.32502],[85.86635,24.32138],[85.86667,24.31866],[85.86904,24.31735],[85.86836,24.31238],[85.87135,24.30509],[85.86979,24.29995],[85.86986,24.29479],[85.86016,24.29216],[85.85745,24.28715],[85.85667,24.2831],[85.85099,24.27742],[85.83317,24.26386],[85.83458,24.25956],[85.83928,24.25858],[85.84483,24.25876],[85.84876,24.25762],[85.85041,24.25481],[85.85552,24.24173],[85.85529,24.23535],[85.85321,24.22981],[85.85257,24.22425],[85.85692,24.21929],[85.85354,24.21741],[85.84998,24.21883],[85.84618,24.22298],[85.84413,24.22394],[85.83542,24.22286],[85.82781,24.22358],[85.81948,24.21984],[85.81766,24.2176],[85.81108,24.22403],[85.80704,24.22651],[85.8007,24.23207],[85.79814,24.23018],[85.79301,24.22096],[85.7831,24.2166],[85.77241,24.21391],[85.76455,24.21706],[85.7575,24.21069],[85.74845,24.20792],[85.74261,24.20763],[85.7388,24.2061],[85.73171,24.20616],[85.73182,24.20256],[85.73016,24.19823],[85.72554,24.19595],[85.71199,24.1931],[85.67866,24.18286],[85.67535,24.17352],[85.67467,24.1674],[85.67319,24.16134],[85.66983,24.15612],[85.67862,24.14912],[85.68851,24.14517],[85.70163,24.13535],[85.70776,24.13012],[85.71242,24.12391],[85.70963,24.11928],[85.70988,24.11455],[85.70789,24.10514],[85.70789,24.10514]]]}}]}