{"type":"FeatureCollection","features":[{"type":"Feature","properties":{"id":"palamu","name":"Palamu","stateId":"jharkhand","stateName":"Jharkhand","censuscode":358,"type":"district"},"geometry":{"type":"Polygon","coordinates":[[[84.02343,24.62673],[84.02742,24.62596],[84.03195,24.62819],[84.03457,24.62687],[84.03675,24.62178],[84.03981,24.62073],[84.04103,24.61811],[84.046,24.61856],[84.0545,24.61146],[84.05263,24.60614],[84.05561,24.60569],[84.06087,24.5939],[84.05916,24.59072],[84.06067,24.58717],[84.06582,24.58757],[84.06908,24.58857],[84.07039,24.58293],[84.06748,24.57621],[84.073,24.57429],[84.07546,24.57027],[84.0802,24.56884],[84.0824,24.564],[84.08141,24.55683],[84.08495,24.55175],[84.08606,24.54428],[84.09201,24.53798],[84.0964,24.53537],[84.09738,24.53323],[84.09427,24.51394],[84.09678,24.50346],[84.10464,24.49507],[84.10858,24.48726],[84.11743,24.48078],[84.13024,24.48605],[84.13258,24.49769],[84.13668,24.50005],[84.1442,24.50191],[84.14762,24.50416],[84.14468,24.51753],[84.14397,24.5287],[84.15375,24.53962],[84.15722,24.53962],[84.16832,24.53759],[84.17209,24.53307],[84.16338,24.5237],[84.16355,24.51885],[84.1613,24.517],[84.16879,24.51196],[84.17902,24.50918],[84.18691,24.50981],[84.1899,24.51501],[84.18991,24.51773],[84.19408,24.52189],[84.19005,24.52299],[84.18048,24.54133],[84.18056,24.54648],[84.18925,24.54641],[84.19464,24.54865],[84.19596,24.55466],[84.20756,24.55638],[84.20817,24.54881],[84.21387,24.5447],[84.21658,24.53655],[84.22513,24.53457],[84.22833,24.54971],[84.24266,24.55257],[84.2419,24.54298],[84.24873,24.54262],[84.25592,24.53817],[84.25758,24.53516],[84.25615,24.53101],[84.26477,24.53019],[84.26609,24.53712],[84.27037,24.53653],[84.27237,24.53999],[84.27709,24.5408],[84.27623,24.54628],[84.28591,24.5469],[84.28772,24.55134],[84.27953,24.55343],[84.27688,24.56365],[84.28761,24.56277],[84.3006,24.5654],[84.30506,24.56256],[84.30963,24.54669],[84.31706,24.539],[84.31953,24.53323],[84.32045,24.52625],[84.32671,24.5218],[84.32929,24.51268],[84.33392,24.50223],[84.33323,24.49623],[84.32928,24.48928],[84.31582,24.48642],[84.30177,24.48028],[84.29283,24.46545],[84.29779,24.45763],[84.30077,24.45038],[84.32256,24.44709],[84.33794,24.43079],[84.33819,24.42804],[84.33502,24.42735],[84.32695,24.42885],[84.32261,24.42305],[84.32577,24.41983],[84.33241,24.42327],[84.33534,24.42177],[84.33532,24.41619],[84.3334,24.41056],[84.33916,24.40429],[84.3455,24.40094],[84.34339,24.39549],[84.35448,24.39173],[84.3628,24.39064],[84.36887,24.38632],[84.37477,24.38665],[84.38128,24.39068],[84.38972,24.38939],[84.39251,24.37905],[84.39951,24.37547],[84.40516,24.37713],[84.40726,24.37437],[84.40242,24.36753],[84.43001,24.35892],[84.42564,24.34214],[84.42488,24.33116],[84.45236,24.33399],[84.45411,24.33951],[84.46198,24.33846],[84.46939,24.3174],[84.47253,24.30825],[84.47581,24.30514],[84.48275,24.30243],[84.48598,24.30276],[84.49448,24.30471],[84.49615,24.30206],[84.4949,24.29872],[84.4916,24.29681],[84.50093,24.28695],[84.48554,24.27611],[84.48837,24.26972],[84.48866,24.2642],[84.48395,24.26254],[84.46613,24.25921],[84.47034,24.26253],[84.47288,24.2658],[84.47166,24.26782],[84.46706,24.26524],[84.4576,24.26764],[84.45635,24.26098],[84.44481,24.24364],[84.44852,24.23898],[84.46922,24.23154],[84.47349,24.22875],[84.47427,24.21944],[84.47325,24.21017],[84.47647,24.20705],[84.47672,24.20694],[84.48863,24.20131],[84.50154,24.19953],[84.51106,24.20069],[84.52114,24.19956],[84.52888,24.20689],[84.53654,24.203],[84.53739,24.19897],[84.5284,24.19129],[84.53189,24.18079],[84.53509,24.1775],[84.53851,24.17074],[84.54506,24.16806],[84.54984,24.16049],[84.55209,24.15311],[84.58019,24.14148],[84.57235,24.11801],[84.56488,24.11603],[84.55383,24.10331],[84.56325,24.07766],[84.5748,24.07042],[84.56704,24.05555],[84.56411,24.0521],[84.55351,24.04958],[84.55422,24.04346],[84.56137,24.03703],[84.56445,24.03294],[84.55671,24.0268],[84.55401,24.01625],[84.55901,24.00258],[84.56615,23.99066],[84.57056,23.98484],[84.57295,23.9838],[84.57624,23.98521],[84.58555,23.98624],[84.58555,23.98624],[84.58826,23.97897],[84.58654,23.97113],[84.58352,23.96753],[84.57093,23.95696],[84.56899,23.94865],[84.56928,23.94374],[84.57221,23.9365],[84.56471,23.9275],[84.54835,23.92871],[84.53008,23.92782],[84.51896,23.92077],[84.51962,23.914],[84.52396,23.90851],[84.52549,23.9045],[84.52515,23.90063],[84.51747,23.89898],[84.50866,23.89878],[84.49605,23.89353],[84.4966,23.89962],[84.48904,23.89524],[84.48455,23.89442],[84.48095,23.90813],[84.47176,23.91405],[84.46966,23.9172],[84.47106,23.92613],[84.47794,23.92686],[84.47914,23.93164],[84.47797,23.93767],[84.47082,23.94469],[84.4689,23.94874],[84.46873,23.95461],[84.45945,23.95341],[84.45531,23.95946],[84.45153,23.96138],[84.44729,23.96076],[84.43863,23.94822],[84.41771,23.94725],[84.40128,23.93336],[84.36063,23.94208],[84.34408,23.95123],[84.34151,23.94804],[84.34019,23.93965],[84.33507,23.92234],[84.33194,23.91987],[84.33406,23.91029],[84.3278,23.90845],[84.31508,23.90626],[84.30592,23.91162],[84.29354,23.91554],[84.28512,23.90334],[84.27081,23.90214],[84.25307,23.89774],[84.25283,23.89385],[84.2438,23.88538],[84.24241,23.89886],[84.24465,23.90414],[84.2522,23.91592],[84.25339,23.92485],[84.24652,23.92618],[84.2425,23.92427],[84.23134,23.91238],[84.22468,23.91162],[84.22321,23.90585],[84.21481,23.90603],[84.2149,23.9133],[84.21293,23.91599],[84.19998,23.91583],[84.19479,23.92609],[84.17874,23.93396],[84.1642,23.93585],[84.14,23.94268],[84.14552,23.91873],[84.13788,23.90047],[84.12354,23.89752],[84.1148,23.89413],[84.09724,23.87391],[84.09441,23.86689],[84.08821,23.86135],[84.07008,23.85735],[84.06328,23.84985],[84.05955,23.83747],[84.05083,23.82967],[84.05133,23.82072],[84.05424,23.81355],[84.04093,23.80463],[84.03873,23.7942],[84.03334,23.79194],[84.02903,23.79724],[84.02552,23.79894],[84.01848,23.79561],[84.01441,23.79522],[84.01236,23.79465],[84.00885,23.79464],[84.00624,23.7945],[84.00441,23.79381],[84.00194,23.7944],[83.99987,23.79695],[83.99905,23.79979],[83.99927,23.80676],[83.9996,23.81039],[84.00018,23.81423],[83.99924,23.81696],[83.99773,23.81939],[83.99541,23.82123],[83.99156,23.82466],[83.98924,23.82659],[83.98558,23.82898],[83.98484,23.83066],[83.97998,23.83475],[83.97698,23.83639],[83.97376,23.83866],[83.97096,23.83956],[83.96797,23.84172],[83.96525,23.84512],[83.96329,23.84778],[83.95604,23.85494],[83.95136,23.85735],[83.94858,23.85919],[83.94419,23.86014],[83.93944,23.86016],[83.93571,23.86046],[83.93386,23.8627],[83.9329,23.8647],[83.93294,23.8699],[83.93313,23.8793],[83.93392,23.88539],[83.93428,23.89057],[83.93443,23.89556],[83.93472,23.89851],[83.93598,23.90033],[83.93725,23.90234],[83.93819,23.90675],[83.93831,23.91064],[83.93819,23.91342],[83.9387,23.91692],[83.93979,23.91949],[83.93885,23.92173],[83.93665,23.92234],[83.93262,23.92208],[83.92999,23.92196],[83.92679,23.92241],[83.92561,23.92355],[83.92507,23.92542],[83.92574,23.92762],[83.92541,23.93022],[83.9237,23.9336],[83.92274,23.93492],[83.92047,23.93312],[83.91925,23.93297],[83.91746,23.93357],[83.9149,23.93567],[83.91578,23.93787],[83.91648,23.94118],[83.91492,23.94289],[83.9102,23.94671],[83.90703,23.94846],[83.9061,23.95089],[83.90576,23.95293],[83.90584,23.95552],[83.90474,23.95907],[83.90238,23.96116],[83.89983,23.96326],[83.89785,23.96461],[83.8961,23.96669],[83.89552,23.96745],[83.89541,23.9706],[83.8959,23.97336],[83.89479,23.97653],[83.89303,23.97843],[83.88989,23.98129],[83.88633,23.98323],[83.8777,23.98456],[83.87387,23.98428],[83.87041,23.98326],[83.86832,23.98072],[83.86865,23.97812],[83.8688,23.97645],[83.86731,23.9739],[83.86561,23.97098],[83.86492,23.96804],[83.86642,23.96411],[83.86636,23.95541],[83.8663,23.95356],[83.86568,23.95302],[83.85863,23.95283],[83.85074,23.95173],[83.84529,23.9515],[83.84205,23.95066],[83.84001,23.94997],[83.83658,23.9495],[83.83516,23.94935],[83.83351,23.94809],[83.83191,23.9485],[83.83034,23.94984],[83.82819,23.95211],[83.82603,23.95383],[83.82242,23.95448],[83.8204,23.95416],[83.81866,23.95679],[83.81858,23.96068],[83.82183,23.96171],[83.82507,23.96237],[83.8297,23.96226],[83.83216,23.96349],[83.83464,23.96565],[83.83499,23.97064],[83.83593,23.97543],[83.83669,23.98041],[83.8376,23.98409],[83.83886,23.9859],[83.84013,23.98772],[83.83956,23.98903],[83.83698,23.99039],[83.83162,23.99293],[83.82889,23.99615],[83.82736,23.99878],[83.82724,24.00156],[83.83016,24.00482],[83.83955,24.01569],[83.84132,24.0212],[83.84653,24.03231],[83.86048,24.03948],[83.86244,24.042],[83.86631,24.0581],[83.86696,24.06977],[83.87247,24.07193],[83.88024,24.07735],[83.88636,24.07933],[83.89127,24.08355],[83.89492,24.08808],[83.90779,24.08978],[83.91117,24.09304],[83.91698,24.09289],[83.91958,24.09103],[83.92,24.08878],[83.9299,24.09379],[83.93893,24.10023],[83.94236,24.10015],[83.94534,24.09818],[83.94917,24.09378],[83.9521,24.09393],[83.95545,24.09817],[83.96124,24.11137],[83.97215,24.1045],[83.97875,24.10328],[83.9794,24.10281],[83.97961,24.10313],[83.98474,24.10218],[83.98918,24.10359],[83.99063,24.10588],[83.99104,24.10893],[83.98932,24.11199],[83.9821,24.11842],[83.97891,24.12126],[83.97725,24.12398],[83.97778,24.13042],[83.97816,24.13508],[83.97535,24.14189],[83.97219,24.14376],[83.97002,24.15183],[83.9585,24.15536],[83.95067,24.15903],[83.94301,24.16133],[83.93274,24.1666],[83.93065,24.16768],[83.92537,24.17134],[83.91768,24.17857],[83.91057,24.18524],[83.90502,24.18959],[83.89956,24.19346],[83.88971,24.19999],[83.88701,24.20286],[83.88405,24.206],[83.88043,24.20983],[83.87598,24.21833],[83.87311,24.2238],[83.86169,24.23975],[83.85303,24.25184],[83.84597,24.2597],[83.8359,24.27421],[83.81854,24.29134],[83.81798,24.2994],[83.81925,24.3021],[83.82273,24.30546],[83.82844,24.31097],[83.83199,24.31751],[83.83277,24.32205],[83.82952,24.33087],[83.81801,24.34613],[83.8156,24.34932],[83.81376,24.35301],[83.81333,24.36217],[83.8167,24.36992],[83.82107,24.37823],[83.82447,24.38121],[83.83597,24.38891],[83.8452,24.3941],[83.85346,24.40245],[83.85557,24.40774],[83.858,24.43178],[83.85537,24.44642],[83.85402,24.46697],[83.8551,24.49298],[83.87208,24.52547],[83.87504,24.52839],[83.87581,24.53201],[83.87582,24.53201],[83.88662,24.53562],[83.91052,24.54158],[83.9257,24.54494],[83.93184,24.54536],[83.93623,24.54706],[83.94077,24.55089],[83.94425,24.55507],[83.95592,24.56564],[83.96535,24.57548],[83.97265,24.58677],[83.98011,24.59576],[83.98704,24.61424],[84,24.63712],[84.00977,24.63451],[84.02232,24.63076],[84.02343,24.62673]]]}}]}