{"type":"FeatureCollection","features":[{"type":"Feature","properties":{"id":"pashchimi-singhbhum","name":"Pashchimi Singhbhum","stateId":"jharkhand","stateName":"Jharkhand","censuscode":368,"type":"district"},"geometry":{"type":"Polygon","coordinates":[[[85.51683,22.80855],[85.51684,22.80854],[85.53084,22.80804],[85.53725,22.80697],[85.54129,22.8201],[85.55066,22.82298],[85.55892,22.82102],[85.56419,22.82553],[85.56893,22.83189],[85.57586,22.83118],[85.58694,22.82878],[85.59564,22.82705],[85.60951,22.82524],[85.61471,22.8329],[85.62023,22.84346],[85.62191,22.84764],[85.62899,22.84811],[85.63512,22.8477],[85.63821,22.84749],[85.64478,22.84992],[85.64883,22.8494],[85.65071,22.84445],[85.65376,22.84157],[85.65822,22.84113],[85.66088,22.83826],[85.66305,22.8333],[85.66589,22.82997],[85.67139,22.82838],[85.67583,22.82593],[85.67731,22.82512],[85.68275,22.81763],[85.69418,22.81748],[85.70199,22.80742],[85.69926,22.80181],[85.69687,22.78808],[85.69955,22.77394],[85.70158,22.76845],[85.70528,22.76214],[85.71105,22.75787],[85.7187,22.75555],[85.71627,22.74532],[85.71127,22.74238],[85.704,22.74274],[85.69669,22.74523],[85.69281,22.74519],[85.68744,22.74042],[85.68346,22.72895],[85.68519,22.7252],[85.69231,22.71679],[85.69284,22.71616],[85.69761,22.71233],[85.70039,22.70712],[85.70122,22.70101],[85.70427,22.69574],[85.71188,22.69259],[85.71729,22.69156],[85.72058,22.6872],[85.72685,22.6853],[85.73108,22.68671],[85.73433,22.69055],[85.7372,22.69016],[85.74397,22.69286],[85.7475,22.69871],[85.75206,22.70075],[85.7579,22.70016],[85.76546,22.70052],[85.77551,22.69866],[85.77755,22.70891],[85.78897,22.70654],[85.79647,22.70975],[85.79593,22.71337],[85.79254,22.71313],[85.79378,22.71649],[85.79699,22.7171],[85.80723,22.71275],[85.81354,22.71389],[85.81788,22.71557],[85.8214,22.71857],[85.82515,22.72027],[85.82829,22.71941],[85.83462,22.71225],[85.83915,22.70913],[85.84472,22.7091],[85.85084,22.72158],[85.8536,22.72332],[85.85869,22.71944],[85.8625,22.71588],[85.86557,22.71124],[85.86546,22.70646],[85.8628,22.7025],[85.86001,22.70012],[85.8614,22.69795],[85.86575,22.6952],[85.86787,22.69171],[85.86846,22.68708],[85.86796,22.68037],[85.86327,22.66664],[85.86296,22.66195],[85.86746,22.65366],[85.86818,22.64755],[85.8709,22.64183],[85.87492,22.63845],[85.87615,22.6349],[85.87312,22.63186],[85.87261,22.63135],[85.86769,22.62131],[85.87119,22.61739],[85.87691,22.61662],[85.88366,22.61875],[85.88725,22.61473],[85.88856,22.6135],[85.89349,22.60989],[85.9001,22.60696],[85.90574,22.60656],[85.91027,22.60343],[85.90241,22.58983],[85.90259,22.58503],[85.90058,22.58022],[85.89652,22.57807],[85.89131,22.57739],[85.89053,22.57729],[85.87681,22.57008],[85.87423,22.56567],[85.87516,22.56213],[85.87847,22.5585],[85.88392,22.55608],[85.88974,22.55751],[85.8947,22.55538],[85.90382,22.54858],[85.90739,22.54411],[85.89925,22.52645],[85.91007,22.51995],[85.91181,22.51251],[85.92273,22.506],[85.92733,22.5003],[85.9278,22.49972],[85.93615,22.4958],[85.95045,22.49034],[85.95311,22.48933],[85.96656,22.48198],[85.96658,22.48196],[85.96395,22.47954],[85.96515,22.47375],[85.96408,22.46928],[85.95932,22.45936],[85.96721,22.45612],[85.96892,22.44854],[85.97277,22.44464],[85.98792,22.43244],[85.99874,22.4256],[86.00263,22.42511],[86.00578,22.42611],[86.00863,22.42853],[86.01177,22.42882],[86.0145,22.42779],[86.0155,22.42513],[86.01537,22.42237],[86.01781,22.41822],[86.0194,22.40739],[86.01803,22.4025],[86.02054,22.40056],[86.02149,22.39686],[86.02377,22.39676],[86.02482,22.39418],[86.02331,22.38966],[86.02627,22.38773],[86.02725,22.3853],[86.02536,22.38171],[86.02699,22.3786],[86.02464,22.37831],[86.02417,22.37509],[86.02171,22.37653],[86.02102,22.36956],[86.0226,22.3658],[86.01189,22.35234],[85.99864,22.34176],[86.00158,22.33673],[86.00418,22.33469],[86.0105,22.33925],[86.01973,22.33812],[86.02616,22.33303],[86.02492,22.33076],[86.019,22.32759],[86.01166,22.31955],[86.01419,22.31689],[86.01415,22.31361],[86.01692,22.31422],[86.01713,22.31305],[86.02351,22.30821],[86.02614,22.3092],[86.03045,22.30784],[86.03388,22.31135],[86.03801,22.3089],[86.0398,22.31161],[86.04503,22.31231],[86.04796,22.3119],[86.049,22.30986],[86.04566,22.30723],[86.03603,22.30666],[86.0351,22.30444],[86.03304,22.30318],[86.02912,22.30135],[86.02547,22.3015],[86.0218,22.30021],[86.01423,22.29635],[86.00597,22.28806],[86.00796,22.28515],[86.00648,22.28303],[86.00327,22.27904],[85.99878,22.27699],[85.99095,22.27091],[85.99119,22.26118],[85.98756,22.25579],[85.97554,22.24714],[85.97712,22.24213],[85.98354,22.23931],[85.99087,22.22762],[85.99857,22.21928],[86.0231,22.20259],[86.03126,22.19307],[86.03242,22.18909],[86.0205,22.17651],[86.01828,22.17174],[86.01882,22.1675],[86.01712,22.16156],[86.00956,22.15495],[86.00497,22.14884],[86.00541,22.14632],[86.00481,22.14103],[86.00035,22.13572],[86.00081,22.12752],[86.0018,22.1246],[86.0083,22.11699],[86.00618,22.11294],[85.99833,22.10423],[85.99492,22.09745],[85.98472,22.08737],[85.98303,22.08405],[85.98312,22.08076],[85.98102,22.07581],[85.97695,22.07085],[85.97311,22.06382],[85.96904,22.05847],[85.96373,22.04657],[85.95931,22.04017],[85.95727,22.03571],[85.95046,22.02736],[85.94833,22.02322],[85.94431,22.02071],[85.93885,22.02153],[85.93454,22.02345],[85.93064,22.02144],[85.92915,22.01818],[85.9253,22.01389],[85.91801,22.00891],[85.91883,22.00077],[85.91502,21.99426],[85.91303,21.98545],[85.91542,21.98174],[85.91498,21.9797],[85.91024,21.97682],[85.91176,21.97225],[85.9112,21.9708],[85.90862,21.97076],[85.89995,21.98243],[85.89692,21.98266],[85.89191,21.97956],[85.88753,21.97896],[85.87711,21.97889],[85.8528,21.9812],[85.84625,21.9806],[85.83444,21.97705],[85.8281,21.97425],[85.82418,21.97413],[85.82141,21.97541],[85.82191,21.97945],[85.82124,21.98423],[85.81848,21.98505],[85.81102,21.98431],[85.80683,21.98575],[85.79014,21.9827],[85.78806,21.98348],[85.78638,21.98513],[85.77728,21.98777],[85.76664,21.99378],[85.76641,22.00099],[85.762,22.01241],[85.7646,22.01881],[85.76774,22.02196],[85.77805,22.02871],[85.78149,22.03228],[85.78482,22.04025],[85.77919,22.04729],[85.77712,22.05112],[85.77623,22.05525],[85.791,22.07585],[85.7938,22.08111],[85.80263,22.07844],[85.8086,22.07571],[85.82023,22.07402],[85.83659,22.08092],[85.83393,22.0866],[85.83078,22.09106],[85.82481,22.09355],[85.82128,22.09673],[85.81458,22.09575],[85.82107,22.10294],[85.8206,22.10601],[85.80794,22.11471],[85.80305,22.11019],[85.79987,22.10926],[85.7968,22.10428],[85.79014,22.10288],[85.78494,22.09732],[85.77927,22.09413],[85.77091,22.09211],[85.76372,22.08888],[85.75805,22.08315],[85.75634,22.07831],[85.75197,22.0738],[85.73974,22.06845],[85.72828,22.06206],[85.72349,22.06166],[85.71871,22.06033],[85.71374,22.06021],[85.71059,22.05825],[85.70195,22.06075],[85.69383,22.05998],[85.68746,22.05271],[85.67791,22.05538],[85.67832,22.06361],[85.67355,22.06492],[85.67071,22.07045],[85.66348,22.07813],[85.66131,22.08167],[85.65632,22.08515],[85.65404,22.09065],[85.65061,22.09412],[85.64603,22.09406],[85.64238,22.08961],[85.63725,22.08538],[85.63224,22.08348],[85.62559,22.08168],[85.61711,22.08064],[85.61461,22.08278],[85.61333,22.08561],[85.60961,22.08307],[85.60779,22.08017],[85.60267,22.07856],[85.59712,22.07827],[85.5928,22.08064],[85.58829,22.08481],[85.57715,22.08985],[85.57227,22.09083],[85.5663,22.08869],[85.5604,22.0946],[85.55468,22.09234],[85.5456,22.09037],[85.54341,22.09407],[85.54212,22.09817],[85.53957,22.10055],[85.53482,22.10252],[85.53025,22.10679],[85.52093,22.11194],[85.51179,22.11518],[85.49193,22.12019],[85.48553,22.12546],[85.47785,22.12782],[85.47131,22.13487],[85.46314,22.13943],[85.44192,22.14779],[85.42398,22.15696],[85.41647,22.15967],[85.40855,22.16012],[85.40062,22.16218],[85.39654,22.15871],[85.39155,22.15592],[85.38552,22.15527],[85.37839,22.15601],[85.37557,22.15879],[85.36941,22.15814],[85.36863,22.15363],[85.36913,22.15016],[85.36428,22.14154],[85.36485,22.1364],[85.36793,22.12837],[85.36758,22.12507],[85.36434,22.12322],[85.35978,22.1242],[85.35159,22.13059],[85.34472,22.12833],[85.32924,22.12858],[85.32159,22.11944],[85.31594,22.117],[85.30633,22.11067],[85.29368,22.0968],[85.28716,22.09127],[85.28042,22.08374],[85.27622,22.07261],[85.27172,22.06392],[85.26625,22.05652],[85.26237,22.04615],[85.2528,22.02912],[85.24733,22.01625],[85.23723,22.00402],[85.22842,22.00718],[85.22464,22.0104],[85.22119,22.01442],[85.22012,22.01999],[85.22018,22.03085],[85.22091,22.04095],[85.21705,22.04684],[85.19863,22.05478],[85.19333,22.05636],[85.18978,22.05855],[85.18545,22.06839],[85.18308,22.07032],[85.17879,22.07179],[85.17593,22.06969],[85.17071,22.06882],[85.17614,22.05672],[85.17714,22.05182],[85.17353,22.05231],[85.17009,22.05662],[85.16531,22.06551],[85.16415,22.07056],[85.16189,22.07404],[85.15524,22.07621],[85.14719,22.0771],[85.1414,22.0747],[85.13176,22.07268],[85.12524,22.07004],[85.11966,22.07463],[85.11664,22.0794],[85.11532,22.08356],[85.11085,22.0863],[85.10608,22.08806],[85.10539,22.09962],[85.10182,22.10294],[85.09048,22.10393],[85.08262,22.10645],[85.07585,22.11059],[85.05031,22.11414],[85.04156,22.11157],[85.0376,22.10593],[85.03355,22.10458],[85.02639,22.10681],[85.0205,22.09716],[85.01545,22.0941],[85.01364,22.08659],[85.00877,22.0834],[85.00005,22.08068],[84.99388,22.0802],[84.98749,22.08587],[84.98626,22.08812],[84.98695,22.09469],[84.98992,22.09492],[84.9923,22.09601],[85.00008,22.10138],[85.02591,22.11182],[85.03017,22.11541],[85.03072,22.12135],[85.03379,22.12597],[85.03758,22.14075],[85.03674,22.14584],[85.03262,22.15181],[85.03183,22.15735],[85.03446,22.16071],[85.03966,22.1642],[85.04788,22.17401],[85.05421,22.17765],[85.05602,22.18264],[85.05336,22.1891],[85.06522,22.20924],[85.06895,22.21943],[85.07589,22.23392],[85.07453,22.24668],[85.07848,22.24896],[85.08073,22.25417],[85.07633,22.26351],[85.07585,22.27078],[85.07693,22.27535],[85.08876,22.28091],[85.10498,22.29111],[85.11169,22.29432],[85.11475,22.29266],[85.12085,22.29367],[85.12124,22.30356],[85.11858,22.30823],[85.12043,22.31737],[85.11413,22.31837],[85.10764,22.31748],[85.10155,22.31554],[85.09438,22.31723],[85.09233,22.32011],[85.09688,22.32799],[85.09938,22.34419],[85.0886,22.34442],[85.08633,22.34747],[85.08049,22.35166],[85.08192,22.35883],[85.08147,22.36404],[85.0843,22.3722],[85.08951,22.38148],[85.08711,22.39846],[85.08364,22.40602],[85.08369,22.41129],[85.08104,22.41643],[85.07454,22.42103],[85.07012,22.42616],[85.06936,22.43901],[85.0646,22.44265],[85.0635,22.44762],[85.06694,22.45241],[85.07755,22.4588],[85.07738,22.46405],[85.08008,22.46956],[85.07966,22.47575],[85.06894,22.48127],[85.07363,22.48627],[85.07615,22.49162],[85.0775,22.50077],[85.08016,22.50813],[85.08123,22.5174],[85.07856,22.52467],[85.07132,22.53157],[85.06695,22.53792],[85.06911,22.54181],[85.07263,22.54541],[85.07313,22.54895],[85.07006,22.56028],[85.07203,22.56458],[85.07608,22.56669],[85.08019,22.57059],[85.0895,22.57197],[85.09223,22.57448],[85.09206,22.58141],[85.0948,22.58641],[85.09718,22.59567],[85.09073,22.60535],[85.08782,22.60817],[85.07746,22.61413],[85.07725,22.61667],[85.08059,22.62038],[85.08393,22.62579],[85.08846,22.62726],[85.09204,22.6326],[85.09378,22.63961],[85.09647,22.64461],[85.09692,22.65039],[85.1159,22.65785],[85.11722,22.66769],[85.1196,22.67337],[85.12018,22.68385],[85.12408,22.68781],[85.12253,22.69422],[85.12189,22.70191],[85.12297,22.70857],[85.12744,22.71323],[85.13203,22.71661],[85.13232,22.72014],[85.13011,22.72198],[85.13137,22.72749],[85.12977,22.73089],[85.12975,22.73587],[85.13263,22.73745],[85.14283,22.73796],[85.146,22.74152],[85.14715,22.74489],[85.14044,22.75162],[85.1395,22.75884],[85.14076,22.76493],[85.14084,22.77784],[85.14874,22.8062],[85.16019,22.82167],[85.15649,22.82379],[85.15863,22.82913],[85.16224,22.83234],[85.16869,22.83463],[85.17367,22.83309],[85.17859,22.82953],[85.18303,22.82487],[85.19182,22.82532],[85.1944,22.82383],[85.19423,22.8204],[85.19,22.8143],[85.19118,22.81199],[85.19602,22.81236],[85.19792,22.8177],[85.20057,22.81436],[85.20633,22.81855],[85.21602,22.82411],[85.22299,22.83393],[85.22858,22.83772],[85.23479,22.83706],[85.24426,22.83443],[85.24961,22.83463],[85.25604,22.84387],[85.25897,22.84654],[85.26205,22.84471],[85.2661,22.84576],[85.26769,22.84971],[85.26688,22.85446],[85.26885,22.8562],[85.26878,22.85973],[85.27375,22.86201],[85.27615,22.86046],[85.27781,22.86412],[85.28172,22.8694],[85.2829,22.87028],[85.28634,22.86902],[85.28781,22.87214],[85.28959,22.8703],[85.29112,22.87298],[85.29898,22.87509],[85.30574,22.87431],[85.30863,22.8771],[85.30996,22.88277],[85.31279,22.88429],[85.31494,22.88239],[85.31827,22.88246],[85.32141,22.88073],[85.33375,22.88222],[85.34254,22.88498],[85.34383,22.87954],[85.35255,22.88009],[85.35668,22.87849],[85.35804,22.87136],[85.3731,22.8621],[85.37421,22.86175],[85.38576,22.86509],[85.38951,22.86319],[85.39186,22.85469],[85.38831,22.84622],[85.39028,22.84136],[85.4009,22.84423],[85.40814,22.84385],[85.4143,22.83668],[85.41805,22.83577],[85.42057,22.83161],[85.43243,22.83529],[85.43562,22.83275],[85.43826,22.82911],[85.4406,22.82165],[85.44374,22.81958],[85.44772,22.81924],[85.44921,22.8182],[85.45302,22.80981],[85.45407,22.80547],[85.45799,22.80166],[85.46413,22.80023],[85.4712,22.79984],[85.48256,22.80456],[85.49177,22.80319],[85.50036,22.80009],[85.50466,22.8005],[85.51259,22.80735],[85.51683,22.80855]]]}}]}