{"type":"FeatureCollection","features":[{"type":"Feature","properties":{"id":"purbi-singhbhum","name":"Purbi Singhbhum","stateId":"jharkhand","stateName":"Jharkhand","censuscode":357,"type":"district"},"geometry":{"type":"Polygon","coordinates":[[[86.56047,22.71113],[86.57937,22.69791],[86.58613,22.69227],[86.59656,22.69193],[86.60202,22.68873],[86.60822,22.68313],[86.61547,22.68072],[86.62318,22.6767],[86.62766,22.66963],[86.63568,22.66584],[86.64197,22.65846],[86.64077,22.65055],[86.64202,22.63421],[86.64038,22.62606],[86.63766,22.61339],[86.63927,22.60743],[86.63958,22.60069],[86.64424,22.59719],[86.65353,22.59505],[86.65633,22.58772],[86.65458,22.5855],[86.65694,22.57926],[86.66252,22.57618],[86.66664,22.57792],[86.67803,22.57586],[86.67912,22.57697],[86.68861,22.58024],[86.71123,22.58383],[86.73286,22.57813],[86.76114,22.57777],[86.76508,22.57593],[86.76858,22.56815],[86.77255,22.56441],[86.77209,22.55956],[86.76863,22.55605],[86.76965,22.55417],[86.77639,22.55185],[86.77649,22.54938],[86.78143,22.55055],[86.78301,22.54896],[86.78917,22.54779],[86.79129,22.54097],[86.7879,22.5393],[86.79044,22.53601],[86.79032,22.53289],[86.78793,22.52795],[86.79482,22.52397],[86.79651,22.52026],[86.79688,22.51704],[86.7944,22.51325],[86.79475,22.51118],[86.80371,22.50245],[86.79606,22.49727],[86.79804,22.49424],[86.8021,22.4924],[86.80306,22.49063],[86.80312,22.48764],[86.80065,22.48334],[86.79431,22.47817],[86.79061,22.4803],[86.78762,22.481],[86.78081,22.48095],[86.77464,22.47959],[86.76579,22.48256],[86.75846,22.48377],[86.7534,22.4823],[86.75054,22.47932],[86.75027,22.47419],[86.75412,22.464],[86.7566,22.45436],[86.76255,22.45008],[86.76219,22.44615],[86.76307,22.43937],[86.76736,22.42896],[86.76901,22.42662],[86.77436,22.42532],[86.78377,22.42523],[86.79406,22.422],[86.81031,22.42024],[86.82345,22.41606],[86.83594,22.41014],[86.84377,22.40514],[86.84895,22.39986],[86.84995,22.39613],[86.84861,22.39144],[86.84551,22.38805],[86.84326,22.38243],[86.84597,22.37285],[86.84136,22.36472],[86.83397,22.34537],[86.83507,22.34228],[86.83356,22.33338],[86.83421,22.32849],[86.84191,22.32067],[86.84567,22.31773],[86.85218,22.31708],[86.86793,22.30776],[86.87306,22.30852],[86.87619,22.30662],[86.87756,22.30272],[86.88577,22.30036],[86.89008,22.30066],[86.89119,22.29808],[86.89181,22.29066],[86.8934,22.28539],[86.89355,22.27969],[86.89292,22.27357],[86.89059,22.2729],[86.8905,22.26743],[86.89162,22.26301],[86.89063,22.25614],[86.8781,22.25849],[86.87401,22.25866],[86.86958,22.2575],[86.86332,22.25844],[86.85919,22.2608],[86.85567,22.26449],[86.85513,22.26328],[86.84626,22.26112],[86.84106,22.26479],[86.83873,22.2636],[86.83342,22.26323],[86.82782,22.26533],[86.82536,22.26461],[86.82413,22.25756],[86.82136,22.25331],[86.81885,22.26202],[86.81759,22.26328],[86.81689,22.26792],[86.81635,22.26348],[86.81423,22.25781],[86.81498,22.25356],[86.81399,22.25049],[86.81245,22.24984],[86.81162,22.24781],[86.80897,22.24799],[86.80746,22.24584],[86.80462,22.24499],[86.80193,22.24708],[86.80153,22.24909],[86.80349,22.24947],[86.80144,22.25393],[86.80567,22.26592],[86.79532,22.26679],[86.79574,22.25724],[86.7982,22.248],[86.79787,22.24275],[86.8026,22.23799],[86.80455,22.23923],[86.80641,22.24266],[86.81489,22.24204],[86.81417,22.23713],[86.80513,22.2177],[86.79641,22.2216],[86.79096,22.21811],[86.7886,22.21572],[86.7841,22.21558],[86.78108,22.21784],[86.78397,22.22577],[86.78754,22.2294],[86.79617,22.22436],[86.79722,22.22789],[86.79186,22.23338],[86.78501,22.23576],[86.78094,22.23558],[86.77781,22.23438],[86.77711,22.23172],[86.7796,22.22743],[86.78026,22.21869],[86.77495,22.21861],[86.7721,22.2154],[86.76017,22.21204],[86.75287,22.21204],[86.74615,22.21487],[86.73884,22.21528],[86.73045,22.21755],[86.72789,22.2193],[86.72606,22.22088],[86.71659,22.22177],[86.69693,22.22145],[86.68731,22.22354],[86.67916,22.22899],[86.67511,22.23411],[86.67504,22.24084],[86.6703,22.24255],[86.66785,22.24148],[86.66551,22.23822],[86.65631,22.2372],[86.65336,22.23969],[86.65246,22.25366],[86.6535,22.25719],[86.65108,22.26124],[86.65074,22.26533],[86.64745,22.26579],[86.64655,22.26814],[86.6428,22.26704],[86.64248,22.27014],[86.63983,22.27309],[86.63544,22.27297],[86.63233,22.27078],[86.62126,22.27992],[86.61373,22.28268],[86.60786,22.28235],[86.60367,22.2783],[86.59617,22.27875],[86.59516,22.28605],[86.59086,22.29053],[86.59084,22.29478],[86.58743,22.29491],[86.58654,22.2988],[86.58371,22.3017],[86.58046,22.3002],[86.57958,22.29782],[86.57595,22.29684],[86.57296,22.30088],[86.56646,22.30088],[86.55734,22.29917],[86.55102,22.3028],[86.54516,22.30759],[86.53767,22.30205],[86.52984,22.3067],[86.52849,22.31169],[86.52613,22.31533],[86.53038,22.31621],[86.52895,22.3224],[86.5249,22.3244],[86.51331,22.32784],[86.50659,22.33526],[86.50529,22.34474],[86.48905,22.3482],[86.48706,22.3458],[86.48388,22.33825],[86.47992,22.33801],[86.47377,22.33606],[86.47237,22.3327],[86.46931,22.3308],[86.46561,22.33022],[86.4636,22.32591],[86.45492,22.32686],[86.44719,22.32913],[86.44377,22.32717],[86.44417,22.32026],[86.44557,22.31522],[86.4447,22.30962],[86.43873,22.30536],[86.42978,22.31008],[86.43008,22.31302],[86.42708,22.3177],[86.41677,22.31935],[86.40672,22.3232],[86.39602,22.32905],[86.38097,22.34087],[86.36847,22.34335],[86.35819,22.34915],[86.35812,22.35526],[86.35282,22.3627],[86.34479,22.36975],[86.33083,22.37675],[86.32535,22.38402],[86.3232,22.39423],[86.3153,22.40089],[86.30775,22.40881],[86.30617,22.41893],[86.29844,22.42373],[86.29349,22.42894],[86.28535,22.44907],[86.27692,22.44638],[86.27074,22.44309],[86.26513,22.44482],[86.24814,22.44807],[86.23408,22.4531],[86.22662,22.45411],[86.22598,22.4526],[86.21711,22.46321],[86.22254,22.46752],[86.22379,22.4717],[86.22318,22.47174],[86.22213,22.46854],[86.21475,22.46633],[86.20801,22.47376],[86.20231,22.47122],[86.17935,22.47988],[86.17166,22.4802],[86.1612,22.48253],[86.15081,22.47859],[86.1519,22.48258],[86.1256,22.48898],[86.11759,22.48634],[86.11303,22.48832],[86.10708,22.49356],[86.10384,22.49902],[86.09921,22.51159],[86.09727,22.51253],[86.08409,22.53374],[86.07494,22.54638],[86.06759,22.55179],[86.07268,22.5632],[86.07511,22.56551],[86.07808,22.56832],[86.10262,22.58393],[86.10606,22.58829],[86.10853,22.59143],[86.11475,22.59699],[86.11953,22.60583],[86.13867,22.61814],[86.14524,22.62479],[86.14982,22.63142],[86.15711,22.63666],[86.15776,22.65045],[86.16024,22.6537],[86.16944,22.67053],[86.16466,22.67672],[86.16423,22.69886],[86.1628,22.71735],[86.16615,22.72504],[86.16517,22.73375],[86.16168,22.73564],[86.16079,22.74618],[86.15939,22.74827],[86.16195,22.756],[86.16618,22.76145],[86.17154,22.76344],[86.17424,22.78481],[86.17392,22.78845],[86.17372,22.79064],[86.17267,22.79372],[86.16959,22.79366],[86.16616,22.79482],[86.16231,22.79958],[86.15961,22.80135],[86.1488,22.79755],[86.14729,22.79936],[86.1459,22.80568],[86.14876,22.81377],[86.15813,22.82058],[86.15907,22.82349],[86.15908,22.83428],[86.16144,22.83787],[86.17593,22.83322],[86.1823,22.82485],[86.18588,22.82268],[86.19671,22.81837],[86.19656,22.82787],[86.20119,22.83726],[86.19994,22.84026],[86.20067,22.84742],[86.20026,22.86182],[86.2029,22.86697],[86.20879,22.8717],[86.21174,22.87306],[86.21788,22.88602],[86.21992,22.89033],[86.21365,22.89224],[86.21067,22.89236],[86.20043,22.89887],[86.19707,22.89716],[86.19387,22.89886],[86.19211,22.90381],[86.19277,22.90932],[86.19031,22.92251],[86.19199,22.9264],[86.19453,22.92962],[86.19177,22.93434],[86.19379,22.94541],[86.18872,22.94764],[86.1976,22.96903],[86.20589,22.96971],[86.21757,22.96822],[86.22087,22.97278],[86.22758,22.97361],[86.23229,22.97213],[86.23829,22.97271],[86.2417,22.97525],[86.24505,22.98083],[86.2462,22.98815],[86.24247,22.99144],[86.2402,22.99605],[86.24019,22.99607],[86.24021,22.99607],[86.24436,22.99759],[86.25082,22.99816],[86.25658,22.99769],[86.267,22.99825],[86.26949,23.00073],[86.26899,23.00207],[86.27072,23.0031],[86.27542,23.00714],[86.27922,23.00923],[86.28122,23.01129],[86.28507,23.01342],[86.29045,23.01356],[86.29768,23.01277],[86.29759,23.01176],[86.2997,23.01082],[86.30051,23.01185],[86.30207,23.01291],[86.30321,23.01596],[86.30394,23.01598],[86.30598,23.01505],[86.30638,23.01305],[86.30611,23.01102],[86.30587,23.00901],[86.3078,23.00607],[86.31158,23.0052],[86.31559,23.00337],[86.31556,23.00085],[86.31785,22.99794],[86.32095,22.9983],[86.33151,22.99516],[86.3378,22.99164],[86.34037,22.9921],[86.34696,22.99603],[86.35212,22.99577],[86.35612,22.99193],[86.35724,22.99766],[86.3656,22.99942],[86.36886,22.99551],[86.37512,22.99706],[86.38605,22.99351],[86.38656,22.98719],[86.38922,22.98291],[86.3929,22.97951],[86.39863,22.97703],[86.40247,22.98061],[86.40591,22.98592],[86.41611,22.9898],[86.42185,22.99756],[86.43727,22.99312],[86.44613,22.99286],[86.44724,22.99012],[86.45077,22.98788],[86.45335,22.98988],[86.45663,22.9904],[86.46864,22.98802],[86.47174,22.99142],[86.48047,22.98847],[86.48488,22.99166],[86.50286,22.99272],[86.5028,22.98597],[86.50951,22.98085],[86.51311,22.97561],[86.50542,22.97138],[86.51773,22.96911],[86.52423,22.97096],[86.52819,22.975],[86.52625,22.97566],[86.53964,22.98419],[86.54574,22.99006],[86.54751,22.97718],[86.5432,22.96869],[86.54397,22.96473],[86.53792,22.96509],[86.5321,22.96372],[86.53303,22.96079],[86.52886,22.95155],[86.52385,22.94721],[86.51821,22.94907],[86.51306,22.94823],[86.50418,22.95061],[86.50212,22.9504],[86.50323,22.948],[86.50126,22.94416],[86.49951,22.94436],[86.49796,22.9471],[86.49492,22.94693],[86.4923,22.93841],[86.49002,22.93716],[86.48931,22.94113],[86.48423,22.94346],[86.47898,22.94694],[86.47988,22.95169],[86.47594,22.95231],[86.47563,22.94947],[86.46759,22.94708],[86.46354,22.94166],[86.46372,22.93584],[86.45656,22.93335],[86.44262,22.93016],[86.43836,22.92628],[86.43668,22.92302],[86.43796,22.91866],[86.454,22.90483],[86.46787,22.90191],[86.46855,22.89956],[86.45652,22.88592],[86.45247,22.88636],[86.45479,22.88001],[86.45215,22.87241],[86.45319,22.86471],[86.45239,22.86176],[86.43835,22.86347],[86.43679,22.84937],[86.43873,22.84359],[86.43853,22.83834],[86.43942,22.83161],[86.4271,22.81186],[86.42348,22.79289],[86.41814,22.78951],[86.42166,22.7796],[86.42749,22.77729],[86.43438,22.77154],[86.44532,22.7658],[86.44939,22.76172],[86.45948,22.76277],[86.4715,22.74961],[86.47213,22.7434],[86.47548,22.74057],[86.48443,22.72558],[86.48705,22.72793],[86.49317,22.72648],[86.49536,22.72301],[86.50196,22.71869],[86.50579,22.71426],[86.51201,22.70475],[86.51498,22.70549],[86.51348,22.7114],[86.51537,22.71927],[86.52185,22.718],[86.52557,22.72112],[86.53908,22.7198],[86.54464,22.72387],[86.55171,22.71852],[86.5549,22.71414],[86.56047,22.71113]]]}}]}