{"type":"FeatureCollection","features":[{"type":"Feature","properties":{"id":"simdega","name":"Simdega","stateId":"jharkhand","stateName":"Jharkhand","censuscode":367,"type":"district"},"geometry":{"type":"Polygon","coordinates":[[[84.979,22.78511],[84.99154,22.78503],[85.00111,22.7837],[85.00589,22.78441],[85.00778,22.78266],[85.01075,22.77007],[85.01535,22.76641],[85.02208,22.76446],[85.02541,22.7578],[85.03167,22.75371],[85.04827,22.75233],[85.05233,22.74641],[85.05462,22.74068],[85.05896,22.73479],[85.05884,22.72796],[85.05564,22.71803],[85.0536,22.70829],[85.05009,22.69606],[85.04359,22.68041],[85.04553,22.67452],[85.05112,22.67061],[85.05758,22.66799],[85.06177,22.66332],[85.05687,22.65068],[85.05247,22.634],[85.05764,22.62038],[85.05637,22.61071],[85.05786,22.60806],[85.06982,22.60478],[85.07299,22.60161],[85.07219,22.5971],[85.07211,22.58467],[85.07447,22.57763],[85.07702,22.5733],[85.08019,22.57059],[85.07608,22.56669],[85.07203,22.56458],[85.07006,22.56028],[85.07313,22.54895],[85.07263,22.54541],[85.06911,22.54181],[85.06695,22.53792],[85.07132,22.53157],[85.07856,22.52467],[85.08123,22.5174],[85.08016,22.50813],[85.0775,22.50077],[85.07615,22.49162],[85.07363,22.48627],[85.06894,22.48127],[85.05787,22.48227],[85.0532,22.48024],[85.0487,22.47979],[85.04379,22.47793],[85.04192,22.48014],[85.03977,22.47977],[85.03804,22.47263],[85.03457,22.47105],[85.02808,22.46996],[85.00699,22.46121],[85.00062,22.46111],[84.98431,22.45377],[84.96676,22.44657],[84.96378,22.44471],[84.9611,22.44175],[84.95896,22.44231],[84.95987,22.44836],[84.95896,22.4556],[84.9538,22.4539],[84.94729,22.45025],[84.93791,22.44248],[84.93187,22.43945],[84.92394,22.4372],[84.92469,22.43141],[84.92641,22.42884],[84.92295,22.42623],[84.91426,22.42249],[84.90034,22.42085],[84.88681,22.42042],[84.88856,22.42907],[84.88806,22.43226],[84.88603,22.435],[84.88437,22.44531],[84.8831,22.44603],[84.88184,22.44397],[84.87781,22.44101],[84.87029,22.43732],[84.86192,22.43478],[84.85438,22.4372],[84.84796,22.43765],[84.84605,22.43681],[84.84233,22.43033],[84.83914,22.42917],[84.83821,22.4327],[84.83502,22.43194],[84.81929,22.43437],[84.81708,22.43798],[84.81706,22.444],[84.8144,22.44959],[84.80787,22.44644],[84.79788,22.44555],[84.78467,22.44625],[84.75933,22.44471],[84.7505,22.41749],[84.73279,22.41936],[84.718,22.41662],[84.69817,22.41522],[84.68818,22.41761],[84.67949,22.41761],[84.67603,22.41899],[84.66829,22.41661],[84.63879,22.43128],[84.63222,22.43022],[84.62037,22.43021],[84.60203,22.42755],[84.60069,22.43145],[84.5958,22.42798],[84.57889,22.4256],[84.55005,22.41978],[84.54741,22.42317],[84.53339,22.4226],[84.52776,22.41747],[84.51261,22.41876],[84.50855,22.41788],[84.48805,22.40825],[84.48346,22.40854],[84.48126,22.40429],[84.48274,22.39612],[84.48251,22.39277],[84.487,22.38983],[84.48438,22.38627],[84.47959,22.38529],[84.46243,22.37781],[84.45465,22.38166],[84.44888,22.3756],[84.43373,22.36723],[84.43399,22.36457],[84.43826,22.36261],[84.43264,22.35464],[84.43289,22.35142],[84.42592,22.35338],[84.40131,22.34644],[84.39468,22.349],[84.38441,22.34849],[84.37883,22.35162],[84.37425,22.35213],[84.36854,22.3511],[84.36594,22.3476],[84.36013,22.34767],[84.3518,22.34661],[84.34524,22.34466],[84.34085,22.34546],[84.33083,22.34147],[84.3256,22.34303],[84.32148,22.34146],[84.29609,22.33984],[84.29188,22.34462],[84.28012,22.34758],[84.27306,22.35031],[84.26776,22.35616],[84.2583,22.37285],[84.25345,22.37613],[84.24734,22.3769],[84.23304,22.37653],[84.20103,22.3742],[84.19036,22.38604],[84.1821,22.39127],[84.15943,22.40324],[84.14926,22.41767],[84.14284,22.42294],[84.14006,22.44754],[84.14218,22.45127],[84.14447,22.4594],[84.14441,22.46929],[84.14188,22.47313],[84.13765,22.47219],[84.1361,22.47567],[84.13255,22.47577],[84.12482,22.47359],[84.11309,22.47601],[84.1091,22.47946],[84.11046,22.48147],[84.10988,22.48344],[84.10687,22.48249],[84.09473,22.48706],[84.08621,22.49096],[84.07863,22.49628],[84.07407,22.50021],[84.07599,22.50163],[84.07369,22.50432],[84.06748,22.50709],[84.0646,22.5122],[84.05764,22.51441],[84.04008,22.51411],[84.03174,22.51824],[84.02616,22.52308],[84.02255,22.52369],[84.01666,22.5223],[84.00952,22.52286],[84.01221,22.52672],[84.01192,22.53211],[84.0086,22.53596],[84.00645,22.54147],[84.00916,22.54856],[84.0112,22.55681],[84.01097,22.56386],[84.01209,22.57148],[84.01808,22.57692],[84.0248,22.58085],[84.02705,22.5847],[84.02838,22.58914],[84.04061,22.59318],[84.04894,22.5941],[84.05515,22.59606],[84.05989,22.60452],[84.06632,22.60931],[84.08739,22.63843],[84.10096,22.63454],[84.10464,22.63491],[84.11424,22.63857],[84.12231,22.63717],[84.1391,22.6377],[84.15692,22.63636],[84.16441,22.64287],[84.17181,22.64725],[84.18731,22.65178],[84.19858,22.66219],[84.20396,22.66571],[84.20857,22.66712],[84.21415,22.667],[84.21663,22.66495],[84.22174,22.66651],[84.22756,22.67085],[84.2347,22.67893],[84.23919,22.6905],[84.23464,22.69986],[84.2364,22.70712],[84.23459,22.72501],[84.23169,22.72921],[84.23234,22.73701],[84.23669,22.74199],[84.24863,22.75019],[84.25856,22.75991],[84.26068,22.76255],[84.26119,22.7648],[84.26705,22.76677],[84.28098,22.76742],[84.28572,22.76321],[84.28839,22.76196],[84.29225,22.76522],[84.29464,22.77274],[84.29463,22.77275],[84.29466,22.77274],[84.31586,22.76468],[84.32156,22.76406],[84.32279,22.76393],[84.3275,22.76232],[84.33391,22.75486],[84.33998,22.74612],[84.3511,22.74608],[84.35541,22.7501],[84.35094,22.75907],[84.35318,22.76066],[84.36293,22.75667],[84.36866,22.75432],[84.37398,22.75306],[84.37692,22.75777],[84.38153,22.76187],[84.38975,22.76412],[84.39263,22.76699],[84.39091,22.77211],[84.39542,22.77308],[84.40249,22.77361],[84.40668,22.76833],[84.41227,22.76329],[84.41623,22.7628],[84.41839,22.76504],[84.42193,22.77867],[84.43401,22.79204],[84.43436,22.79931],[84.42964,22.80949],[84.44057,22.80678],[84.44578,22.80801],[84.4514,22.81254],[84.45125,22.83134],[84.45193,22.83381],[84.45755,22.8353],[84.46544,22.8335],[84.47554,22.83256],[84.50508,22.82137],[84.50349,22.79553],[84.52791,22.7948],[84.53275,22.79106],[84.55074,22.79136],[84.55587,22.78733],[84.55752,22.77761],[84.55408,22.77007],[84.54978,22.76651],[84.5386,22.76509],[84.53334,22.76516],[84.52742,22.76064],[84.52133,22.7598],[84.51709,22.75496],[84.52131,22.74783],[84.52598,22.74198],[84.53084,22.73888],[84.53137,22.74265],[84.5379,22.74475],[84.53976,22.74967],[84.54073,22.7607],[84.54368,22.76245],[84.54825,22.76259],[84.55385,22.758],[84.56259,22.74641],[84.56856,22.74402],[84.56411,22.73881],[84.56219,22.73214],[84.55949,22.72872],[84.56976,22.72722],[84.57398,22.72571],[84.58009,22.72147],[84.58306,22.71813],[84.58726,22.71342],[84.59337,22.71222],[84.60593,22.72207],[84.60496,22.72541],[84.6072,22.72977],[84.62254,22.73115],[84.6373,22.73005],[84.64643,22.73263],[84.65083,22.73885],[84.65387,22.73231],[84.65967,22.72789],[84.66546,22.72854],[84.66923,22.73405],[84.67055,22.73769],[84.67923,22.73586],[84.69633,22.74178],[84.69973,22.74803],[84.69917,22.75173],[84.70007,22.7576],[84.70303,22.76249],[84.711,22.76574],[84.72536,22.76446],[84.72904,22.77292],[84.7271,22.77408],[84.72282,22.77956],[84.72294,22.78269],[84.71924,22.78216],[84.719,22.78659],[84.72551,22.79053],[84.72873,22.79716],[84.73255,22.80119],[84.73799,22.80046],[84.75192,22.79472],[84.75757,22.79239],[84.76544,22.79012],[84.7721,22.78985],[84.78175,22.79062],[84.77682,22.78082],[84.77834,22.76262],[84.78544,22.75835],[84.78727,22.76769],[84.78937,22.77075],[84.79416,22.77125],[84.79481,22.7539],[84.79297,22.74596],[84.78927,22.73003],[84.78916,22.72156],[84.79318,22.71756],[84.79714,22.71707],[84.8003,22.71135],[84.80565,22.711],[84.8148,22.70868],[84.82023,22.7132],[84.82057,22.71955],[84.81732,22.73108],[84.81594,22.73951],[84.81963,22.74538],[84.82426,22.7468],[84.83102,22.74161],[84.83419,22.73598],[84.83511,22.73153],[84.84012,22.72713],[84.85002,22.7211],[84.85573,22.71972],[84.85804,22.72306],[84.85796,22.73163],[84.85058,22.74154],[84.84441,22.75178],[84.84322,22.75983],[84.84396,22.76653],[84.84744,22.76937],[84.85392,22.76704],[84.86064,22.76351],[84.86358,22.75715],[84.86947,22.75521],[84.87474,22.75265],[84.87763,22.74482],[84.88367,22.74177],[84.89112,22.74438],[84.89783,22.74859],[84.90105,22.75226],[84.90173,22.75703],[84.9056,22.75949],[84.91299,22.76063],[84.91991,22.76759],[84.92312,22.78168],[84.92843,22.78796],[84.93319,22.79047],[84.94693,22.77786],[84.952,22.77539],[84.95775,22.77493],[84.96375,22.7786],[84.96866,22.78222],[84.979,22.78511]]]}}]}