{"type":"FeatureCollection","features":[{"type":"Feature","properties":{"id":"akola","name":"Akola","stateId":"maharashtra","stateName":"Maharashtra","censuscode":501,"type":"district"},"geometry":{"type":"Polygon","coordinates":[[[77.61612,20.75991],[77.61167,20.75865],[77.59789,20.75852],[77.59116,20.75722],[77.58879,20.7478],[77.58271,20.7488],[77.57741,20.74439],[77.57659,20.74107],[77.57199,20.74109],[77.57189,20.73575],[77.56964,20.7359],[77.56685,20.73355],[77.56603,20.73032],[77.56688,20.72647],[77.56581,20.72102],[77.53926,20.72905],[77.52464,20.73148],[77.52171,20.73152],[77.51873,20.72853],[77.51609,20.71828],[77.50803,20.71005],[77.50975,20.70704],[77.51503,20.70161],[77.51559,20.69803],[77.51946,20.69993],[77.52483,20.70076],[77.52347,20.69503],[77.53942,20.68858],[77.54645,20.67894],[77.54358,20.67549],[77.53861,20.67675],[77.53314,20.67813],[77.52344,20.68059],[77.51773,20.68279],[77.51284,20.68308],[77.51199,20.68141],[77.51402,20.67721],[77.51752,20.67304],[77.51345,20.66617],[77.51076,20.66364],[77.50439,20.66445],[77.50289,20.67179],[77.49963,20.67339],[77.49989,20.67495],[77.49628,20.68005],[77.49283,20.68137],[77.48901,20.68176],[77.48014,20.68079],[77.47469,20.68456],[77.4713,20.68809],[77.46662,20.67697],[77.46249,20.67056],[77.45519,20.66123],[77.4567,20.6539],[77.45462,20.65561],[77.4529,20.65623],[77.44578,20.6585],[77.43398,20.66133],[77.43363,20.65424],[77.43444,20.64754],[77.44061,20.64691],[77.44861,20.63642],[77.45559,20.62555],[77.46065,20.62619],[77.46166,20.61967],[77.46962,20.61723],[77.46682,20.6101],[77.45212,20.6128],[77.444,20.61321],[77.43825,20.61265],[77.41771,20.60843],[77.41278,20.60605],[77.41186,20.60281],[77.41457,20.59909],[77.41404,20.59641],[77.41432,20.59182],[77.41256,20.58737],[77.40954,20.58649],[77.40698,20.58774],[77.40346,20.58786],[77.40272,20.58601],[77.40393,20.57876],[77.40097,20.58055],[77.39835,20.58117],[77.39076,20.58295],[77.36559,20.58131],[77.36395,20.57034],[77.36245,20.56755],[77.35597,20.56918],[77.35104,20.57158],[77.34976,20.57251],[77.34648,20.5749],[77.34521,20.57527],[77.34048,20.57664],[77.33982,20.57561],[77.33742,20.55395],[77.3377,20.55],[77.34378,20.54864],[77.3441,20.54717],[77.33782,20.53897],[77.33931,20.53762],[77.33602,20.53167],[77.3352,20.52853],[77.33621,20.52662],[77.33947,20.52483],[77.35415,20.52298],[77.36172,20.52045],[77.36681,20.5198],[77.37105,20.52751],[77.39596,20.52702],[77.39794,20.52586],[77.39327,20.50996],[77.39226,20.50745],[77.38607,20.49204],[77.38438,20.48847],[77.38101,20.48308],[77.36741,20.47971],[77.37065,20.48381],[77.37216,20.49129],[77.37135,20.4979],[77.36586,20.49872],[77.33973,20.49725],[77.32906,20.49862],[77.3272,20.48939],[77.32709,20.48525],[77.33981,20.48354],[77.34644,20.47906],[77.34253,20.46952],[77.34375,20.46733],[77.34865,20.46595],[77.34868,20.46494],[77.34664,20.46242],[77.34153,20.45607],[77.3376,20.4526],[77.33324,20.45096],[77.32194,20.44993],[77.31628,20.45029],[77.30121,20.44744],[77.2983,20.44178],[77.29638,20.43531],[77.29595,20.43245],[77.29723,20.42263],[77.29553,20.41975],[77.29037,20.41901],[77.28618,20.41912],[77.28272,20.42117],[77.2792,20.42626],[77.27793,20.43083],[77.26934,20.43123],[77.26444,20.43252],[77.25852,20.43529],[77.25058,20.43741],[77.24966,20.42986],[77.24836,20.42643],[77.247,20.42622],[77.2413,20.42841],[77.23592,20.43217],[77.23308,20.43415],[77.22797,20.44077],[77.22692,20.44397],[77.22542,20.44569],[77.22508,20.44798],[77.20616,20.44934],[77.18672,20.44873],[77.18401,20.43388],[77.18478,20.42957],[77.18678,20.42758],[77.19564,20.42343],[77.19707,20.42051],[77.19686,20.41646],[77.19513,20.411],[77.19267,20.407],[77.18614,20.40228],[77.18246,20.40083],[77.17673,20.39971],[77.16281,20.40089],[77.15222,20.4009],[77.15008,20.39185],[77.14101,20.38257],[77.13455,20.39247],[77.13375,20.39788],[77.13234,20.40006],[77.12464,20.40423],[77.12263,20.40686],[77.12364,20.40973],[77.12128,20.41088],[77.11789,20.40953],[77.11666,20.40785],[77.11418,20.40974],[77.11006,20.41136],[77.1065,20.41277],[77.10464,20.41371],[77.10146,20.41572],[77.09761,20.41815],[77.08564,20.42123],[77.08192,20.42631],[77.08035,20.43557],[77.07826,20.43746],[77.0593,20.43856],[77.05776,20.44653],[77.05508,20.4485],[77.04726,20.44987],[77.04234,20.45073],[77.02469,20.45029],[77.022,20.44398],[77.01884,20.43971],[77.0156,20.42932],[77.01715,20.42117],[77.01763,20.41271],[77.01136,20.41388],[77.00824,20.41363],[77.00641,20.41286],[77.00327,20.40946],[77.00069,20.40667],[76.99823,20.40774],[76.99536,20.40932],[76.99392,20.40847],[76.99243,20.40559],[76.99494,20.40129],[76.99827,20.39752],[76.99784,20.39475],[76.99127,20.39609],[76.98799,20.39032],[76.9848,20.38906],[76.98282,20.38617],[76.98317,20.38351],[76.98117,20.38126],[76.97676,20.38255],[76.97564,20.38023],[76.97908,20.37488],[76.97963,20.37194],[76.97559,20.36966],[76.97461,20.36957],[76.96566,20.36881],[76.96144,20.36578],[76.95181,20.36448],[76.94683,20.36493],[76.93461,20.37038],[76.93057,20.35926],[76.9208,20.35998],[76.91871,20.35369],[76.90039,20.34052],[76.89732,20.33297],[76.89539,20.32469],[76.89345,20.32447],[76.89197,20.32085],[76.89224,20.31801],[76.90477,20.31578],[76.90871,20.31403],[76.90586,20.31047],[76.88482,20.29762],[76.88208,20.29398],[76.88016,20.28851],[76.88313,20.28655],[76.88303,20.28223],[76.8763,20.27822],[76.87299,20.27834],[76.8701,20.28113],[76.86867,20.28376],[76.86629,20.29355],[76.86356,20.29773],[76.85933,20.29948],[76.84189,20.29893],[76.83989,20.30137],[76.8371,20.29974],[76.83697,20.29303],[76.83444,20.28865],[76.82755,20.28326],[76.82172,20.2804],[76.81943,20.28064],[76.81439,20.27922],[76.81031,20.27953],[76.80768,20.28817],[76.80059,20.28576],[76.79212,20.28602],[76.78856,20.29013],[76.78599,20.29803],[76.79118,20.30926],[76.79284,20.3153],[76.78837,20.31755],[76.78063,20.32001],[76.76989,20.32238],[76.76948,20.31395],[76.76223,20.32162],[76.75739,20.32456],[76.74423,20.32623],[76.74705,20.33813],[76.74345,20.33879],[76.73654,20.34211],[76.73387,20.34134],[76.73153,20.33742],[76.72671,20.33835],[76.72794,20.34387],[76.69961,20.35336],[76.70602,20.36352],[76.70701,20.36869],[76.70623,20.37339],[76.70881,20.38546],[76.71732,20.38646],[76.72502,20.38945],[76.7271,20.39549],[76.72766,20.40147],[76.72736,20.40674],[76.7227,20.41112],[76.72261,20.41445],[76.72006,20.41872],[76.7138,20.41827],[76.71313,20.42457],[76.71466,20.43703],[76.69767,20.4557],[76.69393,20.45847],[76.69886,20.47206],[76.70772,20.46909],[76.70899,20.47083],[76.70525,20.47992],[76.70496,20.48365],[76.71223,20.50787],[76.71656,20.51358],[76.7271,20.51488],[76.73619,20.51273],[76.73902,20.51068],[76.74113,20.50651],[76.74172,20.5017],[76.73712,20.49179],[76.74235,20.49293],[76.74793,20.49579],[76.75064,20.49799],[76.75256,20.5022],[76.75296,20.51236],[76.75737,20.5093],[76.76103,20.50933],[76.76486,20.51005],[76.77007,20.51291],[76.77137,20.51734],[76.77349,20.53944],[76.77504,20.54365],[76.77683,20.5541],[76.78127,20.56246],[76.78478,20.57149],[76.77037,20.57544],[76.77843,20.58664],[76.77842,20.58819],[76.78359,20.58875],[76.78942,20.59167],[76.79067,20.59541],[76.78818,20.60032],[76.78572,20.60334],[76.77505,20.60377],[76.76335,20.60297],[76.77222,20.62738],[76.7512,20.6316],[76.7558,20.64214],[76.75613,20.64553],[76.75831,20.64796],[76.76153,20.64925],[76.76616,20.64986],[76.76032,20.65595],[76.7356,20.65728],[76.73979,20.66534],[76.73861,20.67475],[76.73946,20.68101],[76.73695,20.68293],[76.73781,20.68914],[76.73084,20.69079],[76.72718,20.6907],[76.72295,20.69307],[76.72293,20.69514],[76.72449,20.69877],[76.72636,20.70062],[76.72861,20.70109],[76.73215,20.70061],[76.73483,20.70116],[76.73525,20.71533],[76.74933,20.71682],[76.75681,20.71913],[76.75948,20.72099],[76.76044,20.72289],[76.76017,20.72581],[76.75671,20.72922],[76.75495,20.73609],[76.75534,20.74636],[76.75876,20.75293],[76.75959,20.75655],[76.76407,20.75997],[76.76721,20.76356],[76.77135,20.77146],[76.77212,20.77479],[76.77252,20.78368],[76.77109,20.78728],[76.76114,20.79373],[76.75055,20.79737],[76.74529,20.7983],[76.74647,20.80932],[76.7454,20.82038],[76.74597,20.82394],[76.75572,20.82593],[76.75565,20.82713],[76.75127,20.83271],[76.75177,20.8381],[76.75582,20.84244],[76.75353,20.84466],[76.75429,20.84845],[76.7593,20.84901],[76.76091,20.85407],[76.7632,20.85599],[76.76288,20.85776],[76.76146,20.86044],[76.7553,20.86578],[76.7514,20.87183],[76.74627,20.87229],[76.74629,20.87643],[76.74401,20.88501],[76.74454,20.88685],[76.7436,20.89017],[76.73311,20.88858],[76.72843,20.88556],[76.72287,20.88591],[76.72241,20.88906],[76.72111,20.89134],[76.71713,20.8928],[76.71739,20.89738],[76.7164,20.8987],[76.71388,20.90034],[76.70654,20.90194],[76.70715,20.90808],[76.70567,20.90996],[76.69574,20.9074],[76.6947,20.9137],[76.68838,20.91662],[76.68952,20.91835],[76.69683,20.92158],[76.70501,20.92159],[76.71577,20.92003],[76.71878,20.91845],[76.72452,20.91941],[76.7278,20.92031],[76.73904,20.92701],[76.74655,20.92793],[76.75228,20.9222],[76.76931,20.9236],[76.77317,20.92214],[76.77898,20.91537],[76.77833,20.91296],[76.77479,20.9116],[76.77488,20.90948],[76.7788,20.90791],[76.78569,20.90848],[76.788,20.91069],[76.7881,20.91333],[76.78562,20.92414],[76.78657,20.92702],[76.78466,20.92912],[76.77934,20.92891],[76.77652,20.92962],[76.77577,20.9318],[76.77934,20.93619],[76.78071,20.9397],[76.7859,20.9402],[76.78692,20.94199],[76.7887,20.95554],[76.78827,20.9619],[76.80793,20.9576],[76.80609,20.9714],[76.7838,20.97127],[76.78459,20.97752],[76.78246,20.99018],[76.78059,20.98851],[76.77617,20.99001],[76.77754,21.00047],[76.77831,21.00312],[76.78903,21.00324],[76.78847,21.00509],[76.78864,21.01316],[76.79219,21.01695],[76.79312,21.02255],[76.78941,21.02684],[76.78915,21.03181],[76.78513,21.03206],[76.78517,21.03235],[76.78223,21.03231],[76.78125,21.02918],[76.77833,21.02831],[76.77755,21.03286],[76.77535,21.03341],[76.77127,21.03412],[76.77131,21.03461],[76.77022,21.03708],[76.76864,21.03829],[76.76548,21.03866],[76.76525,21.04304],[76.77103,21.0458],[76.77413,21.05244],[76.77955,21.05325],[76.78261,21.06144],[76.7832,21.0725],[76.77664,21.07818],[76.77432,21.08887],[76.78178,21.09381],[76.78863,21.1103],[76.78825,21.12251],[76.783,21.1334],[76.77656,21.14327],[76.77877,21.14897],[76.77739,21.1561],[76.77548,21.17116],[76.77218,21.18092],[76.77522,21.18889],[76.78376,21.18896],[76.78881,21.189],[76.79271,21.18479],[76.80719,21.18595],[76.80911,21.18608],[76.82719,21.18732],[76.84256,21.18978],[76.84808,21.19336],[76.85599,21.19078],[76.87867,21.19403],[76.89707,21.19861],[76.92159,21.20222],[76.94232,21.20147],[76.94364,21.20119],[76.95591,21.19863],[76.96371,21.19954],[76.96457,21.19965],[76.9799,21.20441],[76.99916,21.20411],[77.00604,21.20708],[77.00502,21.21482],[77.00307,21.22104],[77.00419,21.2289],[77.01117,21.2373],[77.02022,21.23747],[77.02382,21.24594],[77.03713,21.24516],[77.04378,21.24344],[77.05157,21.23732],[77.05789,21.23398],[77.06024,21.23024],[77.061,21.22653],[77.06449,21.22355],[77.06918,21.22172],[77.07347,21.22151],[77.07731,21.21947],[77.07987,21.2171],[77.08799,21.22324],[77.09271,21.22529],[77.10439,21.22048],[77.1106,21.21901],[77.1161,21.21908],[77.11937,21.22099],[77.12152,21.22609],[77.13003,21.22283],[77.13836,21.22526],[77.1472,21.22667],[77.15266,21.23432],[77.15559,21.2372],[77.16078,21.23801],[77.16476,21.2371],[77.17309,21.22596],[77.17595,21.21568],[77.17507,21.20819],[77.18065,21.20774],[77.18276,21.2037],[77.17967,21.19967],[77.17868,21.19688],[77.17896,21.19241],[77.17357,21.19298],[77.17146,21.18839],[77.16747,21.18624],[77.16516,21.18274],[77.16537,21.17867],[77.16198,21.17107],[77.16252,21.16889],[77.16486,21.1655],[77.16493,21.15981],[77.16254,21.15108],[77.15906,21.1456],[77.16124,21.1438],[77.16466,21.1441],[77.16369,21.14081],[77.16392,21.13628],[77.17128,21.13546],[77.19074,21.13536],[77.1936,21.13899],[77.19691,21.13865],[77.19582,21.12173],[77.18843,21.12123],[77.18247,21.12202],[77.18031,21.11996],[77.17254,21.11991],[77.17153,21.1135],[77.17236,21.10691],[77.17195,21.10076],[77.17281,21.0929],[77.17546,21.08973],[77.17662,21.087],[77.17524,21.083],[77.17604,21.0748],[77.17153,21.07328],[77.16007,21.07355],[77.1492,21.07268],[77.15185,21.0582],[77.15122,21.05422],[77.15225,21.04797],[77.15034,21.04442],[77.15008,21.04115],[77.15097,21.03679],[77.15324,21.03408],[77.16088,21.02877],[77.17341,21.02296],[77.17374,21.00761],[77.173,21.0044],[77.17073,21.00347],[77.16791,21.00038],[77.16917,20.99665],[77.16937,20.98988],[77.16453,20.98807],[77.15124,20.98822],[77.13576,20.98728],[77.13617,20.97437],[77.14785,20.97287],[77.15672,20.9731],[77.16295,20.97169],[77.15709,20.96323],[77.15361,20.955],[77.15085,20.94292],[77.14626,20.93158],[77.14597,20.92643],[77.14523,20.92471],[77.14253,20.92364],[77.1368,20.9161],[77.13684,20.91249],[77.13851,20.90594],[77.13676,20.90022],[77.13932,20.89819],[77.13565,20.88847],[77.13564,20.87596],[77.13416,20.86335],[77.138,20.86229],[77.14516,20.86219],[77.1542,20.8607],[77.1581,20.86721],[77.16043,20.86904],[77.16341,20.86804],[77.16931,20.86278],[77.17095,20.85985],[77.17087,20.85692],[77.17373,20.85456],[77.18239,20.8522],[77.18795,20.85171],[77.19255,20.85305],[77.21357,20.85136],[77.22003,20.85683],[77.22364,20.85766],[77.22737,20.85776],[77.2303,20.85699],[77.23801,20.85802],[77.24429,20.85517],[77.24777,20.85458],[77.25328,20.8554],[77.25793,20.84676],[77.2605,20.84628],[77.26436,20.84832],[77.26915,20.85276],[77.27167,20.85355],[77.27856,20.85167],[77.28721,20.84644],[77.29046,20.84734],[77.29446,20.85092],[77.30326,20.85051],[77.30922,20.855],[77.31205,20.85624],[77.32116,20.85584],[77.32782,20.85699],[77.32799,20.85424],[77.32974,20.84974],[77.33278,20.84737],[77.33747,20.84591],[77.3486,20.84554],[77.35341,20.84418],[77.35778,20.84673],[77.36702,20.84884],[77.37358,20.84351],[77.37828,20.84262],[77.38294,20.84378],[77.38952,20.84844],[77.39602,20.84363],[77.4018,20.84714],[77.4059,20.84791],[77.41124,20.85011],[77.41536,20.84629],[77.4186,20.84535],[77.42265,20.84726],[77.4248,20.84943],[77.42762,20.8494],[77.43115,20.84777],[77.4337,20.84489],[77.43803,20.84502],[77.43984,20.84925],[77.43926,20.85212],[77.44006,20.85252],[77.44689,20.85132],[77.45227,20.85122],[77.46416,20.85536],[77.46332,20.85652],[77.45861,20.85679],[77.45608,20.86065],[77.45616,20.86312],[77.45767,20.86723],[77.46043,20.86979],[77.45997,20.87266],[77.46378,20.87596],[77.46172,20.87804],[77.46227,20.87907],[77.46479,20.88043],[77.46688,20.88046],[77.47346,20.87783],[77.47958,20.87927],[77.48022,20.87485],[77.47836,20.87108],[77.47706,20.86249],[77.49362,20.86098],[77.49747,20.85974],[77.50263,20.85677],[77.51502,20.853],[77.51689,20.84995],[77.52491,20.8512],[77.52947,20.848],[77.53477,20.85226],[77.53893,20.85383],[77.54927,20.85391],[77.55116,20.85315],[77.55304,20.84379],[77.55359,20.83668],[77.55273,20.82986],[77.5532,20.82658],[77.55483,20.82433],[77.55971,20.82302],[77.56814,20.81612],[77.57095,20.80825],[77.57882,20.80743],[77.58103,20.80793],[77.58574,20.80846],[77.59179,20.80738],[77.59578,20.80264],[77.60705,20.79812],[77.61083,20.7982],[77.61258,20.79537],[77.61231,20.77828],[77.61917,20.78006],[77.62094,20.77953],[77.61974,20.77598],[77.61955,20.76887],[77.61612,20.75991]]]}}]}