{"type":"FeatureCollection","features":[{"type":"Feature","properties":{"id":"amravati","name":"Amravati","stateId":"maharashtra","stateName":"Maharashtra","censuscode":503,"type":"district"},"geometry":{"type":"Polygon","coordinates":[[[78.34151,21.58875],[78.34678,21.58112],[78.35242,21.57711],[78.35942,21.57517],[78.36573,21.57656],[78.37081,21.58018],[78.37891,21.58823],[78.38241,21.59385],[78.37682,21.609],[78.37646,21.61326],[78.3805,21.61567],[78.3843,21.61688],[78.38835,21.61487],[78.39412,21.6088],[78.39737,21.60834],[78.40387,21.60933],[78.40932,21.60835],[78.4157,21.60486],[78.42411,21.60257],[78.42741,21.60022],[78.42067,21.58644],[78.41833,21.57604],[78.42078,21.57139],[78.42391,21.5699],[78.4271,21.56203],[78.42556,21.55313],[78.42544,21.54711],[78.42678,21.54418],[78.43035,21.54062],[78.43236,21.53667],[78.43169,21.52857],[78.43267,21.52512],[78.43702,21.51829],[78.43512,21.50756],[78.43493,21.50015],[78.43211,21.49774],[78.43284,21.48837],[78.43039,21.4797],[78.43174,21.47574],[78.43578,21.47265],[78.43793,21.46955],[78.43927,21.46053],[78.44257,21.44853],[78.44448,21.44544],[78.4414,21.44204],[78.44122,21.43964],[78.44392,21.43177],[78.44397,21.42195],[78.45108,21.41535],[78.45151,21.41116],[78.45046,21.40697],[78.44869,21.40455],[78.44624,21.40278],[78.43509,21.40093],[78.4289,21.39799],[78.42333,21.39689],[78.42136,21.39528],[78.4224,21.39098],[78.41812,21.38804],[78.41095,21.38712],[78.40942,21.38367],[78.40593,21.38315],[78.40195,21.38355],[78.39742,21.38516],[78.39233,21.38963],[78.38909,21.38973],[78.38407,21.38635],[78.38174,21.38732],[78.37935,21.39122],[78.37642,21.39403],[78.37378,21.39454],[78.36723,21.39115],[78.36698,21.38357],[78.35835,21.38039],[78.3548,21.37999],[78.35075,21.38079],[78.34849,21.38486],[78.34408,21.37664],[78.33876,21.37256],[78.33306,21.37112],[78.33024,21.36853],[78.32633,21.36645],[78.32179,21.36628],[78.31757,21.36397],[78.31328,21.36064],[78.31077,21.35696],[78.28659,21.34991],[78.276,21.35081],[78.27061,21.34345],[78.25226,21.33698],[78.25127,21.3286],[78.23169,21.32695],[78.22042,21.33077],[78.20206,21.32976],[78.17849,21.33109],[78.15798,21.32978],[78.1554,21.33149],[78.15295,21.33752],[78.15025,21.3413],[78.14442,21.34077],[78.13904,21.34323],[78.13156,21.34476],[78.12415,21.3479],[78.11676,21.34853],[78.11284,21.34973],[78.10525,21.35476],[78.10035,21.35359],[78.09667,21.3537],[78.09017,21.35667],[78.08191,21.35578],[78.07512,21.35329],[78.07439,21.35082],[78.07611,21.34783],[78.07802,21.34067],[78.07976,21.32803],[78.07563,21.31371],[78.07087,21.30549],[78.06806,21.30267],[78.06801,21.29882],[78.07205,21.29453],[78.07598,21.29247],[78.0791,21.28978],[78.08125,21.28691],[78.08249,21.28261],[78.0817,21.27779],[78.07883,21.27485],[78.07577,21.27398],[78.06634,21.27734],[78.0612,21.27422],[78.05884,21.26204],[78.05592,21.25364],[78.05549,21.24916],[78.05864,21.24022],[78.0609,21.23833],[78.06837,21.23847],[78.07175,21.23532],[78.0742,21.22879],[78.07102,21.22419],[78.07384,21.21956],[78.0777,21.21648],[78.08737,21.212],[78.09876,21.19922],[78.09994,21.1939],[78.09964,21.18719],[78.09334,21.18092],[78.09456,21.1769],[78.09842,21.17507],[78.11001,21.16448],[78.11682,21.15936],[78.11909,21.15665],[78.12644,21.15171],[78.1303,21.14809],[78.13434,21.14666],[78.14285,21.14041],[78.14531,21.13719],[78.14481,21.13507],[78.14017,21.13133],[78.13763,21.12138],[78.13306,21.11545],[78.13221,21.11298],[78.13251,21.11016],[78.13485,21.10506],[78.13693,21.10351],[78.14561,21.10233],[78.14762,21.09958],[78.15223,21.07834],[78.15394,21.0749],[78.15395,21.07191],[78.15278,21.06335],[78.15044,21.05668],[78.15217,21.04721],[78.15123,21.0444],[78.14777,21.03984],[78.14234,21.03719],[78.1403,21.03495],[78.14665,21.02589],[78.14721,21.02273],[78.14605,21.01894],[78.14087,21.01174],[78.139,21.00795],[78.13757,21.00409],[78.1381,21.00031],[78.13947,20.99971],[78.14332,20.99485],[78.1481,20.99007],[78.14956,20.98589],[78.15045,20.96606],[78.14878,20.96294],[78.14612,20.95222],[78.14865,20.95058],[78.15239,20.94981],[78.1675,20.94345],[78.16955,20.941],[78.17214,20.93487],[78.17261,20.93177],[78.17633,20.92784],[78.17746,20.9251],[78.17823,20.92257],[78.17872,20.91344],[78.18101,20.91179],[78.18269,20.90905],[78.18304,20.90623],[78.1844,20.90464],[78.19993,20.89904],[78.20469,20.89948],[78.2126,20.90197],[78.21599,20.90827],[78.22318,20.90045],[78.22753,20.89952],[78.2335,20.89606],[78.23778,20.89559],[78.24216,20.89246],[78.24732,20.88992],[78.25025,20.88949],[78.25254,20.88762],[78.25568,20.88644],[78.26524,20.86945],[78.27275,20.86516],[78.27546,20.85857],[78.27899,20.84527],[78.27998,20.8439],[78.2819,20.84208],[78.28424,20.84118],[78.28838,20.8415],[78.29114,20.84095],[78.29225,20.8397],[78.29256,20.82993],[78.29387,20.82765],[78.29668,20.82699],[78.30046,20.82776],[78.30251,20.82962],[78.30424,20.83308],[78.30655,20.83402],[78.30923,20.83444],[78.31262,20.83172],[78.31445,20.82657],[78.31786,20.82309],[78.31819,20.82096],[78.31125,20.81458],[78.30437,20.81355],[78.29976,20.81121],[78.2991,20.8058],[78.29554,20.80244],[78.29664,20.79285],[78.29414,20.78336],[78.29368,20.78162],[78.29428,20.77795],[78.30837,20.76342],[78.3103,20.75834],[78.30688,20.74726],[78.30685,20.7445],[78.30792,20.74204],[78.3112,20.7385],[78.31137,20.73495],[78.30822,20.72325],[78.30071,20.71486],[78.30185,20.7109],[78.29935,20.701],[78.29661,20.69683],[78.29256,20.69829],[78.28918,20.70051],[78.28682,20.6991],[78.28145,20.69882],[78.27953,20.69639],[78.27489,20.69675],[78.25965,20.69569],[78.25733,20.69141],[78.25675,20.68452],[78.25402,20.68392],[78.2366,20.68634],[78.23369,20.68965],[78.23129,20.69095],[78.22647,20.69131],[78.21338,20.68935],[78.21253,20.68905],[78.21106,20.68019],[78.20905,20.67649],[78.20025,20.67721],[78.19355,20.67658],[78.18286,20.67722],[78.18113,20.67055],[78.1738,20.6714],[78.16961,20.66997],[78.16813,20.66708],[78.15892,20.66722],[78.15902,20.65913],[78.14534,20.66055],[78.13614,20.65989],[78.13224,20.66433],[78.1308,20.66271],[78.12503,20.66081],[78.1266,20.6576],[78.13233,20.65405],[78.13137,20.648],[78.12641,20.64899],[78.11973,20.64801],[78.11227,20.64896],[78.1119,20.64017],[78.10392,20.64021],[78.10149,20.64392],[78.0933,20.64096],[78.09737,20.65083],[78.09822,20.65952],[78.1003,20.65902],[78.10032,20.66598],[78.09566,20.66754],[78.09496,20.66977],[78.08906,20.66879],[78.08902,20.67207],[78.08491,20.67306],[78.08308,20.6689],[78.08102,20.66855],[78.08021,20.66469],[78.07706,20.66379],[78.07748,20.6677],[78.07089,20.66833],[78.07153,20.67109],[78.06363,20.67268],[78.06326,20.6694],[78.05873,20.6701],[78.05839,20.66802],[78.04169,20.66752],[78.04056,20.66613],[78.03866,20.66645],[78.03644,20.65948],[78.03412,20.65974],[78.02849,20.65681],[78.02556,20.64886],[78.02126,20.64225],[78.02525,20.63667],[78.02736,20.63382],[78.02665,20.63283],[78.0224,20.63118],[78.02031,20.62817],[78.01515,20.62656],[78.00001,20.62443],[77.99608,20.62284],[77.98841,20.61255],[77.98201,20.60794],[77.9789,20.60334],[77.97642,20.59443],[77.9738,20.5901],[77.97061,20.58735],[77.95753,20.58137],[77.95106,20.57534],[77.95135,20.57996],[77.94457,20.57952],[77.94307,20.57639],[77.93939,20.57529],[77.93411,20.57705],[77.93151,20.57347],[77.93066,20.56873],[77.9285,20.56658],[77.92649,20.56104],[77.92433,20.55855],[77.92178,20.56011],[77.92219,20.56417],[77.91933,20.56524],[77.91237,20.56542],[77.91733,20.57787],[77.91848,20.58816],[77.91518,20.58871],[77.91813,20.59606],[77.91908,20.60452],[77.91648,20.60648],[77.90906,20.6089],[77.90689,20.61222],[77.90087,20.61453],[77.89309,20.62346],[77.88825,20.62169],[77.88565,20.61846],[77.88288,20.61691],[77.88137,20.61208],[77.87737,20.60937],[77.87322,20.6098],[77.86867,20.61155],[77.86614,20.60925],[77.86467,20.59821],[77.86579,20.59487],[77.86211,20.59241],[77.85457,20.58949],[77.84668,20.58765],[77.84718,20.57756],[77.84809,20.57622],[77.8468,20.57039],[77.8376,20.56557],[77.82748,20.57327],[77.8214,20.58104],[77.8171,20.58528],[77.81151,20.58719],[77.80697,20.5668],[77.7942,20.56018],[77.78971,20.55638],[77.7856,20.54753],[77.78245,20.54372],[77.77161,20.53994],[77.76604,20.54465],[77.75603,20.5447],[77.75051,20.54791],[77.7453,20.55819],[77.74191,20.56138],[77.73555,20.5599],[77.72983,20.56271],[77.72108,20.56543],[77.71168,20.56708],[77.70284,20.56741],[77.69294,20.57267],[77.69079,20.57803],[77.68739,20.57972],[77.66683,20.58043],[77.66259,20.57159],[77.65975,20.56822],[77.65918,20.56519],[77.65563,20.56419],[77.65307,20.56418],[77.64594,20.56539],[77.63843,20.56523],[77.63076,20.56679],[77.63549,20.57731],[77.64064,20.58615],[77.64957,20.60856],[77.6518,20.61858],[77.65217,20.62575],[77.65573,20.64717],[77.65543,20.64826],[77.65258,20.65047],[77.65114,20.65369],[77.65294,20.65661],[77.65293,20.66262],[77.64975,20.66242],[77.63896,20.65679],[77.63701,20.65743],[77.63631,20.6676],[77.63753,20.68135],[77.63804,20.68387],[77.64053,20.68849],[77.64049,20.69055],[77.64026,20.69279],[77.63394,20.70244],[77.63435,20.70822],[77.63353,20.7115],[77.63103,20.71313],[77.62342,20.71578],[77.6178,20.71571],[77.61417,20.71901],[77.61638,20.72772],[77.61785,20.72845],[77.62573,20.72746],[77.62508,20.73027],[77.62694,20.73341],[77.62793,20.73461],[77.63001,20.73505],[77.63161,20.7363],[77.63272,20.73807],[77.63454,20.74264],[77.63648,20.75513],[77.63443,20.75675],[77.63125,20.75787],[77.62062,20.75756],[77.61715,20.75857],[77.61611,20.7599],[77.61612,20.75991],[77.61955,20.76887],[77.61974,20.77598],[77.62094,20.77953],[77.61917,20.78006],[77.61231,20.77828],[77.61258,20.79537],[77.61083,20.7982],[77.60705,20.79812],[77.59578,20.80264],[77.59179,20.80738],[77.58574,20.80846],[77.58103,20.80793],[77.57882,20.80743],[77.57095,20.80825],[77.56814,20.81612],[77.55971,20.82302],[77.55483,20.82433],[77.5532,20.82658],[77.55273,20.82986],[77.55359,20.83668],[77.55304,20.84379],[77.55116,20.85315],[77.54927,20.85391],[77.53893,20.85383],[77.53477,20.85226],[77.52947,20.848],[77.52491,20.8512],[77.51689,20.84995],[77.51502,20.853],[77.50263,20.85677],[77.49747,20.85974],[77.49362,20.86098],[77.47706,20.86249],[77.47836,20.87108],[77.48022,20.87485],[77.47958,20.87927],[77.47346,20.87783],[77.46688,20.88046],[77.46479,20.88043],[77.46227,20.87907],[77.46172,20.87804],[77.46378,20.87596],[77.45997,20.87266],[77.46043,20.86979],[77.45767,20.86723],[77.45616,20.86312],[77.45608,20.86065],[77.45861,20.85679],[77.46332,20.85652],[77.46416,20.85536],[77.45227,20.85122],[77.44689,20.85132],[77.44006,20.85252],[77.43926,20.85212],[77.43984,20.84925],[77.43803,20.84502],[77.4337,20.84489],[77.43115,20.84777],[77.42762,20.8494],[77.4248,20.84943],[77.42265,20.84726],[77.4186,20.84535],[77.41536,20.84629],[77.41124,20.85011],[77.4059,20.84791],[77.4018,20.84714],[77.39602,20.84363],[77.38952,20.84844],[77.38294,20.84378],[77.37828,20.84262],[77.37358,20.84351],[77.36702,20.84884],[77.35778,20.84673],[77.35341,20.84418],[77.3486,20.84554],[77.33747,20.84591],[77.33278,20.84737],[77.32974,20.84974],[77.32799,20.85424],[77.32782,20.85699],[77.32116,20.85584],[77.31205,20.85624],[77.30922,20.855],[77.30326,20.85051],[77.29446,20.85092],[77.29046,20.84734],[77.28721,20.84644],[77.27856,20.85167],[77.27167,20.85355],[77.26915,20.85276],[77.26436,20.84832],[77.2605,20.84628],[77.25793,20.84676],[77.25328,20.8554],[77.24777,20.85458],[77.24429,20.85517],[77.23801,20.85802],[77.2303,20.85699],[77.22737,20.85776],[77.22364,20.85766],[77.22003,20.85683],[77.21357,20.85136],[77.19255,20.85305],[77.18795,20.85171],[77.18239,20.8522],[77.17373,20.85456],[77.17087,20.85692],[77.17095,20.85985],[77.16931,20.86278],[77.16341,20.86804],[77.16043,20.86904],[77.1581,20.86721],[77.1542,20.8607],[77.14516,20.86219],[77.138,20.86229],[77.13416,20.86335],[77.13564,20.87596],[77.13565,20.88847],[77.13932,20.89819],[77.13676,20.90022],[77.13851,20.90594],[77.13684,20.91249],[77.1368,20.9161],[77.14253,20.92364],[77.14523,20.92471],[77.14597,20.92643],[77.14626,20.93158],[77.15085,20.94292],[77.15361,20.955],[77.15709,20.96323],[77.16295,20.97169],[77.15672,20.9731],[77.14785,20.97287],[77.13617,20.97437],[77.13576,20.98728],[77.15124,20.98822],[77.16453,20.98807],[77.16937,20.98988],[77.16917,20.99665],[77.16791,21.00038],[77.17073,21.00347],[77.173,21.0044],[77.17374,21.00761],[77.17341,21.02296],[77.16088,21.02877],[77.15324,21.03408],[77.15097,21.03679],[77.15008,21.04115],[77.15034,21.04442],[77.15225,21.04797],[77.15122,21.05422],[77.15185,21.0582],[77.1492,21.07268],[77.16007,21.07355],[77.17153,21.07328],[77.17604,21.0748],[77.17524,21.083],[77.17662,21.087],[77.17546,21.08973],[77.17281,21.0929],[77.17195,21.10076],[77.17236,21.10691],[77.17153,21.1135],[77.17254,21.11991],[77.18031,21.11996],[77.18247,21.12202],[77.18843,21.12123],[77.19582,21.12173],[77.19691,21.13865],[77.1936,21.13899],[77.19074,21.13536],[77.17128,21.13546],[77.16392,21.13628],[77.16369,21.14081],[77.16466,21.1441],[77.16124,21.1438],[77.15906,21.1456],[77.16254,21.15108],[77.16493,21.15981],[77.16486,21.1655],[77.16252,21.16889],[77.16198,21.17107],[77.16537,21.17867],[77.16516,21.18274],[77.16747,21.18624],[77.17146,21.18839],[77.17357,21.19298],[77.17896,21.19241],[77.17868,21.19688],[77.17967,21.19967],[77.18276,21.2037],[77.18065,21.20774],[77.17507,21.20819],[77.17595,21.21568],[77.17309,21.22596],[77.16476,21.2371],[77.16078,21.23801],[77.15559,21.2372],[77.15266,21.23432],[77.1472,21.22667],[77.13836,21.22526],[77.13003,21.22283],[77.12152,21.22609],[77.11937,21.22099],[77.1161,21.21908],[77.1106,21.21901],[77.10439,21.22048],[77.09271,21.22529],[77.08799,21.22324],[77.07987,21.2171],[77.07731,21.21947],[77.07347,21.22151],[77.06918,21.22172],[77.06449,21.22355],[77.061,21.22653],[77.06024,21.23024],[77.05789,21.23398],[77.05157,21.23732],[77.04378,21.24344],[77.03713,21.24516],[77.02382,21.24594],[77.02022,21.23747],[77.01117,21.2373],[77.00419,21.2289],[77.00307,21.22104],[77.00502,21.21482],[77.00604,21.20708],[76.99916,21.20411],[76.9799,21.20441],[76.96457,21.19965],[76.96371,21.19954],[76.95591,21.19863],[76.94364,21.20119],[76.94232,21.20147],[76.92159,21.20222],[76.89707,21.19861],[76.87867,21.19403],[76.85599,21.19078],[76.84808,21.19336],[76.84256,21.18978],[76.82719,21.18732],[76.80911,21.18608],[76.80719,21.18595],[76.79271,21.18479],[76.78881,21.189],[76.78376,21.18896],[76.78255,21.19277],[76.77948,21.19203],[76.77278,21.19062],[76.76802,21.19187],[76.76599,21.19397],[76.76462,21.20214],[76.76054,21.22124],[76.75911,21.22333],[76.7564,21.22281],[76.75405,21.21856],[76.75101,21.21977],[76.74836,21.22206],[76.74757,21.2282],[76.74622,21.23413],[76.74466,21.23898],[76.74469,21.2438],[76.74954,21.25057],[76.74905,21.25327],[76.74616,21.25591],[76.73737,21.26938],[76.73013,21.28115],[76.72409,21.28907],[76.71558,21.28563],[76.70914,21.28513],[76.6993,21.28682],[76.68494,21.2882],[76.67575,21.28197],[76.6628,21.28023],[76.65034,21.29783],[76.64142,21.30844],[76.62752,21.32751],[76.6262,21.33286],[76.63034,21.33752],[76.67019,21.3672],[76.72099,21.39836],[76.73402,21.40652],[76.73918,21.413],[76.74038,21.42707],[76.74537,21.44082],[76.75856,21.4476],[76.77783,21.45779],[76.78624,21.46415],[76.78718,21.47438],[76.79226,21.48001],[76.79389,21.48753],[76.78856,21.49686],[76.77229,21.50837],[76.76498,21.52025],[76.76956,21.52515],[76.77738,21.52963],[76.78763,21.5329],[76.78993,21.53772],[76.78668,21.54364],[76.78495,21.54906],[76.78235,21.56005],[76.7857,21.57553],[76.79362,21.58497],[76.79555,21.59272],[76.7975,21.59508],[76.80602,21.59437],[76.82539,21.59024],[76.83576,21.59062],[76.84087,21.59805],[76.85003,21.61084],[76.85441,21.61257],[76.86301,21.60984],[76.89408,21.59826],[76.90347,21.59838],[76.90802,21.60206],[76.91393,21.61248],[76.98121,21.66351],[76.99986,21.67912],[77.00417,21.67967],[77.01276,21.6819],[77.02076,21.6883],[77.02596,21.69128],[77.03182,21.69357],[77.03693,21.69802],[77.06221,21.70691],[77.06477,21.71254],[77.07176,21.7193],[77.07507,21.72042],[77.07805,21.71987],[77.083,21.7162],[77.08653,21.71613],[77.09671,21.71712],[77.10691,21.72039],[77.11699,21.72236],[77.12393,21.72285],[77.13619,21.71983],[77.15038,21.71217],[77.16066,21.71093],[77.16532,21.71164],[77.16796,21.71444],[77.17095,21.72328],[77.17436,21.72478],[77.18676,21.72202],[77.19098,21.7201],[77.18727,21.702],[77.20433,21.69388],[77.21038,21.69156],[77.21319,21.69468],[77.22096,21.69599],[77.22461,21.69767],[77.22624,21.70173],[77.22761,21.71543],[77.24297,21.71466],[77.25823,21.71274],[77.2611,21.71338],[77.26585,21.72117],[77.27045,21.72662],[77.28627,21.72178],[77.28894,21.72637],[77.29001,21.73398],[77.28641,21.73603],[77.28622,21.73918],[77.28759,21.74398],[77.28541,21.74566],[77.2814,21.74667],[77.28019,21.75732],[77.2831,21.75877],[77.2894,21.76027],[77.29682,21.75745],[77.31206,21.75718],[77.32451,21.75457],[77.32917,21.7549],[77.34063,21.7591],[77.34553,21.75937],[77.35663,21.75701],[77.37921,21.75466],[77.40447,21.75374],[77.41634,21.7553],[77.44191,21.76029],[77.44729,21.76109],[77.45331,21.76098],[77.45605,21.7619],[77.46212,21.76575],[77.47483,21.76882],[77.47893,21.76902],[77.48123,21.7678],[77.48048,21.76554],[77.47862,21.76332],[77.47933,21.75547],[77.49231,21.74785],[77.50037,21.7468],[77.50334,21.7425],[77.50955,21.73883],[77.51187,21.7329],[77.52143,21.72465],[77.52235,21.7188],[77.52457,21.71178],[77.52697,21.71119],[77.52964,21.71268],[77.53694,21.71036],[77.53947,21.70593],[77.54575,21.6987],[77.54813,21.69012],[77.54923,21.68377],[77.55092,21.67927],[77.55408,21.67398],[77.56215,21.66638],[77.56111,21.65332],[77.56394,21.64293],[77.56911,21.63279],[77.5749,21.62481],[77.57455,21.62129],[77.5714,21.61883],[77.57174,21.614],[77.5735,21.60892],[77.57578,21.58548],[77.5738,21.57348],[77.57356,21.56762],[77.57455,21.56046],[77.57765,21.55535],[77.58909,21.55666],[77.59426,21.55945],[77.60936,21.54877],[77.61073,21.54064],[77.59847,21.53104],[77.59282,21.52823],[77.58144,21.52709],[77.57052,21.52762],[77.55691,21.53403],[77.54423,21.53676],[77.53882,21.53689],[77.53266,21.53861],[77.51537,21.54534],[77.51071,21.54863],[77.50781,21.55249],[77.48742,21.5511],[77.47213,21.55229],[77.46811,21.55377],[77.46086,21.55437],[77.45531,21.5534],[77.45366,21.54974],[77.4536,21.54618],[77.44998,21.5434],[77.4454,21.54245],[77.43519,21.5442],[77.43226,21.54345],[77.42681,21.54035],[77.4232,21.53649],[77.42025,21.53086],[77.42209,21.51865],[77.42408,21.5141],[77.43442,21.50006],[77.44252,21.48717],[77.44068,21.48139],[77.43844,21.47951],[77.44115,21.47606],[77.44163,21.47079],[77.45223,21.46755],[77.45712,21.46518],[77.46049,21.46496],[77.47264,21.4548],[77.47192,21.45082],[77.47311,21.44659],[77.47219,21.44083],[77.47255,21.43497],[77.47637,21.43062],[77.48047,21.41881],[77.48511,21.41362],[77.48752,21.39649],[77.48634,21.38836],[77.49038,21.37574],[77.50511,21.37724],[77.51392,21.37477],[77.51587,21.38164],[77.51735,21.3842],[77.52261,21.38781],[77.52412,21.39169],[77.52526,21.40286],[77.52857,21.40907],[77.53058,21.419],[77.54755,21.40939],[77.54873,21.40539],[77.55529,21.40167],[77.56238,21.39618],[77.56271,21.39228],[77.55869,21.39081],[77.5577,21.38838],[77.55988,21.38015],[77.56599,21.37142],[77.56881,21.37067],[77.57438,21.3713],[77.57952,21.36852],[77.58432,21.36718],[77.58796,21.36254],[77.59053,21.36581],[77.60503,21.36333],[77.60837,21.36506],[77.60935,21.36841],[77.60559,21.38225],[77.60421,21.38394],[77.60421,21.38716],[77.60274,21.39058],[77.6051,21.3916],[77.61502,21.39185],[77.61877,21.3887],[77.6329,21.38903],[77.63979,21.38755],[77.64282,21.386],[77.64508,21.38674],[77.64619,21.38946],[77.64952,21.39142],[77.65461,21.39145],[77.65521,21.38825],[77.66574,21.38604],[77.667,21.3837],[77.66673,21.37553],[77.66845,21.37172],[77.67088,21.36958],[77.67367,21.37101],[77.68477,21.38357],[77.69197,21.3948],[77.69484,21.39514],[77.69725,21.39461],[77.69795,21.39262],[77.69631,21.37874],[77.69925,21.37586],[77.70807,21.3758],[77.70887,21.37156],[77.70895,21.3572],[77.72864,21.36227],[77.73764,21.36285],[77.74214,21.36476],[77.74716,21.37819],[77.75027,21.38233],[77.75373,21.38383],[77.76071,21.38453],[77.76522,21.38255],[77.76888,21.38279],[77.78039,21.38616],[77.78937,21.38752],[77.79397,21.38738],[77.79731,21.38888],[77.79784,21.39774],[77.79986,21.40438],[77.80325,21.41042],[77.8084,21.41011],[77.82193,21.40685],[77.83786,21.39966],[77.85056,21.39227],[77.8587,21.38889],[77.8672,21.3863],[77.8874,21.38368],[77.88588,21.37589],[77.89067,21.37863],[77.89633,21.37725],[77.90308,21.37662],[77.90956,21.37778],[77.91581,21.38098],[77.92232,21.38296],[77.92897,21.38428],[77.93584,21.38404],[77.94286,21.38513],[77.94522,21.39716],[77.96408,21.39965],[77.9757,21.3996],[77.98444,21.40103],[78.00002,21.412],[78.00392,21.41439],[78.00865,21.41411],[78.01128,21.41663],[78.02382,21.41882],[78.03338,21.42359],[78.04775,21.43326],[78.05534,21.43526],[78.06801,21.43709],[78.08289,21.44394],[78.09685,21.45425],[78.10511,21.45919],[78.11345,21.46241],[78.13163,21.47164],[78.14724,21.48035],[78.17381,21.49673],[78.17504,21.50029],[78.17583,21.50673],[78.18213,21.51254],[78.17248,21.52423],[78.17555,21.52694],[78.17616,21.53395],[78.1751,21.54038],[78.17723,21.55147],[78.18177,21.55487],[78.18544,21.55683],[78.22002,21.55192],[78.23124,21.55464],[78.24331,21.56368],[78.25115,21.56221],[78.2739,21.56892],[78.27487,21.57058],[78.27365,21.57293],[78.26316,21.58009],[78.26003,21.58343],[78.25978,21.58801],[78.26223,21.59002],[78.26683,21.59193],[78.27076,21.59246],[78.27572,21.59114],[78.28628,21.58496],[78.30467,21.58327],[78.30645,21.57862],[78.30652,21.5711],[78.30879,21.56967],[78.31351,21.57192],[78.32344,21.57383],[78.32767,21.57562],[78.33318,21.57941],[78.34151,21.58875]]]}}]}