{"type":"FeatureCollection","features":[{"type":"Feature","properties":{"id":"aurangabad","name":"Aurangabad","stateId":"maharashtra","stateName":"Maharashtra","censuscode":515,"type":"district"},"geometry":{"type":"Polygon","coordinates":[[[75.88953,20.56336],[75.88833,20.56141],[75.87577,20.55912],[75.87022,20.55985],[75.86497,20.56175],[75.86709,20.55618],[75.87188,20.55153],[75.87932,20.53937],[75.88642,20.53111],[75.88714,20.526],[75.87928,20.52747],[75.87615,20.52993],[75.87359,20.52983],[75.86791,20.52731],[75.86359,20.52765],[75.86308,20.52386],[75.86467,20.52324],[75.8626,20.51785],[75.86158,20.51124],[75.86038,20.5102],[75.85692,20.50968],[75.85669,20.50767],[75.85353,20.50754],[75.85318,20.49655],[75.85167,20.49023],[75.85621,20.48105],[75.85954,20.48194],[75.86185,20.48173],[75.86435,20.47671],[75.8667,20.4675],[75.86788,20.46539],[75.86984,20.46385],[75.8727,20.46383],[75.87492,20.46126],[75.8762,20.45555],[75.87767,20.45384],[75.89434,20.44705],[75.88421,20.44557],[75.88411,20.44379],[75.8819,20.43981],[75.87833,20.43892],[75.87418,20.44031],[75.87011,20.44022],[75.86523,20.4412],[75.86503,20.44298],[75.86925,20.44617],[75.86898,20.44819],[75.85941,20.46192],[75.85751,20.46288],[75.85316,20.45985],[75.84381,20.46005],[75.84044,20.46157],[75.83864,20.46488],[75.83095,20.47272],[75.82559,20.47428],[75.81975,20.47347],[75.81784,20.47099],[75.81547,20.46569],[75.81175,20.46623],[75.79957,20.46329],[75.79826,20.46109],[75.79896,20.453],[75.79621,20.45396],[75.78264,20.45577],[75.77814,20.45543],[75.7737,20.45608],[75.76897,20.45408],[75.76549,20.45071],[75.76277,20.43937],[75.76275,20.43575],[75.75969,20.42716],[75.75067,20.42454],[75.74804,20.42486],[75.7429,20.42337],[75.73924,20.41943],[75.73729,20.41429],[75.74029,20.40818],[75.74974,20.40592],[75.75249,20.40377],[75.75449,20.3992],[75.75466,20.39569],[75.75434,20.39145],[75.75106,20.38153],[75.75056,20.37774],[75.75171,20.37338],[75.75454,20.37094],[75.75971,20.36996],[75.76086,20.36032],[75.76617,20.3582],[75.76945,20.35352],[75.77336,20.33679],[75.76909,20.33761],[75.76704,20.33644],[75.76344,20.33244],[75.75585,20.32776],[75.7505,20.32782],[75.74611,20.32921],[75.74492,20.33695],[75.74072,20.33794],[75.73527,20.33622],[75.73442,20.33155],[75.72628,20.33106],[75.71886,20.33185],[75.71194,20.31706],[75.70818,20.31576],[75.70522,20.31372],[75.68572,20.30937],[75.68435,20.30683],[75.68815,20.29952],[75.69197,20.29513],[75.69664,20.28616],[75.69623,20.28024],[75.69276,20.27043],[75.68956,20.26517],[75.68266,20.25808],[75.6794,20.2469],[75.67608,20.24013],[75.67576,20.23731],[75.67725,20.23492],[75.68079,20.23294],[75.68158,20.22922],[75.68006,20.21972],[75.68018,20.21501],[75.68415,20.2043],[75.68394,20.20148],[75.67921,20.19102],[75.67693,20.18899],[75.67445,20.18822],[75.64871,20.19133],[75.64764,20.18499],[75.64473,20.17628],[75.64324,20.16448],[75.64342,20.15965],[75.63958,20.14611],[75.63871,20.14236],[75.63616,20.13762],[75.63532,20.13199],[75.63578,20.12803],[75.62951,20.10939],[75.62716,20.10537],[75.62083,20.10372],[75.60699,20.10361],[75.58937,20.10196],[75.5892,20.08413],[75.58955,20.07851],[75.59177,20.06828],[75.59428,20.06127],[75.59654,20.06083],[75.60028,20.06248],[75.60331,20.05609],[75.60633,20.0543],[75.60738,20.05179],[75.60295,20.04691],[75.59347,20.02814],[75.59369,20.02332],[75.59548,20.02078],[75.59872,20.01827],[75.6011,20.01407],[75.60138,20.00858],[75.60497,20.00586],[75.61319,20.0045],[75.63854,20.00378],[75.63801,20.00291],[75.63001,20.0006],[75.63633,19.9947],[75.63398,19.98286],[75.6379,19.96902],[75.64079,19.96052],[75.63738,19.95508],[75.64094,19.95516],[75.65082,19.95111],[75.66801,19.93973],[75.66657,19.92683],[75.66763,19.92043],[75.66241,19.91602],[75.65367,19.91046],[75.65009,19.87715],[75.6475,19.87388],[75.65026,19.87073],[75.64723,19.8503],[75.64762,19.83531],[75.65235,19.8247],[75.6526,19.81507],[75.63664,19.81362],[75.64142,19.80087],[75.6452,19.79239],[75.64539,19.78489],[75.63657,19.78254],[75.63852,19.77615],[75.62786,19.77591],[75.62806,19.75256],[75.62805,19.7517],[75.62792,19.74586],[75.63021,19.74534],[75.62979,19.73766],[75.63626,19.73444],[75.63302,19.70435],[75.63005,19.70132],[75.63578,19.67872],[75.63351,19.65539],[75.61038,19.6562],[75.60716,19.64135],[75.60038,19.64061],[75.59094,19.63763],[75.59237,19.62897],[75.59539,19.6194],[75.59993,19.6101],[75.59866,19.60684],[75.60083,19.60225],[75.6139,19.60213],[75.61601,19.59806],[75.6519,19.59483],[75.65335,19.59208],[75.65328,19.58818],[75.65454,19.58548],[75.65514,19.57665],[75.65713,19.56667],[75.65572,19.55446],[75.65087,19.54512],[75.64395,19.52821],[75.64412,19.51169],[75.64531,19.49873],[75.64281,19.48618],[75.63609,19.47019],[75.6348,19.4644],[75.63208,19.4605],[75.62966,19.46067],[75.62392,19.46388],[75.61939,19.46784],[75.6149,19.45655],[75.61133,19.45334],[75.60961,19.43035],[75.61239,19.42805],[75.61843,19.42489],[75.61757,19.40873],[75.61587,19.39989],[75.60987,19.38144],[75.60134,19.38305],[75.5881,19.37835],[75.57596,19.38088],[75.57203,19.37961],[75.52876,19.39894],[75.52303,19.40066],[75.51952,19.40324],[75.51784,19.40846],[75.51772,19.41551],[75.51197,19.42021],[75.50835,19.42422],[75.5092,19.42847],[75.50653,19.43081],[75.50097,19.43047],[75.49191,19.43999],[75.48707,19.43959],[75.4803,19.43156],[75.47746,19.42485],[75.47914,19.42106],[75.47799,19.42141],[75.47497,19.41498],[75.47285,19.41412],[75.46881,19.41309],[75.46209,19.41475],[75.45696,19.41377],[75.45285,19.41177],[75.44892,19.41308],[75.44741,19.41835],[75.44753,19.42684],[75.44409,19.42742],[75.43998,19.4211],[75.43024,19.41599],[75.42244,19.41576],[75.415,19.41753],[75.41144,19.41747],[75.40793,19.4173],[75.40406,19.41477],[75.39584,19.41465],[75.39107,19.40995],[75.38429,19.41017],[75.38194,19.40873],[75.38055,19.40638],[75.37728,19.4034],[75.36617,19.39737],[75.34308,19.40572],[75.34415,19.40893],[75.35026,19.41542],[75.35443,19.42327],[75.35678,19.42999],[75.35696,19.43761],[75.35605,19.44117],[75.35278,19.44535],[75.34933,19.44781],[75.34535,19.44608],[75.33453,19.43747],[75.33205,19.43695],[75.32818,19.44148],[75.32472,19.45397],[75.32635,19.46315],[75.34141,19.46345],[75.34551,19.47332],[75.3498,19.48101],[75.36153,19.47959],[75.36304,19.4852],[75.3611,19.49266],[75.35595,19.50062],[75.349,19.49724],[75.34265,19.49666],[75.33807,19.47853],[75.33051,19.47921],[75.33291,19.50295],[75.32795,19.50346],[75.3285,19.49669],[75.32681,19.49412],[75.32197,19.49337],[75.31448,19.49404],[75.3129,19.49886],[75.30587,19.50057],[75.30581,19.50774],[75.29686,19.50864],[75.27683,19.51286],[75.28462,19.53546],[75.28449,19.54021],[75.28315,19.5463],[75.28134,19.54898],[75.27879,19.55053],[75.27456,19.55145],[75.27093,19.55092],[75.26893,19.54811],[75.26599,19.5293],[75.26369,19.52373],[75.2617,19.52247],[75.25759,19.52333],[75.25123,19.53025],[75.24729,19.53288],[75.24021,19.53677],[75.23155,19.53985],[75.22895,19.54197],[75.2264,19.54575],[75.22028,19.55269],[75.21278,19.55695],[75.20678,19.56183],[75.20515,19.56423],[75.20852,19.57175],[75.20651,19.57834],[75.20391,19.57799],[75.19445,19.59322],[75.18803,19.59585],[75.17968,19.59669],[75.17206,19.5961],[75.16655,19.59477],[75.1625,19.59345],[75.15833,19.58851],[75.15537,19.58747],[75.1527,19.58896],[75.1464,19.5949],[75.14289,19.59547],[75.13327,19.59207],[75.13013,19.59201],[75.11728,19.60252],[75.11394,19.60303],[75.10565,19.60095],[75.09923,19.60466],[75.09583,19.60861],[75.09232,19.60946],[75.07412,19.6062],[75.06988,19.60511],[75.06734,19.60326],[75.06177,19.60337],[75.05789,19.60588],[75.04469,19.61049],[75.04341,19.61295],[75.04292,19.61662],[75.04357,19.62046],[75.04182,19.62224],[75.03806,19.62406],[75.03503,19.62393],[75.02826,19.62163],[75.02269,19.62121],[75.01083,19.62313],[75.00003,19.62175],[74.98387,19.63801],[74.97009,19.64642],[74.9665,19.64711],[74.94907,19.64633],[74.94369,19.64451],[74.94188,19.64156],[74.9382,19.64037],[74.93478,19.64376],[74.93216,19.64809],[74.92742,19.64944],[74.917,19.64958],[74.90914,19.64649],[74.906,19.64448],[74.90244,19.64367],[74.89862,19.64389],[74.89145,19.64592],[74.88979,19.64985],[74.89037,19.65573],[74.88861,19.65629],[74.87808,19.65275],[74.87505,19.65423],[74.86486,19.64856],[74.86423,19.64853],[74.85296,19.64793],[74.84858,19.65037],[74.84621,19.65266],[74.84309,19.6566],[74.8426,19.66004],[74.83699,19.66552],[74.83158,19.6679],[74.83062,19.66663],[74.82482,19.67234],[74.81726,19.66971],[74.81118,19.66307],[74.80394,19.6594],[74.79996,19.65507],[74.78885,19.64955],[74.78053,19.65231],[74.7824,19.66501],[74.78217,19.67172],[74.78813,19.68762],[74.79006,19.68975],[74.8013,19.69424],[74.80371,19.69718],[74.80665,19.703],[74.78747,19.71661],[74.78124,19.71508],[74.78119,19.71376],[74.77523,19.70706],[74.76727,19.7],[74.76238,19.69635],[74.75127,19.69076],[74.74829,19.69218],[74.74627,19.69562],[74.72995,19.69918],[74.73239,19.71436],[74.7299,19.72347],[74.72538,19.72069],[74.72283,19.72078],[74.72087,19.7249],[74.71807,19.72575],[74.71078,19.72053],[74.70664,19.72182],[74.70583,19.72589],[74.71023,19.72965],[74.71233,19.73277],[74.71644,19.73493],[74.71936,19.74241],[74.72255,19.74697],[74.72372,19.75254],[74.72153,19.755],[74.72142,19.76235],[74.72247,19.76781],[74.72011,19.77721],[74.71304,19.78227],[74.70393,19.77532],[74.7031,19.77222],[74.70726,19.7657],[74.70747,19.76231],[74.70512,19.76034],[74.69536,19.75941],[74.69335,19.76101],[74.69191,19.76852],[74.68426,19.76899],[74.67377,19.77075],[74.66747,19.77817],[74.65649,19.77844],[74.65375,19.78008],[74.65014,19.78534],[74.64586,19.78956],[74.63613,19.79432],[74.63407,19.79396],[74.62767,19.78949],[74.624,19.78585],[74.62082,19.78071],[74.61977,19.77646],[74.61549,19.77229],[74.60864,19.77104],[74.60197,19.77162],[74.59783,19.77302],[74.59338,19.77649],[74.59166,19.7797],[74.59197,19.78699],[74.60145,19.80164],[74.60427,19.8216],[74.60669,19.84963],[74.6328,19.84506],[74.63512,19.84369],[74.64472,19.84089],[74.66087,19.83905],[74.66333,19.86112],[74.6481,19.86124],[74.64711,19.87324],[74.64999,19.88634],[74.64916,19.90983],[74.6531,19.91939],[74.65599,19.92216],[74.68195,19.92493],[74.68202,19.93222],[74.67393,19.93509],[74.67333,19.9467],[74.6752,19.96313],[74.67737,19.96481],[74.68209,19.96668],[74.68562,19.96635],[74.68743,19.96757],[74.68952,19.97149],[74.68858,19.97677],[74.68611,19.98336],[74.68528,19.98921],[74.69295,19.99638],[74.69091,20.00057],[74.6919,20.00634],[74.70093,20.01823],[74.71344,20.01662],[74.71808,20.01726],[74.72023,20.02114],[74.71801,20.02655],[74.71316,20.03226],[74.71034,20.04026],[74.72294,20.05476],[74.71498,20.0691],[74.71085,20.07838],[74.72929,20.07969],[74.73825,20.0823],[74.73046,20.11143],[74.70698,20.11314],[74.7053,20.11459],[74.70801,20.11749],[74.70952,20.12177],[74.70741,20.12431],[74.7086,20.12717],[74.711,20.12876],[74.71056,20.13369],[74.71546,20.13507],[74.71878,20.16015],[74.71773,20.1636],[74.71527,20.16752],[74.71763,20.1789],[74.72336,20.18651],[74.72309,20.18892],[74.72401,20.19034],[74.7307,20.18994],[74.73849,20.19467],[74.73932,20.19306],[74.73886,20.18917],[74.74168,20.18594],[74.75631,20.18305],[74.76411,20.18279],[74.75884,20.19643],[74.75997,20.19951],[74.7667,20.20294],[74.77611,20.20531],[74.78073,20.2048],[74.78236,20.20381],[74.78437,20.20396],[74.79038,20.20832],[74.8041,20.23109],[74.78985,20.22602],[74.78467,20.22539],[74.78387,20.23044],[74.8034,20.23425],[74.80943,20.23958],[74.81642,20.24421],[74.81966,20.24411],[74.82323,20.24276],[74.82883,20.24305],[74.83187,20.24238],[74.83238,20.23963],[74.83043,20.23358],[74.83638,20.23197],[74.84404,20.23142],[74.85376,20.22966],[74.8586,20.22709],[74.85333,20.20852],[74.85667,20.20253],[74.85589,20.19338],[74.85647,20.18667],[74.85611,20.17706],[74.86945,20.17761],[74.89905,20.1768],[74.89817,20.16948],[74.9016,20.16689],[74.90669,20.16566],[74.91091,20.15265],[74.92388,20.15357],[74.93051,20.15252],[74.93068,20.15756],[74.92884,20.16101],[74.92534,20.1638],[74.92844,20.16861],[74.92445,20.17066],[74.92687,20.17799],[74.93214,20.18131],[74.93142,20.21369],[74.91111,20.21573],[74.90839,20.24335],[74.92757,20.24481],[74.93422,20.24666],[74.93547,20.25201],[74.93577,20.25749],[74.93492,20.26969],[74.94346,20.2705],[74.94899,20.27317],[74.94438,20.27986],[74.95362,20.28979],[74.97101,20.30407],[74.98747,20.30237],[74.98539,20.3174],[74.98893,20.3303],[74.99192,20.33373],[74.99539,20.3359],[75.00002,20.33685],[75.0126,20.3298],[75.02488,20.32308],[75.0333,20.31642],[75.04825,20.30771],[75.05651,20.30731],[75.05739,20.31381],[75.05623,20.32236],[75.0574,20.32968],[75.05946,20.33401],[75.06259,20.33509],[75.06933,20.33507],[75.07501,20.33589],[75.09233,20.33463],[75.09719,20.33883],[75.09962,20.34306],[75.10438,20.34525],[75.11109,20.34748],[75.12269,20.34757],[75.12546,20.34939],[75.12643,20.35733],[75.12252,20.3751],[75.11847,20.38607],[75.11635,20.39421],[75.11377,20.39612],[75.10808,20.40703],[75.10843,20.41186],[75.11433,20.41481],[75.11744,20.41847],[75.12112,20.42467],[75.12495,20.42461],[75.12585,20.42904],[75.12947,20.43151],[75.13487,20.43158],[75.14102,20.43459],[75.14876,20.43349],[75.15544,20.43398],[75.16147,20.43659],[75.16277,20.44264],[75.16146,20.44952],[75.16205,20.45487],[75.16267,20.47515],[75.16345,20.47597],[75.16793,20.47671],[75.17286,20.47649],[75.17893,20.47761],[75.18261,20.47558],[75.18913,20.47412],[75.20132,20.47629],[75.20058,20.48076],[75.20082,20.48525],[75.20217,20.49182],[75.20332,20.49229],[75.21009,20.49134],[75.21305,20.49282],[75.21169,20.49832],[75.22108,20.4962],[75.22562,20.49345],[75.23001,20.49235],[75.23116,20.49305],[75.22824,20.50106],[75.22667,20.50863],[75.22737,20.51443],[75.2285,20.51664],[75.23168,20.51984],[75.23796,20.52198],[75.23955,20.5216],[75.24308,20.53372],[75.24263,20.53905],[75.24367,20.53924],[75.24739,20.54279],[75.24688,20.54859],[75.24496,20.5516],[75.25219,20.55521],[75.25483,20.57007],[75.25999,20.57892],[75.2668,20.57113],[75.27455,20.56917],[75.28552,20.56838],[75.29292,20.56917],[75.29583,20.57018],[75.29802,20.57486],[75.30066,20.57645],[75.30722,20.57773],[75.31202,20.57774],[75.31806,20.57666],[75.31791,20.58695],[75.32131,20.59153],[75.32879,20.5922],[75.34342,20.58973],[75.35065,20.59023],[75.35309,20.58956],[75.35891,20.59136],[75.36254,20.59686],[75.36222,20.5941],[75.36405,20.58952],[75.36505,20.58351],[75.37025,20.57691],[75.3727,20.57544],[75.38609,20.57951],[75.39126,20.57963],[75.39413,20.57444],[75.39559,20.56624],[75.39586,20.53297],[75.39732,20.52408],[75.40672,20.52207],[75.41266,20.52341],[75.41967,20.51786],[75.42505,20.51539],[75.4342,20.51326],[75.43428,20.51671],[75.43241,20.51962],[75.43038,20.52551],[75.42723,20.52909],[75.42853,20.5321],[75.43058,20.53304],[75.43557,20.53321],[75.43921,20.53802],[75.45098,20.54029],[75.45186,20.52904],[75.45861,20.51602],[75.46258,20.51894],[75.46352,20.52171],[75.46338,20.52728],[75.46137,20.53679],[75.46091,20.55293],[75.46443,20.55298],[75.46826,20.54893],[75.46899,20.54441],[75.47333,20.54268],[75.4847,20.5431],[75.48717,20.54009],[75.48973,20.53097],[75.49567,20.52777],[75.4978,20.53216],[75.498,20.54009],[75.49881,20.54257],[75.50268,20.54491],[75.50541,20.54523],[75.5063,20.54748],[75.50637,20.55076],[75.50864,20.55435],[75.5138,20.55457],[75.51862,20.55854],[75.5262,20.56069],[75.52611,20.56707],[75.52509,20.57028],[75.5255,20.57631],[75.52252,20.59036],[75.52573,20.59516],[75.53363,20.59645],[75.53674,20.60965],[75.54143,20.61062],[75.54383,20.60892],[75.55562,20.60428],[75.55756,20.60527],[75.55761,20.61131],[75.55891,20.61344],[75.56495,20.61271],[75.57118,20.61054],[75.57273,20.60884],[75.57817,20.60579],[75.58187,20.60692],[75.58551,20.60358],[75.59032,20.60265],[75.60508,20.60482],[75.61157,20.60696],[75.61494,20.60923],[75.61091,20.61516],[75.60894,20.62197],[75.61499,20.62415],[75.62484,20.62524],[75.63324,20.6197],[75.64833,20.62003],[75.6528,20.62323],[75.65434,20.62634],[75.66,20.62664],[75.66234,20.62855],[75.66275,20.63539],[75.6606,20.64214],[75.66253,20.64343],[75.66058,20.65351],[75.65627,20.65249],[75.65798,20.66186],[75.66061,20.66602],[75.6667,20.66992],[75.66943,20.67047],[75.67474,20.66937],[75.68979,20.66832],[75.70097,20.66452],[75.70588,20.66153],[75.70306,20.65284],[75.70237,20.64531],[75.69955,20.63128],[75.70008,20.6225],[75.70312,20.61772],[75.7065,20.61534],[75.72438,20.62052],[75.73102,20.61042],[75.73339,20.6101],[75.75133,20.6159],[75.75871,20.61419],[75.7602,20.60124],[75.75903,20.58653],[75.75978,20.57995],[75.76685,20.57841],[75.77232,20.57926],[75.78514,20.58678],[75.7897,20.58659],[75.79132,20.57732],[75.78802,20.5681],[75.78921,20.56537],[75.8057,20.56992],[75.81102,20.56841],[75.81726,20.56484],[75.82058,20.56169],[75.82649,20.5608],[75.83801,20.56367],[75.84593,20.56761],[75.84907,20.56999],[75.8376,20.57308],[75.82962,20.57435],[75.83448,20.58056],[75.83394,20.59528],[75.84538,20.59559],[75.84073,20.60302],[75.83945,20.60917],[75.84076,20.61654],[75.84336,20.61845],[75.85589,20.6183],[75.85607,20.62481],[75.86916,20.62356],[75.87178,20.60082],[75.8874,20.59683],[75.88894,20.57756],[75.88868,20.5681],[75.88953,20.56336]]]}}]}