{"type":"FeatureCollection","features":[{"type":"Feature","properties":{"id":"buldana","name":"Buldana","stateId":"maharashtra","stateName":"Maharashtra","censuscode":500,"type":"district"},"geometry":{"type":"Polygon","coordinates":[[[76.78376,21.18896],[76.77522,21.18889],[76.77218,21.18092],[76.77548,21.17116],[76.77739,21.1561],[76.77877,21.14897],[76.77656,21.14327],[76.783,21.1334],[76.78825,21.12251],[76.78863,21.1103],[76.78178,21.09381],[76.77432,21.08887],[76.77664,21.07818],[76.7832,21.0725],[76.78261,21.06144],[76.77955,21.05325],[76.77413,21.05244],[76.77103,21.0458],[76.76525,21.04304],[76.76548,21.03866],[76.76864,21.03829],[76.77022,21.03708],[76.77131,21.03461],[76.77127,21.03412],[76.77535,21.03341],[76.77755,21.03286],[76.77833,21.02831],[76.78125,21.02918],[76.78223,21.03231],[76.78517,21.03235],[76.78513,21.03206],[76.78915,21.03181],[76.78941,21.02684],[76.79312,21.02255],[76.79219,21.01695],[76.78864,21.01316],[76.78847,21.00509],[76.78903,21.00324],[76.77831,21.00312],[76.77754,21.00047],[76.77617,20.99001],[76.78059,20.98851],[76.78246,20.99018],[76.78459,20.97752],[76.7838,20.97127],[76.80609,20.9714],[76.80793,20.9576],[76.78827,20.9619],[76.7887,20.95554],[76.78692,20.94199],[76.7859,20.9402],[76.78071,20.9397],[76.77934,20.93619],[76.77577,20.9318],[76.77652,20.92962],[76.77934,20.92891],[76.78466,20.92912],[76.78657,20.92702],[76.78562,20.92414],[76.7881,20.91333],[76.788,20.91069],[76.78569,20.90848],[76.7788,20.90791],[76.77488,20.90948],[76.77479,20.9116],[76.77833,20.91296],[76.77898,20.91537],[76.77317,20.92214],[76.76931,20.9236],[76.75228,20.9222],[76.74655,20.92793],[76.73904,20.92701],[76.7278,20.92031],[76.72452,20.91941],[76.71878,20.91845],[76.71577,20.92003],[76.70501,20.92159],[76.69683,20.92158],[76.68952,20.91835],[76.68838,20.91662],[76.6947,20.9137],[76.69574,20.9074],[76.70567,20.90996],[76.70715,20.90808],[76.70654,20.90194],[76.71388,20.90034],[76.7164,20.8987],[76.71739,20.89738],[76.71713,20.8928],[76.72111,20.89134],[76.72241,20.88906],[76.72287,20.88591],[76.72843,20.88556],[76.73311,20.88858],[76.7436,20.89017],[76.74454,20.88685],[76.74401,20.88501],[76.74629,20.87643],[76.74627,20.87229],[76.7514,20.87183],[76.7553,20.86578],[76.76146,20.86044],[76.76288,20.85776],[76.7632,20.85599],[76.76091,20.85407],[76.7593,20.84901],[76.75429,20.84845],[76.75353,20.84466],[76.75582,20.84244],[76.75177,20.8381],[76.75127,20.83271],[76.75565,20.82713],[76.75572,20.82593],[76.74597,20.82394],[76.7454,20.82038],[76.74647,20.80932],[76.74529,20.7983],[76.75055,20.79737],[76.76114,20.79373],[76.77109,20.78728],[76.77252,20.78368],[76.77212,20.77479],[76.77135,20.77146],[76.76721,20.76356],[76.76407,20.75997],[76.75959,20.75655],[76.75876,20.75293],[76.75534,20.74636],[76.75495,20.73609],[76.75671,20.72922],[76.76017,20.72581],[76.76044,20.72289],[76.75948,20.72099],[76.75681,20.71913],[76.74933,20.71682],[76.73525,20.71533],[76.73483,20.70116],[76.73215,20.70061],[76.72861,20.70109],[76.72636,20.70062],[76.72449,20.69877],[76.72293,20.69514],[76.72295,20.69307],[76.72718,20.6907],[76.73084,20.69079],[76.73781,20.68914],[76.73695,20.68293],[76.73946,20.68101],[76.73861,20.67475],[76.73979,20.66534],[76.7356,20.65728],[76.76032,20.65595],[76.76616,20.64986],[76.76153,20.64925],[76.75831,20.64796],[76.75613,20.64553],[76.7558,20.64214],[76.7512,20.6316],[76.77222,20.62738],[76.76335,20.60297],[76.77505,20.60377],[76.78572,20.60334],[76.78818,20.60032],[76.79067,20.59541],[76.78942,20.59167],[76.78359,20.58875],[76.77842,20.58819],[76.77843,20.58664],[76.77037,20.57544],[76.78478,20.57149],[76.78127,20.56246],[76.77683,20.5541],[76.77504,20.54365],[76.77349,20.53944],[76.77137,20.51734],[76.77007,20.51291],[76.76486,20.51005],[76.76103,20.50933],[76.75737,20.5093],[76.75296,20.51236],[76.75256,20.5022],[76.75064,20.49799],[76.74793,20.49579],[76.74235,20.49293],[76.73712,20.49179],[76.74172,20.5017],[76.74113,20.50651],[76.73902,20.51068],[76.73619,20.51273],[76.7271,20.51488],[76.71656,20.51358],[76.71223,20.50787],[76.70496,20.48365],[76.70525,20.47992],[76.70899,20.47083],[76.70772,20.46909],[76.69886,20.47206],[76.69393,20.45847],[76.69767,20.4557],[76.71466,20.43703],[76.71313,20.42457],[76.7138,20.41827],[76.72006,20.41872],[76.72261,20.41445],[76.7227,20.41112],[76.72736,20.40674],[76.72766,20.40147],[76.7271,20.39549],[76.72502,20.38945],[76.71732,20.38646],[76.70881,20.38546],[76.70623,20.37339],[76.70701,20.36869],[76.70602,20.36352],[76.69961,20.35336],[76.72794,20.34387],[76.72671,20.33835],[76.73153,20.33742],[76.73387,20.34134],[76.73654,20.34211],[76.74345,20.33879],[76.74705,20.33813],[76.74423,20.32623],[76.75739,20.32456],[76.76223,20.32162],[76.76948,20.31395],[76.76989,20.32238],[76.78063,20.32001],[76.78837,20.31755],[76.79284,20.3153],[76.79118,20.30926],[76.78599,20.29803],[76.78856,20.29013],[76.79212,20.28602],[76.80059,20.28576],[76.80768,20.28817],[76.81031,20.27953],[76.81439,20.27922],[76.81943,20.28064],[76.82172,20.2804],[76.82199,20.28038],[76.82679,20.27319],[76.82977,20.26696],[76.82317,20.26341],[76.82313,20.26128],[76.82693,20.25087],[76.82697,20.24588],[76.82049,20.23498],[76.81501,20.22983],[76.8115,20.21959],[76.79666,20.21923],[76.79168,20.2123],[76.78684,20.20301],[76.78214,20.20367],[76.76659,20.2084],[76.76306,20.20872],[76.75022,20.20895],[76.74722,20.20474],[76.7463,20.19904],[76.74721,20.19291],[76.75014,20.18502],[76.75118,20.17677],[76.74972,20.17148],[76.74951,20.16626],[76.76203,20.16166],[76.75866,20.13076],[76.74888,20.1301],[76.73644,20.12649],[76.71947,20.12743],[76.70627,20.12244],[76.68187,20.1241],[76.67091,20.12635],[76.66725,20.12116],[76.66362,20.12003],[76.6606,20.1173],[76.65879,20.11286],[76.65848,20.1062],[76.66088,20.0975],[76.65213,20.09007],[76.64915,20.08373],[76.64771,20.0684],[76.63682,20.06939],[76.63479,20.07894],[76.63039,20.08229],[76.62625,20.062],[76.62488,20.04971],[76.66258,20.04794],[76.6611,20.03416],[76.65935,20.02679],[76.65929,20.01882],[76.65798,20.01256],[76.65886,20.00066],[76.6455,19.98175],[76.65106,19.9806],[76.65982,19.97628],[76.66034,19.97197],[76.65941,19.96293],[76.64569,19.96299],[76.64114,19.96085],[76.63805,19.95845],[76.63453,19.95303],[76.63484,19.94539],[76.63615,19.93849],[76.63596,19.93292],[76.6355,19.9287],[76.63345,19.9265],[76.62326,19.92127],[76.61234,19.92162],[76.60799,19.92274],[76.60674,19.92098],[76.61112,19.91607],[76.61492,19.90705],[76.61459,19.90018],[76.61107,19.89756],[76.61176,19.89044],[76.62688,19.89081],[76.63498,19.89752],[76.6414,19.89956],[76.64747,19.89989],[76.65448,19.89842],[76.65658,19.89706],[76.65907,19.89202],[76.65817,19.88682],[76.65266,19.8741],[76.64739,19.86626],[76.64695,19.86561],[76.64577,19.86597],[76.64339,19.86671],[76.63343,19.86623],[76.62948,19.85514],[76.62337,19.84254],[76.61054,19.8381],[76.6013,19.843],[76.59991,19.84073],[76.5914,19.84286],[76.56906,19.84446],[76.56905,19.83838],[76.54969,19.844],[76.54368,19.84401],[76.54042,19.84477],[76.53302,19.85042],[76.53297,19.85079],[76.53236,19.85588],[76.53027,19.86051],[76.53362,19.86428],[76.52638,19.86861],[76.51981,19.87082],[76.51544,19.87612],[76.51152,19.87408],[76.50025,19.88348],[76.49532,19.89104],[76.49207,19.89827],[76.49128,19.90356],[76.49114,19.90838],[76.49327,19.91694],[76.49068,19.91807],[76.48275,19.91904],[76.46517,19.91733],[76.45152,19.92047],[76.44764,19.91814],[76.44021,19.91645],[76.41765,19.91759],[76.40822,19.91972],[76.40347,19.91581],[76.39931,19.90849],[76.39414,19.9055],[76.39023,19.90425],[76.38798,19.90637],[76.3835,19.91866],[76.37895,19.91892],[76.37303,19.92334],[76.36816,19.92567],[76.36626,19.92479],[76.36614,19.92158],[76.3576,19.90811],[76.35495,19.90024],[76.3545,19.89618],[76.35312,19.89369],[76.34799,19.88977],[76.34597,19.89164],[76.34396,19.89134],[76.34347,19.8882],[76.33958,19.88191],[76.33462,19.88264],[76.32769,19.88191],[76.32408,19.88049],[76.32049,19.8774],[76.31849,19.87716],[76.31413,19.87489],[76.31215,19.8759],[76.31004,19.87698],[76.30862,19.87868],[76.30515,19.87765],[76.30103,19.87527],[76.29819,19.86959],[76.29475,19.87069],[76.28312,19.872],[76.26216,19.87326],[76.25657,19.8733],[76.25203,19.87052],[76.24836,19.86939],[76.24099,19.87079],[76.2301,19.86377],[76.21455,19.8659],[76.21217,19.86468],[76.20986,19.86163],[76.19883,19.86229],[76.19693,19.85826],[76.1934,19.85477],[76.18787,19.85097],[76.17461,19.84933],[76.16983,19.85016],[76.15198,19.85588],[76.14954,19.85518],[76.14914,19.85352],[76.14971,19.84525],[76.14011,19.84446],[76.13701,19.85008],[76.13501,19.85642],[76.12931,19.86283],[76.12107,19.86413],[76.12056,19.85944],[76.10954,19.86027],[76.10024,19.85591],[76.09607,19.86682],[76.09372,19.87099],[76.08329,19.88098],[76.08161,19.88457],[76.08086,19.88991],[76.08055,19.91152],[76.06356,19.91571],[76.06137,19.91815],[76.06033,19.92417],[76.05821,19.93051],[76.05156,19.93194],[76.04929,19.93702],[76.05463,19.94025],[76.05331,19.94158],[76.04862,19.94725],[76.04421,19.94504],[76.04256,19.95046],[76.03765,19.94792],[76.02885,19.94809],[76.01401,19.95323],[76.0165,19.96601],[76.01665,19.97397],[76.0135,19.97172],[76.01126,19.97142],[76.00513,19.97186],[76.00003,19.97343],[75.99477,19.97683],[75.99045,19.97516],[75.98834,19.98107],[75.98422,19.98182],[75.97444,19.98487],[75.96965,19.9895],[75.96669,19.99449],[75.96725,20.00009],[75.96819,20.00121],[75.96857,20.00221],[75.97613,20.00089],[75.98584,20.00281],[75.99423,20.00489],[76.00002,20.01329],[76.00367,20.01265],[76.00803,20.0146],[76.00981,20.01881],[76.01305,20.02304],[76.02471,20.02313],[76.02408,20.03213],[76.02478,20.04471],[76.01972,20.05899],[76.02731,20.06046],[76.05732,20.06376],[76.06081,20.06697],[76.06813,20.06959],[76.07063,20.07409],[76.06692,20.08323],[76.06164,20.08707],[76.05547,20.08555],[76.05653,20.09681],[76.0573,20.09843],[76.06186,20.09883],[76.06563,20.09784],[76.07143,20.10038],[76.07847,20.10133],[76.08519,20.09809],[76.08904,20.10095],[76.09215,20.09593],[76.09543,20.095],[76.09741,20.09726],[76.09893,20.10686],[76.10237,20.11758],[76.10151,20.12325],[76.10234,20.12912],[76.10723,20.13204],[76.10934,20.13781],[76.10996,20.14223],[76.10684,20.15299],[76.11092,20.16159],[76.11842,20.15967],[76.1228,20.15983],[76.12149,20.16774],[76.12251,20.16833],[76.12562,20.16739],[76.12692,20.1701],[76.12644,20.17475],[76.12816,20.17781],[76.12885,20.18091],[76.13267,20.1821],[76.1338,20.18396],[76.13274,20.1906],[76.13544,20.19866],[76.14309,20.19962],[76.15124,20.20454],[76.15146,20.20597],[76.14076,20.21095],[76.13519,20.2184],[76.13418,20.22172],[76.13814,20.22556],[76.13847,20.22906],[76.1469,20.23111],[76.14994,20.23471],[76.15346,20.23561],[76.1664,20.23668],[76.17024,20.24665],[76.17066,20.25188],[76.17219,20.25609],[76.17849,20.26345],[76.18372,20.26781],[76.18857,20.28469],[76.19178,20.29057],[76.19489,20.30031],[76.19226,20.30108],[76.19172,20.30044],[76.18491,20.30013],[76.18304,20.29896],[76.177,20.30027],[76.17629,20.29854],[76.17226,20.29453],[76.16787,20.29528],[76.16072,20.29778],[76.1564,20.30272],[76.15247,20.3006],[76.14511,20.29965],[76.14188,20.2999],[76.14205,20.30197],[76.14887,20.30624],[76.1455,20.31097],[76.14189,20.31208],[76.13605,20.31711],[76.13374,20.31714],[76.13255,20.31466],[76.12983,20.31331],[76.12745,20.31379],[76.12629,20.31521],[76.12979,20.31675],[76.13146,20.31946],[76.12659,20.32428],[76.12665,20.32899],[76.12897,20.33773],[76.12892,20.34112],[76.12745,20.34225],[76.12411,20.34164],[76.12264,20.34294],[76.12162,20.34579],[76.1193,20.3464],[76.11646,20.34521],[76.11329,20.34587],[76.10899,20.35292],[76.10406,20.35356],[76.10023,20.35299],[76.09769,20.3467],[76.09557,20.34553],[76.09194,20.34823],[76.09238,20.35748],[76.08776,20.3608],[76.08701,20.36281],[76.08315,20.36471],[76.0801,20.36031],[76.07852,20.35553],[76.07224,20.34662],[76.06934,20.34543],[76.06833,20.34353],[76.06506,20.34199],[76.05631,20.3409],[76.0531,20.33909],[76.04956,20.33571],[76.04524,20.32665],[76.03743,20.31439],[76.0365,20.311],[76.03363,20.30659],[76.03089,20.29767],[76.03054,20.29261],[76.03114,20.28843],[76.02635,20.28717],[76.01888,20.28638],[76.01781,20.28896],[76.00843,20.28895],[76.00242,20.28795],[76.00112,20.29028],[76.00292,20.29616],[76.00239,20.29919],[76.00461,20.30215],[76.0045,20.30547],[76.00003,20.31155],[75.9977,20.31306],[75.99532,20.31183],[75.99452,20.3092],[75.98412,20.30937],[75.98016,20.31024],[75.97826,20.31215],[75.97792,20.31485],[75.97529,20.31645],[75.96913,20.31355],[75.9552,20.30319],[75.95081,20.30062],[75.94588,20.30036],[75.93292,20.30405],[75.92814,20.30691],[75.92707,20.30978],[75.92624,20.32014],[75.92663,20.32331],[75.92962,20.32823],[75.93269,20.3314],[75.93419,20.33802],[75.93794,20.3402],[75.94243,20.3451],[75.94468,20.35157],[75.94441,20.36114],[75.94217,20.37123],[75.95328,20.37175],[75.96012,20.36835],[75.96031,20.37354],[75.96814,20.37362],[75.96516,20.38038],[75.95369,20.38993],[75.95055,20.39439],[75.94848,20.40064],[75.94931,20.40885],[75.94834,20.41361],[75.9452,20.42323],[75.9422,20.42555],[75.94482,20.4362],[75.94908,20.44668],[75.95767,20.45673],[75.95818,20.46573],[75.95458,20.46644],[75.95536,20.47338],[75.95075,20.47352],[75.94761,20.48185],[75.94416,20.48635],[75.94242,20.49561],[75.94434,20.50392],[75.94935,20.51314],[75.95055,20.51955],[75.95419,20.52047],[75.95642,20.52219],[75.95791,20.52442],[75.95856,20.52739],[75.97076,20.52298],[75.97343,20.52939],[75.97398,20.53347],[75.98327,20.52946],[75.99076,20.5304],[75.99479,20.53358],[75.99888,20.5299],[76.00002,20.53055],[76.00199,20.53074],[76.00856,20.53588],[76.01159,20.53701],[76.01213,20.53375],[76.01385,20.5321],[76.01845,20.53027],[76.01965,20.53573],[76.01945,20.54675],[76.01849,20.55029],[76.02114,20.55222],[76.02613,20.55308],[76.03226,20.55535],[76.03623,20.55413],[76.0403,20.55505],[76.03988,20.5594],[76.03976,20.56364],[76.03806,20.56747],[76.03784,20.57016],[76.04187,20.57893],[76.04214,20.58163],[76.03864,20.58801],[76.03885,20.59524],[76.04034,20.59721],[76.03996,20.60352],[76.03816,20.61078],[76.0343,20.61653],[76.03161,20.62544],[76.03376,20.63407],[76.03284,20.63848],[76.02625,20.64378],[76.02257,20.64512],[76.01799,20.64557],[76.0137,20.64293],[76.01107,20.64302],[76.00884,20.64545],[76.00671,20.6495],[76.00636,20.65294],[76.00437,20.65595],[76.00258,20.65811],[76.00003,20.65894],[75.99814,20.66736],[75.99923,20.67266],[76.00003,20.67426],[76.00366,20.68084],[76.00387,20.68377],[76.00349,20.68864],[76.00003,20.69083],[75.99885,20.69383],[75.99707,20.69656],[75.99888,20.70903],[75.99872,20.71269],[76.00002,20.71562],[76.01332,20.72043],[76.01735,20.72404],[76.01625,20.72495],[76.01441,20.72934],[76.01637,20.72942],[76.01603,20.73142],[76.01261,20.73178],[76.01215,20.73866],[76.00705,20.74186],[76.00247,20.74221],[76.00003,20.7432],[75.99132,20.75085],[75.98836,20.75401],[75.98691,20.75885],[75.99032,20.76313],[75.9962,20.76492],[75.99752,20.76787],[75.99706,20.77129],[75.99798,20.77794],[76.00002,20.77934],[76.01207,20.78053],[76.01231,20.78552],[76.01855,20.78469],[76.03557,20.7857],[76.04299,20.7834],[76.04993,20.78824],[76.04942,20.79058],[76.05073,20.79278],[76.0499,20.79507],[76.05085,20.79742],[76.05755,20.80354],[76.05236,20.80789],[76.04974,20.8125],[76.05108,20.81647],[76.05479,20.81831],[76.05635,20.81999],[76.0583,20.82511],[76.06121,20.82675],[76.06556,20.82532],[76.06688,20.82735],[76.06806,20.82954],[76.07394,20.83356],[76.07391,20.8358],[76.07547,20.83794],[76.07556,20.84489],[76.08036,20.84621],[76.08085,20.85086],[76.08282,20.8541],[76.0987,20.87254],[76.10773,20.87821],[76.11165,20.8817],[76.11521,20.89029],[76.11541,20.89328],[76.11155,20.89443],[76.10515,20.89825],[76.10407,20.90111],[76.10093,20.9033],[76.09308,20.90585],[76.08072,20.90804],[76.08411,20.92753],[76.08965,20.92927],[76.09021,20.9338],[76.09282,20.93979],[76.09214,20.9435],[76.10039,20.94482],[76.10457,20.94723],[76.10975,20.94877],[76.11331,20.95255],[76.11641,20.95781],[76.11726,20.96275],[76.12266,20.97527],[76.12466,20.97724],[76.13215,20.97876],[76.14471,20.98585],[76.14756,20.99186],[76.15653,20.99764],[76.15943,21.00035],[76.16231,21.00831],[76.16241,21.01067],[76.16363,21.01471],[76.16382,21.02031],[76.16515,21.02262],[76.16518,21.02746],[76.16498,21.03015],[76.16424,21.03318],[76.16507,21.0364],[76.16594,21.03807],[76.16651,21.04002],[76.16734,21.04016],[76.1685,21.03906],[76.17007,21.03652],[76.17049,21.03512],[76.17386,21.03225],[76.17742,21.03019],[76.18291,21.02812],[76.18617,21.02684],[76.18862,21.02561],[76.19146,21.0235],[76.1934,21.02154],[76.1956,21.01866],[76.19761,21.01676],[76.20046,21.01485],[76.20388,21.01404],[76.20773,21.0133],[76.21281,21.01351],[76.21503,21.01339],[76.22078,21.013],[76.22581,21.01191],[76.2283,21.00991],[76.23028,21.00791],[76.23228,21.00047],[76.23955,20.9907],[76.24703,20.98815],[76.25224,20.9877],[76.25881,20.98491],[76.26719,20.97989],[76.27287,20.97405],[76.27632,20.9718],[76.27862,20.96827],[76.28058,20.9582],[76.28469,20.95744],[76.28852,20.95806],[76.29305,20.9576],[76.29886,20.9572],[76.31457,20.95165],[76.3202,20.9505],[76.33888,20.95122],[76.34691,20.94977],[76.34689,20.95625],[76.3538,20.95592],[76.35439,20.95811],[76.35397,20.9624],[76.3603,20.96499],[76.36537,20.97004],[76.36723,20.97327],[76.36797,20.97781],[76.37611,20.97663],[76.37971,20.97661],[76.38331,20.97751],[76.38368,20.98796],[76.38698,20.99287],[76.39015,21.00063],[76.39246,21.01049],[76.39386,21.01244],[76.39441,21.01414],[76.39479,21.01592],[76.39426,21.01866],[76.39356,21.02055],[76.39408,21.02289],[76.39494,21.025],[76.39622,21.02665],[76.39691,21.02847],[76.39815,21.03032],[76.39804,21.03255],[76.39736,21.0364],[76.39652,21.04008],[76.39556,21.04203],[76.39483,21.04377],[76.39316,21.04599],[76.39067,21.04954],[76.38872,21.05528],[76.38751,21.05912],[76.38703,21.06238],[76.38743,21.06557],[76.38767,21.06756],[76.38697,21.07048],[76.38638,21.07263],[76.38554,21.07457],[76.38455,21.07618],[76.38353,21.07728],[76.38379,21.07751],[76.39117,21.086],[76.39789,21.08852],[76.41054,21.09204],[76.41293,21.1052],[76.43489,21.10463],[76.43866,21.10553],[76.44224,21.11006],[76.44891,21.1108],[76.45105,21.11166],[76.4539,21.11281],[76.45413,21.12235],[76.45715,21.12984],[76.45873,21.13625],[76.46676,21.13716],[76.46824,21.1411],[76.46801,21.14518],[76.47023,21.14847],[76.47617,21.14997],[76.47826,21.15321],[76.47801,21.15918],[76.47957,21.17356],[76.48375,21.1861],[76.4887,21.19392],[76.49248,21.19569],[76.49941,21.19401],[76.52217,21.1871],[76.5306,21.18717],[76.54272,21.19416],[76.56085,21.20368],[76.57668,21.20194],[76.57756,21.20154],[76.58828,21.19656],[76.6072,21.19505],[76.6139,21.1938],[76.61839,21.19645],[76.62162,21.19332],[76.62499,21.19054],[76.6285,21.19669],[76.63321,21.20325],[76.63299,21.21351],[76.63332,21.22675],[76.63895,21.23696],[76.64425,21.24557],[76.65157,21.24686],[76.6602,21.24566],[76.66072,21.25109],[76.66117,21.25997],[76.66191,21.27142],[76.6628,21.28023],[76.67575,21.28197],[76.68494,21.2882],[76.6993,21.28682],[76.70914,21.28513],[76.71558,21.28563],[76.72409,21.28907],[76.73013,21.28115],[76.73737,21.26938],[76.74616,21.25591],[76.74905,21.25327],[76.74954,21.25057],[76.74469,21.2438],[76.74466,21.23898],[76.74622,21.23413],[76.74757,21.2282],[76.74836,21.22206],[76.75101,21.21977],[76.75405,21.21856],[76.7564,21.22281],[76.75911,21.22333],[76.76054,21.22124],[76.76462,21.20214],[76.76599,21.19397],[76.76802,21.19187],[76.77278,21.19062],[76.77948,21.19203],[76.78255,21.19277],[76.78376,21.18896]]]}}]}