{"type":"FeatureCollection","features":[{"type":"Feature","properties":{"id":"chandrapur","name":"Chandrapur","stateId":"maharashtra","stateName":"Maharashtra","censuscode":509,"type":"district"},"geometry":{"type":"Polygon","coordinates":[[[79.93299,20.66653],[79.93634,20.66057],[79.94101,20.64877],[79.94332,20.63786],[79.94285,20.6241],[79.94068,20.61209],[79.94117,20.60162],[79.9383,20.58236],[79.93359,20.56645],[79.92762,20.55217],[79.93471,20.54356],[79.94853,20.5369],[79.95281,20.52815],[79.95132,20.51142],[79.95197,20.50017],[79.94531,20.47442],[79.94131,20.44675],[79.94306,20.43487],[79.95523,20.4237],[79.96213,20.41498],[79.96402,20.40505],[79.96166,20.3974],[79.96033,20.38351],[79.96596,20.3715],[79.97351,20.36074],[79.97386,20.34998],[79.96858,20.34216],[79.96372,20.33843],[79.95715,20.33382],[79.94999,20.32688],[79.94563,20.31659],[79.94492,20.30548],[79.94539,20.29401],[79.94936,20.28496],[79.95684,20.27572],[79.97162,20.26423],[79.97908,20.25669],[79.98542,20.24849],[79.99229,20.23754],[79.99541,20.22907],[79.99584,20.21977],[79.99379,20.21211],[79.98952,20.20676],[79.98336,20.20516],[79.97245,20.20439],[79.96519,20.20233],[79.95565,20.19881],[79.9467,20.19396],[79.94151,20.1921],[79.9342,20.18689],[79.92156,20.16879],[79.91695,20.15982],[79.91269,20.14978],[79.91221,20.14552],[79.91368,20.14075],[79.92056,20.13588],[79.93019,20.13145],[79.93885,20.12889],[79.95707,20.12539],[79.96541,20.12112],[79.97236,20.11274],[79.97832,20.10319],[79.98456,20.07949],[79.98594,20.0667],[79.99159,20.04534],[79.98401,20.02934],[79.97244,20.01493],[79.96469,20.00418],[79.9626,19.99981],[79.95723,19.99302],[79.95054,19.98477],[79.9376,19.9758],[79.92437,19.97059],[79.9125,19.96759],[79.89504,19.96953],[79.88097,19.97682],[79.87116,19.98402],[79.86877,19.99121],[79.86985,20.00011],[79.8707,20.00114],[79.85668,20.02142],[79.84869,20.03248],[79.8142,20.02887],[79.79872,20.02028],[79.7884,20.00971],[79.7807,20.00036],[79.77973,19.98698],[79.77553,19.97973],[79.77221,19.97196],[79.77687,19.95002],[79.78444,19.93595],[79.79279,19.92408],[79.79557,19.91679],[79.79923,19.91297],[79.80567,19.89994],[79.80515,19.89363],[79.80342,19.88976],[79.79891,19.88531],[79.79156,19.88127],[79.78661,19.87521],[79.78658,19.86875],[79.78173,19.86344],[79.76605,19.85442],[79.75854,19.84677],[79.74759,19.8308],[79.74407,19.8234],[79.74381,19.81652],[79.74561,19.79004],[79.74739,19.77908],[79.75179,19.77218],[79.75499,19.76038],[79.76096,19.74877],[79.78198,19.72628],[79.78681,19.71744],[79.78744,19.70857],[79.78686,19.69229],[79.78797,19.66366],[79.78698,19.64938],[79.78923,19.63139],[79.79428,19.61751],[79.79411,19.60467],[79.79195,19.59599],[79.78405,19.60006],[79.77279,19.60252],[79.76075,19.60467],[79.7468,19.60547],[79.73638,19.5989],[79.71938,19.58566],[79.71157,19.58354],[79.70213,19.58341],[79.69121,19.58146],[79.68443,19.57886],[79.67147,19.57945],[79.65901,19.57896],[79.6461,19.57726],[79.62776,19.56735],[79.62218,19.56088],[79.61727,19.55144],[79.61357,19.54173],[79.60931,19.52337],[79.6088,19.51683],[79.60722,19.51026],[79.60442,19.50608],[79.5977,19.50405],[79.58901,19.50535],[79.57978,19.50893],[79.57193,19.51317],[79.55881,19.52228],[79.554,19.52831],[79.5515,19.53621],[79.55104,19.5449],[79.54896,19.55071],[79.54128,19.55025],[79.5325,19.54823],[79.52125,19.54412],[79.52109,19.54292],[79.52223,19.53899],[79.52211,19.52455],[79.51968,19.52027],[79.49956,19.50739],[79.48628,19.506],[79.47666,19.49962],[79.47134,19.51116],[79.46439,19.52109],[79.44745,19.5356],[79.43645,19.53717],[79.42935,19.53491],[79.41976,19.53554],[79.40798,19.54186],[79.3951,19.55093],[79.38682,19.55784],[79.37729,19.56351],[79.37512,19.57318],[79.34694,19.57568],[79.33572,19.57558],[79.32753,19.57364],[79.32029,19.56742],[79.31564,19.58388],[79.31084,19.592],[79.29922,19.59855],[79.27383,19.60845],[79.26117,19.61297],[79.2498,19.61429],[79.24302,19.61123],[79.24363,19.6013],[79.24973,19.59511],[79.25462,19.58865],[79.25605,19.57949],[79.24571,19.56131],[79.2441,19.55277],[79.24529,19.5439],[79.2443,19.53463],[79.24258,19.52867],[79.23793,19.52261],[79.22936,19.51888],[79.22164,19.51246],[79.214,19.50053],[79.21278,19.49356],[79.21471,19.4867],[79.22663,19.47752],[79.22888,19.46974],[79.22466,19.46645],[79.19495,19.46062],[79.18369,19.46259],[79.17498,19.46965],[79.16284,19.48739],[79.1461,19.50291],[79.13227,19.50826],[79.11861,19.51154],[79.11054,19.51448],[79.10814,19.52109],[79.10864,19.52967],[79.1024,19.53218],[79.0796,19.53028],[79.06911,19.53292],[79.06583,19.54038],[79.05723,19.54691],[79.04451,19.54662],[79.02402,19.54157],[79.01785,19.54536],[79.00571,19.56093],[79.00121,19.56258],[78.99848,19.56359],[78.99198,19.55859],[78.98409,19.55247],[78.97914,19.55144],[78.97045,19.55186],[78.96014,19.55335],[78.95514,19.55898],[78.96004,19.56422],[78.97029,19.57179],[78.97458,19.57496],[78.98346,19.58144],[78.98612,19.58658],[78.98391,19.59191],[78.97693,19.59873],[78.97121,19.60596],[78.96844,19.61875],[78.97025,19.63097],[78.97358,19.64078],[78.97453,19.65062],[78.96723,19.66014],[78.95975,19.66476],[78.94913,19.66648],[78.94052,19.66351],[78.92141,19.66904],[78.90928,19.66586],[78.89646,19.65656],[78.88341,19.65808],[78.86423,19.65757],[78.86455,19.67016],[78.86864,19.68073],[78.86942,19.68792],[78.8689,19.69797],[78.86708,19.7071],[78.86282,19.72091],[78.86233,19.73246],[78.85898,19.73914],[78.85102,19.75945],[78.84972,19.7601],[78.85365,19.76634],[78.85888,19.77015],[78.86673,19.76964],[78.87505,19.76765],[78.88077,19.76321],[78.88139,19.75818],[78.87988,19.75196],[78.88303,19.746],[78.89003,19.74347],[78.9029,19.73708],[78.90768,19.73812],[78.91713,19.74262],[78.92363,19.74484],[78.93159,19.74645],[78.94106,19.74677],[78.9489,19.74861],[78.9518,19.75324],[78.95013,19.75872],[78.94774,19.76315],[78.94143,19.77159],[78.94044,19.77828],[78.94185,19.78455],[78.94562,19.78856],[78.95085,19.79684],[78.95706,19.80193],[78.95862,19.80321],[78.97237,19.80439],[78.98872,19.80373],[78.99002,19.80367],[78.99732,19.80472],[79.00094,19.8041],[79.01119,19.80388],[79.02046,19.79909],[79.02931,19.80135],[79.03505,19.80638],[79.03825,19.81358],[79.04289,19.81715],[79.05137,19.81507],[79.05891,19.81447],[79.06563,19.81475],[79.07286,19.81814],[79.0802,19.82256],[79.08846,19.83096],[79.09107,19.83732],[79.09407,19.84048],[79.10304,19.84225],[79.10978,19.84648],[79.12072,19.85843],[79.12513,19.8614],[79.13259,19.86301],[79.13586,19.86555],[79.13802,19.8711],[79.14946,19.88685],[79.15166,19.89304],[79.11363,19.90378],[79.10912,19.90966],[79.10231,19.91297],[79.09489,19.91466],[79.09274,19.91974],[79.09154,19.93262],[79.09208,19.94],[79.0936,19.94564],[79.10542,19.95403],[79.10825,19.95888],[79.11045,19.96463],[79.10838,19.96841],[79.09777,19.97339],[79.09372,19.97713],[79.09506,19.98139],[79.10159,19.98474],[79.108,19.98633],[79.11353,19.98584],[79.11521,19.98844],[79.11051,20.00087],[79.10861,20.00799],[79.10453,20.01506],[79.09836,20.01718],[79.09044,20.02099],[79.08326,20.02853],[79.07925,20.0431],[79.07298,20.05405],[79.0707,20.06376],[79.06434,20.06945],[79.05929,20.0674],[79.05453,20.0665],[79.04858,20.0679],[79.0441,20.07131],[79.04725,20.07743],[79.04833,20.08413],[79.04326,20.08864],[79.03515,20.09355],[79.01668,20.11277],[79.0041,20.12046],[78.99984,20.12071],[78.99514,20.12211],[78.99058,20.12251],[78.9833,20.12162],[78.98005,20.12034],[78.97413,20.12028],[78.97052,20.12318],[78.96899,20.13354],[78.97041,20.13763],[78.97389,20.14105],[78.9782,20.14209],[78.98143,20.14495],[78.98142,20.14865],[78.97982,20.15253],[78.96977,20.16048],[78.96886,20.16082],[78.96355,20.16237],[78.95812,20.16532],[78.95512,20.1683],[78.95684,20.17181],[78.95776,20.17735],[78.95778,20.18172],[78.9569,20.18471],[78.95738,20.19264],[78.96153,20.19888],[78.96271,20.20263],[78.96029,20.20683],[78.95186,20.21048],[78.94669,20.21179],[78.94148,20.21557],[78.93791,20.21999],[78.93676,20.22495],[78.93455,20.2277],[78.93015,20.22934],[78.92168,20.23718],[78.92273,20.24926],[78.9213,20.25235],[78.91879,20.25446],[78.90542,20.25306],[78.89846,20.24929],[78.89501,20.24807],[78.88942,20.24733],[78.88527,20.24737],[78.86997,20.25112],[78.86066,20.25216],[78.85033,20.25146],[78.82707,20.24701],[78.82014,20.2469],[78.81438,20.25111],[78.81253,20.25386],[78.81138,20.25977],[78.81281,20.26271],[78.81673,20.2663],[78.81979,20.27057],[78.81828,20.2751],[78.80482,20.28921],[78.80283,20.29339],[78.80182,20.2978],[78.80123,20.30142],[78.80587,20.30697],[78.81196,20.31253],[78.82524,20.31657],[78.83003,20.3189],[78.83371,20.32805],[78.8336,20.33357],[78.82502,20.3461],[78.82377,20.34937],[78.82391,20.35368],[78.8274,20.35818],[78.82802,20.36215],[78.8221,20.37033],[78.82202,20.3797],[78.81902,20.38732],[78.81939,20.39284],[78.82094,20.39681],[78.82341,20.39993],[78.82649,20.4019],[78.84323,20.40136],[78.85361,20.40614],[78.85571,20.40897],[78.85666,20.4111],[78.84851,20.41691],[78.84359,20.4217],[78.84247,20.42451],[78.8418,20.43106],[78.84635,20.43345],[78.85236,20.42831],[78.85683,20.42569],[78.86575,20.4223],[78.87148,20.42169],[78.8792,20.42335],[78.89229,20.43043],[78.89922,20.43719],[78.90792,20.43229],[78.91641,20.42929],[78.91981,20.43],[78.93949,20.42871],[78.95082,20.42844],[78.96081,20.4334],[78.96371,20.43607],[78.96904,20.45039],[78.9681,20.45389],[78.96855,20.45855],[78.98394,20.45636],[78.98495,20.45895],[78.98908,20.45973],[78.98833,20.46293],[78.98972,20.46283],[78.99238,20.4561],[78.99829,20.45465],[78.99914,20.44828],[78.9999,20.44834],[79.00186,20.44765],[79.01173,20.465],[79.01703,20.47277],[79.02396,20.47848],[79.03017,20.47794],[79.04008,20.47453],[79.04673,20.47346],[79.04551,20.46659],[79.0488,20.46577],[79.0519,20.46398],[79.05741,20.46643],[79.06319,20.46612],[79.07688,20.46262],[79.08998,20.46137],[79.09636,20.45997],[79.09736,20.4552],[79.10228,20.45266],[79.11366,20.45003],[79.12103,20.45006],[79.1307,20.45404],[79.13652,20.46617],[79.13934,20.47752],[79.14642,20.47921],[79.15659,20.4767],[79.16006,20.48299],[79.16362,20.48728],[79.1673,20.50533],[79.17174,20.51237],[79.17941,20.51061],[79.18244,20.51536],[79.1861,20.5247],[79.19184,20.5327],[79.21438,20.54642],[79.21699,20.55123],[79.21728,20.55639],[79.2215,20.56577],[79.22136,20.57949],[79.22472,20.58207],[79.22639,20.58336],[79.25149,20.58606],[79.26337,20.58497],[79.28064,20.58522],[79.2925,20.58878],[79.29652,20.58767],[79.30417,20.58344],[79.31311,20.58065],[79.32179,20.58324],[79.32709,20.58923],[79.33288,20.60211],[79.33433,20.60783],[79.33469,20.61357],[79.34738,20.63404],[79.34475,20.64059],[79.34588,20.64426],[79.35362,20.65052],[79.35739,20.65526],[79.3559,20.65992],[79.3504,20.66522],[79.35283,20.67129],[79.36369,20.67083],[79.37104,20.67406],[79.37552,20.6773],[79.38498,20.67576],[79.38946,20.67235],[79.38952,20.66559],[79.39271,20.66046],[79.39902,20.65733],[79.40688,20.6555],[79.41799,20.65607],[79.42871,20.6606],[79.43492,20.65878],[79.4454,20.66331],[79.45103,20.66437],[79.46003,20.66891],[79.46741,20.67442],[79.47504,20.68091],[79.4827,20.68959],[79.48961,20.69815],[79.49156,20.70404],[79.49438,20.70443],[79.49634,20.69915],[79.50569,20.69989],[79.50902,20.70395],[79.51856,20.70531],[79.52079,20.70869],[79.52749,20.70767],[79.53458,20.70171],[79.54837,20.70214],[79.56595,20.70157],[79.56783,20.69416],[79.58092,20.69103],[79.5983,20.6892],[79.60509,20.69087],[79.61315,20.69117],[79.62315,20.67297],[79.6446,20.66984],[79.65337,20.6676],[79.66332,20.66249],[79.66476,20.6537],[79.67165,20.64837],[79.67976,20.6474],[79.68638,20.64488],[79.69105,20.64135],[79.69566,20.64034],[79.70157,20.64472],[79.69383,20.6625],[79.69347,20.66875],[79.71349,20.6853],[79.72329,20.68264],[79.73543,20.68255],[79.75256,20.68575],[79.75768,20.70086],[79.76091,20.70679],[79.75395,20.71064],[79.75818,20.72339],[79.76174,20.73105],[79.7826,20.72321],[79.7893,20.71742],[79.79389,20.70792],[79.79684,20.69889],[79.80058,20.69531],[79.80288,20.68422],[79.82846,20.68245],[79.84197,20.67878],[79.84989,20.67757],[79.87915,20.68464],[79.89426,20.68308],[79.90389,20.67643],[79.93299,20.66653]]]}}]}