{"type":"FeatureCollection","features":[{"type":"Feature","properties":{"id":"garhchiroli","name":"Garhchiroli","stateId":"maharashtra","stateName":"Maharashtra","censuscode":508,"type":"district"},"geometry":{"type":"Polygon","coordinates":[[[80.56275,20.82099],[80.55763,20.81677],[80.55576,20.80972],[80.55255,20.80269],[80.55021,20.79313],[80.55234,20.78363],[80.5524,20.76675],[80.55505,20.76047],[80.55887,20.75486],[80.56141,20.74857],[80.56276,20.72403],[80.56706,20.71325],[80.57083,20.70868],[80.58181,20.69994],[80.58461,20.6956],[80.5862,20.69151],[80.58702,20.68518],[80.58524,20.68032],[80.57968,20.67584],[80.5737,20.67448],[80.5596,20.67463],[80.55427,20.67279],[80.54429,20.66555],[80.53244,20.6647],[80.52578,20.66327],[80.51446,20.65611],[80.50889,20.6507],[80.49651,20.64141],[80.49168,20.6367],[80.48843,20.63128],[80.4878,20.62508],[80.48844,20.61864],[80.49105,20.61351],[80.49977,20.60567],[80.50405,20.5974],[80.50697,20.58848],[80.51877,20.58674],[80.52638,20.58631],[80.53671,20.59172],[80.55829,20.60073],[80.56594,20.61162],[80.57421,20.61406],[80.58557,20.61577],[80.59264,20.61581],[80.5994,20.61476],[80.6095,20.60908],[80.61587,20.60769],[80.6246,20.60788],[80.62926,20.60558],[80.62643,20.59965],[80.61979,20.59231],[80.62155,20.58701],[80.6244,20.58279],[80.62118,20.57868],[80.62665,20.56909],[80.624,20.56401],[80.61909,20.56136],[80.61691,20.55811],[80.61872,20.55275],[80.61723,20.54686],[80.62035,20.54338],[80.61967,20.53908],[80.61697,20.53382],[80.61546,20.51805],[80.61383,20.51439],[80.61418,20.50577],[80.61315,20.48896],[80.6119,20.48305],[80.61028,20.46435],[80.60863,20.4592],[80.60164,20.44836],[80.60407,20.44403],[80.6084,20.43933],[80.6104,20.43523],[80.60684,20.4289],[80.60139,20.4227],[80.59868,20.41704],[80.5967,20.41476],[80.59348,20.40274],[80.59298,20.39763],[80.59293,20.39407],[80.59439,20.38992],[80.59714,20.38639],[80.60536,20.38273],[80.6092,20.3785],[80.60768,20.37467],[80.60787,20.37128],[80.6121,20.36825],[80.61317,20.36289],[80.61298,20.35853],[80.61848,20.35146],[80.61769,20.34739],[80.62366,20.33974],[80.62476,20.33582],[80.62367,20.32791],[80.61368,20.3275],[80.61239,20.32235],[80.5912,20.32144],[80.55852,20.31364],[80.54896,20.30897],[80.54625,20.30252],[80.54277,20.29681],[80.53362,20.28691],[80.51777,20.27174],[80.50142,20.27691],[80.48278,20.27578],[80.47235,20.27371],[80.46337,20.27098],[80.45527,20.26596],[80.44419,20.26055],[80.42981,20.25467],[80.4265,20.25362],[80.42214,20.25434],[80.41589,20.25119],[80.41058,20.24975],[80.39308,20.24665],[80.38982,20.24376],[80.3949,20.23268],[80.40487,20.21489],[80.4167,20.20742],[80.41891,20.20435],[80.42087,20.19238],[80.42029,20.18969],[80.41094,20.18657],[80.40515,20.18559],[80.40148,20.18374],[80.39966,20.17955],[80.39877,20.17291],[80.39732,20.16844],[80.39289,20.16498],[80.39143,20.16068],[80.39451,20.15377],[80.40072,20.14623],[80.40839,20.14173],[80.43385,20.13251],[80.43886,20.13362],[80.44654,20.13141],[80.45105,20.13263],[80.4548,20.14385],[80.45826,20.14715],[80.4656,20.14684],[80.47372,20.14497],[80.48424,20.14085],[80.48988,20.14021],[80.49808,20.1438],[80.50497,20.14126],[80.51054,20.13115],[80.51751,20.1293],[80.52511,20.12922],[80.53055,20.12686],[80.53365,20.12378],[80.53579,20.11991],[80.54273,20.11627],[80.54735,20.11226],[80.54824,20.10739],[80.54222,20.09465],[80.54196,20.08787],[80.54883,20.07917],[80.55316,20.06822],[80.55224,20.06209],[80.54808,20.05073],[80.54859,20.03977],[80.54242,20.0138],[80.53956,20.00653],[80.54279,20.00254],[80.54697,20.00034],[80.55054,19.99771],[80.55257,19.98983],[80.55116,19.98416],[80.54478,19.97622],[80.54175,19.97358],[80.53939,19.96972],[80.54086,19.95572],[80.53328,19.95131],[80.53304,19.94381],[80.5274,19.93359],[80.51576,19.92861],[80.50875,19.92745],[80.48747,19.93047],[80.47988,19.9339],[80.47682,19.93631],[80.47573,19.9429],[80.47147,19.94887],[80.45995,19.94784],[80.45066,19.95525],[80.4455,19.94971],[80.43796,19.94352],[80.43206,19.93989],[80.42753,19.93881],[80.41626,19.93795],[80.41323,19.93507],[80.41274,19.92803],[80.4096,19.9122],[80.41464,19.90852],[80.4217,19.90555],[80.43797,19.90107],[80.44278,19.89819],[80.45143,19.89623],[80.45977,19.90269],[80.46821,19.90612],[80.47594,19.90606],[80.48964,19.90161],[80.49683,19.8964],[80.49867,19.89328],[80.50394,19.87997],[80.50455,19.87153],[80.49465,19.86791],[80.48202,19.85984],[80.47804,19.84546],[80.47563,19.84033],[80.47062,19.83864],[80.46731,19.83084],[80.46213,19.82661],[80.45398,19.82313],[80.43866,19.8131],[80.43157,19.81085],[80.4243,19.81194],[80.41196,19.81818],[80.40451,19.81899],[80.40541,19.80596],[80.40167,19.79737],[80.40712,19.79643],[80.42468,19.79995],[80.436,19.79795],[80.4428,19.7947],[80.4497,19.79339],[80.45655,19.79552],[80.45946,19.79576],[80.46879,19.7911],[80.47383,19.78776],[80.48513,19.77533],[80.4896,19.78362],[80.4891,19.7924],[80.48727,19.79833],[80.48416,19.80411],[80.48184,19.80626],[80.46992,19.80862],[80.46656,19.81417],[80.47618,19.82749],[80.48304,19.83083],[80.49775,19.8282],[80.50542,19.83232],[80.51456,19.83282],[80.52485,19.83174],[80.54244,19.82104],[80.54951,19.8222],[80.5513,19.81415],[80.54901,19.8061],[80.54951,19.79721],[80.54596,19.78368],[80.54675,19.77759],[80.5573,19.76758],[80.57476,19.75974],[80.57763,19.7578],[80.5858,19.74702],[80.5892,19.74118],[80.59745,19.73755],[80.62028,19.7321],[80.62734,19.72694],[80.64065,19.72169],[80.64746,19.71568],[80.6528,19.70975],[80.66852,19.70078],[80.67302,19.6955],[80.67174,19.69404],[80.67265,19.69127],[80.67321,19.68958],[80.67257,19.67629],[80.6694,19.66591],[80.66332,19.62854],[80.6631,19.62039],[80.66403,19.61568],[80.66924,19.61216],[80.69026,19.61406],[80.70392,19.61429],[80.715,19.61394],[80.72824,19.6119],[80.76523,19.59375],[80.77155,19.58843],[80.77231,19.57787],[80.7737,19.57195],[80.79246,19.56407],[80.81655,19.56819],[80.82693,19.5691],[80.83494,19.56639],[80.84087,19.55971],[80.84338,19.55272],[80.84472,19.54439],[80.84816,19.53735],[80.85273,19.53296],[80.85961,19.52797],[80.87071,19.52578],[80.88097,19.52618],[80.88641,19.52287],[80.89293,19.51313],[80.89709,19.50315],[80.89878,19.49476],[80.89956,19.48546],[80.89947,19.46964],[80.89302,19.46047],[80.88339,19.45192],[80.87488,19.44743],[80.86486,19.44651],[80.84244,19.44631],[80.83262,19.44304],[80.81537,19.43554],[80.80168,19.43267],[80.79528,19.4306],[80.7998,19.42658],[80.80275,19.42269],[80.80533,19.41559],[80.81593,19.40102],[80.82012,19.38675],[80.82337,19.38308],[80.83061,19.37877],[80.8424,19.37473],[80.85024,19.37018],[80.85243,19.36499],[80.84649,19.35924],[80.83383,19.35214],[80.83377,19.3521],[80.82389,19.34656],[80.82022,19.34221],[80.81374,19.33899],[80.81023,19.33636],[80.80675,19.32926],[80.79528,19.32819],[80.78985,19.32581],[80.78549,19.32262],[80.77359,19.31221],[80.76712,19.30384],[80.76244,19.29933],[80.75663,19.29083],[80.7508,19.29007],[80.74411,19.29104],[80.73805,19.2881],[80.72567,19.28956],[80.71654,19.28736],[80.70781,19.2863],[80.7011,19.28635],[80.69597,19.28752],[80.6909,19.29093],[80.68914,19.29984],[80.69262,19.31658],[80.69155,19.32399],[80.68655,19.32808],[80.67921,19.33038],[80.6717,19.3305],[80.66518,19.3282],[80.64261,19.31675],[80.63281,19.31072],[80.62502,19.30872],[80.61744,19.31102],[80.61124,19.31564],[80.60736,19.32194],[80.60579,19.32851],[80.60296,19.33515],[80.59995,19.33903],[80.59588,19.3482],[80.59284,19.35679],[80.5895,19.37209],[80.59196,19.37744],[80.59118,19.38089],[80.58009,19.4021],[80.57505,19.40459],[80.56656,19.40122],[80.53874,19.37797],[80.53334,19.37089],[80.52993,19.36344],[80.52619,19.35771],[80.52105,19.35189],[80.51442,19.34728],[80.5076,19.34498],[80.48828,19.34149],[80.48278,19.33871],[80.4777,19.33259],[80.47249,19.31961],[80.46931,19.31184],[80.464,19.30287],[80.45262,19.27364],[80.44423,19.26482],[80.43527,19.25813],[80.42636,19.25402],[80.41536,19.25143],[80.40401,19.24993],[80.39561,19.24702],[80.39051,19.24285],[80.38633,19.23632],[80.38419,19.22111],[80.38712,19.21247],[80.3933,19.19943],[80.39384,19.19283],[80.3883,19.18454],[80.38009,19.17894],[80.36953,19.17313],[80.35265,19.16671],[80.34775,19.16272],[80.3468,19.15683],[80.34271,19.15139],[80.33201,19.14535],[80.32802,19.12832],[80.32951,19.12406],[80.33685,19.1113],[80.33872,19.10497],[80.33129,19.09882],[80.32713,19.09212],[80.32974,19.08607],[80.3293,19.07879],[80.32715,19.07332],[80.32296,19.06851],[80.30943,19.05948],[80.29887,19.05372],[80.29602,19.05022],[80.29772,19.04395],[80.30247,19.0327],[80.30059,19.02557],[80.2953,19.01791],[80.27949,19.00143],[80.27491,18.99133],[80.27453,18.9847],[80.27621,18.9682],[80.2747,18.95663],[80.27252,18.95106],[80.27134,18.9446],[80.27237,18.93865],[80.27484,18.9329],[80.27768,18.92903],[80.29863,18.91176],[80.30535,18.90465],[80.31583,18.89041],[80.32074,18.88542],[80.32894,18.87908],[80.33293,18.87424],[80.34303,18.86044],[80.34694,18.85268],[80.3529,18.8383],[80.35584,18.82833],[80.3551,18.82035],[80.35355,18.81549],[80.34202,18.81051],[80.32605,18.80038],[80.30673,18.79791],[80.30146,18.79497],[80.29749,18.79063],[80.28683,18.77224],[80.28384,18.76925],[80.27911,18.76661],[80.2727,18.76755],[80.26872,18.76934],[80.26183,18.77032],[80.25625,18.76961],[80.24943,18.76412],[80.24778,18.76098],[80.24683,18.7566],[80.24808,18.75307],[80.25472,18.74795],[80.26211,18.74055],[80.26484,18.73569],[80.27485,18.72244],[80.26767,18.71856],[80.25396,18.70578],[80.249,18.70468],[80.24285,18.70487],[80.23727,18.70199],[80.23262,18.7006],[80.22729,18.70363],[80.22163,18.70555],[80.21515,18.70488],[80.20917,18.70186],[80.20137,18.69295],[80.19893,18.68806],[80.19822,18.6834],[80.19621,18.68002],[80.1829,18.68032],[80.17822,18.68175],[80.17465,18.68447],[80.17187,18.69468],[80.16923,18.6984],[80.16533,18.70031],[80.15944,18.69965],[80.15596,18.6976],[80.14948,18.69061],[80.14381,18.69115],[80.13808,18.68975],[80.1285,18.68555],[80.12562,18.68346],[80.12319,18.68019],[80.11801,18.68052],[80.11376,18.68185],[80.10775,18.68927],[80.09412,18.70183],[80.09161,18.7051],[80.08927,18.7067],[80.08606,18.70559],[80.08186,18.7068],[80.07505,18.71293],[80.07263,18.71747],[80.06904,18.72071],[80.06039,18.72198],[80.05348,18.72508],[80.03996,18.75056],[80.03674,18.7528],[80.02579,18.75509],[80.02361,18.76109],[80.02157,18.76419],[80.01941,18.77081],[80.01615,18.77262],[79.99997,18.77754],[79.98858,18.77827],[79.95715,18.78386],[79.94706,18.78571],[79.93896,18.78835],[79.92322,18.80121],[79.91605,18.81054],[79.90092,18.83464],[79.91103,18.83867],[79.92777,18.84002],[79.93245,18.84136],[79.94028,18.84885],[79.94594,18.86269],[79.9479,18.88116],[79.94706,18.90048],[79.94827,18.91948],[79.94786,18.94133],[79.94279,18.96126],[79.9391,18.97518],[79.93824,18.97839],[79.93966,18.99926],[79.94136,19.02521],[79.93993,19.03319],[79.93284,19.04596],[79.92295,19.05081],[79.90978,19.05142],[79.89768,19.04887],[79.88791,19.04481],[79.87783,19.03896],[79.86637,19.03803],[79.8638,19.04559],[79.86789,19.06331],[79.86684,19.09427],[79.86481,19.10739],[79.86989,19.1191],[79.87797,19.12597],[79.91278,19.14507],[79.92912,19.1604],[79.93295,19.16421],[79.94753,19.16768],[79.95004,19.17388],[79.94925,19.17915],[79.94207,19.1871],[79.9293,19.20661],[79.92612,19.2182],[79.92695,19.22957],[79.93869,19.26244],[79.95196,19.28723],[79.95573,19.29195],[79.96858,19.30058],[79.97042,19.30962],[79.96415,19.3275],[79.96392,19.33759],[79.97129,19.35368],[79.9733,19.36388],[79.97401,19.37755],[79.97752,19.38508],[79.97936,19.39453],[79.9798,19.40395],[79.97676,19.41238],[79.96599,19.42879],[79.95249,19.44362],[79.95292,19.45376],[79.95172,19.46163],[79.94691,19.4673],[79.94399,19.46974],[79.93958,19.47189],[79.93024,19.48033],[79.92448,19.48827],[79.91771,19.49505],[79.90891,19.49918],[79.88487,19.50336],[79.87684,19.5076],[79.87042,19.51622],[79.86284,19.51972],[79.8348,19.53954],[79.82973,19.54683],[79.82719,19.55485],[79.82611,19.56398],[79.82315,19.57148],[79.81766,19.5763],[79.81177,19.57921],[79.79983,19.58251],[79.79283,19.59205],[79.79195,19.59599],[79.79411,19.60467],[79.79428,19.61751],[79.78923,19.63139],[79.78698,19.64938],[79.78797,19.66366],[79.78686,19.69229],[79.78744,19.70857],[79.78681,19.71744],[79.78198,19.72628],[79.76096,19.74877],[79.75499,19.76038],[79.75179,19.77218],[79.74739,19.77908],[79.74561,19.79004],[79.74381,19.81652],[79.74407,19.8234],[79.74759,19.8308],[79.75854,19.84677],[79.76605,19.85442],[79.78173,19.86344],[79.78658,19.86875],[79.78661,19.87521],[79.79156,19.88127],[79.79891,19.88531],[79.80342,19.88976],[79.80515,19.89363],[79.80567,19.89994],[79.79923,19.91297],[79.79557,19.91679],[79.79279,19.92408],[79.78444,19.93595],[79.77687,19.95002],[79.77221,19.97196],[79.77553,19.97973],[79.77973,19.98698],[79.7807,20.00036],[79.7884,20.00971],[79.79872,20.02028],[79.8142,20.02887],[79.84869,20.03248],[79.85668,20.02142],[79.8707,20.00114],[79.86985,20.00011],[79.86877,19.99121],[79.87116,19.98402],[79.88097,19.97682],[79.89504,19.96953],[79.9125,19.96759],[79.92437,19.97059],[79.9376,19.9758],[79.95054,19.98477],[79.95723,19.99302],[79.9626,19.99981],[79.96469,20.00418],[79.97244,20.01493],[79.98401,20.02934],[79.99159,20.04534],[79.98594,20.0667],[79.98456,20.07949],[79.97832,20.10319],[79.97236,20.11274],[79.96541,20.12112],[79.95707,20.12539],[79.93885,20.12889],[79.93019,20.13145],[79.92056,20.13588],[79.91368,20.14075],[79.91221,20.14552],[79.91269,20.14978],[79.91695,20.15982],[79.92156,20.16879],[79.9342,20.18689],[79.94151,20.1921],[79.9467,20.19396],[79.95565,20.19881],[79.96519,20.20233],[79.97245,20.20439],[79.98336,20.20516],[79.98952,20.20676],[79.99379,20.21211],[79.99584,20.21977],[79.99541,20.22907],[79.99229,20.23754],[79.98542,20.24849],[79.97908,20.25669],[79.97162,20.26423],[79.95684,20.27572],[79.94936,20.28496],[79.94539,20.29401],[79.94492,20.30548],[79.94563,20.31659],[79.94999,20.32688],[79.95715,20.33382],[79.96372,20.33843],[79.96858,20.34216],[79.97386,20.34998],[79.97351,20.36074],[79.96596,20.3715],[79.96033,20.38351],[79.96166,20.3974],[79.96402,20.40505],[79.96213,20.41498],[79.95523,20.4237],[79.94306,20.43487],[79.94131,20.44675],[79.94531,20.47442],[79.95197,20.50017],[79.95132,20.51142],[79.95281,20.52815],[79.94853,20.5369],[79.93471,20.54356],[79.92762,20.55217],[79.93359,20.56645],[79.9383,20.58236],[79.94117,20.60162],[79.94068,20.61209],[79.94285,20.6241],[79.94332,20.63786],[79.94101,20.64877],[79.93634,20.66057],[79.93299,20.66653],[79.9347,20.67161],[79.93446,20.67618],[79.94303,20.6783],[79.9491,20.68094],[79.96144,20.69066],[79.9645,20.68988],[79.96453,20.68987],[79.97093,20.68822],[79.98373,20.68268],[79.98922,20.67348],[80.00001,20.67281],[80.00824,20.66728],[80.01408,20.67274],[80.01851,20.66626],[80.0225,20.66898],[80.0246,20.67178],[80.02722,20.67677],[80.03267,20.69116],[80.03689,20.69762],[80.04246,20.70069],[80.05183,20.70378],[80.0584,20.70776],[80.06563,20.705],[80.06956,20.70261],[80.07398,20.69827],[80.0871,20.6887],[80.09731,20.68649],[80.10483,20.6873],[80.11169,20.69],[80.12048,20.68567],[80.12611,20.68361],[80.13564,20.68445],[80.13708,20.67772],[80.14154,20.67808],[80.14381,20.68404],[80.16159,20.68698],[80.17039,20.67864],[80.17625,20.67446],[80.18946,20.67181],[80.19528,20.66867],[80.20264,20.66268],[80.20882,20.65889],[80.21882,20.65524],[80.22935,20.65297],[80.2416,20.65303],[80.24782,20.65688],[80.24836,20.67181],[80.2636,20.67069],[80.27349,20.67168],[80.27753,20.68233],[80.27934,20.69058],[80.28327,20.70226],[80.29188,20.7027],[80.29866,20.70395],[80.30446,20.71371],[80.31163,20.73042],[80.31883,20.74425],[80.32193,20.75278],[80.32163,20.75737],[80.31698,20.77539],[80.32104,20.78333],[80.32608,20.79],[80.32659,20.7962],[80.32285,20.79933],[80.33178,20.81963],[80.33813,20.81979],[80.34393,20.81578],[80.34825,20.81005],[80.35391,20.80863],[80.3652,20.80817],[80.38083,20.80492],[80.39208,20.80589],[80.40091,20.80908],[80.40849,20.81871],[80.41539,20.82357],[80.4229,20.82367],[80.44532,20.82024],[80.45623,20.81978],[80.47708,20.82226],[80.50615,20.8315],[80.51908,20.8309],[80.54362,20.82294],[80.56275,20.82099]]]}}]}