{"type":"FeatureCollection","features":[{"type":"Feature","properties":{"id":"gondiya","name":"Gondiya","stateId":"maharashtra","stateName":"Maharashtra","censuscode":507,"type":"district"},"geometry":{"type":"Polygon","coordinates":[[[80.66342,21.33138],[80.66484,21.32999],[80.66676,21.3284],[80.66928,21.32675],[80.67046,21.32549],[80.6725,21.32275],[80.67344,21.31999],[80.6739,21.31683],[80.67497,21.31447],[80.67785,21.31294],[80.67964,21.31193],[80.68069,21.30975],[80.67927,21.30657],[80.67999,21.30185],[80.67984,21.29897],[80.67785,21.29659],[80.67518,21.29467],[80.67216,21.29298],[80.67022,21.29164],[80.66779,21.29046],[80.66499,21.29009],[80.6617,21.29018],[80.66058,21.28672],[80.65902,21.28393],[80.6577,21.28226],[80.65551,21.28086],[80.65365,21.27883],[80.65177,21.27668],[80.6503,21.27298],[80.64954,21.26975],[80.6488,21.26514],[80.64798,21.26214],[80.64638,21.25821],[80.64561,21.2555],[80.64424,21.25341],[80.64219,21.25086],[80.63911,21.24801],[80.63455,21.24642],[80.63151,21.24501],[80.62697,21.24307],[80.62259,21.24073],[80.62031,21.23755],[80.61857,21.23529],[80.61737,21.234],[80.61556,21.2325],[80.61453,21.23196],[80.61295,21.23069],[80.61193,21.22947],[80.6103,21.22814],[80.60787,21.2269],[80.60575,21.22585],[80.60307,21.22524],[80.59917,21.22556],[80.59624,21.22542],[80.59132,21.22376],[80.58841,21.22247],[80.58495,21.2206],[80.58167,21.21896],[80.5787,21.21755],[80.57526,21.21458],[80.57346,21.21151],[80.57297,21.21099],[80.57087,21.20873],[80.56809,21.20652],[80.56463,21.20465],[80.5605,21.20323],[80.55747,21.20187],[80.55613,21.20168],[80.55339,21.20137],[80.55035,21.20072],[80.54871,21.19989],[80.54573,21.19998],[80.54181,21.20029],[80.53918,21.2009],[80.53729,21.20152],[80.53472,21.2027],[80.53184,21.20331],[80.52757,21.20419],[80.52503,21.20175],[80.52305,21.19897],[80.52161,21.19671],[80.51998,21.19428],[80.51837,21.19179],[80.5176,21.18959],[80.51715,21.18717],[80.51614,21.18417],[80.51445,21.18312],[80.51133,21.18373],[80.50938,21.18399],[80.50669,21.18472],[80.50468,21.1847],[80.5023,21.18393],[80.49911,21.18061],[80.49633,21.17823],[80.4928,21.17786],[80.4886,21.17724],[80.48624,21.1756],[80.48388,21.17375],[80.48171,21.1721],[80.48013,21.17198],[80.47463,21.17215],[80.47098,21.17275],[80.46841,21.17348],[80.46408,21.17349],[80.46205,21.16973],[80.46105,21.1661],[80.46079,21.1624],[80.4607,21.15929],[80.4596,21.15501],[80.45837,21.15034],[80.45688,21.1476],[80.45599,21.14511],[80.45499,21.14222],[80.45374,21.13886],[80.4528,21.13647],[80.45079,21.13131],[80.44924,21.12887],[80.44751,21.12618],[80.44543,21.12211],[80.44715,21.12102],[80.45064,21.11996],[80.45297,21.11889],[80.455,21.11701],[80.45592,21.11604],[80.45611,21.11558],[80.45603,21.11269],[80.45373,21.11179],[80.45227,21.11199],[80.45049,21.11238],[80.44903,21.1126],[80.44628,21.1125],[80.44583,21.10989],[80.4455,21.1077],[80.44444,21.10526],[80.44349,21.1034],[80.44284,21.10179],[80.44195,21.09975],[80.44098,21.09877],[80.44008,21.09788],[80.44227,21.09593],[80.44316,21.09346],[80.44491,21.08957],[80.44678,21.08608],[80.44773,21.08402],[80.44879,21.08138],[80.44932,21.07821],[80.44955,21.07498],[80.44938,21.07325],[80.44774,21.07119],[80.44937,21.06777],[80.44974,21.06674],[80.45076,21.06404],[80.45152,21.06239],[80.45288,21.0608],[80.45405,21.05748],[80.45441,21.05531],[80.45501,21.0528],[80.45528,21.05044],[80.45465,21.04769],[80.45386,21.04516],[80.45413,21.0416],[80.45432,21.04046],[80.45413,21.03747],[80.45331,21.03446],[80.45203,21.0318],[80.45004,21.03005],[80.44764,21.02886],[80.44538,21.02802],[80.44353,21.02587],[80.44274,21.02291],[80.44132,21.0201],[80.43924,21.01799],[80.43689,21.01722],[80.4356,21.01443],[80.43434,21.01332],[80.43053,21.01046],[80.43152,21.00821],[80.43342,21.00592],[80.43626,21.00352],[80.44008,21.00064],[80.44487,20.99301],[80.44572,20.9725],[80.44749,20.96641],[80.45055,20.96199],[80.45513,20.95199],[80.45557,20.94629],[80.46338,20.93826],[80.46235,20.93313],[80.46589,20.92918],[80.47212,20.92833],[80.48072,20.92841],[80.48956,20.92953],[80.49811,20.92891],[80.50751,20.92998],[80.51746,20.92989],[80.53325,20.93321],[80.54211,20.93243],[80.5487,20.93503],[80.54497,20.9272],[80.54595,20.92219],[80.55303,20.90425],[80.55662,20.89009],[80.55576,20.86931],[80.55746,20.86114],[80.55723,20.84693],[80.56167,20.83071],[80.56275,20.82099],[80.54362,20.82294],[80.51908,20.8309],[80.50615,20.8315],[80.47708,20.82226],[80.45623,20.81978],[80.44532,20.82024],[80.4229,20.82367],[80.41539,20.82357],[80.40849,20.81871],[80.40091,20.80908],[80.39208,20.80589],[80.38083,20.80492],[80.3652,20.80817],[80.35391,20.80863],[80.34825,20.81005],[80.34393,20.81578],[80.33813,20.81979],[80.33178,20.81963],[80.32285,20.79933],[80.32659,20.7962],[80.32608,20.79],[80.32104,20.78333],[80.31698,20.77539],[80.32163,20.75737],[80.32193,20.75278],[80.31883,20.74425],[80.31163,20.73042],[80.30446,20.71371],[80.29866,20.70395],[80.29188,20.7027],[80.28327,20.70226],[80.27934,20.69058],[80.27753,20.68233],[80.27349,20.67168],[80.2636,20.67069],[80.24836,20.67181],[80.24782,20.65688],[80.2416,20.65303],[80.22935,20.65297],[80.21882,20.65524],[80.20882,20.65889],[80.20264,20.66268],[80.19528,20.66867],[80.18946,20.67181],[80.17625,20.67446],[80.17039,20.67864],[80.16159,20.68698],[80.14381,20.68404],[80.14154,20.67808],[80.13708,20.67772],[80.13564,20.68445],[80.12611,20.68361],[80.12048,20.68567],[80.11169,20.69],[80.10483,20.6873],[80.09731,20.68649],[80.0871,20.6887],[80.07398,20.69827],[80.06956,20.70261],[80.06563,20.705],[80.0584,20.70776],[80.05183,20.70378],[80.04246,20.70069],[80.03689,20.69762],[80.03267,20.69116],[80.02722,20.67677],[80.0246,20.67178],[80.0225,20.66898],[80.01851,20.66626],[80.01408,20.67274],[80.00824,20.66728],[80.00001,20.67281],[79.98922,20.67348],[79.98373,20.68268],[79.97093,20.68822],[79.96453,20.68987],[79.96628,20.69362],[79.97204,20.70125],[79.97233,20.70944],[79.97038,20.71395],[79.9609,20.71633],[79.95327,20.71688],[79.94721,20.71587],[79.9344,20.71191],[79.93196,20.71752],[79.92966,20.7287],[79.92882,20.73922],[79.91591,20.73821],[79.91708,20.74612],[79.92608,20.7464],[79.92646,20.7509],[79.92603,20.75895],[79.92567,20.76553],[79.92694,20.76866],[79.93789,20.77381],[79.94033,20.78531],[79.93525,20.78577],[79.92748,20.78484],[79.91809,20.78306],[79.91001,20.78153],[79.90434,20.77876],[79.89919,20.77364],[79.89677,20.77123],[79.89389,20.76836],[79.8888,20.76624],[79.88645,20.76918],[79.88507,20.78997],[79.87697,20.78387],[79.8704,20.78039],[79.866,20.78131],[79.86833,20.79538],[79.86647,20.802],[79.86715,20.80817],[79.85668,20.81027],[79.85843,20.81478],[79.86342,20.81488],[79.86234,20.81902],[79.8595,20.82076],[79.86292,20.82592],[79.86327,20.837],[79.8634,20.841],[79.8628,20.84579],[79.86671,20.84984],[79.86801,20.85299],[79.86889,20.85711],[79.86808,20.8626],[79.86748,20.86511],[79.86483,20.87035],[79.86532,20.87614],[79.87383,20.88277],[79.88049,20.87919],[79.88969,20.87561],[79.90191,20.88187],[79.90534,20.88363],[79.90936,20.88657],[79.91101,20.8977],[79.92726,20.90535],[79.93371,20.91293],[79.93788,20.91708],[79.9447,20.92324],[79.94781,20.92605],[79.94849,20.92955],[79.94609,20.94071],[79.94516,20.94868],[79.94182,20.95926],[79.94368,20.97048],[79.95474,20.98824],[79.95386,21.00011],[79.94866,21.0071],[79.94788,21.00931],[79.94925,21.01179],[79.95297,21.01308],[79.96571,21.00876],[79.98756,21.00775],[79.99716,21.02137],[80,21.02201],[80.00176,21.02027],[80.00353,21.01695],[80.00392,21.01539],[80.00549,21.01429],[80.00892,21.01327],[80.01205,21.01263],[80.01587,21.00987],[80.01587,21.00803],[80.01754,21.00463],[80.01832,21.00297],[80.0194,21.00122],[80.02449,21.00499],[80.02567,21.00729],[80.02724,21.00812],[80.0291,21.00784],[80.03236,21.0066],[80.03468,21.006],[80.03733,21.00471],[80.03978,21.00306],[80.0434,21.00278],[80.04762,21.00305],[80.04869,21.00535],[80.04997,21.00729],[80.05114,21.0094],[80.05222,21.01363],[80.05624,21.01906],[80.06673,21.02954],[80.0683,21.03019],[80.06899,21.03341],[80.07183,21.03607],[80.07624,21.03911],[80.07882,21.04061],[80.08211,21.04273],[80.0833,21.04352],[80.08576,21.046],[80.08703,21.04821],[80.08419,21.05134],[80.08125,21.05244],[80.0787,21.05454],[80.07812,21.05502],[80.07743,21.05723],[80.08273,21.06284],[80.08212,21.06991],[80.08187,21.07669],[80.08166,21.08133],[80.08098,21.08501],[80.07843,21.08943],[80.07843,21.09109],[80.08108,21.09716],[80.08099,21.10019],[80.07805,21.10139],[80.0755,21.10148],[80.07105,21.10107],[80.06499,21.1009],[80.06383,21.10094],[80.06197,21.10204],[80.06128,21.10535],[80.06295,21.1117],[80.06452,21.11446],[80.07001,21.11722],[80.07237,21.11887],[80.07296,21.1209],[80.07305,21.12205],[80.07296,21.13157],[80.07346,21.13498],[80.07503,21.13691],[80.08007,21.14052],[80.08366,21.14343],[80.08152,21.14917],[80.08077,21.1513],[80.08004,21.15356],[80.0786,21.15514],[80.0774,21.15667],[80.07617,21.15864],[80.07426,21.16221],[80.06987,21.16738],[80.06642,21.17097],[80.06259,21.17436],[80.06122,21.17905],[80.0624,21.18089],[80.06318,21.18356],[80.06318,21.18586],[80.06257,21.18876],[80.06046,21.1953],[80.05985,21.19736],[80.05828,21.19966],[80.05642,21.20029],[80.05299,21.20197],[80.0522,21.20519],[80.05112,21.20832],[80.04975,21.21025],[80.04583,21.21016],[80.03984,21.20924],[80.03611,21.2132],[80.03032,21.21504],[80.02777,21.21669],[80.02718,21.21955],[80.02699,21.22406],[80.0237,21.22529],[80.02306,21.22553],[80.02018,21.22334],[80.01943,21.22277],[80.016,21.22056],[80.01158,21.21743],[80.00805,21.21605],[80.00471,21.21725],[80.00343,21.21817],[80,21.22019],[79.99607,21.22378],[79.99166,21.22995],[79.97164,21.2281],[79.95691,21.23509],[79.9521,21.23886],[79.94189,21.2522],[79.92285,21.2533],[79.90558,21.2405],[79.90165,21.2404],[79.89566,21.24887],[79.88908,21.24859],[79.88731,21.25245],[79.87966,21.24913],[79.86739,21.24728],[79.86465,21.24442],[79.86455,21.23973],[79.86947,21.23063],[79.86898,21.22888],[79.86025,21.23025],[79.85603,21.22877],[79.85288,21.23006],[79.84896,21.22665],[79.83689,21.22415],[79.83247,21.22958],[79.84835,21.24505],[79.8456,21.24845],[79.84187,21.25094],[79.84265,21.25508],[79.85433,21.25389],[79.85679,21.24893],[79.8616,21.25224],[79.86552,21.25087],[79.86542,21.25823],[79.84785,21.2583],[79.83322,21.25976],[79.83066,21.26822],[79.82604,21.27033],[79.82779,21.27898],[79.83751,21.28314],[79.83593,21.28801],[79.83367,21.28939],[79.82847,21.28966],[79.82993,21.29969],[79.83493,21.30144],[79.83797,21.30439],[79.83886,21.30642],[79.83875,21.31019],[79.83571,21.30991],[79.83444,21.30669],[79.82706,21.31634],[79.82303,21.31689],[79.81537,21.31587],[79.81525,21.33133],[79.81132,21.33528],[79.81219,21.34089],[79.8117,21.34623],[79.81425,21.34697],[79.81306,21.35249],[79.8112,21.35102],[79.80834,21.35515],[79.80609,21.35285],[79.80166,21.358],[79.79781,21.36729],[79.79947,21.37686],[79.80251,21.37944],[79.81979,21.38636],[79.8362,21.39742],[79.84215,21.40143],[79.8516,21.40986],[79.87056,21.41577],[79.87842,21.42001],[79.88304,21.42443],[79.88116,21.43612],[79.8842,21.44063],[79.8897,21.44533],[79.89216,21.45048],[79.89948,21.45845],[79.90264,21.46175],[79.91845,21.47581],[79.92389,21.48188],[79.92586,21.48648],[79.92969,21.49836],[79.92998,21.50388],[79.9284,21.51207],[79.92438,21.51988],[79.92223,21.52415],[79.92472,21.53989],[79.92765,21.54577],[79.93359,21.5533],[79.93746,21.55519],[79.94282,21.55637],[79.95353,21.55483],[79.9679,21.55759],[79.9727,21.55687],[79.97823,21.55472],[79.99204,21.53643],[80.00001,21.53437],[80.00316,21.53497],[80.00466,21.5363],[80.00855,21.53863],[80.01123,21.54053],[80.01395,21.54223],[80.01648,21.54424],[80.01871,21.54564],[80.02114,21.54701],[80.02337,21.5485],[80.02562,21.55045],[80.02914,21.55347],[80.03267,21.55631],[80.03472,21.557],[80.03848,21.55722],[80.04089,21.55713],[80.04491,21.55652],[80.04807,21.55592],[80.05054,21.55482],[80.05208,21.55442],[80.05468,21.55383],[80.05659,21.5538],[80.05726,21.5538],[80.06071,21.55323],[80.06372,21.55329],[80.06617,21.55341],[80.0677,21.5537],[80.06865,21.55393],[80.07008,21.55428],[80.07312,21.55654],[80.07498,21.55816],[80.07655,21.56007],[80.07769,21.56169],[80.07986,21.56355],[80.08162,21.56483],[80.08355,21.56646],[80.0853,21.56809],[80.08856,21.57145],[80.09137,21.57586],[80.09322,21.57824],[80.09622,21.58196],[80.09736,21.58324],[80.09984,21.58505],[80.10056,21.58598],[80.10287,21.58711],[80.10529,21.58835],[80.10694,21.58843],[80.10864,21.58908],[80.11216,21.59079],[80.11447,21.5918],[80.11646,21.59309],[80.11813,21.59616],[80.11876,21.59922],[80.11897,21.60049],[80.11942,21.60344],[80.12151,21.60669],[80.12515,21.60857],[80.12802,21.60873],[80.13065,21.6083],[80.13279,21.60798],[80.13955,21.6053],[80.14409,21.60489],[80.14727,21.60442],[80.15051,21.60468],[80.15446,21.606],[80.15658,21.60712],[80.15923,21.6094],[80.16158,21.6115],[80.16332,21.61382],[80.16651,21.6172],[80.16868,21.61919],[80.17159,21.62141],[80.17553,21.6229],[80.17772,21.62344],[80.17998,21.62382],[80.18151,21.62366],[80.18334,21.62363],[80.18692,21.62522],[80.18898,21.62674],[80.1903,21.6282],[80.1918,21.63035],[80.19281,21.63237],[80.19482,21.6339],[80.19603,21.63395],[80.19872,21.63432],[80.20177,21.63464],[80.20702,21.63441],[80.21132,21.63326],[80.21462,21.62938],[80.21705,21.62601],[80.21867,21.62396],[80.22128,21.62099],[80.22294,21.62009],[80.22723,21.61938],[80.23352,21.61986],[80.23871,21.62021],[80.24262,21.62054],[80.24678,21.62029],[80.24935,21.62027],[80.25428,21.62228],[80.25874,21.62203],[80.26194,21.62051],[80.26329,21.62007],[80.2669,21.61993],[80.27166,21.61636],[80.27755,21.61044],[80.27906,21.60694],[80.28041,21.60246],[80.28211,21.59892],[80.28648,21.59597],[80.2895,21.59496],[80.29325,21.59329],[80.29467,21.59214],[80.29532,21.58951],[80.29577,21.5883],[80.29647,21.58577],[80.29694,21.5825],[80.2986,21.57791],[80.30206,21.57536],[80.30577,21.57529],[80.31005,21.57602],[80.31432,21.57664],[80.31657,21.57724],[80.31969,21.57699],[80.32362,21.57559],[80.32554,21.57446],[80.32689,21.5735],[80.32809,21.57051],[80.32954,21.56736],[80.33135,21.56404],[80.33298,21.56153],[80.33417,21.55958],[80.33529,21.55821],[80.33647,21.55626],[80.3368,21.55466],[80.33578,21.55361],[80.33397,21.5517],[80.33228,21.5503],[80.33114,21.54868],[80.3341,21.54606],[80.33639,21.54441],[80.33768,21.54367],[80.33966,21.5422],[80.34187,21.54072],[80.34471,21.53874],[80.34637,21.53789],[80.34901,21.5374],[80.35313,21.53572],[80.35861,21.53301],[80.36364,21.53082],[80.36892,21.52851],[80.37256,21.52637],[80.37435,21.52471],[80.37596,21.52294],[80.37734,21.521],[80.37753,21.51792],[80.37758,21.51713],[80.3779,21.5152],[80.37921,21.51284],[80.38029,21.50951],[80.3806,21.50515],[80.38062,21.50313],[80.38095,21.50118],[80.38128,21.49905],[80.38157,21.496],[80.38159,21.49492],[80.38167,21.49296],[80.38207,21.49123],[80.38253,21.49103],[80.3844,21.49022],[80.38533,21.48942],[80.38694,21.48737],[80.38844,21.48491],[80.38945,21.48256],[80.39041,21.47911],[80.39118,21.47647],[80.3936,21.47356],[80.39668,21.47106],[80.39884,21.46953],[80.40204,21.46801],[80.40332,21.46739],[80.40578,21.46655],[80.40769,21.46558],[80.40899,21.46353],[80.41042,21.46147],[80.41126,21.45878],[80.41141,21.45653],[80.41211,21.45458],[80.41318,21.45137],[80.41501,21.44741],[80.41622,21.4438],[80.4173,21.44036],[80.41806,21.43841],[80.41699,21.43661],[80.41535,21.43504],[80.41276,21.43265],[80.41101,21.43091],[80.40836,21.42829],[80.40565,21.42515],[80.40476,21.4233],[80.4067,21.4197],[80.40598,21.41813],[80.40352,21.41558],[80.4002,21.41289],[80.39664,21.40912],[80.39581,21.40761],[80.39579,21.40456],[80.39656,21.40111],[80.39827,21.39688],[80.40064,21.3924],[80.40327,21.38811],[80.40466,21.38438],[80.40611,21.38077],[80.40785,21.37854],[80.40871,21.37809],[80.41013,21.37678],[80.41118,21.3761],[80.4133,21.3767],[80.4152,21.37638],[80.41704,21.37576],[80.42083,21.37557],[80.42436,21.37595],[80.42772,21.37598],[80.42974,21.37554],[80.4317,21.37481],[80.43361,21.37339],[80.43434,21.37323],[80.43723,21.37222],[80.4403,21.3715],[80.44237,21.37158],[80.44401,21.37171],[80.44717,21.37243],[80.44972,21.37413],[80.45042,21.37672],[80.4505,21.38001],[80.45006,21.38496],[80.44997,21.3883],[80.45104,21.39084],[80.45235,21.39287],[80.45384,21.39587],[80.45441,21.39876],[80.45509,21.40262],[80.45747,21.40265],[80.46012,21.40066],[80.46153,21.39998],[80.46314,21.39902],[80.46695,21.39732],[80.46964,21.39666],[80.47111,21.39622],[80.47355,21.39589],[80.47496,21.39556],[80.47814,21.39617],[80.48065,21.39964],[80.48155,21.39608],[80.48241,21.39506],[80.48576,21.39625],[80.48824,21.3973],[80.49075,21.39761],[80.49228,21.39797],[80.49668,21.3967],[80.50025,21.39459],[80.50313,21.3933],[80.50737,21.39115],[80.50969,21.39094],[80.5125,21.39109],[80.51567,21.39146],[80.51823,21.39223],[80.52153,21.3914],[80.52331,21.3909],[80.52625,21.38996],[80.52719,21.38864],[80.52848,21.38773],[80.53102,21.38412],[80.53368,21.38208],[80.53655,21.38136],[80.53886,21.37769],[80.53992,21.37528],[80.54105,21.37248],[80.54371,21.36957],[80.54647,21.36896],[80.54776,21.36857],[80.55106,21.36773],[80.5526,21.36671],[80.55707,21.3652],[80.56205,21.36317],[80.56505,21.36176],[80.56585,21.3616],[80.56653,21.36085],[80.57101,21.35836],[80.57061,21.35622],[80.56794,21.35488],[80.56521,21.35364],[80.56487,21.35151],[80.56667,21.34905],[80.56738,21.34595],[80.5682,21.34382],[80.57101,21.34328],[80.57321,21.3433],[80.57594,21.34494],[80.57861,21.34611],[80.58229,21.34431],[80.58474,21.34352],[80.58713,21.34262],[80.58848,21.34211],[80.58927,21.33775],[80.58875,21.33486],[80.58994,21.33171],[80.59356,21.33001],[80.59632,21.32889],[80.59812,21.32729],[80.60003,21.32535],[80.60425,21.32406],[80.60627,21.3238],[80.6092,21.32429],[80.61218,21.32488],[80.61536,21.32451],[80.61696,21.3232],[80.61783,21.32229],[80.61985,21.32092],[80.62463,21.31976],[80.62755,21.32076],[80.63015,21.32206],[80.63179,21.32241],[80.63521,21.32319],[80.63867,21.32432],[80.64043,21.32479],[80.64507,21.32547],[80.65128,21.32609],[80.65518,21.327],[80.65733,21.33053],[80.65866,21.3318],[80.66342,21.33138]]]}}]}