{"type":"FeatureCollection","features":[{"type":"Feature","properties":{"id":"jalgaon","name":"Jalgaon","stateId":"maharashtra","stateName":"Maharashtra","censuscode":499,"type":"district"},"geometry":{"type":"Polygon","coordinates":[[[75.61889,21.39088],[75.62048,21.38561],[75.62295,21.38201],[75.62617,21.37974],[75.62882,21.37896],[75.63203,21.3795],[75.63925,21.37921],[75.64518,21.38019],[75.65432,21.37975],[75.65826,21.38047],[75.6729,21.37807],[75.67456,21.37917],[75.67796,21.37989],[75.68431,21.37995],[75.68733,21.38204],[75.68924,21.38522],[75.69436,21.38727],[75.70634,21.38903],[75.71343,21.38932],[75.72121,21.38869],[75.72232,21.38686],[75.73257,21.39103],[75.73522,21.39041],[75.738,21.39112],[75.74374,21.39089],[75.74578,21.38941],[75.75437,21.38609],[75.75864,21.3832],[75.75983,21.3834],[75.77357,21.38435],[75.79202,21.38691],[75.80121,21.38784],[75.80529,21.38672],[75.81233,21.38502],[75.83252,21.381],[75.84333,21.38714],[75.84654,21.38583],[75.8513,21.38703],[75.85927,21.38498],[75.86273,21.38498],[75.86817,21.38819],[75.87225,21.39318],[75.87615,21.39586],[75.88215,21.3961],[75.88814,21.3973],[75.89568,21.39641],[75.8971,21.39493],[75.90513,21.39331],[75.91236,21.38833],[75.91662,21.38751],[75.93247,21.3892],[75.93755,21.39055],[75.94814,21.39066],[75.9596,21.39386],[75.96895,21.39164],[75.98512,21.37486],[75.99189,21.37377],[76.00052,21.37249],[76.01629,21.36757],[76.02783,21.36583],[76.03496,21.36296],[76.04239,21.35659],[76.04742,21.3529],[76.05277,21.3504],[76.0661,21.35688],[76.0777,21.36195],[76.08864,21.36767],[76.09555,21.37035],[76.09918,21.37161],[76.10748,21.35789],[76.11651,21.33649],[76.12279,21.31936],[76.12782,21.30507],[76.12981,21.29525],[76.13553,21.28925],[76.14044,21.28676],[76.14557,21.28552],[76.14773,21.27913],[76.15038,21.27198],[76.15445,21.26659],[76.15662,21.26099],[76.15981,21.25692],[76.15867,21.25133],[76.15486,21.24693],[76.15148,21.24341],[76.14468,21.24037],[76.14465,21.23927],[76.14495,21.23589],[76.14608,21.23099],[76.14856,21.22944],[76.15385,21.22762],[76.15992,21.22505],[76.16463,21.22197],[76.16373,21.21976],[76.1621,21.2145],[76.16487,21.20963],[76.16853,21.20594],[76.1683,21.2037],[76.16764,21.20141],[76.16629,21.19788],[76.16649,21.19332],[76.16966,21.18971],[76.17332,21.18613],[76.17123,21.18002],[76.16971,21.17233],[76.16742,21.16858],[76.16146,21.16985],[76.1556,21.17041],[76.1435,21.17098],[76.1312,21.1734],[76.12788,21.17577],[76.11986,21.17253],[76.11476,21.16831],[76.11439,21.1625],[76.11938,21.15798],[76.12455,21.15696],[76.1289,21.15457],[76.13217,21.15055],[76.1404,21.13795],[76.14141,21.1339],[76.13984,21.13152],[76.13464,21.12821],[76.13614,21.1241],[76.14262,21.11896],[76.15197,21.11291],[76.16274,21.10787],[76.16799,21.10421],[76.16901,21.10332],[76.16965,21.10164],[76.16985,21.09933],[76.16981,21.09658],[76.16867,21.09115],[76.16757,21.0875],[76.16918,21.08374],[76.17318,21.08253],[76.17784,21.08342],[76.18135,21.08535],[76.18444,21.08787],[76.18964,21.08823],[76.20931,21.08811],[76.22816,21.08938],[76.2358,21.09184],[76.26287,21.09262],[76.27001,21.09088],[76.27403,21.08334],[76.27855,21.07597],[76.28255,21.07325],[76.28657,21.07444],[76.29794,21.07513],[76.33574,21.07514],[76.35796,21.07762],[76.3623,21.07795],[76.36678,21.07702],[76.36961,21.07666],[76.373,21.07651],[76.37737,21.07526],[76.38064,21.07644],[76.38207,21.07702],[76.38379,21.07751],[76.38353,21.07728],[76.38455,21.07618],[76.38554,21.07457],[76.38638,21.07263],[76.38697,21.07048],[76.38767,21.06756],[76.38743,21.06557],[76.38703,21.06238],[76.38751,21.05912],[76.38872,21.05528],[76.39067,21.04954],[76.39316,21.04599],[76.39483,21.04377],[76.39556,21.04203],[76.39652,21.04008],[76.39736,21.0364],[76.39804,21.03255],[76.39815,21.03032],[76.39691,21.02847],[76.39622,21.02665],[76.39494,21.025],[76.39408,21.02289],[76.39356,21.02055],[76.39426,21.01866],[76.39479,21.01592],[76.39441,21.01414],[76.39386,21.01244],[76.39246,21.01049],[76.39015,21.00063],[76.38698,20.99287],[76.38368,20.98796],[76.38331,20.97751],[76.37971,20.97661],[76.37611,20.97663],[76.36797,20.97781],[76.36723,20.97327],[76.36537,20.97004],[76.3603,20.96499],[76.35397,20.9624],[76.35439,20.95811],[76.3538,20.95592],[76.34689,20.95625],[76.34691,20.94977],[76.33888,20.95122],[76.3202,20.9505],[76.31457,20.95165],[76.29886,20.9572],[76.29305,20.9576],[76.28852,20.95806],[76.28469,20.95744],[76.28058,20.9582],[76.27862,20.96827],[76.27632,20.9718],[76.27287,20.97405],[76.26719,20.97989],[76.25881,20.98491],[76.25224,20.9877],[76.24703,20.98815],[76.23955,20.9907],[76.23228,21.00047],[76.23028,21.00791],[76.2283,21.00991],[76.22581,21.01191],[76.22078,21.013],[76.21503,21.01339],[76.21281,21.01351],[76.20773,21.0133],[76.20388,21.01404],[76.20046,21.01485],[76.19761,21.01676],[76.1956,21.01866],[76.1934,21.02154],[76.19146,21.0235],[76.18862,21.02561],[76.18617,21.02684],[76.18291,21.02812],[76.17742,21.03019],[76.17386,21.03225],[76.17049,21.03512],[76.17007,21.03652],[76.1685,21.03906],[76.16734,21.04016],[76.16651,21.04002],[76.16594,21.03807],[76.16507,21.0364],[76.16424,21.03318],[76.16498,21.03015],[76.16518,21.02746],[76.16515,21.02262],[76.16382,21.02031],[76.16363,21.01471],[76.16241,21.01067],[76.16231,21.00831],[76.15943,21.00035],[76.15653,20.99764],[76.14756,20.99186],[76.14471,20.98585],[76.13215,20.97876],[76.12466,20.97724],[76.12266,20.97527],[76.11726,20.96275],[76.11641,20.95781],[76.11331,20.95255],[76.10975,20.94877],[76.10457,20.94723],[76.10039,20.94482],[76.09214,20.9435],[76.09282,20.93979],[76.09021,20.9338],[76.08965,20.92927],[76.08411,20.92753],[76.08072,20.90804],[76.09308,20.90585],[76.10093,20.9033],[76.10407,20.90111],[76.10515,20.89825],[76.11155,20.89443],[76.11541,20.89328],[76.11521,20.89029],[76.11165,20.8817],[76.10773,20.87821],[76.0987,20.87254],[76.08282,20.8541],[76.08085,20.85086],[76.08036,20.84621],[76.07556,20.84489],[76.07547,20.83794],[76.07391,20.8358],[76.07394,20.83356],[76.06806,20.82954],[76.06688,20.82735],[76.06556,20.82532],[76.06121,20.82675],[76.0583,20.82511],[76.05635,20.81999],[76.05479,20.81831],[76.05108,20.81647],[76.04974,20.8125],[76.05236,20.80789],[76.05755,20.80354],[76.05085,20.79742],[76.0499,20.79507],[76.05073,20.79278],[76.04942,20.79058],[76.04993,20.78824],[76.04299,20.7834],[76.03557,20.7857],[76.01855,20.78469],[76.01231,20.78552],[76.01207,20.78053],[76.00002,20.77934],[75.99798,20.77794],[75.99706,20.77129],[75.99752,20.76787],[75.9962,20.76492],[75.99032,20.76313],[75.98691,20.75885],[75.98836,20.75401],[75.99132,20.75085],[76.00003,20.7432],[76.00247,20.74221],[76.00705,20.74186],[76.01215,20.73866],[76.01261,20.73178],[76.01603,20.73142],[76.01637,20.72942],[76.01441,20.72934],[76.01625,20.72495],[76.01735,20.72404],[76.01332,20.72043],[76.00002,20.71562],[75.99872,20.71269],[75.99888,20.70903],[75.99707,20.69656],[75.99885,20.69383],[76.00003,20.69083],[76.00349,20.68864],[76.00387,20.68377],[76.00366,20.68084],[76.00003,20.67426],[75.99923,20.67266],[75.99814,20.66736],[76.00003,20.65894],[76.00258,20.65811],[76.00437,20.65595],[76.00636,20.65294],[76.00671,20.6495],[76.00884,20.64545],[76.01107,20.64302],[76.01062,20.63927],[76.0086,20.63589],[76.00167,20.63407],[76.00003,20.63261],[75.99844,20.62942],[75.99319,20.62677],[75.99108,20.62315],[75.98791,20.62284],[75.97293,20.62416],[75.96154,20.62385],[75.95715,20.62497],[75.95664,20.61593],[75.95492,20.60646],[75.95143,20.60344],[75.94834,20.60191],[75.93352,20.5997],[75.9338,20.5957],[75.93528,20.5937],[75.93554,20.58159],[75.93461,20.57809],[75.93369,20.55482],[75.93167,20.55088],[75.92967,20.54986],[75.92277,20.55234],[75.92122,20.55585],[75.91456,20.55824],[75.88953,20.56336],[75.88868,20.5681],[75.88894,20.57756],[75.8874,20.59683],[75.87178,20.60082],[75.86916,20.62356],[75.85607,20.62481],[75.85589,20.6183],[75.84336,20.61845],[75.84076,20.61654],[75.83945,20.60917],[75.84073,20.60302],[75.84538,20.59559],[75.83394,20.59528],[75.83448,20.58056],[75.82962,20.57435],[75.8376,20.57308],[75.84907,20.56999],[75.84593,20.56761],[75.83801,20.56367],[75.82649,20.5608],[75.82058,20.56169],[75.81726,20.56484],[75.81102,20.56841],[75.8057,20.56992],[75.78921,20.56537],[75.78802,20.5681],[75.79132,20.57732],[75.7897,20.58659],[75.78514,20.58678],[75.77232,20.57926],[75.76685,20.57841],[75.75978,20.57995],[75.75903,20.58653],[75.7602,20.60124],[75.75871,20.61419],[75.75133,20.6159],[75.73339,20.6101],[75.73102,20.61042],[75.72438,20.62052],[75.7065,20.61534],[75.70312,20.61772],[75.70008,20.6225],[75.69955,20.63128],[75.70237,20.64531],[75.70306,20.65284],[75.70588,20.66153],[75.70097,20.66452],[75.68979,20.66832],[75.67474,20.66937],[75.66943,20.67047],[75.6667,20.66992],[75.66061,20.66602],[75.65798,20.66186],[75.65627,20.65249],[75.66058,20.65351],[75.66253,20.64343],[75.6606,20.64214],[75.66275,20.63539],[75.66234,20.62855],[75.66,20.62664],[75.65434,20.62634],[75.6528,20.62323],[75.64833,20.62003],[75.63324,20.6197],[75.62484,20.62524],[75.61499,20.62415],[75.60894,20.62197],[75.61091,20.61516],[75.61494,20.60923],[75.61157,20.60696],[75.60508,20.60482],[75.59032,20.60265],[75.58551,20.60358],[75.58187,20.60692],[75.57817,20.60579],[75.57273,20.60884],[75.57118,20.61054],[75.56495,20.61271],[75.55891,20.61344],[75.55761,20.61131],[75.55756,20.60527],[75.55562,20.60428],[75.54383,20.60892],[75.54143,20.61062],[75.53674,20.60965],[75.53363,20.59645],[75.52573,20.59516],[75.52252,20.59036],[75.5255,20.57631],[75.52509,20.57028],[75.52611,20.56707],[75.5262,20.56069],[75.51862,20.55854],[75.5138,20.55457],[75.50864,20.55435],[75.50637,20.55076],[75.5063,20.54748],[75.50541,20.54523],[75.50268,20.54491],[75.49881,20.54257],[75.498,20.54009],[75.4978,20.53216],[75.49567,20.52777],[75.48973,20.53097],[75.48717,20.54009],[75.4847,20.5431],[75.47333,20.54268],[75.46899,20.54441],[75.46826,20.54893],[75.46443,20.55298],[75.46091,20.55293],[75.46137,20.53679],[75.46338,20.52728],[75.46352,20.52171],[75.46258,20.51894],[75.45861,20.51602],[75.45186,20.52904],[75.45098,20.54029],[75.43921,20.53802],[75.43557,20.53321],[75.43058,20.53304],[75.42853,20.5321],[75.42723,20.52909],[75.43038,20.52551],[75.43241,20.51962],[75.43428,20.51671],[75.4342,20.51326],[75.42505,20.51539],[75.41967,20.51786],[75.41266,20.52341],[75.40672,20.52207],[75.39732,20.52408],[75.39586,20.53297],[75.39559,20.56624],[75.39413,20.57444],[75.39126,20.57963],[75.38609,20.57951],[75.3727,20.57544],[75.37025,20.57691],[75.36505,20.58351],[75.36405,20.58952],[75.36222,20.5941],[75.36254,20.59686],[75.35891,20.59136],[75.35309,20.58956],[75.35065,20.59023],[75.34342,20.58973],[75.32879,20.5922],[75.32131,20.59153],[75.31791,20.58695],[75.31806,20.57666],[75.31202,20.57774],[75.30722,20.57773],[75.30066,20.57645],[75.29802,20.57486],[75.29583,20.57018],[75.29292,20.56917],[75.28552,20.56838],[75.27455,20.56917],[75.2668,20.57113],[75.25999,20.57892],[75.25483,20.57007],[75.25219,20.55521],[75.24496,20.5516],[75.24688,20.54859],[75.24739,20.54279],[75.24367,20.53924],[75.24263,20.53905],[75.24308,20.53372],[75.23955,20.5216],[75.23796,20.52198],[75.23168,20.51984],[75.2285,20.51664],[75.22737,20.51443],[75.22667,20.50863],[75.22824,20.50106],[75.23116,20.49305],[75.23001,20.49235],[75.22562,20.49345],[75.22108,20.4962],[75.21169,20.49832],[75.21305,20.49282],[75.21009,20.49134],[75.20332,20.49229],[75.20217,20.49182],[75.20082,20.48525],[75.20058,20.48076],[75.20132,20.47629],[75.18913,20.47412],[75.18261,20.47558],[75.17893,20.47761],[75.17286,20.47649],[75.16793,20.47671],[75.16345,20.47597],[75.16267,20.47515],[75.16205,20.45487],[75.16146,20.44952],[75.16277,20.44264],[75.16147,20.43659],[75.15544,20.43398],[75.14876,20.43349],[75.14102,20.43459],[75.13487,20.43158],[75.12947,20.43151],[75.12585,20.42904],[75.12495,20.42461],[75.12112,20.42467],[75.11744,20.41847],[75.11433,20.41481],[75.10843,20.41186],[75.10808,20.40703],[75.11377,20.39612],[75.11635,20.39421],[75.11847,20.38607],[75.12252,20.3751],[75.12643,20.35733],[75.12546,20.34939],[75.12269,20.34757],[75.11109,20.34748],[75.10438,20.34525],[75.09962,20.34306],[75.09719,20.33883],[75.09233,20.33463],[75.07501,20.33589],[75.06933,20.33507],[75.06259,20.33509],[75.05946,20.33401],[75.0574,20.32968],[75.05623,20.32236],[75.05739,20.31381],[75.05651,20.30731],[75.04825,20.30771],[75.0333,20.31642],[75.02488,20.32308],[75.0126,20.3298],[75.00002,20.33685],[74.99539,20.3359],[74.99192,20.33373],[74.98893,20.3303],[74.98539,20.3174],[74.98747,20.30237],[74.97101,20.30407],[74.95362,20.28979],[74.94438,20.27986],[74.94899,20.27317],[74.94346,20.2705],[74.93492,20.26969],[74.93787,20.27167],[74.93202,20.27195],[74.92342,20.27368],[74.91818,20.27764],[74.91383,20.27434],[74.90896,20.27276],[74.87015,20.27701],[74.86306,20.27971],[74.85973,20.28181],[74.85704,20.2855],[74.85935,20.29608],[74.86118,20.30076],[74.85894,20.31316],[74.86347,20.31426],[74.86666,20.31624],[74.86767,20.33509],[74.86108,20.3347],[74.86037,20.34187],[74.8588,20.34779],[74.85627,20.35057],[74.85698,20.36398],[74.85324,20.36774],[74.85181,20.37091],[74.85416,20.37359],[74.85072,20.38274],[74.84715,20.38455],[74.84366,20.38791],[74.83489,20.39379],[74.82971,20.39946],[74.82864,20.40251],[74.83202,20.40426],[74.84094,20.4064],[74.84208,20.40989],[74.8379,20.41744],[74.83056,20.4213],[74.82792,20.42563],[74.81955,20.4291],[74.81864,20.44045],[74.80794,20.44291],[74.80625,20.44471],[74.80421,20.44777],[74.8025,20.45288],[74.80187,20.46241],[74.80061,20.46907],[74.7993,20.47201],[74.79545,20.47698],[74.79076,20.47192],[74.78457,20.4698],[74.77523,20.46846],[74.77354,20.4706],[74.77977,20.48263],[74.78349,20.48758],[74.78544,20.49295],[74.78619,20.50011],[74.78396,20.50758],[74.77459,20.50458],[74.77286,20.50901],[74.77078,20.51843],[74.76681,20.52419],[74.76259,20.52824],[74.7619,20.53862],[74.77063,20.53934],[74.78771,20.53855],[74.79577,20.5395],[74.79935,20.54818],[74.79932,20.55173],[74.79627,20.55761],[74.79563,20.56071],[74.79458,20.5704],[74.79549,20.57538],[74.80216,20.58849],[74.80799,20.58494],[74.81045,20.58697],[74.81236,20.59463],[74.81493,20.63375],[74.82867,20.63199],[74.83614,20.63347],[74.84066,20.63331],[74.84345,20.63742],[74.85648,20.63518],[74.86843,20.63809],[74.87641,20.64192],[74.88737,20.64415],[74.89173,20.64628],[74.89771,20.65166],[74.90096,20.65793],[74.9142,20.65724],[74.92946,20.65745],[74.93217,20.66033],[74.93406,20.66478],[74.93709,20.66923],[74.94123,20.67383],[74.94236,20.68261],[74.95483,20.69147],[74.95596,20.69419],[74.95333,20.6988],[74.9526,20.70402],[74.95347,20.7118],[74.96021,20.71565],[74.95767,20.71703],[74.95409,20.71734],[74.95076,20.71925],[74.95102,20.72045],[74.96103,20.71929],[74.96488,20.72029],[74.9718,20.72565],[74.98387,20.73249],[74.98906,20.73359],[74.99121,20.73642],[74.99426,20.74873],[74.99265,20.76177],[74.99036,20.76642],[74.98846,20.77312],[74.98402,20.77796],[74.97398,20.78377],[74.96805,20.79708],[74.96536,20.80105],[74.96306,20.80245],[74.96193,20.80486],[74.96288,20.80782],[74.96801,20.81177],[74.96834,20.8192],[74.97484,20.82124],[74.98254,20.82139],[74.98646,20.82226],[74.98352,20.83087],[74.98344,20.83464],[74.98168,20.84045],[74.98195,20.84325],[74.96757,20.85153],[74.96683,20.85669],[74.97031,20.87729],[74.9678,20.88306],[74.96079,20.88716],[74.96012,20.89431],[74.96227,20.90253],[74.96198,20.90512],[74.95593,20.90019],[74.94999,20.91165],[74.9457,20.91436],[74.93463,20.91732],[74.93508,20.92588],[74.91415,20.92683],[74.91182,20.9459],[74.91263,20.96203],[74.91832,20.96244],[74.93022,20.96092],[74.93078,20.96716],[74.92862,20.97195],[74.92977,20.97768],[74.92653,20.98095],[74.91914,20.98584],[74.9166,20.98992],[74.91642,21.0002],[74.91829,21.00679],[74.92121,21.01057],[74.91018,21.03199],[74.9057,21.03571],[74.89425,21.03976],[74.89111,21.05245],[74.86486,21.05123],[74.85811,21.06306],[74.85952,21.06545],[74.86819,21.07282],[74.87412,21.08821],[74.87276,21.09271],[74.87005,21.09711],[74.87089,21.10143],[74.87456,21.10488],[74.88669,21.11328],[74.88497,21.12775],[74.88635,21.13725],[74.88881,21.14505],[74.89297,21.1514],[74.8984,21.15577],[74.90285,21.15787],[74.91345,21.16602],[74.91874,21.16659],[74.92815,21.16564],[74.93206,21.16692],[74.93663,21.17178],[74.9522,21.1816],[74.9588,21.1869],[74.96343,21.19176],[74.96421,21.19658],[74.96275,21.19931],[74.9582,21.20058],[74.95368,21.2003],[74.95189,21.20094],[74.95244,21.20261],[74.95552,21.204],[74.95813,21.20647],[74.95952,21.2089],[74.959,21.21164],[74.95724,21.21302],[74.94935,21.21622],[74.9441,21.2215],[74.94376,21.22497],[74.95293,21.22127],[74.96397,21.22258],[74.97368,21.22088],[74.98,21.20972],[74.99024,21.19515],[74.99922,21.18736],[75.00246,21.18789],[75.0048,21.18921],[75.00954,21.19195],[75.01385,21.1928],[75.01729,21.19245],[75.01918,21.1933],[75.02455,21.19351],[75.03289,21.1921],[75.03858,21.20278],[75.03971,21.20705],[75.04191,21.21117],[75.04771,21.21335],[75.05531,21.2139],[75.05804,21.21856],[75.06455,21.22365],[75.06735,21.22487],[75.07911,21.22786],[75.089,21.22802],[75.09228,21.23207],[75.09717,21.2327],[75.10439,21.236],[75.11913,21.26175],[75.12606,21.26475],[75.12874,21.26754],[75.13027,21.26991],[75.13061,21.2729],[75.12877,21.28145],[75.13028,21.28502],[75.13957,21.29375],[75.13857,21.30523],[75.13542,21.31369],[75.13675,21.3167],[75.14925,21.31828],[75.15198,21.32303],[75.14484,21.33185],[75.12563,21.33926],[75.12334,21.34079],[75.12152,21.34382],[75.12531,21.34875],[75.12875,21.35016],[75.13541,21.34932],[75.14078,21.34777],[75.14823,21.34912],[75.14905,21.35419],[75.13853,21.36062],[75.13609,21.36564],[75.14157,21.38415],[75.15208,21.38835],[75.15471,21.39148],[75.15715,21.3957],[75.15793,21.3987],[75.16105,21.40275],[75.16568,21.40274],[75.17241,21.40133],[75.17788,21.40317],[75.18194,21.40552],[75.18328,21.40772],[75.19023,21.41147],[75.193,21.41248],[75.20572,21.41368],[75.20882,21.41206],[75.21815,21.40871],[75.2306,21.41443],[75.23474,21.41492],[75.24184,21.41276],[75.24606,21.40849],[75.25238,21.40397],[75.2575,21.40305],[75.26545,21.40669],[75.27509,21.40668],[75.28705,21.40962],[75.29013,21.41172],[75.29815,21.41347],[75.30038,21.41263],[75.30168,21.39301],[75.30033,21.39024],[75.30041,21.38708],[75.30718,21.39231],[75.3105,21.3931],[75.31947,21.39021],[75.32539,21.39205],[75.33348,21.39248],[75.35242,21.39129],[75.35668,21.39397],[75.36005,21.40102],[75.36562,21.3967],[75.37738,21.39022],[75.38004,21.38542],[75.3832,21.38339],[75.39184,21.38186],[75.39412,21.38246],[75.39716,21.38077],[75.39969,21.38177],[75.40259,21.38157],[75.40806,21.38771],[75.41219,21.38885],[75.4188,21.38805],[75.43052,21.39172],[75.43516,21.3885],[75.44251,21.38879],[75.44503,21.38825],[75.44898,21.39018],[75.45337,21.38982],[75.45898,21.39079],[75.46454,21.38912],[75.46738,21.39196],[75.4838,21.38902],[75.49546,21.38849],[75.49954,21.38933],[75.50918,21.38575],[75.51535,21.38449],[75.52369,21.38491],[75.52851,21.38248],[75.53909,21.37494],[75.54445,21.37355],[75.54631,21.37042],[75.5473,21.37025],[75.5505,21.37321],[75.55451,21.3752],[75.55901,21.38001],[75.56031,21.37892],[75.55945,21.37656],[75.5634,21.37585],[75.56519,21.3769],[75.57129,21.37598],[75.58049,21.37761],[75.58079,21.37859],[75.57579,21.38326],[75.58413,21.38534],[75.58701,21.38663],[75.59053,21.38947],[75.60226,21.38826],[75.60824,21.39273],[75.6188,21.39118],[75.61889,21.39088]]]}}]}