{"type":"FeatureCollection","features":[{"type":"Feature","properties":{"id":"jalna","name":"Jalna","stateId":"maharashtra","stateName":"Maharashtra","censuscode":514,"type":"district"},"geometry":{"type":"Polygon","coordinates":[[[76.02625,20.64378],[76.03284,20.63848],[76.03376,20.63407],[76.03161,20.62544],[76.0343,20.61653],[76.03816,20.61078],[76.03996,20.60352],[76.04034,20.59721],[76.03885,20.59524],[76.03864,20.58801],[76.04214,20.58163],[76.04187,20.57893],[76.03784,20.57016],[76.03806,20.56747],[76.03976,20.56364],[76.03988,20.5594],[76.0403,20.55505],[76.03623,20.55413],[76.03226,20.55535],[76.02613,20.55308],[76.02114,20.55222],[76.01849,20.55029],[76.01945,20.54675],[76.01965,20.53573],[76.01845,20.53027],[76.01385,20.5321],[76.01213,20.53375],[76.01159,20.53701],[76.00856,20.53588],[76.00199,20.53074],[76.00002,20.53055],[75.99888,20.5299],[75.99479,20.53358],[75.99076,20.5304],[75.98327,20.52946],[75.97398,20.53347],[75.97343,20.52939],[75.97076,20.52298],[75.95856,20.52739],[75.95791,20.52442],[75.95642,20.52219],[75.95419,20.52047],[75.95055,20.51955],[75.94935,20.51314],[75.94434,20.50392],[75.94242,20.49561],[75.94416,20.48635],[75.94761,20.48185],[75.95075,20.47352],[75.95536,20.47338],[75.95458,20.46644],[75.95818,20.46573],[75.95767,20.45673],[75.94908,20.44668],[75.94482,20.4362],[75.9422,20.42555],[75.9452,20.42323],[75.94834,20.41361],[75.94931,20.40885],[75.94848,20.40064],[75.95055,20.39439],[75.95369,20.38993],[75.96516,20.38038],[75.96814,20.37362],[75.96031,20.37354],[75.96012,20.36835],[75.95328,20.37175],[75.94217,20.37123],[75.94441,20.36114],[75.94468,20.35157],[75.94243,20.3451],[75.93794,20.3402],[75.93419,20.33802],[75.93269,20.3314],[75.92962,20.32823],[75.92663,20.32331],[75.92624,20.32014],[75.92707,20.30978],[75.92814,20.30691],[75.93292,20.30405],[75.94588,20.30036],[75.95081,20.30062],[75.9552,20.30319],[75.96913,20.31355],[75.97529,20.31645],[75.97792,20.31485],[75.97826,20.31215],[75.98016,20.31024],[75.98412,20.30937],[75.99452,20.3092],[75.99532,20.31183],[75.9977,20.31306],[76.00003,20.31155],[76.0045,20.30547],[76.00461,20.30215],[76.00239,20.29919],[76.00292,20.29616],[76.00112,20.29028],[76.00242,20.28795],[76.00843,20.28895],[76.01781,20.28896],[76.01888,20.28638],[76.02635,20.28717],[76.03114,20.28843],[76.03054,20.29261],[76.03089,20.29767],[76.03363,20.30659],[76.0365,20.311],[76.03743,20.31439],[76.04524,20.32665],[76.04956,20.33571],[76.0531,20.33909],[76.05631,20.3409],[76.06506,20.34199],[76.06833,20.34353],[76.06934,20.34543],[76.07224,20.34662],[76.07852,20.35553],[76.0801,20.36031],[76.08315,20.36471],[76.08701,20.36281],[76.08776,20.3608],[76.09238,20.35748],[76.09194,20.34823],[76.09557,20.34553],[76.09769,20.3467],[76.10023,20.35299],[76.10406,20.35356],[76.10899,20.35292],[76.11329,20.34587],[76.11646,20.34521],[76.1193,20.3464],[76.12162,20.34579],[76.12264,20.34294],[76.12411,20.34164],[76.12745,20.34225],[76.12892,20.34112],[76.12897,20.33773],[76.12665,20.32899],[76.12659,20.32428],[76.13146,20.31946],[76.12979,20.31675],[76.12629,20.31521],[76.12745,20.31379],[76.12983,20.31331],[76.13255,20.31466],[76.13374,20.31714],[76.13605,20.31711],[76.14189,20.31208],[76.1455,20.31097],[76.14887,20.30624],[76.14205,20.30197],[76.14188,20.2999],[76.14511,20.29965],[76.15247,20.3006],[76.1564,20.30272],[76.16072,20.29778],[76.16787,20.29528],[76.17226,20.29453],[76.17629,20.29854],[76.177,20.30027],[76.18304,20.29896],[76.18491,20.30013],[76.19172,20.30044],[76.19226,20.30108],[76.19489,20.30031],[76.19178,20.29057],[76.18857,20.28469],[76.18372,20.26781],[76.17849,20.26345],[76.17219,20.25609],[76.17066,20.25188],[76.17024,20.24665],[76.1664,20.23668],[76.15346,20.23561],[76.14994,20.23471],[76.1469,20.23111],[76.13847,20.22906],[76.13814,20.22556],[76.13418,20.22172],[76.13519,20.2184],[76.14076,20.21095],[76.15146,20.20597],[76.15124,20.20454],[76.14309,20.19962],[76.13544,20.19866],[76.13274,20.1906],[76.1338,20.18396],[76.13267,20.1821],[76.12885,20.18091],[76.12816,20.17781],[76.12644,20.17475],[76.12692,20.1701],[76.12562,20.16739],[76.12251,20.16833],[76.12149,20.16774],[76.1228,20.15983],[76.11842,20.15967],[76.11092,20.16159],[76.10684,20.15299],[76.10996,20.14223],[76.10934,20.13781],[76.10723,20.13204],[76.10234,20.12912],[76.10151,20.12325],[76.10237,20.11758],[76.09893,20.10686],[76.09741,20.09726],[76.09543,20.095],[76.09215,20.09593],[76.08904,20.10095],[76.08519,20.09809],[76.07847,20.10133],[76.07143,20.10038],[76.06563,20.09784],[76.06186,20.09883],[76.0573,20.09843],[76.05653,20.09681],[76.05547,20.08555],[76.06164,20.08707],[76.06692,20.08323],[76.07063,20.07409],[76.06813,20.06959],[76.06081,20.06697],[76.05732,20.06376],[76.02731,20.06046],[76.01972,20.05899],[76.02478,20.04471],[76.02408,20.03213],[76.02471,20.02313],[76.01305,20.02304],[76.00981,20.01881],[76.00803,20.0146],[76.00367,20.01265],[76.00002,20.01329],[75.99423,20.00489],[75.98584,20.00281],[75.97613,20.00089],[75.96857,20.00221],[75.96819,20.00121],[75.96725,20.00009],[75.96669,19.99449],[75.96965,19.9895],[75.97444,19.98487],[75.98422,19.98182],[75.98834,19.98107],[75.99045,19.97516],[75.99477,19.97683],[76.00003,19.97343],[76.00513,19.97186],[76.01126,19.97142],[76.0135,19.97172],[76.01665,19.97397],[76.0165,19.96601],[76.01401,19.95323],[76.02885,19.94809],[76.03765,19.94792],[76.04256,19.95046],[76.04421,19.94504],[76.04862,19.94725],[76.05331,19.94158],[76.05463,19.94025],[76.04929,19.93702],[76.05156,19.93194],[76.05821,19.93051],[76.06033,19.92417],[76.06137,19.91815],[76.06356,19.91571],[76.08055,19.91152],[76.08086,19.88991],[76.08161,19.88457],[76.08329,19.88098],[76.09372,19.87099],[76.09607,19.86682],[76.10024,19.85591],[76.10954,19.86027],[76.12056,19.85944],[76.12107,19.86413],[76.12931,19.86283],[76.13501,19.85642],[76.13701,19.85008],[76.14011,19.84446],[76.14971,19.84525],[76.14914,19.85352],[76.14954,19.85518],[76.15198,19.85588],[76.16983,19.85016],[76.17461,19.84933],[76.18787,19.85097],[76.1934,19.85477],[76.19693,19.85826],[76.19883,19.86229],[76.20986,19.86163],[76.21217,19.86468],[76.21455,19.8659],[76.2301,19.86377],[76.24099,19.87079],[76.24836,19.86939],[76.25203,19.87052],[76.25657,19.8733],[76.26216,19.87326],[76.28312,19.872],[76.29475,19.87069],[76.29819,19.86959],[76.30103,19.87527],[76.30515,19.87765],[76.30862,19.87868],[76.31004,19.87698],[76.31215,19.8759],[76.31413,19.87489],[76.31849,19.87716],[76.32049,19.8774],[76.32408,19.88049],[76.32769,19.88191],[76.33462,19.88264],[76.33958,19.88191],[76.34347,19.8882],[76.34396,19.89134],[76.34597,19.89164],[76.34799,19.88977],[76.35312,19.89369],[76.3545,19.89618],[76.35495,19.90024],[76.3576,19.90811],[76.36614,19.92158],[76.36626,19.92479],[76.36816,19.92567],[76.37303,19.92334],[76.37895,19.91892],[76.3835,19.91866],[76.38798,19.90637],[76.39023,19.90425],[76.39414,19.9055],[76.39931,19.90849],[76.40347,19.91581],[76.40822,19.91972],[76.41765,19.91759],[76.44021,19.91645],[76.44764,19.91814],[76.45152,19.92047],[76.46517,19.91733],[76.48275,19.91904],[76.49068,19.91807],[76.49327,19.91694],[76.49114,19.90838],[76.49128,19.90356],[76.49207,19.89827],[76.49532,19.89104],[76.50025,19.88348],[76.51152,19.87408],[76.51544,19.87612],[76.51981,19.87082],[76.52638,19.86861],[76.53362,19.86428],[76.53027,19.86051],[76.53236,19.85588],[76.53297,19.85079],[76.53302,19.85042],[76.53091,19.84789],[76.5206,19.84833],[76.52232,19.84107],[76.51898,19.83985],[76.51889,19.83982],[76.52118,19.83677],[76.52161,19.83621],[76.51777,19.83537],[76.51824,19.8318],[76.51219,19.8297],[76.51154,19.82776],[76.51141,19.82736],[76.51515,19.82589],[76.51573,19.82566],[76.51018,19.81798],[76.51005,19.81781],[76.5126,19.81547],[76.51273,19.81535],[76.51446,19.8113],[76.51491,19.80716],[76.51172,19.80029],[76.49987,19.7991],[76.48618,19.79966],[76.48385,19.79283],[76.48471,19.78595],[76.48473,19.78582],[76.4899,19.77826],[76.50238,19.77233],[76.51238,19.77015],[76.51283,19.77005],[76.51084,19.76229],[76.49937,19.76183],[76.49388,19.76023],[76.48855,19.75495],[76.48514,19.74871],[76.48574,19.7432],[76.46,19.74652],[76.45873,19.72342],[76.4587,19.72287],[76.48497,19.7199],[76.48524,19.71987],[76.48755,19.69723],[76.4879,19.67692],[76.47145,19.67852],[76.46624,19.66727],[76.46024,19.6647],[76.45362,19.66661],[76.45007,19.65963],[76.4444,19.64161],[76.44423,19.64105],[76.45275,19.64072],[76.45306,19.64071],[76.45341,19.62602],[76.45209,19.61211],[76.44257,19.61173],[76.43417,19.60193],[76.43387,19.60158],[76.43795,19.60002],[76.43831,19.59988],[76.43727,19.58612],[76.43723,19.58563],[76.44816,19.58281],[76.44856,19.58271],[76.44584,19.56344],[76.44647,19.55368],[76.44257,19.54074],[76.41326,19.53209],[76.41322,19.53277],[76.41295,19.53761],[76.41265,19.53766],[76.39611,19.54063],[76.39585,19.53078],[76.37865,19.5361],[76.37263,19.51535],[76.37248,19.50497],[76.37247,19.50446],[76.37747,19.50334],[76.37724,19.49967],[76.37407,19.496],[76.37151,19.48929],[76.36551,19.46837],[76.34495,19.46991],[76.34136,19.45393],[76.33602,19.4565],[76.32765,19.45591],[76.31524,19.46395],[76.31022,19.45527],[76.30357,19.43195],[76.29091,19.43208],[76.28608,19.39679],[76.28649,19.39678],[76.28641,19.39621],[76.29235,19.39598],[76.28529,19.36631],[76.26756,19.36601],[76.26169,19.35736],[76.26216,19.35697],[76.26202,19.35677],[76.26773,19.35213],[76.27468,19.34861],[76.28026,19.34882],[76.28073,19.34884],[76.27967,19.34416],[76.2738,19.33854],[76.26859,19.33496],[76.26506,19.33366],[76.25764,19.33448],[76.24191,19.33788],[76.23508,19.31335],[76.21335,19.31823],[76.21009,19.30098],[76.2102,19.29872],[76.21022,19.29823],[76.21684,19.29626],[76.22128,19.29397],[76.22168,19.29377],[76.22061,19.28822],[76.21764,19.28805],[76.20927,19.27754],[76.20902,19.27771],[76.19901,19.28465],[76.19535,19.28638],[76.18513,19.28903],[76.17985,19.2881],[76.17208,19.28324],[76.16703,19.28208],[76.16355,19.28305],[76.16127,19.28745],[76.15973,19.29522],[76.15826,19.2972],[76.1529,19.29552],[76.14217,19.29067],[76.13796,19.29212],[76.13474,19.2943],[76.12935,19.30019],[76.12803,19.30354],[76.1252,19.30393],[76.12163,19.30135],[76.11755,19.29656],[76.1158,19.29636],[76.11201,19.30117],[76.10765,19.30672],[76.10132,19.30815],[76.09828,19.30689],[76.09569,19.29804],[76.09555,19.29397],[76.09179,19.28424],[76.08355,19.27964],[76.07725,19.2794],[76.07249,19.28018],[76.06541,19.28289],[76.05449,19.28474],[76.05068,19.28395],[76.03928,19.28591],[76.03155,19.28984],[76.02806,19.29702],[76.02688,19.30115],[76.02653,19.312],[76.02513,19.32106],[76.02274,19.32609],[76.02315,19.32882],[76.02499,19.33281],[76.02525,19.33681],[76.0234,19.33885],[76.01943,19.33938],[76.01583,19.33836],[76.01272,19.33635],[76.00002,19.32332],[75.98341,19.31213],[75.97085,19.29932],[75.95497,19.29427],[75.94603,19.29309],[75.93821,19.29241],[75.93368,19.29362],[75.92042,19.30069],[75.90712,19.31913],[75.90479,19.33024],[75.90645,19.34312],[75.90949,19.35152],[75.91635,19.3618],[75.9154,19.36508],[75.92219,19.37364],[75.92292,19.37628],[75.9218,19.3841],[75.91799,19.3878],[75.90996,19.38921],[75.90416,19.38763],[75.89949,19.38506],[75.8947,19.38065],[75.88727,19.37839],[75.88183,19.38061],[75.8738,19.38066],[75.86761,19.37521],[75.85226,19.37185],[75.83968,19.3706],[75.836,19.37172],[75.81746,19.38348],[75.81132,19.38822],[75.79652,19.39662],[75.78365,19.39678],[75.77198,19.39522],[75.76587,19.39352],[75.75813,19.38929],[75.76174,19.38119],[75.76202,19.37165],[75.75875,19.36857],[75.75444,19.35865],[75.7513,19.35728],[75.73952,19.35819],[75.71256,19.3573],[75.70477,19.35829],[75.7012,19.3602],[75.68802,19.3553],[75.6815,19.35624],[75.6786,19.35819],[75.67649,19.36428],[75.67402,19.36669],[75.65571,19.36575],[75.65033,19.3687],[75.64158,19.38099],[75.62882,19.37447],[75.62217,19.37385],[75.61529,19.37845],[75.61166,19.38212],[75.60987,19.38144],[75.61587,19.39989],[75.61757,19.40873],[75.61843,19.42489],[75.61239,19.42805],[75.60961,19.43035],[75.61133,19.45334],[75.6149,19.45655],[75.61939,19.46784],[75.62392,19.46388],[75.62966,19.46067],[75.63208,19.4605],[75.6348,19.4644],[75.63609,19.47019],[75.64281,19.48618],[75.64531,19.49873],[75.64412,19.51169],[75.64395,19.52821],[75.65087,19.54512],[75.65572,19.55446],[75.65713,19.56667],[75.65514,19.57665],[75.65454,19.58548],[75.65328,19.58818],[75.65335,19.59208],[75.6519,19.59483],[75.61601,19.59806],[75.6139,19.60213],[75.60083,19.60225],[75.59866,19.60684],[75.59993,19.6101],[75.59539,19.6194],[75.59237,19.62897],[75.59094,19.63763],[75.60038,19.64061],[75.60716,19.64135],[75.61038,19.6562],[75.63351,19.65539],[75.63578,19.67872],[75.63005,19.70132],[75.63302,19.70435],[75.63626,19.73444],[75.62979,19.73766],[75.63021,19.74534],[75.62792,19.74586],[75.62805,19.7517],[75.62806,19.75256],[75.62786,19.77591],[75.63852,19.77615],[75.63657,19.78254],[75.64539,19.78489],[75.6452,19.79239],[75.64142,19.80087],[75.63664,19.81362],[75.6526,19.81507],[75.65235,19.8247],[75.64762,19.83531],[75.64723,19.8503],[75.65026,19.87073],[75.6475,19.87388],[75.65009,19.87715],[75.65367,19.91046],[75.66241,19.91602],[75.66763,19.92043],[75.66657,19.92683],[75.66801,19.93973],[75.65082,19.95111],[75.64094,19.95516],[75.63738,19.95508],[75.64079,19.96052],[75.6379,19.96902],[75.63398,19.98286],[75.63633,19.9947],[75.63001,20.0006],[75.63801,20.00291],[75.63854,20.00378],[75.61319,20.0045],[75.60497,20.00586],[75.60138,20.00858],[75.6011,20.01407],[75.59872,20.01827],[75.59548,20.02078],[75.59369,20.02332],[75.59347,20.02814],[75.60295,20.04691],[75.60738,20.05179],[75.60633,20.0543],[75.60331,20.05609],[75.60028,20.06248],[75.59654,20.06083],[75.59428,20.06127],[75.59177,20.06828],[75.58955,20.07851],[75.5892,20.08413],[75.58937,20.10196],[75.60699,20.10361],[75.62083,20.10372],[75.62716,20.10537],[75.62951,20.10939],[75.63578,20.12803],[75.63532,20.13199],[75.63616,20.13762],[75.63871,20.14236],[75.63958,20.14611],[75.64342,20.15965],[75.64324,20.16448],[75.64473,20.17628],[75.64764,20.18499],[75.64871,20.19133],[75.67445,20.18822],[75.67693,20.18899],[75.67921,20.19102],[75.68394,20.20148],[75.68415,20.2043],[75.68018,20.21501],[75.68006,20.21972],[75.68158,20.22922],[75.68079,20.23294],[75.67725,20.23492],[75.67576,20.23731],[75.67608,20.24013],[75.6794,20.2469],[75.68266,20.25808],[75.68956,20.26517],[75.69276,20.27043],[75.69623,20.28024],[75.69664,20.28616],[75.69197,20.29513],[75.68815,20.29952],[75.68435,20.30683],[75.68572,20.30937],[75.70522,20.31372],[75.70818,20.31576],[75.71194,20.31706],[75.71886,20.33185],[75.72628,20.33106],[75.73442,20.33155],[75.73527,20.33622],[75.74072,20.33794],[75.74492,20.33695],[75.74611,20.32921],[75.7505,20.32782],[75.75585,20.32776],[75.76344,20.33244],[75.76704,20.33644],[75.76909,20.33761],[75.77336,20.33679],[75.76945,20.35352],[75.76617,20.3582],[75.76086,20.36032],[75.75971,20.36996],[75.75454,20.37094],[75.75171,20.37338],[75.75056,20.37774],[75.75106,20.38153],[75.75434,20.39145],[75.75466,20.39569],[75.75449,20.3992],[75.75249,20.40377],[75.74974,20.40592],[75.74029,20.40818],[75.73729,20.41429],[75.73924,20.41943],[75.7429,20.42337],[75.74804,20.42486],[75.75067,20.42454],[75.75969,20.42716],[75.76275,20.43575],[75.76277,20.43937],[75.76549,20.45071],[75.76897,20.45408],[75.7737,20.45608],[75.77814,20.45543],[75.78264,20.45577],[75.79621,20.45396],[75.79896,20.453],[75.79826,20.46109],[75.79957,20.46329],[75.81175,20.46623],[75.81547,20.46569],[75.81784,20.47099],[75.81975,20.47347],[75.82559,20.47428],[75.83095,20.47272],[75.83864,20.46488],[75.84044,20.46157],[75.84381,20.46005],[75.85316,20.45985],[75.85751,20.46288],[75.85941,20.46192],[75.86898,20.44819],[75.86925,20.44617],[75.86503,20.44298],[75.86523,20.4412],[75.87011,20.44022],[75.87418,20.44031],[75.87833,20.43892],[75.8819,20.43981],[75.88411,20.44379],[75.88421,20.44557],[75.89434,20.44705],[75.87767,20.45384],[75.8762,20.45555],[75.87492,20.46126],[75.8727,20.46383],[75.86984,20.46385],[75.86788,20.46539],[75.8667,20.4675],[75.86435,20.47671],[75.86185,20.48173],[75.85954,20.48194],[75.85621,20.48105],[75.85167,20.49023],[75.85318,20.49655],[75.85353,20.50754],[75.85669,20.50767],[75.85692,20.50968],[75.86038,20.5102],[75.86158,20.51124],[75.8626,20.51785],[75.86467,20.52324],[75.86308,20.52386],[75.86359,20.52765],[75.86791,20.52731],[75.87359,20.52983],[75.87615,20.52993],[75.87928,20.52747],[75.88714,20.526],[75.88642,20.53111],[75.87932,20.53937],[75.87188,20.55153],[75.86709,20.55618],[75.86497,20.56175],[75.87022,20.55985],[75.87577,20.55912],[75.88833,20.56141],[75.88953,20.56336],[75.91456,20.55824],[75.92122,20.55585],[75.92277,20.55234],[75.92967,20.54986],[75.93167,20.55088],[75.93369,20.55482],[75.93461,20.57809],[75.93554,20.58159],[75.93528,20.5937],[75.9338,20.5957],[75.93352,20.5997],[75.94834,20.60191],[75.95143,20.60344],[75.95492,20.60646],[75.95664,20.61593],[75.95715,20.62497],[75.96154,20.62385],[75.97293,20.62416],[75.98791,20.62284],[75.99108,20.62315],[75.99319,20.62677],[75.99844,20.62942],[76.00003,20.63261],[76.00167,20.63407],[76.0086,20.63589],[76.01062,20.63927],[76.01107,20.64302],[76.0137,20.64293],[76.01799,20.64557],[76.02257,20.64512],[76.02625,20.64378]]]}}]}