{"type":"FeatureCollection","features":[{"type":"Feature","properties":{"id":"kolhapur","name":"Kolhapur","stateId":"maharashtra","stateName":"Maharashtra","censuscode":530,"type":"district"},"geometry":{"type":"Polygon","coordinates":[[[74.69325,16.71676],[74.69097,16.71211],[74.69008,16.69402],[74.69065,16.68741],[74.68397,16.68571],[74.68254,16.68324],[74.68229,16.6806],[74.68961,16.68024],[74.69115,16.67656],[74.66669,16.66513],[74.66375,16.65715],[74.65542,16.63919],[74.65796,16.63379],[74.66093,16.63034],[74.66884,16.63009],[74.68031,16.62151],[74.68626,16.61978],[74.68935,16.61684],[74.68969,16.61247],[74.68843,16.60892],[74.68544,16.60611],[74.67355,16.6082],[74.67026,16.60763],[74.66377,16.60432],[74.65881,16.60272],[74.64663,16.60861],[74.64258,16.60971],[74.63764,16.6084],[74.63596,16.60633],[74.63457,16.60117],[74.63421,16.596],[74.63535,16.58359],[74.63117,16.5774],[74.62546,16.57931],[74.62172,16.58259],[74.61869,16.58357],[74.61915,16.57921],[74.61741,16.5753],[74.61174,16.56962],[74.59952,16.5638],[74.59054,16.56605],[74.58798,16.56548],[74.58642,16.56238],[74.58624,16.56049],[74.58719,16.55893],[74.58659,16.55721],[74.5761,16.55666],[74.57609,16.5535],[74.5686,16.55363],[74.56361,16.55805],[74.56004,16.55944],[74.55671,16.55968],[74.55416,16.5614],[74.55357,16.56876],[74.55418,16.573],[74.5596,16.57627],[74.56433,16.58286],[74.56006,16.592],[74.54905,16.59403],[74.54429,16.5938],[74.54468,16.61063],[74.5438,16.61712],[74.54587,16.6348],[74.52443,16.6322],[74.50454,16.63303],[74.49589,16.62873],[74.4922,16.62822],[74.4897,16.62925],[74.48596,16.63391],[74.484,16.63765],[74.48002,16.64069],[74.47547,16.65563],[74.47149,16.66234],[74.4642,16.65675],[74.45885,16.65451],[74.45925,16.64847],[74.45687,16.64605],[74.45852,16.63556],[74.46389,16.62506],[74.46545,16.62336],[74.46488,16.61654],[74.46654,16.6064],[74.44095,16.60194],[74.43478,16.60028],[74.42748,16.59596],[74.42273,16.58434],[74.41615,16.5851],[74.40756,16.58184],[74.39728,16.58027],[74.39593,16.57634],[74.39499,16.57255],[74.39217,16.56704],[74.39455,16.56509],[74.39491,16.5625],[74.38925,16.56113],[74.3894,16.5373],[74.38665,16.53271],[74.38366,16.52955],[74.37915,16.52904],[74.36475,16.53927],[74.35975,16.53927],[74.35619,16.54036],[74.35827,16.5453],[74.35649,16.55018],[74.36287,16.55489],[74.35925,16.55868],[74.35669,16.55782],[74.35335,16.5553],[74.34864,16.55472],[74.33965,16.54807],[74.3337,16.55174],[74.32561,16.55531],[74.32287,16.55508],[74.31721,16.55307],[74.31566,16.54612],[74.31559,16.54066],[74.31666,16.53384],[74.31611,16.52063],[74.31734,16.50794],[74.31489,16.50431],[74.30752,16.50374],[74.30686,16.5049],[74.30497,16.50857],[74.30182,16.5235],[74.3023,16.52563],[74.30028,16.5308],[74.29094,16.53355],[74.28779,16.53316],[74.28814,16.53091],[74.2829,16.52419],[74.28284,16.52689],[74.2804,16.52896],[74.27999,16.53103],[74.28148,16.54108],[74.27756,16.5447],[74.26959,16.54614],[74.26476,16.54028],[74.26517,16.53504],[74.26873,16.52678],[74.26986,16.52224],[74.27516,16.52218],[74.27765,16.51811],[74.27996,16.5084],[74.27902,16.50501],[74.27187,16.50266],[74.25628,16.50059],[74.24884,16.49841],[74.24628,16.49652],[74.25324,16.49255],[74.25532,16.49032],[74.25769,16.4871],[74.25835,16.48405],[74.26198,16.47768],[74.27168,16.4813],[74.27579,16.48423],[74.27424,16.48744],[74.27376,16.491],[74.27657,16.49767],[74.28223,16.50542],[74.29323,16.50427],[74.29389,16.50128],[74.2909,16.48325],[74.28815,16.47601],[74.28975,16.46838],[74.28963,16.46068],[74.29474,16.46074],[74.29575,16.46275],[74.29802,16.46246],[74.30046,16.46126],[74.30824,16.45488],[74.31538,16.45172],[74.324,16.45447],[74.32906,16.45476],[74.33239,16.45384],[74.33352,16.44982],[74.33227,16.44833],[74.33256,16.44655],[74.33601,16.44402],[74.33577,16.44126],[74.33416,16.43787],[74.33404,16.43466],[74.3373,16.42725],[74.33081,16.42191],[74.3317,16.41508],[74.33549,16.40693],[74.3362,16.40222],[74.34286,16.40112],[74.34275,16.40566],[74.35315,16.40571],[74.35821,16.40496],[74.36148,16.40019],[74.36278,16.39606],[74.36236,16.3929],[74.35324,16.38056],[74.3553,16.3665],[74.34549,16.36805],[74.34468,16.3785],[74.34218,16.38211],[74.3413,16.38774],[74.33934,16.39124],[74.3366,16.3924],[74.33387,16.39268],[74.32946,16.39136],[74.32851,16.39044],[74.32827,16.38459],[74.32606,16.3773],[74.31893,16.38097],[74.32125,16.37207],[74.32112,16.36984],[74.32574,16.35869],[74.32502,16.35732],[74.31717,16.35537],[74.32507,16.34824],[74.32792,16.34227],[74.32174,16.34285],[74.31693,16.34165],[74.31829,16.33844],[74.32263,16.33435],[74.32078,16.33096],[74.31751,16.32919],[74.31649,16.32689],[74.32345,16.32413],[74.3269,16.32551],[74.33082,16.32516],[74.33356,16.3187],[74.32923,16.31678],[74.32504,16.31818],[74.32453,16.31681],[74.32562,16.31254],[74.33415,16.3134],[74.3359,16.30688],[74.33368,16.30578],[74.33472,16.30461],[74.33842,16.30506],[74.34231,16.29327],[74.33625,16.29057],[74.32992,16.29196],[74.32531,16.28798],[74.32568,16.2859],[74.32282,16.28286],[74.32221,16.28123],[74.32417,16.27475],[74.32739,16.26988],[74.3306,16.26754],[74.33399,16.26938],[74.33749,16.27393],[74.34307,16.27508],[74.34295,16.27687],[74.34437,16.27807],[74.34574,16.27629],[74.34877,16.2763],[74.35352,16.28142],[74.354,16.28371],[74.34531,16.29001],[74.34691,16.29363],[74.34822,16.29156],[74.34976,16.29272],[74.3522,16.2906],[74.35625,16.28895],[74.36331,16.29252],[74.36748,16.29212],[74.37383,16.2953],[74.38121,16.29216],[74.38418,16.29204],[74.38508,16.27742],[74.39459,16.27807],[74.41194,16.28275],[74.41515,16.28241],[74.41552,16.27329],[74.41476,16.26571],[74.41648,16.25928],[74.43033,16.25661],[74.43497,16.2545],[74.43586,16.25599],[74.43682,16.2514],[74.45536,16.25029],[74.4556,16.24564],[74.45756,16.24369],[74.46736,16.24038],[74.47028,16.2409],[74.47503,16.24619],[74.47835,16.2486],[74.48912,16.2399],[74.48935,16.23783],[74.49744,16.23291],[74.50267,16.22482],[74.50207,16.22316],[74.49727,16.2181],[74.49644,16.21603],[74.49751,16.21345],[74.50767,16.20314],[74.50761,16.20113],[74.50517,16.20072],[74.5069,16.19775],[74.50726,16.19131],[74.50726,16.19017],[74.50346,16.18976],[74.4961,16.18734],[74.49212,16.18325],[74.48963,16.17092],[74.48898,16.15697],[74.48425,16.14915],[74.48008,16.14892],[74.48139,16.14502],[74.48525,16.14394],[74.49145,16.11433],[74.49074,16.10354],[74.48783,16.10056],[74.48695,16.09752],[74.48712,16.09482],[74.48475,16.09234],[74.48339,16.0893],[74.47614,16.08895],[74.47317,16.08986],[74.47222,16.09387],[74.45874,16.10407],[74.45417,16.10486],[74.44906,16.10463],[74.43861,16.10713],[74.43201,16.11011],[74.42863,16.11256],[74.41676,16.10451],[74.41243,16.10283],[74.41006,16.09795],[74.40918,16.09377],[74.40152,16.09265],[74.39796,16.09293],[74.39119,16.08908],[74.39221,16.08208],[74.39114,16.08035],[74.38431,16.08189],[74.38063,16.08005],[74.37481,16.08021],[74.37339,16.07876],[74.37441,16.07498],[74.37388,16.07154],[74.36891,16.06533],[74.36476,16.06153],[74.36191,16.05492],[74.36453,16.05299],[74.37396,16.05673],[74.37556,16.05554],[74.3727,16.04538],[74.37204,16.04125],[74.37239,16.0386],[74.3839,16.03711],[74.38996,16.04158],[74.40327,16.04731],[74.40357,16.04909],[74.40517,16.05098],[74.40951,16.05304],[74.41693,16.05517],[74.42619,16.05711],[74.43041,16.05871],[74.43456,16.05899],[74.44216,16.05439],[74.45005,16.05416],[74.45805,16.04973],[74.4622,16.04869],[74.4645,16.04255],[74.46188,16.03566],[74.46134,16.03227],[74.45813,16.02458],[74.45062,16.01093],[74.44753,16.00783],[74.44382,16.00055],[74.44433,15.99463],[74.44257,15.99032],[74.44263,15.98843],[74.44412,15.98527],[74.43809,15.97637],[74.4364,15.96753],[74.42933,15.95323],[74.40628,15.92726],[74.396,15.91312],[74.38578,15.90324],[74.38626,15.90134],[74.39232,15.8998],[74.39327,15.89785],[74.39561,15.88937],[74.39653,15.88035],[74.39316,15.87645],[74.40626,15.85976],[74.40562,15.85471],[74.40052,15.85401],[74.3971,15.85108],[74.38737,15.85388],[74.38622,15.85956],[74.38243,15.85932],[74.38187,15.86604],[74.37947,15.87533],[74.37702,15.87986],[74.37041,15.88703],[74.36661,15.88977],[74.36833,15.89202],[74.36796,15.89368],[74.36435,15.89247],[74.36444,15.88208],[74.36381,15.87777],[74.36126,15.87531],[74.36085,15.87317],[74.35789,15.87225],[74.34672,15.86133],[74.34715,15.85783],[74.33827,15.85414],[74.34012,15.85145],[74.34753,15.8502],[74.38133,15.84922],[74.38324,15.84624],[74.38338,15.83843],[74.38019,15.83538],[74.36841,15.82962],[74.36723,15.82796],[74.36459,15.81934],[74.36021,15.81762],[74.363,15.81429],[74.36788,15.81257],[74.36842,15.80666],[74.36969,15.80333],[74.3694,15.79886],[74.3647,15.78433],[74.36174,15.78375],[74.35868,15.77582],[74.34473,15.76552],[74.34052,15.76527],[74.33601,15.76768],[74.32824,15.76984],[74.32343,15.77253],[74.32124,15.77034],[74.3186,15.76345],[74.31773,15.75869],[74.31229,15.75558],[74.30826,15.7543],[74.30661,15.75045],[74.28567,15.74147],[74.27842,15.74547],[74.26742,15.75526],[74.26428,15.75406],[74.25944,15.74916],[74.25228,15.74553],[74.2434,15.74334],[74.23716,15.74653],[74.23222,15.75427],[74.22847,15.7561],[74.22839,15.76174],[74.23359,15.78287],[74.23215,15.78666],[74.2287,15.78894],[74.22053,15.78778],[74.21562,15.78381],[74.21054,15.78087],[74.2005,15.78534],[74.19376,15.78039],[74.1843,15.77502],[74.17357,15.77426],[74.16686,15.77872],[74.1555,15.78782],[74.15572,15.80728],[74.15939,15.82136],[74.14203,15.82161],[74.14448,15.83154],[74.12577,15.82467],[74.11137,15.82154],[74.10799,15.82325],[74.10487,15.83053],[74.10348,15.83937],[74.09476,15.83952],[74.08694,15.83783],[74.07664,15.83339],[74.0703,15.83314],[74.07061,15.83021],[74.06624,15.82464],[74.06774,15.8216],[74.06615,15.81781],[74.06659,15.81344],[74.04883,15.80669],[74.05188,15.79981],[74.05549,15.78816],[74.05674,15.77422],[74.0797,15.76847],[74.0771,15.76652],[74.06959,15.76328],[74.06628,15.7604],[74.05639,15.75854],[74.05214,15.75451],[74.04081,15.75534],[74.02921,15.76433],[74.04258,15.7709],[74.04085,15.77555],[74.0359,15.78111],[74.03777,15.78673],[74.04107,15.79197],[74.04099,15.79604],[74.03967,15.80092],[74.03521,15.80349],[74.03117,15.82007],[74.03396,15.83087],[74.03235,15.83391],[74.04353,15.8387],[74.06464,15.85391],[74.07315,15.85893],[74.08378,15.86784],[74.08735,15.86717],[74.0899,15.8685],[74.09285,15.87166],[74.08851,15.8732],[74.09277,15.88905],[74.09156,15.89628],[74.09392,15.89749],[74.09004,15.90276],[74.08895,15.90919],[74.08698,15.91262],[74.08236,15.92691],[74.08114,15.93339],[74.0771,15.93527],[74.0736,15.94817],[74.07153,15.94857],[74.06854,15.94156],[74.06622,15.94058],[74.05981,15.94349],[74.05725,15.94618],[74.04947,15.94984],[74.04873,15.95288],[74.04599,15.95671],[74.04699,15.9589],[74.04988,15.9608],[74.05409,15.96213],[74.05633,15.96621],[74.05744,15.97034],[74.05695,15.97269],[74.05854,15.9774],[74.06686,15.98729],[74.0727,15.99185],[74.08068,16.00013],[74.08409,16.00359],[74.09092,16.00644],[74.08937,16.01238],[74.08744,16.01567],[74.08412,16.01772],[74.08031,16.01869],[74.07684,16.02035],[74.0755,16.02391],[74.07392,16.02741],[74.07188,16.03068],[74.06912,16.03339],[74.06667,16.03636],[74.06493,16.0398],[74.06335,16.0433],[74.06173,16.04678],[74.05982,16.05013],[74.0567,16.05104],[74.05416,16.0481],[74.05207,16.04486],[74.05094,16.04121],[74.05047,16.03742],[74.04866,16.03415],[74.04481,16.03377],[74.03706,16.03506],[74.02604,16.03377],[74.01144,16.03705],[74.00188,16.03768],[74.00182,16.05231],[74.00001,16.05645],[73.99759,16.05738],[73.99432,16.05751],[73.99654,16.0598],[74.00002,16.06119],[74.00215,16.06246],[74.00343,16.06362],[74.00466,16.06483],[74.00592,16.06615],[74.00674,16.06759],[74.00573,16.06906],[74.00549,16.0707],[74.00575,16.07241],[74.00613,16.07414],[74.00647,16.07587],[74.00001,16.07842],[73.99287,16.07764],[73.99432,16.08084],[73.99882,16.08695],[73.9976,16.08837],[73.98858,16.09054],[73.97366,16.09131],[73.96716,16.09513],[73.96525,16.09487],[73.95807,16.09612],[73.94805,16.09843],[73.94043,16.09727],[73.93655,16.09513],[73.93353,16.09598],[73.91856,16.09738],[73.90699,16.09988],[73.90318,16.09847],[73.90122,16.08901],[73.89854,16.08903],[73.8966,16.09144],[73.88658,16.09546],[73.88491,16.09386],[73.87637,16.09722],[73.87142,16.09455],[73.86509,16.09739],[73.86994,16.10322],[73.87353,16.10636],[73.86035,16.10717],[73.85824,16.10259],[73.85485,16.10358],[73.85274,16.09801],[73.85101,16.09779],[73.84826,16.09494],[73.84541,16.09529],[73.8453,16.08944],[73.84812,16.08306],[73.8512,16.08224],[73.85442,16.084],[73.85691,16.08284],[73.85811,16.07504],[73.84512,16.07876],[73.84328,16.08892],[73.84092,16.09141],[73.83684,16.09274],[73.83578,16.09389],[73.83555,16.09567],[73.83994,16.10392],[73.84543,16.10768],[73.84835,16.11622],[73.84996,16.11822],[73.85076,16.12097],[73.84805,16.12511],[73.84925,16.12671],[73.84914,16.12849],[73.84755,16.13108],[73.8541,16.13289],[73.85496,16.1357],[73.85209,16.14311],[73.84585,16.15231],[73.85585,16.1447],[73.86727,16.13833],[73.86625,16.14368],[73.86733,16.14648],[73.87018,16.14618],[73.87289,16.14244],[73.87682,16.14373],[73.88658,16.14511],[73.88946,16.14114],[73.89166,16.13992],[73.8996,16.13826],[73.90553,16.13547],[73.90992,16.13527],[73.91208,16.13736],[73.91398,16.13758],[73.91619,16.13922],[73.91669,16.14184],[73.91478,16.14875],[73.91751,16.1485],[73.91901,16.15042],[73.91992,16.15337],[73.91425,16.15748],[73.90908,16.15857],[73.91961,16.16708],[73.91608,16.17239],[73.92203,16.17411],[73.92458,16.17281],[73.92634,16.17003],[73.9315,16.16846],[73.93408,16.17092],[73.94009,16.1727],[73.94681,16.17222],[73.94891,16.17426],[73.94893,16.17735],[73.9493,16.17856],[73.94848,16.18052],[73.94327,16.18345],[73.94228,16.18675],[73.94565,16.19214],[73.9488,16.19242],[73.95357,16.1946],[73.95961,16.19913],[73.95986,16.20028],[73.95737,16.20164],[73.95907,16.20573],[73.95764,16.20618],[73.95324,16.20545],[73.94609,16.20306],[73.94349,16.20443],[73.94218,16.20627],[73.93957,16.20617],[73.93289,16.20325],[73.93033,16.20283],[73.92751,16.20007],[73.92875,16.20595],[73.92799,16.20729],[73.92917,16.20721],[73.92991,16.2091],[73.93115,16.20977],[73.93034,16.21197],[73.92796,16.21265],[73.92791,16.21415],[73.92906,16.21633],[73.92698,16.21718],[73.92593,16.21887],[73.92707,16.21979],[73.932,16.21983],[73.93488,16.2237],[73.93907,16.22764],[73.93849,16.22962],[73.94257,16.23455],[73.94771,16.23819],[73.9469,16.24109],[73.94418,16.24301],[73.94351,16.24093],[73.94159,16.2389],[73.94,16.24164],[73.93218,16.23745],[73.92969,16.23765],[73.92783,16.23679],[73.92711,16.23459],[73.9252,16.23293],[73.92157,16.23292],[73.91762,16.23024],[73.91727,16.23158],[73.91533,16.23358],[73.91069,16.23391],[73.89968,16.23288],[73.89402,16.23069],[73.89301,16.23093],[73.89898,16.2345],[73.91533,16.24189],[73.92012,16.24589],[73.91638,16.24828],[73.90831,16.24978],[73.91043,16.25478],[73.90747,16.25692],[73.89807,16.2567],[73.89653,16.25723],[73.89626,16.26107],[73.89381,16.2682],[73.88766,16.27478],[73.88164,16.2794],[73.89063,16.29002],[73.8916,16.29294],[73.89102,16.29564],[73.89135,16.29948],[73.89673,16.30261],[73.90263,16.30412],[73.90534,16.31729],[73.9047,16.32831],[73.90151,16.33044],[73.89907,16.33017],[73.88843,16.32341],[73.88749,16.32502],[73.88727,16.32852],[73.8848,16.324],[73.87678,16.31711],[73.8707,16.31525],[73.86644,16.30925],[73.86328,16.30938],[73.86016,16.31284],[73.85701,16.31503],[73.85306,16.31059],[73.84979,16.30229],[73.84722,16.30012],[73.84867,16.30487],[73.84938,16.31341],[73.84785,16.31485],[73.84126,16.31678],[73.84885,16.32219],[73.84887,16.32534],[73.84598,16.32898],[73.84607,16.33333],[73.83864,16.34364],[73.83579,16.34423],[73.83574,16.34595],[73.83969,16.3488],[73.84072,16.3524],[73.84251,16.35291],[73.8433,16.35531],[73.84652,16.35587],[73.85157,16.3551],[73.85754,16.35856],[73.85674,16.36275],[73.85968,16.36612],[73.8642,16.36667],[73.86634,16.37371],[73.86281,16.38068],[73.85969,16.3847],[73.85258,16.38824],[73.83902,16.39222],[73.83785,16.403],[73.84743,16.41149],[73.85271,16.41708],[73.85404,16.41971],[73.86216,16.42435],[73.86672,16.4285],[73.86774,16.43009],[73.86806,16.43301],[73.87137,16.43887],[73.87526,16.44062],[73.87942,16.44036],[73.88038,16.44189],[73.88041,16.44435],[73.8826,16.4441],[73.88392,16.44523],[73.8855,16.44989],[73.88776,16.44863],[73.88854,16.45751],[73.88614,16.47178],[73.88454,16.47357],[73.88491,16.47477],[73.88234,16.47393],[73.87891,16.4766],[73.87502,16.47583],[73.86935,16.47332],[73.8643,16.47522],[73.86166,16.47979],[73.86049,16.48349],[73.85645,16.48463],[73.85361,16.48719],[73.85208,16.49002],[73.85152,16.49457],[73.84685,16.5007],[73.84362,16.50669],[73.84385,16.51495],[73.84779,16.51682],[73.84867,16.52318],[73.84834,16.52634],[73.84361,16.53131],[73.83914,16.53099],[73.832,16.53305],[73.82746,16.53984],[73.82365,16.54118],[73.81813,16.54495],[73.81874,16.54655],[73.82022,16.54528],[73.82617,16.54352],[73.83268,16.54646],[73.83336,16.5488],[73.83254,16.55168],[73.83381,16.55459],[73.84072,16.56217],[73.84745,16.57101],[73.84794,16.57377],[73.84533,16.57579],[73.84644,16.58163],[73.84391,16.58549],[73.84963,16.59325],[73.85939,16.60022],[73.86337,16.60839],[73.86389,16.61326],[73.85827,16.62018],[73.8551,16.62731],[73.85447,16.63151],[73.85266,16.63577],[73.85401,16.65019],[73.85497,16.65162],[73.85712,16.65184],[73.85833,16.65431],[73.85609,16.65943],[73.85891,16.66073],[73.86316,16.66433],[73.86203,16.66479],[73.86504,16.66776],[73.86601,16.66994],[73.86482,16.67161],[73.85965,16.67296],[73.8547,16.67236],[73.85345,16.67328],[73.86075,16.67755],[73.8606,16.68059],[73.85563,16.68659],[73.84761,16.69134],[73.84339,16.69292],[73.83738,16.69369],[73.82743,16.69748],[73.82631,16.69863],[73.82543,16.70151],[73.82305,16.70123],[73.82171,16.70561],[73.82011,16.70647],[73.81612,16.70764],[73.81331,16.70657],[73.81345,16.71001],[73.81699,16.7139],[73.82094,16.71589],[73.82452,16.7165],[73.82803,16.71442],[73.83253,16.72795],[73.83901,16.73291],[73.84118,16.73628],[73.84108,16.73881],[73.83702,16.73998],[73.83311,16.74259],[73.83348,16.74511],[73.83481,16.74728],[73.83231,16.74822],[73.83077,16.74972],[73.82807,16.75548],[73.82343,16.75895],[73.81912,16.765],[73.8137,16.76612],[73.80767,16.76586],[73.80414,16.76415],[73.80132,16.76072],[73.79452,16.76145],[73.79173,16.76279],[73.78753,16.76769],[73.78589,16.7739],[73.78058,16.78237],[73.77824,16.781],[73.76989,16.77168],[73.76212,16.77011],[73.76103,16.77712],[73.75955,16.77908],[73.75682,16.78013],[73.75671,16.78116],[73.75712,16.78512],[73.75927,16.78564],[73.7615,16.79866],[73.76063,16.8028],[73.75641,16.80569],[73.75307,16.80536],[73.75242,16.80634],[73.75288,16.81294],[73.74777,16.81687],[73.74325,16.81792],[73.73788,16.82065],[73.73421,16.81625],[73.72937,16.81621],[73.73048,16.82052],[73.71815,16.8254],[73.71529,16.82552],[73.71351,16.82651],[73.71221,16.8299],[73.71869,16.83533],[73.7248,16.83703],[73.72811,16.83264],[73.73027,16.83424],[73.73259,16.83251],[73.73459,16.8383],[73.73779,16.84368],[73.7523,16.83437],[73.76065,16.84231],[73.76644,16.84894],[73.7661,16.85187],[73.76927,16.8541],[73.76845,16.85617],[73.764,16.85998],[73.76791,16.86232],[73.76865,16.86679],[73.76784,16.87042],[73.7622,16.87342],[73.74879,16.88256],[73.75087,16.89456],[73.75013,16.89899],[73.7489,16.90157],[73.74753,16.90175],[73.74088,16.89765],[73.73902,16.89737],[73.74037,16.90851],[73.73955,16.91265],[73.74451,16.91665],[73.74848,16.90486],[73.7526,16.90512],[73.75434,16.90672],[73.75589,16.90689],[73.7578,16.90647],[73.76117,16.90387],[73.76412,16.90805],[73.76782,16.90844],[73.77156,16.90779],[73.77646,16.90914],[73.78093,16.90918],[73.78825,16.90673],[73.79035,16.90787],[73.79312,16.9121],[73.79375,16.91566],[73.79205,16.92136],[73.79519,16.92645],[73.79557,16.93018],[73.78985,16.94135],[73.7836,16.94512],[73.78223,16.94467],[73.77824,16.9479],[73.77618,16.95273],[73.76857,16.95886],[73.76585,16.9626],[73.76725,16.96714],[73.77345,16.974],[73.77829,16.97472],[73.78662,16.98547],[73.78546,16.99123],[73.78775,16.99277],[73.79654,16.99267],[73.80101,16.9904],[73.80801,16.98956],[73.81726,16.98722],[73.82331,16.98936],[73.82912,16.99008],[73.8318,16.98915],[73.83391,16.99063],[73.83535,17.0004],[73.83198,17.00911],[73.82766,17.01277],[73.83378,17.02197],[73.83432,17.02577],[73.82865,17.03325],[73.82309,17.03793],[73.8346,17.05387],[73.82363,17.06152],[73.81728,17.0635],[73.80392,17.06164],[73.80532,17.07211],[73.80777,17.08149],[73.80765,17.08562],[73.79629,17.09441],[73.79329,17.09471],[73.78871,17.0931],[73.78132,17.10763],[73.76884,17.10876],[73.76313,17.11751],[73.75947,17.12131],[73.75128,17.12853],[73.74689,17.13128],[73.74362,17.12446],[73.73945,17.1216],[73.72942,17.1269],[73.72366,17.12843],[73.71846,17.13237],[73.71057,17.1404],[73.70306,17.14012],[73.69744,17.13854],[73.69421,17.13872],[73.69162,17.14338],[73.69005,17.15041],[73.68946,17.15832],[73.70229,17.16294],[73.70928,17.16729],[73.70932,17.16965],[73.71327,17.17155],[73.7171,17.17171],[73.72329,17.16905],[73.73214,17.16734],[73.73648,17.16849],[73.7434,17.17525],[73.74739,17.17376],[73.7484,17.16924],[73.74629,17.16031],[73.74995,17.15216],[73.75228,17.15368],[73.75685,17.15421],[73.75981,17.15259],[73.76581,17.15256],[73.76815,17.1534],[73.77698,17.15181],[73.77857,17.15372],[73.77781,17.15658],[73.77236,17.16471],[73.76993,17.17127],[73.77213,17.17681],[73.77545,17.17933],[73.78059,17.18003],[73.79331,17.17803],[73.80351,17.17187],[73.81512,17.17175],[73.81893,17.16894],[73.82762,17.16734],[73.84582,17.15377],[73.84931,17.15267],[73.85764,17.14268],[73.86052,17.1379],[73.86405,17.13767],[73.86599,17.13609],[73.86851,17.13147],[73.87484,17.13162],[73.87839,17.13023],[73.87962,17.12767],[73.87672,17.12539],[73.87485,17.12198],[73.8781,17.11669],[73.88656,17.10991],[73.8966,17.10564],[73.90185,17.10227],[73.90485,17.09738],[73.90797,17.0833],[73.91072,17.07881],[73.91532,17.07422],[73.91691,17.06799],[73.92199,17.07174],[73.93111,17.07335],[73.93357,17.07229],[73.94032,17.06866],[73.94447,17.06252],[73.94974,17.0607],[73.95033,17.05738],[73.95414,17.05405],[73.95981,17.05435],[73.96382,17.04816],[73.97475,17.03861],[73.97675,17.0356],[73.981,17.03411],[73.98337,17.02829],[73.98205,17.01332],[73.97888,17.00774],[73.97228,17.004],[73.97298,17.00016],[73.97106,16.99615],[73.97126,16.99308],[73.97594,16.98802],[73.98107,16.98576],[73.98563,16.9853],[73.99005,16.98691],[73.99557,16.99462],[74.00003,16.99011],[74.00695,16.98776],[74.02268,16.98441],[74.02367,16.97813],[74.0232,16.97368],[74.02058,16.96895],[74.02515,16.9659],[74.02676,16.96335],[74.02547,16.96162],[74.02093,16.96109],[74.0207,16.95871],[74.02277,16.95581],[74.02629,16.95305],[74.02716,16.94955],[74.02354,16.94208],[74.02643,16.94046],[74.03102,16.94044],[74.03598,16.93847],[74.0367,16.93287],[74.03937,16.92393],[74.04178,16.92221],[74.0474,16.9221],[74.05277,16.91351],[74.06115,16.91128],[74.06505,16.90875],[74.06643,16.90334],[74.0715,16.90248],[74.07772,16.90452],[74.08478,16.90936],[74.09028,16.91474],[74.0936,16.91338],[74.09625,16.91134],[74.09803,16.90856],[74.10832,16.90838],[74.11329,16.91004],[74.12133,16.91142],[74.12376,16.90291],[74.13429,16.88952],[74.14064,16.88592],[74.14806,16.88389],[74.15227,16.88625],[74.15502,16.88721],[74.15832,16.89047],[74.16207,16.89609],[74.17023,16.89818],[74.17675,16.89884],[74.18208,16.89679],[74.18779,16.89323],[74.19224,16.89188],[74.20168,16.89262],[74.20864,16.8918],[74.21223,16.89225],[74.21348,16.89767],[74.21305,16.90544],[74.21717,16.91076],[74.22337,16.91063],[74.22959,16.90305],[74.23201,16.89422],[74.23236,16.88788],[74.23755,16.88555],[74.24399,16.88518],[74.24986,16.88605],[74.25446,16.90003],[74.25742,16.90451],[74.27023,16.90891],[74.27667,16.91412],[74.2817,16.91546],[74.28555,16.91113],[74.29196,16.89642],[74.29758,16.89177],[74.30868,16.88891],[74.31443,16.89],[74.31989,16.88598],[74.32409,16.88182],[74.32671,16.8762],[74.33201,16.87609],[74.33902,16.8775],[74.34859,16.87018],[74.35502,16.86982],[74.35564,16.86338],[74.35797,16.85845],[74.36132,16.85339],[74.36525,16.85278],[74.37971,16.86708],[74.38711,16.86739],[74.39592,16.8772],[74.40284,16.87988],[74.40482,16.87513],[74.41549,16.87715],[74.41606,16.87099],[74.41171,16.86097],[74.40645,16.85505],[74.40509,16.8502],[74.40807,16.84519],[74.4139,16.84185],[74.42113,16.84228],[74.4299,16.84474],[74.43597,16.84944],[74.46077,16.85157],[74.46466,16.85454],[74.46644,16.85821],[74.46729,16.86355],[74.47016,16.86716],[74.48018,16.8656],[74.48571,16.86141],[74.48696,16.85927],[74.49329,16.85876],[74.49596,16.85553],[74.49494,16.85146],[74.49425,16.83996],[74.49479,16.83761],[74.49681,16.83468],[74.49781,16.82906],[74.50372,16.83244],[74.50707,16.83576],[74.51399,16.83948],[74.51477,16.84413],[74.51349,16.85464],[74.51696,16.85665],[74.5248,16.84802],[74.52915,16.84607],[74.53571,16.84565],[74.54939,16.83064],[74.55712,16.81943],[74.55929,16.80667],[74.56184,16.80483],[74.56923,16.80293],[74.58145,16.80135],[74.59099,16.8018],[74.5994,16.80109],[74.60726,16.79849],[74.61404,16.79509],[74.63184,16.78581],[74.64117,16.77661],[74.64508,16.76924],[74.64469,16.75753],[74.64581,16.75402],[74.64801,16.75074],[74.66124,16.74979],[74.70046,16.73397],[74.70104,16.73138],[74.69762,16.72295],[74.69325,16.71676]],[[74.28975,15.8308],[74.27736,15.82729],[74.26035,15.82689],[74.26196,15.82392],[74.26552,15.82147],[74.26557,15.81919],[74.26514,15.81665],[74.267,15.81186],[74.26703,15.8105],[74.26817,15.80916],[74.26708,15.80792],[74.26711,15.80642],[74.26722,15.80109],[74.26625,15.79968],[74.26523,15.79706],[74.26502,15.79445],[74.26638,15.79318],[74.27005,15.79344],[74.28707,15.78834],[74.28963,15.79383],[74.29229,15.79388],[74.29779,15.78859],[74.30911,15.79856],[74.30361,15.80606],[74.29628,15.8157],[74.28975,15.8308]]]}}]}