{"type":"FeatureCollection","features":[{"type":"Feature","properties":{"id":"latur","name":"Latur","stateId":"maharashtra","stateName":"Maharashtra","censuscode":524,"type":"district"},"geometry":{"type":"Polygon","coordinates":[[[76.99537,18.82738],[77.00005,18.81915],[77.00101,18.8181],[77.0013,18.80982],[77.00514,18.78848],[77.00813,18.7671],[77.02558,18.76711],[77.04661,18.77308],[77.05338,18.77252],[77.05685,18.76584],[77.05448,18.74586],[77.05467,18.73882],[77.05758,18.72986],[77.057,18.71817],[77.0521,18.71654],[77.04464,18.69801],[77.04441,18.69475],[77.04685,18.6898],[77.04655,18.683],[77.05975,18.68341],[77.06746,18.6825],[77.06772,18.6864],[77.08061,18.69015],[77.09505,18.69122],[77.10079,18.69437],[77.11909,18.69534],[77.13631,18.69834],[77.13663,18.71088],[77.1461,18.71216],[77.14983,18.70603],[77.15705,18.70141],[77.16626,18.70348],[77.18213,18.70245],[77.19436,18.68946],[77.18648,18.68569],[77.17781,18.67969],[77.15938,18.68038],[77.15775,18.67182],[77.15749,18.65731],[77.15584,18.64634],[77.178,18.6487],[77.19979,18.64724],[77.20135,18.64346],[77.20548,18.63863],[77.20885,18.63823],[77.21231,18.63515],[77.21419,18.62482],[77.25145,18.61787],[77.27062,18.61096],[77.26792,18.59108],[77.27058,18.58423],[77.26738,18.58082],[77.26666,18.56547],[77.27531,18.56222],[77.28077,18.55924],[77.28804,18.55276],[77.29649,18.54733],[77.29009,18.54237],[77.28798,18.53762],[77.28753,18.53143],[77.27735,18.52022],[77.27123,18.52179],[77.24729,18.49912],[77.24852,18.49111],[77.25196,18.48228],[77.2643,18.48098],[77.26579,18.47669],[77.2749,18.47486],[77.26946,18.45937],[77.26873,18.45523],[77.26833,18.45297],[77.25651,18.45363],[77.256,18.44779],[77.26412,18.44151],[77.26758,18.43131],[77.26741,18.41978],[77.26121,18.41183],[77.25195,18.40965],[77.24303,18.41004],[77.23922,18.40121],[77.23566,18.38755],[77.24786,18.37202],[77.24445,18.36783],[77.23361,18.36702],[77.22416,18.34866],[77.23006,18.34636],[77.22577,18.33927],[77.2197,18.32637],[77.21273,18.31522],[77.2029,18.32064],[77.19815,18.31418],[77.20039,18.29702],[77.20721,18.29199],[77.20895,18.27949],[77.20157,18.28075],[77.1944,18.27581],[77.18054,18.28334],[77.17321,18.28236],[77.17005,18.27495],[77.16836,18.25744],[77.15987,18.2546],[77.15404,18.23946],[77.15041,18.23918],[77.15034,18.22295],[77.1533,18.22308],[77.15264,18.21811],[77.14485,18.2176],[77.14213,18.20879],[77.13377,18.20773],[77.12356,18.20824],[77.11919,18.20395],[77.10916,18.20334],[77.09807,18.19663],[77.10549,18.18787],[77.1189,18.16918],[77.11146,18.15429],[77.09916,18.15971],[77.09179,18.15754],[77.0887,18.15186],[77.0716,18.151],[77.06011,18.15391],[77.06012,18.15747],[77.05274,18.16281],[77.05188,18.17473],[77.0405,18.18281],[77.03521,18.18527],[77.03269,18.18083],[77.02405,18.17971],[77.02636,18.16419],[77.00006,18.16834],[76.99757,18.1748],[76.99777,18.17985],[76.99523,18.1835],[76.99374,18.1881],[76.99015,18.18993],[76.98279,18.19083],[76.9821,18.18884],[76.96102,18.18757],[76.95629,18.18631],[76.95314,18.17391],[76.94591,18.15619],[76.93551,18.15934],[76.92749,18.14627],[76.9298,18.14131],[76.9339,18.13805],[76.93213,18.13371],[76.9263,18.12594],[76.9244,18.12166],[76.92468,18.11759],[76.93431,18.11248],[76.9447,18.11292],[76.9556,18.11162],[76.96079,18.10795],[76.97052,18.09865],[76.96959,18.09418],[76.96656,18.08976],[76.95704,18.0869],[76.95194,18.08388],[76.94924,18.07532],[76.95169,18.06983],[76.95488,18.06498],[76.95283,18.05985],[76.95067,18.05025],[76.95084,18.04732],[76.95655,18.04432],[76.95686,18.04128],[76.95429,18.03931],[76.94083,18.03882],[76.91986,18.03481],[76.92155,18.0236],[76.92241,18.01536],[76.91981,18.01394],[76.92032,18.00348],[76.92064,18.00032],[76.91976,17.99788],[76.92183,17.99226],[76.92175,17.98702],[76.92039,17.9745],[76.91944,17.96215],[76.91538,17.9389],[76.92137,17.93836],[76.92052,17.92482],[76.91862,17.91681],[76.91536,17.91552],[76.90236,17.9164],[76.89872,17.90973],[76.89579,17.90908],[76.89452,17.90456],[76.89149,17.8989],[76.88531,17.89879],[76.88326,17.89477],[76.87733,17.89445],[76.87393,17.89644],[76.85585,17.89953],[76.84893,17.89808],[76.83372,17.89234],[76.83504,17.88444],[76.8223,17.88612],[76.81906,17.88477],[76.81298,17.88575],[76.81014,17.88475],[76.80726,17.87588],[76.80815,17.87217],[76.80468,17.87],[76.79933,17.87101],[76.77638,17.87861],[76.77506,17.8803],[76.77562,17.88387],[76.77492,17.88678],[76.77194,17.89397],[76.76774,17.90004],[76.74468,17.90061],[76.74238,17.8996],[76.73931,17.9038],[76.73582,17.9111],[76.72696,17.91372],[76.72434,17.91782],[76.71886,17.91695],[76.68452,17.91875],[76.67559,17.92197],[76.67607,17.92595],[76.68186,17.94628],[76.67727,17.94952],[76.67591,17.95291],[76.674,17.96691],[76.67995,17.97002],[76.68952,17.97041],[76.68947,17.9766],[76.68533,17.98749],[76.68158,17.99266],[76.68018,17.99387],[76.6768,17.99681],[76.6707,17.9986],[76.66239,17.99942],[76.62549,17.99985],[76.62395,18.00074],[76.60738,18.01044],[76.61008,18.01969],[76.6124,18.03789],[76.6062,18.03583],[76.60261,18.03284],[76.59669,18.0328],[76.5891,18.03815],[76.58203,18.04013],[76.57777,18.03673],[76.56814,18.03896],[76.55704,18.02975],[76.54759,18.02418],[76.54014,18.02311],[76.53267,18.02101],[76.5295,18.02271],[76.52504,18.02121],[76.52249,18.02428],[76.51767,18.02324],[76.51275,18.02438],[76.50293,18.02271],[76.49427,18.02338],[76.48684,18.02644],[76.48234,18.02683],[76.47841,18.02607],[76.47312,18.02618],[76.44173,18.03299],[76.42839,18.03037],[76.4247,18.03379],[76.41884,18.04171],[76.40859,18.04519],[76.40518,18.04713],[76.40282,18.05087],[76.3993,18.05303],[76.39959,18.06254],[76.3985,18.06662],[76.38691,18.08049],[76.38177,18.08931],[76.37038,18.08799],[76.35858,18.08393],[76.34782,18.07899],[76.34269,18.07858],[76.33129,18.07422],[76.32386,18.07487],[76.32134,18.07655],[76.31504,18.08423],[76.31216,18.08615],[76.30838,18.091],[76.30575,18.09612],[76.30645,18.1038],[76.3057,18.10856],[76.30303,18.11409],[76.30145,18.11646],[76.29586,18.12173],[76.28315,18.12908],[76.27703,18.13945],[76.27751,18.14317],[76.27967,18.14585],[76.2792,18.15038],[76.28159,18.15426],[76.282,18.16176],[76.28111,18.17203],[76.28213,18.18204],[76.29516,18.19906],[76.29615,18.20673],[76.29816,18.21382],[76.30245,18.21337],[76.30214,18.22971],[76.29769,18.23192],[76.2922,18.23169],[76.28678,18.2326],[76.28334,18.2484],[76.28701,18.24842],[76.28923,18.2527],[76.294,18.25827],[76.3073,18.26536],[76.31126,18.26962],[76.30816,18.272],[76.31147,18.27719],[76.31629,18.28172],[76.31853,18.29317],[76.31953,18.31138],[76.31865,18.32898],[76.28522,18.3407],[76.2875,18.35587],[76.2896,18.37912],[76.28829,18.38583],[76.28217,18.38486],[76.27536,18.38017],[76.27041,18.37575],[76.26392,18.36836],[76.25922,18.36456],[76.25526,18.3666],[76.24901,18.37509],[76.24329,18.37721],[76.23707,18.37726],[76.23068,18.37829],[76.21683,18.38238],[76.20765,18.38779],[76.20139,18.39525],[76.20034,18.39869],[76.21178,18.40019],[76.21957,18.41491],[76.2222,18.42251],[76.22595,18.42889],[76.23307,18.43329],[76.23932,18.43438],[76.25699,18.427],[76.2669,18.42152],[76.27166,18.42004],[76.26757,18.4371],[76.26347,18.46384],[76.26832,18.46455],[76.27243,18.46427],[76.27193,18.46789],[76.26987,18.47319],[76.2568,18.48242],[76.25528,18.48604],[76.25804,18.48968],[76.25893,18.49363],[76.2561,18.49526],[76.25648,18.50569],[76.2553,18.51883],[76.25798,18.52603],[76.26821,18.53217],[76.27482,18.53842],[76.27635,18.54482],[76.27692,18.55697],[76.27706,18.56396],[76.27803,18.56923],[76.27996,18.5743],[76.28233,18.5748],[76.28922,18.57405],[76.29238,18.57527],[76.29545,18.57398],[76.29958,18.57039],[76.30711,18.56762],[76.31151,18.56689],[76.32189,18.56984],[76.326,18.56917],[76.3356,18.56311],[76.34298,18.56326],[76.3473,18.56557],[76.35213,18.56444],[76.3621,18.5586],[76.36488,18.55422],[76.36828,18.54542],[76.37376,18.54324],[76.3775,18.54257],[76.38138,18.54351],[76.38476,18.54296],[76.38771,18.54149],[76.40575,18.54831],[76.41268,18.55058],[76.42402,18.55282],[76.43256,18.54419],[76.43966,18.54188],[76.44102,18.53041],[76.44693,18.5284],[76.45378,18.52478],[76.45856,18.51172],[76.46329,18.50845],[76.46537,18.50539],[76.46801,18.49871],[76.46828,18.49631],[76.47163,18.49386],[76.47688,18.49318],[76.48144,18.49044],[76.48673,18.48368],[76.49164,18.48465],[76.49669,18.48236],[76.50039,18.479],[76.50395,18.47776],[76.51139,18.4692],[76.52028,18.46985],[76.53004,18.47169],[76.53199,18.46846],[76.53665,18.46899],[76.53933,18.46638],[76.54324,18.46444],[76.54906,18.46529],[76.55152,18.46836],[76.54859,18.47091],[76.54859,18.47579],[76.54945,18.48529],[76.55227,18.49667],[76.55758,18.49677],[76.56859,18.49293],[76.56898,18.49041],[76.56692,18.47639],[76.56529,18.47234],[76.56662,18.46813],[76.56948,18.46455],[76.57235,18.46274],[76.58338,18.45999],[76.59322,18.45925],[76.60085,18.45548],[76.60518,18.45463],[76.60912,18.45516],[76.61909,18.46314],[76.6298,18.46434],[76.63051,18.47561],[76.62412,18.47706],[76.62356,18.47982],[76.61934,18.48073],[76.61768,18.48338],[76.61806,18.48917],[76.61885,18.49351],[76.62463,18.50044],[76.63017,18.50376],[76.63194,18.51342],[76.64082,18.52553],[76.64336,18.52516],[76.64315,18.51932],[76.6481,18.51811],[76.65284,18.51531],[76.64909,18.50343],[76.64848,18.49409],[76.64857,18.48721],[76.65225,18.48694],[76.65261,18.48213],[76.67601,18.48237],[76.68329,18.49306],[76.68772,18.49828],[76.69669,18.49961],[76.69948,18.50027],[76.702,18.53285],[76.70559,18.54719],[76.69741,18.54958],[76.6927,18.55021],[76.68019,18.55499],[76.67455,18.55392],[76.65971,18.54423],[76.65305,18.5439],[76.63361,18.551],[76.63792,18.56402],[76.64348,18.57216],[76.64793,18.58322],[76.6568,18.58181],[76.66274,18.59171],[76.67399,18.62471],[76.67188,18.62978],[76.67421,18.63239],[76.67975,18.63404],[76.68233,18.63699],[76.68203,18.64123],[76.68489,18.64687],[76.66536,18.65605],[76.6767,18.67489],[76.6812,18.68429],[76.68579,18.69186],[76.68773,18.69235],[76.69886,18.6913],[76.70249,18.69189],[76.71262,18.69739],[76.72022,18.69902],[76.7307,18.69563],[76.73246,18.69635],[76.73633,18.6998],[76.73739,18.70225],[76.73562,18.71373],[76.73548,18.71998],[76.73335,18.72425],[76.73149,18.72565],[76.73034,18.72967],[76.73019,18.73529],[76.72726,18.73848],[76.72712,18.74926],[76.73068,18.74992],[76.73602,18.75456],[76.73949,18.75996],[76.74553,18.77415],[76.75313,18.77229],[76.76198,18.77304],[76.76715,18.77435],[76.77418,18.7745],[76.78178,18.77658],[76.78353,18.78012],[76.7841,18.79346],[76.79099,18.79659],[76.80115,18.79939],[76.81647,18.79943],[76.81875,18.8026],[76.82592,18.80837],[76.83202,18.81145],[76.83914,18.8137],[76.84468,18.81209],[76.85415,18.8067],[76.85649,18.81343],[76.85997,18.81968],[76.86608,18.81984],[76.8726,18.8283],[76.88162,18.82864],[76.88442,18.83032],[76.88515,18.83478],[76.90713,18.83594],[76.94142,18.83268],[76.95543,18.83261],[76.96355,18.83033],[76.99537,18.82738]]]}}]}