{"type":"FeatureCollection","features":[{"type":"Feature","properties":{"id":"mumbai","name":"Mumbai","stateId":"maharashtra","stateName":"Maharashtra","censuscode":519,"type":"district"},"geometry":{"type":"Polygon","coordinates":[[[72.89682,18.97877],[72.90371,18.97542],[72.90812,18.97132],[72.91219,18.96378],[72.9145,18.95076],[72.90976,18.93868],[72.90644,18.93328],[72.90089,18.92928],[72.88119,18.91921],[72.86953,18.91084],[72.85993,18.8978],[72.85509,18.88922],[72.85135,18.88215],[72.84558,18.86598],[72.84242,18.856],[72.84002,18.84534],[72.81117,18.89356],[72.80959,18.89406],[72.80755,18.89581],[72.80568,18.9046],[72.8062,18.90869],[72.80689,18.91016],[72.81159,18.92076],[72.81335,18.92317],[72.81419,18.92329],[72.8212,18.93286],[72.82105,18.9343],[72.82199,18.93433],[72.82276,18.93748],[72.82274,18.93884],[72.82228,18.94315],[72.8169,18.94958],[72.81281,18.95154],[72.80973,18.95102],[72.8083,18.95015],[72.80301,18.94692],[72.79619,18.94101],[72.79448,18.93861],[72.7941,18.93803],[72.78765,18.93948],[72.7875,18.94083],[72.78764,18.94489],[72.78833,18.94679],[72.79009,18.94984],[72.79347,18.95441],[72.79398,18.95521],[72.79395,18.95633],[72.79956,18.96472],[72.80216,18.9703],[72.80789,18.98014],[72.81271,19.00398],[72.81329,19.01438],[72.81466,19.01668],[72.81648,19.01746],[72.8202,19.01871],[72.81768,19.03254],[72.82402,19.03123],[72.82728,19.03249],[72.83425,19.04191],[72.8409,19.04553],[72.84365,19.04673],[72.8473,19.04716],[72.85372,19.05191],[72.8594,19.05473],[72.86355,19.05335],[72.86848,19.0517],[72.87711,19.04566],[72.87629,19.04028],[72.87456,19.03003],[72.87125,19.02247],[72.8756,19.0179],[72.87973,19.01551],[72.88465,19.01267],[72.88282,19],[72.879,18.99147],[72.88036,18.98439],[72.88243,18.9812],[72.89682,18.97877]]]}}]}