{"type":"FeatureCollection","features":[{"type":"Feature","properties":{"id":"mumbai-suburban","name":"Mumbai Suburban","stateId":"maharashtra","stateName":"Maharashtra","censuscode":518,"type":"district"},"geometry":{"type":"Polygon","coordinates":[[[72.95859,18.98734],[72.94677,18.98574],[72.91373,18.98226],[72.90092,18.97963],[72.89682,18.97877],[72.88243,18.9812],[72.88036,18.98439],[72.879,18.99147],[72.88282,19],[72.88465,19.01267],[72.87973,19.01551],[72.8756,19.0179],[72.87125,19.02247],[72.87456,19.03003],[72.87629,19.04028],[72.87711,19.04566],[72.86848,19.0517],[72.86355,19.05335],[72.8594,19.05473],[72.85372,19.05191],[72.8473,19.04716],[72.84365,19.04673],[72.8409,19.04553],[72.83425,19.04191],[72.82728,19.03249],[72.82402,19.03123],[72.81768,19.03254],[72.81607,19.03885],[72.81786,19.0484],[72.81739,19.04885],[72.81808,19.04953],[72.81702,19.05426],[72.81675,19.06126],[72.81692,19.06443],[72.81713,19.06575],[72.81777,19.06794],[72.81905,19.07006],[72.82018,19.07226],[72.82119,19.07401],[72.82178,19.0752],[72.82182,19.07586],[72.82185,19.07834],[72.82251,19.08083],[72.82308,19.09055],[72.82244,19.10421],[72.82184,19.10805],[72.82173,19.10895],[72.82204,19.10973],[72.82633,19.11166],[72.82712,19.11198],[72.82579,19.12447],[72.82027,19.12615],[72.81975,19.12225],[72.81774,19.12253],[72.81264,19.12671],[72.80771,19.13308],[72.80659,19.13549],[72.80671,19.13738],[72.79977,19.13749],[72.7952,19.12464],[72.79314,19.12374],[72.78603,19.12433],[72.78363,19.12517],[72.784,19.1304],[72.78753,19.13681],[72.78769,19.1454],[72.78692,19.1483],[72.78063,19.15271],[72.78024,19.15406],[72.77997,19.15631],[72.78037,19.15762],[72.78103,19.1603],[72.78925,19.16598],[72.79168,19.16852],[72.79447,19.1765],[72.79464,19.18275],[72.79393,19.18921],[72.79421,19.19064],[72.78889,19.19208],[72.78613,19.19214],[72.78466,19.1937],[72.78416,19.19458],[72.78274,19.20585],[72.78184,19.20813],[72.77899,19.21613],[72.78019,19.22277],[72.78202,19.23681],[72.78229,19.24412],[72.78223,19.25785],[72.78162,19.26128],[72.78152,19.26325],[72.7906,19.26008],[72.79586,19.25968],[72.80033,19.26096],[72.80559,19.2564],[72.8182,19.24547],[72.82479,19.24468],[72.82909,19.24543],[72.83526,19.24928],[72.83701,19.25284],[72.83808,19.26386],[72.8422,19.26599],[72.85636,19.26918],[72.85648,19.26922],[72.867,19.26498],[72.87379,19.2597],[72.88849,19.25116],[72.89273,19.24967],[72.90761,19.24676],[72.90676,19.24187],[72.91142,19.23419],[72.92183,19.22145],[72.92747,19.21324],[72.93726,19.20504],[72.93734,19.18971],[72.94834,19.1866],[72.95589,19.18334],[72.96352,19.18144],[72.97114,19.17674],[72.97294,19.17356],[72.97453,19.17077],[72.97974,19.16155],[72.98287,19.15602],[72.98335,19.15131],[72.98251,19.14487],[72.97961,19.13374],[72.97314,19.12001],[72.9703,19.11175],[72.96776,19.09355],[72.96939,19.08143],[72.96872,19.07472],[72.9703,19.0668],[72.97199,19.05963],[72.97804,19.04723],[72.97918,19.04104],[72.97853,19.03272],[72.97502,19.02462],[72.96155,18.99979],[72.95859,18.98734]]]}}]}