{"type":"FeatureCollection","features":[{"type":"Feature","properties":{"id":"nagpur","name":"Nagpur","stateId":"maharashtra","stateName":"Maharashtra","censuscode":505,"type":"district"},"geometry":{"type":"Polygon","coordinates":[[[79.51189,21.5894],[79.51674,21.58231],[79.5278,21.57948],[79.53375,21.57397],[79.53823,21.57216],[79.54364,21.56818],[79.54561,21.56439],[79.54216,21.55418],[79.53998,21.54997],[79.54031,21.54739],[79.54271,21.54344],[79.53451,21.53964],[79.52935,21.54005],[79.51423,21.53413],[79.50376,21.52146],[79.4969,21.51441],[79.49319,21.50832],[79.48576,21.502],[79.47512,21.48363],[79.47461,21.4808],[79.47002,21.4791],[79.45933,21.46067],[79.45627,21.4588],[79.4493,21.45652],[79.45021,21.45177],[79.45241,21.44851],[79.4505,21.43495],[79.45523,21.429],[79.46042,21.42594],[79.4715,21.42421],[79.47961,21.42692],[79.48328,21.42732],[79.49165,21.40482],[79.49161,21.40252],[79.48789,21.39867],[79.50035,21.39756],[79.50762,21.38612],[79.51603,21.37275],[79.51775,21.36889],[79.52331,21.36406],[79.52645,21.35472],[79.52938,21.35154],[79.53574,21.34799],[79.54769,21.33135],[79.55692,21.3303],[79.55791,21.32797],[79.5584,21.32264],[79.55495,21.3161],[79.55811,21.31332],[79.55904,21.31099],[79.55687,21.3088],[79.55603,21.30624],[79.55872,21.3027],[79.56523,21.30192],[79.56808,21.29902],[79.5756,21.28332],[79.57672,21.27743],[79.57592,21.27374],[79.57128,21.27377],[79.56897,21.25352],[79.57146,21.24704],[79.5657,21.24193],[79.56112,21.23633],[79.56052,21.23453],[79.56388,21.22561],[79.55608,21.20878],[79.55318,21.20615],[79.55414,21.20486],[79.55803,21.20406],[79.55951,21.20164],[79.5604,21.19201],[79.5618,21.19049],[79.56296,21.18708],[79.55454,21.17211],[79.55473,21.17016],[79.5607,21.16373],[79.56203,21.16078],[79.56178,21.15549],[79.55619,21.15595],[79.55187,21.15725],[79.54813,21.15697],[79.54383,21.15564],[79.53434,21.15609],[79.52862,21.16765],[79.5314,21.17031],[79.53255,21.17449],[79.5264,21.17551],[79.51961,21.17335],[79.50165,21.18327],[79.49918,21.18014],[79.49814,21.17166],[79.51049,21.16267],[79.50622,21.14581],[79.50402,21.14396],[79.4934,21.14134],[79.49274,21.13936],[79.49834,21.13597],[79.50768,21.13384],[79.51177,21.1315],[79.51283,21.12802],[79.51211,21.12472],[79.5137,21.12132],[79.52754,21.11749],[79.52837,21.11454],[79.53202,21.10792],[79.53011,21.10591],[79.53382,21.10344],[79.53277,21.10123],[79.5309,21.09985],[79.53104,21.09738],[79.53318,21.0956],[79.53065,21.08829],[79.52301,21.08766],[79.52947,21.07532],[79.54269,21.081],[79.55193,21.08639],[79.55818,21.08352],[79.56888,21.07004],[79.57312,21.06723],[79.57797,21.066],[79.58199,21.06859],[79.58645,21.07281],[79.58872,21.0761],[79.59258,21.07662],[79.59965,21.07246],[79.60358,21.06166],[79.60738,21.05631],[79.61021,21.05046],[79.61263,21.03841],[79.61888,21.0267],[79.6367,21.00061],[79.63649,20.99651],[79.63758,20.9909],[79.64309,20.98462],[79.64721,20.98188],[79.65351,20.97751],[79.6596,20.96942],[79.65952,20.95789],[79.66092,20.95281],[79.65901,20.9436],[79.65158,20.9266],[79.64414,20.91654],[79.6393,20.91364],[79.62194,20.90723],[79.61659,20.90253],[79.61128,20.8784],[79.61543,20.87216],[79.61595,20.86799],[79.61913,20.86472],[79.61743,20.86412],[79.61272,20.86478],[79.60422,20.86427],[79.59613,20.85637],[79.58826,20.84693],[79.58303,20.84241],[79.57903,20.84348],[79.56895,20.84358],[79.56875,20.84707],[79.56631,20.84961],[79.55983,20.85332],[79.55449,20.84812],[79.54619,20.85007],[79.54352,20.84962],[79.54159,20.8478],[79.54906,20.83602],[79.55167,20.83056],[79.55431,20.82093],[79.56041,20.80964],[79.56043,20.80287],[79.54902,20.7929],[79.54556,20.78589],[79.53751,20.77633],[79.53557,20.77285],[79.53719,20.76503],[79.53326,20.74889],[79.53331,20.74591],[79.53546,20.73999],[79.5219,20.72481],[79.51375,20.71421],[79.50931,20.70765],[79.50902,20.70395],[79.50569,20.69989],[79.49634,20.69915],[79.49438,20.70443],[79.49156,20.70404],[79.48961,20.69815],[79.4827,20.68959],[79.47504,20.68091],[79.46741,20.67442],[79.46003,20.66891],[79.45103,20.66437],[79.4454,20.66331],[79.43492,20.65878],[79.42871,20.6606],[79.41799,20.65607],[79.40688,20.6555],[79.39902,20.65733],[79.39271,20.66046],[79.38952,20.66559],[79.38946,20.67235],[79.38498,20.67576],[79.37552,20.6773],[79.37104,20.67406],[79.36369,20.67083],[79.35283,20.67129],[79.3504,20.66522],[79.3559,20.65992],[79.35739,20.65526],[79.35362,20.65052],[79.34588,20.64426],[79.34475,20.64059],[79.34738,20.63404],[79.33469,20.61357],[79.33433,20.60783],[79.33288,20.60211],[79.32709,20.58923],[79.32179,20.58324],[79.31311,20.58065],[79.30417,20.58344],[79.29652,20.58767],[79.2925,20.58878],[79.28064,20.58522],[79.26337,20.58497],[79.25149,20.58606],[79.22639,20.58336],[79.22472,20.58207],[79.22025,20.58925],[79.21371,20.5936],[79.21207,20.59469],[79.20938,20.59739],[79.19551,20.60065],[79.19257,20.59611],[79.18857,20.60262],[79.18801,20.61116],[79.18631,20.61358],[79.18625,20.61881],[79.18324,20.61691],[79.18087,20.61674],[79.17603,20.61985],[79.1754,20.62316],[79.17074,20.62449],[79.17187,20.6306],[79.1712,20.63592],[79.17,20.63808],[79.17109,20.64154],[79.17037,20.64301],[79.15129,20.65011],[79.14942,20.65157],[79.15008,20.65702],[79.14926,20.65844],[79.1447,20.66007],[79.14686,20.66728],[79.14508,20.66804],[79.14288,20.67585],[79.13141,20.67813],[79.10692,20.68568],[79.10911,20.69639],[79.10411,20.71217],[79.09855,20.70964],[79.09218,20.70795],[79.08965,20.71134],[79.08605,20.71344],[79.07674,20.71524],[79.07416,20.72362],[79.06929,20.7227],[79.06067,20.72263],[79.05357,20.72631],[79.05283,20.73427],[79.04537,20.73427],[79.04158,20.73752],[79.03773,20.73462],[79.01974,20.73611],[79.018,20.73992],[79.01268,20.74232],[79.01039,20.7413],[79.00507,20.74106],[78.99996,20.74242],[78.99753,20.75389],[78.98889,20.75167],[78.97895,20.75419],[78.9737,20.75422],[78.97171,20.75523],[78.96574,20.75827],[78.95818,20.76409],[78.95687,20.76681],[78.94516,20.76698],[78.94211,20.77999],[78.94844,20.78237],[78.94897,20.78461],[78.94851,20.78862],[78.94674,20.79393],[78.94534,20.7938],[78.93182,20.79784],[78.92803,20.79742],[78.92567,20.80154],[78.92113,20.80524],[78.9155,20.80641],[78.91704,20.81164],[78.91978,20.81309],[78.91906,20.81738],[78.91491,20.81827],[78.91592,20.83512],[78.9085,20.83834],[78.90056,20.83922],[78.88845,20.84178],[78.88577,20.84097],[78.88564,20.83511],[78.88372,20.83148],[78.87504,20.82672],[78.873,20.8289],[78.86883,20.83737],[78.86403,20.84218],[78.86122,20.86101],[78.86274,20.86785],[78.864,20.87014],[78.86471,20.87132],[78.86218,20.87384],[78.85887,20.87526],[78.85296,20.8743],[78.8488,20.87479],[78.84111,20.88043],[78.83957,20.88238],[78.83982,20.88818],[78.84247,20.89061],[78.83641,20.89367],[78.83213,20.89308],[78.82856,20.89111],[78.82644,20.88879],[78.82049,20.87887],[78.813,20.8763],[78.80971,20.87612],[78.80482,20.87672],[78.7962,20.8835],[78.79188,20.88818],[78.78789,20.89029],[78.77847,20.8912],[78.77003,20.8989],[78.77294,20.90116],[78.77401,20.90342],[78.77373,20.9076],[78.7659,20.92093],[78.76079,20.91919],[78.7574,20.92209],[78.74596,20.9354],[78.74434,20.9389],[78.74942,20.94323],[78.74611,20.94407],[78.74002,20.94341],[78.73695,20.94465],[78.73509,20.94699],[78.73194,20.96184],[78.72692,20.9687],[78.72665,20.9718],[78.72617,20.98834],[78.73099,20.99527],[78.73118,21.00052],[78.73094,21.00461],[78.72601,21.0052],[78.72435,21.00766],[78.71626,21.00916],[78.71324,21.01472],[78.70784,21.01669],[78.70137,21.01756],[78.69516,21.02015],[78.69392,21.02491],[78.68858,21.02944],[78.68584,21.03016],[78.6707,21.03417],[78.65737,21.03447],[78.65206,21.0359],[78.6511,21.05147],[78.64804,21.05371],[78.64322,21.05951],[78.63936,21.05848],[78.63441,21.05825],[78.63172,21.05957],[78.62806,21.06502],[78.62518,21.06697],[78.62108,21.06738],[78.61547,21.06428],[78.61443,21.06911],[78.60692,21.06922],[78.61042,21.08191],[78.61067,21.08852],[78.60211,21.08904],[78.59863,21.09013],[78.59908,21.09564],[78.59657,21.09817],[78.59719,21.10098],[78.59647,21.10857],[78.59281,21.11213],[78.5897,21.11465],[78.58537,21.115],[78.55867,21.11476],[78.55495,21.11786],[78.53842,21.13986],[78.52573,21.15289],[78.52165,21.16179],[78.52153,21.17],[78.51848,21.17505],[78.50926,21.18522],[78.507,21.18981],[78.49863,21.19578],[78.49515,21.19899],[78.49277,21.20301],[78.4825,21.21179],[78.47981,21.21541],[78.47817,21.21954],[78.47266,21.21678],[78.46966,21.21844],[78.46484,21.22298],[78.45566,21.22619],[78.44655,21.23411],[78.44251,21.23468],[78.42912,21.22834],[78.4241,21.22753],[78.41939,21.22776],[78.41561,21.22914],[78.41053,21.23596],[78.40704,21.23752],[78.40117,21.23768],[78.3718,21.24327],[78.36048,21.2482],[78.35657,21.24843],[78.35284,21.25089],[78.33296,21.25057],[78.33014,21.25252],[78.32726,21.25619],[78.32659,21.26073],[78.32757,21.26521],[78.32726,21.26957],[78.32623,21.27118],[78.32279,21.27152],[78.31441,21.2687],[78.30976,21.27001],[78.3075,21.27379],[78.30738,21.27753],[78.31282,21.28861],[78.31342,21.29183],[78.31128,21.29395],[78.3081,21.29424],[78.30375,21.29309],[78.298,21.29302],[78.295,21.29462],[78.29016,21.30259],[78.28447,21.30396],[78.27748,21.31021],[78.27307,21.31514],[78.27136,21.31961],[78.26389,21.32661],[78.26027,21.32937],[78.25789,21.32821],[78.25599,21.32504],[78.25127,21.3286],[78.25226,21.33698],[78.27061,21.34345],[78.276,21.35081],[78.28659,21.34991],[78.31077,21.35696],[78.31328,21.36064],[78.31757,21.36397],[78.32179,21.36628],[78.32633,21.36645],[78.33024,21.36853],[78.33306,21.37112],[78.33876,21.37256],[78.34408,21.37664],[78.34849,21.38486],[78.35075,21.38079],[78.3548,21.37999],[78.35835,21.38039],[78.36698,21.38357],[78.36723,21.39115],[78.37378,21.39454],[78.37642,21.39403],[78.37935,21.39122],[78.38174,21.38732],[78.38407,21.38635],[78.38909,21.38973],[78.39233,21.38963],[78.39742,21.38516],[78.40195,21.38355],[78.40593,21.38315],[78.40942,21.38367],[78.41095,21.38712],[78.41812,21.38804],[78.4224,21.39098],[78.42136,21.39528],[78.42333,21.39689],[78.4289,21.39799],[78.43509,21.40093],[78.44624,21.40278],[78.44869,21.40455],[78.45046,21.40697],[78.45151,21.41116],[78.45108,21.41535],[78.44397,21.42195],[78.44392,21.43177],[78.44122,21.43964],[78.4414,21.44204],[78.44448,21.44544],[78.44257,21.44853],[78.43927,21.46053],[78.43793,21.46955],[78.43578,21.47265],[78.43174,21.47574],[78.43039,21.4797],[78.43284,21.48837],[78.43211,21.49774],[78.43493,21.50015],[78.44345,21.50217],[78.44952,21.50033],[78.45656,21.49575],[78.45907,21.49673],[78.46116,21.50287],[78.4641,21.50304],[78.46655,21.50196],[78.47017,21.50196],[78.4758,21.50329],[78.47698,21.50535],[78.48531,21.50455],[78.48831,21.50617],[78.49053,21.51047],[78.49567,21.51639],[78.50094,21.51639],[78.50285,21.52138],[78.50702,21.52506],[78.50928,21.52512],[78.51352,21.52685],[78.52504,21.52381],[78.5297,21.52427],[78.53332,21.52306],[78.54226,21.52301],[78.55145,21.51842],[78.5574,21.51785],[78.5615,21.51429],[78.56505,21.51308],[78.57155,21.51418],[78.5697,21.5078],[78.57031,21.50447],[78.57828,21.49701],[78.58623,21.48816],[78.5899,21.48541],[78.5983,21.48622],[78.60369,21.48335],[78.60608,21.4857],[78.61044,21.48691],[78.62115,21.48007],[78.62604,21.47611],[78.6304,21.47639],[78.63555,21.4799],[78.64254,21.48277],[78.64867,21.48282],[78.65578,21.48139],[78.66423,21.47748],[78.66931,21.47932],[78.68923,21.48057],[78.68958,21.47656],[78.69346,21.47747],[78.69713,21.47729],[78.70135,21.47603],[78.70092,21.47305],[78.7068,21.47333],[78.70907,21.46983],[78.7191,21.4666],[78.72498,21.46327],[78.72939,21.46304],[78.73494,21.47002],[78.74034,21.47007],[78.74408,21.47156],[78.74563,21.48235],[78.75172,21.49251],[78.75576,21.4894],[78.76629,21.48841],[78.76604,21.48336],[78.76963,21.47296],[78.77746,21.46582],[78.78078,21.4722],[78.78233,21.47777],[78.78546,21.47949],[78.7899,21.48781],[78.79498,21.48717],[78.79811,21.48854],[78.8154,21.48955],[78.81846,21.48743],[78.82458,21.48833],[78.8287,21.48981],[78.83329,21.48866],[78.84953,21.48869],[78.85309,21.49018],[78.85691,21.49442],[78.88054,21.48667],[78.88525,21.48372],[78.89078,21.48434],[78.8959,21.49698],[78.90118,21.49932],[78.90816,21.49677],[78.91335,21.49301],[78.92602,21.48641],[78.93728,21.48619],[78.93925,21.49117],[78.94237,21.5092],[78.94611,21.51247],[78.94416,21.51605],[78.94179,21.51814],[78.93169,21.52039],[78.92888,21.52253],[78.92885,21.5318],[78.93003,21.5374],[78.92723,21.5419],[78.90987,21.55352],[78.91455,21.56043],[78.91817,21.56181],[78.92944,21.55884],[78.93329,21.55898],[78.93385,21.56312],[78.92536,21.56764],[78.91979,21.56831],[78.91709,21.56957],[78.91762,21.58383],[78.91869,21.591],[78.92813,21.59125],[78.93451,21.59329],[78.94584,21.59243],[78.95136,21.5947],[78.96779,21.60454],[78.98029,21.61621],[78.98702,21.61582],[79.00001,21.61743],[79.00293,21.61445],[79.00555,21.60849],[79.01135,21.60272],[79.01512,21.60021],[79.03654,21.60433],[79.04853,21.60344],[79.05352,21.60442],[79.05635,21.60267],[79.08171,21.60643],[79.08719,21.60591],[79.09374,21.59796],[79.09769,21.6022],[79.10378,21.60161],[79.10978,21.60813],[79.10514,21.61103],[79.10438,21.61507],[79.10484,21.61765],[79.11691,21.62432],[79.13342,21.62682],[79.14278,21.63561],[79.14679,21.63829],[79.15285,21.6553],[79.15356,21.65926],[79.19195,21.65321],[79.2224,21.649],[79.22569,21.64962],[79.22737,21.65571],[79.23274,21.65645],[79.2342,21.67018],[79.23262,21.67318],[79.23035,21.67466],[79.22596,21.67578],[79.22397,21.68002],[79.22672,21.69534],[79.22768,21.69934],[79.24058,21.71394],[79.23475,21.71922],[79.23389,21.72063],[79.2345,21.72266],[79.2635,21.71628],[79.27072,21.71369],[79.27762,21.70782],[79.28063,21.70401],[79.28265,21.69902],[79.29067,21.69272],[79.32323,21.68467],[79.32614,21.68545],[79.32804,21.68723],[79.34854,21.68338],[79.35425,21.68328],[79.35493,21.67778],[79.36773,21.67841],[79.38903,21.6743],[79.40072,21.67351],[79.40307,21.67456],[79.40643,21.67857],[79.4137,21.68449],[79.41738,21.68989],[79.42177,21.69037],[79.42898,21.6895],[79.43395,21.6842],[79.43825,21.68243],[79.44675,21.68119],[79.45704,21.68329],[79.46454,21.68628],[79.49462,21.67312],[79.49572,21.66482],[79.49695,21.66273],[79.50061,21.65957],[79.50344,21.65098],[79.50536,21.6469],[79.50721,21.64478],[79.50634,21.63958],[79.5087,21.63367],[79.51566,21.63244],[79.5177,21.63021],[79.51854,21.62558],[79.51456,21.62195],[79.5108,21.62236],[79.5093,21.62145],[79.50719,21.61874],[79.50425,21.61147],[79.50914,21.60662],[79.51288,21.60151],[79.51189,21.5894]]]}}]}