{"type":"FeatureCollection","features":[{"type":"Feature","properties":{"id":"osmanabad","name":"Osmanabad","stateId":"maharashtra","stateName":"Maharashtra","censuscode":525,"type":"district"},"geometry":{"type":"Polygon","coordinates":[[[76.27692,18.55697],[76.27635,18.54482],[76.27482,18.53842],[76.26821,18.53217],[76.25798,18.52603],[76.2553,18.51883],[76.25648,18.50569],[76.2561,18.49526],[76.25893,18.49363],[76.25804,18.48968],[76.25528,18.48604],[76.2568,18.48242],[76.26987,18.47319],[76.27193,18.46789],[76.27243,18.46427],[76.26832,18.46455],[76.26347,18.46384],[76.26757,18.4371],[76.27166,18.42004],[76.2669,18.42152],[76.25699,18.427],[76.23932,18.43438],[76.23307,18.43329],[76.22595,18.42889],[76.2222,18.42251],[76.21957,18.41491],[76.21178,18.40019],[76.20034,18.39869],[76.20139,18.39525],[76.20765,18.38779],[76.21683,18.38238],[76.23068,18.37829],[76.23707,18.37726],[76.24329,18.37721],[76.24901,18.37509],[76.25526,18.3666],[76.25922,18.36456],[76.26392,18.36836],[76.27041,18.37575],[76.27536,18.38017],[76.28217,18.38486],[76.28829,18.38583],[76.2896,18.37912],[76.2875,18.35587],[76.28522,18.3407],[76.31865,18.32898],[76.31953,18.31138],[76.31853,18.29317],[76.31629,18.28172],[76.31147,18.27719],[76.30816,18.272],[76.31126,18.26962],[76.3073,18.26536],[76.294,18.25827],[76.28923,18.2527],[76.28701,18.24842],[76.28334,18.2484],[76.28678,18.2326],[76.2922,18.23169],[76.29769,18.23192],[76.30214,18.22971],[76.30245,18.21337],[76.29816,18.21382],[76.29615,18.20673],[76.29516,18.19906],[76.28213,18.18204],[76.28111,18.17203],[76.282,18.16176],[76.28159,18.15426],[76.2792,18.15038],[76.27967,18.14585],[76.27751,18.14317],[76.27703,18.13945],[76.28315,18.12908],[76.29586,18.12173],[76.30145,18.11646],[76.30303,18.11409],[76.3057,18.10856],[76.30645,18.1038],[76.30575,18.09612],[76.30838,18.091],[76.31216,18.08615],[76.31504,18.08423],[76.32134,18.07655],[76.32386,18.07487],[76.33129,18.07422],[76.34269,18.07858],[76.34782,18.07899],[76.35858,18.08393],[76.37038,18.08799],[76.38177,18.08931],[76.38691,18.08049],[76.3985,18.06662],[76.39959,18.06254],[76.3993,18.05303],[76.40282,18.05087],[76.40518,18.04713],[76.40859,18.04519],[76.41884,18.04171],[76.4247,18.03379],[76.42839,18.03037],[76.44173,18.03299],[76.47312,18.02618],[76.47841,18.02607],[76.48234,18.02683],[76.48684,18.02644],[76.49427,18.02338],[76.50293,18.02271],[76.51275,18.02438],[76.51767,18.02324],[76.52249,18.02428],[76.52504,18.02121],[76.5295,18.02271],[76.53267,18.02101],[76.54014,18.02311],[76.54759,18.02418],[76.55704,18.02975],[76.56814,18.03896],[76.57777,18.03673],[76.58203,18.04013],[76.5891,18.03815],[76.59669,18.0328],[76.60261,18.03284],[76.6062,18.03583],[76.6124,18.03789],[76.61008,18.01969],[76.60738,18.01044],[76.62395,18.00074],[76.62549,17.99985],[76.66239,17.99942],[76.6707,17.9986],[76.6768,17.99681],[76.68018,17.99387],[76.68158,17.99266],[76.68533,17.98749],[76.68947,17.9766],[76.68952,17.97041],[76.67995,17.97002],[76.674,17.96691],[76.67591,17.95291],[76.67727,17.94952],[76.68186,17.94628],[76.67607,17.92595],[76.67559,17.92197],[76.68452,17.91875],[76.71886,17.91695],[76.72434,17.91782],[76.72696,17.91372],[76.73582,17.9111],[76.73931,17.9038],[76.74238,17.8996],[76.7413,17.89364],[76.74138,17.88522],[76.73919,17.85869],[76.74752,17.85994],[76.75633,17.85824],[76.76151,17.85373],[76.76614,17.85116],[76.76753,17.85247],[76.7816,17.83802],[76.78732,17.83317],[76.79005,17.82818],[76.78667,17.82136],[76.78328,17.81685],[76.78134,17.81202],[76.78165,17.80765],[76.77814,17.80112],[76.77187,17.79876],[76.76817,17.79838],[76.76458,17.78885],[76.75065,17.78808],[76.74954,17.78534],[76.74578,17.78519],[76.74532,17.78252],[76.74118,17.78086],[76.72634,17.78679],[76.72107,17.787],[76.7174,17.78362],[76.71414,17.7768],[76.71449,17.77307],[76.7189,17.77157],[76.72268,17.76932],[76.72078,17.76306],[76.71968,17.74961],[76.72363,17.74978],[76.72823,17.74214],[76.72935,17.73878],[76.70516,17.73087],[76.69981,17.72779],[76.70378,17.72548],[76.70512,17.72039],[76.70247,17.70905],[76.69403,17.70704],[76.69252,17.70372],[76.69287,17.69993],[76.69479,17.69555],[76.6922,17.68175],[76.68991,17.68031],[76.67977,17.68913],[76.67326,17.6909],[76.66473,17.68963],[76.6614,17.70094],[76.65969,17.71027],[76.65676,17.71813],[76.65238,17.72255],[76.63893,17.72581],[76.63213,17.73069],[76.63128,17.74355],[76.6284,17.75763],[76.62481,17.75954],[76.61587,17.76994],[76.61091,17.76762],[76.60829,17.76122],[76.60546,17.75746],[76.60019,17.72964],[76.59463,17.71924],[76.5884,17.70958],[76.57854,17.70482],[76.57456,17.70385],[76.57074,17.70541],[76.56941,17.74144],[76.56588,17.75528],[76.57066,17.75799],[76.57462,17.76161],[76.56883,17.7645],[76.56104,17.76474],[76.53942,17.76052],[76.53279,17.76011],[76.52749,17.76094],[76.52487,17.76046],[76.52621,17.73627],[76.52602,17.72453],[76.52482,17.71685],[76.51211,17.71753],[76.49334,17.71654],[76.48745,17.71511],[76.48671,17.69432],[76.48553,17.68606],[76.48574,17.67128],[76.49039,17.66232],[76.4533,17.65719],[76.45253,17.65314],[76.44182,17.651],[76.44373,17.64352],[76.43575,17.64617],[76.42964,17.64604],[76.42277,17.64579],[76.41221,17.64854],[76.40482,17.65725],[76.38131,17.6596],[76.37931,17.66819],[76.37985,17.6795],[76.3793,17.68559],[76.36958,17.68417],[76.36161,17.68671],[76.3561,17.69619],[76.33976,17.694],[76.32347,17.69598],[76.31925,17.69707],[76.31621,17.71556],[76.3121,17.71677],[76.3068,17.71963],[76.29919,17.72905],[76.28989,17.72801],[76.28238,17.72897],[76.27141,17.72753],[76.26371,17.72072],[76.25677,17.71679],[76.25131,17.70778],[76.24747,17.70624],[76.2408,17.70517],[76.23959,17.69792],[76.23147,17.69745],[76.22595,17.69802],[76.22234,17.69637],[76.22008,17.69054],[76.21742,17.68945],[76.21219,17.6899],[76.20027,17.68847],[76.18987,17.68238],[76.17647,17.68753],[76.16642,17.69286],[76.16631,17.70001],[76.14964,17.69902],[76.14734,17.70517],[76.14501,17.70867],[76.14991,17.71819],[76.16009,17.71469],[76.16646,17.71401],[76.1736,17.72278],[76.17563,17.72664],[76.17627,17.73108],[76.16201,17.73276],[76.15002,17.73281],[76.14824,17.73281],[76.14529,17.74423],[76.1455,17.75429],[76.13922,17.75594],[76.13486,17.75914],[76.13128,17.76415],[76.12237,17.76905],[76.12077,17.7652],[76.11873,17.76324],[76.11649,17.76581],[76.11614,17.76903],[76.11261,17.76713],[76.10813,17.76331],[76.10286,17.7612],[76.10004,17.76127],[76.10343,17.7676],[76.10309,17.77254],[76.09642,17.77866],[76.0838,17.77609],[76.06945,17.76989],[76.05618,17.76534],[76.02758,17.76591],[76.02146,17.76273],[76.01539,17.75815],[76.00905,17.75056],[76.00625,17.75013],[76.00308,17.75362],[76.00453,17.7693],[76.00719,17.7849],[76.01226,17.78724],[76.00947,17.80277],[76.01079,17.8062],[76.01693,17.81439],[76.01651,17.82307],[76.01847,17.82905],[76.01087,17.83072],[76.00012,17.83658],[75.98359,17.84201],[75.97803,17.84231],[75.97495,17.83816],[75.9748,17.83211],[75.97728,17.82494],[75.97653,17.81992],[75.96839,17.81876],[75.96002,17.83087],[75.95229,17.83751],[75.9463,17.84491],[75.94289,17.84566],[75.93972,17.85171],[75.93237,17.8506],[75.93038,17.84735],[75.92565,17.83341],[75.9195,17.83231],[75.91059,17.83482],[75.90004,17.8389],[75.88937,17.84476],[75.88075,17.84689],[75.87629,17.84603],[75.86499,17.85569],[75.85806,17.86387],[75.85612,17.87456],[75.84535,17.89193],[75.8445,17.90133],[75.8501,17.91327],[75.85148,17.91991],[75.85037,17.92377],[75.84735,17.92878],[75.84308,17.93003],[75.83881,17.92938],[75.83818,17.93894],[75.84022,17.95799],[75.84658,17.97825],[75.83946,17.97848],[75.84844,18.00036],[75.85211,18.00643],[75.85748,18.00974],[75.86444,18.01221],[75.86972,18.01321],[75.87677,18.01314],[75.88321,18.01111],[75.88641,18.0083],[75.89099,18.0066],[75.89633,18.00725],[75.89998,18.00662],[75.90725,18.00405],[75.90817,18.00024],[75.91073,17.99837],[75.9101,17.99231],[75.91103,17.98507],[75.91289,17.97833],[75.91835,17.97412],[75.92719,17.97288],[75.94066,17.97489],[75.95278,17.97906],[75.96109,17.97965],[75.96648,17.97695],[75.97153,17.9746],[75.97582,17.97061],[75.98384,17.97499],[75.98564,17.985],[75.98571,17.99004],[75.99121,17.99162],[75.99659,17.99252],[75.99841,17.99444],[76.00002,18.00001],[76.00183,18.00344],[76.00353,18.01697],[76.00728,18.02465],[76.01382,18.03389],[76.01623,18.03954],[76.012,18.0501],[76.00362,18.04903],[76.00142,18.05509],[76.00002,18.05518],[75.99812,18.05542],[75.99606,18.05685],[75.99442,18.0578],[75.99189,18.06171],[75.99134,18.06764],[75.99289,18.07065],[76.00002,18.07238],[75.99943,18.07411],[75.99862,18.07609],[75.99714,18.07819],[75.9965,18.08052],[75.99598,18.08283],[75.99551,18.08512],[75.99504,18.08734],[75.99453,18.08949],[75.99391,18.09155],[75.99289,18.09369],[75.99131,18.09461],[75.98935,18.09401],[75.98722,18.0932],[75.98511,18.0929],[75.98298,18.09259],[75.98083,18.09227],[75.97866,18.09195],[75.9765,18.09161],[75.97433,18.09126],[75.97217,18.09093],[75.97001,18.09059],[75.96788,18.09027],[75.96576,18.08999],[75.96368,18.08973],[75.96168,18.08971],[75.96039,18.09138],[75.96027,18.09324],[75.96006,18.09512],[75.95949,18.09697],[75.95881,18.09881],[75.95794,18.10054],[75.95674,18.10204],[75.9551,18.10325],[75.95325,18.10433],[75.95148,18.10548],[75.95007,18.10689],[75.94899,18.10853],[75.948,18.11025],[75.94709,18.11204],[75.94624,18.11388],[75.94542,18.11574],[75.94465,18.11764],[75.94389,18.11952],[75.94313,18.12141],[75.94234,18.12335],[75.94184,18.12539],[75.9423,18.12723],[75.94328,18.12898],[75.94453,18.13067],[75.94588,18.13234],[75.94718,18.13397],[75.94864,18.13546],[75.95006,18.13697],[75.95117,18.1387],[75.95204,18.14056],[75.95299,18.14238],[75.95433,18.14397],[75.95584,18.14545],[75.95676,18.14721],[75.95701,18.14925],[75.95745,18.15126],[75.95818,18.15318],[75.95898,18.1551],[75.95975,18.15701],[75.96041,18.15893],[75.96049,18.16094],[75.95983,18.16292],[75.95915,18.16489],[75.95842,18.16685],[75.9576,18.16875],[75.95666,18.17056],[75.95527,18.17204],[75.9534,18.17317],[75.952,18.17466],[75.95092,18.17641],[75.94997,18.17827],[75.94912,18.18018],[75.94834,18.1821],[75.94789,18.18413],[75.94787,18.18616],[75.94815,18.1882],[75.9485,18.19025],[75.94871,18.19228],[75.94868,18.19436],[75.94846,18.19647],[75.94792,18.19841],[75.94642,18.19973],[75.9447,18.201],[75.94343,18.20267],[75.94222,18.2044],[75.94113,18.2062],[75.94025,18.20805],[75.9396,18.20999],[75.9391,18.21208],[75.93885,18.2142],[75.93898,18.21623],[75.93957,18.21811],[75.94049,18.21989],[75.94161,18.22161],[75.94287,18.22332],[75.94416,18.22502],[75.94541,18.22674],[75.94653,18.22849],[75.94745,18.23036],[75.94808,18.23233],[75.94837,18.23436],[75.94842,18.23645],[75.94807,18.23846],[75.94734,18.24035],[75.94643,18.24221],[75.94538,18.24403],[75.94423,18.24577],[75.94297,18.24739],[75.94142,18.2488],[75.93972,18.25007],[75.93797,18.25123],[75.93611,18.25225],[75.93427,18.2533],[75.93259,18.25452],[75.93099,18.25591],[75.92948,18.2574],[75.92815,18.25898],[75.92729,18.26074],[75.92747,18.26283],[75.92797,18.2648],[75.92863,18.26676],[75.92927,18.26872],[75.92971,18.27067],[75.92977,18.27262],[75.92951,18.27458],[75.92905,18.27653],[75.92846,18.27848],[75.92784,18.28043],[75.92728,18.28238],[75.92685,18.28434],[75.92697,18.28633],[75.92733,18.28832],[75.92647,18.29008],[75.92555,18.29189],[75.92495,18.29384],[75.92455,18.29583],[75.92439,18.29783],[75.92438,18.29987],[75.92438,18.30228],[75.92023,18.30568],[75.91743,18.3106],[75.9116,18.31521],[75.90821,18.31901],[75.90457,18.32494],[75.90228,18.33595],[75.89625,18.34766],[75.889,18.35865],[75.88709,18.36358],[75.88365,18.36605],[75.87599,18.36755],[75.87185,18.36761],[75.86671,18.36521],[75.85627,18.36445],[75.85158,18.36457],[75.84291,18.3671],[75.83388,18.37394],[75.83055,18.37731],[75.82459,18.3806],[75.81651,18.38261],[75.80686,18.3836],[75.80229,18.38296],[75.79881,18.3841],[75.79531,18.39171],[75.78557,18.39522],[75.78249,18.40449],[75.77406,18.41182],[75.77171,18.41621],[75.7694,18.42392],[75.7695,18.432],[75.76609,18.4383],[75.76377,18.44],[75.7517,18.43609],[75.74574,18.43496],[75.74179,18.4357],[75.7285,18.43404],[75.72574,18.42978],[75.7212,18.41569],[75.71875,18.41149],[75.71756,18.40692],[75.7145,18.40295],[75.71326,18.39936],[75.70872,18.39603],[75.71133,18.39297],[75.71828,18.39111],[75.72272,18.39076],[75.72737,18.38904],[75.72801,18.38617],[75.7293,18.37905],[75.72918,18.36829],[75.73192,18.36052],[75.73025,18.3567],[75.72235,18.34867],[75.72024,18.3432],[75.72094,18.34074],[75.72018,18.3377],[75.71702,18.33878],[75.7079,18.33975],[75.70381,18.33866],[75.70126,18.33583],[75.69879,18.33001],[75.6966,18.32719],[75.68972,18.32424],[75.68678,18.32404],[75.6836,18.32512],[75.67603,18.32911],[75.66464,18.33039],[75.65548,18.33291],[75.65173,18.33049],[75.64916,18.32554],[75.64361,18.31805],[75.64236,18.31378],[75.63387,18.305],[75.63378,18.30237],[75.62998,18.29526],[75.62696,18.28739],[75.62178,18.28156],[75.61895,18.27432],[75.62364,18.27048],[75.62807,18.26859],[75.63354,18.2644],[75.63413,18.25723],[75.63288,18.24786],[75.6301,18.2452],[75.62516,18.24452],[75.61863,18.24563],[75.60536,18.24396],[75.59686,18.24555],[75.58666,18.24568],[75.57817,18.24303],[75.57484,18.24009],[75.569,18.22682],[75.56239,18.20806],[75.55983,18.20488],[75.55574,18.20338],[75.55458,18.20111],[75.5537,18.19699],[75.55359,18.1872],[75.55216,18.17668],[75.54699,18.16363],[75.55099,18.15012],[75.55087,18.14491],[75.54621,18.14062],[75.54129,18.13942],[75.53338,18.13441],[75.52472,18.13818],[75.52092,18.14172],[75.51575,18.15111],[75.51493,18.15405],[75.5116,18.15757],[75.50815,18.1595],[75.50492,18.16069],[75.50095,18.15947],[75.49299,18.1547],[75.49108,18.15638],[75.49109,18.17402],[75.48463,18.1761],[75.4812,18.17476],[75.4776,18.17457],[75.47473,18.17587],[75.47017,18.1746],[75.46805,18.17256],[75.4671,18.16759],[75.46752,18.16192],[75.46535,18.16125],[75.46376,18.16373],[75.45292,18.17153],[75.44492,18.17489],[75.43413,18.17547],[75.43025,18.17787],[75.42872,18.18069],[75.42924,18.18463],[75.4346,18.19968],[75.4366,18.20155],[75.43871,18.20812],[75.43049,18.21485],[75.42772,18.21952],[75.42879,18.2246],[75.42859,18.22971],[75.4278,18.23378],[75.42501,18.23771],[75.42433,18.24115],[75.42874,18.24493],[75.43255,18.25359],[75.43221,18.26162],[75.42898,18.264],[75.39696,18.26516],[75.39788,18.27975],[75.39881,18.28341],[75.39773,18.28868],[75.40029,18.29381],[75.40117,18.29747],[75.40042,18.30097],[75.39626,18.30491],[75.39418,18.30797],[75.39626,18.31185],[75.40441,18.31713],[75.40766,18.32402],[75.40637,18.32673],[75.40165,18.32913],[75.39889,18.32974],[75.38964,18.32886],[75.38726,18.33141],[75.38545,18.33693],[75.3802,18.3458],[75.37609,18.35014],[75.36779,18.35464],[75.36358,18.35972],[75.36262,18.36621],[75.36031,18.37002],[75.35265,18.37273],[75.34747,18.37771],[75.34407,18.37958],[75.33976,18.38077],[75.33786,18.38302],[75.33414,18.39051],[75.32768,18.38726],[75.3229,18.3955],[75.31883,18.39669],[75.31666,18.39654],[75.31147,18.39373],[75.30677,18.39218],[75.3036,18.39336],[75.30118,18.39705],[75.30036,18.40049],[75.29882,18.40239],[75.29061,18.405],[75.28649,18.40676],[75.2853,18.40798],[75.28545,18.4117],[75.30164,18.42928],[75.30379,18.43441],[75.2999,18.44241],[75.29988,18.44751],[75.29884,18.45204],[75.29893,18.45582],[75.30036,18.45999],[75.30045,18.46451],[75.30209,18.47297],[75.30298,18.48516],[75.29989,18.49476],[75.29956,18.4983],[75.3011,18.50321],[75.30915,18.50886],[75.31121,18.5113],[75.31203,18.5157],[75.3144,18.51854],[75.31712,18.52091],[75.33556,18.5249],[75.33549,18.53859],[75.34333,18.5534],[75.34586,18.56167],[75.36263,18.55502],[75.38033,18.55099],[75.3941,18.54625],[75.41498,18.53594],[75.4191,18.5331],[75.42255,18.53529],[75.42683,18.54298],[75.4309,18.54745],[75.43936,18.55234],[75.44451,18.56843],[75.45246,18.58873],[75.45607,18.59487],[75.46261,18.59376],[75.46526,18.60003],[75.46572,18.60398],[75.46785,18.60676],[75.4734,18.60784],[75.48192,18.61227],[75.4874,18.6196],[75.48841,18.62411],[75.49096,18.62614],[75.49648,18.62562],[75.50762,18.62177],[75.50959,18.62501],[75.51624,18.62837],[75.52584,18.63851],[75.53151,18.64067],[75.53771,18.64175],[75.54204,18.64112],[75.54812,18.64168],[75.55134,18.64399],[75.55413,18.65318],[75.55392,18.65593],[75.54421,18.65885],[75.54396,18.66423],[75.54468,18.66973],[75.54608,18.67583],[75.54866,18.68233],[75.5523,18.68418],[75.55694,18.68493],[75.57715,18.6856],[75.58884,18.6877],[75.58737,18.69706],[75.59243,18.69601],[75.60165,18.69253],[75.60838,18.6862],[75.61144,18.68173],[75.61452,18.67244],[75.61497,18.66881],[75.62119,18.66127],[75.63805,18.65379],[75.64736,18.64834],[75.65354,18.64696],[75.66183,18.64739],[75.66545,18.64827],[75.66643,18.64998],[75.66736,18.66262],[75.66602,18.66644],[75.66699,18.67241],[75.66896,18.67647],[75.67054,18.68387],[75.67053,18.6875],[75.67285,18.6904],[75.69016,18.69063],[75.69759,18.6887],[75.70598,18.68643],[75.70834,18.68278],[75.71301,18.68089],[75.71816,18.67957],[75.72516,18.67656],[75.73085,18.67535],[75.73467,18.67812],[75.73808,18.67682],[75.74307,18.67723],[75.74934,18.67872],[75.75272,18.68035],[75.76331,18.6762],[75.76784,18.67293],[75.76757,18.67063],[75.77393,18.66976],[75.77637,18.67284],[75.78167,18.66869],[75.78284,18.66201],[75.7933,18.65666],[75.79636,18.65581],[75.79759,18.65781],[75.79889,18.66603],[75.80138,18.67333],[75.81103,18.67367],[75.8137,18.67123],[75.82537,18.67056],[75.82764,18.66451],[75.83181,18.66617],[75.83559,18.6656],[75.83761,18.66329],[75.8464,18.65916],[75.8529,18.65901],[75.85883,18.66158],[75.86019,18.65949],[75.85888,18.65182],[75.86055,18.65037],[75.86276,18.64988],[75.87134,18.65246],[75.87489,18.65242],[75.87906,18.64903],[75.8831,18.64927],[75.88555,18.64848],[75.89439,18.64819],[75.9038,18.65019],[75.91613,18.6503],[75.91846,18.64947],[75.92072,18.64755],[75.92911,18.6452],[75.93862,18.64598],[75.94132,18.6452],[75.94537,18.64234],[75.94944,18.6369],[75.94976,18.63443],[75.94891,18.62917],[75.94597,18.62549],[75.94487,18.61983],[75.94566,18.61605],[75.94981,18.60845],[75.95284,18.60709],[75.95798,18.60716],[75.96147,18.60837],[75.97168,18.61438],[75.9939,18.62005],[75.99675,18.61871],[75.99879,18.61386],[75.99828,18.61064],[75.99661,18.60709],[75.98886,18.60144],[75.98646,18.59567],[75.99065,18.59038],[75.99699,18.58762],[76.00002,18.5853],[76.0061,18.58839],[76.00664,18.59329],[76.00474,18.60301],[76.00652,18.60547],[76.01027,18.60658],[76.02065,18.60443],[76.02824,18.60181],[76.03304,18.59719],[76.035,18.59345],[76.04323,18.58803],[76.046,18.5819],[76.04981,18.57611],[76.05173,18.57473],[76.05807,18.57341],[76.06977,18.5762],[76.07636,18.57594],[76.09874,18.58778],[76.10322,18.58775],[76.1162,18.58512],[76.1288,18.58652],[76.144,18.58341],[76.15138,18.58313],[76.15307,18.58224],[76.15614,18.57537],[76.15636,18.56864],[76.15897,18.55808],[76.16316,18.55926],[76.16613,18.56096],[76.16774,18.56349],[76.16779,18.5682],[76.16582,18.57673],[76.16647,18.58059],[76.17089,18.58504],[76.17687,18.58552],[76.18716,18.58509],[76.19904,18.58281],[76.19932,18.58016],[76.20268,18.57784],[76.21224,18.57822],[76.21651,18.57594],[76.22122,18.57556],[76.23472,18.57666],[76.239,18.5753],[76.25432,18.57684],[76.25462,18.56621],[76.25937,18.56376],[76.26884,18.56162],[76.27692,18.55697]]]}}]}