{"type":"FeatureCollection","features":[{"type":"Feature","properties":{"id":"ratnagiri","name":"Ratnagiri","stateId":"maharashtra","stateName":"Maharashtra","censuscode":528,"type":"district"},"geometry":{"type":"MultiPolygon","coordinates":[[[[73.21207,18.06001],[73.21723,18.05689],[73.22376,18.05426],[73.23644,18.05666],[73.24452,18.06053],[73.24929,18.06141],[73.25578,18.06394],[73.26038,18.06768],[73.26611,18.06933],[73.27781,18.06903],[73.28822,18.07012],[73.29698,18.05801],[73.29437,18.05435],[73.29277,18.05031],[73.29058,18.03388],[73.29775,18.02971],[73.3048,18.02329],[73.31209,18.0229],[73.31667,18.02677],[73.32351,18.0267],[73.33152,18.02265],[73.33456,18.01221],[73.33852,18.01205],[73.3438,18.01827],[73.34721,18.02458],[73.36015,18.01011],[73.36237,18.00494],[73.36077,18.00053],[73.35738,17.99293],[73.35491,17.99112],[73.34976,17.99024],[73.3453,17.98224],[73.3441,17.97189],[73.34512,17.96863],[73.35167,17.9587],[73.35721,17.95581],[73.36195,17.95479],[73.36277,17.95234],[73.36197,17.93872],[73.36524,17.93338],[73.37061,17.93226],[73.37743,17.91728],[73.37824,17.91173],[73.37258,17.90785],[73.37052,17.90557],[73.37006,17.89982],[73.37388,17.88794],[73.38103,17.8845],[73.39319,17.88184],[73.39854,17.8821],[73.40655,17.8843],[73.409,17.88537],[73.41097,17.88867],[73.41455,17.89034],[73.41654,17.89262],[73.41945,17.89381],[73.42198,17.89373],[73.42445,17.89635],[73.4244,17.89882],[73.42881,17.90371],[73.43144,17.90411],[73.43219,17.904],[73.43566,17.90355],[73.43829,17.90129],[73.44213,17.8827],[73.44203,17.87673],[73.4449,17.87385],[73.44524,17.87247],[73.44399,17.86575],[73.44136,17.8618],[73.44143,17.85881],[73.44312,17.85476],[73.44928,17.85033],[73.45233,17.85176],[73.45255,17.85532],[73.45874,17.85853],[73.4627,17.86502],[73.47632,17.86386],[73.49392,17.86455],[73.49693,17.85782],[73.49619,17.85258],[73.49983,17.85051],[73.50554,17.85078],[73.50869,17.85262],[73.51492,17.86006],[73.52199,17.86505],[73.52307,17.86811],[73.5221,17.87212],[73.52794,17.87835],[73.53477,17.88253],[73.53847,17.87714],[73.53957,17.87274],[73.54354,17.86809],[73.55085,17.86481],[73.55915,17.87085],[73.56643,17.87395],[73.5701,17.87677],[73.57467,17.87735],[73.57607,17.87664],[73.57698,17.8732],[73.57576,17.86521],[73.57694,17.85828],[73.58251,17.85383],[73.59194,17.84887],[73.5964,17.84774],[73.59386,17.84384],[73.58795,17.8398],[73.58592,17.83758],[73.58353,17.83278],[73.58277,17.82944],[73.58313,17.82681],[73.58806,17.82126],[73.59153,17.8189],[73.59504,17.81758],[73.59556,17.8037],[73.59738,17.79999],[73.60251,17.79473],[73.59949,17.79233],[73.59574,17.79061],[73.58623,17.78868],[73.58337,17.78732],[73.58445,17.78372],[73.58912,17.78103],[73.59079,17.77837],[73.59114,17.77516],[73.58879,17.76479],[73.58253,17.75539],[73.58187,17.75159],[73.57706,17.74463],[73.57288,17.73635],[73.57264,17.72883],[73.56634,17.72189],[73.56986,17.71914],[73.58077,17.71352],[73.57981,17.70983],[73.58074,17.70743],[73.58535,17.70481],[73.58754,17.70266],[73.59159,17.70128],[73.59384,17.69948],[73.6032,17.70325],[73.61047,17.70978],[73.61488,17.71261],[73.61915,17.71193],[73.62878,17.70296],[73.63525,17.69949],[73.63932,17.7003],[73.65373,17.70684],[73.65464,17.70294],[73.65669,17.69855],[73.65938,17.6955],[73.66283,17.69383],[73.66508,17.69552],[73.66714,17.69464],[73.66922,17.69186],[73.67449,17.68901],[73.6817,17.68763],[73.68885,17.68745],[73.69045,17.68529],[73.68157,17.68068],[73.68144,17.67752],[73.69205,17.67406],[73.69356,17.66863],[73.69574,17.66677],[73.69777,17.66313],[73.69665,17.66173],[73.69863,17.66079],[73.70188,17.66004],[73.70322,17.65799],[73.70175,17.65521],[73.69828,17.65159],[73.69812,17.64803],[73.6995,17.64674],[73.70108,17.64337],[73.70023,17.64038],[73.69525,17.63674],[73.69327,17.63413],[73.69229,17.62877],[73.6922,17.62723],[73.6969,17.62454],[73.70145,17.62495],[73.71555,17.62401],[73.72011,17.62305],[73.72309,17.62155],[73.72476,17.61962],[73.72541,17.61671],[73.72418,17.61421],[73.71717,17.60918],[73.71607,17.60687],[73.71784,17.60494],[73.72325,17.60192],[73.72448,17.59975],[73.72466,17.59557],[73.72935,17.59076],[73.72254,17.58463],[73.71744,17.57703],[73.71665,17.57375],[73.71912,17.5719],[73.74218,17.56042],[73.7468,17.55612],[73.7471,17.54889],[73.74163,17.53148],[73.73372,17.52412],[73.72975,17.522],[73.7249,17.52193],[73.72415,17.52031],[73.71719,17.51757],[73.70635,17.50655],[73.70604,17.50356],[73.70818,17.49682],[73.70776,17.4932],[73.70479,17.49127],[73.69628,17.48815],[73.69504,17.48641],[73.69919,17.48199],[73.69827,17.47917],[73.69945,17.47609],[73.7023,17.47407],[73.70765,17.46559],[73.70252,17.45622],[73.70174,17.45293],[73.70399,17.45055],[73.70664,17.44951],[73.70706,17.44131],[73.70548,17.4391],[73.70802,17.43345],[73.70507,17.4232],[73.70334,17.42185],[73.69772,17.4209],[73.69256,17.42152],[73.68808,17.42059],[73.68341,17.41695],[73.67881,17.41195],[73.67378,17.40435],[73.6695,17.3935],[73.66731,17.39238],[73.66201,17.39384],[73.66023,17.39353],[73.65647,17.38831],[73.65349,17.387],[73.65204,17.38859],[73.6495,17.39418],[73.64811,17.39467],[73.64639,17.39378],[73.64439,17.39117],[73.64449,17.38847],[73.64661,17.3834],[73.64914,17.38171],[73.65434,17.38294],[73.65819,17.37766],[73.66127,17.3761],[73.66408,17.3797],[73.6701,17.37308],[73.67379,17.37084],[73.68214,17.36339],[73.68383,17.35515],[73.68704,17.34837],[73.68704,17.3451],[73.68376,17.338],[73.68271,17.33534],[73.68063,17.32664],[73.684,17.32153],[73.68645,17.3137],[73.68562,17.30794],[73.68038,17.29708],[73.67737,17.29519],[73.67782,17.29319],[73.68512,17.29238],[73.68657,17.2916],[73.68863,17.28864],[73.68991,17.28522],[73.68754,17.28244],[73.68761,17.28095],[73.69248,17.26564],[73.69537,17.26282],[73.69616,17.26256],[73.6971,17.25957],[73.69735,17.25223],[73.69487,17.24828],[73.6932,17.24344],[73.69391,17.23759],[73.69557,17.23572],[73.69842,17.22894],[73.70259,17.22618],[73.7085,17.22426],[73.71704,17.20935],[73.71862,17.20231],[73.71762,17.20007],[73.71272,17.19666],[73.70728,17.18706],[73.70286,17.18389],[73.70214,17.18165],[73.69819,17.18188],[73.69389,17.17853],[73.69812,17.1786],[73.70095,17.17761],[73.70932,17.16965],[73.70928,17.16729],[73.70229,17.16294],[73.68946,17.15832],[73.69005,17.15041],[73.69162,17.14338],[73.69421,17.13872],[73.69744,17.13854],[73.70306,17.14012],[73.71057,17.1404],[73.71846,17.13237],[73.72366,17.12843],[73.72942,17.1269],[73.73945,17.1216],[73.74362,17.12446],[73.74689,17.13128],[73.75128,17.12853],[73.75947,17.12131],[73.76313,17.11751],[73.76884,17.10876],[73.78132,17.10763],[73.78871,17.0931],[73.79329,17.09471],[73.79629,17.09441],[73.80765,17.08562],[73.80777,17.08149],[73.80532,17.07211],[73.80392,17.06164],[73.81728,17.0635],[73.82363,17.06152],[73.8346,17.05387],[73.82309,17.03793],[73.82865,17.03325],[73.83432,17.02577],[73.83378,17.02197],[73.82766,17.01277],[73.83198,17.00911],[73.83535,17.0004],[73.83391,16.99063],[73.8318,16.98915],[73.82912,16.99008],[73.82331,16.98936],[73.81726,16.98722],[73.80801,16.98956],[73.80101,16.9904],[73.79654,16.99267],[73.78775,16.99277],[73.78546,16.99123],[73.78662,16.98547],[73.77829,16.97472],[73.77345,16.974],[73.76725,16.96714],[73.76585,16.9626],[73.76857,16.95886],[73.77618,16.95273],[73.77824,16.9479],[73.78223,16.94467],[73.7836,16.94512],[73.78985,16.94135],[73.79557,16.93018],[73.79519,16.92645],[73.79205,16.92136],[73.79375,16.91566],[73.79312,16.9121],[73.79035,16.90787],[73.78825,16.90673],[73.78093,16.90918],[73.77646,16.90914],[73.77156,16.90779],[73.76782,16.90844],[73.76412,16.90805],[73.76117,16.90387],[73.7578,16.90647],[73.75589,16.90689],[73.75434,16.90672],[73.7526,16.90512],[73.74848,16.90486],[73.74451,16.91665],[73.73955,16.91265],[73.74037,16.90851],[73.73902,16.89737],[73.74088,16.89765],[73.74753,16.90175],[73.7489,16.90157],[73.75013,16.89899],[73.75087,16.89456],[73.74879,16.88256],[73.7622,16.87342],[73.76784,16.87042],[73.76865,16.86679],[73.76791,16.86232],[73.764,16.85998],[73.76845,16.85617],[73.76927,16.8541],[73.7661,16.85187],[73.76644,16.84894],[73.76065,16.84231],[73.7523,16.83437],[73.73779,16.84368],[73.73459,16.8383],[73.73259,16.83251],[73.73027,16.83424],[73.72811,16.83264],[73.7248,16.83703],[73.71869,16.83533],[73.71221,16.8299],[73.71351,16.82651],[73.71529,16.82552],[73.71815,16.8254],[73.73048,16.82052],[73.72937,16.81621],[73.73421,16.81625],[73.73788,16.82065],[73.74325,16.81792],[73.74777,16.81687],[73.75288,16.81294],[73.75242,16.80634],[73.75307,16.80536],[73.75641,16.80569],[73.76063,16.8028],[73.7615,16.79866],[73.75927,16.78564],[73.75712,16.78512],[73.75671,16.78116],[73.75682,16.78013],[73.75955,16.77908],[73.76103,16.77712],[73.76212,16.77011],[73.76989,16.77168],[73.77824,16.781],[73.78058,16.78237],[73.78589,16.7739],[73.78753,16.76769],[73.79173,16.76279],[73.79452,16.76145],[73.80132,16.76072],[73.80414,16.76415],[73.80767,16.76586],[73.8137,16.76612],[73.81912,16.765],[73.82343,16.75895],[73.82807,16.75548],[73.83077,16.74972],[73.83231,16.74822],[73.83481,16.74728],[73.83348,16.74511],[73.83311,16.74259],[73.83702,16.73998],[73.84108,16.73881],[73.84118,16.73628],[73.83901,16.73291],[73.83253,16.72795],[73.82803,16.71442],[73.82452,16.7165],[73.82094,16.71589],[73.81699,16.7139],[73.81345,16.71001],[73.81331,16.70657],[73.81612,16.70764],[73.82011,16.70647],[73.82171,16.70561],[73.82305,16.70123],[73.82543,16.70151],[73.82631,16.69863],[73.82743,16.69748],[73.83738,16.69369],[73.84339,16.69292],[73.84761,16.69134],[73.85563,16.68659],[73.8606,16.68059],[73.86075,16.67755],[73.85345,16.67328],[73.8547,16.67236],[73.85965,16.67296],[73.86482,16.67161],[73.86601,16.66994],[73.86504,16.66776],[73.86203,16.66479],[73.86316,16.66433],[73.85891,16.66073],[73.85609,16.65943],[73.85833,16.65431],[73.85712,16.65184],[73.85497,16.65162],[73.85401,16.65019],[73.84834,16.65022],[73.84568,16.65219],[73.84234,16.65261],[73.83391,16.64812],[73.82349,16.65185],[73.81481,16.65321],[73.81045,16.65462],[73.80262,16.65953],[73.79565,16.66089],[73.78814,16.65966],[73.78337,16.65974],[73.78058,16.66165],[73.77278,16.66267],[73.76817,16.65976],[73.76653,16.64559],[73.76728,16.643],[73.77166,16.63718],[73.77348,16.63252],[73.77498,16.62453],[73.77194,16.62495],[73.77102,16.62139],[73.76831,16.61715],[73.76769,16.61285],[73.7681,16.60338],[73.76565,16.60154],[73.75999,16.60032],[73.75558,16.60096],[73.74485,16.60033],[73.7402,16.6015],[73.73515,16.60433],[73.72508,16.60335],[73.7192,16.60706],[73.7188,16.6105],[73.7151,16.6104],[73.71059,16.6114],[73.70774,16.61434],[73.70275,16.6255],[73.68973,16.6239],[73.6881,16.61816],[73.68593,16.61438],[73.6775,16.61011],[73.67677,16.59857],[73.67099,16.58746],[73.66396,16.58835],[73.66745,16.58329],[73.66259,16.57819],[73.66145,16.5759],[73.65436,16.57593],[73.64995,16.57491],[73.64868,16.57326],[73.64966,16.56647],[73.64851,16.56453],[73.64374,16.56254],[73.63933,16.56268],[73.6375,16.56486],[73.63518,16.5763],[73.63311,16.5797],[73.62359,16.58266],[73.62162,16.58107],[73.62053,16.5778],[73.61466,16.57374],[73.61363,16.56031],[73.6123,16.5559],[73.61038,16.55263],[73.60576,16.54829],[73.59609,16.54247],[73.59127,16.54323],[73.58119,16.54338],[73.57689,16.54082],[73.57311,16.53567],[73.57148,16.53148],[73.55482,16.5239],[73.55255,16.52122],[73.54293,16.51522],[73.54102,16.51489],[73.52665,16.52384],[73.52224,16.52408],[73.51962,16.52329],[73.51363,16.51556],[73.50102,16.52031],[73.49499,16.5185],[73.48871,16.51455],[73.48573,16.51101],[73.48284,16.50636],[73.48043,16.49914],[73.47541,16.49571],[73.47123,16.49475],[73.47015,16.49478],[73.46944,16.49427],[73.46531,16.49328],[73.46274,16.49361],[73.45533,16.49454],[73.44563,16.49729],[73.4363,16.50004],[73.42908,16.50588],[73.42427,16.50964],[73.42033,16.51162],[73.41684,16.51252],[73.412,16.51076],[73.4079,16.50942],[73.40452,16.50848],[73.39803,16.50884],[73.38879,16.51012],[73.3807,16.51149],[73.37532,16.51228],[73.37061,16.51457],[73.36554,16.5161],[73.36234,16.51849],[73.36107,16.52011],[73.35801,16.52224],[73.35244,16.52937],[73.34735,16.54076],[73.34112,16.56059],[73.34597,16.56757],[73.34634,16.57231],[73.34421,16.57455],[73.33373,16.57663],[73.33011,16.5783],[73.32778,16.58039],[73.326,16.58282],[73.32274,16.58932],[73.32244,16.58925],[73.32262,16.58957],[73.32132,16.59356],[73.31997,16.59947],[73.32424,16.6034],[73.33131,16.60329],[73.33556,16.60132],[73.34526,16.5956],[73.35096,16.59163],[73.35496,16.591],[73.35601,16.59159],[73.35611,16.59307],[73.35439,16.5971],[73.34375,16.60189],[73.34293,16.60776],[73.34337,16.60981],[73.34525,16.61051],[73.35467,16.60892],[73.35604,16.61045],[73.35787,16.61433],[73.35823,16.61617],[73.36561,16.6235],[73.36776,16.62467],[73.36941,16.6238],[73.3788,16.61106],[73.37901,16.60569],[73.37848,16.60184],[73.37906,16.59433],[73.39195,16.58892],[73.40197,16.58565],[73.40313,16.58636],[73.4031,16.58772],[73.40097,16.59039],[73.39048,16.59447],[73.38607,16.59693],[73.38545,16.59874],[73.38562,16.60281],[73.38802,16.60558],[73.38841,16.60979],[73.38982,16.61216],[73.3919,16.61334],[73.3976,16.61419],[73.39903,16.61514],[73.39883,16.61955],[73.39237,16.62668],[73.3828,16.62886],[73.3794,16.62964],[73.37004,16.63615],[73.3662,16.63461],[73.3587,16.62659],[73.35306,16.62059],[73.34396,16.61614],[73.33549,16.61919],[73.33555,16.6228],[73.34192,16.62629],[73.34186,16.63148],[73.33518,16.63592],[73.32607,16.63484],[73.32417,16.63574],[73.32481,16.63898],[73.327,16.64051],[73.3308,16.64511],[73.33207,16.64784],[73.33098,16.66248],[73.33084,16.66434],[73.32924,16.66838],[73.32804,16.67017],[73.32747,16.67536],[73.32859,16.67832],[73.33057,16.68017],[73.33325,16.68067],[73.34114,16.67954],[73.34265,16.68037],[73.34565,16.68379],[73.34542,16.69057],[73.34504,16.69125],[73.34387,16.69101],[73.33973,16.68643],[73.33227,16.68787],[73.3307,16.68766],[73.32843,16.68804],[73.32253,16.6909],[73.31577,16.70821],[73.31176,16.71625],[73.31176,16.71625],[73.31015,16.72178],[73.30436,16.74283],[73.30264,16.75434],[73.30356,16.7634],[73.30883,16.7757],[73.31479,16.78418],[73.31764,16.79709],[73.31638,16.8012],[73.3148,16.80461],[73.31196,16.80573],[73.30543,16.81024],[73.30035,16.8184],[73.29928,16.8202],[73.29767,16.82277],[73.29349,16.83428],[73.29424,16.858],[73.29511,16.86321],[73.29255,16.87424],[73.2928,16.88316],[73.29412,16.88549],[73.29775,16.88729],[73.29915,16.88757],[73.30195,16.88842],[73.31272,16.88559],[73.31374,16.88591],[73.31526,16.88651],[73.31535,16.88798],[73.30628,16.89483],[73.29904,16.89374],[73.28616,16.89178],[73.28236,16.89307],[73.28268,16.89753],[73.28588,16.90869],[73.28888,16.92237],[73.2889,16.92464],[73.2898,16.92601],[73.28934,16.93171],[73.28998,16.93245],[73.28833,16.94067],[73.28498,16.94491],[73.2848,16.94831],[73.29045,16.95437],[73.29387,16.96609],[73.29468,16.97493],[73.2962,16.97494],[73.30169,16.96984],[73.30434,16.96582],[73.30536,16.96341],[73.30779,16.95683],[73.31106,16.95447],[73.3122,16.95381],[73.31327,16.95332],[73.32005,16.955],[73.32797,16.95069],[73.32871,16.9503],[73.33129,16.94988],[73.33213,16.95],[73.33371,16.96789],[73.33298,16.96856],[73.33122,16.96807],[73.32605,16.96211],[73.32465,16.96141],[73.31993,16.96179],[73.31328,16.96529],[73.31524,16.97472],[73.31566,16.97799],[73.31339,16.97965],[73.31235,16.97906],[73.31195,16.97478],[73.31112,16.97398],[73.30728,16.97334],[73.30632,16.97377],[73.30575,16.97964],[73.30504,16.98031],[73.29982,16.98246],[73.29628,16.98355],[73.29319,16.98464],[73.28654,16.98901],[73.28345,16.99102],[73.28112,16.99029],[73.27613,16.98488],[73.27487,16.98454],[73.27274,16.98496],[73.27155,16.99261],[73.27204,16.99349],[73.27248,16.99405],[73.27443,16.99586],[73.27964,16.99939],[73.28289,17.0008],[73.28421,17.00234],[73.28269,17.01112],[73.28209,17.01361],[73.28013,17.01787],[73.27537,17.02254],[73.27348,17.02206],[73.26515,17.01649],[73.26063,17.018],[73.25992,17.01934],[73.25902,17.02426],[73.25897,17.02552],[73.25939,17.02875],[73.26017,17.03081],[73.26015,17.03426],[73.25875,17.04181],[73.25788,17.04644],[73.2581,17.04734],[73.25949,17.04826],[73.26362,17.04902],[73.26502,17.04904],[73.26714,17.04795],[73.27292,17.0427],[73.27575,17.0402],[73.27879,17.03942],[73.28046,17.0397],[73.28191,17.04148],[73.28763,17.04755],[73.28864,17.05269],[73.29406,17.05568],[73.29248,17.06025],[73.29177,17.06359],[73.29169,17.07053],[73.29286,17.07078],[73.29541,17.07241],[73.29616,17.07107],[73.29925,17.0684],[73.30156,17.06778],[73.30233,17.06756],[73.31209,17.07361],[73.3122,17.0743],[73.31239,17.07678],[73.31203,17.07745],[73.30989,17.07807],[73.30936,17.078],[73.30028,17.07657],[73.29755,17.07706],[73.29294,17.08006],[73.2914,17.08564],[73.29032,17.0896],[73.28963,17.09002],[73.28948,17.09059],[73.28819,17.09558],[73.28737,17.10145],[73.28711,17.10195],[73.28248,17.11132],[73.2808,17.11287],[73.27823,17.1126],[73.27659,17.11211],[73.27139,17.1143],[73.27252,17.1159],[73.27363,17.11967],[73.27367,17.12129],[73.27366,17.12237],[73.27317,17.12652],[73.27116,17.13327],[73.27069,17.13303],[73.2698,17.13575],[73.2694,17.14638],[73.27544,17.15098],[73.27748,17.1542],[73.27747,17.15534],[73.27675,17.15623],[73.2717,17.15534],[73.26685,17.15764],[73.2627,17.16524],[73.25861,17.18213],[73.25457,17.18541],[73.25003,17.18901],[73.2391,17.19424],[73.23895,17.19603],[73.23887,17.2001],[73.24811,17.19964],[73.24911,17.19961],[73.24946,17.20028],[73.24895,17.21971],[73.24732,17.22196],[73.24301,17.22544],[73.24013,17.22677],[73.23777,17.22926],[73.23003,17.24564],[73.22846,17.24899],[73.2266,17.25937],[73.21973,17.27507],[73.21565,17.27863],[73.21287,17.27721],[73.21072,17.27209],[73.20751,17.2735],[73.20387,17.28024],[73.20153,17.29307],[73.18986,17.29943],[73.18956,17.30259],[73.19679,17.3061],[73.20013,17.3039],[73.2063,17.30153],[73.22089,17.30335],[73.22232,17.30226],[73.23179,17.29841],[73.24334,17.31076],[73.24534,17.31387],[73.24585,17.31487],[73.24605,17.31715],[73.24294,17.31981],[73.24226,17.31984],[73.23915,17.31997],[73.23083,17.32205],[73.22591,17.32433],[73.22543,17.32448],[73.22374,17.32693],[73.22321,17.3294],[73.22366,17.33123],[73.2302,17.33339],[73.23113,17.33453],[73.23112,17.33522],[73.22201,17.34402],[73.22151,17.34454],[73.22067,17.34634],[73.22011,17.35106],[73.22547,17.35332],[73.22626,17.35613],[73.22506,17.35726],[73.21909,17.35934],[73.21746,17.36073],[73.2193,17.36913],[73.2194,17.36982],[73.21913,17.3714],[73.21688,17.37152],[73.21548,17.37083],[73.21445,17.37088],[73.21229,17.3722],[73.21215,17.38033],[73.20588,17.38746],[73.19791,17.38986],[73.19724,17.38999],[73.19431,17.38927],[73.19105,17.38571],[73.18805,17.38374],[73.18081,17.38692],[73.17974,17.38745],[73.17782,17.389],[73.17067,17.39923],[73.1686,17.40374],[73.16843,17.40601],[73.16926,17.40628],[73.17089,17.40672],[73.17476,17.40645],[73.17667,17.40582],[73.18691,17.41096],[73.18761,17.41132],[73.18857,17.41359],[73.19,17.41936],[73.19005,17.42276],[73.19085,17.4236],[73.19021,17.43172],[73.19275,17.43561],[73.19514,17.43609],[73.19638,17.43608],[73.20229,17.43566],[73.20448,17.43853],[73.20446,17.43942],[73.1973,17.44338],[73.19624,17.44369],[73.19134,17.44475],[73.1902,17.44507],[73.18853,17.4464],[73.18747,17.45315],[73.19198,17.45485],[73.19354,17.4562],[73.19451,17.46075],[73.19458,17.46392],[73.18703,17.48818],[73.18361,17.50811],[73.18288,17.50884],[73.1826,17.51034],[73.17732,17.51695],[73.17654,17.51922],[73.16789,17.52593],[73.1607,17.53148],[73.15883,17.53291],[73.15306,17.53869],[73.14942,17.54294],[73.14462,17.54915],[73.14129,17.55655],[73.14288,17.56609],[73.1501,17.57096],[73.15232,17.57226],[73.15606,17.57346],[73.15554,17.5777],[73.1601,17.59083],[73.15293,17.59589],[73.14889,17.60006],[73.14546,17.60388],[73.14499,17.60367],[73.14045,17.61916],[73.13376,17.63418],[73.13206,17.6364],[73.13049,17.63979],[73.1308,17.64274],[73.13861,17.64153],[73.13806,17.64512],[73.13418,17.65219],[73.13098,17.65813],[73.12371,17.66726],[73.12126,17.67241],[73.12001,17.67633],[73.11836,17.68164],[73.11704,17.68954],[73.11706,17.69227],[73.11709,17.69315],[73.12102,17.69683],[73.12418,17.69812],[73.13271,17.70248],[73.13643,17.70537],[73.13726,17.70516],[73.13932,17.70915],[73.13817,17.71797],[73.13808,17.71864],[73.11202,17.78133],[73.11104,17.78366],[73.10859,17.78954],[73.09772,17.80831],[73.09623,17.82279],[73.09341,17.83182],[73.0932,17.83265],[73.09329,17.83447],[73.09776,17.83659],[73.10573,17.83309],[73.11104,17.83148],[73.11561,17.83077],[73.12471,17.83092],[73.13024,17.83134],[73.12508,17.83336],[73.11598,17.83626],[73.11089,17.83909],[73.1103,17.83991],[73.10209,17.84458],[73.09808,17.84381],[73.09213,17.83873],[73.08346,17.85531],[73.07592,17.87778],[73.07551,17.88614],[73.07944,17.89028],[73.0803,17.89436],[73.07861,17.89568],[73.07531,17.89562],[73.06955,17.88931],[73.06861,17.88831],[73.06697,17.88756],[73.06343,17.88819],[73.05597,17.89344],[73.05458,17.90575],[73.05596,17.90734],[73.0572,17.91019],[73.05531,17.91813],[73.04763,17.92277],[73.04485,17.92987],[73.03943,17.93208],[73.03642,17.93375],[73.03363,17.93646],[73.03179,17.94499],[73.02846,17.9637],[73.02916,17.96936],[73.03633,17.97629],[73.04121,17.97943],[73.05043,17.98293],[73.06937,17.98683],[73.07803,17.98674],[73.0831,17.98705],[73.09562,17.98524],[73.10406,17.98102],[73.10929,17.97869],[73.11471,17.97854],[73.1156,17.97849],[73.11835,17.98103],[73.12093,17.98522],[73.12313,17.99421],[73.12599,17.99917],[73.12651,18.0001],[73.12884,18.00571],[73.13457,18.0156],[73.14536,18.01684],[73.15021,18.02169],[73.15195,18.02511],[73.15206,18.02919],[73.15401,18.03697],[73.15744,18.04163],[73.16445,18.04658],[73.16719,18.0495],[73.17381,18.05851],[73.17763,18.06042],[73.18307,18.05954],[73.18968,18.05662],[73.19342,18.05864],[73.20082,18.06777],[73.20489,18.06854],[73.20788,18.06623],[73.21207,18.06001]]],[[[73.38701,16.61594],[73.38541,16.61585],[73.38423,16.61595],[73.38349,16.61602],[73.38241,16.6174],[73.38248,16.61944],[73.38407,16.62126],[73.38539,16.62154],[73.38604,16.62167],[73.38844,16.62007],[73.38847,16.61805],[73.38701,16.61594]]]]}}]}