{"type":"FeatureCollection","features":[{"type":"Feature","properties":{"id":"solapur","name":"Solapur","stateId":"maharashtra","stateName":"Maharashtra","censuscode":526,"type":"district"},"geometry":{"type":"Polygon","coordinates":[[[75.3144,18.51854],[75.31203,18.5157],[75.31121,18.5113],[75.30915,18.50886],[75.3011,18.50321],[75.29956,18.4983],[75.29989,18.49476],[75.30298,18.48516],[75.30209,18.47297],[75.30045,18.46451],[75.30036,18.45999],[75.29893,18.45582],[75.29884,18.45204],[75.29988,18.44751],[75.2999,18.44241],[75.30379,18.43441],[75.30164,18.42928],[75.28545,18.4117],[75.2853,18.40798],[75.28649,18.40676],[75.29061,18.405],[75.29882,18.40239],[75.30036,18.40049],[75.30118,18.39705],[75.3036,18.39336],[75.30677,18.39218],[75.31147,18.39373],[75.31666,18.39654],[75.31883,18.39669],[75.3229,18.3955],[75.32768,18.38726],[75.33414,18.39051],[75.33786,18.38302],[75.33976,18.38077],[75.34407,18.37958],[75.34747,18.37771],[75.35265,18.37273],[75.36031,18.37002],[75.36262,18.36621],[75.36358,18.35972],[75.36779,18.35464],[75.37609,18.35014],[75.3802,18.3458],[75.38545,18.33693],[75.38726,18.33141],[75.38964,18.32886],[75.39889,18.32974],[75.40165,18.32913],[75.40637,18.32673],[75.40766,18.32402],[75.40441,18.31713],[75.39626,18.31185],[75.39418,18.30797],[75.39626,18.30491],[75.40042,18.30097],[75.40117,18.29747],[75.40029,18.29381],[75.39773,18.28868],[75.39881,18.28341],[75.39788,18.27975],[75.39696,18.26516],[75.42898,18.264],[75.43221,18.26162],[75.43255,18.25359],[75.42874,18.24493],[75.42433,18.24115],[75.42501,18.23771],[75.4278,18.23378],[75.42859,18.22971],[75.42879,18.2246],[75.42772,18.21952],[75.43049,18.21485],[75.43871,18.20812],[75.4366,18.20155],[75.4346,18.19968],[75.42924,18.18463],[75.42872,18.18069],[75.43025,18.17787],[75.43413,18.17547],[75.44492,18.17489],[75.45292,18.17153],[75.46376,18.16373],[75.46535,18.16125],[75.46752,18.16192],[75.4671,18.16759],[75.46805,18.17256],[75.47017,18.1746],[75.47473,18.17587],[75.4776,18.17457],[75.4812,18.17476],[75.48463,18.1761],[75.49109,18.17402],[75.49108,18.15638],[75.49299,18.1547],[75.50095,18.15947],[75.50492,18.16069],[75.50815,18.1595],[75.5116,18.15757],[75.51493,18.15405],[75.51575,18.15111],[75.52092,18.14172],[75.52472,18.13818],[75.53338,18.13441],[75.54129,18.13942],[75.54621,18.14062],[75.55087,18.14491],[75.55099,18.15012],[75.54699,18.16363],[75.55216,18.17668],[75.55359,18.1872],[75.5537,18.19699],[75.55458,18.20111],[75.55574,18.20338],[75.55983,18.20488],[75.56239,18.20806],[75.569,18.22682],[75.57484,18.24009],[75.57817,18.24303],[75.58666,18.24568],[75.59686,18.24555],[75.60536,18.24396],[75.61863,18.24563],[75.62516,18.24452],[75.6301,18.2452],[75.63288,18.24786],[75.63413,18.25723],[75.63354,18.2644],[75.62807,18.26859],[75.62364,18.27048],[75.61895,18.27432],[75.62178,18.28156],[75.62696,18.28739],[75.62998,18.29526],[75.63378,18.30237],[75.63387,18.305],[75.64236,18.31378],[75.64361,18.31805],[75.64916,18.32554],[75.65173,18.33049],[75.65548,18.33291],[75.66464,18.33039],[75.67603,18.32911],[75.6836,18.32512],[75.68678,18.32404],[75.68972,18.32424],[75.6966,18.32719],[75.69879,18.33001],[75.70126,18.33583],[75.70381,18.33866],[75.7079,18.33975],[75.71702,18.33878],[75.72018,18.3377],[75.72094,18.34074],[75.72024,18.3432],[75.72235,18.34867],[75.73025,18.3567],[75.73192,18.36052],[75.72918,18.36829],[75.7293,18.37905],[75.72801,18.38617],[75.72737,18.38904],[75.72272,18.39076],[75.71828,18.39111],[75.71133,18.39297],[75.70872,18.39603],[75.71326,18.39936],[75.7145,18.40295],[75.71756,18.40692],[75.71875,18.41149],[75.7212,18.41569],[75.72574,18.42978],[75.7285,18.43404],[75.74179,18.4357],[75.74574,18.43496],[75.7517,18.43609],[75.76377,18.44],[75.76609,18.4383],[75.7695,18.432],[75.7694,18.42392],[75.77171,18.41621],[75.77406,18.41182],[75.78249,18.40449],[75.78557,18.39522],[75.79531,18.39171],[75.79881,18.3841],[75.80229,18.38296],[75.80686,18.3836],[75.81651,18.38261],[75.82459,18.3806],[75.83055,18.37731],[75.83388,18.37394],[75.84291,18.3671],[75.85158,18.36457],[75.85627,18.36445],[75.86671,18.36521],[75.87185,18.36761],[75.87599,18.36755],[75.88365,18.36605],[75.88709,18.36358],[75.889,18.35865],[75.89625,18.34766],[75.90228,18.33595],[75.90457,18.32494],[75.90821,18.31901],[75.9116,18.31521],[75.91743,18.3106],[75.92023,18.30568],[75.92438,18.30228],[75.92438,18.29987],[75.92439,18.29783],[75.92455,18.29583],[75.92495,18.29384],[75.92555,18.29189],[75.92647,18.29008],[75.92733,18.28832],[75.92697,18.28633],[75.92685,18.28434],[75.92728,18.28238],[75.92784,18.28043],[75.92846,18.27848],[75.92905,18.27653],[75.92951,18.27458],[75.92977,18.27262],[75.92971,18.27067],[75.92927,18.26872],[75.92863,18.26676],[75.92797,18.2648],[75.92747,18.26283],[75.92729,18.26074],[75.92815,18.25898],[75.92948,18.2574],[75.93099,18.25591],[75.93259,18.25452],[75.93427,18.2533],[75.93611,18.25225],[75.93797,18.25123],[75.93972,18.25007],[75.94142,18.2488],[75.94297,18.24739],[75.94423,18.24577],[75.94538,18.24403],[75.94643,18.24221],[75.94734,18.24035],[75.94807,18.23846],[75.94842,18.23645],[75.94837,18.23436],[75.94808,18.23233],[75.94745,18.23036],[75.94653,18.22849],[75.94541,18.22674],[75.94416,18.22502],[75.94287,18.22332],[75.94161,18.22161],[75.94049,18.21989],[75.93957,18.21811],[75.93898,18.21623],[75.93885,18.2142],[75.9391,18.21208],[75.9396,18.20999],[75.94025,18.20805],[75.94113,18.2062],[75.94222,18.2044],[75.94343,18.20267],[75.9447,18.201],[75.94642,18.19973],[75.94792,18.19841],[75.94846,18.19647],[75.94868,18.19436],[75.94871,18.19228],[75.9485,18.19025],[75.94815,18.1882],[75.94787,18.18616],[75.94789,18.18413],[75.94834,18.1821],[75.94912,18.18018],[75.94997,18.17827],[75.95092,18.17641],[75.952,18.17466],[75.9534,18.17317],[75.95527,18.17204],[75.95666,18.17056],[75.9576,18.16875],[75.95842,18.16685],[75.95915,18.16489],[75.95983,18.16292],[75.96049,18.16094],[75.96041,18.15893],[75.95975,18.15701],[75.95898,18.1551],[75.95818,18.15318],[75.95745,18.15126],[75.95701,18.14925],[75.95676,18.14721],[75.95584,18.14545],[75.95433,18.14397],[75.95299,18.14238],[75.95204,18.14056],[75.95117,18.1387],[75.95006,18.13697],[75.94864,18.13546],[75.94718,18.13397],[75.94588,18.13234],[75.94453,18.13067],[75.94328,18.12898],[75.9423,18.12723],[75.94184,18.12539],[75.94234,18.12335],[75.94313,18.12141],[75.94389,18.11952],[75.94465,18.11764],[75.94542,18.11574],[75.94624,18.11388],[75.94709,18.11204],[75.948,18.11025],[75.94899,18.10853],[75.95007,18.10689],[75.95148,18.10548],[75.95325,18.10433],[75.9551,18.10325],[75.95674,18.10204],[75.95794,18.10054],[75.95881,18.09881],[75.95949,18.09697],[75.96006,18.09512],[75.96027,18.09324],[75.96039,18.09138],[75.96168,18.08971],[75.96368,18.08973],[75.96576,18.08999],[75.96788,18.09027],[75.97001,18.09059],[75.97217,18.09093],[75.97433,18.09126],[75.9765,18.09161],[75.97866,18.09195],[75.98083,18.09227],[75.98298,18.09259],[75.98511,18.0929],[75.98722,18.0932],[75.98935,18.09401],[75.99131,18.09461],[75.99289,18.09369],[75.99391,18.09155],[75.99453,18.08949],[75.99504,18.08734],[75.99551,18.08512],[75.99598,18.08283],[75.9965,18.08052],[75.99714,18.07819],[75.99862,18.07609],[75.99943,18.07411],[76.00002,18.07238],[75.99289,18.07065],[75.99134,18.06764],[75.99189,18.06171],[75.99442,18.0578],[75.99606,18.05685],[75.99812,18.05542],[76.00002,18.05518],[76.00142,18.05509],[76.00362,18.04903],[76.012,18.0501],[76.01623,18.03954],[76.01382,18.03389],[76.00728,18.02465],[76.00353,18.01697],[76.00183,18.00344],[76.00002,18.00001],[75.99841,17.99444],[75.99659,17.99252],[75.99121,17.99162],[75.98571,17.99004],[75.98564,17.985],[75.98384,17.97499],[75.97582,17.97061],[75.97153,17.9746],[75.96648,17.97695],[75.96109,17.97965],[75.95278,17.97906],[75.94066,17.97489],[75.92719,17.97288],[75.91835,17.97412],[75.91289,17.97833],[75.91103,17.98507],[75.9101,17.99231],[75.91073,17.99837],[75.90817,18.00024],[75.90725,18.00405],[75.89998,18.00662],[75.89633,18.00725],[75.89099,18.0066],[75.88641,18.0083],[75.88321,18.01111],[75.87677,18.01314],[75.86972,18.01321],[75.86444,18.01221],[75.85748,18.00974],[75.85211,18.00643],[75.84844,18.00036],[75.83946,17.97848],[75.84658,17.97825],[75.84022,17.95799],[75.83818,17.93894],[75.83881,17.92938],[75.84308,17.93003],[75.84735,17.92878],[75.85037,17.92377],[75.85148,17.91991],[75.8501,17.91327],[75.8445,17.90133],[75.84535,17.89193],[75.85612,17.87456],[75.85806,17.86387],[75.86499,17.85569],[75.87629,17.84603],[75.88075,17.84689],[75.88937,17.84476],[75.90004,17.8389],[75.91059,17.83482],[75.9195,17.83231],[75.92565,17.83341],[75.93038,17.84735],[75.93237,17.8506],[75.93972,17.85171],[75.94289,17.84566],[75.9463,17.84491],[75.95229,17.83751],[75.96002,17.83087],[75.96839,17.81876],[75.97653,17.81992],[75.97728,17.82494],[75.9748,17.83211],[75.97495,17.83816],[75.97803,17.84231],[75.98359,17.84201],[76.00012,17.83658],[76.01087,17.83072],[76.01847,17.82905],[76.01651,17.82307],[76.01693,17.81439],[76.01079,17.8062],[76.00947,17.80277],[76.01226,17.78724],[76.00719,17.7849],[76.00453,17.7693],[76.00308,17.75362],[76.00625,17.75013],[76.00905,17.75056],[76.01539,17.75815],[76.02146,17.76273],[76.02758,17.76591],[76.05618,17.76534],[76.06945,17.76989],[76.0838,17.77609],[76.09642,17.77866],[76.10309,17.77254],[76.10343,17.7676],[76.10004,17.76127],[76.10286,17.7612],[76.10813,17.76331],[76.11261,17.76713],[76.11614,17.76903],[76.11649,17.76581],[76.11873,17.76324],[76.12077,17.7652],[76.12237,17.76905],[76.13128,17.76415],[76.13486,17.75914],[76.13922,17.75594],[76.1455,17.75429],[76.14529,17.74423],[76.14824,17.73281],[76.15002,17.73281],[76.16201,17.73276],[76.17627,17.73108],[76.17563,17.72664],[76.1736,17.72278],[76.16646,17.71401],[76.16009,17.71469],[76.14991,17.71819],[76.14501,17.70867],[76.14734,17.70517],[76.14964,17.69902],[76.16631,17.70001],[76.16642,17.69286],[76.17647,17.68753],[76.18987,17.68238],[76.20027,17.68847],[76.21219,17.6899],[76.21742,17.68945],[76.22008,17.69054],[76.22234,17.69637],[76.22595,17.69802],[76.23147,17.69745],[76.23959,17.69792],[76.2408,17.70517],[76.24747,17.70624],[76.25131,17.70778],[76.25677,17.71679],[76.26371,17.72072],[76.27141,17.72753],[76.28238,17.72897],[76.28989,17.72801],[76.29919,17.72905],[76.3068,17.71963],[76.3121,17.71677],[76.31621,17.71556],[76.31925,17.69707],[76.32347,17.69598],[76.33976,17.694],[76.3561,17.69619],[76.36161,17.68671],[76.36958,17.68417],[76.3793,17.68559],[76.37985,17.6795],[76.37931,17.66819],[76.38131,17.6596],[76.40482,17.65725],[76.41221,17.64854],[76.42277,17.64579],[76.42964,17.64604],[76.42817,17.6414],[76.42673,17.62996],[76.42502,17.62319],[76.42166,17.6159],[76.4191,17.60749],[76.41659,17.60586],[76.38289,17.60242],[76.37382,17.59958],[76.36023,17.59792],[76.34942,17.59702],[76.33708,17.59765],[76.33233,17.59647],[76.33358,17.57546],[76.33492,17.56513],[76.33794,17.55683],[76.34073,17.54425],[76.34654,17.54189],[76.35557,17.54042],[76.36168,17.53795],[76.36539,17.53023],[76.36691,17.52389],[76.3672,17.51843],[76.35678,17.51509],[76.34708,17.51319],[76.34445,17.50984],[76.34422,17.49608],[76.34669,17.49334],[76.35595,17.4959],[76.36739,17.49704],[76.37588,17.49527],[76.37313,17.48754],[76.35077,17.47389],[76.34353,17.47213],[76.33851,17.47216],[76.33151,17.47057],[76.33155,17.46338],[76.33439,17.43407],[76.34271,17.43563],[76.36471,17.43736],[76.37402,17.43625],[76.37072,17.42488],[76.37089,17.40975],[76.36284,17.37696],[76.40903,17.37121],[76.41149,17.35609],[76.41164,17.34964],[76.40302,17.34593],[76.39394,17.33823],[76.38484,17.3215],[76.38263,17.31377],[76.36022,17.31224],[76.3531,17.31254],[76.35143,17.32964],[76.3444,17.35183],[76.33549,17.35173],[76.31777,17.34728],[76.31371,17.34515],[76.31909,17.33374],[76.31792,17.33134],[76.3057,17.33034],[76.29655,17.33053],[76.2864,17.33223],[76.27648,17.33239],[76.27323,17.34979],[76.27075,17.35835],[76.2655,17.35998],[76.2568,17.3592],[76.25051,17.35971],[76.24942,17.36393],[76.25095,17.36847],[76.24721,17.36968],[76.24484,17.37646],[76.23082,17.37203],[76.22943,17.36502],[76.20387,17.36056],[76.19355,17.36036],[76.18322,17.35826],[76.17629,17.35414],[76.1726,17.35049],[76.17378,17.33402],[76.17664,17.32325],[76.17922,17.31572],[76.18291,17.3161],[76.18415,17.31285],[76.17605,17.29903],[76.17216,17.29939],[76.16406,17.30214],[76.16447,17.32105],[76.16341,17.34267],[76.14586,17.34966],[76.13776,17.3543],[76.12131,17.36805],[76.11677,17.36792],[76.10203,17.36395],[76.09596,17.3595],[76.09279,17.35613],[76.09047,17.35225],[76.0941,17.34879],[76.09254,17.34538],[76.08698,17.34015],[76.08684,17.33544],[76.08498,17.33383],[76.07872,17.33177],[76.07344,17.33403],[76.06312,17.35358],[76.06036,17.3556],[76.05443,17.35596],[76.0365,17.35062],[76.02108,17.35096],[76.01524,17.35225],[76.00888,17.34916],[76.0039,17.34443],[75.99999,17.3394],[75.98037,17.33783],[75.97116,17.33809],[75.95941,17.33545],[75.9413,17.32647],[75.93065,17.32572],[75.91567,17.34055],[75.91013,17.34739],[75.89748,17.35232],[75.89304,17.35518],[75.89136,17.36235],[75.89576,17.37153],[75.89633,17.37854],[75.89579,17.3965],[75.89372,17.4074],[75.88961,17.41509],[75.88657,17.41881],[75.88174,17.42048],[75.87775,17.41802],[75.87643,17.41283],[75.8784,17.40643],[75.87822,17.40182],[75.87596,17.39846],[75.86413,17.38794],[75.86123,17.38735],[75.85836,17.39046],[75.85522,17.40914],[75.84709,17.4168],[75.83806,17.42199],[75.82694,17.42516],[75.82384,17.42429],[75.8211,17.42112],[75.81936,17.40801],[75.81639,17.40266],[75.81539,17.39928],[75.8168,17.38951],[75.8167,17.38222],[75.81417,17.37533],[75.81042,17.37143],[75.80141,17.37158],[75.79005,17.37445],[75.78131,17.38027],[75.7756,17.38965],[75.76871,17.40826],[75.76304,17.40984],[75.75766,17.40981],[75.7494,17.4143],[75.73586,17.42329],[75.73282,17.42304],[75.72781,17.42089],[75.72116,17.41316],[75.71394,17.41031],[75.70678,17.40971],[75.6959,17.41194],[75.68986,17.41397],[75.68578,17.41866],[75.67943,17.4375],[75.67946,17.45529],[75.67616,17.45929],[75.66904,17.46063],[75.66086,17.46098],[75.65473,17.46881],[75.64807,17.47469],[75.63406,17.47879],[75.63136,17.47091],[75.62972,17.46247],[75.62376,17.45939],[75.61716,17.44042],[75.61384,17.42335],[75.60854,17.42086],[75.60896,17.41845],[75.61336,17.41089],[75.61515,17.39999],[75.61423,17.3932],[75.60897,17.39336],[75.6017,17.3912],[75.59652,17.38744],[75.58651,17.38436],[75.58203,17.38354],[75.57684,17.38426],[75.58237,17.35271],[75.58315,17.35115],[75.58828,17.35107],[75.59649,17.3465],[75.61153,17.3437],[75.61446,17.33016],[75.61218,17.32085],[75.60438,17.30468],[75.58966,17.30146],[75.58093,17.29321],[75.57224,17.28984],[75.56396,17.28803],[75.55693,17.28478],[75.54736,17.27768],[75.5399,17.26914],[75.52802,17.2591],[75.52126,17.24999],[75.51523,17.23929],[75.5057,17.23867],[75.46383,17.23893],[75.46334,17.24099],[75.46606,17.24525],[75.46806,17.25026],[75.46722,17.25134],[75.44739,17.25561],[75.44057,17.25885],[75.43558,17.26428],[75.43068,17.26747],[75.42217,17.26484],[75.41556,17.25292],[75.40972,17.24014],[75.4103,17.23372],[75.40967,17.22843],[75.40758,17.22015],[75.40334,17.21106],[75.40531,17.20067],[75.40865,17.19059],[75.40607,17.18328],[75.39477,17.1881],[75.38605,17.19087],[75.36738,17.19088],[75.37069,17.206],[75.36986,17.21478],[75.3618,17.23552],[75.35566,17.23617],[75.34189,17.23328],[75.33391,17.23249],[75.331,17.2187],[75.31155,17.219],[75.29624,17.21707],[75.28885,17.21519],[75.28478,17.20908],[75.2831,17.20217],[75.28453,17.19255],[75.2897,17.18718],[75.29701,17.18211],[75.30525,17.17079],[75.29856,17.15525],[75.29611,17.1461],[75.27052,17.14854],[75.26967,17.17884],[75.26668,17.17912],[75.26933,17.18321],[75.2651,17.18335],[75.24688,17.17887],[75.2328,17.18034],[75.22503,17.18322],[75.21974,17.18933],[75.21389,17.19917],[75.21808,17.20603],[75.22848,17.21161],[75.23449,17.21251],[75.23942,17.21615],[75.24,17.22609],[75.23863,17.23556],[75.24037,17.24125],[75.24797,17.25496],[75.23621,17.25598],[75.22518,17.25563],[75.21782,17.25966],[75.21118,17.2618],[75.20574,17.26233],[75.20403,17.26881],[75.19176,17.26649],[75.19101,17.25495],[75.18565,17.24561],[75.18109,17.24041],[75.17999,17.23639],[75.17525,17.23899],[75.16152,17.24063],[75.13819,17.24219],[75.13206,17.24066],[75.1268,17.24287],[75.11847,17.24131],[75.09918,17.24319],[75.09778,17.24772],[75.09415,17.24706],[75.09347,17.24872],[75.08835,17.24898],[75.08771,17.24673],[75.08042,17.24771],[75.07542,17.23815],[75.07723,17.23615],[75.07486,17.23429],[75.07955,17.22176],[75.06558,17.22286],[75.05508,17.22462],[75.02646,17.22333],[75.01726,17.22503],[75.00794,17.2083],[75.00001,17.20879],[74.99812,17.20888],[74.99194,17.20639],[74.98861,17.20388],[74.98217,17.1942],[74.97597,17.19411],[74.97135,17.19551],[74.96552,17.19386],[74.96352,17.19072],[74.96402,17.18679],[74.96148,17.18411],[74.95923,17.1796],[74.95897,17.17553],[74.95738,17.17279],[74.95734,17.17063],[74.96013,17.16421],[74.96358,17.14885],[74.96748,17.13757],[74.97018,17.13489],[74.97009,17.13178],[74.96655,17.12622],[74.95671,17.12607],[74.94094,17.12788],[74.93533,17.12858],[74.92965,17.13049],[74.92209,17.12842],[74.91467,17.12343],[74.9126,17.12066],[74.91436,17.11707],[74.91747,17.11635],[74.91754,17.11388],[74.90481,17.1178],[74.8968,17.11941],[74.89506,17.12129],[74.89696,17.12262],[74.89652,17.12571],[74.89471,17.12846],[74.90297,17.13287],[74.91469,17.12985],[74.91838,17.13045],[74.92578,17.1367],[74.9265,17.14544],[74.92314,17.15471],[74.9191,17.16174],[74.91445,17.16089],[74.91195,17.15938],[74.90907,17.16073],[74.90523,17.16426],[74.9073,17.16715],[74.90656,17.1703],[74.90707,17.17386],[74.90533,17.17551],[74.90379,17.1743],[74.90084,17.17663],[74.90074,17.1822],[74.8962,17.17539],[74.8932,17.17795],[74.88817,17.17957],[74.89,17.18235],[74.89268,17.183],[74.89344,17.18519],[74.88895,17.18723],[74.88918,17.18872],[74.89072,17.18954],[74.89668,17.19004],[74.8975,17.19355],[74.89528,17.19434],[74.88842,17.19463],[74.88173,17.18717],[74.87704,17.19138],[74.87216,17.19014],[74.87122,17.19623],[74.86657,17.19516],[74.86731,17.1993],[74.86675,17.20274],[74.87171,17.20141],[74.87238,17.20826],[74.86634,17.20861],[74.85898,17.20475],[74.85831,17.20555],[74.86027,17.20723],[74.86067,17.2093],[74.85488,17.20914],[74.85185,17.2078],[74.85087,17.21089],[74.85901,17.21475],[74.86802,17.21593],[74.87861,17.21188],[74.87618,17.21785],[74.87622,17.22056],[74.87854,17.22145],[74.88392,17.22036],[74.88617,17.2224],[74.88728,17.22437],[74.88615,17.23197],[74.89341,17.23591],[74.89562,17.2358],[74.89644,17.23685],[74.89677,17.24087],[74.89974,17.24232],[74.90009,17.25218],[74.90188,17.26091],[74.9061,17.27029],[74.90935,17.27419],[74.91394,17.27518],[74.93753,17.27314],[74.93859,17.27611],[74.93891,17.28122],[74.94079,17.2857],[74.94568,17.28591],[74.95284,17.28733],[74.95843,17.29008],[74.96187,17.29338],[74.97044,17.32074],[74.97112,17.32759],[74.96948,17.32988],[74.96711,17.33629],[74.96887,17.34061],[74.97142,17.34443],[74.97557,17.34796],[74.98722,17.35566],[75.00002,17.362],[75.00725,17.36794],[75.00316,17.38463],[74.99996,17.38765],[74.99765,17.39159],[74.99861,17.40406],[75.00003,17.40683],[75.00653,17.41048],[75.01514,17.40876],[75.02416,17.40843],[75.03022,17.41198],[75.03433,17.41982],[75.03424,17.43061],[75.03245,17.4387],[75.03245,17.44536],[75.03675,17.45217],[75.03931,17.46085],[75.04094,17.47385],[75.03979,17.48239],[75.03602,17.49103],[75.03229,17.49428],[75.02763,17.49373],[75.01436,17.4876],[75.00002,17.4794],[74.99313,17.47397],[74.98458,17.46566],[74.98053,17.46441],[74.97728,17.46597],[74.97392,17.46821],[74.97145,17.47204],[74.9706,17.48116],[74.96491,17.491],[74.958,17.4962],[74.95422,17.49729],[74.9505,17.49936],[74.95029,17.50286],[74.94861,17.5045],[74.94513,17.50612],[74.94187,17.51045],[74.94096,17.51262],[74.94182,17.51601],[74.94403,17.51799],[74.94856,17.51976],[74.96331,17.52225],[74.97639,17.53108],[74.98882,17.54159],[74.97588,17.5529],[74.96806,17.55859],[74.96607,17.56156],[74.96355,17.56354],[74.96251,17.56606],[74.96517,17.5771],[74.96556,17.58273],[74.96535,17.58617],[74.96317,17.5903],[74.96131,17.59109],[74.96018,17.59045],[74.96001,17.58809],[74.95853,17.58653],[74.94537,17.58614],[74.92561,17.57497],[74.92099,17.57603],[74.91795,17.58139],[74.91888,17.59246],[74.91821,17.59486],[74.9186,17.59819],[74.92211,17.6099],[74.92758,17.61688],[74.92116,17.61712],[74.91804,17.61831],[74.91619,17.61761],[74.91272,17.61815],[74.91008,17.61962],[74.91004,17.62375],[74.91126,17.62881],[74.90553,17.62652],[74.89961,17.65002],[74.89462,17.6531],[74.89008,17.65953],[74.88882,17.67501],[74.88512,17.68126],[74.87748,17.67844],[74.86658,17.6956],[74.86642,17.70019],[74.86944,17.70447],[74.87429,17.71974],[74.87486,17.72301],[74.87328,17.72593],[74.8631,17.72683],[74.85742,17.72654],[74.85264,17.7253],[74.84567,17.72759],[74.84042,17.72514],[74.83399,17.72875],[74.82443,17.7417],[74.81953,17.747],[74.80085,17.75516],[74.79501,17.75924],[74.78894,17.76189],[74.77994,17.77059],[74.77802,17.77092],[74.76775,17.76738],[74.76625,17.76087],[74.76459,17.75879],[74.76196,17.75837],[74.75823,17.76126],[74.75363,17.75967],[74.74713,17.76305],[74.74418,17.76504],[74.74402,17.77015],[74.75092,17.76849],[74.75082,17.76682],[74.75633,17.77985],[74.75529,17.78243],[74.74975,17.78685],[74.7462,17.78762],[74.74034,17.78769],[74.74056,17.78958],[74.7459,17.79445],[74.7478,17.79752],[74.74546,17.79726],[74.73163,17.79036],[74.72583,17.78892],[74.7167,17.78517],[74.7139,17.78324],[74.71306,17.79111],[74.71044,17.78925],[74.71115,17.78391],[74.70718,17.78577],[74.70215,17.7856],[74.70071,17.78663],[74.7014,17.78807],[74.70617,17.79092],[74.70592,17.79236],[74.69959,17.79023],[74.69684,17.79027],[74.69581,17.79112],[74.6958,17.79249],[74.702,17.79548],[74.69833,17.79786],[74.69879,17.79987],[74.70139,17.80271],[74.70126,17.80507],[74.69529,17.8026],[74.69596,17.80771],[74.68999,17.80616],[74.68631,17.80791],[74.68534,17.80996],[74.68764,17.81366],[74.68524,17.81484],[74.68623,17.81784],[74.68445,17.82213],[74.68549,17.82674],[74.68396,17.83027],[74.68113,17.83306],[74.67942,17.83608],[74.67881,17.84998],[74.66466,17.85805],[74.66098,17.86123],[74.65756,17.86217],[74.65475,17.86089],[74.64882,17.84768],[74.64773,17.84216],[74.64871,17.83924],[74.64545,17.83645],[74.63953,17.83508],[74.64214,17.83114],[74.64234,17.82908],[74.63756,17.82829],[74.62997,17.83872],[74.62895,17.83193],[74.62574,17.83058],[74.61864,17.83367],[74.61519,17.83696],[74.61858,17.84091],[74.61944,17.84407],[74.61082,17.8433],[74.6087,17.84648],[74.61225,17.8565],[74.61457,17.85824],[74.61666,17.85849],[74.62042,17.86083],[74.62454,17.86218],[74.63506,17.87232],[74.63582,17.874],[74.63333,17.89005],[74.63327,17.89585],[74.63491,17.9004],[74.63917,17.90647],[74.65248,17.91836],[74.65544,17.92281],[74.65808,17.9296],[74.65916,17.94247],[74.66277,17.95422],[74.6681,17.9753],[74.66718,17.99168],[74.66584,17.99563],[74.66474,18.00061],[74.6796,18.01328],[74.69342,18.02113],[74.71001,18.02933],[74.71228,18.02804],[74.7181,18.02751],[74.72667,18.02936],[74.73039,18.0287],[74.743,18.02506],[74.74789,18.01856],[74.75112,18.01841],[74.75603,18.02219],[74.76007,18.02406],[74.76344,18.02415],[74.76656,18.02246],[74.7724,18.01635],[74.77417,18.01307],[74.77733,18.0107],[74.783,18.00988],[74.78728,18.01049],[74.7939,18.00903],[74.79842,18.00654],[74.80038,18.00397],[74.80143,18.00023],[74.80322,17.998],[74.80573,17.99689],[74.80738,17.99657],[74.80881,17.9967],[74.80953,17.99744],[74.81025,17.99838],[74.81045,17.99939],[74.8101,18.00043],[74.8095,18.00244],[74.80864,18.01105],[74.80913,18.01431],[74.80985,18.01599],[74.81026,18.01669],[74.81317,18.01731],[74.81586,18.01666],[74.82274,18.01362],[74.82636,18.00971],[74.8298,18.00517],[74.83079,18.00039],[74.8313,17.99467],[74.83269,17.99268],[74.83894,17.99153],[74.84743,17.99482],[74.85253,17.99469],[74.8592,17.99321],[74.86382,17.99135],[74.86456,17.98998],[74.8653,17.98586],[74.86206,17.97831],[74.86134,17.97159],[74.85831,17.96789],[74.85039,17.96117],[74.8482,17.95833],[74.84495,17.95233],[74.84696,17.94776],[74.85177,17.94562],[74.86744,17.95098],[74.86953,17.95083],[74.87486,17.94468],[74.88706,17.94065],[74.89193,17.93788],[74.89662,17.9374],[74.89895,17.9377],[74.907,17.94368],[74.9113,17.94486],[74.91712,17.94485],[74.92859,17.94105],[74.93909,17.93992],[74.94354,17.93767],[74.94458,17.93513],[74.94346,17.92469],[74.95631,17.92105],[74.9621,17.91498],[74.97527,17.91607],[74.98121,17.91531],[74.9881,17.91246],[75.00003,17.91044],[75.01771,17.90741],[75.01948,17.90562],[75.01977,17.89892],[75.0209,17.89421],[75.02398,17.89209],[75.02685,17.89303],[75.03937,17.90326],[75.04377,17.90355],[75.05145,17.90056],[75.05447,17.90193],[75.05584,17.90428],[75.04837,17.91374],[75.04645,17.91759],[75.04825,17.92113],[75.05264,17.92439],[75.05848,17.92519],[75.0673,17.91658],[75.07225,17.9143],[75.08324,17.91852],[75.08952,17.92313],[75.08738,17.92733],[75.08261,17.93224],[75.08284,17.93617],[75.08454,17.93873],[75.08898,17.94075],[75.09977,17.9423],[75.10639,17.93645],[75.11105,17.93462],[75.11479,17.93663],[75.11848,17.94491],[75.12755,17.95041],[75.1307,17.9542],[75.12948,17.95796],[75.12561,17.96115],[75.11822,17.96429],[75.11735,17.96847],[75.11981,17.97102],[75.12405,17.97083],[75.12946,17.96912],[75.13503,17.96958],[75.13102,17.9753],[75.1293,17.97921],[75.12686,17.99206],[75.12343,17.99644],[75.12009,17.99788],[75.11392,17.99771],[75.10908,17.9931],[75.10535,17.97713],[75.10261,17.97321],[75.09904,17.9728],[75.08927,17.97597],[75.07936,17.97826],[75.07059,17.97577],[75.06368,17.95913],[75.05912,17.95128],[75.05073,17.94662],[75.04035,17.94674],[75.03449,17.95236],[75.02155,17.96202],[75.02152,17.96736],[75.02504,17.98103],[75.02917,17.98844],[75.03919,18.00011],[75.04499,18.00678],[75.05264,18.02028],[75.05741,18.02488],[75.06254,18.02929],[75.07714,18.03557],[75.08378,18.04204],[75.08639,18.04585],[75.09072,18.06373],[75.0923,18.06613],[75.09687,18.06952],[75.10914,18.0737],[75.11586,18.0749],[75.12131,18.07399],[75.1303,18.07539],[75.13242,18.07772],[75.13423,18.08703],[75.13763,18.09158],[75.14335,18.09577],[75.15575,18.10045],[75.15942,18.10259],[75.16317,18.10651],[75.16372,18.11339],[75.1639,18.11554],[75.16278,18.11876],[75.15806,18.12098],[75.14579,18.12334],[75.13913,18.1226],[75.13054,18.11982],[75.11835,18.11811],[75.10985,18.11916],[75.09869,18.1184],[75.09529,18.11975],[75.0938,18.12223],[75.0934,18.13139],[75.09177,18.13823],[75.09165,18.14602],[75.09533,18.15605],[75.10345,18.16715],[75.11002,18.17854],[75.11087,18.18843],[75.1142,18.19951],[75.11164,18.21077],[75.10964,18.21434],[75.10589,18.21792],[75.10206,18.22053],[75.09715,18.22115],[75.08201,18.21792],[75.07314,18.21147],[75.05937,18.19756],[75.05413,18.19635],[75.0494,18.1968],[75.04363,18.19531],[75.03656,18.1956],[75.03247,18.19358],[75.02805,18.18898],[75.02199,18.18748],[75.0133,18.19873],[75.00833,18.2081],[75.00855,18.21205],[75.01499,18.22311],[75.01971,18.22931],[75.03204,18.24237],[75.03777,18.24655],[75.04478,18.25342],[75.046,18.25633],[75.04472,18.26212],[75.04137,18.26313],[75.03663,18.26197],[75.03161,18.25841],[75.01312,18.24781],[75.00003,18.24271],[74.99647,18.24239],[74.99318,18.24098],[74.98614,18.24141],[74.97619,18.24591],[74.964,18.25272],[74.95521,18.26093],[74.95111,18.26343],[74.94487,18.26299],[74.9354,18.26041],[74.9225,18.2584],[74.9159,18.25799],[74.90605,18.25911],[74.89518,18.25898],[74.88799,18.25744],[74.88113,18.25263],[74.87667,18.24731],[74.86701,18.2472],[74.85041,18.24366],[74.84202,18.24326],[74.83316,18.24631],[74.82601,18.25275],[74.81943,18.26253],[74.81239,18.26967],[74.79657,18.27928],[74.79514,18.28427],[74.79777,18.2972],[74.79961,18.29934],[74.80409,18.30137],[74.82039,18.2989],[74.82907,18.29552],[74.83665,18.29494],[74.84235,18.29573],[74.84634,18.29989],[74.84378,18.30964],[74.8367,18.32072],[74.83266,18.32908],[74.83388,18.3392],[74.83817,18.33682],[74.85187,18.33075],[74.86169,18.33374],[74.8639,18.33473],[74.86542,18.33997],[74.86607,18.34624],[74.8689,18.35166],[74.87117,18.35288],[74.88544,18.35642],[74.89145,18.35588],[74.90737,18.3562],[74.912,18.36951],[74.91583,18.37712],[74.92472,18.37802],[74.94022,18.38529],[74.94628,18.38531],[74.9509,18.387],[74.9581,18.38776],[74.96533,18.38508],[74.96851,18.38691],[74.97077,18.38949],[74.97276,18.39419],[74.98365,18.39967],[75.00003,18.40362],[75.00415,18.40291],[75.00651,18.40551],[75.01074,18.41779],[75.01342,18.43157],[75.01623,18.43664],[75.03537,18.43435],[75.0503,18.42969],[75.05352,18.42731],[75.05899,18.41999],[75.06567,18.42124],[75.07048,18.42338],[75.07252,18.42353],[75.07654,18.42246],[75.07863,18.42055],[75.07987,18.42512],[75.08193,18.42791],[75.08488,18.42977],[75.0885,18.43002],[75.09115,18.43142],[75.09266,18.43382],[75.09215,18.44527],[75.09272,18.45632],[75.09491,18.46112],[75.09874,18.46543],[75.10117,18.46965],[75.10565,18.48924],[75.10698,18.49049],[75.12009,18.49174],[75.12569,18.49386],[75.12785,18.50049],[75.12869,18.50815],[75.1349,18.52624],[75.13809,18.52662],[75.15943,18.51989],[75.17249,18.52204],[75.18288,18.52773],[75.18642,18.52878],[75.19736,18.5285],[75.2008,18.5299],[75.20425,18.53273],[75.20836,18.54333],[75.21537,18.55443],[75.21909,18.55388],[75.22298,18.55087],[75.22439,18.54747],[75.22772,18.54331],[75.23156,18.54224],[75.23998,18.54348],[75.24224,18.541],[75.24453,18.53473],[75.24902,18.52621],[75.2551,18.51962],[75.26131,18.50884],[75.26848,18.51032],[75.28054,18.51528],[75.30851,18.5186],[75.3144,18.51854]]]}}]}