{"type":"FeatureCollection","features":[{"type":"Feature","properties":{"id":"wardha","name":"Wardha","stateId":"maharashtra","stateName":"Maharashtra","censuscode":504,"type":"district"},"geometry":{"type":"Polygon","coordinates":[[[78.25127,21.3286],[78.25599,21.32504],[78.25789,21.32821],[78.26027,21.32937],[78.26389,21.32661],[78.27136,21.31961],[78.27307,21.31514],[78.27748,21.31021],[78.28447,21.30396],[78.29016,21.30259],[78.295,21.29462],[78.298,21.29302],[78.30375,21.29309],[78.3081,21.29424],[78.31128,21.29395],[78.31342,21.29183],[78.31282,21.28861],[78.30738,21.27753],[78.3075,21.27379],[78.30976,21.27001],[78.31441,21.2687],[78.32279,21.27152],[78.32623,21.27118],[78.32726,21.26957],[78.32757,21.26521],[78.32659,21.26073],[78.32726,21.25619],[78.33014,21.25252],[78.33296,21.25057],[78.35284,21.25089],[78.35657,21.24843],[78.36048,21.2482],[78.3718,21.24327],[78.40117,21.23768],[78.40704,21.23752],[78.41053,21.23596],[78.41561,21.22914],[78.41939,21.22776],[78.4241,21.22753],[78.42912,21.22834],[78.44251,21.23468],[78.44655,21.23411],[78.45566,21.22619],[78.46484,21.22298],[78.46966,21.21844],[78.47266,21.21678],[78.47817,21.21954],[78.47981,21.21541],[78.4825,21.21179],[78.49277,21.20301],[78.49515,21.19899],[78.49863,21.19578],[78.507,21.18981],[78.50926,21.18522],[78.51848,21.17505],[78.52153,21.17],[78.52165,21.16179],[78.52573,21.15289],[78.53842,21.13986],[78.55495,21.11786],[78.55867,21.11476],[78.58537,21.115],[78.5897,21.11465],[78.59281,21.11213],[78.59647,21.10857],[78.59719,21.10098],[78.59657,21.09817],[78.59908,21.09564],[78.59863,21.09013],[78.60211,21.08904],[78.61067,21.08852],[78.61042,21.08191],[78.60692,21.06922],[78.61443,21.06911],[78.61547,21.06428],[78.62108,21.06738],[78.62518,21.06697],[78.62806,21.06502],[78.63172,21.05957],[78.63441,21.05825],[78.63936,21.05848],[78.64322,21.05951],[78.64804,21.05371],[78.6511,21.05147],[78.65206,21.0359],[78.65737,21.03447],[78.6707,21.03417],[78.68584,21.03016],[78.68858,21.02944],[78.69392,21.02491],[78.69516,21.02015],[78.70137,21.01756],[78.70784,21.01669],[78.71324,21.01472],[78.71626,21.00916],[78.72435,21.00766],[78.72601,21.0052],[78.73094,21.00461],[78.73118,21.00052],[78.73099,20.99527],[78.72617,20.98834],[78.72665,20.9718],[78.72692,20.9687],[78.73194,20.96184],[78.73509,20.94699],[78.73695,20.94465],[78.74002,20.94341],[78.74611,20.94407],[78.74942,20.94323],[78.74434,20.9389],[78.74596,20.9354],[78.7574,20.92209],[78.76079,20.91919],[78.7659,20.92093],[78.77373,20.9076],[78.77401,20.90342],[78.77294,20.90116],[78.77003,20.8989],[78.77847,20.8912],[78.78789,20.89029],[78.79188,20.88818],[78.7962,20.8835],[78.80482,20.87672],[78.80971,20.87612],[78.813,20.8763],[78.82049,20.87887],[78.82644,20.88879],[78.82856,20.89111],[78.83213,20.89308],[78.83641,20.89367],[78.84247,20.89061],[78.83982,20.88818],[78.83957,20.88238],[78.84111,20.88043],[78.8488,20.87479],[78.85296,20.8743],[78.85887,20.87526],[78.86218,20.87384],[78.86471,20.87132],[78.864,20.87014],[78.86274,20.86785],[78.86122,20.86101],[78.86403,20.84218],[78.86883,20.83737],[78.873,20.8289],[78.87504,20.82672],[78.88372,20.83148],[78.88564,20.83511],[78.88577,20.84097],[78.88845,20.84178],[78.90056,20.83922],[78.9085,20.83834],[78.91592,20.83512],[78.91491,20.81827],[78.91906,20.81738],[78.91978,20.81309],[78.91704,20.81164],[78.9155,20.80641],[78.92113,20.80524],[78.92567,20.80154],[78.92803,20.79742],[78.93182,20.79784],[78.94534,20.7938],[78.94674,20.79393],[78.94851,20.78862],[78.94897,20.78461],[78.94844,20.78237],[78.94211,20.77999],[78.94516,20.76698],[78.95687,20.76681],[78.95818,20.76409],[78.96574,20.75827],[78.97171,20.75523],[78.9737,20.75422],[78.97895,20.75419],[78.98889,20.75167],[78.99753,20.75389],[78.99996,20.74242],[79.00507,20.74106],[79.01039,20.7413],[79.01268,20.74232],[79.018,20.73992],[79.01974,20.73611],[79.03773,20.73462],[79.04158,20.73752],[79.04537,20.73427],[79.05283,20.73427],[79.05357,20.72631],[79.06067,20.72263],[79.06929,20.7227],[79.07416,20.72362],[79.07674,20.71524],[79.08605,20.71344],[79.08965,20.71134],[79.09218,20.70795],[79.09855,20.70964],[79.10411,20.71217],[79.10911,20.69639],[79.10692,20.68568],[79.13141,20.67813],[79.14288,20.67585],[79.14508,20.66804],[79.14686,20.66728],[79.1447,20.66007],[79.14926,20.65844],[79.15008,20.65702],[79.14942,20.65157],[79.15129,20.65011],[79.17037,20.64301],[79.17109,20.64154],[79.17,20.63808],[79.1712,20.63592],[79.17187,20.6306],[79.17074,20.62449],[79.1754,20.62316],[79.17603,20.61985],[79.18087,20.61674],[79.18324,20.61691],[79.18625,20.61881],[79.18631,20.61358],[79.18801,20.61116],[79.18857,20.60262],[79.19257,20.59611],[79.19551,20.60065],[79.20938,20.59739],[79.21207,20.59469],[79.21371,20.5936],[79.22025,20.58925],[79.22472,20.58207],[79.22136,20.57949],[79.2215,20.56577],[79.21728,20.55639],[79.21699,20.55123],[79.21438,20.54642],[79.19184,20.5327],[79.1861,20.5247],[79.18244,20.51536],[79.17941,20.51061],[79.17174,20.51237],[79.1673,20.50533],[79.16362,20.48728],[79.16006,20.48299],[79.15659,20.4767],[79.14642,20.47921],[79.13934,20.47752],[79.13652,20.46617],[79.1307,20.45404],[79.12103,20.45006],[79.11366,20.45003],[79.10228,20.45266],[79.09736,20.4552],[79.09636,20.45997],[79.08998,20.46137],[79.07688,20.46262],[79.06319,20.46612],[79.05741,20.46643],[79.0519,20.46398],[79.0488,20.46577],[79.04551,20.46659],[79.04673,20.47346],[79.04008,20.47453],[79.03017,20.47794],[79.02396,20.47848],[79.01703,20.47277],[79.01173,20.465],[79.00186,20.44765],[78.9999,20.44834],[78.99914,20.44828],[78.99829,20.45465],[78.99238,20.4561],[78.98972,20.46283],[78.98833,20.46293],[78.98908,20.45973],[78.98495,20.45895],[78.98394,20.45636],[78.96855,20.45855],[78.9681,20.45389],[78.96904,20.45039],[78.96371,20.43607],[78.96081,20.4334],[78.95082,20.42844],[78.93949,20.42871],[78.91981,20.43],[78.91641,20.42929],[78.90792,20.43229],[78.89922,20.43719],[78.89229,20.43043],[78.8792,20.42335],[78.87148,20.42169],[78.86575,20.4223],[78.85683,20.42569],[78.85236,20.42831],[78.84635,20.43345],[78.8418,20.43106],[78.84247,20.42451],[78.84359,20.4217],[78.84851,20.41691],[78.85666,20.4111],[78.85571,20.40897],[78.85361,20.40614],[78.84323,20.40136],[78.82649,20.4019],[78.82341,20.39993],[78.82094,20.39681],[78.81939,20.39284],[78.81902,20.38732],[78.82202,20.3797],[78.8221,20.37033],[78.82802,20.36215],[78.8274,20.35818],[78.82391,20.35368],[78.82377,20.34937],[78.82502,20.3461],[78.8336,20.33357],[78.83371,20.32805],[78.83003,20.3189],[78.82524,20.31657],[78.81196,20.31253],[78.80587,20.30697],[78.80123,20.30142],[78.80182,20.2978],[78.79199,20.29567],[78.7846,20.29793],[78.7804,20.29922],[78.77602,20.29803],[78.76937,20.29431],[78.76093,20.29306],[78.7545,20.29583],[78.74896,20.29678],[78.74054,20.29264],[78.73823,20.29291],[78.73672,20.30296],[78.73415,20.30479],[78.72091,20.30792],[78.70818,20.30938],[78.70813,20.31381],[78.71059,20.31745],[78.71163,20.32263],[78.71036,20.3275],[78.71038,20.33221],[78.71215,20.33717],[78.7113,20.34917],[78.70943,20.35232],[78.6924,20.35681],[78.69085,20.35938],[78.68985,20.36875],[78.6848,20.37412],[78.68223,20.38105],[78.66887,20.38895],[78.66614,20.39341],[78.6614,20.40454],[78.65787,20.41037],[78.6574,20.4137],[78.64705,20.41944],[78.64561,20.42316],[78.64781,20.42743],[78.64777,20.43191],[78.64092,20.43422],[78.62658,20.43187],[78.61963,20.43183],[78.61699,20.43451],[78.6157,20.44019],[78.61123,20.44223],[78.6083,20.43853],[78.60828,20.43364],[78.6071,20.43036],[78.6039,20.4285],[78.5902,20.42817],[78.57746,20.42911],[78.57091,20.43239],[78.56328,20.43889],[78.55873,20.44794],[78.55334,20.45059],[78.53953,20.46026],[78.53736,20.46307],[78.53581,20.4711],[78.53709,20.47571],[78.53565,20.47955],[78.52563,20.48729],[78.52445,20.48946],[78.52458,20.50004],[78.52307,20.50342],[78.52133,20.50651],[78.5163,20.50952],[78.50923,20.51958],[78.50275,20.52205],[78.49817,20.52237],[78.49217,20.52542],[78.48515,20.5268],[78.48098,20.52837],[78.47661,20.52719],[78.46939,20.52386],[78.46596,20.52044],[78.45406,20.51179],[78.4493,20.51238],[78.44454,20.51395],[78.44159,20.516],[78.43456,20.51784],[78.42268,20.51251],[78.41258,20.51145],[78.40425,20.51494],[78.39387,20.5167],[78.38682,20.5198],[78.38155,20.5274],[78.37841,20.53013],[78.37339,20.53199],[78.36954,20.53219],[78.35993,20.5267],[78.35625,20.52828],[78.35038,20.53431],[78.34734,20.5386],[78.34402,20.54139],[78.34059,20.54309],[78.33699,20.54334],[78.30921,20.55218],[78.29805,20.55703],[78.29467,20.55975],[78.28796,20.5597],[78.27988,20.56238],[78.27759,20.56477],[78.27359,20.57307],[78.26812,20.57561],[78.26399,20.57942],[78.26271,20.58838],[78.25953,20.59409],[78.25867,20.60386],[78.25619,20.60762],[78.25278,20.61587],[78.25235,20.62105],[78.25319,20.62627],[78.25262,20.63283],[78.24992,20.64308],[78.25062,20.64562],[78.25126,20.64747],[78.2555,20.6502],[78.26694,20.66128],[78.26902,20.66527],[78.27001,20.66935],[78.26824,20.67842],[78.27733,20.68787],[78.2784,20.69391],[78.27953,20.69639],[78.28145,20.69882],[78.28682,20.6991],[78.28918,20.70051],[78.29256,20.69829],[78.29661,20.69683],[78.29935,20.701],[78.30185,20.7109],[78.30071,20.71486],[78.30822,20.72325],[78.31137,20.73495],[78.3112,20.7385],[78.30792,20.74204],[78.30685,20.7445],[78.30688,20.74726],[78.3103,20.75834],[78.30837,20.76342],[78.29428,20.77795],[78.29368,20.78162],[78.29414,20.78336],[78.29664,20.79285],[78.29554,20.80244],[78.2991,20.8058],[78.29976,20.81121],[78.30437,20.81355],[78.31125,20.81458],[78.31819,20.82096],[78.31786,20.82309],[78.31445,20.82657],[78.31262,20.83172],[78.30923,20.83444],[78.30655,20.83402],[78.30424,20.83308],[78.30251,20.82962],[78.30046,20.82776],[78.29668,20.82699],[78.29387,20.82765],[78.29256,20.82993],[78.29225,20.8397],[78.29114,20.84095],[78.28838,20.8415],[78.28424,20.84118],[78.2819,20.84208],[78.27998,20.8439],[78.27899,20.84527],[78.27546,20.85857],[78.27275,20.86516],[78.26524,20.86945],[78.25568,20.88644],[78.25254,20.88762],[78.25025,20.88949],[78.24732,20.88992],[78.24216,20.89246],[78.23778,20.89559],[78.2335,20.89606],[78.22753,20.89952],[78.22318,20.90045],[78.21599,20.90827],[78.2126,20.90197],[78.20469,20.89948],[78.19993,20.89904],[78.1844,20.90464],[78.18304,20.90623],[78.18269,20.90905],[78.18101,20.91179],[78.17872,20.91344],[78.17823,20.92257],[78.17746,20.9251],[78.17633,20.92784],[78.17261,20.93177],[78.17214,20.93487],[78.16955,20.941],[78.1675,20.94345],[78.15239,20.94981],[78.14865,20.95058],[78.14612,20.95222],[78.14878,20.96294],[78.15045,20.96606],[78.14956,20.98589],[78.1481,20.99007],[78.14332,20.99485],[78.13947,20.99971],[78.1381,21.00031],[78.13757,21.00409],[78.139,21.00795],[78.14087,21.01174],[78.14605,21.01894],[78.14721,21.02273],[78.14665,21.02589],[78.1403,21.03495],[78.14234,21.03719],[78.14777,21.03984],[78.15123,21.0444],[78.15217,21.04721],[78.15044,21.05668],[78.15278,21.06335],[78.15395,21.07191],[78.15394,21.0749],[78.15223,21.07834],[78.14762,21.09958],[78.14561,21.10233],[78.13693,21.10351],[78.13485,21.10506],[78.13251,21.11016],[78.13221,21.11298],[78.13306,21.11545],[78.13763,21.12138],[78.14017,21.13133],[78.14481,21.13507],[78.14531,21.13719],[78.14285,21.14041],[78.13434,21.14666],[78.1303,21.14809],[78.12644,21.15171],[78.11909,21.15665],[78.11682,21.15936],[78.11001,21.16448],[78.09842,21.17507],[78.09456,21.1769],[78.09334,21.18092],[78.09964,21.18719],[78.09994,21.1939],[78.09876,21.19922],[78.08737,21.212],[78.0777,21.21648],[78.07384,21.21956],[78.07102,21.22419],[78.0742,21.22879],[78.07175,21.23532],[78.06837,21.23847],[78.0609,21.23833],[78.05864,21.24022],[78.05549,21.24916],[78.05592,21.25364],[78.05884,21.26204],[78.0612,21.27422],[78.06634,21.27734],[78.07577,21.27398],[78.07883,21.27485],[78.0817,21.27779],[78.08249,21.28261],[78.08125,21.28691],[78.0791,21.28978],[78.07598,21.29247],[78.07205,21.29453],[78.06801,21.29882],[78.06806,21.30267],[78.07087,21.30549],[78.07563,21.31371],[78.07976,21.32803],[78.07802,21.34067],[78.07611,21.34783],[78.07439,21.35082],[78.07512,21.35329],[78.08191,21.35578],[78.09017,21.35667],[78.09667,21.3537],[78.10035,21.35359],[78.10525,21.35476],[78.11284,21.34973],[78.11676,21.34853],[78.12415,21.3479],[78.13156,21.34476],[78.13904,21.34323],[78.14442,21.34077],[78.15025,21.3413],[78.15295,21.33752],[78.1554,21.33149],[78.15798,21.32978],[78.17849,21.33109],[78.20206,21.32976],[78.22042,21.33077],[78.23169,21.32695],[78.25127,21.3286]]]}}]}