{"type":"FeatureCollection","features":[{"type":"Feature","properties":{"id":"yavatmal","name":"Yavatmal","stateId":"maharashtra","stateName":"Maharashtra","censuscode":510,"type":"district"},"geometry":{"type":"Polygon","coordinates":[[[78.27953,20.69639],[78.2784,20.69391],[78.27733,20.68787],[78.26824,20.67842],[78.27001,20.66935],[78.26902,20.66527],[78.26694,20.66128],[78.2555,20.6502],[78.25126,20.64747],[78.25062,20.64562],[78.24992,20.64308],[78.25262,20.63283],[78.25319,20.62627],[78.25235,20.62105],[78.25278,20.61587],[78.25619,20.60762],[78.25867,20.60386],[78.25953,20.59409],[78.26271,20.58838],[78.26399,20.57942],[78.26812,20.57561],[78.27359,20.57307],[78.27759,20.56477],[78.27988,20.56238],[78.28796,20.5597],[78.29467,20.55975],[78.29805,20.55703],[78.30921,20.55218],[78.33699,20.54334],[78.34059,20.54309],[78.34402,20.54139],[78.34734,20.5386],[78.35038,20.53431],[78.35625,20.52828],[78.35993,20.5267],[78.36954,20.53219],[78.37339,20.53199],[78.37841,20.53013],[78.38155,20.5274],[78.38682,20.5198],[78.39387,20.5167],[78.40425,20.51494],[78.41258,20.51145],[78.42268,20.51251],[78.43456,20.51784],[78.44159,20.516],[78.44454,20.51395],[78.4493,20.51238],[78.45406,20.51179],[78.46596,20.52044],[78.46939,20.52386],[78.47661,20.52719],[78.48098,20.52837],[78.48515,20.5268],[78.49217,20.52542],[78.49817,20.52237],[78.50275,20.52205],[78.50923,20.51958],[78.5163,20.50952],[78.52133,20.50651],[78.52307,20.50342],[78.52458,20.50004],[78.52445,20.48946],[78.52563,20.48729],[78.53565,20.47955],[78.53709,20.47571],[78.53581,20.4711],[78.53736,20.46307],[78.53953,20.46026],[78.55334,20.45059],[78.55873,20.44794],[78.56328,20.43889],[78.57091,20.43239],[78.57746,20.42911],[78.5902,20.42817],[78.6039,20.4285],[78.6071,20.43036],[78.60828,20.43364],[78.6083,20.43853],[78.61123,20.44223],[78.6157,20.44019],[78.61699,20.43451],[78.61963,20.43183],[78.62658,20.43187],[78.64092,20.43422],[78.64777,20.43191],[78.64781,20.42743],[78.64561,20.42316],[78.64705,20.41944],[78.6574,20.4137],[78.65787,20.41037],[78.6614,20.40454],[78.66614,20.39341],[78.66887,20.38895],[78.68223,20.38105],[78.6848,20.37412],[78.68985,20.36875],[78.69085,20.35938],[78.6924,20.35681],[78.70943,20.35232],[78.7113,20.34917],[78.71215,20.33717],[78.71038,20.33221],[78.71036,20.3275],[78.71163,20.32263],[78.71059,20.31745],[78.70813,20.31381],[78.70818,20.30938],[78.72091,20.30792],[78.73415,20.30479],[78.73672,20.30296],[78.73823,20.29291],[78.74054,20.29264],[78.74896,20.29678],[78.7545,20.29583],[78.76093,20.29306],[78.76937,20.29431],[78.77602,20.29803],[78.7804,20.29922],[78.7846,20.29793],[78.79199,20.29567],[78.80182,20.2978],[78.80283,20.29339],[78.80482,20.28921],[78.81828,20.2751],[78.81979,20.27057],[78.81673,20.2663],[78.81281,20.26271],[78.81138,20.25977],[78.81253,20.25386],[78.81438,20.25111],[78.82014,20.2469],[78.82707,20.24701],[78.85033,20.25146],[78.86066,20.25216],[78.86997,20.25112],[78.88527,20.24737],[78.88942,20.24733],[78.89501,20.24807],[78.89846,20.24929],[78.90542,20.25306],[78.91879,20.25446],[78.9213,20.25235],[78.92273,20.24926],[78.92168,20.23718],[78.93015,20.22934],[78.93455,20.2277],[78.93676,20.22495],[78.93791,20.21999],[78.94148,20.21557],[78.94669,20.21179],[78.95186,20.21048],[78.96029,20.20683],[78.96271,20.20263],[78.96153,20.19888],[78.95738,20.19264],[78.9569,20.18471],[78.95778,20.18172],[78.95776,20.17735],[78.95684,20.17181],[78.95512,20.1683],[78.95812,20.16532],[78.96355,20.16237],[78.96886,20.16082],[78.96977,20.16048],[78.97982,20.15253],[78.98142,20.14865],[78.98143,20.14495],[78.9782,20.14209],[78.97389,20.14105],[78.97041,20.13763],[78.96899,20.13354],[78.97052,20.12318],[78.97413,20.12028],[78.98005,20.12034],[78.9833,20.12162],[78.99058,20.12251],[78.99514,20.12211],[78.99984,20.12071],[79.0041,20.12046],[79.01668,20.11277],[79.03515,20.09355],[79.04326,20.08864],[79.04833,20.08413],[79.04725,20.07743],[79.0441,20.07131],[79.04858,20.0679],[79.05453,20.0665],[79.05929,20.0674],[79.06434,20.06945],[79.0707,20.06376],[79.07298,20.05405],[79.07925,20.0431],[79.08326,20.02853],[79.09044,20.02099],[79.09836,20.01718],[79.10453,20.01506],[79.10861,20.00799],[79.11051,20.00087],[79.11521,19.98844],[79.11353,19.98584],[79.108,19.98633],[79.10159,19.98474],[79.09506,19.98139],[79.09372,19.97713],[79.09777,19.97339],[79.10838,19.96841],[79.11045,19.96463],[79.10825,19.95888],[79.10542,19.95403],[79.0936,19.94564],[79.09208,19.94],[79.09154,19.93262],[79.09274,19.91974],[79.09489,19.91466],[79.10231,19.91297],[79.10912,19.90966],[79.11363,19.90378],[79.15166,19.89304],[79.14946,19.88685],[79.13802,19.8711],[79.13586,19.86555],[79.13259,19.86301],[79.12513,19.8614],[79.12072,19.85843],[79.10978,19.84648],[79.10304,19.84225],[79.09407,19.84048],[79.09107,19.83732],[79.08846,19.83096],[79.0802,19.82256],[79.07286,19.81814],[79.06563,19.81475],[79.05891,19.81447],[79.05137,19.81507],[79.04289,19.81715],[79.03825,19.81358],[79.03505,19.80638],[79.02931,19.80135],[79.02046,19.79909],[79.01119,19.80388],[79.00094,19.8041],[78.99732,19.80472],[78.99002,19.80367],[78.98872,19.80373],[78.97237,19.80439],[78.95862,19.80321],[78.95706,19.80193],[78.95085,19.79684],[78.94562,19.78856],[78.94185,19.78455],[78.94044,19.77828],[78.94143,19.77159],[78.94774,19.76315],[78.95013,19.75872],[78.9518,19.75324],[78.9489,19.74861],[78.94106,19.74677],[78.93159,19.74645],[78.92363,19.74484],[78.91713,19.74262],[78.90768,19.73812],[78.9029,19.73708],[78.89003,19.74347],[78.88303,19.746],[78.87988,19.75196],[78.88139,19.75818],[78.88077,19.76321],[78.87505,19.76765],[78.86673,19.76964],[78.85888,19.77015],[78.85365,19.76634],[78.84972,19.7601],[78.84368,19.76316],[78.83065,19.76145],[78.8225,19.76147],[78.81296,19.75905],[78.80852,19.76113],[78.80227,19.76961],[78.79019,19.77976],[78.7785,19.78036],[78.7685,19.77662],[78.75751,19.77827],[78.74833,19.78062],[78.74358,19.78039],[78.73708,19.77381],[78.72994,19.76994],[78.72168,19.76776],[78.7144,19.77365],[78.70698,19.78649],[78.70109,19.79061],[78.69153,19.79083],[78.65344,19.8023],[78.6403,19.8046],[78.6244,19.80951],[78.6194,19.81405],[78.6087,19.81827],[78.60031,19.81811],[78.59678,19.81617],[78.59,19.81245],[78.57869,19.81454],[78.56289,19.81634],[78.53119,19.82235],[78.52413,19.82059],[78.51729,19.81498],[78.51452,19.80189],[78.50856,19.79313],[78.49881,19.79385],[78.49434,19.7992],[78.48916,19.80786],[78.48104,19.81701],[78.46948,19.81685],[78.44938,19.81984],[78.43345,19.8237],[78.41378,19.83043],[78.40238,19.83694],[78.39395,19.8467],[78.39064,19.85321],[78.39069,19.85621],[78.38888,19.86412],[78.38967,19.87437],[78.38885,19.8797],[78.37915,19.87973],[78.37042,19.88335],[78.35133,19.88184],[78.34088,19.88362],[78.32985,19.89088],[78.32757,19.89537],[78.33122,19.89978],[78.3392,19.90469],[78.33973,19.91049],[78.33298,19.91646],[78.3241,19.91584],[78.31478,19.91311],[78.30249,19.91715],[78.29469,19.91458],[78.28695,19.91069],[78.28421,19.90756],[78.28234,19.89145],[78.28078,19.88519],[78.27546,19.8796],[78.26725,19.87567],[78.25472,19.87299],[78.25136,19.87384],[78.24233,19.8875],[78.24356,19.89232],[78.24838,19.89809],[78.25529,19.90395],[78.25965,19.9117],[78.26027,19.91887],[78.25766,19.92577],[78.2528,19.92935],[78.24717,19.92816],[78.23976,19.92396],[78.23642,19.9188],[78.23033,19.91645],[78.22182,19.91548],[78.20979,19.9069],[78.20053,19.90265],[78.19521,19.90238],[78.18923,19.90329],[78.17786,19.9103],[78.15622,19.91384],[78.14947,19.91595],[78.14214,19.91529],[78.13765,19.91136],[78.13494,19.9065],[78.13113,19.90201],[78.12566,19.90006],[78.11152,19.89742],[78.10303,19.89668],[78.09394,19.89763],[78.07839,19.9006],[78.07005,19.90657],[78.06324,19.91258],[78.05887,19.91808],[78.05735,19.92393],[78.0551,19.92892],[78.05327,19.93072],[78.04812,19.93115],[78.03345,19.92846],[78.02787,19.92555],[78.01866,19.91563],[78.01191,19.91419],[78.00002,19.91778],[77.99232,19.91644],[77.98817,19.91671],[77.98258,19.91554],[77.9785,19.91292],[77.97148,19.91039],[77.96502,19.90992],[77.96024,19.91104],[77.9539,19.91123],[77.94783,19.90711],[77.94378,19.90069],[77.94052,19.89287],[77.93433,19.89079],[77.92398,19.89127],[77.92002,19.88468],[77.90275,19.88034],[77.89811,19.878],[77.89189,19.87101],[77.89186,19.86715],[77.88779,19.86233],[77.88619,19.85692],[77.87621,19.84955],[77.87287,19.83684],[77.87107,19.83271],[77.87113,19.82772],[77.87031,19.8239],[77.8636,19.81627],[77.85636,19.81085],[77.84907,19.80077],[77.85066,19.79312],[77.85322,19.78878],[77.86204,19.77868],[77.86552,19.77142],[77.86625,19.7665],[77.85901,19.75315],[77.86053,19.74366],[77.86326,19.742],[77.86668,19.74124],[77.86978,19.74171],[77.87221,19.74323],[77.87674,19.74444],[77.87744,19.74378],[77.87837,19.73787],[77.89159,19.72719],[77.89595,19.72558],[77.89734,19.7288],[77.89754,19.73231],[77.89946,19.73488],[77.9023,19.73488],[77.90625,19.73185],[77.91441,19.72978],[77.91975,19.7317],[77.92309,19.73496],[77.93356,19.73932],[77.93686,19.73686],[77.95318,19.72936],[77.96102,19.71736],[77.9649,19.70641],[77.97056,19.70253],[77.98212,19.70161],[77.98539,19.69941],[77.98455,19.68657],[77.98846,19.68079],[77.99703,19.68073],[78.00002,19.68147],[78.01926,19.6941],[78.03184,19.69922],[78.0403,19.70031],[78.0471,19.69889],[78.05288,19.69155],[78.05547,19.68519],[78.05668,19.67099],[78.06697,19.66816],[78.07187,19.66373],[78.07675,19.65557],[78.08222,19.64845],[78.08986,19.64521],[78.09537,19.64544],[78.09789,19.65163],[78.10215,19.65692],[78.10707,19.65995],[78.12238,19.65801],[78.1259,19.65969],[78.12734,19.66413],[78.13105,19.66712],[78.1403,19.66679],[78.15311,19.66468],[78.16307,19.66098],[78.16869,19.65799],[78.17438,19.65695],[78.17899,19.65504],[78.18705,19.64247],[78.18941,19.63592],[78.19473,19.62554],[78.1957,19.61827],[78.19548,19.61391],[78.19196,19.60479],[78.19232,19.59218],[78.18562,19.58409],[78.18987,19.57115],[78.18903,19.56736],[78.1846,19.56366],[78.1671,19.55913],[78.15842,19.55587],[78.14741,19.5529],[78.13998,19.5539],[78.13161,19.55753],[78.12476,19.5575],[78.11991,19.55362],[78.12343,19.54647],[78.13024,19.5407],[78.13503,19.53512],[78.13626,19.53118],[78.13511,19.52583],[78.1252,19.51744],[78.12336,19.5146],[78.1217,19.5082],[78.12107,19.50136],[78.11438,19.49137],[78.10198,19.48694],[78.09547,19.48733],[78.08304,19.47865],[78.07421,19.47103],[78.06786,19.467],[78.0632,19.4669],[78.05395,19.47658],[78.04415,19.48292],[78.03071,19.49469],[78.02589,19.4974],[78.0195,19.49612],[78.01642,19.49073],[78.01485,19.48359],[78.01317,19.46544],[78.00943,19.46141],[78.00002,19.4626],[77.99144,19.4552],[77.99103,19.45555],[77.98703,19.45996],[77.98642,19.46539],[77.9872,19.47857],[77.98025,19.48908],[77.97416,19.49387],[77.9735,19.49696],[77.97574,19.50609],[77.97239,19.50848],[77.95883,19.51094],[77.95314,19.50943],[77.94749,19.50103],[77.94345,19.49829],[77.93815,19.50039],[77.93606,19.5042],[77.93242,19.50857],[77.91658,19.51521],[77.91289,19.52782],[77.91278,19.53093],[77.9076,19.53324],[77.90417,19.53239],[77.90173,19.52697],[77.89874,19.52312],[77.88995,19.51938],[77.88835,19.5125],[77.89055,19.50508],[77.88546,19.50033],[77.88249,19.50021],[77.87934,19.50475],[77.87867,19.50919],[77.87738,19.51216],[77.86976,19.51376],[77.86158,19.51957],[77.85352,19.51776],[77.84778,19.51493],[77.84287,19.50983],[77.84374,19.49431],[77.84696,19.48674],[77.84351,19.48371],[77.8285,19.4803],[77.82753,19.4754],[77.83217,19.46864],[77.83795,19.46299],[77.84754,19.45581],[77.84704,19.45228],[77.83765,19.44878],[77.83469,19.43932],[77.83037,19.43866],[77.82568,19.44083],[77.81968,19.4453],[77.81612,19.45357],[77.80995,19.46296],[77.80486,19.4643],[77.80134,19.45937],[77.7981,19.45048],[77.78951,19.44884],[77.78198,19.4448],[77.77498,19.43867],[77.75618,19.43228],[77.74899,19.43103],[77.7421,19.43746],[77.73264,19.43372],[77.72235,19.43475],[77.71319,19.43736],[77.70762,19.43715],[77.70447,19.43864],[77.69891,19.43865],[77.69597,19.44098],[77.6981,19.44935],[77.69845,19.45738],[77.69908,19.45976],[77.7011,19.46182],[77.70542,19.46426],[77.71067,19.46723],[77.71398,19.47648],[77.71756,19.47687],[77.72227,19.47487],[77.72534,19.47471],[77.7287,19.47872],[77.73736,19.4805],[77.74029,19.48309],[77.73974,19.48615],[77.73584,19.49174],[77.73644,19.49494],[77.73918,19.50167],[77.75277,19.50963],[77.75413,19.51526],[77.74966,19.52179],[77.73371,19.53205],[77.72921,19.53146],[77.72272,19.52766],[77.71392,19.52562],[77.70582,19.5337],[77.70041,19.53785],[77.68911,19.53984],[77.67359,19.54077],[77.66589,19.5454],[77.65929,19.54677],[77.6463,19.54755],[77.6399,19.55115],[77.63414,19.55571],[77.63622,19.558],[77.64231,19.55566],[77.64932,19.55555],[77.64824,19.56396],[77.64057,19.58748],[77.6406,19.59644],[77.64327,19.59991],[77.6448,19.60526],[77.64477,19.60779],[77.6426,19.6097],[77.63831,19.60989],[77.63353,19.60834],[77.62946,19.60801],[77.62843,19.61442],[77.63019,19.62126],[77.62922,19.62439],[77.62714,19.62727],[77.61602,19.6293],[77.61413,19.63219],[77.61681,19.63778],[77.61511,19.63928],[77.61098,19.63906],[77.6082,19.64077],[77.60899,19.6443],[77.60746,19.64694],[77.60107,19.6444],[77.59968,19.64777],[77.597,19.65067],[77.5865,19.65136],[77.58419,19.65305],[77.58257,19.65673],[77.5803,19.65766],[77.57403,19.6516],[77.56835,19.65036],[77.55522,19.65245],[77.55412,19.6603],[77.55503,19.66372],[77.54655,19.66192],[77.54252,19.66246],[77.53906,19.66395],[77.53953,19.6687],[77.53493,19.66857],[77.52952,19.66983],[77.52323,19.66998],[77.51665,19.67232],[77.51322,19.67444],[77.50534,19.67607],[77.50212,19.67762],[77.49504,19.6791],[77.49149,19.6783],[77.48485,19.67529],[77.48264,19.67634],[77.47905,19.68237],[77.47664,19.68279],[77.46737,19.67929],[77.46279,19.67972],[77.45959,19.68195],[77.45899,19.68231],[77.45195,19.68655],[77.44605,19.68766],[77.44588,19.68822],[77.44464,19.69229],[77.4514,19.69984],[77.451,19.70035],[77.44861,19.70343],[77.44858,19.70364],[77.44782,19.70857],[77.446,19.7119],[77.446,19.7119],[77.44257,19.71402],[77.44247,19.71447],[77.44073,19.72206],[77.44051,19.72222],[77.43642,19.72506],[77.43637,19.72546],[77.43591,19.72939],[77.43564,19.72948],[77.41988,19.73506],[77.41746,19.73692],[77.41757,19.73717],[77.41845,19.73913],[77.41802,19.7395],[77.41333,19.74354],[77.399,19.73215],[77.39677,19.72573],[77.38887,19.72511],[77.38547,19.72631],[77.38325,19.72879],[77.38326,19.72901],[77.38333,19.73103],[77.38639,19.73541],[77.38492,19.7385],[77.38486,19.73854],[77.38172,19.74022],[77.37933,19.74293],[77.37931,19.74317],[77.37907,19.74604],[77.37974,19.7494],[77.38571,19.76088],[77.38711,19.76601],[77.39615,19.76636],[77.40455,19.76415],[77.40715,19.76562],[77.40993,19.77253],[77.40893,19.7767],[77.40869,19.77693],[77.40758,19.778],[77.3899,19.77999],[77.38353,19.78812],[77.38357,19.78824],[77.3904,19.80783],[77.39524,19.81112],[77.39002,19.82094],[77.39,19.82094],[77.38215,19.81992],[77.37376,19.82219],[77.37067,19.82223],[77.36223,19.81503],[77.35785,19.8162],[77.34683,19.8252],[77.34454,19.82912],[77.34454,19.82915],[77.34492,19.8329],[77.34621,19.83378],[77.34948,19.83524],[77.36359,19.83302],[77.36385,19.83697],[77.36351,19.83737],[77.35662,19.84541],[77.35674,19.84548],[77.36648,19.85153],[77.36532,19.85806],[77.36509,19.85811],[77.36068,19.85901],[77.354,19.85853],[77.34908,19.86023],[77.34898,19.86074],[77.34815,19.86468],[77.35032,19.86956],[77.34998,19.87011],[77.34791,19.87342],[77.34017,19.87406],[77.33606,19.87591],[77.32669,19.88372],[77.32364,19.88496],[77.31801,19.88336],[77.3065,19.8783],[77.30237,19.87843],[77.29859,19.87953],[77.29828,19.88011],[77.29683,19.88286],[77.29788,19.88512],[77.29725,19.88979],[77.2982,19.89264],[77.30216,19.89315],[77.30977,19.89062],[77.31502,19.88982],[77.31584,19.89088],[77.3163,19.89345],[77.31543,19.90164],[77.31777,19.90616],[77.31613,19.90961],[77.31608,19.90961],[77.31076,19.9104],[77.3039,19.90636],[77.29652,19.90015],[77.29273,19.89929],[77.28908,19.90072],[77.28877,19.90131],[77.28777,19.90318],[77.28776,19.90319],[77.28528,19.90486],[77.28532,19.90521],[77.28584,19.91047],[77.28661,19.91516],[77.28642,19.92343],[77.28738,19.93547],[77.29443,19.93749],[77.30102,19.94056],[77.30553,19.94651],[77.30734,19.95323],[77.3076,19.96247],[77.32162,19.95923],[77.32503,19.95619],[77.3324,19.9709],[77.3401,19.96905],[77.34047,19.97266],[77.33822,19.976],[77.34056,19.98392],[77.34073,19.99029],[77.34167,20.0006],[77.34096,20.00625],[77.34244,20.00871],[77.35278,20.01271],[77.35447,20.01406],[77.36162,20.02837],[77.36975,20.03869],[77.37377,20.04618],[77.37322,20.04819],[77.37052,20.05217],[77.35518,20.06818],[77.35546,20.07397],[77.35719,20.07769],[77.36403,20.08309],[77.36795,20.08828],[77.36946,20.10101],[77.37694,20.09378],[77.38714,20.0875],[77.39036,20.08627],[77.39847,20.08489],[77.40398,20.08485],[77.40814,20.08562],[77.41217,20.0826],[77.41613,20.08274],[77.41983,20.07973],[77.42573,20.07687],[77.43299,20.07585],[77.43762,20.07374],[77.45022,20.07089],[77.45585,20.07033],[77.46588,20.07122],[77.46981,20.0732],[77.47558,20.07895],[77.48293,20.08394],[77.48586,20.08357],[77.48827,20.0808],[77.49112,20.07969],[77.49613,20.08154],[77.50287,20.08728],[77.5261,20.09396],[77.53267,20.08674],[77.53928,20.07618],[77.54046,20.07278],[77.54632,20.06826],[77.55338,20.06418],[77.55458,20.06159],[77.55694,20.04831],[77.55863,20.04635],[77.56136,20.04655],[77.56552,20.04325],[77.56878,20.04288],[77.5809,20.02974],[77.58339,20.03087],[77.59334,20.03244],[77.59713,20.03729],[77.59959,20.0375],[77.60257,20.03534],[77.60491,20.03567],[77.60831,20.03782],[77.61154,20.03773],[77.61506,20.03982],[77.62593,20.04127],[77.627,20.045],[77.63464,20.05067],[77.64063,20.05916],[77.64024,20.06645],[77.64424,20.06963],[77.6485,20.0716],[77.64955,20.07567],[77.65442,20.07821],[77.65623,20.08077],[77.65828,20.08804],[77.65923,20.09646],[77.66467,20.09779],[77.66859,20.09999],[77.67174,20.10427],[77.67276,20.10874],[77.67233,20.11993],[77.67357,20.1233],[77.68055,20.13288],[77.68424,20.14443],[77.68298,20.14577],[77.67686,20.14789],[77.67923,20.15992],[77.68165,20.1657],[77.68137,20.16885],[77.66882,20.17361],[77.66499,20.17393],[77.657,20.17297],[77.65372,20.17358],[77.65136,20.18169],[77.65182,20.18519],[77.65055,20.18675],[77.64765,20.18821],[77.64664,20.19005],[77.64788,20.1936],[77.65317,20.19883],[77.65671,20.2],[77.65984,20.20204],[77.659,20.20412],[77.65508,20.2088],[77.65461,20.21052],[77.65962,20.22557],[77.6667,20.24099],[77.66858,20.24757],[77.65351,20.25069],[77.64894,20.25096],[77.64287,20.25349],[77.63319,20.26069],[77.6246,20.2614],[77.61165,20.26392],[77.60934,20.27811],[77.59595,20.28058],[77.595,20.29046],[77.5956,20.29642],[77.59516,20.30125],[77.59366,20.3043],[77.58906,20.30778],[77.58665,20.31131],[77.58536,20.31619],[77.58576,20.32089],[77.58439,20.32532],[77.58092,20.32564],[77.58033,20.32777],[77.57859,20.32996],[77.5756,20.33039],[77.57042,20.32912],[77.56847,20.33011],[77.56764,20.33333],[77.5678,20.33769],[77.57033,20.35528],[77.57134,20.35905],[77.57708,20.36784],[77.57815,20.37099],[77.5749,20.37681],[77.57438,20.38628],[77.57547,20.39253],[77.58218,20.40659],[77.58251,20.40877],[77.58497,20.41161],[77.58967,20.41266],[77.59636,20.41054],[77.59754,20.41305],[77.59725,20.41523],[77.59394,20.41939],[77.59287,20.42262],[77.59338,20.42456],[77.59829,20.42836],[77.60233,20.43011],[77.60534,20.43272],[77.60714,20.43609],[77.60135,20.44485],[77.60837,20.4522],[77.61375,20.45312],[77.61356,20.45858],[77.61669,20.46079],[77.62366,20.45585],[77.64056,20.45013],[77.64757,20.44897],[77.65092,20.45577],[77.6507,20.45887],[77.65032,20.46966],[77.65432,20.47967],[77.65484,20.48448],[77.65504,20.49165],[77.65402,20.4947],[77.65495,20.49606],[77.66289,20.49685],[77.66475,20.50011],[77.66511,20.50538],[77.66846,20.51292],[77.6686,20.51493],[77.67288,20.51495],[77.68677,20.51803],[77.68891,20.51945],[77.69108,20.52333],[77.69043,20.53206],[77.68812,20.5334],[77.67041,20.53718],[77.66667,20.53698],[77.6587,20.53224],[77.65604,20.52842],[77.64488,20.5292],[77.65023,20.54671],[77.65307,20.56418],[77.65563,20.56419],[77.65918,20.56519],[77.65975,20.56822],[77.66259,20.57159],[77.66683,20.58043],[77.68739,20.57972],[77.69079,20.57803],[77.69294,20.57267],[77.70284,20.56741],[77.71168,20.56708],[77.72108,20.56543],[77.72983,20.56271],[77.73555,20.5599],[77.74191,20.56138],[77.7453,20.55819],[77.75051,20.54791],[77.75603,20.5447],[77.76604,20.54465],[77.77161,20.53994],[77.78245,20.54372],[77.7856,20.54753],[77.78971,20.55638],[77.7942,20.56018],[77.80697,20.5668],[77.81151,20.58719],[77.8171,20.58528],[77.8214,20.58104],[77.82748,20.57327],[77.8376,20.56557],[77.8468,20.57039],[77.84809,20.57622],[77.84718,20.57756],[77.84668,20.58765],[77.85457,20.58949],[77.86211,20.59241],[77.86579,20.59487],[77.86467,20.59821],[77.86614,20.60925],[77.86867,20.61155],[77.87322,20.6098],[77.87737,20.60937],[77.88137,20.61208],[77.88288,20.61691],[77.88565,20.61846],[77.88825,20.62169],[77.89309,20.62346],[77.90087,20.61453],[77.90689,20.61222],[77.90906,20.6089],[77.91648,20.60648],[77.91908,20.60452],[77.91813,20.59606],[77.91518,20.58871],[77.91848,20.58816],[77.91733,20.57787],[77.91237,20.56542],[77.91933,20.56524],[77.92219,20.56417],[77.92178,20.56011],[77.92433,20.55855],[77.92649,20.56104],[77.9285,20.56658],[77.93066,20.56873],[77.93151,20.57347],[77.93411,20.57705],[77.93939,20.57529],[77.94307,20.57639],[77.94457,20.57952],[77.95135,20.57996],[77.95106,20.57534],[77.95753,20.58137],[77.97061,20.58735],[77.9738,20.5901],[77.97642,20.59443],[77.9789,20.60334],[77.98201,20.60794],[77.98841,20.61255],[77.99608,20.62284],[78.00001,20.62443],[78.01515,20.62656],[78.02031,20.62817],[78.0224,20.63118],[78.02665,20.63283],[78.02736,20.63382],[78.02525,20.63667],[78.02126,20.64225],[78.02556,20.64886],[78.02849,20.65681],[78.03412,20.65974],[78.03644,20.65948],[78.03866,20.66645],[78.04056,20.66613],[78.04169,20.66752],[78.05839,20.66802],[78.05873,20.6701],[78.06326,20.6694],[78.06363,20.67268],[78.07153,20.67109],[78.07089,20.66833],[78.07748,20.6677],[78.07706,20.66379],[78.08021,20.66469],[78.08102,20.66855],[78.08308,20.6689],[78.08491,20.67306],[78.08902,20.67207],[78.08906,20.66879],[78.09496,20.66977],[78.09566,20.66754],[78.10032,20.66598],[78.1003,20.65902],[78.09822,20.65952],[78.09737,20.65083],[78.0933,20.64096],[78.10149,20.64392],[78.10392,20.64021],[78.1119,20.64017],[78.11227,20.64896],[78.11973,20.64801],[78.12641,20.64899],[78.13137,20.648],[78.13233,20.65405],[78.1266,20.6576],[78.12503,20.66081],[78.1308,20.66271],[78.13224,20.66433],[78.13614,20.65989],[78.14534,20.66055],[78.15902,20.65913],[78.15892,20.66722],[78.16813,20.66708],[78.16961,20.66997],[78.1738,20.6714],[78.18113,20.67055],[78.18286,20.67722],[78.19355,20.67658],[78.20025,20.67721],[78.20905,20.67649],[78.21106,20.68019],[78.21253,20.68905],[78.21338,20.68935],[78.22647,20.69131],[78.23129,20.69095],[78.23369,20.68965],[78.2366,20.68634],[78.25402,20.68392],[78.25675,20.68452],[78.25733,20.69141],[78.25965,20.69569],[78.27489,20.69675],[78.27953,20.69639]]]}}]}