{"type":"FeatureCollection","features":[{"type":"Feature","properties":{"id":"north","name":"North","stateId":"sikkim","stateName":"Sikkim","censuscode":241,"type":"district"},"geometry":{"type":"Polygon","coordinates":[[[88.81334,27.41401],[88.79983,27.41617],[88.78976,27.42153],[88.78481,27.42262],[88.77569,27.41613],[88.76986,27.41344],[88.75629,27.41446],[88.73408,27.41905],[88.72133,27.41643],[88.71484,27.41189],[88.70289,27.4015],[88.69745,27.39812],[88.68942,27.39784],[88.6818,27.39978],[88.67776,27.39988],[88.66603,27.39281],[88.66144,27.39081],[88.6516,27.39161],[88.64344,27.39063],[88.6401,27.38826],[88.62939,27.38702],[88.61838,27.38747],[88.60228,27.39047],[88.59629,27.39209],[88.59331,27.39603],[88.58455,27.39419],[88.55741,27.39209],[88.54639,27.39375],[88.53636,27.39635],[88.53154,27.39586],[88.52579,27.39684],[88.52173,27.39426],[88.51636,27.38923],[88.50385,27.38221],[88.49379,27.37838],[88.48857,27.37808],[88.48109,27.38077],[88.47302,27.38526],[88.4665,27.38718],[88.45627,27.38825],[88.44606,27.39323],[88.43917,27.39958],[88.43515,27.40416],[88.42927,27.41289],[88.42211,27.41832],[88.41927,27.42323],[88.41708,27.42955],[88.4168,27.439],[88.41861,27.44627],[88.41135,27.4581],[88.40968,27.46308],[88.40991,27.46996],[88.40817,27.47539],[88.40127,27.4787],[88.37818,27.49725],[88.36728,27.51004],[88.36378,27.51694],[88.35832,27.521],[88.34521,27.52605],[88.33777,27.52733],[88.33144,27.52778],[88.32184,27.5268],[88.29359,27.51854],[88.28422,27.5126],[88.26593,27.52549],[88.2506,27.53118],[88.24408,27.53455],[88.24031,27.54011],[88.23462,27.55682],[88.2205,27.57335],[88.2123,27.58105],[88.16629,27.59981],[88.12959,27.61109],[88.11723,27.61784],[88.12224,27.63811],[88.12434,27.64448],[88.12561,27.64674],[88.13023,27.65197],[88.13164,27.65313],[88.13441,27.65439],[88.14075,27.65724],[88.1474,27.66521],[88.14981,27.66659],[88.15105,27.66864],[88.15348,27.67676],[88.15522,27.6854],[88.15463,27.69352],[88.15205,27.69938],[88.15202,27.70391],[88.15673,27.71774],[88.15788,27.73018],[88.16042,27.73551],[88.16821,27.74179],[88.17479,27.74477],[88.18085,27.74932],[88.18431,27.762],[88.18704,27.76815],[88.19006,27.77375],[88.19316,27.77801],[88.19405,27.77867],[88.19458,27.77927],[88.19545,27.7811],[88.19609,27.78154],[88.19882,27.7881],[88.19827,27.7931],[88.19672,27.79693],[88.19596,27.79713],[88.19416,27.79885],[88.19364,27.79999],[88.19333,27.80028],[88.19118,27.80183],[88.18996,27.80251],[88.18902,27.80682],[88.18641,27.81289],[88.18309,27.8147],[88.17929,27.81534],[88.17724,27.81623],[88.17683,27.81917],[88.17734,27.82052],[88.18505,27.8251],[88.19313,27.83127],[88.19768,27.83424],[88.20122,27.83808],[88.2027,27.84217],[88.20238,27.8503],[88.2016,27.85099],[88.20108,27.85124],[88.19166,27.85611],[88.18987,27.85725],[88.18935,27.85724],[88.18935,27.8577],[88.18935,27.85814],[88.18322,27.86193],[88.18322,27.86237],[88.18321,27.86283],[88.18195,27.86371],[88.18181,27.86385],[88.18063,27.86521],[88.17887,27.86598],[88.17301,27.86617],[88.17174,27.86593],[88.16666,27.86815],[88.16312,27.8687],[88.15191,27.87054],[88.14188,27.86964],[88.13403,27.87306],[88.13569,27.87573],[88.13879,27.88141],[88.13853,27.88543],[88.13599,27.89078],[88.13489,27.89458],[88.13437,27.89481],[88.13385,27.89593],[88.13157,27.89706],[88.13109,27.89832],[88.13027,27.89976],[88.12822,27.90155],[88.12744,27.90199],[88.12617,27.90508],[88.12539,27.90551],[88.12525,27.90666],[88.12254,27.91167],[88.12231,27.91532],[88.12224,27.91709],[88.12548,27.92526],[88.13455,27.93392],[88.13757,27.93778],[88.13764,27.93934],[88.13751,27.94501],[88.13239,27.94746],[88.13237,27.94973],[88.13263,27.9504],[88.13868,27.95543],[88.14182,27.9611],[88.14346,27.96247],[88.14777,27.96296],[88.14854,27.96274],[88.14873,27.96267],[88.16237,27.95728],[88.1759,27.94778],[88.18228,27.94421],[88.18433,27.94378],[88.1914,27.94307],[88.19731,27.9432],[88.2034,27.94572],[88.2044,27.94662],[88.2058,27.95001],[88.20791,27.95749],[88.20837,27.95999],[88.21126,27.965],[88.21215,27.96567],[88.21215,27.96613],[88.21848,27.9673],[88.22279,27.96551],[88.2245,27.96489],[88.2253,27.9645],[88.22667,27.96398],[88.23022,27.96355],[88.23099,27.96379],[88.23177,27.96401],[88.2348,27.96675],[88.23834,27.96744],[88.23911,27.96722],[88.23964,27.96675],[88.24142,27.96542],[88.2438,27.95367],[88.24608,27.95213],[88.24634,27.951],[88.24635,27.95008],[88.24688,27.94988],[88.24688,27.94942],[88.2525,27.94808],[88.25681,27.94969],[88.25706,27.95038],[88.26743,27.95587],[88.26948,27.95611],[88.27025,27.95589],[88.27382,27.95614],[88.27913,27.95785],[88.27962,27.95763],[88.28014,27.95786],[88.28066,27.958],[88.28343,27.96006],[88.2842,27.96073],[88.28532,27.96391],[88.28544,27.96504],[88.28811,27.96687],[88.28899,27.96733],[88.29868,27.9685],[88.30247,27.96762],[88.31341,27.96951],[88.31748,27.97225],[88.32253,27.97793],[88.3248,27.97929],[88.33151,27.9809],[88.33252,27.98067],[88.33611,27.98149],[88.33776,27.98208],[88.34044,27.98433],[88.34105,27.98548],[88.34363,27.9866],[88.34637,27.98757],[88.3538,27.98907],[88.35881,27.98922],[88.35959,27.98944],[88.37235,27.98773],[88.38332,27.98327],[88.39023,27.97947],[88.39022,27.97901],[88.39735,27.97745],[88.39835,27.97768],[88.40258,27.97933],[88.4046,27.9807],[88.40926,27.98296],[88.41055,27.98319],[88.41284,27.98635],[88.4151,27.98751],[88.41736,27.99205],[88.41851,27.99318],[88.42028,27.99523],[88.42089,27.99659],[88.43206,28.00524],[88.43207,28.00567],[88.43333,28.00615],[88.4351,28.00774],[88.43564,28.00795],[88.44118,28.01002],[88.45951,28.01464],[88.46444,28.01683],[88.47016,28.01944],[88.4732,28.02284],[88.47776,28.03249],[88.48024,28.03645],[88.48657,28.04222],[88.49045,28.04465],[88.49171,28.04523],[88.49826,28.04773],[88.50972,28.04858],[88.51024,28.04835],[88.51025,28.0479],[88.51026,28.04744],[88.51152,28.04678],[88.51558,28.04613],[88.52528,28.04367],[88.5294,28.04075],[88.52964,28.03984],[88.52964,28.0394],[88.53092,28.03871],[88.53092,28.03825],[88.53629,28.03649],[88.54009,28.03604],[88.54187,28.03628],[88.54654,28.03814],[88.54678,28.03823],[88.54748,28.03856],[88.54952,28.04015],[88.55128,28.04379],[88.55144,28.04935],[88.55148,28.05013],[88.55222,28.05218],[88.55362,28.05353],[88.55899,28.06079],[88.56035,28.06349],[88.56086,28.06507],[88.56106,28.0773],[88.56304,28.08451],[88.56686,28.08724],[88.57552,28.08866],[88.57635,28.08813],[88.57934,28.08619],[88.58344,28.0853],[88.58517,28.08597],[88.5941,28.08986],[88.59614,28.091],[88.59767,28.09123],[88.59894,28.09101],[88.60376,28.09532],[88.60464,28.09661],[88.61139,28.09808],[88.614,28.09936],[88.62204,28.10226],[88.62506,28.10338],[88.62217,28.1084],[88.62076,28.10963],[88.62017,28.11548],[88.61946,28.11844],[88.61909,28.11934],[88.6155,28.12251],[88.61536,28.12589],[88.61611,28.12725],[88.62045,28.12931],[88.62987,28.13068],[88.6355,28.12686],[88.63551,28.1264],[88.63551,28.12597],[88.63756,28.1244],[88.63832,28.12417],[88.63831,28.12373],[88.63909,28.12351],[88.64034,28.1208],[88.64086,28.12057],[88.64139,28.12034],[88.64498,28.10839],[88.64627,28.10408],[88.64793,28.10283],[88.64981,28.10142],[88.65381,28.09883],[88.66265,28.08956],[88.66961,28.07936],[88.67528,28.0738],[88.6813,28.07256],[88.68182,28.07279],[88.6836,28.07392],[88.68561,28.0771],[88.6943,28.07871],[88.70371,28.0767],[88.70632,28.0771],[88.71237,28.07787],[88.72281,28.07543],[88.7279,28.07611],[88.7376,28.07502],[88.74879,28.07574],[88.75952,28.07306],[88.76205,28.07169],[88.76206,28.07125],[88.77645,28.06101],[88.77669,28.06039],[88.7772,28.0604],[88.77755,28.06016],[88.77915,28.05888],[88.77915,28.05842],[88.77915,28.05796],[88.78171,28.05662],[88.79066,28.05053],[88.79093,28.04938],[88.79118,28.04825],[88.79194,28.0478],[88.79269,28.04736],[88.79399,28.044],[88.795,28.04331],[88.795,28.04287],[88.80307,28.03681],[88.80306,28.03637],[88.80332,28.03616],[88.80444,28.03567],[88.80582,28.03254],[88.80597,28.03224],[88.80776,28.03089],[88.80777,28.03046],[88.81365,28.02647],[88.81365,28.02601],[88.81391,28.02585],[88.81618,28.02504],[88.82755,28.01951],[88.82901,28.01875],[88.83364,28.01684],[88.83734,28.01494],[88.84115,28.01132],[88.84288,28.00018],[88.84389,27.99927],[88.84397,27.9989],[88.84449,27.99867],[88.84449,27.99798],[88.84501,27.99663],[88.84729,27.99484],[88.84911,27.99078],[88.84801,27.96501],[88.84813,27.96389],[88.85119,27.96138],[88.85223,27.9562],[88.84789,27.95256],[88.8446,27.94714],[88.84437,27.93177],[88.84768,27.93019],[88.86165,27.9265],[88.86706,27.92505],[88.86934,27.92324],[88.8729,27.91283],[88.87829,27.90221],[88.87878,27.90222],[88.87878,27.90176],[88.87953,27.9016],[88.88771,27.89546],[88.88771,27.89503],[88.88823,27.89502],[88.88849,27.89344],[88.88854,27.89301],[88.88904,27.893],[88.88942,27.89231],[88.88939,27.88883],[88.88799,27.88009],[88.88876,27.86992],[88.88977,27.86765],[88.89256,27.86517],[88.89373,27.86112],[88.89361,27.85884],[88.89096,27.85727],[88.89083,27.85681],[88.89005,27.85523],[88.89003,27.85509],[88.88894,27.83874],[88.88833,27.83739],[88.88691,27.83692],[88.88577,27.83602],[88.88503,27.83375],[88.88461,27.83315],[88.88418,27.83241],[88.88322,27.83085],[88.88096,27.82717],[88.87624,27.82431],[88.87544,27.82438],[88.87348,27.82345],[88.87028,27.82152],[88.86368,27.81789],[88.86331,27.81766],[88.86219,27.81629],[88.86206,27.81472],[88.86257,27.8145],[88.86271,27.81337],[88.86319,27.81223],[88.86524,27.81111],[88.86538,27.80793],[88.86475,27.79865],[88.8602,27.77809],[88.86046,27.76812],[88.86217,27.76014],[88.86242,27.7591],[88.86377,27.75671],[88.86478,27.75579],[88.86534,27.75435],[88.86636,27.75345],[88.86737,27.75278],[88.86918,27.7487],[88.87018,27.73877],[88.86888,27.7356],[88.86209,27.72993],[88.86158,27.72904],[88.8615,27.72892],[88.85932,27.72382],[88.8583,27.71796],[88.85779,27.7173],[88.84905,27.71183],[88.84666,27.71092],[88.84639,27.71023],[88.84641,27.70798],[88.84716,27.70548],[88.84765,27.70527],[88.84817,27.70505],[88.84894,27.70257],[88.85328,27.70007],[88.85327,27.6942],[88.85189,27.6887],[88.85223,27.6857],[88.85273,27.68138],[88.85299,27.68046],[88.85317,27.67984],[88.85445,27.67534],[88.85433,27.66866],[88.8508,27.66277],[88.84613,27.65847],[88.84448,27.65733],[88.83993,27.65009],[88.83371,27.64523],[88.83002,27.6426],[88.82842,27.64205],[88.82749,27.6417],[88.82321,27.64242],[88.8209,27.64327],[88.81837,27.64257],[88.81762,27.64167],[88.81482,27.63602],[88.81409,27.63195],[88.81589,27.61888],[88.81614,27.61409],[88.81563,27.6134],[88.81313,27.603],[88.8096,27.5996],[88.8086,27.59937],[88.80861,27.59893],[88.80809,27.59892],[88.80808,27.59846],[88.80554,27.59621],[88.80505,27.59621],[88.80506,27.59576],[88.8022,27.59374],[88.80171,27.59375],[88.80043,27.59174],[88.79943,27.59036],[88.79616,27.58782],[88.7949,27.58532],[88.79318,27.57603],[88.79243,27.57514],[88.78988,27.57311],[88.77583,27.56765],[88.77584,27.56719],[88.77494,27.5665],[88.77468,27.5647],[88.77547,27.55972],[88.77599,27.5595],[88.7765,27.55926],[88.78069,27.54426],[88.78265,27.53735],[88.7831,27.53703],[88.78391,27.53646],[88.78669,27.53376],[88.78744,27.5324],[88.78744,27.53197],[88.79178,27.52927],[88.79355,27.52882],[88.79456,27.52905],[88.7956,27.52882],[88.79609,27.52836],[88.79648,27.52589],[88.79635,27.52476],[88.79522,27.5243],[88.79453,27.5206],[88.79418,27.51892],[88.79367,27.51485],[88.79363,27.51338],[88.79353,27.51124],[88.79266,27.50621],[88.79071,27.49624],[88.79082,27.49429],[88.79177,27.49348],[88.79301,27.49218],[88.79289,27.48743],[88.79063,27.48246],[88.78889,27.47294],[88.78891,27.46752],[88.79082,27.4553],[88.79172,27.45375],[88.79477,27.45218],[88.79477,27.45105],[88.79503,27.44993],[88.80214,27.44677],[88.8014,27.43637],[88.80231,27.43253],[88.80391,27.43054],[88.81053,27.42691],[88.81144,27.42509],[88.81146,27.42484],[88.81334,27.41401]]]}}]}