{"type":"FeatureCollection","features":[{"type":"Feature","properties":{"id":"south","name":"South","stateId":"sikkim","stateName":"Sikkim","censuscode":243,"type":"district"},"geometry":{"type":"Polygon","coordinates":[[[88.48857,27.37808],[88.48361,27.36604],[88.48286,27.36016],[88.48432,27.35234],[88.49084,27.3422],[88.48884,27.33335],[88.48528,27.32848],[88.47652,27.32347],[88.4696,27.3216],[88.46429,27.31733],[88.45705,27.31506],[88.45439,27.30563],[88.44954,27.3006],[88.45082,27.29569],[88.44513,27.28092],[88.44412,27.27364],[88.44603,27.26622],[88.44952,27.26094],[88.46147,27.25566],[88.46725,27.25024],[88.47785,27.24713],[88.48339,27.24644],[88.49331,27.23924],[88.49711,27.23024],[88.49482,27.21818],[88.49361,27.20204],[88.49936,27.193],[88.50629,27.18484],[88.528,27.1779],[88.52771,27.17475],[88.53703,27.16552],[88.53394,27.16001],[88.53923,27.15407],[88.53713,27.14988],[88.53394,27.1495],[88.52893,27.15007],[88.52592,27.14753],[88.52316,27.14347],[88.51944,27.14076],[88.51471,27.13572],[88.51015,27.13378],[88.5061,27.13095],[88.5036,27.12788],[88.50281,27.12509],[88.49903,27.1246],[88.49391,27.12651],[88.48848,27.12258],[88.48098,27.12042],[88.47628,27.11702],[88.47391,27.11366],[88.47197,27.10452],[88.46737,27.09557],[88.46167,27.08937],[88.45345,27.08513],[88.4468,27.08389],[88.43912,27.08133],[88.43634,27.08334],[88.41821,27.09042],[88.40489,27.09414],[88.39476,27.09812],[88.37791,27.09911],[88.37115,27.09812],[88.35957,27.10077],[88.35522,27.10301],[88.35244,27.10659],[88.3481,27.11036],[88.33905,27.10785],[88.33115,27.10458],[88.32739,27.107],[88.32782,27.11632],[88.32614,27.11902],[88.31861,27.12502],[88.31186,27.12827],[88.30724,27.12767],[88.30228,27.12444],[88.28551,27.1305],[88.28263,27.14224],[88.28407,27.14422],[88.28474,27.14852],[88.28715,27.15043],[88.28956,27.15077],[88.29296,27.15389],[88.29671,27.16297],[88.29899,27.164],[88.30259,27.16876],[88.30339,27.17336],[88.30698,27.17613],[88.31206,27.17779],[88.31469,27.18139],[88.3222,27.18531],[88.33118,27.18728],[88.33321,27.18855],[88.33146,27.19159],[88.33695,27.19424],[88.3343,27.19846],[88.33437,27.20097],[88.33159,27.20419],[88.3256,27.22022],[88.32249,27.22292],[88.31299,27.2245],[88.31025,27.2258],[88.30581,27.23668],[88.30812,27.24582],[88.30823,27.25626],[88.30656,27.26065],[88.29915,27.266],[88.29194,27.27288],[88.28654,27.2753],[88.28362,27.27795],[88.28096,27.28128],[88.2817,27.28606],[88.28287,27.28792],[88.2932,27.29462],[88.29849,27.2968],[88.30906,27.29923],[88.31201,27.30242],[88.31359,27.30539],[88.31324,27.31541],[88.31129,27.31846],[88.30778,27.32105],[88.3027,27.32307],[88.29939,27.32647],[88.30065,27.33066],[88.30295,27.33386],[88.30753,27.33732],[88.32224,27.34568],[88.32531,27.34904],[88.33053,27.36463],[88.33322,27.36846],[88.34179,27.37179],[88.3519,27.37375],[88.36085,27.37801],[88.35997,27.38408],[88.36091,27.38967],[88.36017,27.39901],[88.35757,27.40263],[88.35331,27.41171],[88.35058,27.41388],[88.34561,27.41082],[88.34154,27.40596],[88.33634,27.41019],[88.33409,27.41679],[88.32815,27.41724],[88.31894,27.41504],[88.30831,27.41657],[88.30295,27.41427],[88.29804,27.41011],[88.28667,27.40488],[88.28177,27.40549],[88.27737,27.41158],[88.2772,27.41929],[88.26914,27.4615],[88.26866,27.4895],[88.27091,27.49781],[88.27406,27.50328],[88.27898,27.5089],[88.28422,27.5126],[88.29359,27.51854],[88.32184,27.5268],[88.33144,27.52778],[88.33777,27.52733],[88.34521,27.52605],[88.35832,27.521],[88.36378,27.51694],[88.36728,27.51004],[88.37818,27.49725],[88.40127,27.4787],[88.40817,27.47539],[88.40991,27.46996],[88.40968,27.46308],[88.41135,27.4581],[88.41861,27.44627],[88.4168,27.439],[88.41708,27.42955],[88.41927,27.42323],[88.42211,27.41832],[88.42927,27.41289],[88.43515,27.40416],[88.43917,27.39958],[88.44606,27.39323],[88.45627,27.38825],[88.4665,27.38718],[88.47302,27.38526],[88.48109,27.38077],[88.48857,27.37808]]]}}]}