{"type":"FeatureCollection","features":[{"type":"Feature","properties":{"id":"alwar","name":"Alwar","stateId":"rajasthan","stateName":"Rajasthan","censuscode":104,"type":"district"},"geometry":{"type":"MultiPolygon","coordinates":[[[[76.86341,28.22005],[76.8668,28.21797],[76.8727,28.21943],[76.87487,28.21276],[76.87523,28.20631],[76.88833,28.20516],[76.89575,28.20527],[76.90575,28.20239],[76.90892,28.19953],[76.89478,28.1915],[76.89292,28.1895],[76.89309,28.18643],[76.89913,28.1826],[76.90818,28.17408],[76.92109,28.1666],[76.93008,28.15698],[76.93657,28.15363],[76.94684,28.15007],[76.95061,28.14987],[76.94957,28.14563],[76.95077,28.14341],[76.96558,28.14072],[76.9708,28.13871],[76.96484,28.11841],[76.96448,28.10645],[76.96002,28.09079],[76.957,28.07336],[76.95548,28.06603],[76.95144,28.06151],[76.94692,28.05431],[76.94252,28.04284],[76.94072,28.03673],[76.93959,28.0252],[76.93539,28.00721],[76.93044,28.0004],[76.92742,27.99231],[76.93109,27.98052],[76.93368,27.97305],[76.93151,27.96047],[76.92825,27.94753],[76.92778,27.93552],[76.92778,27.91955],[76.92996,27.91575],[76.93861,27.91605],[76.94751,27.91371],[76.94541,27.90222],[76.94683,27.89067],[76.93471,27.8891],[76.93474,27.88305],[76.93339,27.87147],[76.93689,27.86181],[76.93848,27.8499],[76.93666,27.83865],[76.93519,27.82889],[76.93048,27.82651],[76.92352,27.8293],[76.91641,27.83061],[76.91231,27.82735],[76.90958,27.82012],[76.90888,27.81585],[76.91373,27.80725],[76.91509,27.80235],[76.91128,27.79597],[76.91238,27.78958],[76.90711,27.78578],[76.90405,27.78083],[76.90208,27.77395],[76.90075,27.76672],[76.89981,27.75588],[76.89899,27.73671],[76.89624,27.7319],[76.89243,27.7256],[76.8917,27.71912],[76.89689,27.71424],[76.90373,27.71319],[76.91114,27.71112],[76.91665,27.70676],[76.92055,27.70077],[76.92291,27.69548],[76.91869,27.69131],[76.91434,27.69052],[76.90864,27.68931],[76.90182,27.69294],[76.89633,27.69636],[76.89114,27.69806],[76.88922,27.69406],[76.89141,27.6902],[76.89693,27.68752],[76.90303,27.68435],[76.90505,27.68064],[76.90231,27.67801],[76.89993,27.67459],[76.90152,27.67156],[76.90545,27.6671],[76.90838,27.66271],[76.9088,27.65812],[76.9109,27.65319],[76.91364,27.65064],[76.91775,27.65147],[76.92212,27.65427],[76.92729,27.65614],[76.93214,27.65538],[76.93513,27.66009],[76.9386,27.66636],[76.94253,27.66974],[76.94677,27.66832],[76.95311,27.66521],[76.95987,27.66089],[76.96856,27.65706],[76.97884,27.65176],[76.9775,27.64012],[76.9847,27.63508],[76.98481,27.62551],[76.98545,27.61828],[76.98372,27.61382],[76.97346,27.61276],[76.96175,27.61344],[76.94915,27.6141],[76.93636,27.61241],[76.93714,27.60458],[76.9361,27.59784],[76.93956,27.59106],[76.94417,27.5846],[76.94544,27.57979],[76.94078,27.57055],[76.94726,27.56835],[76.95139,27.57332],[76.959,27.57049],[76.96012,27.56738],[76.96144,27.56447],[76.9616,27.56061],[76.95972,27.55542],[76.95568,27.55468],[76.95195,27.55611],[76.94811,27.55477],[76.95076,27.55074],[76.95562,27.54723],[76.95822,27.54258],[76.96165,27.53732],[76.96501,27.53792],[76.96682,27.54407],[76.97315,27.54743],[76.97713,27.54578],[76.98351,27.54106],[76.98686,27.53537],[76.99322,27.5329],[76.99816,27.53176],[76.9998,27.53111],[77.00229,27.53101],[77.00781,27.53356],[77.01782,27.5349],[77.02293,27.53801],[77.01897,27.54232],[77.00944,27.5448],[77.00215,27.55228],[77.00122,27.56048],[77.00193,27.56563],[77.00568,27.56612],[77.01005,27.56361],[77.01651,27.56158],[77.02156,27.55699],[77.02884,27.55413],[77.03562,27.55294],[77.04001,27.5562],[77.04874,27.55489],[77.05,27.54995],[77.04874,27.5483],[77.04164,27.54774],[77.03576,27.54828],[77.03478,27.54735],[77.03694,27.54439],[77.04249,27.54122],[77.04821,27.54041],[77.05431,27.54042],[77.05736,27.54221],[77.05888,27.54201],[77.06582,27.53626],[77.06618,27.53524],[77.0672,27.53207],[77.06405,27.52819],[77.05549,27.52463],[77.04551,27.52266],[77.04345,27.52156],[77.03691,27.51743],[77.03358,27.50833],[77.02527,27.50976],[77.02094,27.50822],[77.02031,27.50258],[77.02142,27.50004],[77.02485,27.49862],[77.02596,27.49635],[77.03611,27.4915],[77.04691,27.47949],[77.05528,27.47539],[77.05608,27.47106],[77.05485,27.46551],[77.05284,27.46234],[77.05697,27.45803],[77.05882,27.45255],[77.05749,27.45033],[77.06155,27.44584],[77.06056,27.44172],[77.05713,27.44073],[77.05266,27.43642],[77.04856,27.43377],[77.04128,27.43848],[77.03897,27.44137],[77.04217,27.4456],[77.04574,27.44731],[77.05048,27.452],[77.05014,27.45382],[77.04775,27.45626],[77.0417,27.46031],[77.03578,27.46267],[77.03326,27.45709],[77.02864,27.45013],[77.02661,27.44877],[77.0059,27.44854],[77.00199,27.4513],[76.99979,27.45089],[76.9984,27.4517],[76.9905,27.45459],[76.98536,27.45707],[76.98093,27.45835],[76.98013,27.46108],[76.97749,27.46198],[76.97382,27.45934],[76.96707,27.46463],[76.96778,27.46645],[76.97024,27.47004],[76.97157,27.47305],[76.96875,27.4754],[76.96611,27.47731],[76.95556,27.47945],[76.94845,27.48049],[76.94288,27.48282],[76.94086,27.48598],[76.94116,27.48927],[76.94053,27.49379],[76.93848,27.49708],[76.9373,27.50135],[76.93318,27.50377],[76.93003,27.50818],[76.92455,27.51156],[76.91956,27.51359],[76.91276,27.51463],[76.90744,27.51681],[76.90771,27.51929],[76.91034,27.52254],[76.91185,27.5227],[76.9152,27.52235],[76.91859,27.52157],[76.92293,27.52095],[76.92748,27.5211],[76.92849,27.52394],[76.92687,27.5251],[76.92603,27.52772],[76.92759,27.52954],[76.92697,27.53125],[76.92374,27.53103],[76.92003,27.52948],[76.91375,27.52803],[76.90975,27.52798],[76.90623,27.5286],[76.90296,27.53057],[76.8998,27.53246],[76.89729,27.5291],[76.89585,27.52469],[76.89464,27.52015],[76.88993,27.52104],[76.88124,27.50898],[76.88575,27.5017],[76.89434,27.49774],[76.89768,27.4905],[76.90112,27.49167],[76.90318,27.48979],[76.90649,27.49427],[76.90898,27.49402],[76.91191,27.49546],[76.91418,27.49678],[76.91831,27.4935],[76.92222,27.491],[76.92465,27.49037],[76.92404,27.48718],[76.92318,27.48339],[76.92185,27.48054],[76.91741,27.47884],[76.91476,27.47788],[76.91221,27.4733],[76.90979,27.46878],[76.90875,27.46492],[76.90855,27.46272],[76.90741,27.46031],[76.90483,27.45966],[76.90318,27.45942],[76.90152,27.45727],[76.90087,27.45522],[76.90336,27.45495],[76.90614,27.4549],[76.90865,27.45376],[76.91206,27.45407],[76.91255,27.45726],[76.91479,27.459],[76.91897,27.45926],[76.92297,27.45877],[76.9255,27.45614],[76.92574,27.45389],[76.93082,27.45131],[76.93716,27.44805],[76.9405,27.44543],[76.94433,27.44149],[76.94795,27.43728],[76.95077,27.43408],[76.95681,27.43086],[76.95998,27.42747],[76.96133,27.42367],[76.96155,27.41955],[76.96334,27.41833],[76.96682,27.41991],[76.97183,27.42271],[76.97558,27.42195],[76.97728,27.41919],[76.98009,27.41918],[76.98162,27.42065],[76.98303,27.42493],[76.98549,27.42748],[76.98891,27.42793],[76.99363,27.42672],[76.99714,27.42355],[76.99978,27.42163],[77.00483,27.41907],[77.00738,27.41543],[77.00787,27.41407],[77.00652,27.41074],[77.00616,27.40537],[77.00978,27.3996],[77.0101,27.39331],[77.0137,27.39057],[77.01753,27.38947],[77.02313,27.39038],[77.02417,27.39444],[77.02932,27.39857],[77.03162,27.39821],[77.03301,27.39696],[77.02852,27.38828],[77.0293,27.38584],[77.04568,27.37704],[77.0484,27.37806],[77.05074,27.38013],[77.05662,27.37685],[77.06347,27.377],[77.06667,27.37956],[77.06823,27.38312],[77.07247,27.38897],[77.07657,27.38878],[77.08403,27.38276],[77.09103,27.37581],[77.09913,27.37203],[77.10372,27.36633],[77.10555,27.36283],[77.11219,27.35697],[77.13614,27.34765],[77.14077,27.34627],[77.14558,27.34658],[77.15727,27.34571],[77.16502,27.34633],[77.17668,27.34921],[77.17653,27.35076],[77.17904,27.35152],[77.1859,27.35232],[77.1946,27.35486],[77.20168,27.35115],[77.2066,27.35242],[77.2081,27.35194],[77.2095,27.34883],[77.20971,27.34463],[77.2087,27.34304],[77.20878,27.33579],[77.20367,27.3284],[77.20271,27.32574],[77.19602,27.3221],[77.1832,27.31896],[77.17899,27.31978],[77.17559,27.31938],[77.16875,27.31501],[77.16384,27.31317],[77.14976,27.31343],[77.14722,27.31132],[77.14285,27.29768],[77.13616,27.2889],[77.13054,27.27691],[77.12346,27.25224],[77.11585,27.25021],[77.10996,27.24475],[77.10118,27.24169],[77.09474,27.2456],[77.09299,27.24771],[77.08708,27.23834],[77.0846,27.23603],[77.07721,27.23153],[77.07083,27.23189],[77.06595,27.23083],[77.06417,27.23125],[77.05875,27.23505],[77.05458,27.23406],[77.05309,27.23302],[77.04713,27.22433],[77.04618,27.21694],[77.05782,27.21016],[77.06701,27.20882],[77.07541,27.20227],[77.08286,27.19922],[77.08721,27.19425],[77.08838,27.19247],[77.08743,27.18775],[77.08326,27.18174],[77.08551,27.17692],[77.09336,27.17394],[77.09649,27.17146],[77.097,27.16758],[77.09726,27.1656],[77.09752,27.16367],[77.09172,27.16009],[77.0745,27.16286],[77.07175,27.16237],[77.05974,27.15219],[77.05464,27.15661],[77.04374,27.1571],[77.03842,27.15799],[77.03037,27.15517],[77.02937,27.15745],[77.02794,27.15836],[77.02633,27.16638],[77.00377,27.15631],[77.00266,27.1565],[76.9967,27.16154],[76.9879,27.17022],[76.98046,27.17597],[76.9738,27.17958],[76.97134,27.17906],[76.97043,27.17668],[76.9691,27.17332],[76.9686,27.16918],[76.96591,27.16541],[76.9635,27.16125],[76.96228,27.15734],[76.96428,27.15141],[76.96491,27.14608],[76.95521,27.14667],[76.94942,27.14681],[76.94814,27.14065],[76.9414,27.14138],[76.93696,27.13883],[76.93292,27.13927],[76.9272,27.14062],[76.9225,27.14374],[76.9216,27.14638],[76.92279,27.15093],[76.91717,27.15374],[76.91114,27.15709],[76.90565,27.15965],[76.90096,27.16278],[76.89932,27.16723],[76.89863,27.17214],[76.89996,27.17608],[76.90431,27.17656],[76.90822,27.17664],[76.91316,27.17789],[76.91426,27.18188],[76.91117,27.18399],[76.90913,27.18671],[76.90894,27.19177],[76.90969,27.1964],[76.90903,27.20221],[76.90959,27.20686],[76.90825,27.2113],[76.90468,27.21489],[76.9034,27.2178],[76.90477,27.22041],[76.90249,27.22324],[76.9047,27.22563],[76.90662,27.23013],[76.89821,27.23301],[76.89383,27.22625],[76.89,27.22478],[76.88426,27.2263],[76.87782,27.22974],[76.87215,27.23123],[76.86803,27.22518],[76.86437,27.21829],[76.85919,27.20805],[76.8544,27.21073],[76.85107,27.21244],[76.84863,27.20959],[76.84629,27.20782],[76.84358,27.20709],[76.84266,27.20437],[76.84653,27.20139],[76.84497,27.19593],[76.84957,27.19342],[76.85347,27.18915],[76.85206,27.18321],[76.85148,27.17721],[76.85079,27.17252],[76.84845,27.16781],[76.84507,27.16463],[76.84064,27.16282],[76.83547,27.16285],[76.83118,27.16307],[76.83107,27.1599],[76.83272,27.15567],[76.83378,27.15126],[76.83382,27.14638],[76.83229,27.14268],[76.82702,27.13419],[76.82806,27.13192],[76.83051,27.12755],[76.83288,27.1221],[76.83418,27.11863],[76.83899,27.11952],[76.84185,27.11889],[76.84315,27.11692],[76.84192,27.11399],[76.8416,27.10837],[76.84182,27.10115],[76.8408,27.09341],[76.8396,27.08723],[76.83584,27.07652],[76.8248,27.07721],[76.81871,27.0799],[76.8183,27.08686],[76.81638,27.09164],[76.81262,27.09577],[76.8092,27.10112],[76.80768,27.10497],[76.81109,27.11258],[76.81357,27.11861],[76.81635,27.12301],[76.81379,27.12546],[76.80749,27.12674],[76.80346,27.12939],[76.80144,27.13336],[76.80009,27.13624],[76.79724,27.13667],[76.79483,27.13105],[76.79164,27.12404],[76.79117,27.11876],[76.79086,27.11483],[76.78751,27.11272],[76.78336,27.11339],[76.77742,27.11359],[76.77271,27.11182],[76.76536,27.11027],[76.76185,27.10764],[76.7547,27.10798],[76.74653,27.10943],[76.73997,27.11153],[76.73566,27.10955],[76.7302,27.10888],[76.72107,27.1103],[76.71286,27.11331],[76.70845,27.1156],[76.701,27.11614],[76.69483,27.11551],[76.68899,27.11459],[76.68367,27.11328],[76.67848,27.11152],[76.67637,27.10637],[76.67476,27.10295],[76.67437,27.09918],[76.67292,27.09489],[76.6705,27.09384],[76.66722,27.09607],[76.66434,27.09686],[76.66073,27.09764],[76.65422,27.09644],[76.64933,27.09536],[76.64367,27.09475],[76.64051,27.09681],[76.63769,27.09869],[76.63706,27.10066],[76.63777,27.1039],[76.63822,27.10616],[76.63693,27.10731],[76.63479,27.10919],[76.63172,27.11055],[76.63369,27.11623],[76.63515,27.11977],[76.63548,27.12202],[76.63516,27.1241],[76.63322,27.12553],[76.62943,27.12591],[76.62701,27.12664],[76.62632,27.12866],[76.62814,27.13537],[76.63013,27.14025],[76.63347,27.14426],[76.63609,27.14786],[76.64046,27.15136],[76.64466,27.15664],[76.64798,27.15956],[76.65373,27.16608],[76.6456,27.16729],[76.64045,27.16875],[76.63336,27.17165],[76.62958,27.17399],[76.62509,27.17574],[76.62131,27.17721],[76.6169,27.17717],[76.61126,27.17748],[76.60559,27.17772],[76.60002,27.17786],[76.59515,27.17805],[76.59068,27.1776],[76.58655,27.17619],[76.58376,27.17685],[76.57952,27.17745],[76.57603,27.17719],[76.57573,27.17125],[76.57068,27.1711],[76.56715,27.17245],[76.56247,27.17491],[76.56043,27.16956],[76.55924,27.16482],[76.55777,27.1599],[76.55539,27.15538],[76.55293,27.15269],[76.55347,27.14981],[76.55817,27.14679],[76.55976,27.14484],[76.56128,27.14284],[76.55984,27.1397],[76.55877,27.13797],[76.5568,27.1365],[76.55701,27.1338],[76.55771,27.13147],[76.55622,27.12819],[76.55356,27.12898],[76.55007,27.13165],[76.54482,27.13069],[76.53834,27.12966],[76.53322,27.12811],[76.53076,27.12584],[76.52676,27.12112],[76.52296,27.11821],[76.51765,27.1185],[76.50986,27.11798],[76.50535,27.11718],[76.49899,27.1158],[76.49428,27.11356],[76.49118,27.11103],[76.487,27.10688],[76.48509,27.09957],[76.48019,27.09861],[76.47897,27.09125],[76.47363,27.08857],[76.47328,27.08456],[76.47361,27.07996],[76.47288,27.07896],[76.46442,27.07788],[76.45659,27.08127],[76.4484,27.08592],[76.44373,27.09146],[76.4408,27.09991],[76.43768,27.10979],[76.43648,27.11754],[76.43536,27.12564],[76.43504,27.12933],[76.43312,27.13313],[76.42751,27.13257],[76.42081,27.13061],[76.40932,27.12596],[76.40697,27.10889],[76.40535,27.09658],[76.40267,27.08992],[76.40077,27.08533],[76.40028,27.08095],[76.39364,27.08349],[76.38991,27.07937],[76.3841,27.07724],[76.37882,27.07069],[76.37158,27.066],[76.36814,27.06141],[76.36434,27.05612],[76.36022,27.05683],[76.35515,27.0597],[76.35036,27.06132],[76.34234,27.06184],[76.33988,27.05961],[76.33829,27.05595],[76.33503,27.05728],[76.33188,27.05982],[76.32887,27.06172],[76.32166,27.06302],[76.31242,27.06401],[76.3036,27.06498],[76.29331,27.06372],[76.28784,27.07244],[76.28835,27.07849],[76.28845,27.08494],[76.28842,27.08714],[76.28836,27.09259],[76.28908,27.1023],[76.291,27.11119],[76.2922,27.11932],[76.2931,27.12931],[76.29222,27.13768],[76.29185,27.14592],[76.29044,27.1537],[76.28673,27.16014],[76.28448,27.16644],[76.28243,27.17443],[76.28086,27.17984],[76.27751,27.18338],[76.27317,27.18431],[76.26912,27.18381],[76.26304,27.18039],[76.25798,27.17648],[76.25489,27.17126],[76.25138,27.16274],[76.2483,27.15648],[76.2447,27.15059],[76.23993,27.14759],[76.23225,27.14427],[76.22493,27.14113],[76.22125,27.13758],[76.21791,27.13184],[76.21304,27.12533],[76.20769,27.12066],[76.20338,27.11889],[76.19453,27.12127],[76.18751,27.12822],[76.18479,27.13205],[76.18694,27.13767],[76.19017,27.14357],[76.19045,27.15223],[76.18993,27.16121],[76.18817,27.17059],[76.18688,27.17685],[76.18511,27.18456],[76.17974,27.18403],[76.17574,27.18334],[76.16963,27.18299],[76.1627,27.1833],[76.15885,27.18464],[76.15741,27.1882],[76.15787,27.19316],[76.15957,27.19947],[76.16332,27.20256],[76.16422,27.2084],[76.16309,27.21553],[76.16108,27.21896],[76.15789,27.22188],[76.15278,27.22238],[76.14898,27.22096],[76.14666,27.21603],[76.14437,27.21091],[76.14187,27.20519],[76.13899,27.20031],[76.13489,27.19809],[76.13125,27.1967],[76.12823,27.19662],[76.12918,27.20015],[76.13108,27.20419],[76.13292,27.20797],[76.13587,27.21231],[76.13802,27.21885],[76.14159,27.22564],[76.13945,27.22687],[76.12947,27.2301],[76.12551,27.23322],[76.1247,27.2381],[76.12584,27.24464],[76.12738,27.25117],[76.13062,27.25438],[76.1356,27.25831],[76.14006,27.26216],[76.14159,27.26773],[76.14267,27.27392],[76.14372,27.2786],[76.14677,27.28078],[76.15213,27.28275],[76.15418,27.28671],[76.15438,27.29421],[76.15565,27.29993],[76.15755,27.30457],[76.15979,27.31327],[76.16548,27.31207],[76.17258,27.31168],[76.17635,27.31254],[76.17785,27.317],[76.17993,27.32394],[76.18158,27.32968],[76.18443,27.33607],[76.18824,27.33968],[76.19291,27.3469],[76.19793,27.35459],[76.2022,27.35989],[76.20541,27.36454],[76.20382,27.36861],[76.20034,27.37071],[76.20113,27.37557],[76.20628,27.37771],[76.20965,27.37925],[76.2122,27.38303],[76.21619,27.38908],[76.21924,27.39344],[76.22427,27.39835],[76.23003,27.40084],[76.23334,27.41243],[76.23396,27.41756],[76.23251,27.42731],[76.23049,27.43369],[76.22865,27.43782],[76.23052,27.44275],[76.2306,27.45077],[76.22851,27.45306],[76.22531,27.45405],[76.2224,27.45569],[76.22429,27.45808],[76.22752,27.45823],[76.23109,27.45942],[76.23472,27.46299],[76.23624,27.4697],[76.24062,27.47328],[76.24447,27.48059],[76.24714,27.48841],[76.24822,27.49697],[76.24777,27.5033],[76.24351,27.51002],[76.23958,27.51406],[76.23948,27.51902],[76.24026,27.52521],[76.23272,27.53117],[76.22695,27.53296],[76.22048,27.53514],[76.21605,27.53693],[76.21585,27.54529],[76.21733,27.55281],[76.21661,27.55989],[76.21558,27.56693],[76.21401,27.57474],[76.21199,27.58224],[76.21011,27.58965],[76.2089,27.59796],[76.20822,27.60216],[76.20344,27.60671],[76.20159,27.61477],[76.20259,27.62204],[76.20513,27.62351],[76.21053,27.62343],[76.21285,27.62465],[76.21396,27.62755],[76.21916,27.62836],[76.22702,27.62662],[76.23473,27.62503],[76.24175,27.62458],[76.24676,27.62666],[76.24995,27.63017],[76.25241,27.63602],[76.25171,27.64157],[76.25261,27.64842],[76.25436,27.65377],[76.2538,27.65935],[76.25093,27.66294],[76.24756,27.66481],[76.24391,27.66586],[76.2417,27.66966],[76.24437,27.67164],[76.24733,27.67099],[76.25214,27.67058],[76.25714,27.67087],[76.25751,27.67578],[76.25299,27.67816],[76.24897,27.67983],[76.24691,27.68242],[76.24794,27.68599],[76.25082,27.68771],[76.25425,27.68872],[76.25803,27.69004],[76.25899,27.6942],[76.25969,27.69999],[76.25789,27.70699],[76.25588,27.7127],[76.25547,27.71805],[76.25556,27.72302],[76.25534,27.72831],[76.25238,27.73411],[76.24975,27.73921],[76.24681,27.74391],[76.246,27.74985],[76.24569,27.75562],[76.24623,27.76128],[76.24983,27.76373],[76.25619,27.76526],[76.26092,27.76605],[76.2661,27.77176],[76.26802,27.77594],[76.27041,27.78064],[76.27385,27.78455],[76.27595,27.78839],[76.27515,27.7941],[76.27481,27.79744],[76.27593,27.80195],[76.27756,27.80271],[76.2905,27.80032],[76.28685,27.80674],[76.28081,27.81107],[76.27203,27.81793],[76.26504,27.82184],[76.26331,27.82609],[76.26624,27.82982],[76.26794,27.83485],[76.26361,27.83953],[76.25726,27.84511],[76.24951,27.84929],[76.24409,27.85016],[76.23799,27.84403],[76.2311,27.83627],[76.21845,27.84017],[76.21376,27.84335],[76.21289,27.85088],[76.20678,27.85503],[76.20094,27.85929],[76.19917,27.8648],[76.19685,27.87175],[76.19817,27.87696],[76.20229,27.87932],[76.20763,27.88348],[76.208,27.88768],[76.20653,27.89437],[76.19884,27.89808],[76.1905,27.90047],[76.18304,27.90251],[76.17762,27.90516],[76.17434,27.91048],[76.17396,27.91641],[76.17557,27.92377],[76.17828,27.9287],[76.1827,27.93667],[76.18432,27.94372],[76.18488,27.95048],[76.18425,27.95647],[76.18615,27.96288],[76.18745,27.96826],[76.18221,27.97063],[76.17501,27.97458],[76.16894,27.97554],[76.17047,27.98375],[76.16186,27.98799],[76.16294,27.99445],[76.16672,28],[76.17743,28.0123],[76.18232,28.01735],[76.18762,28.01872],[76.19197,28.01897],[76.19876,28.01684],[76.20396,28.01715],[76.20848,28.02108],[76.21156,28.02576],[76.22193,28.02709],[76.22168,28.03558],[76.21229,28.03766],[76.20627,28.03037],[76.20152,28.03064],[76.19128,28.03846],[76.18499,28.0444],[76.18357,28.04971],[76.18547,28.05471],[76.20099,28.05524],[76.20806,28.05617],[76.21179,28.05494],[76.21649,28.05096],[76.23411,28.05058],[76.24155,28.0518],[76.25177,28.06431],[76.25932,28.06629],[76.27315,28.06409],[76.28002,28.06173],[76.29025,28.05426],[76.29832,28.04442],[76.29632,28.03736],[76.29831,28.02521],[76.30535,28.02126],[76.32481,28.01627],[76.3319,28.01912],[76.33818,28.02014],[76.34504,28.02492],[76.34952,28.03131],[76.3542,28.04105],[76.36161,28.06082],[76.36294,28.06945],[76.35882,28.07103],[76.35268,28.06914],[76.34567,28.06833],[76.34046,28.07207],[76.33958,28.07692],[76.33712,28.08304],[76.3332,28.08744],[76.32887,28.0896],[76.32177,28.08997],[76.3155,28.09176],[76.30572,28.09637],[76.30965,28.10152],[76.31637,28.10659],[76.32252,28.10744],[76.34026,28.10201],[76.34794,28.10498],[76.35189,28.10849],[76.36402,28.12371],[76.35777,28.12743],[76.35164,28.12805],[76.346,28.13014],[76.33942,28.13427],[76.33115,28.14453],[76.32574,28.14838],[76.31953,28.14998],[76.31662,28.1462],[76.30997,28.14633],[76.3043,28.15001],[76.30348,28.15239],[76.30688,28.15479],[76.30694,28.15789],[76.30142,28.16062],[76.28658,28.16393],[76.2852,28.16813],[76.28748,28.17408],[76.2973,28.17802],[76.30647,28.17821],[76.31341,28.17919],[76.31635,28.1788],[76.31717,28.17869],[76.33442,28.17274],[76.34439,28.17264],[76.35108,28.16922],[76.36172,28.16146],[76.36444,28.15506],[76.36585,28.14312],[76.36828,28.13864],[76.38523,28.13331],[76.39249,28.1351],[76.39698,28.13476],[76.4015,28.13627],[76.40553,28.14301],[76.42076,28.14269],[76.43582,28.14113],[76.43989,28.14276],[76.44566,28.14734],[76.46461,28.1466],[76.46965,28.14753],[76.47376,28.15076],[76.47957,28.14989],[76.48091,28.14475],[76.47851,28.13365],[76.48174,28.13088],[76.48579,28.12981],[76.49185,28.12998],[76.49365,28.13003],[76.4983,28.12881],[76.4943,28.12325],[76.49544,28.11793],[76.50663,28.11766],[76.50583,28.11109],[76.50633,28.10173],[76.49726,28.09985],[76.4858,28.10112],[76.48106,28.10785],[76.47474,28.10812],[76.46944,28.10705],[76.46537,28.10554],[76.46239,28.10104],[76.45968,28.09281],[76.45704,28.08833],[76.46189,28.08294],[76.46726,28.08014],[76.47209,28.07921],[76.47836,28.08145],[76.49436,28.07023],[76.50385,28.06274],[76.50612,28.05983],[76.503,28.05617],[76.49802,28.05435],[76.49226,28.05339],[76.47973,28.05623],[76.4664,28.05711],[76.46242,28.05021],[76.46213,28.04481],[76.46414,28.04162],[76.47009,28.0397],[76.48413,28.03918],[76.4915,28.04144],[76.50065,28.0422],[76.50448,28.03873],[76.50691,28.03528],[76.50793,28.03145],[76.51366,28.03012],[76.51984,28.03043],[76.52704,28.03403],[76.53434,28.04052],[76.53971,28.03817],[76.54699,28.03416],[76.54397,28.02077],[76.54699,28.01173],[76.54705,28.0071],[76.54615,28.00255],[76.54687,28.00041],[76.54483,27.99977],[76.54394,27.9881],[76.54033,27.98075],[76.53941,27.97438],[76.54186,27.96877],[76.54655,27.96558],[76.55498,27.9664],[76.56182,27.97005],[76.56818,27.9768],[76.57591,27.97859],[76.58225,27.98403],[76.58572,27.98987],[76.59228,27.99531],[76.60021,27.99866],[76.60371,28.00114],[76.60745,28.00482],[76.61241,28.00577],[76.62448,28.00627],[76.63384,28.00543],[76.6454,28.00562],[76.65524,28.00755],[76.66311,28.01051],[76.66864,28.01398],[76.67099,28.01786],[76.67004,28.02424],[76.66821,28.02861],[76.662,28.03486],[76.65958,28.0394],[76.66025,28.05042],[76.65755,28.05666],[76.65654,28.06262],[76.65668,28.07404],[76.65561,28.08007],[76.65652,28.08716],[76.65989,28.09171],[76.66668,28.09402],[76.67262,28.09279],[76.6866,28.09274],[76.69088,28.0927],[76.69438,28.10181],[76.69824,28.10842],[76.69899,28.10972],[76.7075,28.11062],[76.7142,28.12264],[76.71778,28.12629],[76.71874,28.12727],[76.72884,28.12643],[76.7404,28.12334],[76.74177,28.12346],[76.74794,28.12393],[76.76393,28.14149],[76.77103,28.14489],[76.78181,28.14628],[76.79195,28.15053],[76.80039,28.15208],[76.80507,28.16532],[76.80122,28.17051],[76.80117,28.17778],[76.79919,28.18862],[76.80281,28.1944],[76.80685,28.18923],[76.81159,28.19091],[76.81458,28.19522],[76.81146,28.19948],[76.81038,28.20645],[76.81481,28.21073],[76.82222,28.21116],[76.82797,28.20952],[76.83285,28.20953],[76.83626,28.21232],[76.84247,28.21966],[76.85956,28.22148],[76.86341,28.22005]]],[[[76.8788,27.14677],[76.88328,27.14507],[76.88738,27.14385],[76.89164,27.14289],[76.89363,27.14154],[76.89412,27.13966],[76.89203,27.1378],[76.89003,27.13657],[76.88749,27.13664],[76.88525,27.1359],[76.88302,27.13425],[76.88079,27.13233],[76.87766,27.13134],[76.87557,27.13336],[76.8743,27.13632],[76.87239,27.1389],[76.86996,27.14212],[76.86761,27.14494],[76.86542,27.14626],[76.86301,27.14595],[76.86007,27.14361],[76.85761,27.14133],[76.85431,27.13864],[76.85044,27.13729],[76.84744,27.13784],[76.84482,27.13938],[76.84525,27.14245],[76.84819,27.1457],[76.85073,27.14844],[76.85336,27.15146],[76.85787,27.15368],[76.86294,27.15522],[76.86685,27.15414],[76.87081,27.15232],[76.87521,27.14921],[76.8788,27.14677]]]]}}]}