{"type":"FeatureCollection","features":[{"type":"Feature","properties":{"id":"banswara","name":"Banswara","stateId":"rajasthan","stateName":"Rajasthan","censuscode":125,"type":"district"},"geometry":{"type":"Polygon","coordinates":[[[74.49053,23.90931],[74.49327,23.90164],[74.49793,23.89485],[74.52038,23.88691],[74.52623,23.88267],[74.52759,23.87379],[74.52877,23.87139],[74.52721,23.8651],[74.52522,23.85879],[74.51658,23.84913],[74.5134,23.84434],[74.51416,23.83969],[74.51839,23.83308],[74.52822,23.82772],[74.54233,23.82822],[74.55146,23.82595],[74.55851,23.81944],[74.56053,23.81172],[74.55526,23.8027],[74.55503,23.79489],[74.55757,23.78823],[74.55841,23.7815],[74.55583,23.77569],[74.55373,23.77198],[74.55464,23.7637],[74.55319,23.75793],[74.55458,23.75174],[74.55536,23.74657],[74.55666,23.74246],[74.55515,23.73825],[74.55133,23.73499],[74.54231,23.73467],[74.53327,23.73487],[74.52822,23.73417],[74.52558,23.72992],[74.52686,23.72632],[74.53137,23.71297],[74.53144,23.6979],[74.53158,23.69479],[74.53043,23.68176],[74.5323,23.67767],[74.53249,23.67299],[74.52901,23.66196],[74.52106,23.64972],[74.51914,23.64185],[74.52046,23.63722],[74.5285,23.63387],[74.54089,23.63432],[74.54326,23.6318],[74.54566,23.62825],[74.54872,23.62264],[74.55131,23.61978],[74.55124,23.61916],[74.55198,23.61922],[74.56263,23.62538],[74.5688,23.62893],[74.57478,23.62912],[74.58617,23.62669],[74.59234,23.62762],[74.59869,23.63043],[74.60168,23.63417],[74.60935,23.63641],[74.61215,23.63884],[74.61944,23.64482],[74.62859,23.64687],[74.63588,23.64332],[74.64298,23.64052],[74.64709,23.64183],[74.65083,23.64612],[74.65345,23.65117],[74.65475,23.65472],[74.65681,23.65808],[74.65868,23.66145],[74.66148,23.66444],[74.66485,23.66668],[74.66784,23.66705],[74.67232,23.66556],[74.69661,23.65173],[74.69787,23.64463],[74.7042,23.63283],[74.71262,23.62403],[74.72155,23.61468],[74.72758,23.61205],[74.73527,23.6144],[74.74769,23.61279],[74.75506,23.60795],[74.76108,23.60277],[74.77295,23.58874],[74.77308,23.58329],[74.7685,23.57572],[74.76672,23.56928],[74.76887,23.5622],[74.77451,23.5504],[74.77336,23.54043],[74.77003,23.5329],[74.76319,23.52185],[74.75631,23.51932],[74.74158,23.51665],[74.73696,23.50396],[74.73283,23.49771],[74.72502,23.49565],[74.7179,23.50078],[74.71001,23.50283],[74.69974,23.5009],[74.68645,23.49305],[74.6868,23.48945],[74.68274,23.48383],[74.67994,23.48233],[74.67346,23.48293],[74.66832,23.48115],[74.66305,23.47061],[74.65787,23.46408],[74.65364,23.46171],[74.65116,23.46067],[74.6353,23.46136],[74.62583,23.45929],[74.61218,23.45869],[74.61208,23.45497],[74.61192,23.44888],[74.59718,23.42712],[74.59017,23.4225],[74.57835,23.4198],[74.57268,23.41992],[74.57179,23.41662],[74.57103,23.38072],[74.56933,23.37516],[74.56381,23.37262],[74.5588,23.3619],[74.55435,23.3604],[74.54435,23.36124],[74.54222,23.35643],[74.54121,23.33614],[74.53686,23.33144],[74.51871,23.32916],[74.51671,23.3262],[74.51765,23.31942],[74.51925,23.31907],[74.52877,23.3216],[74.5321,23.32049],[74.53294,23.31782],[74.53264,23.31144],[74.53409,23.30698],[74.53906,23.30256],[74.54235,23.29751],[74.547,23.28421],[74.55191,23.27997],[74.55668,23.28275],[74.56055,23.28953],[74.56584,23.29589],[74.57042,23.29831],[74.57582,23.29477],[74.58528,23.28187],[74.5912,23.28099],[74.59761,23.28103],[74.60527,23.28275],[74.61389,23.28198],[74.6209,23.27871],[74.62517,23.27337],[74.62818,23.26321],[74.63075,23.26076],[74.6449,23.25707],[74.65089,23.25816],[74.66522,23.26844],[74.67185,23.27219],[74.67925,23.27257],[74.69994,23.26943],[74.70039,23.26404],[74.70213,23.25893],[74.70907,23.25543],[74.71371,23.25025],[74.71735,23.24328],[74.72096,23.23979],[74.71203,23.23361],[74.70257,23.23045],[74.69427,23.2259],[74.69373,23.22039],[74.69833,23.21765],[74.70134,23.217],[74.71165,23.21865],[74.71773,23.21672],[74.7231,23.2174],[74.73176,23.22102],[74.73879,23.22589],[74.73938,23.2263],[74.73982,23.2266],[74.74466,23.22996],[74.7497,23.22763],[74.74488,23.21263],[74.74454,23.20937],[74.73359,23.20368],[74.71989,23.19427],[74.71426,23.19197],[74.68624,23.19403],[74.66779,23.19884],[74.66394,23.1956],[74.65844,23.18524],[74.65333,23.1794],[74.6405,23.17004],[74.62417,23.16034],[74.61626,23.14935],[74.6126,23.14576],[74.60646,23.14224],[74.59561,23.13943],[74.58698,23.13892],[74.57841,23.13744],[74.57193,23.13467],[74.56433,23.13271],[74.54393,23.12957],[74.54573,23.11599],[74.54471,23.11032],[74.54084,23.10441],[74.53361,23.09903],[74.52139,23.09645],[74.5117,23.09345],[74.51037,23.08638],[74.48943,23.08595],[74.46521,23.08286],[74.45618,23.08467],[74.44335,23.09055],[74.43722,23.09571],[74.43105,23.10332],[74.42397,23.10367],[74.41672,23.10612],[74.41193,23.10862],[74.40467,23.10944],[74.38898,23.10968],[74.38545,23.10812],[74.36467,23.09324],[74.3588,23.08803],[74.3572,23.07823],[74.35274,23.07353],[74.34551,23.06855],[74.33687,23.06473],[74.32032,23.06046],[74.31582,23.06503],[74.31305,23.06991],[74.3077,23.07733],[74.30145,23.08168],[74.28425,23.08952],[74.28002,23.09282],[74.27826,23.09879],[74.27952,23.10424],[74.28567,23.11654],[74.28244,23.12239],[74.27705,23.12778],[74.27516,23.13178],[74.27414,23.13759],[74.26936,23.15382],[74.2646,23.16379],[74.2594,23.16942],[74.25454,23.17255],[74.24992,23.174],[74.24729,23.17627],[74.24354,23.1861],[74.23449,23.18056],[74.22679,23.18189],[74.20495,23.18994],[74.20155,23.18698],[74.19746,23.18164],[74.19147,23.17648],[74.18687,23.16976],[74.18645,23.15583],[74.1839,23.15045],[74.18027,23.15015],[74.16218,23.15443],[74.15791,23.1535],[74.15239,23.15571],[74.14567,23.17002],[74.1429,23.17321],[74.13336,23.1757],[74.12769,23.17564],[74.12418,23.17685],[74.12163,23.186],[74.12171,23.18844],[74.11968,23.18957],[74.12069,23.1997],[74.1219,23.20457],[74.13115,23.21316],[74.13235,23.21804],[74.13674,23.22479],[74.13592,23.22889],[74.13607,23.23434],[74.1338,23.24277],[74.1334,23.26269],[74.13109,23.26743],[74.12719,23.27069],[74.11584,23.27336],[74.11115,23.27535],[74.10833,23.28372],[74.10385,23.29213],[74.09892,23.29376],[74.08696,23.29602],[74.07371,23.29623],[74.04583,23.29313],[74.04156,23.29418],[74.0468,23.30517],[74.04481,23.30903],[74.03849,23.30509],[74.03468,23.30384],[74.03304,23.31071],[74.02716,23.31805],[74.02978,23.33045],[74.0207,23.331],[74.00087,23.33434],[73.98778,23.33579],[73.98396,23.3394],[73.9815,23.34762],[73.98051,23.35801],[73.97592,23.36601],[73.96805,23.37532],[73.95946,23.37959],[73.96368,23.38616],[73.9751,23.39433],[73.97843,23.39871],[73.98002,23.40679],[73.98261,23.41111],[73.99452,23.41836],[74.00097,23.42119],[74.01245,23.44114],[74.01353,23.44995],[74.01162,23.46631],[74.01602,23.47819],[74.02907,23.52298],[74.03015,23.53423],[74.03234,23.5442],[74.03891,23.55153],[74.04924,23.55636],[74.05927,23.56374],[74.0628,23.56965],[74.06549,23.5787],[74.06774,23.59076],[74.0711,23.59887],[74.07841,23.60329],[74.08992,23.60373],[74.10692,23.60255],[74.11398,23.60449],[74.11845,23.60972],[74.12762,23.63368],[74.12995,23.64633],[74.12853,23.66482],[74.1293,23.67625],[74.1321,23.68084],[74.13592,23.69175],[74.13451,23.69721],[74.12953,23.70387],[74.12137,23.71139],[74.1227,23.72371],[74.1329,23.73857],[74.13839,23.76545],[74.14281,23.77485],[74.14767,23.78123],[74.15437,23.7867],[74.16442,23.79039],[74.17149,23.79266],[74.18867,23.79632],[74.19728,23.79917],[74.21535,23.80856],[74.23867,23.81449],[74.25984,23.82615],[74.27928,23.83549],[74.28947,23.84192],[74.29657,23.8494],[74.30775,23.85421],[74.31755,23.85694],[74.32707,23.86401],[74.33362,23.87166],[74.34519,23.87954],[74.35433,23.88423],[74.36005,23.89832],[74.37679,23.90017],[74.38133,23.90278],[74.38407,23.90579],[74.39026,23.90381],[74.40023,23.90189],[74.40743,23.90356],[74.41322,23.90698],[74.41998,23.90779],[74.42542,23.9065],[74.43404,23.90608],[74.43964,23.90891],[74.45099,23.91981],[74.4608,23.92287],[74.47136,23.92442],[74.47984,23.92412],[74.48508,23.91988],[74.49053,23.90931]]]}}]}