{"type":"FeatureCollection","features":[{"type":"Feature","properties":{"id":"baran","name":"Baran","stateId":"rajasthan","stateName":"Rajasthan","censuscode":128,"type":"district"},"geometry":{"type":"Polygon","coordinates":[[[76.71961,25.33754],[76.7219,25.33396],[76.72818,25.32707],[76.73884,25.32161],[76.76085,25.31365],[76.77519,25.30727],[76.77793,25.31098],[76.80041,25.31688],[76.82694,25.3221],[76.83868,25.32188],[76.84819,25.32557],[76.85897,25.32474],[76.87224,25.32019],[76.88683,25.31788],[76.89849,25.31743],[76.90991,25.31287],[76.92064,25.304],[76.92825,25.29641],[76.93449,25.29231],[76.93791,25.28248],[76.93397,25.27418],[76.93922,25.27093],[76.94711,25.27038],[76.95369,25.27154],[76.95801,25.27356],[76.96059,25.27961],[76.96201,25.28644],[76.96407,25.29218],[76.99806,25.29681],[77.00877,25.2968],[77.0155,25.29651],[77.02302,25.29654],[77.02961,25.29608],[77.03957,25.30685],[77.04351,25.31433],[77.04481,25.32002],[77.05026,25.31741],[77.05364,25.31605],[77.05849,25.31565],[77.06373,25.31688],[77.06896,25.3191],[77.07336,25.32462],[77.07696,25.33079],[77.081,25.33464],[77.0886,25.33474],[77.09817,25.33222],[77.10732,25.33006],[77.11369,25.33022],[77.12135,25.33],[77.12699,25.32618],[77.1345,25.32036],[77.1419,25.31906],[77.15459,25.3103],[77.15916,25.30818],[77.16719,25.30858],[77.17337,25.31045],[77.17903,25.3101],[77.18774,25.30823],[77.19618,25.30659],[77.20304,25.30591],[77.21081,25.30635],[77.20602,25.31365],[77.20427,25.31957],[77.20384,25.32544],[77.21094,25.32796],[77.21638,25.3286],[77.21888,25.32666],[77.2151,25.32356],[77.21607,25.31939],[77.22071,25.31941],[77.22372,25.32623],[77.22309,25.33216],[77.22273,25.34415],[77.22688,25.35599],[77.226,25.36832],[77.23141,25.37413],[77.24045,25.37995],[77.24996,25.38449],[77.25544,25.38978],[77.26577,25.39433],[77.27882,25.40686],[77.28887,25.41845],[77.30145,25.42654],[77.31122,25.43125],[77.32283,25.42768],[77.33517,25.42341],[77.34302,25.41959],[77.34966,25.41727],[77.3603,25.41885],[77.36729,25.4078],[77.3636,25.40413],[77.35989,25.39848],[77.35567,25.39323],[77.35202,25.38735],[77.35018,25.38278],[77.35058,25.3782],[77.35066,25.37465],[77.35432,25.3704],[77.35759,25.36721],[77.35972,25.3644],[77.36195,25.36275],[77.36101,25.35924],[77.34978,25.33223],[77.34225,25.32047],[77.35519,25.31901],[77.35904,25.32723],[77.36963,25.32787],[77.37167,25.32338],[77.37481,25.31953],[77.37766,25.3151],[77.37951,25.31037],[77.38049,25.30544],[77.38065,25.30073],[77.37964,25.29507],[77.37922,25.29425],[77.37844,25.28918],[77.37531,25.28342],[77.37254,25.28029],[77.36888,25.27866],[77.36582,25.27512],[77.35546,25.26667],[77.36249,25.2607],[77.36609,25.25576],[77.36782,25.25084],[77.36851,25.24498],[77.37626,25.24587],[77.38138,25.24393],[77.38584,25.24034],[77.39747,25.22606],[77.40662,25.22261],[77.41222,25.2212],[77.41532,25.20735],[77.41714,25.20151],[77.41954,25.19446],[77.4238,25.18795],[77.42055,25.18436],[77.41346,25.18499],[77.40883,25.18148],[77.39646,25.18313],[77.39707,25.17459],[77.39704,25.16964],[77.39536,25.16333],[77.3949,25.15489],[77.39502,25.146],[77.3931,25.13305],[77.39263,25.12793],[77.39431,25.1222],[77.39958,25.11828],[77.4038,25.11138],[77.40424,25.10824],[77.40126,25.10697],[77.39887,25.11025],[77.39795,25.11238],[77.39236,25.11693],[77.38082,25.11179],[77.37405,25.10911],[77.37417,25.10347],[77.36643,25.09933],[77.36279,25.09653],[77.35429,25.09278],[77.33804,25.09156],[77.33361,25.08839],[77.32597,25.08571],[77.31946,25.08256],[77.31541,25.08139],[77.31255,25.08075],[77.30839,25.07887],[77.3015,25.0821],[77.2969,25.08911],[77.28999,25.09921],[77.28111,25.10712],[77.26779,25.11425],[77.24716,25.10772],[77.22631,25.10525],[77.21126,25.10743],[77.20282,25.11168],[77.1942,25.10683],[77.18848,25.10682],[77.175,25.10874],[77.16823,25.10474],[77.16997,25.09359],[77.16309,25.08331],[77.14581,25.08594],[77.14551,25.09124],[77.13359,25.08409],[77.11976,25.06415],[77.10778,25.06429],[77.09569,25.06142],[77.08952,25.05771],[77.08247,25.05306],[77.07325,25.05476],[77.06656,25.05646],[77.06016,25.05833],[77.04953,25.06084],[77.04448,25.06319],[77.03452,25.06699],[77.02989,25.06687],[77.02556,25.06651],[77.02283,25.06725],[77.01752,25.06999],[77.0111,25.07365],[77.00544,25.07481],[76.99888,25.07503],[76.98879,25.07265],[76.97978,25.06576],[76.97694,25.06193],[76.97635,25.05567],[76.97374,25.05104],[76.96637,25.0491],[76.95856,25.04357],[76.93491,25.0367],[76.92268,25.03515],[76.91475,25.0308],[76.90604,25.02917],[76.88699,25.02924],[76.88322,25.02098],[76.88165,25.01508],[76.88173,25.01121],[76.87941,25.00826],[76.87423,25.00625],[76.86545,25.00555],[76.85923,25.00546],[76.86441,25.00207],[76.87295,24.99653],[76.87454,24.98706],[76.87131,24.96696],[76.87213,24.96061],[76.87642,24.95649],[76.87823,24.95274],[76.87692,24.94978],[76.88456,24.94094],[76.89809,24.9306],[76.89732,24.92427],[76.895,24.91824],[76.89607,24.91486],[76.91228,24.91844],[76.92575,24.91195],[76.92841,24.90943],[76.9295,24.90555],[76.92518,24.90007],[76.92061,24.89636],[76.91754,24.89243],[76.91699,24.88832],[76.91869,24.88307],[76.92236,24.87998],[76.92661,24.87891],[76.93883,24.87946],[76.94059,24.87388],[76.94673,24.86989],[76.95158,24.86938],[76.95381,24.86806],[76.9515,24.86345],[76.94913,24.86066],[76.94797,24.85525],[76.93133,24.84499],[76.91986,24.8439],[76.91634,24.84281],[76.91321,24.8403],[76.8998,24.83474],[76.88284,24.83477],[76.86805,24.83692],[76.85601,24.83546],[76.84686,24.83533],[76.84218,24.8363],[76.83632,24.83549],[76.8318,24.8336],[76.82774,24.8301],[76.82138,24.82775],[76.81581,24.8235],[76.80691,24.82182],[76.80529,24.81982],[76.80618,24.81509],[76.80871,24.81186],[76.8133,24.81024],[76.82032,24.79893],[76.83041,24.78864],[76.8405,24.78033],[76.85135,24.76526],[76.85163,24.76031],[76.84962,24.74741],[76.85189,24.74568],[76.86546,24.74397],[76.87275,24.74485],[76.89135,24.74942],[76.9016,24.74586],[76.90299,24.74303],[76.90794,24.74131],[76.91408,24.74207],[76.92641,24.74409],[76.95054,24.75929],[76.95651,24.76069],[76.96108,24.75955],[76.96808,24.75479],[76.9686,24.7457],[76.97009,24.73935],[76.97325,24.73134],[76.97674,24.72692],[76.98708,24.72012],[76.99691,24.71265],[77.00902,24.70891],[77.01888,24.71067],[77.02406,24.7102],[77.02746,24.70896],[77.03148,24.70616],[77.03829,24.6982],[77.03931,24.69372],[77.03972,24.68382],[77.04182,24.678],[77.05373,24.65658],[77.05895,24.64938],[77.06426,24.6377],[77.06508,24.63299],[77.06591,24.61987],[77.06589,24.60581],[77.06511,24.60139],[77.06309,24.59649],[77.0632,24.59011],[77.06828,24.58064],[77.06943,24.56523],[77.06905,24.55944],[77.06624,24.5501],[77.05809,24.5395],[77.05665,24.53659],[77.05561,24.53248],[77.05497,24.52187],[77.04371,24.52197],[77.03659,24.52413],[77.03462,24.52241],[77.03374,24.51911],[77.03133,24.51676],[77.0294,24.5124],[77.02866,24.49668],[77.02527,24.49329],[77.02047,24.49027],[77.01692,24.48974],[77.01326,24.49031],[77.01057,24.48931],[77.00931,24.48732],[77.00953,24.48476],[77.01145,24.48292],[77.00712,24.47888],[77.00609,24.47327],[77.00274,24.47086],[76.99705,24.46884],[76.98417,24.47001],[76.98206,24.46736],[76.97946,24.46031],[76.9698,24.45625],[76.96464,24.45562],[76.95733,24.45932],[76.94554,24.46274],[76.94155,24.46778],[76.9353,24.47209],[76.92733,24.47604],[76.91908,24.48305],[76.91973,24.50678],[76.92181,24.51234],[76.9234,24.51976],[76.92329,24.52535],[76.92286,24.53097],[76.92018,24.53574],[76.91736,24.53893],[76.90688,24.54288],[76.9043,24.54317],[76.90224,24.53906],[76.89734,24.53505],[76.89804,24.53083],[76.8934,24.52214],[76.88398,24.52069],[76.88015,24.52156],[76.87732,24.52742],[76.87919,24.53582],[76.87855,24.53842],[76.8764,24.54126],[76.87062,24.54473],[76.85722,24.5464],[76.85044,24.54639],[76.84259,24.54384],[76.8355,24.53858],[76.83111,24.53417],[76.82336,24.53195],[76.81893,24.52976],[76.8185,24.52769],[76.81875,24.52504],[76.82355,24.52001],[76.83244,24.50576],[76.83888,24.49371],[76.83965,24.48979],[76.84667,24.48914],[76.84962,24.48631],[76.85113,24.48296],[76.85063,24.47087],[76.8549,24.46937],[76.85566,24.46453],[76.85331,24.4598],[76.85278,24.45417],[76.85024,24.4487],[76.84291,24.44959],[76.84218,24.44603],[76.84546,24.43825],[76.84035,24.43577],[76.83497,24.43562],[76.82671,24.43673],[76.81721,24.43625],[76.81129,24.43263],[76.80052,24.43277],[76.78881,24.43534],[76.77709,24.43963],[76.77262,24.44361],[76.76984,24.4503],[76.76389,24.45193],[76.7569,24.44843],[76.74403,24.43436],[76.73969,24.42728],[76.73365,24.42159],[76.72859,24.42062],[76.72457,24.41395],[76.72077,24.41258],[76.7187,24.41322],[76.71607,24.41236],[76.71472,24.40891],[76.71131,24.40477],[76.70823,24.40581],[76.70559,24.408],[76.69707,24.42241],[76.68516,24.4343],[76.67557,24.43899],[76.67152,24.43692],[76.65777,24.42289],[76.64462,24.41635],[76.63594,24.41406],[76.62823,24.41695],[76.61932,24.4218],[76.61291,24.4267],[76.60484,24.43633],[76.60258,24.44658],[76.59543,24.45741],[76.58959,24.46099],[76.58018,24.46428],[76.57997,24.48484],[76.57861,24.49221],[76.56562,24.4962],[76.55032,24.49984],[76.54102,24.50625],[76.53842,24.51119],[76.53695,24.51402],[76.53956,24.55088],[76.53823,24.56861],[76.53142,24.5761],[76.52292,24.58216],[76.52161,24.58994],[76.52612,24.63093],[76.52881,24.64112],[76.52985,24.65188],[76.53134,24.66237],[76.50384,24.65243],[76.4945,24.65186],[76.49255,24.65312],[76.48932,24.65802],[76.4861,24.66078],[76.4812,24.66223],[76.479,24.6643],[76.47676,24.66931],[76.47318,24.68653],[76.46673,24.70111],[76.46543,24.70657],[76.46198,24.71446],[76.4611,24.72178],[76.45573,24.7363],[76.45127,24.74476],[76.44509,24.76388],[76.44311,24.78298],[76.46221,24.79572],[76.49037,24.82192],[76.49661,24.82531],[76.50284,24.82399],[76.50736,24.82209],[76.5298,24.81067],[76.54263,24.8057],[76.55689,24.80397],[76.56515,24.80741],[76.57008,24.81184],[76.57324,24.81679],[76.57407,24.82244],[76.57242,24.83395],[76.57548,24.85823],[76.55784,24.87195],[76.54972,24.87739],[76.53592,24.88465],[76.52102,24.89631],[76.51237,24.90144],[76.50045,24.91017],[76.4866,24.92032],[76.4735,24.92587],[76.47119,24.9179],[76.4674,24.91002],[76.46386,24.90678],[76.46172,24.90811],[76.45651,24.91469],[76.45212,24.92252],[76.44889,24.93886],[76.44607,24.95311],[76.44083,24.96187],[76.43109,24.97122],[76.42147,24.97708],[76.40941,24.98095],[76.39831,24.98349],[76.38911,24.983],[76.37755,24.9802],[76.36838,24.98591],[76.36226,24.98856],[76.35178,24.98876],[76.34465,24.98647],[76.34031,24.98356],[76.33614,24.97424],[76.32875,24.96315],[76.32417,24.95878],[76.31824,24.95771],[76.31429,24.95979],[76.30466,24.97104],[76.30014,24.97889],[76.28966,25.00058],[76.28358,25.00564],[76.27058,25.02048],[76.26464,25.02422],[76.25724,25.03098],[76.24761,25.04078],[76.22103,25.0742],[76.21804,25.08418],[76.21977,25.09168],[76.22022,25.09511],[76.22569,25.11039],[76.22712,25.12336],[76.23252,25.15191],[76.23482,25.16025],[76.24069,25.16435],[76.24263,25.17443],[76.24653,25.18329],[76.25097,25.18531],[76.25475,25.18883],[76.25343,25.20899],[76.2503,25.22265],[76.25142,25.23004],[76.25391,25.23771],[76.25732,25.24063],[76.26444,25.24352],[76.27391,25.24549],[76.27996,25.24513],[76.28806,25.24652],[76.29386,25.2518],[76.29871,25.26093],[76.30508,25.2822],[76.30962,25.29461],[76.31288,25.31116],[76.31376,25.32626],[76.31483,25.3307],[76.32313,25.34781],[76.33122,25.3744],[76.3306,25.37882],[76.34365,25.37634],[76.35105,25.37687],[76.36113,25.38377],[76.3713,25.38853],[76.37821,25.38427],[76.38563,25.37951],[76.39034,25.38006],[76.39656,25.38592],[76.40234,25.38646],[76.40721,25.38757],[76.41221,25.38607],[76.42389,25.37974],[76.42991,25.3785],[76.43496,25.38023],[76.44099,25.37929],[76.44606,25.38161],[76.44449,25.3911],[76.44621,25.39552],[76.44928,25.39934],[76.45502,25.40136],[76.46676,25.40244],[76.47789,25.40559],[76.48392,25.40552],[76.49165,25.40692],[76.49606,25.41074],[76.49914,25.41515],[76.5019,25.42104],[76.50897,25.42275],[76.51735,25.42208],[76.52028,25.41493],[76.52663,25.41221],[76.5317,25.41511],[76.53944,25.41681],[76.54409,25.41291],[76.56156,25.41391],[76.56991,25.41086],[76.57655,25.40547],[76.58322,25.40184],[76.58242,25.41814],[76.57924,25.4318],[76.58795,25.43082],[76.59394,25.42661],[76.60402,25.40043],[76.60749,25.38411],[76.61453,25.38344],[76.61984,25.37923],[76.62414,25.37386],[76.63046,25.37023],[76.64128,25.37544],[76.6486,25.37151],[76.6625,25.35655],[76.66983,25.35262],[76.67777,25.34513],[76.6861,25.34058],[76.70826,25.34271],[76.71961,25.33754]]]}}]}