{"type":"FeatureCollection","features":[{"type":"Feature","properties":{"id":"dungarpur","name":"Dungarpur","stateId":"rajasthan","stateName":"Rajasthan","censuscode":124,"type":"district"},"geometry":{"type":"Polygon","coordinates":[[[74.27315,23.94853],[74.27273,23.95128],[74.27833,23.95638],[74.2815,23.95766],[74.29681,23.95528],[74.29985,23.95614],[74.30236,23.96038],[74.30692,23.95608],[74.30944,23.95132],[74.31436,23.945],[74.32615,23.93635],[74.33473,23.93814],[74.36044,23.93499],[74.36688,23.93348],[74.37303,23.92337],[74.38311,23.9091],[74.38407,23.90579],[74.38133,23.90278],[74.37679,23.90017],[74.36005,23.89832],[74.35433,23.88423],[74.34519,23.87954],[74.33362,23.87166],[74.32707,23.86401],[74.31755,23.85694],[74.30775,23.85421],[74.29657,23.8494],[74.28947,23.84192],[74.27928,23.83549],[74.25984,23.82615],[74.23867,23.81449],[74.21535,23.80856],[74.19728,23.79917],[74.18867,23.79632],[74.17149,23.79266],[74.16442,23.79039],[74.15437,23.7867],[74.14767,23.78123],[74.14281,23.77485],[74.13839,23.76545],[74.1329,23.73857],[74.1227,23.72371],[74.12137,23.71139],[74.12953,23.70387],[74.13451,23.69721],[74.13592,23.69175],[74.1321,23.68084],[74.1293,23.67625],[74.12853,23.66482],[74.12995,23.64633],[74.12762,23.63368],[74.11845,23.60972],[74.11398,23.60449],[74.10692,23.60255],[74.08992,23.60373],[74.07841,23.60329],[74.0711,23.59887],[74.06774,23.59076],[74.06549,23.5787],[74.0628,23.56965],[74.05927,23.56374],[74.04924,23.55636],[74.03891,23.55153],[74.03234,23.5442],[74.03015,23.53423],[74.02907,23.52298],[74.01602,23.47819],[74.01162,23.46631],[74.01353,23.44995],[74.01245,23.44114],[74.00097,23.42119],[73.99452,23.41836],[73.98261,23.41111],[73.98002,23.40679],[73.97843,23.39871],[73.9751,23.39433],[73.96368,23.38616],[73.95946,23.37959],[73.9539,23.37585],[73.94424,23.37174],[73.94064,23.36457],[73.94074,23.35183],[73.93952,23.34417],[73.93578,23.33966],[73.92468,23.33614],[73.91079,23.33425],[73.89798,23.33421],[73.891,23.33544],[73.89169,23.35089],[73.88795,23.35691],[73.87619,23.36643],[73.87381,23.37666],[73.86352,23.39411],[73.85418,23.40314],[73.83317,23.42907],[73.83353,23.43851],[73.82885,23.44513],[73.8236,23.44524],[73.79078,23.43401],[73.77965,23.43308],[73.77442,23.4408],[73.77051,23.44435],[73.76758,23.45106],[73.76128,23.45706],[73.75719,23.45531],[73.75311,23.44808],[73.74784,23.44097],[73.7304,23.42344],[73.7252,23.41684],[73.72359,23.41347],[73.72252,23.41122],[73.71667,23.4134],[73.71358,23.41741],[73.70992,23.43226],[73.70597,23.44308],[73.70059,23.45437],[73.69031,23.45751],[73.67822,23.45571],[73.66497,23.45058],[73.65705,23.44592],[73.64941,23.43917],[73.63426,23.44904],[73.6289,23.4511],[73.63686,23.47174],[73.6401,23.49547],[73.64118,23.49742],[73.64889,23.4996],[73.65474,23.50278],[73.65479,23.51281],[73.65367,23.51485],[73.64854,23.52007],[73.6333,23.52983],[73.63347,23.54672],[73.63462,23.56125],[73.63926,23.5683],[73.64619,23.57401],[73.64763,23.57954],[73.64516,23.58935],[73.64448,23.59733],[73.64645,23.60636],[73.65725,23.62155],[73.6469,23.62556],[73.63873,23.62995],[73.62941,23.63723],[73.61545,23.65014],[73.60496,23.65305],[73.5736,23.65416],[73.56706,23.65231],[73.5492,23.63019],[73.5376,23.62151],[73.52837,23.61241],[73.52283,23.60951],[73.50956,23.61572],[73.50633,23.61961],[73.50177,23.62777],[73.49718,23.63277],[73.49744,23.63438],[73.50456,23.63831],[73.50774,23.64399],[73.49664,23.64967],[73.50334,23.65665],[73.50394,23.66155],[73.50711,23.67231],[73.50742,23.679],[73.50656,23.69589],[73.50474,23.70225],[73.49813,23.70558],[73.48176,23.70397],[73.47541,23.70795],[73.47275,23.72001],[73.46903,23.72477],[73.45889,23.73331],[73.45104,23.73874],[73.44741,23.74787],[73.44694,23.75162],[73.42828,23.76114],[73.42374,23.7655],[73.41657,23.77841],[73.40957,23.78019],[73.4047,23.7827],[73.39605,23.7831],[73.38993,23.7776],[73.38584,23.7684],[73.37184,23.76584],[73.36728,23.77705],[73.36363,23.78284],[73.35859,23.78663],[73.35705,23.79085],[73.35879,23.79694],[73.36643,23.81357],[73.37,23.81457],[73.37634,23.81256],[73.37962,23.80766],[73.38307,23.81095],[73.3857,23.81153],[73.39273,23.8101],[73.39851,23.80746],[73.40372,23.80603],[73.40849,23.8073],[73.41201,23.80985],[73.41439,23.81436],[73.41589,23.82371],[73.42618,23.82996],[73.43183,23.83696],[73.43899,23.83646],[73.4577,23.83937],[73.46448,23.84295],[73.4695,23.84706],[73.47132,23.86254],[73.47382,23.86895],[73.48231,23.8719],[73.48538,23.87959],[73.49794,23.90299],[73.51139,23.92368],[73.51792,23.93085],[73.53452,23.9334],[73.54834,23.93647],[73.55488,23.94479],[73.57066,23.95993],[73.57526,23.96161],[73.5794,23.96022],[73.5855,23.96213],[73.58927,23.9649],[73.59242,23.96543],[73.61348,23.96249],[73.61505,23.95919],[73.64583,23.94609],[73.65381,23.94464],[73.65439,23.94747],[73.66376,23.94937],[73.66727,23.94828],[73.67084,23.93899],[73.67713,23.94446],[73.69223,23.95422],[73.69683,23.9582],[73.70381,23.95503],[73.72152,23.94942],[73.73295,23.94374],[73.73848,23.94334],[73.75289,23.94807],[73.75735,23.94529],[73.76576,23.94008],[73.77254,23.93782],[73.77675,23.93881],[73.78246,23.94601],[73.78303,23.94667],[73.78542,23.94707],[73.80331,23.94562],[73.80631,23.94444],[73.80711,23.93818],[73.8088,23.93574],[73.81679,23.93798],[73.82244,23.93842],[73.8321,23.93394],[73.84184,23.93344],[73.85108,23.93456],[73.85774,23.9361],[73.86102,23.94146],[73.86614,23.95305],[73.87012,23.95703],[73.88366,23.96639],[73.90961,23.98116],[73.91791,23.98314],[73.93669,23.97724],[73.94705,23.97544],[73.96389,23.97837],[73.97036,23.97865],[73.9761,23.9775],[73.98273,23.97437],[73.98542,23.97228],[74.0017,23.9683],[74.01628,23.97198],[74.01759,23.97389],[74.02,23.97507],[74.02249,23.97553],[74.02534,23.97432],[74.02831,23.97451],[74.03937,23.97903],[74.04911,23.98061],[74.05781,23.97893],[74.07125,23.97063],[74.08061,23.96816],[74.08513,23.96942],[74.08995,23.97183],[74.0961,23.97658],[74.10091,23.9859],[74.10569,23.99023],[74.11439,23.99092],[74.12248,23.9899],[74.1274,23.99073],[74.12989,23.99349],[74.13064,23.9994],[74.13334,24.01743],[74.14439,24.01926],[74.15192,24.01493],[74.15478,24.01328],[74.16027,24.01328],[74.16,23.99938],[74.16827,23.98235],[74.1702,23.97644],[74.17504,23.96954],[74.18203,23.96513],[74.19576,23.96207],[74.19887,23.96085],[74.20327,23.95749],[74.20544,23.95464],[74.21211,23.94146],[74.21688,23.93142],[74.22224,23.91701],[74.22677,23.90935],[74.23273,23.90999],[74.23664,23.9122],[74.2509,23.92591],[74.25871,23.9298],[74.27514,23.93555],[74.27315,23.94853]]]}}]}