{"type":"FeatureCollection","features":[{"type":"Feature","properties":{"id":"hanumangarh","name":"Hanumangarh","stateId":"rajasthan","stateName":"Rajasthan","censuscode":100,"type":"district"},"geometry":{"type":"Polygon","coordinates":[[[74.04201,29.0097],[74.04213,29.00975],[74.04404,29.01118],[74.04761,29.01274],[74.05018,29.01389],[74.05187,29.01464],[74.05267,29.01489],[74.05406,29.01531],[74.05544,29.01589],[74.05627,29.01627],[74.05782,29.01714],[74.05933,29.01838],[74.05954,29.01849],[74.05991,29.0187],[74.06133,29.01899],[74.06204,29.01898],[74.06283,29.01973],[74.06358,29.02061],[74.06456,29.02128],[74.06672,29.02202],[74.06707,29.02209],[74.06925,29.02251],[74.06974,29.02259],[74.07087,29.02272],[74.07144,29.02284],[74.07222,29.02342],[74.0733,29.02423],[74.07394,29.02471],[74.07447,29.025],[74.07576,29.0257],[74.07856,29.02756],[74.07953,29.02838],[74.08129,29.02884],[74.08149,29.02886],[74.08198,29.0289],[74.08212,29.02891],[74.08293,29.02908],[74.0832,29.02935],[74.08348,29.02977],[74.08373,29.03022],[74.08391,29.03108],[74.08421,29.03213],[74.08425,29.03224],[74.08495,29.03334],[74.08561,29.03349],[74.08643,29.03353],[74.08711,29.03368],[74.08783,29.03394],[74.0888,29.03448],[74.09006,29.03549],[74.09225,29.03711],[74.09352,29.03911],[74.09403,29.04059],[74.09418,29.04185],[74.09465,29.04259],[74.09504,29.04305],[74.09552,29.04344],[74.0956,29.04347],[74.09605,29.04362],[74.09702,29.04375],[74.09795,29.04362],[74.09865,29.04358],[74.09949,29.04372],[74.10029,29.04389],[74.1004,29.04393],[74.1013,29.04426],[74.10182,29.04481],[74.10188,29.04544],[74.10176,29.04624],[74.10172,29.0469],[74.10171,29.04761],[74.10235,29.04861],[74.10321,29.04902],[74.10356,29.0492],[74.10414,29.05055],[74.10417,29.0511],[74.10423,29.05143],[74.10496,29.05243],[74.10498,29.05246],[74.1055,29.05338],[74.10609,29.05385],[74.10645,29.05402],[74.10747,29.05448],[74.10865,29.05536],[74.10897,29.05558],[74.11017,29.05639],[74.11126,29.05999],[74.11076,29.06125],[74.11075,29.06188],[74.11094,29.06216],[74.11118,29.06231],[74.11151,29.06251],[74.11204,29.06287],[74.11248,29.06329],[74.11476,29.0653],[74.11547,29.06536],[74.1162,29.06534],[74.11758,29.06489],[74.11821,29.06453],[74.11912,29.06446],[74.11986,29.06469],[74.12066,29.06516],[74.1215,29.06546],[74.12234,29.06556],[74.1226,29.06557],[74.12358,29.06561],[74.12442,29.06554],[74.12524,29.06535],[74.12569,29.06524],[74.12729,29.06487],[74.12811,29.06458],[74.12848,29.06445],[74.12898,29.06423],[74.12964,29.06419],[74.1304,29.06433],[74.13116,29.06463],[74.13214,29.06513],[74.13397,29.06672],[74.13406,29.06682],[74.13493,29.06783],[74.13601,29.06848],[74.13653,29.06886],[74.13674,29.06945],[74.13738,29.07227],[74.13804,29.07396],[74.13705,29.07478],[74.13612,29.07562],[74.13619,29.07614],[74.13615,29.07724],[74.13567,29.08007],[74.13535,29.08287],[74.13825,29.08355],[74.13846,29.08366],[74.13896,29.08392],[74.14151,29.08635],[74.14317,29.08755],[74.14369,29.08792],[74.14437,29.08843],[74.14467,29.08879],[74.14494,29.08948],[74.14505,29.09015],[74.1479,29.09392],[74.1483,29.09451],[74.14918,29.09567],[74.15117,29.09873],[74.15177,29.09957],[74.15186,29.09974],[74.15283,29.1016],[74.1532,29.10244],[74.1535,29.10354],[74.15414,29.10408],[74.15528,29.10455],[74.1555,29.10487],[74.1559,29.10564],[74.15629,29.10612],[74.15805,29.10677],[74.15874,29.10693],[74.15913,29.10714],[74.15935,29.10732],[74.16048,29.10931],[74.16186,29.11032],[74.16241,29.11073],[74.16286,29.11108],[74.16299,29.1112],[74.16329,29.1115],[74.16284,29.11322],[74.16264,29.11399],[74.16252,29.11436],[74.16229,29.11503],[74.16145,29.11769],[74.16101,29.11891],[74.16037,29.12053],[74.16017,29.12189],[74.16023,29.12277],[74.16069,29.12565],[74.16095,29.12678],[74.1621,29.1286],[74.16329,29.13003],[74.16383,29.13066],[74.16479,29.13317],[74.16529,29.13457],[74.16737,29.13922],[74.17074,29.14155],[74.17219,29.14233],[74.17761,29.14541],[74.17982,29.14623],[74.18064,29.14625],[74.18159,29.1464],[74.1831,29.14674],[74.1841,29.14689],[74.18485,29.14688],[74.18612,29.14679],[74.18623,29.14679],[74.18673,29.14683],[74.18705,29.14685],[74.18723,29.14694],[74.18872,29.14752],[74.19009,29.14744],[74.1908,29.14737],[74.191,29.1474],[74.19111,29.14776],[74.19143,29.14805],[74.19513,29.14844],[74.19581,29.14847],[74.19874,29.14919],[74.20088,29.14946],[74.20171,29.14956],[74.20286,29.14982],[74.20274,29.1525],[74.20278,29.15312],[74.20287,29.15316],[74.20323,29.15334],[74.20443,29.15632],[74.20431,29.15767],[74.20421,29.16018],[74.2039,29.16388],[74.20406,29.16406],[74.20436,29.16438],[74.20541,29.16583],[74.20591,29.16723],[74.20595,29.16764],[74.20624,29.16915],[74.20637,29.17046],[74.20382,29.17351],[74.20517,29.17389],[74.20362,29.17521],[74.20345,29.17578],[74.2031,29.17695],[74.20226,29.17845],[74.20196,29.17903],[74.2005,29.18111],[74.20013,29.18227],[74.19992,29.18285],[74.19908,29.18538],[74.1998,29.18668],[74.1999,29.18818],[74.20061,29.18843],[74.20297,29.18855],[74.20401,29.18896],[74.20429,29.18915],[74.20485,29.18952],[74.20546,29.18962],[74.20562,29.18964],[74.20743,29.19078],[74.20781,29.19239],[74.20775,29.19276],[74.20765,29.19346],[74.20771,29.19394],[74.20794,29.19439],[74.20877,29.19719],[74.20776,29.20102],[74.20789,29.20128],[74.20863,29.20166],[74.20882,29.20179],[74.20968,29.20426],[74.20966,29.20481],[74.20989,29.20499],[74.20894,29.20733],[74.2092,29.20967],[74.21,29.20986],[74.21058,29.21118],[74.21066,29.21244],[74.21066,29.2125],[74.21086,29.21631],[74.21113,29.21703],[74.2117,29.21756],[74.21222,29.21786],[74.21413,29.21855],[74.21404,29.22277],[74.21331,29.22417],[74.21309,29.22566],[74.21321,29.2278],[74.21322,29.22807],[74.21364,29.23029],[74.21378,29.23092],[74.214,29.23191],[74.21454,29.23307],[74.21552,29.23442],[74.21627,29.23449],[74.21648,29.23451],[74.21693,29.23456],[74.2178,29.23464],[74.21877,29.23478],[74.22003,29.23502],[74.22173,29.23553],[74.22358,29.23627],[74.22401,29.23647],[74.22425,29.23659],[74.2249,29.23693],[74.2255,29.23733],[74.22767,29.23922],[74.22787,29.2394],[74.2282,29.23971],[74.22871,29.24021],[74.22965,29.24125],[74.23009,29.2418],[74.23012,29.24183],[74.23052,29.24235],[74.23094,29.24291],[74.2311,29.24315],[74.23134,29.24348],[74.23173,29.24405],[74.23212,29.24463],[74.23226,29.24483],[74.2325,29.24521],[74.23286,29.2458],[74.23319,29.2464],[74.23351,29.24701],[74.2338,29.24762],[74.23434,29.24888],[74.23444,29.24911],[74.23494,29.25019],[74.23498,29.25032],[74.23549,29.25168],[74.23564,29.25203],[74.23589,29.25266],[74.23614,29.25329],[74.23637,29.25393],[74.23649,29.25427],[74.2368,29.25521],[74.23701,29.2558],[74.23717,29.25653],[74.23783,29.25966],[74.23783,29.26116],[74.23784,29.26401],[74.23786,29.26428],[74.23801,29.26616],[74.23819,29.26841],[74.23842,29.27136],[74.23122,29.27594],[74.22898,29.27738],[74.22419,29.28033],[74.21933,29.28562],[74.21753,29.28925],[74.21444,29.29229],[74.21371,29.29301],[74.21271,29.29115],[74.21065,29.29112],[74.20916,29.29001],[74.20911,29.28922],[74.20909,29.28895],[74.20432,29.28892],[74.20421,29.28615],[74.20414,29.28492],[74.20394,29.28485],[74.20239,29.2848],[74.20123,29.28263],[74.20105,29.2824],[74.20067,29.28236],[74.20058,29.28234],[74.19967,29.28234],[74.19606,29.28019],[74.19564,29.28017],[74.19398,29.28007],[74.19063,29.27833],[74.18593,29.27564],[74.18339,29.27444],[74.1774,29.2716],[74.17649,29.27132],[74.17466,29.27078],[74.17176,29.26991],[74.16967,29.26929],[74.16785,29.26912],[74.15344,29.26996],[74.14674,29.27035],[74.14589,29.2704],[74.14107,29.27101],[74.1367,29.27157],[74.11973,29.27372],[74.11838,29.27436],[74.11628,29.27535],[74.11402,29.27642],[74.10915,29.28161],[74.10738,29.28175],[74.10679,29.28042],[74.10662,29.28002],[74.10609,29.27896],[74.10601,29.27879],[74.10562,29.27768],[74.10515,29.27644],[74.10492,29.27584],[74.09996,29.26533],[74.09906,29.2634],[74.09781,29.26101],[74.09696,29.25934],[74.09657,29.25856],[74.09625,29.25818],[74.09588,29.25792],[74.09489,29.2578],[74.09404,29.25797],[74.09246,29.25837],[74.09191,29.25852],[74.09026,29.25891],[74.08833,29.2592],[74.08763,29.2593],[74.08645,29.25969],[74.08428,29.26069],[74.0825,29.26153],[74.08085,29.26232],[74.08006,29.26269],[74.07639,29.26429],[74.073,29.26589],[74.07238,29.26628],[74.07225,29.26638],[74.07083,29.26743],[74.06846,29.26896],[74.06628,29.27021],[74.06534,29.2707],[74.0643,29.27123],[74.06407,29.27134],[74.06345,29.27165],[74.06294,29.27202],[74.06216,29.27306],[74.06203,29.2747],[74.06202,29.27552],[74.05662,29.27557],[74.05331,29.27864],[74.05128,29.28121],[74.04979,29.2831],[74.04814,29.28516],[74.04697,29.28671],[74.04543,29.28757],[74.04325,29.28762],[74.04271,29.28763],[74.04173,29.28765],[74.03774,29.28758],[74.03449,29.28759],[74.03267,29.28661],[74.03061,29.28464],[74.02998,29.28404],[74.02917,29.2834],[74.02881,29.28315],[74.02776,29.28263],[74.02643,29.28234],[74.02565,29.28236],[74.0254,29.28243],[74.02472,29.2826],[74.02415,29.28291],[74.02387,29.28306],[74.02152,29.28526],[74.02061,29.28625],[74.01975,29.28723],[74.0193,29.2879],[74.01882,29.28932],[74.01872,29.2905],[74.01856,29.29228],[74.01792,29.29933],[74.01728,29.30713],[74.01616,29.3077],[74.01457,29.30815],[74.01103,29.30916],[74.00335,29.31009],[73.99962,29.31454],[73.9985,29.3155],[73.99714,29.31667],[73.99601,29.31765],[73.99595,29.3177],[73.9956,29.318],[73.99046,29.32045],[73.98816,29.32391],[73.98754,29.32864],[73.98755,29.32891],[73.98758,29.32939],[73.98796,29.33747],[73.98801,29.33859],[73.98684,29.34207],[73.98403,29.34356],[73.98232,29.34446],[73.97713,29.34722],[73.97575,29.3477],[73.9735,29.34848],[73.968,29.35038],[73.96284,29.35458],[73.95979,29.36003],[73.95966,29.36027],[73.9548,29.36272],[73.94396,29.36662],[73.9388,29.37006],[73.93713,29.37329],[73.93648,29.37452],[73.93634,29.37683],[73.93614,29.37999],[73.93582,29.38397],[73.93544,29.38433],[73.93323,29.38644],[73.93181,29.38631],[73.93156,29.38629],[73.92899,29.38441],[73.92788,29.38192],[73.92648,29.38047],[73.9245,29.37841],[73.92374,29.37778],[73.91762,29.37271],[73.91661,29.37187],[73.91134,29.36852],[73.90883,29.36691],[73.9087,29.36683],[73.90345,29.36215],[73.90282,29.36159],[73.90099,29.35996],[73.90025,29.3593],[73.89977,29.35895],[73.89567,29.35603],[73.89187,29.35331],[73.89179,29.35326],[73.88387,29.3502],[73.87537,29.34715],[73.87186,29.34712],[73.86878,29.34709],[73.8677,29.34708],[73.86227,29.34953],[73.86215,29.34973],[73.86132,29.3511],[73.86117,29.35135],[73.85793,29.3567],[73.8559,29.36004],[73.85416,29.36289],[73.85354,29.36786],[73.85295,29.37445],[73.85256,29.37577],[73.85195,29.37706],[73.85175,29.37748],[73.84715,29.38143],[73.84342,29.38488],[73.8418,29.38809],[73.84167,29.38834],[73.84147,29.39083],[73.84134,29.39232],[73.84328,29.39682],[73.84657,29.39975],[73.84954,29.40191],[73.8518,29.403],[73.8532,29.40368],[73.85571,29.40489],[73.85682,29.40689],[73.85708,29.40747],[73.85793,29.40939],[73.85809,29.40962],[73.85856,29.41033],[73.85961,29.41189],[73.86187,29.4129],[73.86251,29.41308],[73.86735,29.41446],[73.86831,29.41473],[73.87359,29.41623],[73.88024,29.41812],[73.88363,29.41908],[73.88978,29.42083],[73.89003,29.4209],[73.89009,29.42092],[73.89618,29.42265],[73.89764,29.42312],[73.89877,29.42348],[73.90601,29.42582],[73.90628,29.42591],[73.90696,29.42613],[73.9094,29.42691],[73.91517,29.42877],[73.91711,29.43031],[73.91889,29.43172],[73.91918,29.43195],[73.92024,29.43421],[73.92021,29.43622],[73.92021,29.43678],[73.91877,29.44119],[73.91871,29.44135],[73.91852,29.44194],[73.91786,29.44397],[73.91622,29.44757],[73.91436,29.45166],[73.91178,29.45531],[73.91168,29.45545],[73.91006,29.45774],[73.90858,29.45982],[73.90637,29.4622],[73.90283,29.46599],[73.90182,29.46821],[73.89991,29.47244],[73.89973,29.47283],[73.8996,29.47311],[73.89692,29.47888],[73.89673,29.47929],[73.89554,29.48186],[73.88913,29.49047],[73.88827,29.49169],[73.88696,29.49355],[73.88566,29.49541],[73.88538,29.50076],[73.8853,29.50238],[73.88531,29.50244],[73.88732,29.50932],[73.88773,29.51075],[73.88776,29.51086],[73.88774,29.51334],[73.88602,29.51433],[73.88513,29.51432],[73.88374,29.51431],[73.8807,29.5131],[73.87864,29.51227],[73.87238,29.51031],[73.86559,29.50818],[73.86102,29.50914],[73.85763,29.51263],[73.85526,29.51506],[73.85515,29.51519],[73.85238,29.51852],[73.85804,29.52155],[73.85845,29.52172],[73.86674,29.52497],[73.86711,29.52511],[73.86836,29.52736],[73.86878,29.52811],[73.86876,29.5306],[73.86874,29.53188],[73.86872,29.53334],[73.86855,29.53367],[73.86727,29.53606],[73.86553,29.53877],[73.86408,29.54101],[73.86031,29.55193],[73.85996,29.55292],[73.85763,29.55738],[73.85593,29.55736],[73.85576,29.55715],[73.85545,29.55673],[73.85368,29.55436],[73.85317,29.55389],[73.84607,29.54733],[73.84289,29.54615],[73.84222,29.5459],[73.84024,29.54516],[73.83785,29.54427],[73.83277,29.54024],[73.82784,29.53632],[73.82233,29.53194],[73.81455,29.52881],[73.81344,29.53071],[73.81335,29.53085],[73.81314,29.53122],[73.81298,29.53149],[73.81284,29.53173],[73.81254,29.53224],[73.81223,29.53274],[73.81191,29.53324],[73.81157,29.53374],[73.81156,29.53376],[73.81124,29.53423],[73.81092,29.53474],[73.8106,29.53524],[73.81028,29.53575],[73.80995,29.53624],[73.80988,29.53633],[73.80959,29.53672],[73.80921,29.5372],[73.80881,29.53768],[73.80856,29.53794],[73.80838,29.53812],[73.8079,29.53851],[73.80753,29.53868],[73.80732,29.53878],[73.80664,29.53897],[73.806,29.53919],[73.8055,29.53955],[73.8051,29.53997],[73.80847,29.53998],[73.80935,29.54142],[73.80962,29.54533],[73.80987,29.54919],[73.80982,29.55311],[73.81051,29.55353],[73.81118,29.55354],[73.81182,29.55363],[73.81208,29.55396],[73.81209,29.55412],[73.81215,29.55482],[73.81236,29.557],[73.81227,29.55905],[73.81224,29.55986],[73.81208,29.56013],[73.81164,29.56026],[73.80958,29.56047],[73.80956,29.56075],[73.80955,29.56085],[73.80972,29.56319],[73.7996,29.56085],[73.80107,29.56576],[73.80256,29.57264],[73.80268,29.57322],[73.8027,29.5733],[73.8033,29.57608],[73.80346,29.58217],[73.80357,29.58655],[73.80317,29.58917],[73.80304,29.59004],[73.80296,29.59061],[73.80242,29.59404],[73.80232,29.59472],[73.80227,29.59867],[73.80342,29.60091],[73.80352,29.60094],[73.80453,29.60121],[73.80706,29.6019],[73.80734,29.60198],[73.80947,29.60207],[73.81677,29.6024],[73.81822,29.60268],[73.81887,29.60281],[73.82848,29.60467],[73.83167,29.60528],[73.83542,29.6068],[73.84177,29.60938],[73.84204,29.60949],[73.84431,29.61028],[73.85634,29.61442],[73.85715,29.61461],[73.85878,29.61499],[73.86683,29.61684],[73.86785,29.61708],[73.86851,29.61723],[73.86947,29.61745],[73.87161,29.61779],[73.87477,29.61828],[73.88212,29.61942],[73.88694,29.62017],[73.89125,29.62087],[73.90434,29.62299],[73.90931,29.62379],[73.91675,29.62643],[73.92153,29.62946],[73.92533,29.63285],[73.92559,29.63706],[73.92548,29.63734],[73.92357,29.64202],[73.92397,29.64442],[73.92431,29.64649],[73.92523,29.6485],[73.927,29.65235],[73.93498,29.65996],[73.94105,29.66241],[73.94775,29.66418],[73.95047,29.66489],[73.95333,29.66648],[73.9545,29.66713],[73.95672,29.66837],[73.96219,29.67219],[73.96342,29.67305],[73.96325,29.67048],[73.96566,29.66603],[73.96761,29.66436],[73.96805,29.66398],[73.96923,29.66297],[73.97277,29.66253],[73.97435,29.66233],[73.9784,29.66236],[73.97985,29.66237],[73.98513,29.6634],[73.98535,29.66344],[73.99083,29.66588],[73.99356,29.6675],[73.99368,29.66757],[73.99787,29.67006],[74.01116,29.67839],[74.00929,29.6846],[74.00837,29.68732],[74.00834,29.68986],[74.00863,29.69018],[74.00923,29.69084],[74.00942,29.69087],[74.01235,29.69126],[74.01413,29.69263],[74.01455,29.69518],[74.01318,29.6979],[74.0108,29.69984],[74.00779,29.7],[74.00511,29.70018],[74.00018,29.70092],[73.9966,29.70129],[73.99484,29.69737],[73.99352,29.6958],[73.99151,29.69539],[73.98993,29.69635],[73.98991,29.69889],[73.99009,29.70106],[73.99031,29.70358],[73.99206,29.7075],[73.99426,29.71001],[73.99516,29.71103],[73.99736,29.71417],[73.99958,29.71614],[74.00493,29.71813],[74.00662,29.71892],[74.01192,29.71895],[74.01874,29.71899],[74.01963,29.72278],[74.01963,29.72357],[74.01986,29.72363],[74.0231,29.72358],[74.02472,29.72657],[74.02503,29.72652],[74.02817,29.72654],[74.02998,29.7248],[74.0314,29.72131],[74.03181,29.72033],[74.03472,29.71996],[74.03809,29.71881],[74.03944,29.71804],[74.04522,29.7164],[74.04595,29.7162],[74.04617,29.71614],[74.0475,29.71615],[74.04818,29.71615],[74.04819,29.71218],[74.04823,29.70789],[74.04884,29.70763],[74.04969,29.70763],[74.05022,29.70765],[74.05083,29.7079],[74.05084,29.70831],[74.05119,29.71224],[74.0565,29.71226],[74.05916,29.71222],[74.06364,29.71224],[74.06379,29.71198],[74.06495,29.70974],[74.06729,29.70977],[74.06883,29.70975],[74.06895,29.70955],[74.06883,29.70677],[74.06879,29.70545],[74.07,29.70381],[74.07246,29.70247],[74.07248,29.70247],[74.07539,29.70229],[74.07627,29.70347],[74.07894,29.70466],[74.07944,29.70481],[74.08028,29.70506],[74.08026,29.7074],[74.08022,29.70803],[74.08,29.7113],[74.08017,29.71716],[74.08141,29.72848],[74.08154,29.72926],[74.08157,29.72944],[74.08206,29.73231],[74.08354,29.74099],[74.08367,29.74515],[74.08388,29.75212],[74.0843,29.75524],[74.08676,29.75624],[74.08922,29.75547],[74.09253,29.75157],[74.09284,29.7512],[74.09513,29.74614],[74.09696,29.74147],[74.09967,29.73876],[74.10206,29.73856],[74.10393,29.7384],[74.10631,29.73864],[74.10773,29.73879],[74.10863,29.73916],[74.11263,29.74119],[74.11864,29.74474],[74.12008,29.74506],[74.12346,29.7458],[74.1287,29.74695],[74.12949,29.74704],[74.13272,29.74737],[74.13412,29.74839],[74.1364,29.74557],[74.13638,29.74097],[74.13528,29.74061],[74.13373,29.73733],[74.13365,29.72984],[74.13363,29.7225],[74.13831,29.72458],[74.14275,29.72655],[74.14709,29.72892],[74.14854,29.72971],[74.15031,29.73168],[74.1494,29.7344],[74.14976,29.73603],[74.14983,29.73636],[74.15161,29.73754],[74.15201,29.74053],[74.15198,29.74672],[74.15325,29.75551],[74.15425,29.75766],[74.15545,29.7602],[74.159,29.76335],[74.15901,29.76335],[74.15966,29.76382],[74.16167,29.76528],[74.16501,29.76768],[74.16503,29.7677],[74.16922,29.77031],[74.16904,29.77053],[74.16795,29.7721],[74.16394,29.77714],[74.16435,29.78083],[74.16448,29.78135],[74.16557,29.78565],[74.16656,29.78767],[74.16668,29.78792],[74.16747,29.78914],[74.16774,29.78954],[74.1679,29.78979],[74.16995,29.79292],[74.17107,29.79562],[74.17136,29.79635],[74.17151,29.79679],[74.17165,29.79724],[74.17179,29.79768],[74.17194,29.79812],[74.17233,29.79896],[74.1726,29.79935],[74.1729,29.79973],[74.17321,29.8001],[74.17353,29.80047],[74.17385,29.80084],[74.17421,29.80118],[74.17461,29.80146],[74.17553,29.80185],[74.17569,29.8019],[74.17705,29.80228],[74.17755,29.80243],[74.17805,29.80257],[74.17855,29.8027],[74.17955,29.80299],[74.18027,29.80333],[74.18074,29.80358],[74.18091,29.80366],[74.1814,29.8038],[74.18191,29.80391],[74.18243,29.80401],[74.18248,29.80402],[74.18343,29.80427],[74.18392,29.80444],[74.1844,29.80462],[74.18489,29.80479],[74.1859,29.80503],[74.18642,29.80511],[74.18694,29.80519],[74.18745,29.80528],[74.18846,29.80551],[74.18916,29.80577],[74.18964,29.80597],[74.18988,29.80608],[74.19035,29.8063],[74.19094,29.80659],[74.19135,29.80678],[74.1922,29.80717],[74.19266,29.80739],[74.19312,29.8076],[74.19739,29.80948],[74.19779,29.80968],[74.1986,29.81026],[74.19905,29.81049],[74.19999,29.81089],[74.20046,29.81108],[74.20094,29.81127],[74.20142,29.81146],[74.20189,29.81165],[74.20237,29.81184],[74.20285,29.81203],[74.20332,29.81223],[74.20379,29.81243],[74.20427,29.81262],[74.20474,29.81282],[74.20521,29.81302],[74.20568,29.81322],[74.20615,29.81342],[74.20631,29.81349],[74.20662,29.81363],[74.20709,29.81384],[74.20757,29.81403],[74.20806,29.81423],[74.20854,29.81443],[74.20945,29.81488],[74.20987,29.81514],[74.21026,29.81543],[74.21063,29.81575],[74.21098,29.81609],[74.21125,29.81639],[74.21163,29.81684],[74.21192,29.81723],[74.21194,29.81727],[74.21201,29.81737],[74.21219,29.81763],[74.21243,29.81803],[74.21267,29.81887],[74.21249,29.81981],[74.21242,29.82026],[74.21233,29.82072],[74.21203,29.82252],[74.21196,29.82298],[74.2119,29.82343],[74.21161,29.82478],[74.21147,29.82522],[74.21131,29.82566],[74.21116,29.82609],[74.21101,29.82653],[74.21087,29.82697],[74.21074,29.82741],[74.21062,29.82786],[74.21049,29.8283],[74.21037,29.82875],[74.2102,29.82928],[74.20986,29.83004],[74.20971,29.83048],[74.20959,29.83092],[74.20948,29.83137],[74.20937,29.83182],[74.20926,29.83227],[74.20915,29.83271],[74.20902,29.83316],[74.20888,29.8336],[74.20881,29.83384],[74.20874,29.83404],[74.20859,29.83448],[74.20844,29.83491],[74.20828,29.83535],[74.20811,29.83578],[74.20794,29.83621],[74.20776,29.83664],[74.20758,29.83707],[74.2072,29.83793],[74.20701,29.83835],[74.20682,29.83878],[74.20663,29.8392],[74.20644,29.83963],[74.2064,29.8397],[74.20625,29.84005],[74.20603,29.84054],[74.20586,29.84091],[74.20568,29.84133],[74.20551,29.84177],[74.20533,29.8422],[74.20516,29.84264],[74.20499,29.84308],[74.20486,29.84352],[74.20477,29.84396],[74.20473,29.84441],[74.2048,29.84533],[74.20488,29.84579],[74.20499,29.84624],[74.20516,29.84679],[74.20679,29.84835],[74.20725,29.84858],[74.20769,29.84884],[74.20812,29.84911],[74.20856,29.84935],[74.20903,29.84954],[74.20954,29.84967],[74.21005,29.84977],[74.21056,29.84989],[74.21074,29.84992],[74.21107,29.85],[74.2116,29.8502],[74.21184,29.85016],[74.21209,29.85021],[74.21259,29.85033],[74.2131,29.85045],[74.2136,29.85058],[74.2141,29.85071],[74.2146,29.85086],[74.2151,29.851],[74.2156,29.85113],[74.21588,29.8512],[74.21713,29.85145],[74.21765,29.85153],[74.21816,29.85159],[74.21868,29.85166],[74.2192,29.85173],[74.21972,29.85181],[74.22024,29.85188],[74.22076,29.85188],[74.22112,29.85187],[74.22129,29.85187],[74.22181,29.85185],[74.22233,29.85182],[74.22286,29.8518],[74.22348,29.85179],[74.22391,29.85177],[74.22443,29.85177],[74.22495,29.85178],[74.22501,29.85178],[74.22548,29.85181],[74.22579,29.85183],[74.226,29.85184],[74.22669,29.85195],[74.22705,29.85192],[74.22757,29.85195],[74.22809,29.85198],[74.22861,29.85202],[74.22914,29.85206],[74.22966,29.85209],[74.22995,29.85212],[74.23028,29.85214],[74.23071,29.85216],[74.23175,29.85221],[74.23228,29.85222],[74.23317,29.85221],[74.23437,29.85216],[74.23489,29.85213],[74.23594,29.85206],[74.23699,29.85201],[74.23754,29.85203],[74.23804,29.85197],[74.23856,29.85195],[74.23909,29.85193],[74.23909,29.85193],[74.23961,29.85193],[74.24014,29.85194],[74.24101,29.85202],[74.24169,29.85212],[74.24221,29.8522],[74.24324,29.85237],[74.24428,29.85254],[74.24531,29.85265],[74.24636,29.85269],[74.24688,29.85269],[74.24741,29.85268],[74.24793,29.85266],[74.24898,29.85259],[74.2495,29.85254],[74.25002,29.8525],[74.25158,29.8523],[74.25262,29.85215],[74.25365,29.852],[74.25417,29.85193],[74.25469,29.85186],[74.25573,29.85176],[74.25625,29.85171],[74.25677,29.85166],[74.25729,29.85162],[74.25774,29.85158],[74.25861,29.85154],[74.25886,29.85149],[74.25938,29.85145],[74.26043,29.85136],[74.26095,29.85133],[74.26225,29.85123],[74.26304,29.85114],[74.26407,29.85098],[74.26458,29.85089],[74.26509,29.85079],[74.26561,29.8507],[74.26612,29.8506],[74.26714,29.8504],[74.26765,29.8503],[74.26919,29.85],[74.2697,29.8499],[74.2709,29.84971],[74.27194,29.84954],[74.27298,29.84937],[74.27357,29.84928],[74.27394,29.84924],[74.27453,29.84917],[74.27557,29.84912],[74.27609,29.84914],[74.27661,29.84921],[74.27713,29.84931],[74.27764,29.84944],[74.27777,29.84948],[74.27813,29.84959],[74.27862,29.84976],[74.27908,29.84998],[74.27953,29.85022],[74.27996,29.85049],[74.28037,29.85077],[74.2805,29.85087],[74.28114,29.85139],[74.28152,29.85171],[74.28189,29.85203],[74.28226,29.85236],[74.28264,29.85268],[74.28302,29.85301],[74.28335,29.85337],[74.28361,29.85375],[74.28381,29.85417],[74.28398,29.8546],[74.28412,29.85505],[74.28424,29.8555],[74.28434,29.85595],[74.28443,29.8564],[74.28451,29.85685],[74.28461,29.85776],[74.28468,29.85868],[74.28469,29.85883],[74.28471,29.85913],[74.28473,29.85959],[74.28474,29.86005],[74.28474,29.8605],[74.28473,29.86096],[74.28472,29.86142],[74.2847,29.86187],[74.28466,29.86233],[74.28463,29.86279],[74.28461,29.86292],[74.28458,29.86324],[74.28455,29.8637],[74.28451,29.86415],[74.28451,29.86427],[74.28449,29.86461],[74.28447,29.86507],[74.28446,29.86553],[74.28446,29.86566],[74.28446,29.86598],[74.28447,29.86644],[74.28449,29.8669],[74.28451,29.86735],[74.28455,29.86827],[74.28457,29.86872],[74.2846,29.86964],[74.28465,29.87055],[74.28467,29.87101],[74.28465,29.87558],[74.28463,29.87603],[74.28461,29.87649],[74.2846,29.87695],[74.28459,29.8774],[74.28458,29.87786],[74.28458,29.87832],[74.2846,29.87877],[74.28468,29.87923],[74.28474,29.87968],[74.28475,29.87974],[74.28476,29.88014],[74.28474,29.88059],[74.28472,29.88105],[74.28471,29.88115],[74.28468,29.88151],[74.28462,29.88196],[74.28455,29.88242],[74.28446,29.88287],[74.28437,29.88332],[74.28434,29.88346],[74.28428,29.88378],[74.28417,29.88424],[74.28405,29.88469],[74.28391,29.88513],[74.28373,29.88555],[74.28362,29.88577],[74.28352,29.88595],[74.28288,29.8867],[74.28248,29.88702],[74.28234,29.8871],[74.28205,29.88729],[74.2816,29.88747],[74.28107,29.88751],[74.28052,29.8875],[74.27999,29.8875],[74.27976,29.88752],[74.27947,29.8875],[74.27903,29.88747],[74.27842,29.88742],[74.27791,29.88734],[74.2774,29.88723],[74.27699,29.88714],[74.27689,29.88712],[74.27638,29.88701],[74.27586,29.88692],[74.27535,29.88683],[74.27483,29.88674],[74.2745,29.88668],[74.27431,29.88665],[74.2738,29.88658],[74.27354,29.88656],[74.27325,29.88654],[74.27299,29.88655],[74.27274,29.88656],[74.27223,29.88654],[74.27171,29.88659],[74.27119,29.88668],[74.27068,29.88679],[74.27037,29.8869],[74.27018,29.88691],[74.26967,29.88705],[74.26918,29.8872],[74.26868,29.88735],[74.26856,29.8874],[74.26819,29.88752],[74.26771,29.8877],[74.26762,29.88774],[74.26723,29.8879],[74.26678,29.88814],[74.26636,29.88842],[74.26601,29.88874],[74.26573,29.88914],[74.26553,29.88957],[74.26545,29.89002],[74.26545,29.89003],[74.2654,29.89048],[74.26533,29.89093],[74.26527,29.89138],[74.26526,29.89152],[74.26524,29.89167],[74.26521,29.89184],[74.26515,29.89229],[74.26509,29.89275],[74.26506,29.89288],[74.26501,29.8932],[74.26496,29.89344],[74.26492,29.89365],[74.26481,29.89409],[74.26469,29.89454],[74.26467,29.89462],[74.26457,29.89499],[74.26445,29.89543],[74.26433,29.89587],[74.2642,29.89632],[74.26406,29.89676],[74.26393,29.8972],[74.26386,29.89742],[74.26379,29.89764],[74.26367,29.89809],[74.26355,29.89853],[74.26345,29.89898],[74.26336,29.89943],[74.26336,29.89948],[74.26328,29.89988],[74.26322,29.90034],[74.26315,29.90079],[74.2631,29.90103],[74.26309,29.90135],[74.26305,29.9017],[74.263,29.90226],[74.26296,29.90261],[74.26292,29.90307],[74.26287,29.90353],[74.26283,29.90398],[74.26279,29.90444],[74.26275,29.9049],[74.26271,29.90535],[74.26268,29.90581],[74.26266,29.90627],[74.26265,29.90672],[74.26264,29.90718],[74.26265,29.90763],[74.26268,29.90809],[74.26274,29.90854],[74.26283,29.90899],[74.26294,29.90944],[74.26308,29.90998],[74.26318,29.91034],[74.2633,29.91078],[74.26337,29.91104],[74.26342,29.91123],[74.26345,29.91132],[74.26355,29.91167],[74.26369,29.91211],[74.26384,29.91255],[74.26399,29.91299],[74.26414,29.91343],[74.26429,29.91386],[74.26438,29.9141],[74.26446,29.9143],[74.26465,29.91472],[74.26487,29.91514],[74.26511,29.91554],[74.26536,29.91594],[74.26537,29.91596],[74.26562,29.91634],[74.2658,29.9166],[74.26588,29.91674],[74.26615,29.91713],[74.26641,29.91752],[74.26668,29.91792],[74.26693,29.91832],[74.26718,29.91872],[74.26743,29.91913],[74.26767,29.91953],[74.26791,29.91994],[74.26814,29.92035],[74.26837,29.92076],[74.2686,29.92117],[74.26883,29.92158],[74.26905,29.922],[74.26909,29.92208],[74.26926,29.92241],[74.26948,29.92283],[74.26969,29.92325],[74.2699,29.92367],[74.27,29.92387],[74.27011,29.92409],[74.27032,29.9245],[74.27053,29.92492],[74.27073,29.92535],[74.27094,29.92577],[74.27121,29.92616],[74.27151,29.92653],[74.27163,29.92669],[74.27181,29.92691],[74.27212,29.92728],[74.27216,29.92732],[74.27262,29.92786],[74.27275,29.92801],[74.27306,29.92838],[74.27336,29.92875],[74.27366,29.92913],[74.27478,29.93067],[74.27506,29.93106],[74.27534,29.93145],[74.27562,29.93183],[74.27589,29.93222],[74.27617,29.93261],[74.27645,29.933],[74.27652,29.9331],[74.27671,29.93339],[74.27699,29.93378],[74.27706,29.93388],[74.27727,29.93417],[74.27757,29.93454],[74.27762,29.93459],[74.27789,29.93491],[74.27821,29.93527],[74.27835,29.93542],[74.27854,29.93562],[74.27874,29.93581],[74.27889,29.93597],[74.27924,29.9363],[74.27961,29.93663],[74.27999,29.93694],[74.28038,29.93726],[74.28077,29.93756],[74.28082,29.9376],[74.28117,29.93786],[74.28158,29.93816],[74.282,29.93844],[74.28242,29.9387],[74.28285,29.93895],[74.28332,29.93914],[74.28383,29.93927],[74.28394,29.93929],[74.28435,29.93937],[74.28485,29.9395],[74.28534,29.93967],[74.28583,29.93983],[74.28632,29.94],[74.28681,29.94018],[74.28707,29.94026],[74.2873,29.94034],[74.28779,29.94049],[74.28829,29.94062],[74.2888,29.94074],[74.28931,29.94084],[74.28982,29.94094],[74.29034,29.94104],[74.29041,29.94106],[74.29085,29.94114],[74.29147,29.94128],[74.29164,29.94133],[74.29186,29.94138],[74.29381,29.94207],[74.29579,29.94267],[74.29747,29.94293],[74.29893,29.94302],[74.29945,29.943],[74.29996,29.94295],[74.30046,29.94283],[74.30144,29.94249],[74.30293,29.94202],[74.30404,29.94188],[74.30474,29.94187],[74.30523,29.94191],[74.30581,29.94228],[74.30578,29.94295],[74.3056,29.94357],[74.30515,29.94458],[74.30477,29.94543],[74.3042,29.9462],[74.30356,29.94744],[74.30318,29.94877],[74.30251,29.95041],[74.30184,29.95302],[74.30064,29.95607],[74.30057,29.9564],[74.331,29.9541],[74.35173,29.95186],[74.36537,29.95038],[74.382,29.95002],[74.41335,29.94726],[74.43766,29.94941],[74.45158,29.94692],[74.45364,29.94655],[74.47624,29.94445],[74.52875,29.94299],[74.52244,29.92967],[74.51464,29.90739],[74.5205,29.90391],[74.53512,29.90214],[74.54332,29.90218],[74.55306,29.88824],[74.55481,29.88023],[74.56139,29.873],[74.56313,29.86511],[74.55702,29.85639],[74.54203,29.83878],[74.51533,29.83212],[74.5011,29.82609],[74.48999,29.81485],[74.47991,29.8016],[74.47458,29.78716],[74.47838,29.75781],[74.48124,29.74358],[74.49245,29.74355],[74.50607,29.74131],[74.52084,29.74013],[74.53512,29.74078],[74.54117,29.74876],[74.54712,29.75326],[74.55867,29.75417],[74.57338,29.75395],[74.58076,29.75257],[74.58756,29.76628],[74.59605,29.7678],[74.60198,29.766],[74.60689,29.75724],[74.61479,29.75211],[74.61538,29.74588],[74.61098,29.7399],[74.61281,29.72064],[74.6097,29.71232],[74.60833,29.70541],[74.60216,29.69993],[74.60314,29.69063],[74.6001,29.68192],[74.59436,29.67424],[74.58771,29.65396],[74.5912,29.64326],[74.59518,29.63443],[74.59043,29.62972],[74.58447,29.62651],[74.58611,29.62],[74.58376,29.6136],[74.57931,29.58509],[74.5796,29.56768],[74.57551,29.56264],[74.58072,29.5547],[74.59076,29.54678],[74.60014,29.54249],[74.60845,29.53592],[74.6204,29.53052],[74.62336,29.52612],[74.62063,29.51901],[74.61344,29.50946],[74.60966,29.50257],[74.60152,29.49114],[74.59916,29.48515],[74.6004,29.47887],[74.59434,29.468],[74.58923,29.46253],[74.5877,29.45765],[74.5805,29.46134],[74.56823,29.46344],[74.55914,29.46357],[74.55158,29.46569],[74.54338,29.46416],[74.53948,29.45669],[74.53782,29.44868],[74.53826,29.43411],[74.53998,29.42409],[74.54981,29.42223],[74.56086,29.42144],[74.5665,29.41767],[74.57307,29.40979],[74.57871,29.40516],[74.57778,29.39629],[74.58154,29.38543],[74.58842,29.37768],[74.59917,29.36959],[74.60534,29.36109],[74.60864,29.35321],[74.60434,29.32719],[74.6146,29.32643],[74.65042,29.32997],[74.65276,29.33412],[74.65238,29.35319],[74.65888,29.37116],[74.66723,29.36875],[74.68475,29.36689],[74.69742,29.36386],[74.72001,29.36756],[74.72567,29.36499],[74.73132,29.35947],[74.74047,29.35238],[74.76543,29.3545],[74.78475,29.35864],[74.79462,29.36902],[74.80769,29.38312],[74.81849,29.39694],[74.84409,29.39988],[74.85011,29.40247],[74.85851,29.40116],[74.86619,29.39773],[74.87293,29.39468],[74.87554,29.3868],[74.87957,29.38343],[74.89749,29.38496],[74.90432,29.38237],[74.90807,29.37646],[74.91922,29.36937],[74.93098,29.36422],[74.93616,29.36282],[74.94488,29.33607],[74.95507,29.33093],[74.95992,29.32418],[74.9595,29.3166],[74.95479,29.30913],[74.94902,29.30292],[74.95147,29.29326],[74.95642,29.28623],[74.96198,29.28],[74.96884,29.27819],[74.97694,29.28046],[74.98582,29.27913],[74.99182,29.27626],[74.99993,29.26973],[75.01481,29.28176],[75.03283,29.28945],[75.04891,29.28504],[75.05946,29.27026],[75.05964,29.26673],[75.0599,29.26156],[75.06957,29.25113],[75.07425,29.24441],[75.07164,29.23673],[75.08701,29.23021],[75.10146,29.22685],[75.11713,29.22448],[75.12274,29.2406],[75.13368,29.24266],[75.15651,29.24349],[75.16988,29.25138],[75.17312,29.26201],[75.18909,29.26622],[75.19762,29.25621],[75.2044,29.24177],[75.22104,29.23205],[75.23255,29.23244],[75.24437,29.24942],[75.25864,29.25392],[75.28091,29.25178],[75.28593,29.27087],[75.2862,29.27121],[75.2886,29.27424],[75.29894,29.2751],[75.30896,29.27936],[75.31785,29.28629],[75.32859,29.2908],[75.33354,29.28753],[75.33465,29.27564],[75.33241,29.24907],[75.32413,29.23329],[75.34375,29.22611],[75.35452,29.22341],[75.35642,29.22738],[75.35942,29.24463],[75.36725,29.25187],[75.38177,29.25728],[75.38886,29.26116],[75.3973,29.26157],[75.40504,29.25912],[75.40801,29.25217],[75.40899,29.24397],[75.40867,29.23744],[75.40295,29.23142],[75.39656,29.22623],[75.39536,29.21842],[75.40155,29.21524],[75.40569,29.21058],[75.40908,29.19863],[75.40984,29.18603],[75.40356,29.17141],[75.39772,29.16785],[75.38761,29.16867],[75.37809,29.16714],[75.37673,29.14758],[75.37022,29.1398],[75.38291,29.13421],[75.39419,29.13129],[75.4053,29.12554],[75.40041,29.11642],[75.38975,29.10784],[75.39032,29.09968],[75.39218,29.09247],[75.3904,29.08678],[75.39117,29.08069],[75.38961,29.06741],[75.39923,29.06531],[75.43927,29.06172],[75.43875,29.05317],[75.44648,29.04745],[75.44954,29.03848],[75.44158,29.01903],[75.44368,29.0135],[75.46762,29.01707],[75.48242,29.01709],[75.49261,29.01573],[75.51412,29.01199],[75.52009,29.00766],[75.52005,29.00096],[75.52013,29.00014],[75.52422,28.98785],[75.52493,28.97896],[75.52546,28.97219],[75.51784,28.96254],[75.51184,28.95829],[75.51243,28.94862],[75.50643,28.93829],[75.47771,28.93484],[75.47245,28.93445],[75.46933,28.94421],[75.45048,28.96242],[75.45371,28.96819],[75.45746,28.97174],[75.45311,28.97536],[75.45155,28.97497],[75.45058,28.97555],[75.45178,28.98006],[75.45154,28.98319],[75.4487,28.98587],[75.44877,28.98871],[75.44606,28.98971],[75.44249,28.9927],[75.43339,28.99462],[75.4289,28.99633],[75.42878,28.99841],[75.42357,28.99858],[75.42067,28.98482],[75.41627,28.9794],[75.40908,28.97344],[75.40394,28.96705],[75.40156,28.96023],[75.39981,28.9423],[75.37939,28.93741],[75.37925,28.92427],[75.37557,28.91967],[75.37522,28.91666],[75.37306,28.9142],[75.36875,28.91336],[75.3574,28.91048],[75.35128,28.91249],[75.34483,28.91271],[75.34363,28.91786],[75.33815,28.91622],[75.33371,28.91661],[75.33422,28.92674],[75.33581,28.93222],[75.33891,28.93816],[75.35433,28.94402],[75.35891,28.94676],[75.35986,28.95335],[75.35887,28.96441],[75.35642,28.9686],[75.35231,28.96991],[75.3386,28.97845],[75.33041,28.9825],[75.32044,28.98563],[75.30596,28.98394],[75.29925,28.98555],[75.29729,28.98324],[75.29595,28.97862],[75.29494,28.97029],[75.29653,28.96426],[75.30346,28.96584],[75.30532,28.96188],[75.31072,28.95809],[75.31285,28.95408],[75.30317,28.94778],[75.30164,28.9438],[75.2995,28.93119],[75.29773,28.92906],[75.29712,28.92403],[75.29487,28.91778],[75.29167,28.91786],[75.29099,28.92337],[75.28721,28.92449],[75.28148,28.92482],[75.28011,28.92616],[75.27896,28.93046],[75.27564,28.9318],[75.27048,28.92859],[75.26428,28.92701],[75.25933,28.92716],[75.25849,28.92948],[75.25437,28.92864],[75.25439,28.93153],[75.25663,28.93499],[75.24742,28.93163],[75.24193,28.92755],[75.24277,28.9103],[75.24379,28.90485],[75.24605,28.8994],[75.24941,28.89521],[75.25042,28.88895],[75.24853,28.88376],[75.24454,28.8806],[75.23119,28.86673],[75.2218,28.86528],[75.22172,28.85972],[75.21975,28.85741],[75.20237,28.86081],[75.19886,28.86356],[75.19881,28.86848],[75.19504,28.86931],[75.19067,28.86679],[75.18817,28.86188],[75.18458,28.8597],[75.17962,28.85475],[75.17313,28.84518],[75.16997,28.84453],[75.1662,28.85301],[75.15956,28.8553],[75.15658,28.85971],[75.15679,28.86365],[75.1538,28.86569],[75.14809,28.87232],[75.14367,28.87345],[75.13728,28.87307],[75.12073,28.87432],[75.10138,28.87268],[75.09584,28.86975],[75.09107,28.8656],[75.08344,28.86205],[75.07165,28.86032],[75.05685,28.85552],[75.05105,28.85323],[75.04303,28.848],[75.03756,28.84803],[75.02779,28.85032],[75.02898,28.86404],[75.02807,28.86867],[75.02867,28.87411],[75.03037,28.87838],[75.03794,28.88762],[75.04597,28.89337],[75.04291,28.90218],[75.043,28.91619],[75.03995,28.9239],[75.04192,28.92853],[75.04005,28.93623],[75.03738,28.93705],[75.01889,28.93343],[75.01671,28.9313],[75.00469,28.92834],[75.00488,28.92404],[75.0037,28.91949],[75.0014,28.91619],[74.99889,28.91528],[74.96048,28.90923],[74.94773,28.90573],[74.94288,28.89955],[74.93635,28.89394],[74.92753,28.89473],[74.9194,28.89784],[74.91758,28.90291],[74.91675,28.91049],[74.9133,28.91733],[74.89933,28.93539],[74.90062,28.93872],[74.90228,28.94012],[74.89608,28.94123],[74.88751,28.94143],[74.88199,28.9435],[74.87626,28.94335],[74.86234,28.9449],[74.84565,28.93688],[74.83831,28.93508],[74.81995,28.93469],[74.8114,28.93231],[74.80307,28.9283],[74.79168,28.92131],[74.78295,28.9136],[74.77266,28.8988],[74.77001,28.89394],[74.76874,28.88777],[74.77107,28.87843],[74.77604,28.87377],[74.78833,28.86689],[74.79223,28.8618],[74.80071,28.85357],[74.80184,28.84379],[74.80169,28.83412],[74.79186,28.8301],[74.77792,28.82584],[74.7708,28.82452],[74.76383,28.82563],[74.75711,28.82848],[74.75448,28.84769],[74.74873,28.85427],[74.74169,28.85493],[74.70568,28.8441],[74.69445,28.83788],[74.6733,28.8387],[74.64594,28.83833],[74.6375,28.83681],[74.63335,28.81462],[74.61855,28.81301],[74.60146,28.81303],[74.59592,28.81606],[74.59302,28.82072],[74.58476,28.82789],[74.57881,28.8289],[74.55801,28.82464],[74.54365,28.82058],[74.53696,28.82474],[74.53208,28.82649],[74.52465,28.82742],[74.49003,28.82017],[74.4778,28.81935],[74.47042,28.82011],[74.46555,28.82196],[74.45915,28.82711],[74.45614,28.8284],[74.44514,28.82952],[74.43904,28.8318],[74.43754,28.84142],[74.43306,28.84941],[74.4223,28.87856],[74.41947,28.88501],[74.41592,28.88601],[74.41104,28.88375],[74.38124,28.8748],[74.35379,28.84791],[74.34477,28.84213],[74.33704,28.83975],[74.32378,28.8336],[74.3026,28.81921],[74.29099,28.8092],[74.27799,28.80032],[74.26568,28.79739],[74.25664,28.80101],[74.24836,28.8063],[74.23951,28.81015],[74.22203,28.81191],[74.21351,28.80954],[74.19557,28.80893],[74.18894,28.80652],[74.17128,28.79366],[74.16933,28.78268],[74.16637,28.77925],[74.16085,28.77722],[74.15955,28.78149],[74.1561,28.7833],[74.14707,28.78557],[74.14268,28.7884],[74.13595,28.79561],[74.12711,28.79533],[74.11848,28.79365],[74.10421,28.78755],[74.09662,28.78301],[74.09208,28.78577],[74.08772,28.78731],[74.08019,28.78514],[74.06413,28.77751],[74.05925,28.77744],[74.05832,28.78106],[74.06117,28.78542],[74.06542,28.78857],[74.06798,28.79177],[74.0745,28.80394],[74.0757,28.80549],[74.07922,28.80751],[74.09305,28.8255],[74.10364,28.83463],[74.11374,28.83315],[74.12606,28.83904],[74.12329,28.84206],[74.12032,28.84711],[74.12265,28.85118],[74.12447,28.86206],[74.13024,28.87529],[74.12906,28.88117],[74.12577,28.88646],[74.12158,28.89647],[74.11731,28.89719],[74.11289,28.89938],[74.11312,28.905],[74.1148,28.91123],[74.11064,28.92431],[74.11394,28.93748],[74.11214,28.94025],[74.08577,28.9325],[74.07972,28.93256],[74.07393,28.93679],[74.06936,28.93637],[74.06694,28.93816],[74.06658,28.9435],[74.07289,28.96397],[74.07116,28.96928],[74.06737,28.97331],[74.06202,28.9838],[74.05149,28.99783],[74.04711,28.99941],[74.04202,28.99871],[74.04102,29.00025],[74.04106,29.0043],[74.04201,29.0097]]]}}]}