{"type":"FeatureCollection","features":[{"type":"Feature","properties":{"id":"jaipur","name":"Jaipur","stateId":"rajasthan","stateName":"Rajasthan","censuscode":110,"type":"district"},"geometry":{"type":"Polygon","coordinates":[[[76.2311,27.83627],[76.23799,27.84403],[76.24409,27.85016],[76.24951,27.84929],[76.25726,27.84511],[76.26361,27.83953],[76.26794,27.83485],[76.26624,27.82982],[76.26331,27.82609],[76.26504,27.82184],[76.27203,27.81793],[76.28081,27.81107],[76.28685,27.80674],[76.2905,27.80032],[76.27756,27.80271],[76.27593,27.80195],[76.27481,27.79744],[76.27515,27.7941],[76.27595,27.78839],[76.27385,27.78455],[76.27041,27.78064],[76.26802,27.77594],[76.2661,27.77176],[76.26092,27.76605],[76.25619,27.76526],[76.24983,27.76373],[76.24623,27.76128],[76.24569,27.75562],[76.246,27.74985],[76.24681,27.74391],[76.24975,27.73921],[76.25238,27.73411],[76.25534,27.72831],[76.25556,27.72302],[76.25547,27.71805],[76.25588,27.7127],[76.25789,27.70699],[76.25969,27.69999],[76.25899,27.6942],[76.25803,27.69004],[76.25425,27.68872],[76.25082,27.68771],[76.24794,27.68599],[76.24691,27.68242],[76.24897,27.67983],[76.25299,27.67816],[76.25751,27.67578],[76.25714,27.67087],[76.25214,27.67058],[76.24733,27.67099],[76.24437,27.67164],[76.2417,27.66966],[76.24391,27.66586],[76.24756,27.66481],[76.25093,27.66294],[76.2538,27.65935],[76.25436,27.65377],[76.25261,27.64842],[76.25171,27.64157],[76.25241,27.63602],[76.24995,27.63017],[76.24676,27.62666],[76.24175,27.62458],[76.23473,27.62503],[76.22702,27.62662],[76.21916,27.62836],[76.21396,27.62755],[76.21285,27.62465],[76.21053,27.62343],[76.20513,27.62351],[76.20259,27.62204],[76.20159,27.61477],[76.20344,27.60671],[76.20822,27.60216],[76.2089,27.59796],[76.21011,27.58965],[76.21199,27.58224],[76.21401,27.57474],[76.21558,27.56693],[76.21661,27.55989],[76.21733,27.55281],[76.21585,27.54529],[76.21605,27.53693],[76.22048,27.53514],[76.22695,27.53296],[76.23272,27.53117],[76.24026,27.52521],[76.23948,27.51902],[76.23958,27.51406],[76.24351,27.51002],[76.24777,27.5033],[76.24822,27.49697],[76.24714,27.48841],[76.24447,27.48059],[76.24062,27.47328],[76.23624,27.4697],[76.23472,27.46299],[76.23109,27.45942],[76.22752,27.45823],[76.22429,27.45808],[76.2224,27.45569],[76.22531,27.45405],[76.22851,27.45306],[76.2306,27.45077],[76.23052,27.44275],[76.22865,27.43782],[76.23049,27.43369],[76.23251,27.42731],[76.23396,27.41756],[76.23334,27.41243],[76.23003,27.40084],[76.22427,27.39835],[76.21924,27.39344],[76.21619,27.38908],[76.2122,27.38303],[76.20965,27.37925],[76.20628,27.37771],[76.20113,27.37557],[76.20034,27.37071],[76.20382,27.36861],[76.20541,27.36454],[76.2022,27.35989],[76.19793,27.35459],[76.19291,27.3469],[76.18824,27.33968],[76.18443,27.33607],[76.18158,27.32968],[76.17993,27.32394],[76.17785,27.317],[76.17635,27.31254],[76.17258,27.31168],[76.16548,27.31207],[76.15979,27.31327],[76.15755,27.30457],[76.15565,27.29993],[76.15438,27.29421],[76.15418,27.28671],[76.15213,27.28275],[76.14677,27.28078],[76.14372,27.2786],[76.14267,27.27392],[76.14159,27.26773],[76.14006,27.26216],[76.1356,27.25831],[76.13062,27.25438],[76.12738,27.25117],[76.12584,27.24464],[76.1247,27.2381],[76.12551,27.23322],[76.12947,27.2301],[76.13945,27.22687],[76.14159,27.22564],[76.13802,27.21885],[76.13587,27.21231],[76.13292,27.20797],[76.13108,27.20419],[76.12918,27.20015],[76.12823,27.19662],[76.13125,27.1967],[76.13489,27.19809],[76.13899,27.20031],[76.14187,27.20519],[76.14437,27.21091],[76.14666,27.21603],[76.14898,27.22096],[76.15278,27.22238],[76.15789,27.22188],[76.16108,27.21896],[76.16309,27.21553],[76.16422,27.2084],[76.16332,27.20256],[76.15957,27.19947],[76.15787,27.19316],[76.15741,27.1882],[76.15885,27.18464],[76.1627,27.1833],[76.16963,27.18299],[76.17574,27.18334],[76.17974,27.18403],[76.18511,27.18456],[76.18688,27.17685],[76.18817,27.17059],[76.18993,27.16121],[76.19045,27.15223],[76.19017,27.14357],[76.18694,27.13767],[76.18479,27.13205],[76.18751,27.12822],[76.19453,27.12127],[76.20338,27.11889],[76.20769,27.12066],[76.21304,27.12533],[76.21791,27.13184],[76.22125,27.13758],[76.22493,27.14113],[76.23225,27.14427],[76.23993,27.14759],[76.2447,27.15059],[76.2483,27.15648],[76.25138,27.16274],[76.25489,27.17126],[76.25798,27.17648],[76.26304,27.18039],[76.26912,27.18381],[76.27317,27.18431],[76.27751,27.18338],[76.28086,27.17984],[76.28243,27.17443],[76.28448,27.16644],[76.28673,27.16014],[76.29044,27.1537],[76.29185,27.14592],[76.29222,27.13768],[76.2931,27.12931],[76.2922,27.11932],[76.291,27.11119],[76.28908,27.1023],[76.28836,27.09259],[76.28842,27.08714],[76.28241,27.08136],[76.27219,27.038],[76.25478,27.00871],[76.25123,26.99005],[76.25137,26.95769],[76.24141,26.94411],[76.23305,26.92846],[76.2335,26.90971],[76.24934,26.89795],[76.25396,26.88776],[76.25048,26.86662],[76.24926,26.84222],[76.2386,26.83157],[76.22337,26.82354],[76.21741,26.82039],[76.20807,26.8133],[76.19227,26.80066],[76.18136,26.77841],[76.17367,26.75486],[76.1756,26.73173],[76.17532,26.71369],[76.17152,26.69409],[76.17071,26.67851],[76.17364,26.66425],[76.18297,26.65041],[76.18351,26.63598],[76.17356,26.61954],[76.16251,26.58911],[76.15345,26.56744],[76.15418,26.55718],[76.15469,26.55018],[76.15852,26.53849],[76.16124,26.51621],[76.1606,26.51466],[76.15588,26.51999],[76.15145,26.5254],[76.14697,26.52827],[76.14276,26.52887],[76.13757,26.52835],[76.1327,26.5281],[76.1285,26.52869],[76.12434,26.53183],[76.12049,26.53413],[76.11629,26.53529],[76.11303,26.5353],[76.10942,26.53335],[76.10543,26.52997],[76.10275,26.52629],[76.09876,26.52347],[76.09418,26.52405],[76.08892,26.52404],[76.0846,26.52318],[76.08189,26.52145],[76.07948,26.51887],[76.07561,26.51314],[76.07414,26.50913],[76.07238,26.50739],[76.06759,26.50813],[76.06131,26.50876],[76.05595,26.50909],[76.05129,26.51055],[76.04648,26.51081],[76.04305,26.51055],[76.04017,26.51209],[76.03822,26.5149],[76.03509,26.51675],[76.03303,26.51569],[76.03093,26.5122],[76.02966,26.50908],[76.02687,26.50642],[76.02263,26.50454],[76.01902,26.50422],[76.01617,26.50339],[76.01427,26.50086],[76.01148,26.49542],[76.00882,26.49189],[76.00518,26.4926],[75.99988,26.49367],[75.99082,26.49714],[75.98656,26.50184],[75.98601,26.49708],[75.97417,26.50217],[75.96906,26.4947],[75.96312,26.48299],[75.95342,26.48932],[75.93701,26.49358],[75.93416,26.50519],[75.91335,26.51038],[75.90358,26.5092],[75.88837,26.51218],[75.8848,26.51923],[75.85545,26.51842],[75.84748,26.51504],[75.84319,26.51218],[75.83603,26.51039],[75.82624,26.51578],[75.81707,26.51797],[75.81027,26.52432],[75.80339,26.5266],[75.79998,26.53062],[75.8068,26.54002],[75.80361,26.54689],[75.79837,26.54978],[75.79668,26.54932],[75.7898,26.54624],[75.78164,26.54388],[75.77407,26.54326],[75.77283,26.53563],[75.77401,26.53228],[75.77822,26.53036],[75.78418,26.52573],[75.76897,26.51775],[75.76217,26.51732],[75.76095,26.51208],[75.7672,26.49884],[75.77191,26.49188],[75.77345,26.48482],[75.77058,26.48025],[75.77277,26.47226],[75.77086,26.46695],[75.76936,26.46636],[75.76782,26.46575],[75.76317,26.4665],[75.75813,26.46911],[75.74931,26.46882],[75.74828,26.45272],[75.74434,26.44691],[75.7386,26.44916],[75.73423,26.45933],[75.72971,26.46543],[75.71236,26.44481],[75.69794,26.44567],[75.69852,26.4505],[75.68955,26.45142],[75.68343,26.45361],[75.68406,26.45891],[75.67706,26.46033],[75.66467,26.4608],[75.65508,26.46601],[75.65276,26.46372],[75.6544,26.45904],[75.65453,26.45346],[75.64968,26.44509],[75.64355,26.44239],[75.6249,26.44132],[75.6173,26.43936],[75.61104,26.4416],[75.59999,26.44302],[75.59596,26.4447],[75.58932,26.44752],[75.58363,26.44586],[75.57397,26.44614],[75.57494,26.45509],[75.57658,26.46134],[75.57598,26.47289],[75.56758,26.47893],[75.55936,26.48102],[75.55288,26.48621],[75.5496,26.48495],[75.54866,26.4786],[75.53328,26.46955],[75.5272,26.46313],[75.52134,26.46473],[75.51564,26.46797],[75.50846,26.47332],[75.50609,26.47904],[75.50289,26.48097],[75.49795,26.48002],[75.48625,26.48079],[75.46343,26.49119],[75.45273,26.49313],[75.4485,26.48761],[75.44372,26.48381],[75.43714,26.48145],[75.42358,26.48357],[75.41678,26.48875],[75.41065,26.49528],[75.41007,26.49126],[75.41313,26.48092],[75.39494,26.48273],[75.39026,26.4819],[75.38685,26.48417],[75.38232,26.48997],[75.37247,26.4861],[75.35773,26.49564],[75.35218,26.50148],[75.34926,26.50904],[75.34756,26.51744],[75.34429,26.51924],[75.3374,26.5214],[75.33939,26.52451],[75.34096,26.52913],[75.34012,26.53527],[75.33604,26.54903],[75.33404,26.55262],[75.33101,26.55807],[75.3263,26.55853],[75.32087,26.56064],[75.31355,26.56053],[75.29591,26.55856],[75.29205,26.56164],[75.2868,26.56393],[75.28174,26.55869],[75.27344,26.55257],[75.26881,26.54779],[75.25537,26.54147],[75.25459,26.53008],[75.25188,26.52899],[75.24369,26.5285],[75.23972,26.52634],[75.23719,26.52108],[75.23317,26.52182],[75.23,26.52602],[75.22446,26.51866],[75.21794,26.51698],[75.21273,26.51707],[75.20564,26.51556],[75.19981,26.50565],[75.19633,26.50129],[75.19972,26.48781],[75.20079,26.48028],[75.19515,26.48303],[75.18986,26.48881],[75.18764,26.484],[75.17789,26.47438],[75.17424,26.46885],[75.17345,26.46262],[75.17002,26.46198],[75.16267,26.45853],[75.16214,26.47194],[75.1589,26.472],[75.15966,26.46835],[75.15656,26.46697],[75.15198,26.46749],[75.14879,26.46911],[75.14514,26.47383],[75.14702,26.47977],[75.15194,26.48571],[75.15282,26.4902],[75.15291,26.50008],[75.14084,26.50395],[75.11593,26.52348],[75.12225,26.53328],[75.12385,26.54016],[75.12355,26.54678],[75.11477,26.55175],[75.10433,26.55589],[75.098,26.55497],[75.08177,26.54849],[75.07734,26.54296],[75.07129,26.54396],[75.06219,26.55584],[75.06604,26.5652],[75.06768,26.57331],[75.07185,26.58221],[75.08087,26.58649],[75.08018,26.58985],[75.08243,26.59587],[75.08175,26.6098],[75.06817,26.61219],[75.0647,26.62153],[75.0656,26.62846],[75.07018,26.6326],[75.06771,26.65052],[75.06076,26.6547],[75.05182,26.65332],[75.04175,26.65745],[75.04232,26.66143],[75.03432,26.66387],[75.03128,26.65994],[75.02601,26.66257],[75.02145,26.66517],[75.0208,26.67273],[75.01278,26.68387],[75.01343,26.68696],[75.00004,26.68642],[74.97425,26.67295],[74.97155,26.67739],[74.96553,26.68338],[74.96393,26.69293],[74.96364,26.70573],[74.96781,26.7101],[74.96466,26.72213],[74.94437,26.72103],[74.9455,26.73228],[74.96744,26.7324],[75.00004,26.73056],[75.00065,26.73069],[75.00122,26.7309],[75.00179,26.73115],[75.00234,26.73145],[75.00287,26.73179],[75.00341,26.73216],[75.00391,26.73255],[75.0044,26.73298],[75.00486,26.73341],[75.00531,26.73386],[75.00574,26.73433],[75.00614,26.73481],[75.00651,26.7353],[75.00686,26.73579],[75.00719,26.7363],[75.00748,26.73682],[75.00775,26.73734],[75.00799,26.73788],[75.00821,26.73842],[75.00839,26.73897],[75.00853,26.73952],[75.00866,26.74008],[75.00874,26.74064],[75.00879,26.74121],[75.00882,26.74177],[75.00881,26.74233],[75.00877,26.74289],[75.0087,26.74344],[75.00859,26.744],[75.00845,26.74454],[75.00829,26.74506],[75.0081,26.74558],[75.00786,26.74609],[75.00761,26.74657],[75.00733,26.74704],[75.00702,26.74748],[75.00667,26.74791],[75.00631,26.74832],[75.00591,26.74869],[75.00551,26.74902],[75.00507,26.74935],[75.00461,26.74963],[75.00413,26.74989],[75.00363,26.7501],[75.00311,26.75031],[75.00258,26.75049],[75.00203,26.75066],[75.00147,26.75082],[75.0009,26.75096],[75.00004,26.75142],[74.98193,26.76191],[74.97278,26.75879],[74.96054,26.7534],[74.94688,26.74335],[74.94259,26.74553],[74.94065,26.74969],[74.93978,26.76324],[74.94176,26.77982],[74.93641,26.77852],[74.93452,26.7931],[74.9278,26.7904],[74.92687,26.81003],[74.92267,26.82704],[74.91673,26.83685],[74.93784,26.84179],[74.94603,26.84525],[74.95653,26.84676],[74.95785,26.84874],[74.95574,26.85724],[74.95707,26.86756],[74.96474,26.87258],[74.96751,26.87666],[74.97071,26.88363],[74.97682,26.89026],[74.97747,26.88957],[74.99291,26.88832],[74.99385,26.89059],[74.99825,26.88998],[75.00004,26.89323],[75.01435,26.89494],[75.0151,26.91347],[75.01323,26.93622],[75.01363,26.94524],[75.04171,26.94081],[75.103,26.93635],[75.12048,26.9317],[75.14319,26.93086],[75.1656,26.93285],[75.16476,26.9492],[75.16583,26.96158],[75.15976,26.96977],[75.17779,26.97113],[75.18981,26.97337],[75.20396,26.97356],[75.20151,26.99505],[75.20288,27.0022],[75.20441,27.00699],[75.20776,27.00972],[75.21355,27.00905],[75.21752,27.01162],[75.22228,27.01373],[75.22438,27.01621],[75.23548,27.01743],[75.2431,27.01639],[75.24862,27.02488],[75.2534,27.02967],[75.25926,27.03413],[75.25744,27.03911],[75.24602,27.04099],[75.24144,27.05036],[75.23497,27.0516],[75.22967,27.05495],[75.22309,27.05532],[75.22314,27.07247],[75.22113,27.08276],[75.23619,27.08507],[75.25053,27.08844],[75.26582,27.08965],[75.27735,27.09032],[75.29047,27.0913],[75.31061,27.08949],[75.32411,27.09076],[75.33173,27.09186],[75.33525,27.0946],[75.33768,27.09464],[75.34007,27.09348],[75.34487,27.08978],[75.35076,27.08586],[75.3586,27.08655],[75.36841,27.08757],[75.36857,27.09485],[75.36901,27.10081],[75.36805,27.10685],[75.36638,27.11011],[75.36328,27.1116],[75.35987,27.11008],[75.35465,27.10922],[75.34961,27.10905],[75.34789,27.11225],[75.34746,27.11715],[75.341,27.1177],[75.34112,27.12064],[75.34145,27.1288],[75.34431,27.13527],[75.34447,27.1396],[75.3414,27.13989],[75.33732,27.13714],[75.3332,27.13861],[75.33297,27.14288],[75.33032,27.1475],[75.32601,27.14596],[75.3184,27.14684],[75.31623,27.15914],[75.31557,27.16924],[75.31615,27.18114],[75.31716,27.19375],[75.32081,27.20232],[75.32254,27.2082],[75.32725,27.20882],[75.3288,27.21387],[75.34018,27.21337],[75.34709,27.21254],[75.35091,27.21591],[75.35421,27.21997],[75.358,27.22542],[75.36172,27.22712],[75.36949,27.22821],[75.37575,27.22794],[75.3878,27.22878],[75.39191,27.23042],[75.39136,27.23895],[75.38946,27.25393],[75.39059,27.267],[75.39311,27.27486],[75.39507,27.28252],[75.38855,27.28244],[75.38111,27.28366],[75.38068,27.28966],[75.39103,27.28936],[75.39919,27.29028],[75.40892,27.29205],[75.41849,27.29005],[75.42984,27.28764],[75.43245,27.29416],[75.43225,27.30104],[75.43966,27.29914],[75.45323,27.29718],[75.45735,27.28889],[75.46692,27.28847],[75.47667,27.28918],[75.4786,27.29464],[75.48612,27.29497],[75.48731,27.29927],[75.49137,27.30368],[75.50709,27.3145],[75.50916,27.32953],[75.52205,27.33505],[75.53087,27.34389],[75.57279,27.34184],[75.57645,27.33666],[75.57733,27.32779],[75.57317,27.31162],[75.5783,27.3097],[75.5799,27.30632],[75.59025,27.30757],[75.59175,27.30911],[75.59604,27.30821],[75.59916,27.3085],[75.60318,27.31094],[75.61386,27.31473],[75.62036,27.32431],[75.62865,27.34039],[75.6491,27.33762],[75.66028,27.338],[75.66526,27.34449],[75.66696,27.35294],[75.6654,27.36583],[75.67903,27.37087],[75.69229,27.37204],[75.70632,27.3715],[75.72499,27.36918],[75.72244,27.37559],[75.72093,27.38276],[75.72268,27.38441],[75.73039,27.38639],[75.73395,27.39585],[75.73967,27.40418],[75.75517,27.40289],[75.76911,27.40311],[75.77424,27.40226],[75.77666,27.39591],[75.77784,27.38458],[75.78709,27.38326],[75.79396,27.3808],[75.80049,27.38794],[75.80538,27.39729],[75.81119,27.40497],[75.81616,27.39814],[75.8305,27.38959],[75.83798,27.39629],[75.84592,27.40053],[75.85562,27.398],[75.85957,27.39169],[75.86658,27.38813],[75.87789,27.38923],[75.87836,27.38967],[75.88368,27.39853],[75.87903,27.40741],[75.87069,27.41646],[75.87156,27.42364],[75.88499,27.44698],[75.89553,27.45656],[75.90657,27.45508],[75.91966,27.45496],[75.91998,27.45897],[75.92452,27.46127],[75.9269,27.46481],[75.93654,27.4633],[75.93986,27.46826],[75.94493,27.47186],[75.9518,27.46976],[75.95426,27.4761],[75.96077,27.47618],[75.96547,27.47199],[75.96945,27.47741],[75.97507,27.47743],[75.97934,27.47552],[75.98563,27.47788],[75.98135,27.48554],[75.98566,27.49069],[75.97854,27.50135],[75.96954,27.50312],[75.93924,27.49687],[75.93807,27.4964],[75.93895,27.50237],[75.94352,27.51721],[75.94913,27.53007],[75.95206,27.5468],[75.9511,27.5553],[75.95286,27.56489],[75.94311,27.56808],[75.94617,27.57535],[75.9524,27.58395],[75.95999,27.59182],[75.96706,27.59429],[75.96481,27.60036],[75.95996,27.59885],[75.95725,27.59581],[75.9526,27.59788],[75.94827,27.5917],[75.94203,27.59278],[75.94659,27.60207],[75.946,27.61172],[75.94207,27.62169],[75.94986,27.62404],[75.95942,27.62235],[75.96439,27.62432],[75.95982,27.6307],[75.9563,27.63835],[75.95863,27.64211],[75.96947,27.64418],[75.9795,27.65561],[75.99129,27.70318],[76.00094,27.71477],[76.00259,27.71579],[76.01409,27.72198],[76.02829,27.72679],[76.03481,27.73153],[76.0359,27.74046],[76.04179,27.75152],[76.05678,27.77196],[76.067,27.77093],[76.07095,27.77473],[76.07295,27.7833],[76.07609,27.79162],[76.08115,27.8019],[76.08957,27.8069],[76.09328,27.81275],[76.09676,27.82323],[76.09746,27.8303],[76.09367,27.83576],[76.08945,27.84099],[76.08777,27.84657],[76.09245,27.85188],[76.09336,27.86071],[76.09579,27.86395],[76.1035,27.86028],[76.11108,27.85785],[76.12032,27.85404],[76.12987,27.84985],[76.1362,27.84236],[76.13593,27.83328],[76.13547,27.82865],[76.15039,27.82325],[76.16091,27.8167],[76.17056,27.81024],[76.17505,27.80452],[76.18065,27.80284],[76.18815,27.80777],[76.19398,27.81442],[76.19818,27.82212],[76.20191,27.82658],[76.20833,27.82426],[76.21552,27.82383],[76.22162,27.82793],[76.2311,27.83627]]]}}]}