{"type":"FeatureCollection","features":[{"type":"Feature","properties":{"id":"jaisalmer","name":"Jaisalmer","stateId":"rajasthan","stateName":"Rajasthan","censuscode":114,"type":"district"},"geometry":{"type":"Polygon","coordinates":[[[71.89757,27.96263],[71.90131,27.9564],[71.90821,27.94969],[71.91161,27.94474],[71.9213,27.92467],[71.92435,27.92146],[71.93121,27.92001],[71.94698,27.91312],[71.95212,27.91194],[71.95587,27.91335],[71.96262,27.92091],[71.96667,27.92396],[71.97212,27.92603],[71.98088,27.9272],[71.99343,27.9431],[72.00029,27.94571],[72.00513,27.94611],[72.03227,27.94929],[72.03771,27.94713],[72.05576,27.93483],[72.07822,27.92383],[72.08598,27.91682],[72.08628,27.91007],[72.09138,27.90277],[72.09924,27.89739],[72.12318,27.88615],[72.14556,27.87266],[72.15489,27.8598],[72.15018,27.85158],[72.14334,27.84431],[72.15463,27.81104],[72.15556,27.77968],[72.13181,27.75779],[72.11808,27.74835],[72.10491,27.74915],[72.101,27.74196],[72.09366,27.73609],[72.10142,27.73241],[72.09507,27.72176],[72.09752,27.7152],[72.10889,27.70512],[72.11732,27.71036],[72.14763,27.71111],[72.18046,27.69935],[72.19283,27.69336],[72.22038,27.67444],[72.22645,27.65713],[72.25169,27.67291],[72.25992,27.68316],[72.27646,27.69826],[72.29986,27.70762],[72.31585,27.69925],[72.32985,27.69294],[72.33567,27.69229],[72.33958,27.69298],[72.34313,27.69182],[72.34132,27.68226],[72.32943,27.6558],[72.32614,27.64692],[72.32312,27.63396],[72.30609,27.60537],[72.30349,27.59961],[72.28215,27.5678],[72.27458,27.56315],[72.26317,27.55775],[72.28406,27.54873],[72.2719,27.54597],[72.25153,27.53331],[72.24762,27.51555],[72.24545,27.49762],[72.24902,27.48722],[72.23362,27.48869],[72.22336,27.49165],[72.21096,27.48907],[72.20799,27.47974],[72.20339,27.47945],[72.20289,27.47518],[72.17547,27.46178],[72.1577,27.47582],[72.15864,27.47887],[72.15679,27.49208],[72.15965,27.49387],[72.15654,27.4993],[72.1529,27.49757],[72.14571,27.51488],[72.143,27.51564],[72.13763,27.52199],[72.14115,27.52452],[72.14539,27.53242],[72.13848,27.53963],[72.1256,27.54639],[72.11511,27.54708],[72.11234,27.54899],[72.1064,27.55637],[72.10566,27.56006],[72.11366,27.56824],[72.11863,27.57176],[72.1242,27.57152],[72.12898,27.57595],[72.12909,27.5804],[72.12265,27.58386],[72.1173,27.5811],[72.1155,27.58225],[72.11797,27.5879],[72.11184,27.59084],[72.10362,27.59136],[72.09517,27.59032],[72.08574,27.59273],[72.04994,27.61446],[72.00935,27.57703],[72.00029,27.56918],[71.98295,27.55859],[71.96654,27.54973],[71.95975,27.55015],[71.94996,27.5529],[71.93695,27.55788],[71.93083,27.55914],[71.91541,27.5435],[71.90685,27.5333],[71.90561,27.52935],[71.90285,27.5032],[71.89766,27.49488],[71.89743,27.49259],[71.9006,27.47901],[71.89949,27.4738],[71.88234,27.48453],[71.87617,27.48391],[71.86917,27.4817],[71.85229,27.47865],[71.84586,27.47931],[71.83821,27.4785],[71.82452,27.46037],[71.82206,27.45312],[71.8174,27.44819],[71.81452,27.44166],[71.81519,27.43109],[71.82548,27.40992],[71.82738,27.39996],[71.82521,27.37737],[71.82008,27.35218],[71.81994,27.34428],[71.8258,27.33281],[71.8289,27.32898],[71.82953,27.32061],[71.82718,27.31786],[71.81925,27.31855],[71.80634,27.30331],[71.80673,27.30031],[71.80493,27.29673],[71.79865,27.29081],[71.79351,27.28797],[71.79108,27.28147],[71.7916,27.27362],[71.78866,27.25584],[71.79047,27.24529],[71.79769,27.25097],[71.82032,27.25376],[71.82882,27.2486],[71.84508,27.23632],[71.8568,27.23091],[71.86671,27.22796],[71.88434,27.22018],[71.89474,27.21676],[71.90458,27.2152],[71.90758,27.21557],[71.91068,27.21801],[71.91558,27.21124],[71.91623,27.18313],[71.91875,27.17776],[71.92699,27.17401],[71.93429,27.17564],[71.94511,27.18119],[71.95537,27.18244],[71.95948,27.17216],[71.95881,27.16191],[71.95714,27.15474],[71.96424,27.14264],[71.96773,27.13953],[71.97469,27.1387],[71.98456,27.1361],[72,27.12974],[72.07147,27.11741],[72.07677,27.1166],[72.08735,27.10479],[72.08355,27.09511],[72.07881,27.07691],[72.06608,27.06101],[72.06093,27.05847],[72.06261,27.05755],[72.06483,27.05755],[72.05946,27.05008],[72.07789,27.0455],[72.08028,27.044],[72.07759,27.04029],[72.07208,27.03648],[72.06581,27.03492],[72.05603,27.03573],[72.04822,27.03131],[72.05192,27.02859],[72.05228,27.0264],[72.04424,27.02089],[72.04207,27.0112],[72.0441,27.00012],[72.04283,26.99741],[72.04989,26.9687],[72.03991,26.93576],[72.05914,26.92464],[72.06485,26.91941],[72.07537,26.91345],[72.10361,26.8869],[72.09929,26.88044],[72.1005,26.87163],[72.1025,26.86683],[72.10189,26.86167],[72.08758,26.84923],[72.08887,26.84414],[72.09923,26.83006],[72.08884,26.8137],[72.084,26.80876],[72.08306,26.80782],[72.06113,26.80349],[72.05417,26.8031],[72.04544,26.78907],[72.06078,26.78615],[72.05914,26.76876],[72.06219,26.76014],[72.08722,26.73021],[72.08323,26.72468],[72.08906,26.71932],[72.0774,26.71711],[72.07698,26.71292],[72.06878,26.71873],[72.05514,26.706],[72.05568,26.70056],[72.04573,26.68727],[72.04236,26.6876],[72.03968,26.67534],[72.04929,26.66793],[72.06623,26.64613],[72.06175,26.63816],[72.08598,26.62336],[72.09852,26.60036],[72.07633,26.56642],[72.07339,26.55677],[72.06412,26.55132],[72.0454,26.52615],[72.03894,26.52077],[72.04119,26.51626],[72.02709,26.49866],[72.05585,26.47654],[72.05851,26.46907],[72.07839,26.45117],[72.082,26.44296],[72.0785,26.41667],[72.07555,26.40975],[72.07325,26.40075],[72.07291,26.37785],[72.07516,26.36203],[72.07539,26.35432],[72.07268,26.34943],[72.06727,26.34923],[72.05931,26.35277],[72.03993,26.3498],[72.02444,26.34639],[72.00004,26.33602],[71.98327,26.32244],[71.97743,26.32015],[71.97183,26.31903],[71.96048,26.32278],[71.95808,26.31845],[71.95458,26.31659],[71.95023,26.31541],[71.94606,26.3164],[71.93883,26.31143],[71.93295,26.30583],[71.91946,26.2979],[71.91706,26.29776],[71.90874,26.29967],[71.90183,26.29887],[71.89476,26.30017],[71.89222,26.30535],[71.89379,26.30789],[71.88906,26.31898],[71.88458,26.34085],[71.88034,26.34596],[71.86176,26.36098],[71.8424,26.37384],[71.83324,26.37101],[71.82572,26.36558],[71.82202,26.36064],[71.8188,26.35211],[71.81689,26.34097],[71.81421,26.3349],[71.81133,26.33233],[71.80284,26.33461],[71.79413,26.34294],[71.78776,26.346],[71.7572,26.3474],[71.75545,26.35756],[71.75334,26.36122],[71.73751,26.37563],[71.71612,26.38471],[71.70558,26.39051],[71.69751,26.38941],[71.68759,26.38665],[71.68459,26.38168],[71.68079,26.38423],[71.6757,26.38476],[71.64738,26.40297],[71.6384,26.40421],[71.63064,26.41152],[71.62843,26.42003],[71.63464,26.42904],[71.63297,26.43147],[71.62749,26.43334],[71.6263,26.43487],[71.62613,26.44244],[71.62236,26.45735],[71.61423,26.48228],[71.61059,26.48852],[71.60704,26.48409],[71.60326,26.49006],[71.59081,26.50192],[71.57768,26.50815],[71.57113,26.50583],[71.5562,26.49682],[71.54696,26.49229],[71.53811,26.48931],[71.53016,26.48826],[71.51961,26.48834],[71.51294,26.47453],[71.50964,26.46974],[71.50316,26.4646],[71.4905,26.45689],[71.47229,26.47149],[71.46445,26.4979],[71.45152,26.51212],[71.44761,26.51387],[71.44002,26.49734],[71.436,26.49649],[71.43365,26.49761],[71.41693,26.48649],[71.40536,26.47297],[71.38586,26.46485],[71.37918,26.46057],[71.37027,26.45308],[71.3477,26.44078],[71.33696,26.43312],[71.33178,26.42417],[71.32724,26.4197],[71.3252,26.42554],[71.32199,26.42871],[71.31086,26.43605],[71.30808,26.43915],[71.30711,26.44789],[71.30577,26.4521],[71.29958,26.45679],[71.29688,26.46168],[71.29296,26.46498],[71.28873,26.46655],[71.28392,26.46632],[71.27953,26.46391],[71.27568,26.46277],[71.25577,26.46106],[71.24634,26.45767],[71.22156,26.44652],[71.21502,26.44113],[71.21427,26.43654],[71.21133,26.43428],[71.20588,26.43237],[71.1999,26.42194],[71.18879,26.41417],[71.18526,26.40972],[71.18394,26.4037],[71.18581,26.39828],[71.18966,26.39348],[71.19004,26.3889],[71.18381,26.38004],[71.1746,26.36136],[71.16048,26.33832],[71.14213,26.31212],[71.13891,26.30882],[71.1346,26.30683],[71.13089,26.31184],[71.12762,26.30583],[71.1256,26.30566],[71.11871,26.31033],[71.11231,26.31278],[71.08897,26.31801],[71.08033,26.32463],[71.07726,26.32525],[71.06165,26.315],[71.07144,26.30229],[71.06955,26.29606],[71.06346,26.29037],[71.05799,26.28776],[71.04771,26.28439],[71.0279,26.28472],[71.02003,26.28346],[71.00469,26.27679],[71.00005,26.27212],[70.99759,26.26835],[70.99751,26.26606],[70.98963,26.26199],[70.96622,26.25255],[70.95386,26.2491],[70.95072,26.24328],[70.94898,26.2376],[70.94688,26.23605],[70.94069,26.22862],[70.94319,26.22459],[70.95001,26.22287],[70.96297,26.22213],[70.97228,26.22359],[70.97614,26.22301],[70.97833,26.22122],[70.98739,26.22179],[70.98993,26.22382],[70.99371,26.22145],[71.00004,26.2257],[71.01005,26.22463],[71.01349,26.21724],[71.01183,26.20863],[71.01247,26.20232],[71.02633,26.18925],[71.02934,26.18547],[71.03225,26.17915],[71.03581,26.18151],[71.03963,26.17776],[71.04118,26.17523],[71.03993,26.17077],[71.04069,26.16607],[71.04409,26.15465],[71.0513,26.14237],[71.038,26.12778],[71.02763,26.11864],[71.02542,26.1153],[71.01926,26.1189],[71.00004,26.1153],[70.98805,26.10925],[70.96358,26.09815],[70.96179,26.0962],[70.95813,26.08927],[70.95276,26.08347],[70.94724,26.08183],[70.94288,26.08232],[70.94419,26.07932],[70.96781,26.04966],[70.96942,26.04292],[70.96963,26.0376],[70.96776,26.03132],[70.96482,26.02602],[70.96112,26.02197],[70.95764,26.02177],[70.94878,26.03047],[70.94568,26.03082],[70.94374,26.03472],[70.94362,26.04402],[70.94494,26.05256],[70.9432,26.05639],[70.93906,26.06075],[70.92165,26.07558],[70.92155,26.07989],[70.91523,26.08871],[70.91341,26.08998],[70.89691,26.10897],[70.88937,26.11512],[70.87713,26.12817],[70.86622,26.13204],[70.85673,26.13263],[70.83223,26.13783],[70.82206,26.13933],[70.80026,26.14104],[70.76481,26.14626],[70.75173,26.14928],[70.74266,26.14465],[70.73869,26.14803],[70.73178,26.15616],[70.72472,26.16136],[70.71646,26.16542],[70.71325,26.1678],[70.71062,26.17228],[70.71172,26.17855],[70.71442,26.18602],[70.71787,26.19267],[70.7193,26.1986],[70.71859,26.20714],[70.71621,26.21218],[70.69855,26.21177],[70.68711,26.21366],[70.68255,26.21329],[70.66655,26.20323],[70.66091,26.20003],[70.65444,26.19865],[70.64843,26.19864],[70.64072,26.20009],[70.62876,26.19995],[70.59878,26.20386],[70.58265,26.20397],[70.56683,26.20258],[70.55897,26.20083],[70.55188,26.198],[70.53836,26.18931],[70.52416,26.18196],[70.50251,26.17666],[70.49492,26.1766],[70.48847,26.17744],[70.48202,26.17927],[70.46887,26.17974],[70.46425,26.18161],[70.45641,26.18188],[70.43876,26.18128],[70.43198,26.17792],[70.43117,26.18121],[70.43354,26.18997],[70.42715,26.18949],[70.42786,26.19692],[70.42502,26.19792],[70.41515,26.19883],[70.41028,26.20054],[70.40134,26.19181],[70.39233,26.18002],[70.38687,26.17601],[70.37101,26.15306],[70.36657,26.14824],[70.36018,26.14556],[70.35208,26.14438],[70.34803,26.14584],[70.33825,26.15234],[70.33047,26.15394],[70.31282,26.1502],[70.30402,26.14972],[70.29922,26.15165],[70.29461,26.15702],[70.29158,26.15883],[70.28342,26.15673],[70.27829,26.15646],[70.27457,26.15925],[70.27255,26.16208],[70.27192,26.16647],[70.26528,26.16551],[70.25414,26.16123],[70.24806,26.15542],[70.24388,26.15036],[70.23058,26.1297],[70.22432,26.1228],[70.21763,26.135],[70.21359,26.14067],[70.20563,26.14705],[70.20013,26.15006],[70.19196,26.15314],[70.17843,26.15619],[70.15756,26.15729],[70.14415,26.15658],[70.13605,26.15335],[70.13704,26.15447],[70.14746,26.17036],[70.16295,26.2063],[70.16444,26.20977],[70.16492,26.21085],[70.16641,26.21433],[70.17211,26.23114],[70.17401,26.242],[70.17417,26.25668],[70.17199,26.26388],[70.16877,26.27714],[70.16826,26.28232],[70.16578,26.28722],[70.16574,26.29402],[70.1657,26.30089],[70.17449,26.33],[70.17628,26.33905],[70.18095,26.35481],[70.18354,26.36142],[70.18419,26.37544],[70.18322,26.386],[70.18177,26.39233],[70.17792,26.42405],[70.1777,26.42588],[70.17849,26.44035],[70.18253,26.47764],[70.18332,26.48426],[70.18214,26.49622],[70.17876,26.50608],[70.17637,26.53809],[70.1733,26.5511],[70.16402,26.56042],[70.15416,26.56676],[70.153,26.56746],[70.15256,26.56773],[70.13911,26.57302],[70.12473,26.58286],[70.11892,26.58684],[70.11786,26.5884],[70.11174,26.59006],[70.10696,26.59269],[70.09861,26.595],[70.06433,26.60018],[70.04987,26.60097],[70.04847,26.60096],[70.04175,26.59904],[70.01854,26.59485],[70.00314,26.59213],[69.97399,26.58792],[69.91296,26.58282],[69.89488,26.58131],[69.88432,26.58117],[69.88287,26.58109],[69.87937,26.58056],[69.8748,26.58227],[69.85927,26.58587],[69.85115,26.587],[69.84792,26.58744],[69.8386,26.58858],[69.80444,26.59764],[69.80078,26.599],[69.79906,26.60009],[69.77608,26.61404],[69.76579,26.62252],[69.73699,26.64632],[69.7367,26.64722],[69.72238,26.65457],[69.7109,26.662],[69.69879,26.66591],[69.67763,26.67452],[69.67028,26.67683],[69.63839,26.69234],[69.63409,26.69336],[69.60359,26.70487],[69.59748,26.70762],[69.59149,26.7105],[69.57084,26.72042],[69.55298,26.72806],[69.53779,26.73355],[69.51469,26.74196],[69.51384,26.74311],[69.51092,26.74576],[69.50688,26.75078],[69.50556,26.75301],[69.50046,26.76777],[69.49007,26.78975],[69.48642,26.79942],[69.48437,26.808],[69.48583,26.81862],[69.48781,26.83154],[69.49889,26.87198],[69.50154,26.89449],[69.50857,26.95382],[69.51019,26.97021],[69.51417,27.00956],[69.51519,27.01387],[69.51543,27.01443],[69.52833,27.04265],[69.53854,27.065],[69.55153,27.10265],[69.55176,27.10332],[69.553,27.10547],[69.56302,27.12316],[69.56712,27.13404],[69.57801,27.15698],[69.57855,27.15795],[69.58413,27.17329],[69.58969,27.18294],[69.60309,27.1951],[69.60808,27.19726],[69.61046,27.19808],[69.61108,27.19825],[69.61969,27.20592],[69.63584,27.21859],[69.6425,27.22325],[69.65382,27.23344],[69.6719,27.2542],[69.6813,27.26263],[69.68534,27.26593],[69.7051,27.28523],[69.71351,27.29153],[69.76395,27.32466],[69.78666,27.34662],[69.79039,27.35022],[69.79228,27.35146],[69.81053,27.36263],[69.83486,27.38226],[69.85314,27.39386],[69.87167,27.40918],[69.88967,27.42986],[69.89717,27.43842],[69.91323,27.46044],[69.92213,27.47691],[69.92495,27.48085],[69.92622,27.48421],[69.94079,27.50249],[69.95936,27.51831],[69.96479,27.52287],[69.97781,27.53229],[69.98509,27.53699],[69.99329,27.54176],[69.99951,27.54511],[70.02465,27.56132],[70.03231,27.5718],[70.03463,27.57561],[70.03561,27.57756],[70.03968,27.58599],[70.04987,27.61287],[70.05604,27.62373],[70.05769,27.62934],[70.05804,27.6307],[70.0594,27.63477],[70.0605,27.63689],[70.07506,27.66421],[70.08214,27.68445],[70.0884,27.6973],[70.09549,27.71439],[70.09624,27.71605],[70.09949,27.72558],[70.10116,27.7325],[70.11004,27.74991],[70.11321,27.75645],[70.11863,27.77171],[70.12143,27.78103],[70.13469,27.80702],[70.14621,27.819],[70.15422,27.8273],[70.19732,27.86654],[70.19847,27.86789],[70.20004,27.8693],[70.20534,27.87661],[70.22489,27.89839],[70.23689,27.90648],[70.24154,27.90825],[70.25016,27.91359],[70.25329,27.91626],[70.27313,27.92499],[70.29355,27.9366],[70.30364,27.944],[70.31026,27.94888],[70.34896,27.98919],[70.35536,27.99586],[70.37082,28.00925],[70.37092,28.01003],[70.37178,28.01083],[70.37431,28.01203],[70.39249,28.01293],[70.41047,28.01607],[70.44239,28.02157],[70.47498,28.03244],[70.47618,28.03281],[70.49672,28.03658],[70.5365,28.03213],[70.53993,28.03129],[70.5475,28.02939],[70.56327,28.02255],[70.56929,28.01916],[70.59245,28.00964],[70.59376,28.00808],[70.59406,28.00605],[70.59669,28.0027],[70.59719,28.00227],[70.59723,28.00071],[70.59927,28.00075],[70.60164,27.99874],[70.60271,27.99491],[70.60374,27.99394],[70.61468,27.98406],[70.61915,27.97714],[70.64293,27.95671],[70.66836,27.93489],[70.67197,27.92926],[70.67701,27.92395],[70.68103,27.89104],[70.68037,27.87276],[70.68032,27.87036],[70.68384,27.84208],[70.68744,27.82815],[70.6995,27.81098],[70.70902,27.7998],[70.71455,27.79085],[70.71645,27.7888],[70.71774,27.78763],[70.72143,27.78264],[70.73756,27.75152],[70.73896,27.74943],[70.7405,27.74879],[70.74188,27.74693],[70.74459,27.74305],[70.74636,27.74354],[70.76244,27.72894],[70.76266,27.728],[70.76548,27.72619],[70.76785,27.7249],[70.78702,27.72031],[70.79956,27.71837],[70.81724,27.71442],[70.83968,27.71338],[70.85625,27.71218],[70.86793,27.71061],[70.86974,27.7101],[70.88254,27.70823],[70.89639,27.71],[70.9053,27.71037],[70.94853,27.7284],[70.95035,27.72914],[70.96019,27.73222],[70.96835,27.73603],[70.98307,27.74362],[71.03289,27.76648],[71.05489,27.77304],[71.06949,27.77741],[71.08607,27.78579],[71.13919,27.80709],[71.17305,27.82064],[71.18317,27.82302],[71.20813,27.83285],[71.22965,27.8372],[71.24225,27.84134],[71.25483,27.84536],[71.27263,27.85018],[71.32558,27.85978],[71.34174,27.86268],[71.38101,27.86973],[71.40975,27.87347],[71.41265,27.87288],[71.41881,27.87163],[71.44799,27.87356],[71.49993,27.87287],[71.52391,27.87254],[71.53108,27.87246],[71.54937,27.87332],[71.58699,27.87724],[71.60492,27.87502],[71.62126,27.87519],[71.64496,27.87543],[71.65885,27.87557],[71.66451,27.87927],[71.68162,27.8838],[71.69872,27.88906],[71.72068,27.89799],[71.74428,27.90695],[71.76051,27.91357],[71.76651,27.91619],[71.82736,27.93652],[71.85968,27.94732],[71.89437,27.96091],[71.89757,27.96263]]]}}]}