{"type":"FeatureCollection","features":[{"type":"Feature","properties":{"id":"jhalawar","name":"Jhalawar","stateId":"rajasthan","stateName":"Rajasthan","censuscode":129,"type":"district"},"geometry":{"type":"Polygon","coordinates":[[[76.36535,24.87105],[76.36739,24.86794],[76.37188,24.86449],[76.37659,24.86316],[76.37931,24.86156],[76.38468,24.85125],[76.39319,24.84601],[76.39638,24.84094],[76.39985,24.838],[76.40399,24.8387],[76.4071,24.84215],[76.41228,24.8444],[76.41864,24.84319],[76.42877,24.83259],[76.43306,24.83155],[76.43663,24.83069],[76.44033,24.83132],[76.44473,24.83058],[76.44535,24.81606],[76.44382,24.79665],[76.4432,24.78479],[76.44311,24.78298],[76.44509,24.76388],[76.45127,24.74476],[76.45573,24.7363],[76.4611,24.72178],[76.46198,24.71446],[76.46543,24.70657],[76.46673,24.70111],[76.47318,24.68653],[76.47676,24.66931],[76.479,24.6643],[76.4812,24.66223],[76.4861,24.66078],[76.48932,24.65802],[76.49255,24.65312],[76.4945,24.65186],[76.50384,24.65243],[76.53134,24.66237],[76.52985,24.65188],[76.52881,24.64112],[76.52612,24.63093],[76.52161,24.58994],[76.52292,24.58216],[76.53142,24.5761],[76.53823,24.56861],[76.53956,24.55088],[76.53695,24.51402],[76.53842,24.51119],[76.54102,24.50625],[76.55032,24.49984],[76.56562,24.4962],[76.57861,24.49221],[76.57997,24.48484],[76.58018,24.46428],[76.58959,24.46099],[76.59543,24.45741],[76.60258,24.44658],[76.60484,24.43633],[76.61291,24.4267],[76.61932,24.4218],[76.62823,24.41695],[76.63594,24.41406],[76.64462,24.41635],[76.65777,24.42289],[76.67152,24.43692],[76.67557,24.43899],[76.68516,24.4343],[76.69707,24.42241],[76.70559,24.408],[76.70823,24.40581],[76.71131,24.40477],[76.71472,24.40891],[76.71607,24.41236],[76.7187,24.41322],[76.72077,24.41258],[76.72457,24.41395],[76.72859,24.42062],[76.73365,24.42159],[76.73969,24.42728],[76.74403,24.43436],[76.7569,24.44843],[76.76389,24.45193],[76.76984,24.4503],[76.77262,24.44361],[76.77709,24.43963],[76.78881,24.43534],[76.80052,24.43277],[76.81129,24.43263],[76.81721,24.43625],[76.82671,24.43673],[76.83497,24.43562],[76.84035,24.43577],[76.84546,24.43825],[76.85495,24.43279],[76.85539,24.43082],[76.85356,24.42069],[76.85029,24.41478],[76.84652,24.41364],[76.84195,24.41353],[76.84014,24.41202],[76.84665,24.40397],[76.85258,24.39172],[76.85438,24.38442],[76.85223,24.37429],[76.85655,24.37033],[76.85591,24.3657],[76.85328,24.36368],[76.84307,24.36018],[76.84118,24.35619],[76.84241,24.35045],[76.84306,24.3381],[76.84437,24.33421],[76.84909,24.32347],[76.86297,24.30781],[76.86399,24.30078],[76.86683,24.29433],[76.86799,24.28932],[76.86778,24.28526],[76.87122,24.27636],[76.87412,24.2721],[76.87839,24.26661],[76.90154,24.24261],[76.90807,24.23721],[76.91538,24.23314],[76.92066,24.2275],[76.92276,24.22194],[76.92347,24.21621],[76.92677,24.21233],[76.93244,24.20908],[76.93587,24.20508],[76.94105,24.20533],[76.94676,24.20388],[76.94865,24.20183],[76.94904,24.19885],[76.94807,24.1944],[76.93735,24.18242],[76.93141,24.18221],[76.92028,24.18428],[76.91902,24.17893],[76.91535,24.17246],[76.9099,24.14876],[76.90403,24.1267],[76.89031,24.12734],[76.88163,24.13053],[76.88062,24.13397],[76.87737,24.13538],[76.87033,24.13443],[76.86002,24.13454],[76.85009,24.13174],[76.84632,24.12787],[76.83946,24.12686],[76.8317,24.1212],[76.82578,24.12228],[76.81862,24.12212],[76.80504,24.11596],[76.80114,24.11744],[76.79485,24.12138],[76.77955,24.14869],[76.777,24.15439],[76.77278,24.16028],[76.76653,24.15981],[76.76339,24.16146],[76.76124,24.1653],[76.7589,24.1677],[76.75327,24.16815],[76.73975,24.16744],[76.73324,24.16617],[76.73069,24.16069],[76.72455,24.15733],[76.71853,24.15981],[76.7163,24.16224],[76.70495,24.16706],[76.69899,24.17161],[76.69316,24.17932],[76.68819,24.18426],[76.67799,24.18904],[76.68058,24.20614],[76.68872,24.22043],[76.69163,24.22804],[76.69911,24.23765],[76.70265,24.2407],[76.70638,24.24438],[76.70527,24.24993],[76.70358,24.25341],[76.70052,24.25677],[76.6987,24.26337],[76.69721,24.26961],[76.69881,24.27787],[76.69688,24.28059],[76.68865,24.27825],[76.68261,24.26621],[76.6747,24.26658],[76.67215,24.26295],[76.66205,24.26338],[76.65107,24.26798],[76.64628,24.26569],[76.64604,24.26182],[76.64387,24.2579],[76.63862,24.25964],[76.63387,24.2603],[76.62715,24.2602],[76.62011,24.25843],[76.61769,24.23778],[76.6142,24.2371],[76.60421,24.24059],[76.59696,24.24649],[76.59173,24.24517],[76.59118,24.24166],[76.60038,24.2309],[76.60108,24.22553],[76.59625,24.21949],[76.58954,24.21518],[76.57512,24.20911],[76.57091,24.20255],[76.56938,24.19644],[76.57057,24.19279],[76.57344,24.19193],[76.58062,24.18695],[76.58335,24.17633],[76.57627,24.17294],[76.56993,24.1721],[76.56609,24.16808],[76.55833,24.16389],[76.54952,24.16367],[76.54341,24.16242],[76.53931,24.15988],[76.53495,24.15914],[76.52672,24.15885],[76.52089,24.16226],[76.51685,24.16854],[76.51399,24.1747],[76.5119,24.19589],[76.50892,24.20114],[76.50533,24.2047],[76.50045,24.2077],[76.48793,24.2107],[76.48292,24.21318],[76.47808,24.22435],[76.47344,24.22706],[76.46691,24.22458],[76.4645,24.22108],[76.46209,24.21653],[76.4567,24.21249],[76.45088,24.21341],[76.44529,24.21756],[76.43946,24.22068],[76.43289,24.22274],[76.42702,24.22263],[76.42154,24.22005],[76.42514,24.21635],[76.42594,24.2099],[76.42212,24.20403],[76.41782,24.20311],[76.41517,24.20525],[76.40346,24.21849],[76.39462,24.22131],[76.37685,24.23339],[76.36851,24.23701],[76.36454,24.24019],[76.36162,24.24176],[76.35633,24.24461],[76.34749,24.2476],[76.33829,24.24967],[76.33018,24.24932],[76.32114,24.24683],[76.31338,24.24211],[76.3061,24.24015],[76.29713,24.2364],[76.29285,24.23276],[76.29203,24.22131],[76.29035,24.21399],[76.28594,24.21146],[76.27956,24.21225],[76.26852,24.2173],[76.25494,24.22058],[76.25079,24.22367],[76.24356,24.22194],[76.23922,24.21964],[76.22642,24.21904],[76.22129,24.21316],[76.21863,24.21259],[76.21362,24.21862],[76.20928,24.22852],[76.20856,24.23762],[76.20672,24.24636],[76.20747,24.26479],[76.20528,24.2725],[76.19776,24.28055],[76.1987,24.28585],[76.20219,24.29305],[76.20811,24.30147],[76.20937,24.30666],[76.20565,24.30889],[76.19714,24.3166],[76.19317,24.32568],[76.18861,24.32726],[76.18423,24.32063],[76.1752,24.31134],[76.17444,24.30609],[76.17566,24.30298],[76.17308,24.29917],[76.17229,24.29185],[76.16576,24.28913],[76.15254,24.28801],[76.14967,24.2861],[76.146,24.28108],[76.14523,24.27693],[76.14853,24.26155],[76.15135,24.25983],[76.15275,24.25677],[76.15743,24.23956],[76.15533,24.23126],[76.14999,24.22358],[76.14474,24.21965],[76.13446,24.20827],[76.12625,24.20122],[76.12418,24.19223],[76.1237,24.17944],[76.1228,24.17598],[76.12345,24.17408],[76.1283,24.17398],[76.13175,24.1707],[76.13375,24.16489],[76.13329,24.14952],[76.13456,24.13979],[76.13727,24.13519],[76.13972,24.12719],[76.13354,24.11877],[76.13203,24.1148],[76.13284,24.10801],[76.13408,24.10249],[76.13749,24.09559],[76.13747,24.09116],[76.12605,24.08821],[76.11519,24.09239],[76.11134,24.09301],[76.1079,24.0918],[76.10171,24.08508],[76.09351,24.08164],[76.08723,24.07805],[76.08293,24.0799],[76.06637,24.07383],[76.06012,24.07376],[76.04957,24.0716],[76.04595,24.06989],[76.04255,24.06285],[76.03558,24.06015],[76.02927,24.0464],[76.02046,24.04052],[76.01144,24.03626],[76.00462,24.0312],[76.00276,24.03145],[75.99698,24.02788],[75.99255,24.02605],[75.98219,24.02703],[75.98204,24.02807],[75.9758,24.02743],[75.96258,24.02137],[75.96147,24.00598],[75.96329,24.00028],[75.96261,23.99347],[75.96368,23.99086],[75.96589,23.98767],[75.97913,23.97796],[75.9806,23.97607],[75.98257,23.97039],[75.98256,23.96477],[75.9836,23.95843],[75.98217,23.94818],[75.98327,23.93904],[75.97833,23.93501],[75.97815,23.92897],[75.97641,23.92757],[75.96882,23.9259],[75.95051,23.91831],[75.94885,23.91676],[75.94658,23.91228],[75.94033,23.90827],[75.93401,23.898],[75.92916,23.89796],[75.92341,23.90024],[75.90761,23.89215],[75.9034,23.89111],[75.89869,23.88879],[75.89606,23.88917],[75.89091,23.88782],[75.88845,23.88469],[75.88071,23.88066],[75.87445,23.88429],[75.86917,23.8901],[75.8656,23.89151],[75.86274,23.8917],[75.85865,23.89012],[75.85547,23.89031],[75.84345,23.88457],[75.84176,23.87869],[75.83903,23.87746],[75.8324,23.8809],[75.81982,23.87551],[75.81588,23.87042],[75.80459,23.86727],[75.79614,23.87047],[75.79293,23.86832],[75.78703,23.86154],[75.78695,23.85598],[75.78573,23.8539],[75.78179,23.85088],[75.77893,23.85005],[75.77146,23.85062],[75.76346,23.85308],[75.76178,23.85817],[75.76102,23.87751],[75.759,23.88036],[75.75159,23.8862],[75.74189,23.89042],[75.73828,23.89028],[75.73604,23.89571],[75.73315,23.89769],[75.73003,23.89829],[75.72463,23.89682],[75.71726,23.89772],[75.71479,23.89616],[75.71237,23.8966],[75.70885,23.89909],[75.7041,23.90025],[75.70263,23.89749],[75.7027,23.89112],[75.70038,23.88744],[75.69949,23.88393],[75.69985,23.87333],[75.70305,23.87117],[75.70529,23.87165],[75.70647,23.87097],[75.70829,23.86439],[75.71929,23.86098],[75.72932,23.86072],[75.73088,23.85442],[75.72992,23.85126],[75.72813,23.84964],[75.7257,23.84423],[75.72241,23.843],[75.71961,23.8432],[75.71745,23.84181],[75.71968,23.83627],[75.72046,23.82858],[75.72389,23.82313],[75.72254,23.81987],[75.71846,23.81835],[75.71759,23.81725],[75.71955,23.81526],[75.71739,23.8133],[75.71491,23.8127],[75.71048,23.81433],[75.70426,23.81337],[75.69191,23.81586],[75.68905,23.81549],[75.68857,23.81394],[75.68991,23.81034],[75.69568,23.8008],[75.69615,23.79381],[75.70032,23.7881],[75.69992,23.78426],[75.69833,23.78154],[75.69167,23.77225],[75.68896,23.7696],[75.68674,23.76293],[75.68605,23.75685],[75.68065,23.76583],[75.67764,23.77841],[75.67599,23.78074],[75.6728,23.78307],[75.66904,23.78448],[75.66419,23.78444],[75.66063,23.78522],[75.65836,23.78807],[75.65338,23.79823],[75.65086,23.79563],[75.64523,23.79812],[75.6426,23.79855],[75.63856,23.79864],[75.62744,23.79656],[75.62546,23.79682],[75.6181,23.80227],[75.61361,23.80293],[75.60945,23.80181],[75.60755,23.79996],[75.59312,23.79871],[75.58393,23.79669],[75.58439,23.80013],[75.58632,23.80514],[75.58588,23.81034],[75.58474,23.81153],[75.5742,23.81317],[75.56743,23.81203],[75.56392,23.81327],[75.55989,23.8165],[75.55745,23.82227],[75.558,23.82794],[75.56149,23.83319],[75.56292,23.83331],[75.57073,23.83097],[75.57372,23.83116],[75.5763,23.83434],[75.57762,23.83784],[75.57785,23.83961],[75.5745,23.84279],[75.56863,23.84395],[75.5668,23.84618],[75.56389,23.85446],[75.56206,23.85627],[75.5586,23.85912],[75.55395,23.86148],[75.53929,23.87306],[75.53015,23.87659],[75.51813,23.88509],[75.50871,23.88697],[75.50545,23.88826],[75.50128,23.89327],[75.50093,23.89687],[75.48876,23.9072],[75.47817,23.91111],[75.4622,23.91366],[75.45779,23.91711],[75.45722,23.92181],[75.45767,23.92852],[75.45855,23.93455],[75.46191,23.94398],[75.46304,23.94978],[75.46374,23.96446],[75.46615,23.97708],[75.46861,23.98087],[75.47196,23.98354],[75.48199,23.98866],[75.48743,23.99465],[75.49065,23.99663],[75.49323,24.00086],[75.51593,24.04501],[75.5335,24.02776],[75.54423,24.02185],[75.55424,24.01898],[75.56274,24.01984],[75.56856,24.01897],[75.57336,24.01366],[75.57044,24.00087],[75.56998,23.9974],[75.57093,23.99564],[75.57539,23.99475],[75.5776,23.99689],[75.57942,23.99587],[75.58199,23.99056],[75.58546,23.98818],[75.58858,23.99188],[75.5917,23.99259],[75.59428,23.99111],[75.59908,23.99488],[75.60581,23.99252],[75.60847,23.99248],[75.61344,23.99499],[75.62644,23.99504],[75.63225,23.99589],[75.63292,23.99653],[75.63647,23.99604],[75.64022,23.99904],[75.64096,24.00084],[75.64324,24.01457],[75.6477,24.01367],[75.64995,24.01692],[75.64946,24.0194],[75.65495,24.02378],[75.66119,24.02768],[75.67106,24.02972],[75.67455,24.02707],[75.6789,24.01628],[75.68414,24.01313],[75.68766,24.01411],[75.68616,24.00081],[75.68717,23.99853],[75.68536,23.99439],[75.68591,23.98929],[75.68822,23.98673],[75.69249,23.98566],[75.69495,23.98539],[75.69799,23.98656],[75.69832,23.98369],[75.69729,23.98208],[75.69973,23.96827],[75.70029,23.96626],[75.70225,23.96524],[75.71568,23.96825],[75.72521,23.96929],[75.72704,23.97068],[75.72838,23.97493],[75.72967,23.97568],[75.73501,23.97509],[75.73743,23.97672],[75.73819,23.9785],[75.73794,23.9809],[75.74007,23.98431],[75.73932,23.99021],[75.73978,23.99148],[75.74953,23.98961],[75.75151,23.99123],[75.75729,23.99105],[75.76402,23.99408],[75.76631,23.99856],[75.76605,24.00071],[75.76614,24.00142],[75.76209,24.00456],[75.76288,24.00903],[75.76521,24.01009],[75.76984,24.0078],[75.77329,24.00833],[75.7758,24.01522],[75.77985,24.02363],[75.7823,24.03236],[75.77979,24.05324],[75.78172,24.05817],[75.79111,24.05938],[75.80942,24.06367],[75.8155,24.06769],[75.82292,24.06666],[75.83171,24.06801],[75.83596,24.07148],[75.83359,24.07316],[75.83277,24.07764],[75.8349,24.09179],[75.83811,24.10004],[75.83805,24.10739],[75.83287,24.10397],[75.8144,24.09893],[75.81056,24.10941],[75.8046,24.11437],[75.79177,24.10587],[75.78695,24.11442],[75.78534,24.11875],[75.78119,24.12069],[75.78087,24.13073],[75.77847,24.13502],[75.77532,24.1355],[75.76725,24.1327],[75.7643,24.13708],[75.76157,24.13642],[75.7456,24.13568],[75.7528,24.15772],[75.75547,24.1604],[75.76046,24.17061],[75.76109,24.17567],[75.76587,24.18583],[75.77083,24.18936],[75.77189,24.19379],[75.77006,24.20359],[75.77578,24.21692],[75.78111,24.22044],[75.7942,24.21926],[75.79765,24.22289],[75.80184,24.22524],[75.80765,24.22573],[75.81011,24.23667],[75.81296,24.23798],[75.8166,24.2356],[75.81896,24.23794],[75.82367,24.23703],[75.82874,24.23856],[75.82927,24.2424],[75.82489,24.24333],[75.82044,24.24595],[75.81505,24.25287],[75.81491,24.25665],[75.82093,24.26421],[75.81415,24.26642],[75.8153,24.27308],[75.81383,24.28071],[75.81926,24.28673],[75.81336,24.29402],[75.81542,24.29665],[75.81363,24.29943],[75.80541,24.30831],[75.79983,24.31034],[75.79241,24.30709],[75.78342,24.30463],[75.7732,24.30477],[75.76743,24.30668],[75.75861,24.32322],[75.74026,24.34399],[75.74287,24.34575],[75.74416,24.34898],[75.74414,24.35708],[75.74105,24.35727],[75.74066,24.36219],[75.74196,24.38493],[75.74096,24.39129],[75.73773,24.3904],[75.73205,24.38551],[75.72928,24.40128],[75.73069,24.4035],[75.73219,24.39961],[75.73823,24.39943],[75.74569,24.401],[75.74742,24.40307],[75.75772,24.40529],[75.7583,24.41702],[75.75887,24.42364],[75.75119,24.42439],[75.75489,24.42755],[75.77074,24.43631],[75.77821,24.44422],[75.77872,24.44983],[75.78382,24.44985],[75.78613,24.44777],[75.78831,24.45103],[75.78866,24.45435],[75.78666,24.46067],[75.78932,24.46776],[75.79371,24.47113],[75.79823,24.46904],[75.80762,24.46869],[75.81772,24.46103],[75.8191,24.45444],[75.81677,24.44401],[75.81222,24.43716],[75.81512,24.43271],[75.82672,24.42672],[75.83159,24.41844],[75.84988,24.41488],[75.86386,24.41923],[75.87791,24.42617],[75.88921,24.43281],[75.90136,24.43746],[75.90615,24.442],[75.90611,24.4498],[75.91176,24.45199],[75.91222,24.45948],[75.91008,24.46536],[75.91092,24.47398],[75.91524,24.48142],[75.91466,24.48826],[75.90958,24.49388],[75.90831,24.50116],[75.89386,24.50544],[75.89538,24.51737],[75.89978,24.5181],[75.90499,24.51786],[75.90573,24.51556],[75.9122,24.51071],[75.92492,24.5231],[75.92792,24.52922],[75.9279,24.53411],[75.92341,24.53962],[75.92666,24.54534],[75.92632,24.55043],[75.93854,24.55033],[75.94199,24.54949],[75.94331,24.54785],[75.94771,24.54547],[75.95147,24.54441],[75.95333,24.54285],[75.95493,24.54366],[75.95709,24.54843],[75.95969,24.54896],[75.96125,24.55186],[75.96184,24.56095],[75.96435,24.56217],[75.96646,24.5624],[75.97492,24.56131],[75.98933,24.56196],[75.99384,24.55931],[76.00233,24.56396],[76.00829,24.56138],[76.01367,24.5616],[76.01636,24.56197],[76.01922,24.56242],[76.02094,24.56424],[76.02571,24.56116],[76.02856,24.56005],[76.03198,24.55899],[76.03448,24.5591],[76.03636,24.56041],[76.04132,24.56856],[76.04686,24.56961],[76.04932,24.57201],[76.05138,24.57607],[76.05429,24.57789],[76.05656,24.57576],[76.06244,24.57248],[76.06576,24.57089],[76.07393,24.57274],[76.07833,24.57427],[76.08166,24.57658],[76.08152,24.58196],[76.07993,24.58818],[76.0746,24.59628],[76.06772,24.61362],[76.06502,24.62317],[76.06404,24.63225],[76.06452,24.63903],[76.06663,24.64343],[76.06763,24.64912],[76.06647,24.66235],[76.06714,24.66787],[76.07068,24.67418],[76.06868,24.67551],[76.08047,24.68294],[76.08552,24.68518],[76.10352,24.69596],[76.10707,24.69666],[76.11457,24.69307],[76.15227,24.6544],[76.18865,24.62391],[76.19313,24.62316],[76.19486,24.62592],[76.19457,24.63025],[76.19277,24.63354],[76.18897,24.63655],[76.18539,24.64197],[76.1855,24.64422],[76.18423,24.64438],[76.18257,24.64988],[76.18413,24.65633],[76.1831,24.66434],[76.20084,24.68297],[76.20193,24.68775],[76.19844,24.70289],[76.19715,24.71239],[76.20035,24.7428],[76.20309,24.75047],[76.20439,24.75962],[76.21436,24.7722],[76.21927,24.77721],[76.22345,24.78511],[76.22635,24.79594],[76.22723,24.80798],[76.22737,24.83199],[76.24093,24.83213],[76.2476,24.82983],[76.25337,24.83042],[76.25614,24.83566],[76.25621,24.84141],[76.25792,24.84678],[76.26465,24.845],[76.27023,24.845],[76.27295,24.84363],[76.26968,24.83245],[76.27017,24.82536],[76.26569,24.81592],[76.26596,24.81367],[76.27468,24.80706],[76.28422,24.80787],[76.29046,24.81127],[76.29298,24.81727],[76.29183,24.83196],[76.29071,24.83684],[76.3039,24.83697],[76.30595,24.83951],[76.30616,24.84256],[76.31106,24.84158],[76.31366,24.83997],[76.32103,24.84949],[76.3268,24.8503],[76.33137,24.85225],[76.33465,24.85716],[76.3351,24.86407],[76.33727,24.86712],[76.34083,24.86925],[76.34723,24.86857],[76.35244,24.86926],[76.35775,24.87214],[76.36535,24.87105]]]}}]}