{"type":"FeatureCollection","features":[{"type":"Feature","properties":{"id":"nagaur","name":"Nagaur","stateId":"rajasthan","stateName":"Rajasthan","censuscode":112,"type":"district"},"geometry":{"type":"Polygon","coordinates":[[[74.61241,27.66722],[74.61341,27.66137],[74.62831,27.64822],[74.6376,27.65116],[74.65268,27.65346],[74.66727,27.66055],[74.67392,27.66487],[74.68008,27.66665],[74.68105,27.6672],[74.68614,27.65588],[74.69062,27.6533],[74.7013,27.65174],[74.70731,27.64609],[74.71052,27.63904],[74.70971,27.63277],[74.7106,27.62836],[74.70298,27.62466],[74.70051,27.61703],[74.7017,27.60806],[74.70594,27.59263],[74.71351,27.59966],[74.72085,27.60418],[74.72794,27.60744],[74.73021,27.60261],[74.73567,27.59867],[74.73691,27.59033],[74.74103,27.58508],[74.7556,27.5906],[74.7611,27.5805],[74.75847,27.57679],[74.76143,27.57101],[74.76155,27.56761],[74.74374,27.55409],[74.71638,27.53748],[74.71844,27.53025],[74.72292,27.52664],[74.72016,27.52161],[74.72273,27.51459],[74.72109,27.508],[74.7231,27.50118],[74.72671,27.4979],[74.73039,27.49266],[74.75137,27.50103],[74.75106,27.49461],[74.75491,27.49108],[74.75499,27.48585],[74.7635,27.48973],[74.76971,27.49141],[74.77102,27.49176],[74.77678,27.48866],[74.78271,27.48836],[74.78761,27.48559],[74.79462,27.48547],[74.79868,27.48221],[74.80248,27.47042],[74.79866,27.46349],[74.79827,27.45679],[74.80058,27.45184],[74.80318,27.44976],[74.84573,27.45272],[74.85722,27.45029],[74.86041,27.44438],[74.86334,27.43481],[74.86461,27.42757],[74.87324,27.4119],[74.85161,27.39134],[74.84635,27.38242],[74.84499,27.3787],[74.85377,27.37532],[74.86045,27.37176],[74.86923,27.37057],[74.87381,27.372],[74.87801,27.35541],[74.87897,27.3449],[74.87337,27.3387],[74.86682,27.33472],[74.86961,27.32757],[74.8772,27.31902],[74.87929,27.31064],[74.886,27.30928],[74.89214,27.3104],[74.89747,27.31249],[74.89909,27.3192],[74.8979,27.32675],[74.89854,27.32983],[74.91937,27.33528],[74.92972,27.33605],[74.93943,27.33572],[74.94611,27.34127],[74.94695,27.34629],[74.96019,27.34788],[75.00003,27.34865],[75.00948,27.34682],[75.01872,27.35053],[75.02847,27.35192],[75.03793,27.35692],[75.04762,27.36822],[75.0449,27.37231],[75.04708,27.37728],[75.05752,27.38144],[75.07373,27.38528],[75.08435,27.38489],[75.0945,27.38311],[75.10454,27.38248],[75.11817,27.3765],[75.11791,27.36535],[75.11649,27.35775],[75.11872,27.35532],[75.11525,27.35068],[75.11596,27.3444],[75.10692,27.34275],[75.10836,27.33828],[75.11637,27.33788],[75.12587,27.33892],[75.12812,27.33521],[75.13717,27.32463],[75.15332,27.32297],[75.1679,27.31627],[75.16613,27.3045],[75.16053,27.29242],[75.15963,27.28091],[75.14966,27.28126],[75.13728,27.28381],[75.12964,27.27433],[75.11827,27.26287],[75.10807,27.25114],[75.08966,27.24384],[75.08211,27.23639],[75.07782,27.2282],[75.07191,27.21935],[75.08058,27.21984],[75.09565,27.21915],[75.10936,27.21976],[75.12533,27.21101],[75.12028,27.20604],[75.12206,27.20308],[75.12377,27.19584],[75.1214,27.18804],[75.11816,27.18394],[75.12078,27.18128],[75.12621,27.17829],[75.12881,27.17344],[75.13451,27.16941],[75.14655,27.16756],[75.15511,27.16705],[75.15774,27.16377],[75.16144,27.16339],[75.16427,27.15993],[75.17274,27.16076],[75.17918,27.16045],[75.18027,27.15441],[75.1718,27.14827],[75.17223,27.14361],[75.17854,27.14086],[75.19666,27.14046],[75.19816,27.13311],[75.20107,27.12855],[75.20622,27.12936],[75.20888,27.13335],[75.22554,27.13511],[75.2354,27.13394],[75.23569,27.12639],[75.23826,27.12552],[75.25018,27.12884],[75.25356,27.13198],[75.27286,27.13327],[75.27564,27.12866],[75.28226,27.12309],[75.30115,27.12905],[75.3002,27.13451],[75.30013,27.14352],[75.30629,27.14469],[75.31623,27.15914],[75.3184,27.14684],[75.32601,27.14596],[75.33032,27.1475],[75.33297,27.14288],[75.3332,27.13861],[75.33732,27.13714],[75.3414,27.13989],[75.34447,27.1396],[75.34431,27.13527],[75.34145,27.1288],[75.34112,27.12064],[75.341,27.1177],[75.34746,27.11715],[75.34789,27.11225],[75.34961,27.10905],[75.35465,27.10922],[75.35987,27.11008],[75.36328,27.1116],[75.36638,27.11011],[75.36805,27.10685],[75.36901,27.10081],[75.36857,27.09485],[75.36841,27.08757],[75.3586,27.08655],[75.35076,27.08586],[75.34487,27.08978],[75.34007,27.09348],[75.33768,27.09464],[75.33525,27.0946],[75.33173,27.09186],[75.32411,27.09076],[75.31061,27.08949],[75.29047,27.0913],[75.27735,27.09032],[75.26582,27.08965],[75.25053,27.08844],[75.23619,27.08507],[75.22113,27.08276],[75.22314,27.07247],[75.22309,27.05532],[75.22967,27.05495],[75.23497,27.0516],[75.24144,27.05036],[75.24602,27.04099],[75.25744,27.03911],[75.25926,27.03413],[75.2534,27.02967],[75.24862,27.02488],[75.2431,27.01639],[75.23548,27.01743],[75.22438,27.01621],[75.22228,27.01373],[75.21752,27.01162],[75.21355,27.00905],[75.20776,27.00972],[75.20441,27.00699],[75.20288,27.0022],[75.20151,26.99505],[75.20396,26.97356],[75.18981,26.97337],[75.17779,26.97113],[75.15976,26.96977],[75.16583,26.96158],[75.16476,26.9492],[75.1656,26.93285],[75.14319,26.93086],[75.12048,26.9317],[75.103,26.93635],[75.04171,26.94081],[75.01363,26.94524],[75.01323,26.93622],[75.0151,26.91347],[75.01435,26.89494],[75.00004,26.89323],[74.99825,26.88998],[74.99385,26.89059],[74.99291,26.88832],[74.97747,26.88957],[74.97682,26.89026],[74.97439,26.89274],[74.97707,26.90996],[74.98346,26.94117],[74.97956,26.94392],[74.97055,26.94718],[74.96617,26.94512],[74.9662,26.94814],[74.9638,26.95397],[74.96441,26.95814],[74.96102,26.96027],[74.95765,26.95823],[74.95494,26.96285],[74.9466,26.96193],[74.92025,26.96276],[74.91014,26.96751],[74.91141,26.97585],[74.90625,26.97538],[74.90465,26.97523],[74.89253,26.97702],[74.87769,26.97519],[74.85212,26.97503],[74.8444,26.96119],[74.82728,26.92122],[74.83122,26.89952],[74.82544,26.89074],[74.81582,26.86842],[74.80481,26.85265],[74.77414,26.84873],[74.77311,26.82242],[74.77741,26.81915],[74.78109,26.79862],[74.77901,26.7902],[74.77498,26.79272],[74.76517,26.7923],[74.75909,26.78908],[74.75369,26.78151],[74.7494,26.77046],[74.74501,26.7698],[74.71577,26.77214],[74.71197,26.77656],[74.70349,26.77256],[74.69782,26.77113],[74.68469,26.74224],[74.68708,26.73768],[74.68477,26.73378],[74.66539,26.71133],[74.68603,26.70951],[74.68733,26.70651],[74.71285,26.70537],[74.72358,26.70185],[74.72318,26.70067],[74.72197,26.69698],[74.72192,26.6756],[74.71448,26.66269],[74.70571,26.65485],[74.69366,26.63866],[74.68263,26.61616],[74.67926,26.60361],[74.67395,26.59395],[74.66757,26.59663],[74.65515,26.58582],[74.64545,26.59043],[74.63699,26.57842],[74.61869,26.56583],[74.61309,26.5732],[74.60162,26.58203],[74.61776,26.59994],[74.60636,26.60889],[74.59888,26.61839],[74.5933,26.62907],[74.57596,26.61003],[74.56479,26.59129],[74.54096,26.56234],[74.53823,26.55952],[74.52481,26.54563],[74.50745,26.52485],[74.49627,26.51392],[74.48122,26.49739],[74.47285,26.49053],[74.46514,26.48675],[74.46087,26.48799],[74.45598,26.49385],[74.44975,26.49925],[74.44325,26.50226],[74.43781,26.49966],[74.43327,26.49485],[74.43105,26.49206],[74.43141,26.48818],[74.42896,26.48595],[74.40531,26.4884],[74.39926,26.48451],[74.395,26.48454],[74.39103,26.48815],[74.38199,26.48934],[74.37539,26.48875],[74.37152,26.47851],[74.36473,26.47375],[74.35259,26.46843],[74.35314,26.45579],[74.34534,26.44969],[74.34223,26.44555],[74.33712,26.44271],[74.33084,26.4423],[74.32493,26.44334],[74.31796,26.45162],[74.31655,26.45746],[74.30295,26.4535],[74.29076,26.44896],[74.27866,26.45655],[74.26632,26.45352],[74.26307,26.45453],[74.25685,26.45452],[74.25262,26.45738],[74.248,26.45652],[74.24373,26.45752],[74.23816,26.46128],[74.2283,26.45277],[74.22507,26.45221],[74.2253,26.44932],[74.216,26.44279],[74.21458,26.44422],[74.20341,26.43952],[74.19703,26.43771],[74.19113,26.43713],[74.19199,26.4255],[74.18093,26.42212],[74.17472,26.42125],[74.17341,26.41625],[74.17222,26.41461],[74.15925,26.41128],[74.15716,26.42482],[74.14825,26.42633],[74.14706,26.42945],[74.14004,26.43175],[74.13789,26.4363],[74.13325,26.43637],[74.13149,26.4437],[74.12803,26.44552],[74.12344,26.45624],[74.11622,26.455],[74.10894,26.44855],[74.09946,26.44641],[74.1011,26.4386],[74.10155,26.42917],[74.10409,26.41673],[74.09668,26.4156],[74.08556,26.41571],[74.08558,26.41866],[74.07695,26.41897],[74.07597,26.42075],[74.06978,26.42293],[74.05183,26.41872],[74.0469,26.41629],[74.04366,26.41295],[74.04118,26.40892],[74.03507,26.41059],[74.02974,26.41412],[74.02898,26.42286],[74.02439,26.42407],[74.01675,26.4212],[74.00004,26.42053],[73.99702,26.4214],[73.99486,26.42241],[73.99093,26.42138],[73.98779,26.42127],[73.98257,26.42387],[73.98045,26.42762],[73.97711,26.42736],[73.97476,26.42917],[73.9723,26.43126],[73.97111,26.42881],[73.96866,26.42392],[73.96645,26.42192],[73.95814,26.41925],[73.95295,26.41957],[73.94727,26.4215],[73.93889,26.42215],[73.92878,26.42307],[73.92205,26.42357],[73.91601,26.42596],[73.91238,26.42825],[73.90704,26.42681],[73.89739,26.42365],[73.88702,26.42525],[73.88076,26.42647],[73.87311,26.43047],[73.87114,26.43241],[73.86671,26.43633],[73.86374,26.43897],[73.86116,26.44224],[73.85954,26.44561],[73.85872,26.45087],[73.85714,26.45696],[73.85777,26.46082],[73.85713,26.4654],[73.85665,26.4672],[73.85421,26.46734],[73.84992,26.46739],[73.85069,26.47201],[73.84651,26.4713],[73.8405,26.47224],[73.83684,26.47696],[73.83708,26.48037],[73.83199,26.48274],[73.8289,26.48648],[73.8275,26.48684],[73.82323,26.48885],[73.81727,26.49423],[73.81518,26.50044],[73.80689,26.50383],[73.79394,26.50439],[73.79149,26.50806],[73.78205,26.51706],[73.7795,26.52223],[73.77607,26.52494],[73.76877,26.52986],[73.77027,26.53194],[73.77235,26.53399],[73.77029,26.538],[73.76642,26.53642],[73.76043,26.53522],[73.75863,26.53986],[73.75512,26.54065],[73.74946,26.54008],[73.7354,26.53885],[73.72826,26.53812],[73.72135,26.539],[73.72173,26.5487],[73.72144,26.54981],[73.72076,26.55201],[73.70304,26.57596],[73.70101,26.57736],[73.70042,26.58164],[73.69408,26.58859],[73.69824,26.59681],[73.69756,26.59901],[73.70133,26.60255],[73.70001,26.60419],[73.69677,26.60729],[73.6928,26.60848],[73.6918,26.61532],[73.68465,26.61833],[73.6926,26.6227],[73.68521,26.63231],[73.68048,26.63409],[73.68182,26.63784],[73.67864,26.64533],[73.67705,26.64627],[73.65947,26.64801],[73.65855,26.65611],[73.66053,26.66054],[73.66883,26.66704],[73.67264,26.67822],[73.6594,26.68789],[73.65083,26.70057],[73.64978,26.71],[73.65245,26.71766],[73.65603,26.72091],[73.6577,26.72587],[73.65947,26.72925],[73.66782,26.74443],[73.66893,26.74609],[73.67177,26.75172],[73.67729,26.75583],[73.67537,26.75717],[73.67356,26.76118],[73.67033,26.76405],[73.66692,26.77419],[73.66243,26.77956],[73.66241,26.78354],[73.6604,26.79229],[73.66064,26.79639],[73.65865,26.80092],[73.65696,26.80487],[73.655,26.80778],[73.64314,26.80582],[73.63216,26.8068],[73.63225,26.80847],[73.6329,26.81442],[73.63218,26.81951],[73.63251,26.82407],[73.63091,26.8357],[73.63095,26.83934],[73.62652,26.84424],[73.62145,26.84527],[73.61866,26.84328],[73.61232,26.84045],[73.60869,26.84396],[73.60612,26.84375],[73.59964,26.85063],[73.59652,26.85321],[73.5936,26.85555],[73.59227,26.85793],[73.5898,26.86131],[73.58764,26.86329],[73.58053,26.86041],[73.57773,26.86282],[73.57543,26.86457],[73.572,26.86218],[73.56202,26.86181],[73.55667,26.86065],[73.54438,26.85996],[73.53851,26.85921],[73.53413,26.85867],[73.53034,26.85848],[73.52685,26.86325],[73.52089,26.8707],[73.51226,26.88084],[73.50887,26.8826],[73.50572,26.88332],[73.50451,26.88444],[73.50317,26.88513],[73.4985,26.88692],[73.49168,26.88693],[73.48612,26.88547],[73.47649,26.88134],[73.47124,26.87769],[73.4705,26.88001],[73.4679,26.87836],[73.46362,26.87539],[73.45813,26.8729],[73.45504,26.87836],[73.454,26.87722],[73.45284,26.87693],[73.45141,26.87614],[73.44509,26.8751],[73.44346,26.87812],[73.44137,26.88172],[73.43814,26.88625],[73.43692,26.88666],[73.43241,26.88636],[73.42631,26.88716],[73.42359,26.88586],[73.41683,26.88512],[73.41168,26.88406],[73.40208,26.88316],[73.39934,26.87954],[73.39526,26.87675],[73.3919,26.8747],[73.38636,26.86891],[73.37984,26.86625],[73.37561,26.86784],[73.37267,26.87001],[73.371,26.86984],[73.36314,26.86922],[73.35549,26.86957],[73.35168,26.86817],[73.35013,26.86667],[73.34366,26.86087],[73.34083,26.8572],[73.3324,26.85597],[73.32714,26.85664],[73.32537,26.85815],[73.32286,26.86001],[73.31839,26.86268],[73.31152,26.86358],[73.30973,26.86485],[73.30723,26.86608],[73.30134,26.86875],[73.30013,26.87037],[73.29976,26.87377],[73.29264,26.87374],[73.29076,26.87105],[73.28958,26.86766],[73.28545,26.864],[73.27479,26.86227],[73.26707,26.86253],[73.26163,26.86417],[73.25785,26.86464],[73.25059,26.86319],[73.24262,26.8634],[73.23821,26.86762],[73.23712,26.86792],[73.22972,26.866],[73.22042,26.86858],[73.2131,26.86851],[73.21059,26.87014],[73.20758,26.87424],[73.20867,26.8766],[73.20996,26.87923],[73.20687,26.8808],[73.20325,26.88217],[73.19932,26.88168],[73.19099,26.882],[73.18955,26.8845],[73.18749,26.88887],[73.18477,26.89698],[73.18304,26.90161],[73.18063,26.90528],[73.17996,26.91469],[73.17939,26.9177],[73.17926,26.91959],[73.17853,26.92339],[73.17855,26.9269],[73.17732,26.92942],[73.17426,26.93189],[73.1719,26.93322],[73.16877,26.93167],[73.16686,26.92838],[73.16161,26.92639],[73.15759,26.92586],[73.15511,26.92663],[73.15526,26.9289],[73.15205,26.93048],[73.1362,26.9375],[73.12275,26.94398],[73.11813,26.9421],[73.11668,26.94692],[73.11399,26.95359],[73.11466,26.96569],[73.12825,26.98044],[73.14176,26.9864],[73.15262,26.99236],[73.15579,26.9972],[73.15679,27.00252],[73.15482,27.00925],[73.1549,27.01242],[73.15712,27.01516],[73.15771,27.01747],[73.15712,27.02281],[73.1578,27.02491],[73.17166,27.03809],[73.18634,27.05015],[73.19189,27.0564],[73.18539,27.06412],[73.18708,27.06608],[73.18012,27.08018],[73.17866,27.08771],[73.17651,27.09291],[73.16641,27.10516],[73.16318,27.10792],[73.15672,27.11052],[73.15201,27.12081],[73.15286,27.12294],[73.156,27.12514],[73.16461,27.13616],[73.16701,27.14452],[73.16485,27.15672],[73.16579,27.1614],[73.16347,27.1667],[73.15987,27.18444],[73.15809,27.18807],[73.15837,27.19165],[73.15632,27.19897],[73.15287,27.20184],[73.15127,27.21178],[73.14815,27.21496],[73.14686,27.22035],[73.1445,27.22326],[73.132,27.23516],[73.15385,27.25175],[73.15262,27.25838],[73.15595,27.26183],[73.15589,27.26651],[73.15985,27.26979],[73.15873,27.2712],[73.15892,27.27523],[73.16074,27.28112],[73.16306,27.29483],[73.16795,27.29452],[73.17289,27.29221],[73.17736,27.29013],[73.18959,27.28063],[73.19695,27.27724],[73.20825,27.27776],[73.21011,27.29468],[73.21182,27.29773],[73.21347,27.30441],[73.21979,27.30858],[73.22411,27.31348],[73.24238,27.32605],[73.24968,27.32577],[73.25269,27.31436],[73.25687,27.315],[73.2583,27.31333],[73.26394,27.31404],[73.26792,27.30371],[73.26375,27.29859],[73.26294,27.29629],[73.26534,27.29337],[73.26358,27.28908],[73.26368,27.28485],[73.27324,27.27896],[73.27905,27.27414],[73.28352,27.26805],[73.28523,27.26478],[73.28262,27.25864],[73.28406,27.25513],[73.29391,27.24798],[73.30535,27.23504],[73.31315,27.23096],[73.32221,27.22072],[73.33214,27.20458],[73.33314,27.19924],[73.33609,27.19944],[73.33918,27.1963],[73.34298,27.1984],[73.34594,27.19664],[73.35107,27.19691],[73.34879,27.19041],[73.35041,27.18674],[73.3534,27.18655],[73.35786,27.19062],[73.36113,27.19643],[73.36215,27.19578],[73.36499,27.19904],[73.36952,27.20178],[73.3675,27.20512],[73.37387,27.21074],[73.37311,27.21353],[73.36672,27.21752],[73.35948,27.22092],[73.35858,27.22521],[73.36039,27.23793],[73.36313,27.24157],[73.36495,27.24664],[73.36971,27.25386],[73.3752,27.26047],[73.38534,27.26915],[73.38987,27.27194],[73.39411,27.27447],[73.39427,27.27158],[73.39722,27.27189],[73.40341,27.27437],[73.40575,27.2778],[73.41479,27.28661],[73.44996,27.30963],[73.45028,27.31385],[73.45768,27.31648],[73.45978,27.31487],[73.48064,27.32254],[73.5042,27.33334],[73.49945,27.33982],[73.49516,27.34856],[73.49464,27.36042],[73.50709,27.36542],[73.5262,27.37512],[73.52202,27.38203],[73.51667,27.38789],[73.51038,27.38631],[73.50864,27.38678],[73.50539,27.39527],[73.50529,27.40918],[73.50735,27.41997],[73.50615,27.43378],[73.51462,27.4399],[73.52291,27.44473],[73.51879,27.45103],[73.52134,27.45364],[73.51925,27.4576],[73.52248,27.46261],[73.52188,27.4658],[73.52573,27.47831],[73.52977,27.48496],[73.53972,27.49405],[73.54431,27.49566],[73.54913,27.49545],[73.5534,27.49279],[73.55959,27.49291],[73.56349,27.49218],[73.56678,27.48625],[73.57232,27.48744],[73.57603,27.48484],[73.57629,27.48496],[73.57633,27.48489],[73.57964,27.48102],[73.58499,27.48415],[73.58646,27.48231],[73.59144,27.48507],[73.59328,27.48157],[73.59862,27.48507],[73.60507,27.48728],[73.61207,27.48931],[73.61336,27.49079],[73.613,27.49576],[73.61355,27.50111],[73.61963,27.50866],[73.62534,27.51271],[73.62755,27.51511],[73.6176,27.53556],[73.61705,27.53796],[73.62018,27.54146],[73.6235,27.53999],[73.63308,27.5433],[73.64801,27.55639],[73.65335,27.56099],[73.6554,27.56214],[73.65553,27.56202],[73.65706,27.56406],[73.66369,27.5648],[73.66639,27.56259],[73.66934,27.55915],[73.67352,27.55424],[73.67745,27.55227],[73.68138,27.55227],[73.68433,27.54932],[73.68949,27.54293],[73.69366,27.53802],[73.69686,27.53335],[73.69882,27.5309],[73.70054,27.52991],[73.70201,27.52727],[73.70237,27.52735],[73.70398,27.52205],[73.70448,27.51861],[73.71406,27.51886],[73.72364,27.52033],[73.7261,27.52156],[73.7288,27.52008],[73.73789,27.52451],[73.74354,27.52721],[73.746,27.52893],[73.74796,27.53163],[73.7514,27.53409],[73.75387,27.53468],[73.75413,27.53434],[73.7573,27.53434],[73.76172,27.53335],[73.7659,27.53065],[73.7686,27.52868],[73.77204,27.52746],[73.77597,27.52328],[73.77966,27.51493],[73.78308,27.5113],[73.78332,27.51158],[73.78341,27.51155],[73.78359,27.51099],[73.78777,27.5051],[73.79022,27.50141],[73.79636,27.49773],[73.80079,27.49773],[73.80349,27.49797],[73.8116,27.49724],[73.82118,27.50018],[73.82953,27.50436],[73.8369,27.51001],[73.84182,27.51517],[73.84354,27.51812],[73.8455,27.5218],[73.85238,27.52844],[73.85926,27.53335],[73.86874,27.53675],[73.86866,27.53681],[73.87085,27.53766],[73.87288,27.53787],[73.8749,27.53803],[73.87824,27.53941],[73.87919,27.53808],[73.87985,27.53622],[73.88151,27.53049],[73.88377,27.52498],[73.88657,27.51813],[73.88687,27.51738],[73.88747,27.51675],[73.88812,27.51558],[73.88877,27.51447],[73.88985,27.51117],[73.89169,27.50634],[73.89169,27.50481],[73.89175,27.50247],[73.89194,27.50163],[73.90214,27.49628],[73.9156,27.50056],[73.92961,27.50604],[73.93564,27.50727],[73.94139,27.51042],[73.95077,27.51282],[73.95527,27.5087],[73.95958,27.50741],[73.97375,27.50594],[73.97963,27.50766],[73.98769,27.51223],[73.99099,27.50861],[73.99403,27.50765],[73.99587,27.51018],[74.00004,27.51327],[74.00684,27.51273],[74.01137,27.51362],[74.00946,27.5183],[74.01071,27.52157],[74.03024,27.53487],[74.03596,27.52904],[74.04104,27.52583],[74.05266,27.52054],[74.05522,27.51606],[74.06035,27.51037],[74.06721,27.50586],[74.06742,27.49667],[74.07178,27.49532],[74.07662,27.49222],[74.08212,27.48239],[74.08214,27.47904],[74.1071,27.4763],[74.11235,27.47393],[74.11513,27.4715],[74.1172,27.46642],[74.11996,27.46239],[74.13323,27.46206],[74.13726,27.46061],[74.14009,27.45434],[74.14976,27.4408],[74.15005,27.43314],[74.14458,27.42904],[74.14139,27.42831],[74.14317,27.4225],[74.15024,27.41642],[74.15411,27.41056],[74.15968,27.41203],[74.16476,27.41484],[74.1749,27.41885],[74.18149,27.42279],[74.19111,27.42424],[74.20192,27.42305],[74.20467,27.42378],[74.20357,27.43171],[74.20309,27.45469],[74.20655,27.4628],[74.21223,27.46851],[74.21081,27.46877],[74.20764,27.47016],[74.20646,27.47528],[74.19696,27.47738],[74.19296,27.48056],[74.19351,27.48754],[74.1964,27.4955],[74.206,27.50608],[74.21872,27.51198],[74.23866,27.52644],[74.24073,27.53801],[74.24364,27.5439],[74.24886,27.55152],[74.24864,27.55819],[74.25751,27.56306],[74.2583,27.57078],[74.25817,27.59192],[74.25727,27.6023],[74.26568,27.60679],[74.27593,27.61027],[74.27849,27.61911],[74.28197,27.6236],[74.28861,27.62823],[74.29699,27.63094],[74.31319,27.63419],[74.30913,27.64822],[74.31989,27.65156],[74.32588,27.65576],[74.33349,27.65804],[74.33454,27.67287],[74.34122,27.67341],[74.34377,27.67938],[74.37194,27.68253],[74.37901,27.68684],[74.389,27.68982],[74.39815,27.6961],[74.4016,27.69788],[74.40625,27.69238],[74.40971,27.68629],[74.41951,27.68812],[74.43252,27.68866],[74.44207,27.69159],[74.44624,27.69029],[74.45085,27.69116],[74.4557,27.68955],[74.4566,27.68514],[74.46025,27.68347],[74.46418,27.67892],[74.47139,27.68224],[74.47877,27.68275],[74.48725,27.68475],[74.49156,27.68495],[74.49398,27.67713],[74.49556,27.66563],[74.50217,27.66497],[74.52559,27.67463],[74.53631,27.6671],[74.53878,27.66354],[74.54838,27.66192],[74.55953,27.66643],[74.57297,27.67673],[74.5847,27.68931],[74.60638,27.70496],[74.61093,27.70595],[74.61472,27.70123],[74.61976,27.6984],[74.62651,27.69783],[74.62554,27.69219],[74.61965,27.6864],[74.61213,27.68349],[74.60789,27.67916],[74.60679,27.67634],[74.61241,27.66722]]]}}]}