{"type":"FeatureCollection","features":[{"type":"Feature","properties":{"id":"pratapgarh","name":"Pratapgarh","stateId":"rajasthan","stateName":"Rajasthan","censuscode":131,"type":"district"},"geometry":{"type":"Polygon","coordinates":[[[74.77336,23.54043],[74.77451,23.5504],[74.76887,23.5622],[74.76672,23.56928],[74.7685,23.57572],[74.77308,23.58329],[74.77295,23.58874],[74.76108,23.60277],[74.75506,23.60795],[74.74769,23.61279],[74.73527,23.6144],[74.72758,23.61205],[74.72155,23.61468],[74.71262,23.62403],[74.7042,23.63283],[74.69787,23.64463],[74.69661,23.65173],[74.67232,23.66556],[74.66784,23.66705],[74.66485,23.66668],[74.66148,23.66444],[74.65868,23.66145],[74.65681,23.65808],[74.65475,23.65472],[74.65345,23.65117],[74.65083,23.64612],[74.64709,23.64183],[74.64298,23.64052],[74.63588,23.64332],[74.62859,23.64687],[74.61944,23.64482],[74.61215,23.63884],[74.60935,23.63641],[74.60168,23.63417],[74.59869,23.63043],[74.59234,23.62762],[74.58617,23.62669],[74.57478,23.62912],[74.5688,23.62893],[74.56263,23.62538],[74.55198,23.61922],[74.55124,23.61916],[74.55131,23.61978],[74.54872,23.62264],[74.54566,23.62825],[74.54326,23.6318],[74.54089,23.63432],[74.5285,23.63387],[74.52046,23.63722],[74.51914,23.64185],[74.52106,23.64972],[74.52901,23.66196],[74.53249,23.67299],[74.5323,23.67767],[74.53043,23.68176],[74.53158,23.69479],[74.53144,23.6979],[74.53137,23.71297],[74.52686,23.72632],[74.52558,23.72992],[74.52822,23.73417],[74.53327,23.73487],[74.54231,23.73467],[74.55133,23.73499],[74.55515,23.73825],[74.55666,23.74246],[74.55536,23.74657],[74.55458,23.75174],[74.55319,23.75793],[74.55464,23.7637],[74.55373,23.77198],[74.55583,23.77569],[74.55841,23.7815],[74.55757,23.78823],[74.55503,23.79489],[74.55526,23.8027],[74.56053,23.81172],[74.55851,23.81944],[74.55146,23.82595],[74.54233,23.82822],[74.52822,23.82772],[74.51839,23.83308],[74.51416,23.83969],[74.5134,23.84434],[74.51658,23.84913],[74.52522,23.85879],[74.52721,23.8651],[74.52877,23.87139],[74.52759,23.87379],[74.52623,23.88267],[74.52038,23.88691],[74.49793,23.89485],[74.49327,23.90164],[74.49053,23.90931],[74.48508,23.91988],[74.47984,23.92412],[74.47136,23.92442],[74.4608,23.92287],[74.45099,23.91981],[74.43964,23.90891],[74.43404,23.90608],[74.42542,23.9065],[74.41998,23.90779],[74.41322,23.90698],[74.40743,23.90356],[74.40023,23.90189],[74.39026,23.90381],[74.38407,23.90579],[74.38311,23.9091],[74.37303,23.92337],[74.36688,23.93348],[74.36044,23.93499],[74.33473,23.93814],[74.32615,23.93635],[74.32475,23.93738],[74.32565,23.9461],[74.33539,23.96529],[74.33823,23.97594],[74.33704,23.98392],[74.32489,23.99405],[74.33245,23.99792],[74.3362,24.00183],[74.33711,24.00833],[74.33779,24.00919],[74.32733,24.01366],[74.30551,24.03271],[74.29724,24.03666],[74.29634,24.04304],[74.29761,24.04943],[74.29926,24.06419],[74.30142,24.067],[74.30444,24.071],[74.30748,24.07101],[74.31271,24.06745],[74.31627,24.0527],[74.32194,24.04794],[74.32802,24.04797],[74.33448,24.05837],[74.33923,24.06357],[74.34616,24.06879],[74.34614,24.07198],[74.34395,24.07556],[74.34262,24.08114],[74.34391,24.08394],[74.34781,24.08515],[74.35995,24.09159],[74.36299,24.0916],[74.36518,24.08802],[74.3652,24.08443],[74.36954,24.08405],[74.37565,24.07968],[74.3796,24.07092],[74.37899,24.06689],[74.37962,24.06693],[74.38741,24.07335],[74.39001,24.07376],[74.3961,24.07378],[74.39828,24.071],[74.40395,24.06743],[74.4096,24.06665],[74.41829,24.06669],[74.42219,24.0675],[74.42347,24.07229],[74.42433,24.07469],[74.42823,24.0775],[74.43516,24.08191],[74.43778,24.08433],[74.43712,24.08501],[74.43525,24.09447],[74.43807,24.09621],[74.43329,24.11091],[74.43233,24.11481],[74.43233,24.11567],[74.4276,24.11825],[74.42335,24.11867],[74.42142,24.12732],[74.41833,24.1302],[74.41305,24.13688],[74.40754,24.13685],[74.40361,24.14083],[74.40054,24.1456],[74.39445,24.14717],[74.39009,24.14915],[74.38529,24.15272],[74.38006,24.15629],[74.37394,24.16185],[74.36432,24.17298],[74.35907,24.18054],[74.35988,24.19291],[74.3698,24.2093],[74.37714,24.2209],[74.38359,24.23529],[74.38525,24.25125],[74.38696,24.25804],[74.39216,24.26324],[74.39387,24.26844],[74.39382,24.28],[74.39119,24.28478],[74.39291,24.28918],[74.39637,24.29318],[74.39766,24.29598],[74.39789,24.30346],[74.41469,24.29211],[74.41532,24.27757],[74.41673,24.24487],[74.43882,24.23498],[74.46817,24.22182],[74.46907,24.23732],[74.47644,24.23937],[74.47642,24.24411],[74.47786,24.25291],[74.48226,24.26105],[74.48594,24.26377],[74.49477,24.27056],[74.4999,24.28006],[74.50137,24.28142],[74.50654,24.28076],[74.5106,24.27922],[74.5117,24.28434],[74.51167,24.29002],[74.51232,24.29271],[74.51296,24.29541],[74.51523,24.29841],[74.51816,24.30141],[74.51912,24.3053],[74.52074,24.3083],[74.52072,24.31518],[74.5158,24.32175],[74.51252,24.32533],[74.51185,24.32832],[74.51248,24.3349],[74.51507,24.34149],[74.51505,24.34568],[74.51405,24.35076],[74.51011,24.35793],[74.50683,24.36031],[74.50354,24.36658],[74.50352,24.37257],[74.50578,24.37826],[74.51327,24.38516],[74.51815,24.38996],[74.52793,24.39628],[74.5364,24.40169],[74.5429,24.41128],[74.54549,24.41817],[74.54677,24.42655],[74.54707,24.43313],[74.54639,24.44061],[74.5447,24.45586],[74.54468,24.46245],[74.54629,24.46754],[74.54266,24.47859],[74.55378,24.47623],[74.56391,24.47716],[74.56879,24.48286],[74.57694,24.49066],[74.58445,24.49337],[74.59099,24.49309],[74.59983,24.48863],[74.60442,24.48505],[74.60672,24.48207],[74.60738,24.47818],[74.61099,24.4749],[74.61621,24.47641],[74.6198,24.47911],[74.63318,24.48632],[74.63448,24.48902],[74.63906,24.48903],[74.64495,24.48814],[74.64854,24.49025],[74.65148,24.49175],[74.65671,24.49086],[74.66227,24.48848],[74.67339,24.48761],[74.68091,24.48912],[74.69136,24.49214],[74.70213,24.49844],[74.70703,24.50114],[74.71357,24.50615],[74.71603,24.50523],[74.72419,24.50738],[74.72769,24.50775],[74.73133,24.507],[74.73555,24.50059],[74.75117,24.48895],[74.75785,24.48576],[74.76136,24.48551],[74.76676,24.48758],[74.77385,24.48203],[74.77957,24.48029],[74.78211,24.48178],[74.78555,24.4868],[74.79251,24.49016],[74.79658,24.49014],[74.80228,24.48896],[74.80866,24.48992],[74.81148,24.48888],[74.81517,24.48908],[74.81751,24.48803],[74.82306,24.48466],[74.82306,24.48466],[74.82486,24.48041],[74.82536,24.47609],[74.82075,24.46977],[74.81889,24.45882],[74.83443,24.45727],[74.83718,24.46223],[74.84154,24.46407],[74.84524,24.46275],[74.85005,24.46347],[74.85139,24.46566],[74.85482,24.46703],[74.85886,24.46415],[74.85766,24.46011],[74.85889,24.45237],[74.8582,24.44833],[74.85459,24.44634],[74.84841,24.4404],[74.84652,24.43757],[74.83578,24.42638],[74.82761,24.42047],[74.82782,24.41369],[74.82782,24.41369],[74.82697,24.40756],[74.82581,24.4052],[74.81533,24.40757],[74.81285,24.40604],[74.80592,24.39235],[74.80277,24.38425],[74.79881,24.38106],[74.79361,24.37306],[74.78879,24.36869],[74.78742,24.36857],[74.78504,24.36428],[74.7821,24.35529],[74.78316,24.35159],[74.78661,24.34573],[74.78674,24.3408],[74.78417,24.33303],[74.78352,24.31637],[74.78402,24.31688],[74.78518,24.31807],[74.78399,24.31373],[74.76735,24.30142],[74.75772,24.29319],[74.75326,24.28637],[74.75304,24.27964],[74.75503,24.27595],[74.76373,24.27181],[74.76673,24.27039],[74.7728,24.26893],[74.77998,24.26956],[74.7906,24.26881],[74.7906,24.26881],[74.81552,24.27392],[74.82002,24.27317],[74.82618,24.27019],[74.83307,24.26846],[74.83932,24.26812],[74.84433,24.26704],[74.85377,24.26684],[74.85704,24.26906],[74.86022,24.26985],[74.86239,24.27039],[74.86303,24.27055],[74.8645,24.27081],[74.8645,24.27081],[74.87021,24.27755],[74.87593,24.27486],[74.88584,24.26557],[74.88957,24.26366],[74.89482,24.25849],[74.89751,24.24599],[74.90457,24.2427],[74.90507,24.24249],[74.90598,24.24212],[74.90779,24.23762],[74.90636,24.23054],[74.90321,24.22783],[74.89872,24.2259],[74.89018,24.22372],[74.88717,24.22176],[74.8806,24.21332],[74.88154,24.21035],[74.89771,24.18388],[74.89809,24.1792],[74.89989,24.17527],[74.90075,24.17113],[74.90075,24.17113],[74.92064,24.15966],[74.92191,24.15707],[74.92795,24.15396],[74.92395,24.14609],[74.92509,24.14204],[74.93711,24.13578],[74.93941,24.12468],[74.9366,24.12057],[74.93957,24.1179],[74.95533,24.10883],[74.95997,24.10687],[74.96135,24.10228],[74.96121,24.09094],[74.9623,24.08642],[74.96559,24.0795],[74.97201,24.07464],[74.97672,24.07278],[74.97986,24.06879],[74.98164,24.03781],[74.99081,24.0302],[74.99341,24.02647],[74.99279,24.02],[74.9882,24.01111],[74.98018,24.00668],[74.97258,24.00042],[74.97325,23.98784],[74.96899,23.97653],[74.96365,23.97048],[74.94169,23.95736],[74.93782,23.95292],[74.9317,23.94367],[74.93131,23.94176],[74.93003,23.93782],[74.92448,23.93547],[74.92147,23.93258],[74.92377,23.92613],[74.92353,23.92178],[74.91756,23.91444],[74.91472,23.90935],[74.91395,23.90024],[74.91057,23.8854],[74.90729,23.87364],[74.90571,23.87081],[74.90522,23.86501],[74.9069,23.85328],[74.91026,23.84903],[74.91315,23.84676],[74.91583,23.84257],[74.91327,23.83353],[74.91189,23.80952],[74.91029,23.79775],[74.91498,23.7961],[74.92761,23.79523],[74.92992,23.7911],[74.93785,23.7736],[74.93946,23.76756],[74.9399,23.76274],[74.93184,23.75501],[74.93188,23.75332],[74.93805,23.73978],[74.94051,23.73177],[74.9319,23.72525],[74.92413,23.71607],[74.92277,23.71079],[74.9229,23.69351],[74.91729,23.68907],[74.91026,23.68492],[74.90741,23.67977],[74.90971,23.67385],[74.92404,23.66543],[74.92821,23.6501],[74.93044,23.64516],[74.9388,23.64012],[74.94016,23.63385],[74.93954,23.6273],[74.92765,23.62132],[74.9217,23.61927],[74.90929,23.62113],[74.90575,23.61992],[74.89773,23.60917],[74.88573,23.60342],[74.88459,23.6003],[74.87901,23.59296],[74.87696,23.5914],[74.87419,23.58712],[74.87462,23.58056],[74.87223,23.57523],[74.86892,23.57182],[74.86129,23.56937],[74.85854,23.56653],[74.85101,23.55444],[74.84491,23.55123],[74.83705,23.55027],[74.82954,23.54659],[74.81864,23.53788],[74.81518,23.5367],[74.8117,23.53552],[74.80227,23.53115],[74.79812,23.53755],[74.79571,23.54336],[74.79146,23.54575],[74.78435,23.54514],[74.77336,23.54043]]]}}]}