{"type":"FeatureCollection","features":[{"type":"Feature","properties":{"id":"sawai-madhopur","name":"Sawai Madhopur","stateId":"rajasthan","stateName":"Rajasthan","censuscode":108,"type":"district"},"geometry":{"type":"Polygon","coordinates":[[[76.58202,26.6698],[76.58335,26.66977],[76.58428,26.67001],[76.58462,26.67024],[76.58535,26.67074],[76.58886,26.67372],[76.58946,26.67418],[76.59018,26.67475],[76.59204,26.67583],[76.59569,26.6775],[76.59676,26.67767],[76.59778,26.67784],[76.59904,26.67806],[76.603,26.67694],[76.60643,26.67337],[76.60682,26.67289],[76.6097,26.66918],[76.61295,26.66591],[76.6142,26.66465],[76.61614,26.66273],[76.61858,26.66031],[76.61888,26.66005],[76.61912,26.65984],[76.62121,26.65777],[76.62311,26.65587],[76.62388,26.6552],[76.62391,26.65517],[76.62695,26.65231],[76.63213,26.64603],[76.63371,26.64379],[76.63448,26.6427],[76.63711,26.63937],[76.63797,26.63829],[76.64252,26.6302],[76.64455,26.6277],[76.64802,26.62343],[76.65242,26.62051],[76.65264,26.62036],[76.65377,26.62005],[76.65892,26.61593],[76.65942,26.61389],[76.66015,26.61089],[76.65994,26.60662],[76.65989,26.6057],[76.65984,26.60218],[76.66052,26.59748],[76.66194,26.59536],[76.66289,26.59394],[76.66882,26.59101],[76.67725,26.58788],[76.68085,26.58689],[76.68282,26.5863],[76.68463,26.58575],[76.68464,26.58575],[76.68931,26.58496],[76.69261,26.5844],[76.69369,26.5843],[76.69817,26.58388],[76.69821,26.58388],[76.70068,26.58406],[76.70228,26.58417],[76.70332,26.5848],[76.7069,26.58697],[76.71421,26.59111],[76.71594,26.59184],[76.71792,26.59267],[76.7225,26.59284],[76.72782,26.59129],[76.73413,26.5879],[76.73689,26.58469],[76.73718,26.58398],[76.74005,26.58257],[76.74101,26.58184],[76.74491,26.57819],[76.74703,26.57539],[76.74815,26.57299],[76.74907,26.57156],[76.74953,26.57086],[76.75,26.57016],[76.75243,26.56843],[76.75428,26.56752],[76.75566,26.5668],[76.75812,26.5667],[76.75935,26.56776],[76.76171,26.56764],[76.76235,26.5673],[76.76275,26.56738],[76.76308,26.56778],[76.76449,26.569],[76.76504,26.56957],[76.76636,26.57085],[76.76709,26.57142],[76.76829,26.57243],[76.7689,26.5732],[76.77092,26.57481],[76.77185,26.57547],[76.77366,26.57677],[76.77531,26.57805],[76.77616,26.57868],[76.77676,26.57913],[76.77747,26.58001],[76.77864,26.58118],[76.77904,26.5816],[76.78038,26.5824],[76.78084,26.58375],[76.78043,26.58455],[76.77997,26.58688],[76.78006,26.58779],[76.78017,26.58866],[76.78057,26.5904],[76.7809,26.59258],[76.78094,26.59381],[76.78665,26.59791],[76.78797,26.59796],[76.78993,26.59794],[76.79092,26.59777],[76.79179,26.59762],[76.79285,26.59745],[76.79334,26.59735],[76.79557,26.59949],[76.79609,26.60096],[76.79683,26.60211],[76.79754,26.60317],[76.79918,26.60489],[76.80047,26.60608],[76.80216,26.60776],[76.80385,26.60939],[76.80562,26.61124],[76.80724,26.61292],[76.80823,26.61431],[76.80887,26.61529],[76.81135,26.61804],[76.81245,26.61957],[76.81419,26.62149],[76.81573,26.62292],[76.81734,26.6246],[76.8176,26.62488],[76.81815,26.62545],[76.81912,26.62649],[76.82093,26.62843],[76.82101,26.62852],[76.82234,26.63011],[76.82645,26.6359],[76.82781,26.63874],[76.82876,26.64031],[76.83006,26.64203],[76.83168,26.6442],[76.83251,26.64622],[76.83303,26.64929],[76.83321,26.651],[76.83327,26.65147],[76.83399,26.65146],[76.83637,26.65081],[76.83979,26.65052],[76.84223,26.65035],[76.844,26.65008],[76.8447,26.64998],[76.84825,26.64951],[76.85063,26.64912],[76.86036,26.65367],[76.86122,26.65442],[76.86361,26.65577],[76.86414,26.65612],[76.86587,26.65724],[76.86867,26.65837],[76.8708,26.65914],[76.87184,26.65983],[76.87216,26.66083],[76.87901,26.66762],[76.87976,26.66768],[76.88014,26.66798],[76.88429,26.66987],[76.88616,26.66954],[76.88637,26.6695],[76.88934,26.66897],[76.89272,26.67203],[76.89372,26.67487],[76.89423,26.67554],[76.8961,26.67606],[76.89715,26.67612],[76.9,26.6764],[76.90048,26.67645],[76.9026,26.67693],[76.90462,26.67793],[76.90521,26.67833],[76.90606,26.67852],[76.90783,26.67867],[76.90838,26.67877],[76.91136,26.68019],[76.91259,26.68075],[76.91333,26.68111],[76.91541,26.68204],[76.91716,26.68248],[76.91813,26.6826],[76.91875,26.68249],[76.91975,26.68147],[76.92168,26.68035],[76.92475,26.67946],[76.9259,26.67855],[76.93334,26.67554],[76.93494,26.67558],[76.93658,26.67544],[76.93809,26.67507],[76.9393,26.67424],[76.93986,26.67386],[76.94583,26.671],[76.94815,26.67117],[76.94944,26.6712],[76.95128,26.67106],[76.95261,26.67053],[76.95367,26.66857],[76.95352,26.66701],[76.95336,26.66483],[76.95325,26.6628],[76.95336,26.66027],[76.95433,26.65637],[76.95454,26.6555],[76.95468,26.65494],[76.95498,26.65338],[76.95498,26.65208],[76.9575,26.64655],[76.95781,26.64584],[76.95969,26.64039],[76.95992,26.63956],[76.96027,26.63804],[76.9629,26.63448],[76.96275,26.63292],[76.96258,26.63205],[76.96218,26.63045],[76.96711,26.62386],[76.96907,26.62368],[76.9695,26.62366],[76.9704,26.62364],[76.97052,26.62328],[76.97097,26.62166],[76.97125,26.6207],[76.9723,26.61986],[76.97378,26.61928],[76.97678,26.61571],[76.97725,26.61387],[76.97794,26.61333],[76.9792,26.61278],[76.98038,26.61207],[76.98097,26.6116],[76.98126,26.61112],[76.98147,26.60992],[76.98146,26.60978],[76.98092,26.60858],[76.98117,26.60438],[76.98229,26.6039],[76.98271,26.60291],[76.98132,26.60159],[76.97906,26.59847],[76.97922,26.59773],[76.97912,26.5974],[76.97856,26.59667],[76.97775,26.59601],[76.9766,26.5956],[76.97592,26.59541],[76.97361,26.59441],[76.9715,26.59332],[76.97088,26.59308],[76.96922,26.59233],[76.9681,26.59167],[76.96711,26.59102],[76.96645,26.59068],[76.96606,26.59059],[76.96463,26.59026],[76.96388,26.59],[76.9632,26.58976],[76.96146,26.58959],[76.95984,26.58939],[76.95887,26.58929],[76.95659,26.58767],[76.95648,26.58751],[76.95608,26.58745],[76.95526,26.58744],[76.95379,26.5873],[76.9525,26.5875],[76.95116,26.58756],[76.94947,26.58752],[76.94801,26.58754],[76.9461,26.58768],[76.94545,26.58779],[76.94349,26.58814],[76.9387,26.58539],[76.9383,26.58383],[76.93775,26.58217],[76.93729,26.58087],[76.93728,26.58084],[76.9369,26.57904],[76.93682,26.57791],[76.93677,26.57723],[76.93677,26.57721],[76.93685,26.57582],[76.93687,26.5742],[76.9371,26.57352],[76.93816,26.57293],[76.9395,26.57264],[76.94101,26.57226],[76.94249,26.57184],[76.94442,26.57135],[76.94673,26.57085],[76.94938,26.57052],[76.95064,26.57023],[76.95168,26.56986],[76.95242,26.56954],[76.9533,26.56899],[76.95382,26.56878],[76.95493,26.56861],[76.95643,26.56879],[76.9589,26.56918],[76.96161,26.56973],[76.96324,26.57019],[76.96439,26.57082],[76.96543,26.57147],[76.96589,26.57182],[76.96666,26.57207],[76.96738,26.57203],[76.96942,26.56927],[76.96946,26.56825],[76.96943,26.56668],[76.9695,26.56528],[76.96986,26.56413],[76.97045,26.56229],[76.97082,26.56159],[76.97148,26.56036],[76.97193,26.55991],[76.97214,26.5597],[76.97249,26.55953],[76.97344,26.55688],[76.973,26.55443],[76.97204,26.55187],[76.97173,26.5511],[76.9712,26.55063],[76.97022,26.55025],[76.96849,26.54967],[76.9682,26.54958],[76.96731,26.54927],[76.96589,26.5488],[76.96309,26.54803],[76.96065,26.54641],[76.96017,26.54591],[76.9599,26.54564],[76.95929,26.54509],[76.95876,26.54483],[76.95695,26.54352],[76.95633,26.54326],[76.95576,26.54314],[76.95531,26.54311],[76.95067,26.54147],[76.95017,26.54126],[76.94967,26.54115],[76.94935,26.54109],[76.94845,26.54126],[76.94575,26.54161],[76.94493,26.54157],[76.94441,26.54165],[76.944,26.54174],[76.94302,26.54192],[76.94288,26.54193],[76.94271,26.54225],[76.94264,26.54261],[76.94258,26.54332],[76.93813,26.54719],[76.93593,26.54793],[76.93467,26.54853],[76.93194,26.55015],[76.92941,26.55057],[76.92857,26.55062],[76.92822,26.55085],[76.92719,26.55149],[76.92524,26.55241],[76.92401,26.55303],[76.92303,26.55351],[76.91991,26.55508],[76.91791,26.55605],[76.91692,26.55668],[76.91569,26.55735],[76.91525,26.55756],[76.91498,26.55761],[76.91478,26.55765],[76.91433,26.55762],[76.91405,26.55735],[76.91301,26.55712],[76.91209,26.55733],[76.91152,26.55754],[76.9107,26.55762],[76.91048,26.55742],[76.91038,26.55729],[76.91005,26.55569],[76.90969,26.55393],[76.90959,26.55346],[76.90942,26.5509],[76.90934,26.54954],[76.90907,26.54807],[76.90896,26.54709],[76.9088,26.54531],[76.9086,26.54343],[76.90863,26.54261],[76.90872,26.54196],[76.90888,26.54134],[76.90908,26.54069],[76.90908,26.53979],[76.90897,26.53895],[76.90844,26.53726],[76.90815,26.53599],[76.90783,26.53488],[76.90766,26.53367],[76.90766,26.53366],[76.90761,26.53276],[76.9076,26.53253],[76.90762,26.53208],[76.90766,26.53161],[76.90765,26.5316],[76.90772,26.5312],[76.90758,26.53024],[76.9074,26.52939],[76.90678,26.52835],[76.90669,26.52821],[76.9064,26.52773],[76.90627,26.52735],[76.90624,26.52636],[76.90625,26.52626],[76.90651,26.52545],[76.90653,26.52494],[76.90656,26.52411],[76.90642,26.52303],[76.90581,26.52236],[76.90521,26.52188],[76.9049,26.52164],[76.90366,26.52113],[76.90278,26.52093],[76.90195,26.52071],[76.90166,26.52063],[76.89989,26.52039],[76.89923,26.52023],[76.89874,26.52011],[76.89727,26.51989],[76.89582,26.51936],[76.89555,26.51917],[76.89508,26.51896],[76.89457,26.51872],[76.89387,26.5183],[76.89357,26.51817],[76.89322,26.51802],[76.89243,26.51798],[76.89027,26.51795],[76.88746,26.51631],[76.88665,26.51552],[76.8854,26.51473],[76.88414,26.5141],[76.88354,26.51377],[76.88178,26.5135],[76.87984,26.5134],[76.87838,26.51315],[76.87638,26.51116],[76.87582,26.51037],[76.87532,26.50971],[76.87417,26.50927],[76.87255,26.50921],[76.87198,26.50914],[76.87084,26.50877],[76.86999,26.50815],[76.8683,26.50576],[76.86784,26.50373],[76.86762,26.50274],[76.86725,26.5019],[76.86706,26.50166],[76.86638,26.5014],[76.86553,26.50137],[76.86482,26.50135],[76.86251,26.50136],[76.86102,26.50169],[76.86035,26.50161],[76.85963,26.50153],[76.85872,26.50081],[76.85831,26.50005],[76.85796,26.49938],[76.85685,26.49833],[76.85677,26.49825],[76.85529,26.49742],[76.85409,26.49597],[76.8534,26.49522],[76.85276,26.4942],[76.8521,26.49359],[76.85105,26.49343],[76.84871,26.49233],[76.84806,26.49173],[76.84662,26.4902],[76.84568,26.48859],[76.84506,26.4879],[76.84426,26.48657],[76.84336,26.48623],[76.84188,26.48612],[76.84037,26.48549],[76.84003,26.48482],[76.83946,26.48374],[76.8388,26.48312],[76.83792,26.48291],[76.83725,26.48257],[76.83584,26.48214],[76.8349,26.48181],[76.83434,26.48162],[76.83333,26.48097],[76.83302,26.48073],[76.832,26.47974],[76.83145,26.47887],[76.82749,26.47889],[76.82603,26.48007],[76.82481,26.48088],[76.82348,26.48195],[76.82152,26.48291],[76.81948,26.48379],[76.81784,26.48445],[76.81712,26.48462],[76.81635,26.48481],[76.81492,26.48499],[76.81336,26.48477],[76.81188,26.48439],[76.80976,26.48411],[76.80623,26.483],[76.80484,26.48252],[76.80433,26.48234],[76.80296,26.48182],[76.80109,26.48055],[76.80009,26.47941],[76.79746,26.47758],[76.79667,26.47697],[76.79616,26.47657],[76.79505,26.47574],[76.79273,26.47386],[76.79254,26.47372],[76.79179,26.47322],[76.79125,26.47287],[76.79035,26.4723],[76.78959,26.47168],[76.78871,26.47099],[76.78734,26.4697],[76.78666,26.46898],[76.78541,26.46855],[76.78449,26.46848],[76.78388,26.46844],[76.78304,26.46825],[76.78257,26.4682],[76.7812,26.46807],[76.78034,26.46689],[76.77991,26.46642],[76.77925,26.46515],[76.77837,26.46407],[76.77735,26.46312],[76.77684,26.46265],[76.77574,26.46148],[76.77572,26.45751],[76.77695,26.45701],[76.77715,26.45693],[76.77942,26.45574],[76.78191,26.45425],[76.7826,26.45373],[76.78376,26.45251],[76.78483,26.4514],[76.78501,26.45097],[76.78406,26.45013],[76.78289,26.44954],[76.78218,26.44887],[76.78072,26.44827],[76.78029,26.44781],[76.78008,26.44737],[76.78018,26.44607],[76.78068,26.44498],[76.78056,26.44435],[76.77957,26.44191],[76.7787,26.4406],[76.77863,26.4405],[76.77775,26.43958],[76.7771,26.43904],[76.7754,26.43855],[76.77405,26.4382],[76.77276,26.43787],[76.77182,26.43758],[76.76862,26.43669],[76.7674,26.43618],[76.76502,26.43447],[76.76313,26.4331],[76.76223,26.43245],[76.76066,26.43116],[76.75968,26.43076],[76.75899,26.43049],[76.75826,26.4304],[76.75729,26.43028],[76.75573,26.43086],[76.75534,26.43144],[76.75496,26.43219],[76.7546,26.43281],[76.7541,26.43333],[76.75383,26.43399],[76.75271,26.43439],[76.75227,26.4342],[76.75134,26.43301],[76.75106,26.4326],[76.75073,26.43195],[76.75056,26.43139],[76.75,26.42877],[76.74877,26.42766],[76.74824,26.42746],[76.74714,26.42756],[76.74011,26.42562],[76.73814,26.4244],[76.7342,26.42198],[76.733,26.42039],[76.73153,26.41618],[76.73139,26.41561],[76.73109,26.41536],[76.73022,26.41506],[76.72543,26.41525],[76.72411,26.41531],[76.72274,26.41505],[76.72012,26.4141],[76.71837,26.41266],[76.71673,26.41178],[76.71259,26.40836],[76.71213,26.40772],[76.71001,26.40513],[76.70918,26.40479],[76.70653,26.40357],[76.70408,26.40245],[76.7014,26.40129],[76.69965,26.39992],[76.69745,26.39806],[76.69688,26.39753],[76.69635,26.39705],[76.69477,26.39566],[76.69341,26.39502],[76.69166,26.39455],[76.6906,26.39416],[76.6898,26.39387],[76.68848,26.39356],[76.68809,26.39356],[76.68661,26.39297],[76.68551,26.3916],[76.6839,26.38934],[76.68157,26.38626],[76.68133,26.38053],[76.6821,26.37938],[76.68263,26.37824],[76.68267,26.37815],[76.68284,26.37687],[76.68398,26.37428],[76.68559,26.37167],[76.6858,26.37151],[76.68638,26.37027],[76.68777,26.36918],[76.68812,26.369],[76.688,26.36767],[76.68759,26.36723],[76.68582,26.3639],[76.68533,26.36323],[76.68291,26.35988],[76.68274,26.35953],[76.68266,26.35943],[76.67952,26.35528],[76.67951,26.35526],[76.67763,26.3522],[76.67689,26.35099],[76.67573,26.34967],[76.6753,26.3496],[76.675,26.34956],[76.67273,26.34957],[76.67211,26.34929],[76.67134,26.34875],[76.66769,26.34971],[76.66499,26.35083],[76.66201,26.35022],[76.66126,26.34975],[76.65919,26.34893],[76.65517,26.34851],[76.65452,26.34842],[76.65246,26.34814],[76.65245,26.34814],[76.6507,26.34757],[76.64964,26.34722],[76.6484,26.34659],[76.64602,26.34537],[76.64543,26.34494],[76.63879,26.34085],[76.63617,26.33806],[76.63482,26.33661],[76.63251,26.33237],[76.63046,26.32924],[76.63041,26.32897],[76.6303,26.32831],[76.63087,26.32648],[76.63098,26.32472],[76.63136,26.32394],[76.63186,26.3221],[76.63211,26.32103],[76.63232,26.31784],[76.63091,26.31698],[76.62993,26.31709],[76.62748,26.3156],[76.62722,26.31502],[76.62681,26.3148],[76.62542,26.31477],[76.62522,26.31486],[76.62459,26.31523],[76.62444,26.31572],[76.6244,26.31658],[76.62517,26.3198],[76.62534,26.32344],[76.62463,26.32389],[76.62373,26.32412],[76.62183,26.32461],[76.6212,26.32515],[76.62113,26.32529],[76.62077,26.32547],[76.61833,26.326],[76.61648,26.32695],[76.61534,26.32718],[76.61409,26.32743],[76.61202,26.32693],[76.61079,26.32612],[76.60986,26.3258],[76.60903,26.32621],[76.60873,26.32702],[76.60871,26.32997],[76.60775,26.33196],[76.60589,26.33371],[76.60523,26.3344],[76.60404,26.33519],[76.60332,26.33557],[76.60251,26.33552],[76.60135,26.33503],[76.60089,26.33483],[76.5984,26.33376],[76.59612,26.3333],[76.59446,26.33348],[76.59343,26.33347],[76.59183,26.33276],[76.59134,26.33175],[76.58967,26.32857],[76.58869,26.32672],[76.58746,26.32439],[76.58523,26.32082],[76.58535,26.32019],[76.58531,26.31901],[76.5853,26.31869],[76.58561,26.31692],[76.58465,26.31539],[76.58128,26.31425],[76.57646,26.31633],[76.57611,26.31663],[76.57459,26.31726],[76.57378,26.31781],[76.57298,26.31849],[76.57195,26.31847],[76.57123,26.3185],[76.57055,26.31856],[76.56976,26.31858],[76.56792,26.31831],[76.56556,26.31447],[76.56655,26.31018],[76.56724,26.30845],[76.56695,26.30735],[76.56513,26.30587],[76.56533,26.3055],[76.56572,26.30535],[76.56734,26.3048],[76.56795,26.30125],[76.56847,26.30047],[76.57015,26.29902],[76.57049,26.29313],[76.56879,26.29234],[76.56832,26.2917],[76.56811,26.29052],[76.56821,26.28962],[76.56845,26.28908],[76.56902,26.28628],[76.56908,26.28595],[76.56838,26.28222],[76.5668,26.28211],[76.56462,26.28121],[76.56337,26.28063],[76.56181,26.27983],[76.56003,26.27891],[76.55909,26.27845],[76.55849,26.27816],[76.55829,26.27779],[76.55722,26.27441],[76.55543,26.27249],[76.55371,26.26984],[76.55298,26.26824],[76.55251,26.26661],[76.55251,26.2657],[76.55289,26.26465],[76.55341,26.26409],[76.55465,26.26257],[76.55505,26.26235],[76.55581,26.26235],[76.56002,26.26393],[76.56163,26.26491],[76.56404,26.26514],[76.56431,26.26512],[76.56481,26.26521],[76.56594,26.26607],[76.56714,26.26699],[76.5717,26.26789],[76.57223,26.26771],[76.57283,26.26767],[76.57384,26.26778],[76.57515,26.26792],[76.57903,26.26939],[76.58106,26.26991],[76.58416,26.26923],[76.58457,26.26908],[76.58502,26.26907],[76.58917,26.26817],[76.58944,26.26798],[76.59004,26.2679],[76.59092,26.26858],[76.59296,26.2678],[76.5931,26.26699],[76.5954,26.26655],[76.59609,26.26893],[76.59656,26.27075],[76.59991,26.27326],[76.60428,26.27222],[76.60493,26.2703],[76.604,26.26805],[76.60388,26.26446],[76.60405,26.26375],[76.60428,26.26221],[76.60471,26.26103],[76.60543,26.26039],[76.60656,26.25965],[76.60831,26.25739],[76.60846,26.25584],[76.60843,26.25531],[76.60725,26.25207],[76.60702,26.25005],[76.60661,26.24872],[76.60614,26.24761],[76.60561,26.24613],[76.60556,26.246],[76.6051,26.24515],[76.60475,26.2443],[76.6043,26.24364],[76.60378,26.24314],[76.60316,26.24265],[76.60265,26.2422],[76.6005,26.24076],[76.59914,26.23956],[76.59829,26.23901],[76.59784,26.23869],[76.59703,26.23814],[76.59615,26.23745],[76.59512,26.23678],[76.59405,26.23618],[76.59315,26.23554],[76.59151,26.2347],[76.58903,26.23371],[76.58751,26.23323],[76.58691,26.23289],[76.58618,26.2325],[76.58516,26.2319],[76.58454,26.23146],[76.58278,26.22935],[76.58271,26.22865],[76.5827,26.22794],[76.58451,26.22529],[76.58502,26.22514],[76.58568,26.22478],[76.58624,26.22442],[76.58715,26.22143],[76.58585,26.22068],[76.58517,26.22034],[76.58466,26.21994],[76.5841,26.2197],[76.58263,26.21884],[76.58219,26.21854],[76.58162,26.21816],[76.58116,26.21771],[76.58071,26.21736],[76.58037,26.21701],[76.57957,26.21626],[76.579,26.21516],[76.5791,26.21445],[76.57971,26.21424],[76.58233,26.213],[76.58283,26.21269],[76.58422,26.21177],[76.58505,26.21145],[76.58572,26.21119],[76.58673,26.21078],[76.58784,26.21026],[76.58973,26.20941],[76.5907,26.20898],[76.59116,26.20877],[76.59367,26.20784],[76.59461,26.20747],[76.59884,26.20556],[76.5999,26.20479],[76.60207,26.20345],[76.60334,26.20268],[76.60586,26.20109],[76.60668,26.20057],[76.60889,26.19878],[76.61222,26.19647],[76.61661,26.19369],[76.6211,26.19056],[76.62404,26.18831],[76.62482,26.18763],[76.62587,26.18672],[76.62589,26.18671],[76.62762,26.18541],[76.6285,26.18454],[76.62889,26.18418],[76.62933,26.18382],[76.62989,26.18371],[76.63135,26.1838],[76.63247,26.18389],[76.63326,26.1839],[76.63398,26.18392],[76.63433,26.18396],[76.63527,26.18406],[76.63612,26.1841],[76.63746,26.18408],[76.6388,26.18407],[76.64065,26.18394],[76.64238,26.18392],[76.64384,26.18391],[76.6444,26.18388],[76.64518,26.18384],[76.64653,26.18378],[76.64753,26.18376],[76.64781,26.18356],[76.64864,26.1832],[76.64865,26.1832],[76.64977,26.18318],[76.65078,26.18322],[76.65134,26.18322],[76.65184,26.18331],[76.65274,26.18345],[76.65336,26.18345],[76.65442,26.18344],[76.65526,26.18343],[76.65593,26.18326],[76.65671,26.1828],[76.65704,26.18239],[76.65759,26.18158],[76.6578,26.18097],[76.65785,26.18052],[76.6579,26.18006],[76.65856,26.17945],[76.65917,26.17909],[76.65978,26.17858],[76.66,26.17802],[76.66005,26.17751],[76.66026,26.1769],[76.66065,26.17624],[76.66097,26.17563],[76.66136,26.17528],[76.66164,26.17502],[76.66186,26.17471],[76.6623,26.1744],[76.6628,26.17425],[76.6637,26.17409],[76.66387,26.17398],[76.6642,26.17378],[76.6648,26.17301],[76.66518,26.17215],[76.66538,26.17068],[76.66554,26.17011],[76.6656,26.16992],[76.66603,26.16901],[76.66669,26.16784],[76.66729,26.16713],[76.66785,26.16662],[76.66855,26.16613],[76.66905,26.16587],[76.67034,26.1656],[76.67146,26.16554],[76.67229,26.16547],[76.67291,26.16542],[76.67346,26.16546],[76.67414,26.16551],[76.67526,26.16554],[76.67553,26.16559],[76.67627,26.16573],[76.67745,26.16592],[76.67819,26.16622],[76.67881,26.16661],[76.67966,26.16731],[76.67986,26.16748],[76.68028,26.16781],[76.68079,26.16821],[76.68097,26.16831],[76.68147,26.1686],[76.6822,26.16895],[76.68242,26.16902],[76.68316,26.16929],[76.68395,26.16958],[76.68411,26.16963],[76.68451,26.16973],[76.68485,26.16987],[76.68519,26.17028],[76.68548,26.17122],[76.68566,26.17214],[76.6857,26.17232],[76.68584,26.17294],[76.68613,26.1738],[76.68648,26.1745],[76.68677,26.17546],[76.68687,26.17571],[76.68701,26.17611],[76.6873,26.17676],[76.68753,26.17737],[76.68765,26.17762],[76.68816,26.17807],[76.68878,26.17846],[76.68895,26.17871],[76.69005,26.17965],[76.69073,26.1802],[76.69152,26.18044],[76.69264,26.18043],[76.69321,26.18032],[76.69387,26.18021],[76.69442,26.17995],[76.6952,26.17959],[76.69649,26.17962],[76.69722,26.17982],[76.69795,26.18016],[76.69857,26.18041],[76.69919,26.18075],[76.69953,26.18095],[76.70011,26.18105],[76.70066,26.18114],[76.70121,26.18108],[76.70166,26.18103],[76.70273,26.18101],[76.70328,26.18071],[76.70367,26.18024],[76.70393,26.17997],[76.70405,26.17984],[76.70438,26.17918],[76.70419,26.17802],[76.70408,26.17766],[76.70407,26.17721],[76.70429,26.1767],[76.70563,26.17643],[76.70641,26.17653],[76.70748,26.17651],[76.70823,26.17644],[76.7086,26.1764],[76.70904,26.17629],[76.7097,26.17597],[76.70988,26.17588],[76.71032,26.17547],[76.71075,26.17466],[76.71114,26.1741],[76.71169,26.17349],[76.71207,26.17272],[76.71219,26.17198],[76.7124,26.17137],[76.71251,26.17106],[76.71301,26.1705],[76.71362,26.17024],[76.71457,26.17008],[76.71546,26.16994],[76.71597,26.16986],[76.71681,26.1698],[76.71705,26.16974],[76.71748,26.16964],[76.71815,26.16943],[76.71876,26.16902],[76.71947,26.16836],[76.71975,26.16805],[76.71998,26.16783],[76.72008,26.16774],[76.72047,26.16733],[76.72119,26.16682],[76.7217,26.16656],[76.7218,26.16651],[76.7223,26.1661],[76.7225,26.16593],[76.7228,26.16569],[76.72311,26.16529],[76.72329,26.16508],[76.72378,26.16421],[76.72405,26.1637],[76.72444,26.16309],[76.72499,26.16253],[76.72528,26.1624],[76.72566,26.16222],[76.72632,26.16186],[76.72693,26.1612],[76.7272,26.16069],[76.72724,26.15958],[76.72712,26.15892],[76.72683,26.15822],[76.72643,26.15767],[76.72598,26.15722],[76.72552,26.15667],[76.72529,26.15611],[76.72522,26.15546],[76.72538,26.1548],[76.72621,26.15429],[76.72656,26.15418],[76.72688,26.15408],[76.72752,26.154],[76.72777,26.15397],[76.72856,26.1539],[76.72917,26.15385],[76.73012,26.15384],[76.73102,26.15387],[76.73128,26.15389],[76.73164,26.15392],[76.73186,26.15395],[76.73237,26.15401],[76.73273,26.15393],[76.73287,26.1539],[76.73354,26.15349],[76.73398,26.15313],[76.73447,26.15237],[76.73502,26.15196],[76.73581,26.1519],[76.73632,26.15215],[76.73666,26.1527],[76.73667,26.15278],[76.73672,26.15315],[76.73695,26.1538],[76.73721,26.15435],[76.73765,26.15479],[76.73787,26.15495],[76.73855,26.1553],[76.741,26.15436],[76.74109,26.1535],[76.7412,26.15289],[76.74164,26.15228],[76.74252,26.15146],[76.74291,26.15129],[76.74308,26.15121],[76.74387,26.1502],[76.74431,26.14959],[76.74491,26.14883],[76.74529,26.14817],[76.74595,26.147],[76.74688,26.14572],[76.74798,26.1444],[76.74881,26.14343],[76.75,26.1423],[76.75034,26.14162],[76.75063,26.14118],[76.75104,26.14065],[76.75162,26.13999],[76.752,26.13965],[76.75222,26.13945],[76.75315,26.13867],[76.75331,26.13825],[76.75351,26.13768],[76.75399,26.13706],[76.75464,26.13628],[76.75493,26.13569],[76.75496,26.13561],[76.75514,26.13453],[76.7553,26.1342],[76.75593,26.13333],[76.75713,26.13164],[76.75844,26.13012],[76.75874,26.12937],[76.7589,26.12854],[76.75895,26.12831],[76.75911,26.12796],[76.75929,26.12769],[76.76024,26.12725],[76.76071,26.12673],[76.7611,26.12558],[76.76147,26.1253],[76.76193,26.12468],[76.76271,26.12379],[76.76329,26.12332],[76.7636,26.12317],[76.76386,26.12305],[76.76425,26.12266],[76.76436,26.12221],[76.7643,26.12192],[76.76428,26.12177],[76.76393,26.12151],[76.76378,26.12139],[76.76373,26.12088],[76.76372,26.1208],[76.76408,26.12037],[76.76422,26.1202],[76.76512,26.11942],[76.76534,26.11886],[76.76603,26.11754],[76.76734,26.11588],[76.76788,26.11478],[76.76978,26.11201],[76.77036,26.1117],[76.77159,26.11034],[76.7722,26.10951],[76.77355,26.10827],[76.77491,26.10832],[76.77538,26.10818],[76.77573,26.10781],[76.7764,26.10737],[76.77713,26.10627],[76.77768,26.1058],[76.77856,26.10541],[76.78199,26.1054],[76.78304,26.10527],[76.78462,26.10514],[76.78462,26.10514],[76.78463,26.10513],[76.78478,26.10512],[76.78527,26.10508],[76.78578,26.10504],[76.78676,26.10518],[76.78738,26.10471],[76.78829,26.10439],[76.78909,26.10443],[76.78962,26.10462],[76.78981,26.10469],[76.78991,26.10472],[76.78998,26.10475],[76.79,26.10476],[76.79047,26.10493],[76.79116,26.10512],[76.79153,26.10516],[76.79161,26.10517],[76.79208,26.10522],[76.79276,26.10485],[76.7932,26.10391],[76.79365,26.10359],[76.7937,26.10355],[76.79379,26.10348],[76.79384,26.10345],[76.79388,26.10342],[76.79397,26.10335],[76.79402,26.10332],[76.79406,26.10329],[76.79411,26.10325],[76.79415,26.10322],[76.7942,26.10319],[76.79424,26.10316],[76.79429,26.10312],[76.7965,26.10122],[76.79658,26.10115],[76.79662,26.10111],[76.79693,26.10082],[76.7973,26.10046],[76.79738,26.10038],[76.7975,26.10027],[76.79754,26.10023],[76.79758,26.10019],[76.79766,26.10011],[76.79778,26.1],[76.79828,26.09951],[76.79902,26.09878],[76.79906,26.09874],[76.7991,26.0987],[76.79914,26.09866],[76.79918,26.09862],[76.79926,26.09855],[76.7993,26.09851],[76.79934,26.09847],[76.79942,26.09839],[76.79946,26.09835],[76.79954,26.09827],[76.79958,26.09823],[76.79962,26.09819],[76.79966,26.09815],[76.7997,26.09811],[76.79982,26.09799],[76.79986,26.09795],[76.79989,26.09791],[76.80037,26.09744],[76.80079,26.09707],[76.80083,26.09703],[76.80087,26.097],[76.80096,26.09692],[76.801,26.09689],[76.80144,26.0965],[76.80165,26.09598],[76.80189,26.09541],[76.80216,26.09492],[76.80244,26.09442],[76.80254,26.09386],[76.80265,26.09323],[76.80267,26.09267],[76.80267,26.0926],[76.80267,26.09244],[76.80269,26.09184],[76.80273,26.09125],[76.80273,26.09118],[76.80274,26.0911],[76.80278,26.09049],[76.80329,26.08997],[76.80373,26.08899],[76.80458,26.08836],[76.80543,26.08778],[76.80588,26.0871],[76.80619,26.08664],[76.80621,26.0866],[76.80625,26.08655],[76.80628,26.08651],[76.80637,26.08636],[76.80641,26.08631],[76.80645,26.08626],[76.80651,26.08616],[76.80683,26.0857],[76.80703,26.08513],[76.80721,26.08461],[76.8073,26.08408],[76.80733,26.08391],[76.80735,26.08383],[76.80736,26.08376],[76.80737,26.08368],[76.80739,26.0836],[76.80747,26.08311],[76.80746,26.08207],[76.80699,26.08151],[76.80652,26.0809],[76.80648,26.08026],[76.80645,26.07982],[76.80684,26.07904],[76.80768,26.07875],[76.8077,26.07876],[76.80771,26.07875],[76.80875,26.07861],[76.81032,26.0785],[76.81025,26.07762],[76.81007,26.07695],[76.81006,26.07592],[76.81003,26.07585],[76.81002,26.07582],[76.80979,26.07515],[76.8096,26.07436],[76.80957,26.0738],[76.80956,26.0734],[76.8098,26.07257],[76.81066,26.0712],[76.81065,26.07071],[76.81086,26.06999],[76.81137,26.06944],[76.81199,26.06892],[76.81248,26.06896],[76.81257,26.06907],[76.81278,26.06929],[76.81313,26.06963],[76.8134,26.06968],[76.8137,26.06968],[76.81409,26.06964],[76.81472,26.06955],[76.81488,26.06953],[76.81494,26.06945],[76.81502,26.06951],[76.81536,26.06946],[76.81593,26.06941],[76.816,26.0694],[76.81608,26.06939],[76.81616,26.06939],[76.81624,26.06938],[76.81632,26.06937],[76.8164,26.06937],[76.81648,26.06936],[76.81655,26.06935],[76.81714,26.0693],[76.81829,26.06902],[76.81911,26.06893],[76.82075,26.06873],[76.8211,26.06895],[76.82184,26.06971],[76.82242,26.07018],[76.82281,26.07031],[76.82343,26.07056],[76.82393,26.07089],[76.82472,26.07111],[76.82531,26.07125],[76.82553,26.07129],[76.82577,26.07133],[76.82601,26.07144],[76.82634,26.07159],[76.82686,26.07183],[76.82744,26.07175],[76.82787,26.07167],[76.82798,26.07171],[76.82814,26.07178],[76.82859,26.07201],[76.82904,26.07192],[76.82937,26.07158],[76.82951,26.07105],[76.82988,26.07004],[76.82999,26.06972],[76.83003,26.06945],[76.83016,26.06882],[76.83039,26.0683],[76.83043,26.0682],[76.83046,26.06814],[76.83068,26.06764],[76.83074,26.06696],[76.83082,26.06653],[76.83121,26.06642],[76.83175,26.06641],[76.83183,26.06641],[76.83236,26.06639],[76.83271,26.06633],[76.833,26.06627],[76.83327,26.06613],[76.83364,26.06593],[76.83406,26.06559],[76.8343,26.06539],[76.83491,26.06451],[76.83558,26.06387],[76.83599,26.06344],[76.83607,26.06336],[76.83611,26.06332],[76.83615,26.06328],[76.83619,26.06324],[76.83623,26.0632],[76.83627,26.06316],[76.83635,26.06308],[76.83638,26.06304],[76.83646,26.06296],[76.83666,26.06276],[76.83674,26.06268],[76.83678,26.06264],[76.83685,26.06256],[76.83689,26.06252],[76.83693,26.06248],[76.83697,26.06244],[76.83701,26.0624],[76.83709,26.06232],[76.83717,26.06224],[76.83721,26.0622],[76.83725,26.06216],[76.83732,26.06208],[76.8374,26.062],[76.83748,26.06192],[76.83756,26.06184],[76.83767,26.06172],[76.83771,26.06168],[76.83779,26.0616],[76.83821,26.06117],[76.83864,26.06073],[76.83897,26.06039],[76.83901,26.06035],[76.83905,26.06031],[76.83909,26.06027],[76.83916,26.06019],[76.83924,26.06011],[76.83928,26.06007],[76.8396,26.05974],[76.83994,26.05947],[76.83999,26.05943],[76.84007,26.05937],[76.84024,26.05924],[76.84033,26.05917],[76.84042,26.0591],[76.84056,26.05893],[76.8406,26.05889],[76.84064,26.05884],[76.84067,26.0588],[76.84071,26.05876],[76.84074,26.05872],[76.84081,26.05863],[76.84085,26.05858],[76.84089,26.05855],[76.84092,26.0585],[76.84096,26.05846],[76.84103,26.05837],[76.84126,26.0581],[76.84146,26.05776],[76.84152,26.05766],[76.84155,26.0576],[76.84158,26.05754],[76.84167,26.05739],[76.84169,26.05736],[76.84173,26.0573],[76.84178,26.0572],[76.84184,26.05711],[76.84187,26.05705],[76.84206,26.05673],[76.84229,26.05637],[76.84231,26.05633],[76.84234,26.05628],[76.8424,26.05619],[76.84246,26.05609],[76.8425,26.05604],[76.8427,26.05571],[76.84296,26.05524],[76.84301,26.05515],[76.84304,26.05509],[76.84308,26.05503],[76.84309,26.05499],[76.84315,26.0549],[76.84318,26.05484],[76.84321,26.05478],[76.84326,26.05468],[76.84332,26.05459],[76.84335,26.05453],[76.84337,26.05449],[76.84361,26.05404],[76.84393,26.05357],[76.84399,26.05348],[76.84405,26.05339],[76.84409,26.05334],[76.84442,26.05284],[76.84534,26.05223],[76.84548,26.05193],[76.84566,26.05152],[76.84607,26.05125],[76.84653,26.05116],[76.84686,26.0512],[76.84696,26.05129],[76.84716,26.05146],[76.84744,26.05163],[76.84806,26.05153],[76.84871,26.051],[76.84891,26.05083],[76.84954,26.04996],[76.85006,26.04909],[76.85029,26.04831],[76.85041,26.04778],[76.85059,26.04721],[76.85092,26.04698],[76.85141,26.04674],[76.85195,26.04632],[76.85224,26.04582],[76.85216,26.0453],[76.85191,26.04494],[76.85165,26.04455],[76.85172,26.04402],[76.85185,26.04368],[76.85189,26.04359],[76.85196,26.04342],[76.85199,26.04336],[76.85201,26.04329],[76.85204,26.04322],[76.85207,26.04315],[76.85209,26.04308],[76.85212,26.04301],[76.85231,26.04255],[76.85223,26.04196],[76.85222,26.04188],[76.85221,26.04179],[76.85213,26.04123],[76.85177,26.04088],[76.85142,26.04055],[76.85081,26.04027],[76.85071,26.04022],[76.85019,26.03998],[76.84938,26.03966],[76.84891,26.03936],[76.84861,26.03917],[76.8488,26.03821],[76.84914,26.03725],[76.84935,26.03671],[76.84962,26.03602],[76.85029,26.03476],[76.85054,26.03447],[76.84689,26.03262],[76.84413,26.03122],[76.83642,26.02443],[76.84624,26.00612],[76.84303,25.99687],[76.8356,25.99077],[76.82924,25.98757],[76.82581,25.98353],[76.824,25.97913],[76.82482,25.9661],[76.82218,25.96199],[76.8122,25.94785],[76.80067,25.93909],[76.79177,25.93534],[76.78262,25.93427],[76.76648,25.93742],[76.76174,25.93659],[76.75936,25.93454],[76.75863,25.9307],[76.75925,25.92714],[76.76257,25.92324],[76.76858,25.92021],[76.76821,25.91696],[76.7614,25.91113],[76.75123,25.90414],[76.73906,25.89747],[76.72795,25.89524],[76.72022,25.89592],[76.71118,25.8984],[76.70215,25.90205],[76.68975,25.90515],[76.68004,25.90675],[76.66221,25.90577],[76.65177,25.90382],[76.64704,25.90121],[76.64396,25.8965],[76.6412,25.8909],[76.63725,25.87022],[76.63217,25.86584],[76.62208,25.86624],[76.60299,25.87148],[76.59825,25.86917],[76.59078,25.86273],[76.57222,25.8347],[76.55069,25.83759],[76.54062,25.84007],[76.52745,25.83783],[76.51802,25.83793],[76.50696,25.84248],[76.49989,25.84285],[76.49213,25.84115],[76.48671,25.83853],[76.48225,25.83236],[76.48387,25.82672],[76.48818,25.82075],[76.48981,25.81599],[76.48738,25.81039],[76.48261,25.80511],[76.4758,25.79925],[76.471,25.79189],[76.46587,25.78602],[76.45873,25.78016],[76.45328,25.77429],[76.44582,25.76933],[76.43975,25.76791],[76.41919,25.76662],[76.41278,25.76461],[76.40835,25.75962],[76.39918,25.75348],[76.39074,25.7509],[76.38163,25.74919],[76.36875,25.74043],[76.36435,25.73839],[76.35901,25.742],[76.35203,25.75154],[76.34504,25.75871],[76.34042,25.76705],[76.33477,25.77361],[76.33049,25.78313],[76.32824,25.79321],[76.32201,25.80897],[76.32746,25.81797],[76.32449,25.82213],[76.32016,25.82543],[76.31514,25.82695],[76.31044,25.82611],[76.30432,25.82173],[76.30197,25.82086],[76.29965,25.82443],[76.29642,25.83365],[76.29377,25.83574],[76.29005,25.83518],[76.28458,25.82724],[76.28016,25.82401],[76.27546,25.82376],[76.26779,25.82827],[76.25315,25.83876],[76.24423,25.84891],[76.22722,25.85823],[76.22224,25.86213],[76.21968,25.87045],[76.22304,25.89294],[76.22076,25.89858],[76.21892,25.91193],[76.22198,25.91576],[76.23004,25.91658],[76.24041,25.91412],[76.24948,25.91344],[76.25286,25.91637],[76.25157,25.92143],[76.25297,25.9309],[76.24827,25.93539],[76.25259,25.94692],[76.25685,25.96649],[76.25506,25.97633],[76.25556,25.97989],[76.2534,25.98289],[76.24975,25.98173],[76.24733,25.98323],[76.24685,25.98711],[76.25076,26.00192],[76.25011,26.00538],[76.25073,26.00964],[76.2513,26.01279],[76.25112,26.01707],[76.25038,26.01935],[76.24802,26.02135],[76.24343,26.02223],[76.24105,26.02395],[76.23831,26.0254],[76.23565,26.02543],[76.23473,26.02372],[76.2359,26.02027],[76.23468,26.01602],[76.23238,26.01094],[76.22714,26.00877],[76.21696,26.0075],[76.20722,26.00928],[76.19707,26.00859],[76.19677,26.00972],[76.19585,26.01255],[76.19328,26.01341],[76.18999,26.01091],[76.18892,26.00584],[76.18757,26.00231],[76.18237,25.98871],[76.17624,25.98787],[76.16284,25.98974],[76.15637,25.98146],[76.1461,25.9661],[76.14377,25.96493],[76.14274,25.96672],[76.14165,25.97356],[76.13826,25.97597],[76.13214,25.97751],[76.12663,25.98561],[76.11848,25.99524],[76.11213,25.99978],[76.10511,26.00174],[76.09927,26.0008],[76.095,25.99465],[76.09223,25.98846],[76.08699,25.98886],[76.06985,25.99507],[76.07074,26.00297],[76.07202,26.00508],[76.07416,26.00947],[76.07643,26.01343],[76.08037,26.01563],[76.08579,26.01789],[76.08914,26.01973],[76.08981,26.02202],[76.08905,26.02622],[76.09397,26.02961],[76.09623,26.03135],[76.09749,26.03344],[76.09816,26.03664],[76.10044,26.03955],[76.10406,26.03916],[76.10799,26.03824],[76.11171,26.03924],[76.11391,26.04308],[76.11447,26.04811],[76.11561,26.05203],[76.11609,26.05626],[76.11158,26.05716],[76.10637,26.05637],[76.10022,26.05644],[76.09537,26.05651],[76.09357,26.05933],[76.09406,26.06327],[76.09165,26.06697],[76.09078,26.06926],[76.09161,26.07438],[76.09275,26.07924],[76.09681,26.08611],[76.09761,26.09101],[76.09965,26.09532],[76.09886,26.09969],[76.09452,26.10182],[76.09275,26.1048],[76.09382,26.10856],[76.09244,26.11357],[76.08726,26.11723],[76.08268,26.12144],[76.06874,26.13025],[76.06629,26.13333],[76.06521,26.12796],[76.06412,26.12395],[76.06166,26.11901],[76.05585,26.11545],[76.04901,26.11443],[76.04458,26.116],[76.03887,26.11362],[76.03005,26.11014],[76.02211,26.1095],[76.01257,26.11064],[76.00222,26.11413],[76,26.11582],[75.99444,26.11556],[75.99597,26.12868],[75.99999,26.14136],[75.99556,26.15933],[76,26.15974],[76.00109,26.15934],[76.00524,26.16247],[76.00491,26.16716],[76.00311,26.17215],[76.00334,26.17506],[76.00606,26.175],[76.00675,26.17655],[76.00571,26.1805],[76.00362,26.18715],[76.00128,26.1913],[76,26.1921],[75.98891,26.19497],[75.98156,26.19472],[75.98414,26.21049],[75.98802,26.20909],[75.99255,26.22006],[76.00001,26.21912],[76.00353,26.21921],[76.01301,26.21915],[76.02238,26.22035],[76.02836,26.22082],[76.03087,26.2222],[76.03005,26.2325],[76.02955,26.24295],[76.03001,26.25182],[76.03771,26.25065],[76.04656,26.25166],[76.05275,26.24784],[76.05964,26.24406],[76.06763,26.24321],[76.07661,26.24345],[76.08644,26.24216],[76.09423,26.23935],[76.10367,26.23907],[76.10829,26.24218],[76.10935,26.24643],[76.1139,26.24697],[76.11909,26.24749],[76.12338,26.25114],[76.12314,26.2551],[76.11931,26.25798],[76.11645,26.26027],[76.1149,26.26397],[76.11574,26.27388],[76.12,26.27611],[76.1249,26.27833],[76.12597,26.28341],[76.12961,26.28762],[76.13193,26.29043],[76.13587,26.2935],[76.1414,26.29514],[76.14437,26.29794],[76.14543,26.30245],[76.14781,26.30809],[76.14787,26.31148],[76.14663,26.31404],[76.14214,26.31635],[76.14057,26.31864],[76.14125,26.32061],[76.14418,26.32115],[76.14488,26.32369],[76.1417,26.32683],[76.13691,26.33028],[76.13404,26.33285],[76.13313,26.33569],[76.1332,26.33936],[76.13065,26.34165],[76.13071,26.34476],[76.13368,26.34728],[76.13695,26.34866],[76.14279,26.34946],[76.14579,26.35396],[76.14683,26.35734],[76.14657,26.36017],[76.14368,26.36218],[76.13951,26.3642],[76.13568,26.36679],[76.13443,26.36906],[76.1368,26.37441],[76.14014,26.3792],[76.14353,26.38681],[76.14591,26.39188],[76.14896,26.39893],[76.1507,26.40486],[76.15208,26.40909],[76.15313,26.41276],[76.1519,26.41616],[76.14903,26.41846],[76.15201,26.42126],[76.15529,26.42406],[76.15731,26.42773],[76.15746,26.4348],[76.15821,26.44017],[76.15372,26.44219],[76.14889,26.44421],[76.14475,26.44736],[76.14157,26.45079],[76.13945,26.45816],[76.14301,26.45757],[76.14667,26.46263],[76.15099,26.46797],[76.15581,26.46623],[76.15973,26.46761],[76.16435,26.47182],[76.16832,26.47603],[76.1716,26.47798],[76.1806,26.48564],[76.19029,26.48106],[76.20262,26.47843],[76.21006,26.47527],[76.21745,26.47012],[76.22387,26.4647],[76.22969,26.4624],[76.23851,26.46376],[76.24632,26.46315],[76.24948,26.45802],[76.24905,26.45236],[76.24862,26.44727],[76.25045,26.44074],[76.25662,26.44014],[76.26486,26.44461],[76.27725,26.44511],[76.28378,26.44648],[76.28973,26.4504],[76.29304,26.45321],[76.29889,26.4526],[76.30673,26.45339],[76.31423,26.45392],[76.32302,26.45414],[76.33112,26.45125],[76.33527,26.44725],[76.33939,26.44128],[76.34158,26.43673],[76.34278,26.4319],[76.34366,26.42651],[76.3429,26.42171],[76.34246,26.41577],[76.34235,26.41039],[76.34719,26.40751],[76.35526,26.40434],[76.36399,26.40173],[76.37043,26.39801],[76.37686,26.39371],[76.38331,26.39083],[76.39367,26.38792],[76.39688,26.38563],[76.40647,26.37678],[76.41093,26.38779],[76.41399,26.394],[76.41446,26.40107],[76.41395,26.40817],[76.41537,26.4141],[76.42064,26.41689],[76.42432,26.42111],[76.42837,26.42816],[76.43401,26.43322],[76.43705,26.43886],[76.44035,26.44024],[76.44395,26.44135],[76.44538,26.44757],[76.44649,26.45379],[76.44857,26.45944],[76.45131,26.46594],[76.4547,26.47214],[76.45703,26.47439],[76.46386,26.47405],[76.46777,26.47402],[76.47018,26.48023],[76.47418,26.48444],[76.47817,26.48838],[76.48056,26.49317],[76.48165,26.49855],[76.48117,26.50705],[76.47964,26.51159],[76.47417,26.51475],[76.46903,26.51847],[76.46455,26.52247],[76.46306,26.52928],[76.46227,26.53807],[76.46206,26.54373],[76.45857,26.548],[76.45406,26.5506],[76.4495,26.55091],[76.4446,26.55038],[76.43963,26.54702],[76.43432,26.54254],[76.42968,26.53889],[76.42413,26.53809],[76.41924,26.53811],[76.41534,26.53843],[76.41374,26.54014],[76.41675,26.54381],[76.41681,26.5472],[76.41588,26.54947],[76.41331,26.55119],[76.41104,26.55149],[76.40682,26.55265],[76.40753,26.55549],[76.41066,26.5648],[76.41377,26.57384],[76.41623,26.58176],[76.421,26.59163],[76.42436,26.5967],[76.42678,26.6032],[76.43047,26.60798],[76.43582,26.61417],[76.44054,26.6215],[76.44394,26.62799],[76.44665,26.63335],[76.45267,26.63982],[76.45644,26.64857],[76.46251,26.65786],[76.46883,26.66348],[76.46919,26.66909],[76.46931,26.67084],[76.46464,26.68163],[76.47207,26.69319],[76.47854,26.70588],[76.48953,26.71628],[76.49098,26.71887],[76.49855,26.71502],[76.49947,26.71449],[76.51351,26.7065],[76.51355,26.70648],[76.53908,26.69348],[76.54228,26.69134],[76.54748,26.68789],[76.55412,26.6844],[76.55516,26.68361],[76.55767,26.68233],[76.56041,26.681],[76.56286,26.67951],[76.56287,26.6795],[76.56483,26.67826],[76.56824,26.6761],[76.56825,26.6761],[76.57537,26.67268],[76.57541,26.67266],[76.57759,26.67184],[76.57844,26.67135],[76.58036,26.67025],[76.58202,26.6698]]]}}]}