{"type":"FeatureCollection","features":[{"type":"Feature","properties":{"id":"tonk","name":"Tonk","stateId":"rajasthan","stateName":"Rajasthan","censuscode":120,"type":"district"},"geometry":{"type":"Polygon","coordinates":[[[76.1606,26.51466],[76.16061,26.51464],[76.16237,26.50444],[76.16493,26.50188],[76.17303,26.49871],[76.1781,26.4916],[76.1806,26.48564],[76.1716,26.47798],[76.16832,26.47603],[76.16435,26.47182],[76.15973,26.46761],[76.15581,26.46623],[76.15099,26.46797],[76.14667,26.46263],[76.14301,26.45757],[76.13945,26.45816],[76.14157,26.45079],[76.14475,26.44736],[76.14889,26.44421],[76.15372,26.44219],[76.15821,26.44017],[76.15746,26.4348],[76.15731,26.42773],[76.15529,26.42406],[76.15201,26.42126],[76.14903,26.41846],[76.1519,26.41616],[76.15313,26.41276],[76.15208,26.40909],[76.1507,26.40486],[76.14896,26.39893],[76.14591,26.39188],[76.14353,26.38681],[76.14014,26.3792],[76.1368,26.37441],[76.13443,26.36906],[76.13568,26.36679],[76.13951,26.3642],[76.14368,26.36218],[76.14657,26.36017],[76.14683,26.35734],[76.14579,26.35396],[76.14279,26.34946],[76.13695,26.34866],[76.13368,26.34728],[76.13071,26.34476],[76.13065,26.34165],[76.1332,26.33936],[76.13313,26.33569],[76.13404,26.33285],[76.13691,26.33028],[76.1417,26.32683],[76.14488,26.32369],[76.14418,26.32115],[76.14125,26.32061],[76.14057,26.31864],[76.14214,26.31635],[76.14663,26.31404],[76.14787,26.31148],[76.14781,26.30809],[76.14543,26.30245],[76.14437,26.29794],[76.1414,26.29514],[76.13587,26.2935],[76.13193,26.29043],[76.12961,26.28762],[76.12597,26.28341],[76.1249,26.27833],[76.12,26.27611],[76.11574,26.27388],[76.1149,26.26397],[76.11645,26.26027],[76.11931,26.25798],[76.12314,26.2551],[76.12338,26.25114],[76.11909,26.24749],[76.1139,26.24697],[76.10935,26.24643],[76.10829,26.24218],[76.10367,26.23907],[76.09423,26.23935],[76.08644,26.24216],[76.07661,26.24345],[76.06763,26.24321],[76.05964,26.24406],[76.05275,26.24784],[76.04656,26.25166],[76.03771,26.25065],[76.03001,26.25182],[76.02955,26.24295],[76.03005,26.2325],[76.03087,26.2222],[76.02836,26.22082],[76.02238,26.22035],[76.01301,26.21915],[76.00353,26.21921],[76.00001,26.21912],[75.99255,26.22006],[75.98802,26.20909],[75.98414,26.21049],[75.98156,26.19472],[75.98891,26.19497],[76,26.1921],[76.00128,26.1913],[76.00362,26.18715],[76.00571,26.1805],[76.00675,26.17655],[76.00606,26.175],[76.00334,26.17506],[76.00311,26.17215],[76.00491,26.16716],[76.00524,26.16247],[76.00109,26.15934],[76,26.15974],[75.99556,26.15933],[75.99999,26.14136],[75.99597,26.12868],[75.99444,26.11556],[76,26.11582],[76.00222,26.11413],[76.01257,26.11064],[76.02211,26.1095],[76.03005,26.11014],[76.03887,26.11362],[76.04458,26.116],[76.04901,26.11443],[76.05585,26.11545],[76.06166,26.11901],[76.06412,26.12395],[76.06521,26.12796],[76.06629,26.13333],[76.06874,26.13025],[76.08268,26.12144],[76.08726,26.11723],[76.09244,26.11357],[76.09382,26.10856],[76.09275,26.1048],[76.09452,26.10182],[76.09886,26.09969],[76.09965,26.09532],[76.09761,26.09101],[76.09681,26.08611],[76.09275,26.07924],[76.09161,26.07438],[76.09078,26.06926],[76.09165,26.06697],[76.09406,26.06327],[76.09357,26.05933],[76.09537,26.05651],[76.10022,26.05644],[76.10637,26.05637],[76.11158,26.05716],[76.11609,26.05626],[76.11561,26.05203],[76.11447,26.04811],[76.11391,26.04308],[76.11171,26.03924],[76.10799,26.03824],[76.10406,26.03916],[76.10044,26.03955],[76.09816,26.03664],[76.09749,26.03344],[76.09623,26.03135],[76.09397,26.02961],[76.08905,26.02622],[76.08981,26.02202],[76.08914,26.01973],[76.08579,26.01789],[76.08037,26.01563],[76.07643,26.01343],[76.07416,26.00947],[76.07202,26.00508],[76.07074,26.00297],[76.06985,25.99507],[76.08699,25.98886],[76.09223,25.98846],[76.095,25.99465],[76.09927,26.0008],[76.10511,26.00174],[76.11213,25.99978],[76.11848,25.99524],[76.12663,25.98561],[76.13214,25.97751],[76.13826,25.97597],[76.14165,25.97356],[76.14274,25.96672],[76.14377,25.96493],[76.1461,25.9661],[76.15637,25.98146],[76.16284,25.98974],[76.17624,25.98787],[76.18237,25.98871],[76.18757,26.00231],[76.18892,26.00584],[76.18999,26.01091],[76.19328,26.01341],[76.19585,26.01255],[76.19677,26.00972],[76.19707,26.00859],[76.20722,26.00928],[76.21696,26.0075],[76.22714,26.00877],[76.23238,26.01094],[76.23468,26.01602],[76.2359,26.02027],[76.23473,26.02372],[76.23565,26.02543],[76.23831,26.0254],[76.24105,26.02395],[76.24343,26.02223],[76.24802,26.02135],[76.25038,26.01935],[76.25112,26.01707],[76.2513,26.01279],[76.25073,26.00964],[76.25011,26.00538],[76.25076,26.00192],[76.24685,25.98711],[76.24733,25.98323],[76.24975,25.98173],[76.2534,25.98289],[76.25556,25.97989],[76.25506,25.97633],[76.25685,25.96649],[76.25259,25.94692],[76.24827,25.93539],[76.25297,25.9309],[76.25157,25.92143],[76.25286,25.91637],[76.24948,25.91344],[76.24041,25.91412],[76.23004,25.91658],[76.22198,25.91576],[76.21892,25.91193],[76.22076,25.89858],[76.22304,25.89294],[76.21968,25.87045],[76.22224,25.86213],[76.22722,25.85823],[76.24423,25.84891],[76.25315,25.83876],[76.26779,25.82827],[76.27546,25.82376],[76.28016,25.82401],[76.28458,25.82724],[76.29005,25.83518],[76.29377,25.83574],[76.29642,25.83365],[76.29965,25.82443],[76.30197,25.82086],[76.30432,25.82173],[76.31044,25.82611],[76.31514,25.82695],[76.32016,25.82543],[76.32449,25.82213],[76.32746,25.81797],[76.32201,25.80897],[76.31555,25.80281],[76.30607,25.79874],[76.30261,25.78988],[76.29988,25.78577],[76.29717,25.78401],[76.29381,25.78433],[76.29148,25.78761],[76.28921,25.79652],[76.2869,25.80069],[76.27584,25.80611],[76.27011,25.80557],[76.26364,25.79762],[76.26093,25.79616],[76.25586,25.79413],[76.25013,25.79418],[76.24246,25.80224],[76.23911,25.80405],[76.23506,25.80318],[76.23171,25.8044],[76.22838,25.80887],[76.22449,25.8246],[76.22019,25.83263],[76.21419,25.83831],[76.20747,25.84073],[76.20075,25.84197],[76.19835,25.83784],[76.19318,25.82514],[76.18909,25.81955],[76.18433,25.81633],[76.17926,25.8143],[76.17151,25.81287],[76.17408,25.80011],[76.17267,25.79332],[76.16645,25.77529],[76.16771,25.76551],[76.16733,25.76077],[76.16563,25.75931],[76.15723,25.76174],[76.15588,25.77093],[76.15424,25.77597],[76.15059,25.78043],[76.14051,25.78406],[76.12099,25.78449],[76.11462,25.78751],[76.11297,25.79136],[76.11339,25.80054],[76.11174,25.8044],[76.10236,25.81009],[76.08754,25.80871],[76.08179,25.80728],[76.06731,25.80649],[76.06059,25.80831],[76.05691,25.8113],[76.05493,25.81577],[76.05429,25.81992],[76.05568,25.82583],[76.05946,25.8341],[76.06018,25.83942],[76.05823,25.84923],[76.06135,25.85958],[76.06071,25.86225],[76.05665,25.86112],[76.04927,25.86389],[76.04219,25.86253],[76.0358,25.86265],[76.02809,25.86493],[76.02109,25.86841],[76.01583,25.88158],[76.01276,25.88183],[76.00429,25.87678],[75.98743,25.86507],[75.98227,25.85807],[75.98116,25.86153],[75.97843,25.86346],[75.96844,25.86523],[75.95729,25.86458],[75.95462,25.85753],[75.95609,25.84485],[75.95906,25.83582],[75.94733,25.81606],[75.92988,25.81497],[75.91759,25.81532],[75.9055,25.81445],[75.90594,25.82296],[75.9088,25.8333],[75.91485,25.83471],[75.91798,25.84414],[75.90938,25.84616],[75.90479,25.8523],[75.89708,25.85691],[75.89401,25.86877],[75.87803,25.8645],[75.87542,25.86014],[75.87433,25.85156],[75.86462,25.85128],[75.84861,25.85041],[75.84193,25.84706],[75.84105,25.83942],[75.83446,25.83448],[75.83528,25.82323],[75.83874,25.8137],[75.83803,25.80377],[75.82226,25.79677],[75.81367,25.79778],[75.81389,25.80615],[75.80845,25.81618],[75.80214,25.8222],[75.8007,25.81801],[75.79533,25.82002],[75.7733,25.82248],[75.77144,25.81994],[75.76923,25.81378],[75.76905,25.80601],[75.76945,25.79766],[75.76502,25.79639],[75.76122,25.79379],[75.75643,25.78435],[75.76263,25.78078],[75.76304,25.77019],[75.76147,25.75631],[75.74718,25.75066],[75.73863,25.75221],[75.729,25.75745],[75.71766,25.7583],[75.71127,25.75634],[75.71071,25.75604],[75.70128,25.75103],[75.69493,25.7603],[75.68108,25.75447],[75.66148,25.7427],[75.65675,25.73728],[75.65456,25.7298],[75.64016,25.71394],[75.63169,25.70875],[75.63071,25.70074],[75.6352,25.70006],[75.63502,25.69551],[75.63264,25.69027],[75.62836,25.68231],[75.62249,25.67695],[75.60634,25.68269],[75.59571,25.68491],[75.59308,25.69344],[75.59134,25.70218],[75.59682,25.71083],[75.58828,25.71122],[75.58132,25.70925],[75.57305,25.70244],[75.56403,25.69672],[75.55497,25.69798],[75.54547,25.70406],[75.53333,25.71429],[75.52811,25.72378],[75.5286,25.73127],[75.52592,25.73679],[75.52277,25.74721],[75.51462,25.74501],[75.51142,25.73647],[75.50245,25.7341],[75.48935,25.73124],[75.47731,25.73473],[75.47418,25.72706],[75.46442,25.71838],[75.45893,25.7242],[75.45226,25.7311],[75.4452,25.74064],[75.43701,25.74545],[75.4338,25.74124],[75.42605,25.74801],[75.422,25.76124],[75.41242,25.76663],[75.40346,25.77438],[75.39499,25.76894],[75.39105,25.75903],[75.36485,25.75774],[75.31911,25.76375],[75.33523,25.78255],[75.33825,25.795],[75.33993,25.81084],[75.34359,25.81811],[75.35489,25.82977],[75.34752,25.83171],[75.32688,25.83762],[75.31558,25.84863],[75.31134,25.85352],[75.29789,25.85128],[75.28669,25.85497],[75.27691,25.85459],[75.26894,25.85318],[75.26355,25.85292],[75.26662,25.87407],[75.26617,25.88017],[75.25738,25.88578],[75.24914,25.89582],[75.24631,25.90917],[75.25062,25.92415],[75.25142,25.93734],[75.26867,25.9423],[75.27991,25.94385],[75.29537,25.94011],[75.30707,25.94136],[75.31053,25.95052],[75.31728,25.95406],[75.31811,25.96067],[75.31853,25.96505],[75.31821,25.97338],[75.32194,25.98086],[75.3279,25.99853],[75.33519,26.00186],[75.34245,26.0032],[75.34861,26.00172],[75.35131,26.00688],[75.35103,26.00967],[75.35265,26.01074],[75.35488,26.01432],[75.35544,26.0192],[75.34676,26.02436],[75.34724,26.03017],[75.34666,26.03522],[75.34514,26.0395],[75.33762,26.04809],[75.33308,26.05081],[75.32813,26.05613],[75.32588,26.0547],[75.31791,26.05813],[75.31468,26.06232],[75.30873,26.06245],[75.30698,26.06946],[75.3084,26.08046],[75.31427,26.09003],[75.32366,26.09749],[75.32893,26.10048],[75.32997,26.10352],[75.33179,26.10436],[75.33132,26.11062],[75.33995,26.13062],[75.32143,26.14144],[75.30704,26.14684],[75.29515,26.14467],[75.28891,26.13923],[75.28264,26.13884],[75.27718,26.13544],[75.2738,26.12894],[75.27124,26.11431],[75.26403,26.10432],[75.26525,26.09987],[75.25387,26.08603],[75.24644,26.07865],[75.24602,26.07823],[75.24419,26.08639],[75.24065,26.08958],[75.23203,26.09038],[75.22618,26.09203],[75.22062,26.10703],[75.20245,26.10685],[75.18815,26.10981],[75.18576,26.1172],[75.18529,26.12684],[75.18738,26.13408],[75.18843,26.1524],[75.18813,26.16343],[75.18511,26.17001],[75.18178,26.17169],[75.16999,26.1719],[75.15861,26.18263],[75.15882,26.18909],[75.15923,26.19172],[75.1607,26.20048],[75.15762,26.20701],[75.15578,26.21834],[75.15295,26.22086],[75.15245,26.22457],[75.14472,26.22475],[75.14496,26.22917],[75.14332,26.23636],[75.14339,26.24399],[75.13309,26.2493],[75.12462,26.25179],[75.1174,26.2519],[75.11984,26.26508],[75.12019,26.27091],[75.11542,26.2753],[75.11629,26.28003],[75.11342,26.28486],[75.11606,26.2877],[75.11901,26.29002],[75.12589,26.29189],[75.13128,26.29226],[75.13404,26.29766],[75.13689,26.30584],[75.13841,26.31766],[75.13663,26.32153],[75.13133,26.32393],[75.12865,26.34051],[75.12564,26.3494],[75.12606,26.3547],[75.12965,26.35603],[75.13485,26.36077],[75.1392,26.36241],[75.14442,26.3657],[75.14453,26.37418],[75.14185,26.37483],[75.13615,26.37788],[75.13317,26.38148],[75.12975,26.39682],[75.13287,26.40378],[75.1369,26.40931],[75.15415,26.41101],[75.16672,26.41464],[75.16862,26.41851],[75.16434,26.42046],[75.16991,26.42573],[75.16879,26.42798],[75.17248,26.43153],[75.17154,26.43854],[75.17679,26.44409],[75.17002,26.46198],[75.17345,26.46262],[75.17424,26.46885],[75.17789,26.47438],[75.18764,26.484],[75.18986,26.48881],[75.19515,26.48303],[75.20079,26.48028],[75.19972,26.48781],[75.19633,26.50129],[75.19981,26.50565],[75.20564,26.51556],[75.21273,26.51707],[75.21794,26.51698],[75.22446,26.51866],[75.23,26.52602],[75.23317,26.52182],[75.23719,26.52108],[75.23972,26.52634],[75.24369,26.5285],[75.25188,26.52899],[75.25459,26.53008],[75.25537,26.54147],[75.26881,26.54779],[75.27344,26.55257],[75.28174,26.55869],[75.2868,26.56393],[75.29205,26.56164],[75.29591,26.55856],[75.31355,26.56053],[75.32087,26.56064],[75.3263,26.55853],[75.33101,26.55807],[75.33404,26.55262],[75.33604,26.54903],[75.34012,26.53527],[75.34096,26.52913],[75.33939,26.52451],[75.3374,26.5214],[75.34429,26.51924],[75.34756,26.51744],[75.34926,26.50904],[75.35218,26.50148],[75.35773,26.49564],[75.37247,26.4861],[75.38232,26.48997],[75.38685,26.48417],[75.39026,26.4819],[75.39494,26.48273],[75.41313,26.48092],[75.41007,26.49126],[75.41065,26.49528],[75.41678,26.48875],[75.42358,26.48357],[75.43714,26.48145],[75.44372,26.48381],[75.4485,26.48761],[75.45273,26.49313],[75.46343,26.49119],[75.48625,26.48079],[75.49795,26.48002],[75.50289,26.48097],[75.50609,26.47904],[75.50846,26.47332],[75.51564,26.46797],[75.52134,26.46473],[75.5272,26.46313],[75.53328,26.46955],[75.54866,26.4786],[75.5496,26.48495],[75.55288,26.48621],[75.55936,26.48102],[75.56758,26.47893],[75.57598,26.47289],[75.57658,26.46134],[75.57494,26.45509],[75.57397,26.44614],[75.58363,26.44586],[75.58932,26.44752],[75.59596,26.4447],[75.59999,26.44302],[75.61104,26.4416],[75.6173,26.43936],[75.6249,26.44132],[75.64355,26.44239],[75.64968,26.44509],[75.65453,26.45346],[75.6544,26.45904],[75.65276,26.46372],[75.65508,26.46601],[75.66467,26.4608],[75.67706,26.46033],[75.68406,26.45891],[75.68343,26.45361],[75.68955,26.45142],[75.69852,26.4505],[75.69794,26.44567],[75.71236,26.44481],[75.72971,26.46543],[75.73423,26.45933],[75.7386,26.44916],[75.74434,26.44691],[75.74828,26.45272],[75.74931,26.46882],[75.75813,26.46911],[75.76317,26.4665],[75.76782,26.46575],[75.76936,26.46636],[75.77086,26.46695],[75.77277,26.47226],[75.77058,26.48025],[75.77345,26.48482],[75.77191,26.49188],[75.7672,26.49884],[75.76095,26.51208],[75.76217,26.51732],[75.76897,26.51775],[75.78418,26.52573],[75.77822,26.53036],[75.77401,26.53228],[75.77283,26.53563],[75.77407,26.54326],[75.78164,26.54388],[75.7898,26.54624],[75.79668,26.54932],[75.79837,26.54978],[75.80361,26.54689],[75.8068,26.54002],[75.79998,26.53062],[75.80339,26.5266],[75.81027,26.52432],[75.81707,26.51797],[75.82624,26.51578],[75.83603,26.51039],[75.84319,26.51218],[75.84748,26.51504],[75.85545,26.51842],[75.8848,26.51923],[75.88837,26.51218],[75.90358,26.5092],[75.91335,26.51038],[75.93416,26.50519],[75.93701,26.49358],[75.95342,26.48932],[75.96312,26.48299],[75.96906,26.4947],[75.97417,26.50217],[75.98601,26.49708],[75.98656,26.50184],[75.99082,26.49714],[75.99988,26.49367],[76.00518,26.4926],[76.00882,26.49189],[76.01148,26.49542],[76.01427,26.50086],[76.01617,26.50339],[76.01902,26.50422],[76.02263,26.50454],[76.02687,26.50642],[76.02966,26.50908],[76.03093,26.5122],[76.03303,26.51569],[76.03509,26.51675],[76.03822,26.5149],[76.04017,26.51209],[76.04305,26.51055],[76.04648,26.51081],[76.05129,26.51055],[76.05595,26.50909],[76.06131,26.50876],[76.06759,26.50813],[76.07238,26.50739],[76.07414,26.50913],[76.07561,26.51314],[76.07948,26.51887],[76.08189,26.52145],[76.0846,26.52318],[76.08892,26.52404],[76.09418,26.52405],[76.09876,26.52347],[76.10275,26.52629],[76.10543,26.52997],[76.10942,26.53335],[76.11303,26.5353],[76.11629,26.53529],[76.12049,26.53413],[76.12434,26.53183],[76.1285,26.52869],[76.1327,26.5281],[76.13757,26.52835],[76.14276,26.52887],[76.14697,26.52827],[76.15145,26.5254],[76.15588,26.51999],[76.1606,26.51466]]]}}]}