{"type":"FeatureCollection","features":[{"type":"Feature","properties":{"id":"east-kameng","name":"East Kameng","stateId":"arunanchal-pradesh","stateName":"Arunanchal Pradesh","censuscode":247,"type":"district"},"geometry":{"type":"MultiPolygon","coordinates":[[[[92.78276,27.953],[92.79111,27.95014],[92.82504,27.95856],[92.83233,27.95681],[92.84208,27.95742],[92.8506,27.9561],[92.8629,27.95596],[92.86244,27.94854],[92.87225,27.94367],[92.88119,27.93998],[92.93388,27.91929],[92.9351,27.91234],[92.93298,27.90732],[92.93569,27.89169],[92.93428,27.88141],[92.93475,27.87465],[92.94114,27.87027],[92.94159,27.85966],[92.94657,27.8567],[92.94811,27.84467],[92.95688,27.84329],[92.96339,27.84213],[92.97005,27.8257],[92.97506,27.82389],[92.98254,27.82271],[93,27.82355],[93.00754,27.82487],[93.01222,27.81956],[93.01886,27.81914],[93.02677,27.8223],[93.03889,27.82289],[93.05532,27.8259],[93.06503,27.82843],[93.07258,27.8285],[93.07864,27.82749],[93.08578,27.82174],[93.09552,27.81155],[93.10313,27.81197],[93.11222,27.81902],[93.12439,27.8186],[93.13384,27.82275],[93.15672,27.82113],[93.16287,27.81807],[93.17122,27.82122],[93.17773,27.82087],[93.18587,27.82747],[93.18919,27.83177],[93.18973,27.83762],[93.19162,27.84428],[93.20006,27.84576],[93.21005,27.83572],[93.22123,27.8306],[93.22637,27.82164],[93.23045,27.81831],[93.23697,27.80785],[93.23887,27.80297],[93.24013,27.79631],[93.23749,27.78614],[93.23355,27.77666],[93.2239,27.7635],[93.22266,27.75717],[93.21724,27.74986],[93.21151,27.74027],[93.20769,27.734],[93.2063,27.72947],[93.22654,27.71575],[93.22421,27.70748],[93.21464,27.69486],[93.21299,27.69032],[93.21,27.68553],[93.2022,27.67792],[93.20431,27.6711],[93.20795,27.66393],[93.2157,27.65896],[93.23147,27.64776],[93.23049,27.64104],[93.23571,27.62881],[93.23763,27.62176],[93.24211,27.61447],[93.23764,27.60883],[93.24494,27.60414],[93.24825,27.59927],[93.25554,27.59626],[93.26481,27.59444],[93.27252,27.59499],[93.28432,27.5891],[93.28482,27.58164],[93.28793,27.57705],[93.30162,27.57859],[93.30588,27.57435],[93.3148,27.56662],[93.32484,27.56515],[93.32891,27.56125],[93.33333,27.55415],[93.33225,27.54851],[93.32577,27.54746],[93.32206,27.54378],[93.32101,27.5359],[93.31404,27.52979],[93.30879,27.52736],[93.30243,27.52586],[93.29782,27.52267],[93.30344,27.51913],[93.30604,27.51386],[93.30819,27.50755],[93.31399,27.50526],[93.31698,27.49929],[93.31957,27.49408],[93.32314,27.48897],[93.32227,27.4834],[93.32281,27.47754],[93.32544,27.46784],[93.32931,27.46395],[93.32812,27.45825],[93.32746,27.45124],[93.32368,27.44308],[93.33148,27.44344],[93.34137,27.43266],[93.35451,27.42477],[93.36486,27.42152],[93.37125,27.41608],[93.37294,27.41149],[93.3719,27.40131],[93.37509,27.39334],[93.37596,27.3865],[93.37118,27.37909],[93.37514,27.37094],[93.36624,27.36609],[93.36073,27.36435],[93.34543,27.35735],[93.33126,27.35404],[93.32524,27.35208],[93.31872,27.34722],[93.31001,27.34399],[93.30333,27.33397],[93.29866,27.33073],[93.29271,27.32894],[93.29485,27.31343],[93.29835,27.30804],[93.29773,27.30241],[93.29761,27.29012],[93.29097,27.28498],[93.28405,27.28313],[93.27567,27.27914],[93.2673,27.276],[93.26109,27.27421],[93.25667,27.27115],[93.25446,27.26585],[93.24941,27.264],[93.24022,27.25707],[93.23363,27.25435],[93.22961,27.2506],[93.23485,27.2436],[93.23655,27.23856],[93.2317,27.23596],[93.22761,27.23249],[93.22559,27.22795],[93.22902,27.2225],[93.22495,27.2183],[93.2239,27.21134],[93.22464,27.20479],[93.2293,27.19918],[93.23832,27.20023],[93.25197,27.20224],[93.2579,27.2064],[93.26513,27.20952],[93.27614,27.21076],[93.28226,27.20721],[93.28583,27.19941],[93.29304,27.19317],[93.30308,27.18654],[93.30286,27.1793],[93.3084,27.17397],[93.29751,27.1629],[93.28636,27.16265],[93.28169,27.16004],[93.27659,27.15732],[93.27328,27.15341],[93.26527,27.15407],[93.25316,27.1545],[93.24803,27.15373],[93.23982,27.14555],[93.23211,27.14023],[93.21924,27.1384],[93.21384,27.13058],[93.21611,27.11622],[93.22356,27.1136],[93.23261,27.10921],[93.24554,27.11103],[93.25953,27.10769],[93.27518,27.10308],[93.28123,27.09632],[93.2862,27.09179],[93.28879,27.08502],[93.29627,27.07746],[93.30261,27.0757],[93.3074,27.07882],[93.31572,27.07889],[93.32217,27.06995],[93.32613,27.06152],[93.33242,27.0578],[93.33992,27.04478],[93.34186,27.03967],[93.34565,27.03618],[93.34324,27.03186],[93.34597,27.02354],[93.34403,27.01617],[93.34732,27.01037],[93.34261,27.00643],[93.34293,27.00068],[93.34944,26.99205],[93.3638,26.98138],[93.37209,26.98058],[93.3822,26.98215],[93.38983,26.97187],[93.39287,26.95737],[93.37638,26.95776],[93.35011,26.96065],[93.26912,26.95351],[93.2247,26.9467],[93.1866,26.93635],[93.11135,26.92497],[93.09426,26.91324],[93.07876,26.91767],[93.07127,26.92196],[93.065,26.91976],[93.04063,26.91566],[93.02183,26.91463],[92.99993,26.92818],[92.99691,26.92917],[92.99627,26.92964],[92.98921,26.93168],[92.98526,26.9338],[92.98322,26.93348],[92.97551,26.9387],[92.96417,26.94378],[92.95395,26.94682],[92.93539,26.95487],[92.92905,26.95861],[92.92042,26.96219],[92.9176,26.96773],[92.91936,26.98263],[92.90249,26.99428],[92.89302,26.99784],[92.88611,27.00038],[92.87521,27.00575],[92.83942,27.01165],[92.82726,27.01659],[92.78818,27.02885],[92.77201,27.03122],[92.73046,27.02664],[92.71664,27.02434],[92.70529,27.02584],[92.68539,27.03002],[92.66197,27.03683],[92.66006,27.0359],[92.65352,27.02309],[92.64213,27.01686],[92.63863,27.02355],[92.627,27.02829],[92.60828,27.0438],[92.60089,27.05257],[92.59336,27.07865],[92.59506,27.08507],[92.60342,27.09668],[92.59737,27.10422],[92.59883,27.10573],[92.60502,27.10772],[92.60478,27.11943],[92.61014,27.12512],[92.61005,27.13573],[92.61115,27.13986],[92.61671,27.14364],[92.62035,27.14575],[92.62777,27.14844],[92.63204,27.14834],[92.6355,27.14717],[92.64095,27.14986],[92.65306,27.15152],[92.66073,27.15571],[92.66782,27.15774],[92.67366,27.16098],[92.68127,27.16333],[92.69116,27.16533],[92.7004,27.17219],[92.7199,27.1755],[92.73194,27.18373],[92.73992,27.18717],[92.74576,27.19134],[92.7531,27.19491],[92.7715,27.19374],[92.78478,27.1806],[92.80202,27.18091],[92.81931,27.17746],[92.83546,27.18702],[92.85849,27.19258],[92.8674,27.19328],[92.87236,27.19753],[92.87867,27.20002],[92.89693,27.20421],[92.90289,27.2078],[92.90605,27.21337],[92.90616,27.21948],[92.90017,27.23307],[92.89845,27.24823],[92.90253,27.25245],[92.89724,27.25812],[92.89933,27.26596],[92.89125,27.27033],[92.88875,27.27518],[92.8933,27.28065],[92.88718,27.28589],[92.88035,27.28987],[92.87462,27.29055],[92.8507,27.28904],[92.84788,27.30232],[92.83255,27.31154],[92.82248,27.31964],[92.81253,27.32739],[92.81026,27.33166],[92.81215,27.33634],[92.80878,27.34358],[92.80325,27.34989],[92.80958,27.3518],[92.80964,27.3586],[92.8191,27.35807],[92.81926,27.36597],[92.81685,27.37197],[92.81941,27.37888],[92.82574,27.37681],[92.82636,27.38498],[92.82447,27.38953],[92.82563,27.4019],[92.82492,27.4089],[92.82192,27.41595],[92.81595,27.41569],[92.80824,27.41866],[92.81584,27.42302],[92.81164,27.4274],[92.80997,27.4347],[92.80968,27.4425],[92.80655,27.44627],[92.80779,27.45212],[92.80847,27.45671],[92.80644,27.46443],[92.80836,27.47153],[92.81297,27.47648],[92.81432,27.48377],[92.81424,27.49051],[92.817,27.50648],[92.81829,27.51763],[92.81352,27.5219],[92.81082,27.52727],[92.8063,27.53356],[92.80284,27.53728],[92.80035,27.54294],[92.79369,27.5536],[92.78358,27.5545],[92.77512,27.54883],[92.75404,27.55086],[92.74197,27.55434],[92.73323,27.55531],[92.71988,27.55478],[92.71232,27.55151],[92.7085,27.54826],[92.7014,27.54728],[92.69659,27.54332],[92.68791,27.54064],[92.6822,27.53704],[92.6692,27.53541],[92.66102,27.52494],[92.65052,27.53465],[92.64738,27.54211],[92.64682,27.55169],[92.63512,27.55423],[92.61282,27.55484],[92.60961,27.56213],[92.61345,27.57413],[92.62328,27.58682],[92.62173,27.59105],[92.61509,27.59041],[92.61052,27.59722],[92.61342,27.61866],[92.60878,27.62379],[92.59781,27.63001],[92.58722,27.62721],[92.5702,27.62153],[92.55478,27.61866],[92.54232,27.61906],[92.53406,27.62851],[92.53841,27.64574],[92.53696,27.66402],[92.53325,27.67955],[92.51765,27.7013],[92.51365,27.71392],[92.51504,27.72787],[92.5192,27.73413],[92.48469,27.77006],[92.46412,27.78169],[92.47154,27.7935],[92.47553,27.80717],[92.47167,27.81433],[92.48137,27.82065],[92.48922,27.82776],[92.49716,27.83593],[92.50599,27.84061],[92.51973,27.83932],[92.531,27.83022],[92.53908,27.82341],[92.54847,27.81654],[92.55882,27.81735],[92.56526,27.82009],[92.56988,27.8264],[92.58083,27.84086],[92.59035,27.85593],[92.60969,27.87659],[92.62499,27.88353],[92.63621,27.88634],[92.6562,27.89202],[92.67382,27.89917],[92.67877,27.90504],[92.69099,27.91852],[92.70592,27.93285],[92.71851,27.94833],[92.7345,27.97099],[92.73784,27.977],[92.74139,27.97202],[92.75033,27.96667],[92.75345,27.96268],[92.76114,27.95666],[92.78276,27.953]]],[[[92.41858,27.8222],[92.43205,27.81116],[92.41858,27.8222],[92.41858,27.8222]]]]}}]}