{"type":"FeatureCollection","features":[{"type":"Feature","properties":{"id":"lower-subansiri","name":"Lower Subansiri","stateId":"arunanchal-pradesh","stateName":"Arunanchal Pradesh","censuscode":255,"type":"district"},"geometry":{"type":"Polygon","coordinates":[[[94.32046,27.77363],[94.31688,27.76838],[94.31339,27.74491],[94.31751,27.73868],[94.32365,27.73433],[94.3456,27.72593],[94.35248,27.72988],[94.35936,27.72843],[94.35879,27.71886],[94.35498,27.71395],[94.34758,27.71258],[94.33741,27.70871],[94.32536,27.7027],[94.31463,27.69112],[94.3057,27.68436],[94.28126,27.67063],[94.27023,27.66544],[94.25907,27.65575],[94.25113,27.65079],[94.23446,27.6374],[94.21653,27.61352],[94.21359,27.60776],[94.21597,27.60131],[94.22537,27.59762],[94.2275,27.59538],[94.22773,27.5921],[94.22387,27.58477],[94.22786,27.5779],[94.22887,27.57247],[94.23654,27.56828],[94.24296,27.56716],[94.25882,27.5542],[94.25804,27.54751],[94.25917,27.53724],[94.26476,27.52415],[94.26198,27.5202],[94.22394,27.50377],[94.21445,27.51191],[94.20881,27.53077],[94.19428,27.53544],[94.17986,27.53226],[94.15389,27.53011],[94.14618,27.52544],[94.14221,27.51368],[94.12304,27.49692],[94.09728,27.4828],[94.07186,27.482],[94.0486,27.49883],[94.00771,27.50419],[93.94515,27.51086],[93.91808,27.50185],[93.89215,27.49075],[93.85591,27.46453],[93.85453,27.45199],[93.85318,27.43979],[93.83067,27.42432],[93.83104,27.40684],[93.83853,27.39199],[93.83885,27.36303],[93.83021,27.35763],[93.82087,27.36362],[93.8098,27.37072],[93.78798,27.35005],[93.77045,27.34571],[93.74402,27.35229],[93.71512,27.34615],[93.68863,27.33512],[93.66916,27.33578],[93.65899,27.34796],[93.63434,27.35988],[93.61626,27.35679],[93.60359,27.36713],[93.60102,27.38583],[93.59923,27.40041],[93.5819,27.43431],[93.57271,27.43241],[93.56061,27.43755],[93.55874,27.45208],[93.5712,27.47154],[93.59951,27.48859],[93.61069,27.49325],[93.62099,27.53179],[93.58914,27.57203],[93.56567,27.60152],[93.55896,27.60877],[93.51798,27.64978],[93.61516,27.66758],[93.6344,27.64676],[93.66539,27.64261],[93.68913,27.64792],[93.7266,27.67266],[93.75726,27.66556],[93.77841,27.66224],[93.81638,27.69134],[93.84015,27.69663],[93.87359,27.69958],[93.89243,27.70529],[93.91635,27.72676],[93.95176,27.73248],[93.97139,27.73643],[93.98211,27.74187],[93.98763,27.75085],[93.9861,27.76329],[93.97782,27.77254],[93.95988,27.78336],[93.95594,27.79104],[93.94795,27.80287],[93.93139,27.81191],[93.92008,27.81787],[93.91451,27.82549],[93.91394,27.83732],[93.92473,27.86049],[93.93071,27.87454],[93.93058,27.88465],[93.92513,27.89242],[93.91294,27.8963],[93.89406,27.89684],[93.88687,27.90027],[93.88598,27.90933],[93.89429,27.91589],[93.91435,27.92029],[93.9413,27.91848],[93.9645,27.9226],[93.97724,27.93494],[93.98374,27.94221],[94.00006,27.94694],[94.01113,27.94988],[94.01363,27.94966],[94.01886,27.95492],[94.02153,27.95436],[94.0361,27.95709],[94.0418,27.95637],[94.04425,27.95412],[94.05233,27.95225],[94.05854,27.94847],[94.06083,27.94444],[94.0715,27.93877],[94.06037,27.92183],[94.05642,27.91765],[94.05108,27.91418],[94.05097,27.91153],[94.05499,27.90778],[94.05945,27.90588],[94.06158,27.88708],[94.0638,27.87932],[94.06301,27.87533],[94.06344,27.86908],[94.07748,27.84897],[94.08984,27.85278],[94.09979,27.85945],[94.10565,27.86069],[94.11588,27.85962],[94.12533,27.86146],[94.13191,27.85749],[94.13902,27.86157],[94.14479,27.8659],[94.14941,27.86659],[94.15241,27.86563],[94.15619,27.85778],[94.15727,27.85155],[94.16345,27.84342],[94.17374,27.84505],[94.17445,27.84479],[94.18648,27.8403],[94.1952,27.83619],[94.19541,27.81493],[94.19675,27.81105],[94.20707,27.81193],[94.26082,27.8074],[94.27731,27.80025],[94.29738,27.79008],[94.30869,27.78327],[94.32046,27.77363]]]}}]}