{"type":"FeatureCollection","features":[{"type":"Feature","properties":{"id":"upper-subansiri","name":"Upper Subansiri","stateId":"arunanchal-pradesh","stateName":"Arunanchal Pradesh","censuscode":249,"type":"district"},"geometry":{"type":"Polygon","coordinates":[[[94.32046,27.77363],[94.30869,27.78327],[94.29738,27.79008],[94.27731,27.80025],[94.26082,27.8074],[94.20707,27.81193],[94.19675,27.81105],[94.19541,27.81493],[94.1952,27.83619],[94.18648,27.8403],[94.17445,27.84479],[94.17374,27.84505],[94.16345,27.84342],[94.15727,27.85155],[94.15619,27.85778],[94.15241,27.86563],[94.14941,27.86659],[94.14479,27.8659],[94.13902,27.86157],[94.13191,27.85749],[94.12533,27.86146],[94.11588,27.85962],[94.10565,27.86069],[94.09979,27.85945],[94.08984,27.85278],[94.07748,27.84897],[94.06344,27.86908],[94.06301,27.87533],[94.0638,27.87932],[94.06158,27.88708],[94.05945,27.90588],[94.05499,27.90778],[94.05097,27.91153],[94.05108,27.91418],[94.05642,27.91765],[94.06037,27.92183],[94.0715,27.93877],[94.06083,27.94444],[94.05854,27.94847],[94.05233,27.95225],[94.04425,27.95412],[94.0418,27.95637],[94.0361,27.95709],[94.02153,27.95436],[94.01886,27.95492],[94.01438,27.95584],[93.99996,27.9666],[93.99538,27.96986],[93.99112,27.97457],[93.98209,27.97647],[93.97738,27.9737],[93.97311,27.96584],[93.97164,27.96558],[93.96905,27.97605],[93.96015,27.97769],[93.94932,27.97847],[93.94603,27.98068],[93.9437,27.98469],[93.9433,27.99428],[93.94143,27.99823],[93.94177,27.99965],[93.94103,28.0016],[93.93456,28.00519],[93.91571,28.0124],[93.91605,28.01866],[93.91524,28.0249],[93.91305,28.02902],[93.90838,28.03219],[93.89135,28.0375],[93.88936,28.03945],[93.88644,28.04441],[93.8773,28.05298],[93.87555,28.05896],[93.8767,28.06481],[93.8793,28.0711],[93.87807,28.07279],[93.86759,28.0777],[93.85794,28.08091],[93.85714,28.08296],[93.86609,28.09204],[93.87518,28.09917],[93.88239,28.10497],[93.8841,28.10738],[93.8795,28.11477],[93.87979,28.12049],[93.88386,28.12533],[93.89591,28.12835],[93.87948,28.16058],[93.85393,28.19901],[93.84988,28.2074],[93.8462,28.21804],[93.8441,28.22942],[93.84519,28.2359],[93.84279,28.23881],[93.82145,28.24856],[93.78996,28.25711],[93.78282,28.26027],[93.77734,28.25958],[93.76892,28.26254],[93.76136,28.26799],[93.7556,28.2769],[93.75185,28.27953],[93.74939,28.28417],[93.74574,28.2863],[93.73285,28.28732],[93.72531,28.29088],[93.70534,28.3076],[93.69799,28.31104],[93.68715,28.32024],[93.684,28.32134],[93.67435,28.31625],[93.66627,28.30651],[93.6604,28.30418],[93.65345,28.30304],[93.63717,28.30883],[93.63365,28.30786],[93.63128,28.30536],[93.62614,28.29519],[93.62285,28.28576],[93.61399,28.27161],[93.60055,28.27186],[93.59606,28.27084],[93.59016,28.26783],[93.58048,28.26079],[93.5748,28.2556],[93.56766,28.26173],[93.56021,28.26017],[93.55764,28.26095],[93.54574,28.26751],[93.53874,28.26917],[93.51962,28.27043],[93.51281,28.2717],[93.50237,28.27629],[93.49509,28.27662],[93.48302,28.2811],[93.4794,28.28081],[93.47498,28.27542],[93.47195,28.27342],[93.45849,28.27136],[93.45628,28.27157],[93.45102,28.28175],[93.44851,28.28286],[93.44581,28.28225],[93.44009,28.28246],[93.43498,28.27964],[93.4281,28.28234],[93.41754,28.28808],[93.41411,28.29653],[93.41178,28.30646],[93.40338,28.30881],[93.39785,28.30787],[93.3895,28.30597],[93.38767,28.30919],[93.3872,28.31245],[93.38502,28.31191],[93.38213,28.31118],[93.3817,28.31629],[93.38336,28.32129],[93.38179,28.32314],[93.36769,28.32937],[93.36411,28.32949],[93.36262,28.33248],[93.36217,28.33649],[93.36439,28.34209],[93.36369,28.34333],[93.36138,28.34411],[93.3528,28.34428],[93.34751,28.34512],[93.34444,28.34709],[93.34014,28.35303],[93.32319,28.34917],[93.31527,28.34498],[93.30622,28.34139],[93.30089,28.3401],[93.29746,28.34005],[93.29146,28.34783],[93.28809,28.35478],[93.28609,28.36448],[93.28088,28.36621],[93.26301,28.36672],[93.24895,28.36053],[93.24267,28.35048],[93.23844,28.34768],[93.23513,28.34647],[93.23258,28.34408],[93.22984,28.34007],[93.22974,28.3353],[93.22624,28.33379],[93.22488,28.33459],[93.22772,28.34016],[93.22432,28.36062],[93.22732,28.37709],[93.23663,28.39988],[93.231,28.40748],[93.22121,28.41286],[93.20979,28.4185],[93.19558,28.42526],[93.18629,28.432],[93.1879,28.43925],[93.19558,28.44341],[93.20612,28.44825],[93.2128,28.45149],[93.21884,28.45744],[93.22773,28.46956],[93.23434,28.47723],[93.24059,28.482],[93.25925,28.49082],[93.26815,28.49617],[93.27492,28.50041],[93.28121,28.5041],[93.28464,28.51308],[93.28697,28.52052],[93.29428,28.54273],[93.30284,28.55692],[93.31068,28.5656],[93.30877,28.57622],[93.30301,28.59141],[93.30535,28.59894],[93.31187,28.60037],[93.31683,28.60314],[93.32507,28.6064],[93.33313,28.60768],[93.33537,28.61502],[93.33647,28.62288],[93.33784,28.6331],[93.34245,28.63957],[93.34746,28.63954],[93.35638,28.6383],[93.3673,28.64023],[93.37522,28.64394],[93.3952,28.64886],[93.41735,28.65228],[93.43533,28.66169],[93.443,28.66883],[93.44685,28.67194],[93.45119,28.67542],[93.46225,28.66778],[93.46804,28.65637],[93.4722,28.65145],[93.47965,28.65298],[93.48096,28.66166],[93.48467,28.67434],[93.4891,28.67944],[93.49662,28.68332],[93.50102,28.68337],[93.50637,28.68144],[93.51469,28.67918],[93.52388,28.67314],[93.52563,28.66494],[93.52988,28.66057],[93.53923,28.65814],[93.56664,28.65887],[93.61233,28.6551],[93.62541,28.65694],[93.64417,28.6611],[93.65895,28.66603],[93.67474,28.67115],[93.69082,28.67853],[93.70494,28.67911],[93.71911,28.68303],[93.73032,28.68738],[93.73685,28.68844],[93.75259,28.68234],[93.7665,28.67371],[93.78039,28.66761],[93.79049,28.67048],[93.80256,28.67935],[93.824,28.69398],[93.84079,28.7036],[93.84925,28.70647],[93.85489,28.70607],[93.86308,28.70487],[93.87048,28.70277],[93.90924,28.67563],[93.92465,28.66933],[93.93119,28.67074],[93.93963,28.67604],[93.94861,28.68812],[93.96207,28.70366],[93.96542,28.71203],[93.99304,28.68747],[93.99995,28.68214],[94.00455,28.67836],[94.00747,28.67433],[94.0129,28.67128],[94.01892,28.66827],[94.02142,28.66521],[94.02668,28.65094],[94.01355,28.63149],[94.00947,28.6214],[94.00677,28.61055],[94.0051,28.59065],[94.00474,28.57745],[94.02475,28.56523],[94.05302,28.55081],[94.06132,28.54918],[94.06902,28.54423],[94.07482,28.53897],[94.08852,28.53342],[94.09533,28.53523],[94.10021,28.53575],[94.10304,28.53278],[94.10648,28.52501],[94.11066,28.52404],[94.11213,28.52097],[94.11084,28.51167],[94.11239,28.50282],[94.10895,28.49726],[94.11473,28.48884],[94.11818,28.47541],[94.12626,28.47035],[94.12975,28.46667],[94.13608,28.45116],[94.14249,28.44416],[94.15517,28.43577],[94.16596,28.43197],[94.17161,28.43245],[94.17666,28.43472],[94.18792,28.42908],[94.19585,28.4295],[94.2037,28.43124],[94.21729,28.4361],[94.22256,28.43591],[94.22866,28.43303],[94.23497,28.42786],[94.2401,28.43322],[94.24013,28.44153],[94.24268,28.44541],[94.24514,28.44642],[94.2555,28.43978],[94.2659,28.43507],[94.27089,28.43188],[94.27814,28.43033],[94.28677,28.43161],[94.29617,28.42843],[94.29982,28.42245],[94.30592,28.41858],[94.31186,28.4166],[94.31222,28.41418],[94.3051,28.39559],[94.31191,28.37522],[94.31878,28.37227],[94.32546,28.36827],[94.32873,28.36113],[94.333,28.35751],[94.3406,28.35801],[94.34688,28.35487],[94.37135,28.35281],[94.37423,28.35141],[94.37613,28.34389],[94.38001,28.3402],[94.38948,28.33554],[94.40471,28.33998],[94.4066,28.32751],[94.39965,28.32224],[94.38951,28.31654],[94.38096,28.30861],[94.37814,28.29943],[94.37819,28.29465],[94.38465,28.28683],[94.39326,28.27824],[94.39604,28.27332],[94.39746,28.26319],[94.40484,28.25896],[94.41451,28.2558],[94.42036,28.25389],[94.4131,28.25242],[94.40752,28.25259],[94.40039,28.25519],[94.38681,28.25767],[94.37577,28.24574],[94.37261,28.24381],[94.37077,28.23509],[94.37166,28.22474],[94.37016,28.22017],[94.37111,28.21114],[94.36791,28.20621],[94.35984,28.19818],[94.36409,28.19016],[94.37212,28.18558],[94.37782,28.18074],[94.37995,28.17621],[94.37798,28.16767],[94.38113,28.15831],[94.39482,28.14156],[94.39521,28.13615],[94.38987,28.12071],[94.40102,28.10438],[94.39815,28.08844],[94.39518,28.08236],[94.40266,28.07961],[94.40595,28.07571],[94.41079,28.0719],[94.41166,28.0688],[94.42084,28.06606],[94.42899,28.06227],[94.44269,28.06055],[94.47044,28.04841],[94.47871,28.03897],[94.48759,28.02139],[94.50964,28.01894],[94.51636,28.01507],[94.52591,28.00048],[94.5281,27.99489],[94.53165,27.98953],[94.53544,27.98561],[94.52874,27.97676],[94.52614,27.96607],[94.52848,27.95787],[94.53432,27.95192],[94.53919,27.94353],[94.54113,27.93301],[94.54592,27.92507],[94.55786,27.90987],[94.56142,27.90207],[94.57,27.89834],[94.58262,27.89419],[94.59142,27.89231],[94.59629,27.88971],[94.5979,27.88065],[94.59819,27.87037],[94.59248,27.86128],[94.58054,27.85569],[94.56258,27.85581],[94.53694,27.84958],[94.50712,27.83594],[94.48651,27.83578],[94.47902,27.83291],[94.47283,27.83249],[94.46775,27.82703],[94.46458,27.82472],[94.45164,27.82484],[94.44687,27.8226],[94.44571,27.81361],[94.44334,27.81068],[94.43706,27.80865],[94.42688,27.80744],[94.42137,27.80605],[94.40568,27.79219],[94.39782,27.79374],[94.38825,27.79387],[94.38284,27.78898],[94.37512,27.78306],[94.36808,27.77657],[94.35003,27.76374],[94.33587,27.75743],[94.32471,27.77029],[94.32046,27.77363]]]}}]}