{"type":"FeatureCollection","features":[{"type":"Feature","properties":{"id":"west-kameng","name":"West Kameng","stateId":"arunanchal-pradesh","stateName":"Arunanchal Pradesh","censuscode":246,"type":"district"},"geometry":{"type":"Polygon","coordinates":[[[92.64213,27.01686],[92.64764,27.00835],[92.64718,27.00081],[92.64831,26.9939],[92.64844,26.98574],[92.58822,26.96019],[92.55664,26.95745],[92.53482,26.9617],[92.51852,26.96283],[92.50811,26.9652],[92.49374,26.96317],[92.48685,26.96318],[92.46941,26.96153],[92.4627,26.96178],[92.4493,26.95912],[92.44531,26.9535],[92.42891,26.94196],[92.41503,26.94269],[92.40289,26.92478],[92.37046,26.93009],[92.36761,26.93125],[92.35624,26.93413],[92.34999,26.93202],[92.32327,26.92696],[92.30609,26.92281],[92.30696,26.90813],[92.30374,26.90673],[92.29329,26.90406],[92.28472,26.90276],[92.2796,26.90108],[92.2711,26.9037],[92.26835,26.90623],[92.26449,26.90741],[92.25781,26.91087],[92.21264,26.89557],[92.19814,26.88968],[92.18048,26.89118],[92.17214,26.89062],[92.16572,26.89138],[92.15128,26.88962],[92.1329,26.88945],[92.12757,26.88851],[92.12373,26.88906],[92.11127,26.89259],[92.11118,26.89839],[92.11228,26.90619],[92.117,26.9183],[92.1205,26.93119],[92.11823,26.94099],[92.11542,26.94816],[92.12088,26.95901],[92.11675,26.97455],[92.10763,26.97653],[92.10567,26.98182],[92.10687,27.00658],[92.10085,27.00836],[92.09179,27.01584],[92.08342,27.01946],[92.08239,27.03163],[92.08029,27.03872],[92.0743,27.04429],[92.06766,27.0511],[92.05738,27.05106],[92.04861,27.05087],[92.04556,27.0593],[92.03748,27.06373],[92.03995,27.06911],[92.0367,27.07374],[92.03155,27.07751],[92.0322,27.08348],[92.03136,27.09611],[92.02632,27.10711],[92.02604,27.11388],[92.03206,27.12241],[92.03481,27.12933],[92.03827,27.13148],[92.04034,27.13739],[92.03446,27.14612],[92.03234,27.14968],[92.0282,27.15321],[92.02729,27.16132],[92.02915,27.17074],[92.03932,27.17575],[92.04494,27.18029],[92.05496,27.18331],[92.06017,27.18856],[92.06122,27.20205],[92.06671,27.20857],[92.0707,27.2139],[92.07361,27.22262],[92.07232,27.23316],[92.07005,27.23845],[92.0698,27.24395],[92.06549,27.24666],[92.05648,27.2508],[92.05373,27.25562],[92.044,27.26083],[92.04367,27.2657],[92.05292,27.2706],[92.07409,27.27637],[92.08221,27.27483],[92.08717,27.27105],[92.09906,27.27203],[92.10564,27.26809],[92.11389,27.27296],[92.11917,27.27226],[92.12304,27.27487],[92.12382,27.27967],[92.12465,27.28655],[92.12138,27.29181],[92.11111,27.29801],[92.1067,27.30045],[92.0821,27.30932],[92.07129,27.31731],[92.06296,27.32625],[92.0644,27.34434],[92.06106,27.34807],[92.05261,27.35737],[92.05063,27.36745],[92.05033,27.37836],[92.05419,27.38919],[92.05877,27.39922],[92.05725,27.40325],[92.05162,27.40566],[92.0464,27.41196],[92.04829,27.42447],[92.04712,27.43013],[92.04313,27.43565],[92.03733,27.4366],[92.02832,27.44074],[92.0236,27.44678],[92.02119,27.4572],[92.02426,27.46729],[92.02323,27.47892],[92.01568,27.48101],[92.01674,27.49102],[92.02275,27.50168],[92.03914,27.50931],[92.05227,27.51624],[92.07446,27.5174],[92.09633,27.51777],[92.11536,27.52478],[92.12751,27.53908],[92.13593,27.56222],[92.13854,27.56422],[92.15525,27.57701],[92.17025,27.58037],[92.18665,27.58079],[92.20592,27.57705],[92.21253,27.57992],[92.21934,27.59124],[92.22551,27.60262],[92.22545,27.61179],[92.22535,27.62689],[92.23648,27.64352],[92.24794,27.65054],[92.26766,27.6492],[92.26881,27.65084],[92.27303,27.64811],[92.2899,27.65321],[92.32713,27.66547],[92.34613,27.67215],[92.35918,27.67171],[92.38283,27.66578],[92.39657,27.67228],[92.41015,27.69687],[92.41656,27.70861],[92.41216,27.71712],[92.41744,27.7307],[92.42037,27.74038],[92.41595,27.75531],[92.4249,27.76627],[92.45131,27.77468],[92.46141,27.77739],[92.46412,27.78169],[92.48469,27.77006],[92.5192,27.73413],[92.51504,27.72787],[92.51365,27.71392],[92.51765,27.7013],[92.53325,27.67955],[92.53696,27.66402],[92.53841,27.64574],[92.53406,27.62851],[92.54232,27.61906],[92.55478,27.61866],[92.5702,27.62153],[92.58722,27.62721],[92.59781,27.63001],[92.60878,27.62379],[92.61342,27.61866],[92.61052,27.59722],[92.61509,27.59041],[92.62173,27.59105],[92.62328,27.58682],[92.61345,27.57413],[92.60961,27.56213],[92.61282,27.55484],[92.63512,27.55423],[92.64682,27.55169],[92.64738,27.54211],[92.65052,27.53465],[92.66102,27.52494],[92.6692,27.53541],[92.6822,27.53704],[92.68791,27.54064],[92.69659,27.54332],[92.7014,27.54728],[92.7085,27.54826],[92.71232,27.55151],[92.71988,27.55478],[92.73323,27.55531],[92.74197,27.55434],[92.75404,27.55086],[92.77512,27.54883],[92.78358,27.5545],[92.79369,27.5536],[92.80035,27.54294],[92.80284,27.53728],[92.8063,27.53356],[92.81082,27.52727],[92.81352,27.5219],[92.81829,27.51763],[92.817,27.50648],[92.81424,27.49051],[92.81432,27.48377],[92.81297,27.47648],[92.80836,27.47153],[92.80644,27.46443],[92.80847,27.45671],[92.80779,27.45212],[92.80655,27.44627],[92.80968,27.4425],[92.80997,27.4347],[92.81164,27.4274],[92.81584,27.42302],[92.80824,27.41866],[92.81595,27.41569],[92.82192,27.41595],[92.82492,27.4089],[92.82563,27.4019],[92.82447,27.38953],[92.82636,27.38498],[92.82574,27.37681],[92.81941,27.37888],[92.81685,27.37197],[92.81926,27.36597],[92.8191,27.35807],[92.80964,27.3586],[92.80958,27.3518],[92.80325,27.34989],[92.80878,27.34358],[92.81215,27.33634],[92.81026,27.33166],[92.81253,27.32739],[92.82248,27.31964],[92.83255,27.31154],[92.84788,27.30232],[92.8507,27.28904],[92.87462,27.29055],[92.88035,27.28987],[92.88718,27.28589],[92.8933,27.28065],[92.88875,27.27518],[92.89125,27.27033],[92.89933,27.26596],[92.89724,27.25812],[92.90253,27.25245],[92.89845,27.24823],[92.90017,27.23307],[92.90616,27.21948],[92.90605,27.21337],[92.90289,27.2078],[92.89693,27.20421],[92.87867,27.20002],[92.87236,27.19753],[92.8674,27.19328],[92.85849,27.19258],[92.83546,27.18702],[92.81931,27.17746],[92.80202,27.18091],[92.78478,27.1806],[92.7715,27.19374],[92.7531,27.19491],[92.74576,27.19134],[92.73992,27.18717],[92.73194,27.18373],[92.7199,27.1755],[92.7004,27.17219],[92.69116,27.16533],[92.68127,27.16333],[92.67366,27.16098],[92.66782,27.15774],[92.66073,27.15571],[92.65306,27.15152],[92.64095,27.14986],[92.6355,27.14717],[92.63204,27.14834],[92.62777,27.14844],[92.62035,27.14575],[92.61671,27.14364],[92.61115,27.13986],[92.61005,27.13573],[92.61014,27.12512],[92.60478,27.11943],[92.60502,27.10772],[92.59883,27.10573],[92.59737,27.10422],[92.60342,27.09668],[92.59506,27.08507],[92.59336,27.07865],[92.60089,27.05257],[92.60828,27.0438],[92.627,27.02829],[92.63863,27.02355],[92.64213,27.01686]]]}}]}