{"type":"FeatureCollection","features":[{"type":"Feature","properties":{"id":"west-siang","name":"West Siang","stateId":"arunanchal-pradesh","stateName":"Arunanchal Pradesh","censuscode":250,"type":"district"},"geometry":{"type":"Polygon","coordinates":[[[94.76223,28.53362],[94.75905,28.52829],[94.75171,28.52101],[94.75061,28.5112],[94.75034,28.50396],[94.74523,28.49794],[94.74972,28.48757],[94.75412,28.47725],[94.75517,28.47163],[94.75557,28.4665],[94.74961,28.45745],[94.76092,28.43715],[94.76427,28.43167],[94.76688,28.4233],[94.77217,28.42378],[94.77903,28.42451],[94.79257,28.42293],[94.8028,28.42023],[94.80979,28.41977],[94.81397,28.42354],[94.82286,28.4191],[94.83231,28.41837],[94.84365,28.41494],[94.85829,28.41334],[94.87327,28.41304],[94.87948,28.40923],[94.88234,28.40528],[94.88495,28.39222],[94.88833,28.38131],[94.8906,28.37418],[94.89275,28.36347],[94.89204,28.35579],[94.89291,28.35083],[94.8956,28.3455],[94.90144,28.34376],[94.90196,28.33772],[94.90747,28.3289],[94.91098,28.32083],[94.91665,28.30997],[94.91626,28.30236],[94.92345,28.29541],[94.92591,28.28467],[94.92419,28.27819],[94.92389,28.27223],[94.92823,28.265],[94.93435,28.25871],[94.93924,28.25087],[94.93843,28.24412],[94.92208,28.23893],[94.91631,28.23772],[94.90933,28.23764],[94.9024,28.23193],[94.8959,28.23503],[94.88453,28.23223],[94.894,28.22701],[94.9007,28.21605],[94.90537,28.21072],[94.91269,28.20535],[94.91593,28.20069],[94.91763,28.19574],[94.91406,28.18077],[94.91283,28.17572],[94.91254,28.16459],[94.9116,28.1585],[94.91539,28.1528],[94.92041,28.14606],[94.93467,28.14443],[94.94084,28.13684],[94.95243,28.12856],[94.94947,28.12386],[94.94798,28.1192],[94.94657,28.11445],[94.94022,28.10915],[94.93584,28.10218],[94.9315,28.09632],[94.9189,28.09096],[94.90343,28.07637],[94.91463,28.06748],[94.91962,28.06138],[94.92747,28.05492],[94.93134,28.05161],[94.93386,28.0475],[94.91298,28.03462],[94.9052,28.01995],[94.90094,28.01648],[94.89605,28.0139],[94.88989,28.01189],[94.88378,27.99993],[94.89605,27.99646],[94.90361,27.99538],[94.92501,27.99705],[94.93115,27.99196],[94.94374,27.98948],[94.95034,27.98661],[94.95396,27.98163],[94.96044,27.98046],[94.96002,27.97382],[94.95884,27.96512],[94.95689,27.9553],[94.9496,27.94883],[94.94942,27.9418],[94.95024,27.9369],[94.94435,27.92298],[94.94139,27.91855],[94.93025,27.90552],[94.92843,27.89837],[94.92624,27.89392],[94.92771,27.88904],[94.91799,27.88426],[94.90899,27.88],[94.91196,27.87013],[94.90987,27.86385],[94.91253,27.85946],[94.92437,27.86015],[94.93238,27.85662],[94.92847,27.85278],[94.91977,27.84628],[94.91485,27.84357],[94.9086,27.842],[94.91236,27.83342],[94.90431,27.82861],[94.90384,27.82247],[94.8995,27.81879],[94.89414,27.80956],[94.8991,27.80752],[94.89908,27.80084],[94.89641,27.79666],[94.88984,27.79081],[94.88765,27.78421],[94.88244,27.78068],[94.87646,27.77979],[94.87325,27.77535],[94.87104,27.76861],[94.86587,27.76357],[94.86252,27.75706],[94.86256,27.75026],[94.86797,27.74164],[94.86277,27.72942],[94.85563,27.72766],[94.85081,27.7067],[94.84141,27.69957],[94.82329,27.69226],[94.80226,27.69318],[94.79609,27.68931],[94.79302,27.68494],[94.77849,27.67948],[94.76899,27.67624],[94.76634,27.67067],[94.76159,27.66455],[94.74471,27.65955],[94.7391,27.66179],[94.72974,27.66402],[94.72278,27.66618],[94.71871,27.65782],[94.70017,27.6633],[94.69151,27.66342],[94.68598,27.65957],[94.68859,27.65335],[94.68458,27.6458],[94.67782,27.64687],[94.67118,27.64651],[94.66672,27.64411],[94.65052,27.63832],[94.6473,27.63279],[94.64188,27.62721],[94.63651,27.62503],[94.62705,27.62639],[94.61617,27.62202],[94.61147,27.61893],[94.60617,27.6194],[94.59787,27.61778],[94.58841,27.61644],[94.58397,27.61301],[94.57563,27.60329],[94.56601,27.60331],[94.55822,27.59958],[94.54853,27.5999],[94.5387,27.59336],[94.52839,27.59216],[94.51776,27.58112],[94.51152,27.58046],[94.50233,27.57371],[94.49308,27.5719],[94.48522,27.57363],[94.47143,27.56044],[94.46185,27.55414],[94.45835,27.55935],[94.45562,27.5674],[94.45177,27.57152],[94.44455,27.57596],[94.43822,27.58093],[94.4328,27.593],[94.43327,27.59963],[94.42317,27.5979],[94.4054,27.58376],[94.3971,27.58537],[94.38985,27.58589],[94.38267,27.5817],[94.37456,27.57589],[94.36973,27.57336],[94.36446,27.57686],[94.35795,27.57402],[94.35112,27.5761],[94.34736,27.58125],[94.34042,27.5777],[94.33137,27.58508],[94.32604,27.58387],[94.32203,27.58677],[94.31474,27.58637],[94.31071,27.59232],[94.304,27.59664],[94.30039,27.60104],[94.29526,27.59713],[94.29084,27.59127],[94.27841,27.59013],[94.27484,27.60027],[94.26431,27.60693],[94.25653,27.61055],[94.25954,27.61597],[94.26468,27.62138],[94.26963,27.62471],[94.26917,27.62941],[94.26526,27.63289],[94.25847,27.63342],[94.25472,27.63782],[94.24976,27.6327],[94.23759,27.62942],[94.22844,27.61489],[94.2199,27.60589],[94.21359,27.60776],[94.21653,27.61352],[94.23446,27.6374],[94.25113,27.65079],[94.25907,27.65575],[94.27023,27.66544],[94.28126,27.67063],[94.3057,27.68436],[94.31463,27.69112],[94.32536,27.7027],[94.33741,27.70871],[94.34758,27.71258],[94.35498,27.71395],[94.35879,27.71886],[94.35936,27.72843],[94.35248,27.72988],[94.3456,27.72593],[94.32365,27.73433],[94.31751,27.73868],[94.31339,27.74491],[94.31688,27.76838],[94.32046,27.77363],[94.32471,27.77029],[94.33587,27.75743],[94.35003,27.76374],[94.36808,27.77657],[94.37512,27.78306],[94.38284,27.78898],[94.38825,27.79387],[94.39782,27.79374],[94.40568,27.79219],[94.42137,27.80605],[94.42688,27.80744],[94.43706,27.80865],[94.44334,27.81068],[94.44571,27.81361],[94.44687,27.8226],[94.45164,27.82484],[94.46458,27.82472],[94.46775,27.82703],[94.47283,27.83249],[94.47902,27.83291],[94.48651,27.83578],[94.50712,27.83594],[94.53694,27.84958],[94.56258,27.85581],[94.58054,27.85569],[94.59248,27.86128],[94.59819,27.87037],[94.5979,27.88065],[94.59629,27.88971],[94.59142,27.89231],[94.58262,27.89419],[94.57,27.89834],[94.56142,27.90207],[94.55786,27.90987],[94.54592,27.92507],[94.54113,27.93301],[94.53919,27.94353],[94.53432,27.95192],[94.52848,27.95787],[94.52614,27.96607],[94.52874,27.97676],[94.53544,27.98561],[94.53165,27.98953],[94.5281,27.99489],[94.52591,28.00048],[94.51636,28.01507],[94.50964,28.01894],[94.48759,28.02139],[94.47871,28.03897],[94.47044,28.04841],[94.44269,28.06055],[94.42899,28.06227],[94.42084,28.06606],[94.41166,28.0688],[94.41079,28.0719],[94.40595,28.07571],[94.40266,28.07961],[94.39518,28.08236],[94.39815,28.08844],[94.40102,28.10438],[94.38987,28.12071],[94.39521,28.13615],[94.39482,28.14156],[94.38113,28.15831],[94.37798,28.16767],[94.37995,28.17621],[94.37782,28.18074],[94.37212,28.18558],[94.36409,28.19016],[94.35984,28.19818],[94.36791,28.20621],[94.37111,28.21114],[94.37016,28.22017],[94.37166,28.22474],[94.37077,28.23509],[94.37261,28.24381],[94.37577,28.24574],[94.38681,28.25767],[94.40039,28.25519],[94.40752,28.25259],[94.4131,28.25242],[94.42036,28.25389],[94.41451,28.2558],[94.40484,28.25896],[94.39746,28.26319],[94.39604,28.27332],[94.39326,28.27824],[94.38465,28.28683],[94.37819,28.29465],[94.37814,28.29943],[94.38096,28.30861],[94.38951,28.31654],[94.39965,28.32224],[94.4066,28.32751],[94.40471,28.33998],[94.38948,28.33554],[94.38001,28.3402],[94.37613,28.34389],[94.37423,28.35141],[94.37135,28.35281],[94.34688,28.35487],[94.3406,28.35801],[94.333,28.35751],[94.32873,28.36113],[94.32546,28.36827],[94.31878,28.37227],[94.31191,28.37522],[94.3051,28.39559],[94.31222,28.41418],[94.31186,28.4166],[94.30592,28.41858],[94.29982,28.42245],[94.29617,28.42843],[94.28677,28.43161],[94.27814,28.43033],[94.27089,28.43188],[94.2659,28.43507],[94.2555,28.43978],[94.24514,28.44642],[94.24268,28.44541],[94.24013,28.44153],[94.2401,28.43322],[94.23497,28.42786],[94.22866,28.43303],[94.22256,28.43591],[94.21729,28.4361],[94.2037,28.43124],[94.19585,28.4295],[94.18792,28.42908],[94.17666,28.43472],[94.17161,28.43245],[94.16596,28.43197],[94.15517,28.43577],[94.14249,28.44416],[94.13608,28.45116],[94.12975,28.46667],[94.12626,28.47035],[94.11818,28.47541],[94.11473,28.48884],[94.10895,28.49726],[94.11239,28.50282],[94.11084,28.51167],[94.11213,28.52097],[94.11066,28.52404],[94.10648,28.52501],[94.10304,28.53278],[94.10021,28.53575],[94.09533,28.53523],[94.08852,28.53342],[94.07482,28.53897],[94.06902,28.54423],[94.06132,28.54918],[94.05302,28.55081],[94.02475,28.56523],[94.00474,28.57745],[94.0051,28.59065],[94.00677,28.61055],[94.00947,28.6214],[94.01355,28.63149],[94.02668,28.65094],[94.02142,28.66521],[94.01892,28.66827],[94.0129,28.67128],[94.00747,28.67433],[94.00455,28.67836],[93.99995,28.68214],[93.99304,28.68747],[93.96542,28.71203],[93.96768,28.71769],[93.97071,28.72223],[93.97031,28.74199],[93.97371,28.75042],[93.98286,28.75834],[93.9956,28.76466],[94.00332,28.77068],[94.00667,28.77458],[94.00689,28.78334],[94.00369,28.78711],[93.99057,28.7974],[93.99091,28.80589],[94.00533,28.8189],[94.00339,28.83027],[94.00033,28.84053],[94.00826,28.84619],[94.02022,28.85033],[94.03547,28.8526],[94.03961,28.86012],[94.04944,28.87301],[94.06357,28.88674],[94.07201,28.89529],[94.08433,28.90502],[94.09964,28.91434],[94.12598,28.92948],[94.142,28.9396],[94.16067,28.95398],[94.16247,28.95859],[94.1639,28.97332],[94.17236,28.98041],[94.17855,28.9911],[94.17744,29.00247],[94.17761,29.00707],[94.18089,29.01982],[94.18514,29.02789],[94.19107,29.03825],[94.25436,29.01635],[94.32342,28.99119],[94.34612,28.98359],[94.371,28.95627],[94.44524,28.89159],[94.48337,28.85812],[94.52044,28.83626],[94.5187,28.82058],[94.52873,28.81127],[94.54445,28.80984],[94.56498,28.80998],[94.59566,28.79151],[94.61123,28.79673],[94.62356,28.7935],[94.63672,28.7839],[94.63734,28.76636],[94.7001,28.72804],[94.73327,28.70082],[94.74897,28.68606],[94.75121,28.66486],[94.74792,28.61057],[94.75005,28.58763],[94.76356,28.55964],[94.78095,28.55887],[94.77418,28.55079],[94.76545,28.54679],[94.76223,28.53362]]]}}]}