{"type":"FeatureCollection","features":[{"type":"Feature","properties":{"id":"champhai","name":"Champhai","stateId":"mizoram","stateName":"Mizoram","censuscode":284,"type":"district"},"geometry":{"type":"Polygon","coordinates":[[[93.33578,24.04953],[93.3406,24.0407],[93.3344,24.03874],[93.33602,24.03033],[93.34053,24.02678],[93.33529,24.01994],[93.33868,24.00855],[93.33761,23.99833],[93.33732,23.99202],[93.33275,23.98309],[93.33579,23.97892],[93.34571,23.97681],[93.34991,23.97407],[93.35146,23.96811],[93.35416,23.95734],[93.35815,23.95074],[93.36322,23.94203],[93.36928,23.93659],[93.37399,23.93386],[93.37948,23.93221],[93.3892,23.93],[93.39694,23.92627],[93.39779,23.92038],[93.39737,23.91496],[93.39578,23.90892],[93.39491,23.89466],[93.39377,23.88327],[93.39362,23.8727],[93.39457,23.86692],[93.39503,23.85978],[93.39471,23.85454],[93.39486,23.84668],[93.3952,23.83692],[93.39822,23.83131],[93.39728,23.8202],[93.39951,23.81539],[93.405,23.81312],[93.40907,23.80369],[93.40814,23.79475],[93.40563,23.78618],[93.40252,23.77102],[93.40229,23.76497],[93.40333,23.75755],[93.40517,23.75158],[93.40857,23.74461],[93.41246,23.73944],[93.41341,23.73438],[93.41574,23.72849],[93.41384,23.72282],[93.4135,23.71406],[93.41494,23.70808],[93.42127,23.69992],[93.42754,23.69664],[93.43447,23.69209],[93.43933,23.68421],[93.44263,23.67832],[93.43888,23.67409],[93.43404,23.6677],[93.43137,23.6631],[93.4283,23.65616],[93.4262,23.64948],[93.42655,23.64108],[93.43062,23.61468],[93.43127,23.59101],[93.43262,23.58476],[93.43091,23.57836],[93.42497,23.56763],[93.42188,23.55752],[93.42508,23.54892],[93.42592,23.54116],[93.42558,23.5342],[93.42339,23.52716],[93.41975,23.52311],[93.41403,23.51645],[93.409,23.50924],[93.40544,23.50448],[93.40511,23.49797],[93.40596,23.49245],[93.40218,23.48099],[93.40373,23.47701],[93.40487,23.47132],[93.40376,23.46328],[93.3992,23.453],[93.39758,23.44289],[93.39629,23.43891],[93.39497,23.42935],[93.39512,23.4222],[93.39462,23.41851],[93.39537,23.41154],[93.39602,23.4073],[93.40166,23.39769],[93.40349,23.39362],[93.40748,23.38791],[93.41196,23.38401],[93.40235,23.37952],[93.39939,23.37557],[93.39418,23.37007],[93.39424,23.36411],[93.39647,23.36031],[93.38756,23.35882],[93.37406,23.35869],[93.36936,23.35591],[93.36524,23.35421],[93.36356,23.3506],[93.36579,23.34608],[93.36977,23.34036],[93.3755,23.33365],[93.37705,23.32877],[93.37525,23.3229],[93.37443,23.31559],[93.3747,23.3089],[93.37535,23.30267],[93.37747,23.29733],[93.37889,23.28973],[93.37593,23.28287],[93.37307,23.27873],[93.37274,23.27069],[93.37494,23.26029],[93.37607,23.25224],[93.3809,23.24093],[93.38604,23.23105],[93.39232,23.22036],[93.39241,23.21566],[93.38503,23.2073],[93.38421,23.19809],[93.38286,23.18409],[93.37909,23.171],[93.37817,23.16305],[93.37363,23.15503],[93.37154,23.14646],[93.37668,23.13975],[93.38823,23.14403],[93.39202,23.1405],[93.3912,23.13472],[93.37952,23.12365],[93.37366,23.12015],[93.36661,23.11675],[93.36258,23.11288],[93.36156,23.1024],[93.36065,23.09626],[93.35955,23.09157],[93.35495,23.08716],[93.35003,23.08086],[93.34864,23.07653],[93.35575,23.07415],[93.35495,23.069],[93.35052,23.06106],[93.34272,23.06101],[93.33818,23.05145],[93.33432,23.0399],[93.33018,23.03197],[93.32713,23.02792],[93.32164,23.02125],[93.31879,23.01819],[93.31255,23.01848],[93.30373,23.01003],[93.29952,23.0047],[93.2953,23.00219],[93.28574,23.00105],[93.27618,23.00209],[93.27151,23.00671],[93.26568,23.00881],[93.25669,23.00522],[93.25082,23.00299],[93.24537,23.00608],[93.23885,23.01062],[93.23545,23.01416],[93.23176,23.01842],[93.22934,23.02366],[93.22585,23.02937],[93.21789,23.04178],[93.21177,23.04595],[93.20389,23.05348],[93.19892,23.0544],[93.19661,23.05527],[93.19568,23.06487],[93.19334,23.07569],[93.18874,23.0981],[93.18361,23.12109],[93.16541,23.17916],[93.13083,23.19461],[93.07838,23.20656],[93.05064,23.21319],[93.038,23.24451],[93.02616,23.2495],[93.01278,23.26205],[93.01482,23.27381],[93.04651,23.31485],[93.04519,23.34175],[93.04079,23.37249],[93.0446,23.41069],[93.05954,23.41644],[93.04485,23.47568],[93.05685,23.55561],[93.04579,23.65341],[93.04499,23.70754],[93.04438,23.76562],[93.07522,23.77433],[93.12507,23.79853],[93.14979,23.81046],[93.16513,23.83996],[93.16145,23.88268],[93.18904,23.90722],[93.17147,23.93997],[93.19474,24.01414],[93.20723,24.04755],[93.21528,24.04646],[93.21954,24.05777],[93.22098,24.06406],[93.22382,24.07034],[93.22098,24.07788],[93.22525,24.08291],[93.23518,24.0804],[93.24088,24.08292],[93.24656,24.08167],[93.26222,24.06911],[93.26223,24.06409],[93.2651,24.05655],[93.26082,24.05403],[93.25087,24.03015],[93.25375,24.02011],[93.27241,24.0302],[93.27524,24.03648],[93.28383,24.04277],[93.28665,24.04779],[93.29671,24.04781],[93.31097,24.05032],[93.33578,24.04953]]]}}]}