{"type":"FeatureCollection","features":[{"type":"Feature","properties":{"id":"mamit","name":"Mamit","stateId":"mizoram","stateName":"Mizoram","censuscode":281,"type":"district"},"geometry":{"type":"Polygon","coordinates":[[[92.42224,24.24613],[92.41975,24.23317],[92.4182,24.21964],[92.41789,24.2089],[92.41939,24.20046],[92.41863,24.19234],[92.4218,24.18651],[92.43282,24.18123],[92.43384,24.17934],[92.43407,24.17211],[92.43736,24.16846],[92.43774,24.16708],[92.43484,24.16056],[92.43616,24.15039],[92.43704,24.14932],[92.43836,24.14921],[92.44143,24.1508],[92.44349,24.15105],[92.4502,24.14164],[92.45679,24.14143],[92.46261,24.1343],[92.46437,24.13455],[92.46551,24.13267],[92.46638,24.13296],[92.46813,24.13592],[92.47072,24.13698],[92.47288,24.13786],[92.47287,24.13993],[92.47437,24.14081],[92.47914,24.13879],[92.48041,24.1392],[92.48102,24.14082],[92.47829,24.1466],[92.48017,24.14799],[92.48021,24.15019],[92.48247,24.1506],[92.48309,24.15182],[92.48075,24.15496],[92.48219,24.15497],[92.4835,24.15602],[92.48444,24.15718],[92.48449,24.15926],[92.48542,24.16007],[92.48762,24.16009],[92.49428,24.1578],[92.49968,24.15837],[92.50199,24.15995],[92.50278,24.16451],[92.50441,24.16515],[92.5063,24.16465],[92.50908,24.16072],[92.51234,24.16041],[92.51152,24.16264],[92.50816,24.16704],[92.51325,24.16709],[92.51431,24.16802],[92.5131,24.1714],[92.51466,24.17331],[92.5171,24.17402],[92.52127,24.17074],[92.52491,24.17072],[92.52916,24.17259],[92.5294,24.17421],[92.53103,24.1752],[92.5324,24.17832],[92.53251,24.17825],[92.53604,24.17592],[92.53601,24.17104],[92.53601,24.17101],[92.53601,24.17089],[92.53219,24.16567],[92.53208,24.16563],[92.52927,24.16441],[92.52939,24.16146],[92.54042,24.15284],[92.54126,24.15033],[92.54383,24.14702],[92.54526,24.14094],[92.54527,24.14087],[92.54478,24.13812],[92.5425,24.13424],[92.54236,24.134],[92.53942,24.13111],[92.53905,24.12812],[92.53776,24.1254],[92.53802,24.12402],[92.54381,24.12357],[92.54385,24.12357],[92.54416,24.12231],[92.54285,24.1208],[92.5395,24.11265],[92.5395,24.11264],[92.53928,24.11212],[92.53834,24.10983],[92.54071,24.09968],[92.54031,24.09551],[92.5403,24.0954],[92.54029,24.0953],[92.54029,24.0953],[92.54028,24.0953],[92.5383,24.0919],[92.54075,24.07921],[92.54071,24.07871],[92.54071,24.07864],[92.54058,24.07708],[92.54004,24.07265],[92.54002,24.0726],[92.54002,24.07259],[92.53662,24.06342],[92.53658,24.0633],[92.53846,24.05796],[92.53847,24.05795],[92.5385,24.05786],[92.53852,24.05372],[92.53755,24.05187],[92.53754,24.05185],[92.53734,24.05147],[92.53689,24.04853],[92.53684,24.04822],[92.53684,24.04822],[92.53669,24.04727],[92.53884,24.03848],[92.53887,24.03836],[92.53907,24.03752],[92.53929,24.0331],[92.54174,24.03392],[92.55019,24.04017],[92.55018,24.04022],[92.55015,24.04034],[92.54928,24.04441],[92.55026,24.05361],[92.55027,24.05373],[92.55039,24.05483],[92.55061,24.05549],[92.55068,24.05571],[92.55132,24.05765],[92.55363,24.06017],[92.55389,24.06045],[92.55398,24.06055],[92.55409,24.06056],[92.55425,24.06058],[92.55537,24.06068],[92.5579,24.05945],[92.55855,24.05712],[92.5586,24.05694],[92.5586,24.05692],[92.55839,24.05295],[92.56419,24.05238],[92.56421,24.05238],[92.56425,24.05238],[92.56316,24.04955],[92.56315,24.04951],[92.55957,24.04022],[92.55952,24.04009],[92.56116,24.03924],[92.56543,24.03946],[92.56782,24.03827],[92.57096,24.04583],[92.57363,24.04913],[92.57263,24.05855],[92.57264,24.05866],[92.57279,24.06126],[92.5761,24.0652],[92.57625,24.06538],[92.57683,24.06607],[92.57694,24.0678],[92.57409,24.07319],[92.57406,24.07324],[92.57407,24.07331],[92.57424,24.07421],[92.58226,24.07424],[92.5834,24.07424],[92.58353,24.07424],[92.58355,24.07424],[92.58357,24.07423],[92.58588,24.07311],[92.58612,24.0637],[92.58612,24.06363],[92.58618,24.06353],[92.58702,24.06232],[92.58829,24.06135],[92.59245,24.06053],[92.59247,24.06053],[92.59913,24.05253],[92.59915,24.05251],[92.60135,24.04987],[92.60136,24.04987],[92.61136,24.0499],[92.6145,24.04925],[92.61599,24.04633],[92.61707,24.04001],[92.61921,24.03598],[92.62052,24.0335],[92.62067,24.03333],[92.62239,24.03145],[92.62631,24.03056],[92.62629,24.03061],[92.62625,24.03073],[92.62502,24.03446],[92.62503,24.0371],[92.62514,24.0373],[92.62571,24.03843],[92.62744,24.03896],[92.62973,24.03835],[92.63336,24.03471],[92.6383,24.0327],[92.63832,24.03269],[92.63782,24.03119],[92.63663,24.03043],[92.63195,24.02906],[92.62974,24.02594],[92.62948,24.02375],[92.62725,24.02045],[92.62718,24.02023],[92.62614,24.01699],[92.62614,24.01699],[92.62573,24.01243],[92.62571,24.01228],[92.6257,24.01215],[92.62308,24.00787],[92.62304,24.00781],[92.62307,24.00778],[92.6244,24.00564],[92.63237,24.00032],[92.63271,23.99708],[92.63272,23.99698],[92.63137,23.99519],[92.63128,23.99488],[92.63071,23.99268],[92.6307,23.99264],[92.63063,23.99021],[92.63209,23.98555],[92.6321,23.9855],[92.63211,23.98546],[92.62551,23.978],[92.62547,23.97795],[92.62296,23.96992],[92.62023,23.96118],[92.62021,23.96114],[92.62021,23.96096],[92.62023,23.95734],[92.62742,23.95375],[92.62751,23.95366],[92.63018,23.94485],[92.62522,23.94113],[92.62299,23.93517],[92.63683,23.93172],[92.64474,23.92942],[92.64635,23.92217],[92.65794,23.91992],[92.663,23.90833],[92.65935,23.90125],[92.64544,23.89604],[92.64127,23.89203],[92.64134,23.88579],[92.6431,23.88053],[92.64317,23.8723],[92.64763,23.86352],[92.65109,23.85394],[92.65412,23.84777],[92.66241,23.83712],[92.66128,23.83205],[92.65196,23.83069],[92.64658,23.82762],[92.64617,23.81992],[92.65612,23.81833],[92.65107,23.81119],[92.64285,23.81174],[92.6381,23.81556],[92.63319,23.80787],[92.62946,23.8019],[92.62521,23.79647],[92.62994,23.79288],[92.63952,23.79297],[92.64244,23.7853],[92.64037,23.772],[92.63487,23.76765],[92.62962,23.76239],[92.63566,23.75842],[92.63772,23.74739],[92.63919,23.73864],[92.6417,23.73417],[92.64386,23.72816],[92.64846,23.71982],[92.65206,23.71409],[92.65749,23.71137],[92.6635,23.71105],[92.66763,23.70733],[92.66063,23.69011],[92.6564,23.68197],[92.65249,23.67704],[92.64774,23.66796],[92.63705,23.65839],[92.63714,23.64744],[92.64072,23.64261],[92.64569,23.63953],[92.65246,23.63519],[92.65236,23.6303],[92.65834,23.62869],[92.66913,23.62646],[92.67527,23.62311],[92.67428,23.61443],[92.67487,23.60913],[92.67185,23.60004],[92.66431,23.59497],[92.65672,23.59337],[92.65179,23.58987],[92.65209,23.58446],[92.65404,23.57678],[92.66041,23.57034],[92.65879,23.55975],[92.65676,23.55423],[92.64816,23.5532],[92.64491,23.5476],[92.64376,23.5412],[92.638,23.53955],[92.63506,23.53361],[92.64036,23.52173],[92.6466,23.51935],[92.65453,23.51807],[92.65677,23.50841],[92.65929,23.50361],[92.66103,23.49724],[92.65755,23.48921],[92.65776,23.47852],[92.65848,23.46667],[92.65798,23.45564],[92.65858,23.44055],[92.65808,23.43152],[92.65935,23.42176],[92.66623,23.4118],[92.66962,23.4016],[92.66745,23.39075],[92.67269,23.3827],[92.66564,23.38115],[92.65966,23.38068],[92.64709,23.38172],[92.64156,23.38788],[92.63717,23.39098],[92.63038,23.39001],[92.62679,23.38582],[92.62156,23.38633],[92.61736,23.38925],[92.6138,23.39407],[92.60362,23.3967],[92.60179,23.40093],[92.59206,23.40453],[92.58803,23.40093],[92.59048,23.39012],[92.58868,23.38401],[92.5789,23.37665],[92.56864,23.37755],[92.56713,23.37635],[92.56552,23.37128],[92.55804,23.36932],[92.55151,23.37608],[92.54952,23.37686],[92.54953,23.37736],[92.54854,23.37812],[92.54357,23.37919],[92.53809,23.37888],[92.53747,23.37884],[92.53298,23.37761],[92.52851,23.37932],[92.52088,23.37844],[92.52088,23.37844],[92.51158,23.37859],[92.50789,23.38317],[92.50213,23.38657],[92.50133,23.38808],[92.50001,23.38796],[92.49712,23.38984],[92.49575,23.38391],[92.49082,23.38129],[92.48553,23.38289],[92.48215,23.38713],[92.47813,23.3897],[92.46804,23.38908],[92.46679,23.38863],[92.46539,23.38437],[92.46018,23.37951],[92.46119,23.37413],[92.46137,23.36726],[92.45993,23.36508],[92.46079,23.36363],[92.46532,23.36221],[92.46578,23.35525],[92.46377,23.35639],[92.46385,23.3508],[92.46259,23.34908],[92.47055,23.3418],[92.47242,23.32689],[92.47511,23.32151],[92.47215,23.31726],[92.46681,23.31875],[92.46587,23.31828],[92.46354,23.30827],[92.46021,23.30517],[92.46021,23.30327],[92.45723,23.29741],[92.45378,23.28635],[92.44649,23.2849],[92.43653,23.28417],[92.43676,23.28169],[92.44084,23.27929],[92.43307,23.27266],[92.42616,23.26359],[92.41346,23.26161],[92.40938,23.26503],[92.40858,23.26602],[92.40409,23.26381],[92.40162,23.26573],[92.39457,23.26555],[92.39623,23.26777],[92.39984,23.27166],[92.39738,23.27825],[92.39385,23.2814],[92.39169,23.28637],[92.38806,23.2944],[92.38931,23.30082],[92.39184,23.30724],[92.38879,23.3131],[92.38702,23.31752],[92.3835,23.32104],[92.37674,23.32139],[92.3731,23.32852],[92.37564,23.33222],[92.37965,23.33477],[92.38481,23.34101],[92.38598,23.34598],[92.38655,23.35131],[92.38536,23.36008],[92.38133,23.36648],[92.37896,23.37217],[92.37065,23.37287],[92.36545,23.37512],[92.36779,23.37973],[92.36505,23.38369],[92.35986,23.38631],[92.36219,23.39146],[92.36198,23.3958],[92.35767,23.39688],[92.35697,23.40147],[92.35901,23.40609],[92.36136,23.4098],[92.36115,23.41395],[92.35577,23.4143],[92.35096,23.41962],[92.35142,23.42622],[92.34985,23.43064],[92.34798,23.4347],[92.3424,23.43207],[92.33663,23.42952],[92.33253,23.42951],[92.33212,23.43557],[92.33191,23.44108],[92.3315,23.44713],[92.33167,23.45318],[92.3342,23.45978],[92.33477,23.46421],[92.32899,23.46727],[92.32671,23.46743],[92.324,23.46762],[92.32301,23.47131],[92.32897,23.4763],[92.32935,23.48064],[92.32562,23.48488],[92.32515,23.48876],[92.32451,23.49409],[92.32517,23.50375],[92.32387,23.50926],[92.32111,23.51811],[92.32422,23.52706],[92.3197,23.53129],[92.31312,23.53435],[92.3129,23.54428],[92.31503,23.55387],[92.31371,23.56705],[92.31053,23.58321],[92.31002,23.59044],[92.30403,23.59286],[92.29923,23.59393],[92.295,23.59663],[92.29389,23.60684],[92.29485,23.61524],[92.3018,23.61968],[92.30227,23.62375],[92.29863,23.62555],[92.2909,23.62516],[92.28413,23.62623],[92.28468,23.63418],[92.27987,23.63778],[92.27927,23.64347],[92.28354,23.65251],[92.28891,23.66238],[92.2929,23.67106],[92.29464,23.67874],[92.29598,23.68742],[92.29479,23.69365],[92.29202,23.70186],[92.28779,23.70465],[92.28513,23.7097],[92.28236,23.71502],[92.27656,23.71916],[92.26848,23.72439],[92.2658,23.73714],[92.26774,23.75479],[92.26659,23.76029],[92.26749,23.7649],[92.26727,23.76836],[92.26323,23.79003],[92.26304,23.79812],[92.26184,23.80327],[92.26017,23.80547],[92.25891,23.81338],[92.26899,23.81615],[92.27615,23.81357],[92.2786,23.81505],[92.27962,23.81409],[92.28027,23.81348],[92.28321,23.81462],[92.28533,23.81403],[92.28628,23.81511],[92.2852,23.82096],[92.28295,23.82177],[92.28322,23.82267],[92.28109,23.8245],[92.28157,23.82924],[92.27661,23.83493],[92.27539,23.83827],[92.27346,23.84002],[92.27427,23.84741],[92.2761,23.85127],[92.28476,23.85565],[92.2873,23.86135],[92.28733,23.86528],[92.29149,23.86976],[92.29343,23.86963],[92.29467,23.86841],[92.29457,23.86379],[92.30014,23.86474],[92.30375,23.86211],[92.30681,23.86215],[92.30936,23.86092],[92.31505,23.86176],[92.31906,23.86346],[92.3197,23.86409],[92.31771,23.86531],[92.31802,23.86624],[92.32054,23.86757],[92.32147,23.86806],[92.32163,23.87204],[92.31991,23.87626],[92.31853,23.87593],[92.31661,23.87744],[92.31692,23.8792],[92.317,23.87964],[92.31665,23.87975],[92.31606,23.87993],[92.31577,23.88155],[92.31664,23.88235],[92.31883,23.88193],[92.31903,23.88436],[92.31779,23.88621],[92.31849,23.88742],[92.3183,23.88795],[92.31801,23.88875],[92.31865,23.88912],[92.31943,23.88811],[92.3202,23.88949],[92.32107,23.88965],[92.32255,23.9024],[92.32358,23.90287],[92.3253,23.90267],[92.32725,23.90451],[92.32937,23.90374],[92.33,23.90582],[92.33066,23.91003],[92.32891,23.91708],[92.33018,23.91967],[92.32919,23.92134],[92.32745,23.92223],[92.32071,23.92436],[92.31762,23.92859],[92.31296,23.93277],[92.31226,23.93948],[92.31297,23.94154],[92.31225,23.94231],[92.31079,23.94387],[92.3122,23.95569],[92.31103,23.95882],[92.31221,23.95907],[92.31221,23.95907],[92.31291,23.95921],[92.31223,23.96845],[92.31479,23.9694],[92.31457,23.9704],[92.31726,23.97032],[92.31922,23.97354],[92.32166,23.97347],[92.32232,23.97802],[92.32355,23.97788],[92.3251,23.98147],[92.32736,23.9829],[92.32731,23.98394],[92.32674,23.98442],[92.32539,23.98568],[92.32865,23.98785],[92.32684,24.00013],[92.32705,24.00241],[92.32425,24.00473],[92.31676,24.01585],[92.31704,24.01699],[92.31847,24.01741],[92.32051,24.01612],[92.32135,24.01699],[92.31796,24.0208],[92.31872,24.02369],[92.31633,24.02618],[92.31891,24.02845],[92.31897,24.02949],[92.31377,24.03293],[92.31685,24.03572],[92.31718,24.03773],[92.31508,24.04311],[92.31492,24.0469],[92.31648,24.04956],[92.31869,24.04832],[92.31996,24.04937],[92.31826,24.0555],[92.32141,24.05692],[92.31874,24.05953],[92.31646,24.06496],[92.31784,24.06728],[92.31885,24.06769],[92.32086,24.06688],[92.32298,24.0678],[92.32255,24.06998],[92.32331,24.07148],[92.32479,24.07196],[92.327,24.07267],[92.32668,24.07462],[92.32599,24.07471],[92.32256,24.07515],[92.32248,24.07567],[92.32775,24.07877],[92.32874,24.08034],[92.32811,24.08307],[92.32846,24.08729],[92.32762,24.09194],[92.32987,24.09415],[92.33123,24.09692],[92.32803,24.09677],[92.3294,24.09932],[92.32913,24.10104],[92.332,24.10344],[92.33205,24.10498],[92.32902,24.10851],[92.33157,24.10992],[92.33138,24.1113],[92.32828,24.11408],[92.32796,24.12276],[92.33075,24.12612],[92.32848,24.12788],[92.32896,24.12978],[92.32787,24.13333],[92.32797,24.13678],[92.32896,24.13801],[92.33203,24.13861],[92.332,24.14218],[92.33297,24.14276],[92.33502,24.1417],[92.33601,24.14251],[92.33656,24.14494],[92.33407,24.14898],[92.33158,24.16172],[92.32919,24.16267],[92.3283,24.16426],[92.32967,24.1728],[92.32975,24.1782],[92.33055,24.18022],[92.33016,24.18297],[92.32681,24.18426],[92.32681,24.18426],[92.32938,24.1863],[92.32861,24.18727],[92.32922,24.18929],[92.32454,24.19291],[92.32432,24.19441],[92.32534,24.19568],[92.32495,24.19718],[92.32381,24.198],[92.32002,24.20074],[92.32001,24.20246],[92.32314,24.20273],[92.32314,24.20273],[92.32459,24.20286],[92.32439,24.20394],[92.31877,24.20716],[92.31591,24.21139],[92.31254,24.20916],[92.30955,24.21298],[92.30949,24.21429],[92.3134,24.21928],[92.31357,24.22107],[92.30322,24.2198],[92.3007,24.22023],[92.30092,24.22205],[92.301,24.2227],[92.30175,24.22329],[92.29746,24.22542],[92.29901,24.22756],[92.29931,24.22981],[92.29614,24.23202],[92.29613,24.23425],[92.29667,24.23628],[92.29471,24.2389],[92.29393,24.24251],[92.29515,24.2462],[92.29599,24.24691],[92.29696,24.24772],[92.29647,24.24992],[92.30337,24.25087],[92.31035,24.24951],[92.31392,24.25076],[92.3763,24.24936],[92.39545,24.25055],[92.40657,24.24993],[92.41618,24.25141],[92.42208,24.25108],[92.42224,24.24613]]]}}]}