{"type":"FeatureCollection","features":[{"type":"Feature","properties":{"id":"saiha","name":"Saiha","stateId":"mizoram","stateName":"Mizoram","censuscode":288,"type":"district"},"geometry":{"type":"Polygon","coordinates":[[[93.10169,22.78408],[93.10561,22.76724],[93.10897,22.74997],[93.11031,22.74121],[93.10678,22.7348],[93.10219,22.72867],[93.09955,22.72443],[93.09845,22.71657],[93.09668,22.71133],[93.09307,22.70809],[93.09557,22.69832],[93.10178,22.69316],[93.10448,22.6833],[93.10076,22.67572],[93.10113,22.67111],[93.105,22.66116],[93.1082,22.65609],[93.11208,22.65193],[93.11605,22.64848],[93.11232,22.6362],[93.12182,22.62705],[93.12707,22.62622],[93.13387,22.61987],[93.13658,22.61517],[93.14043,22.60459],[93.14186,22.59582],[93.14308,22.58308],[93.13344,22.57849],[93.13119,22.57434],[93.1267,22.57147],[93.12192,22.56407],[93.11908,22.55703],[93.11303,22.5518],[93.11397,22.54286],[93.11347,22.53753],[93.10916,22.52887],[93.11732,22.52577],[93.12325,22.52558],[93.1283,22.52312],[93.1311,22.51696],[93.12806,22.51101],[93.12805,22.50296],[93.13268,22.496],[93.13575,22.48361],[93.13369,22.47666],[93.13193,22.47188],[93.1356,22.46635],[93.13947,22.46028],[93.14314,22.45549],[93.15411,22.44913],[93.16014,22.45073],[93.17276,22.44826],[93.17546,22.44356],[93.17952,22.43568],[93.18523,22.43059],[93.18812,22.42417],[93.18556,22.41587],[93.18623,22.41044],[93.19156,22.40582],[93.1928,22.40021],[93.19054,22.39606],[93.18954,22.38775],[93.1937,22.38105],[93.18986,22.36778],[93.19178,22.36037],[93.19438,22.35557],[93.19723,22.34056],[93.19672,22.33414],[93.19991,22.33061],[93.20379,22.32644],[93.19357,22.32159],[93.19675,22.31472],[93.1978,22.3101],[93.19855,22.30305],[93.19892,22.29681],[93.1983,22.28895],[93.19876,22.28344],[93.19914,22.27783],[93.20116,22.27268],[93.20453,22.26662],[93.20576,22.25802],[93.19361,22.25264],[93.18757,22.2467],[93.18087,22.24618],[93.16816,22.24676],[93.16321,22.24596],[93.15758,22.24417],[93.14875,22.24519],[93.14369,22.23825],[93.14919,22.23181],[93.15373,22.22584],[93.15488,22.22024],[93.1535,22.21455],[93.15629,22.20695],[93.16315,22.20232],[93.16702,22.19716],[93.16361,22.19075],[93.16016,22.17946],[93.15162,22.17534],[93.14559,22.174],[93.1359,22.17393],[93.12796,22.17631],[93.12003,22.18626],[93.11715,22.19577],[93.10882,22.19796],[93.09951,22.19609],[93.09456,22.19663],[93.08613,22.19991],[93.07887,22.20572],[93.06888,22.20556],[93.05713,22.20134],[93.05121,22.20064],[93.04402,22.19505],[93.0439,22.18746],[93.05104,22.17325],[93.05227,22.16286],[93.04934,22.1541],[93.04816,22.14759],[93.04534,22.14326],[93.04425,22.13613],[93.0514,22.12916],[93.05653,22.12498],[93.05991,22.11829],[93.06376,22.11069],[93.06286,22.09949],[93.05703,22.09724],[93.04938,22.09671],[93.04357,22.09881],[93.0365,22.10244],[93.02952,22.10246],[93.02032,22.1032],[93.01333,22.10303],[93.0106,22.09564],[93.01292,22.09066],[93.01183,22.0828],[93.0091,22.07693],[93.0054,22.06754],[93.00112,22.05878],[92.9981,22.05328],[92.99731,22.04803],[92.99728,22.03719],[92.99891,22.02978],[93.00576,22.01756],[93.00768,22.0088],[93.00688,22.00031],[93.00744,21.99343],[93.00655,21.9816],[93.00392,21.97754],[92.99627,21.97565],[92.98969,21.97856],[92.98312,21.98779],[92.97908,21.99964],[92.97687,22.00416],[92.97048,22.0077],[92.96681,22.01186],[92.9643,22.01801],[92.96392,22.02488],[92.95832,22.02796],[92.95318,22.0277],[92.94852,22.02373],[92.9395,22.01616],[92.93204,22.01788],[92.93309,22.01057],[92.93648,22.0064],[92.92958,21.99973],[92.92511,21.99377],[92.9222,21.98501],[92.91967,21.97869],[92.91685,21.97174],[92.91315,21.96298],[92.91187,21.95458],[92.91351,21.94735],[92.90828,21.94419],[92.90325,21.95151],[92.90214,21.97871],[92.89876,21.9883],[92.89385,22.00186],[92.89172,22.00991],[92.8869,22.01615],[92.88322,22.0195],[92.87702,22.02393],[92.87219,22.02809],[92.86997,22.03451],[92.86882,22.04464],[92.86767,22.05223],[92.86768,22.05874],[92.86526,22.06335],[92.86081,22.06561],[92.85453,22.06365],[92.85204,22.07084],[92.8483,22.0808],[92.84883,22.08834],[92.84749,22.09613],[92.84769,22.10538],[92.8452,22.11476],[92.84559,22.1239],[92.84824,22.13444],[92.84643,22.14162],[92.84605,22.14904],[92.84424,22.16025],[92.84371,22.16712],[92.84284,22.18189],[92.84122,22.18793],[92.84163,22.1951],[92.84067,22.20586],[92.84161,22.21645],[92.84057,22.22637],[92.84009,22.23268],[92.83893,22.24036],[92.83735,22.2448],[92.8358,22.24943],[92.83476,22.25522],[92.83704,22.26411],[92.83629,22.26979],[92.83425,22.27465],[92.83743,22.27934],[92.84022,22.28734],[92.83716,22.29406],[92.83023,22.30036],[92.82765,22.30891],[92.82904,22.31384],[92.82848,22.31942],[92.82462,22.32517],[92.82583,22.33031],[92.84192,22.33119],[92.85238,22.323],[92.86564,22.32374],[92.86875,22.32778],[92.87504,22.34363],[92.88066,22.35261],[92.88319,22.35689],[92.88721,22.35991],[92.89466,22.36396],[92.89987,22.36679],[92.90513,22.37215],[92.9107,22.37757],[92.91866,22.38372],[92.92286,22.38861],[92.93213,22.39474],[92.93951,22.39202],[92.94332,22.38873],[92.93884,22.38424],[92.94074,22.37902],[92.95689,22.3723],[92.96274,22.37751],[92.96678,22.3928],[92.96459,22.39711],[92.95277,22.40084],[92.95164,22.40674],[92.9482,22.41368],[92.94637,22.42358],[92.94522,22.43032],[92.94292,22.43857],[92.94192,22.45794],[92.94626,22.46216],[92.94614,22.46704],[92.94005,22.47467],[92.93644,22.482],[92.93602,22.49805],[92.94106,22.52964],[92.93985,22.53976],[92.9375,22.54513],[92.93465,22.55458],[92.94095,22.55934],[92.94503,22.56387],[92.94939,22.57521],[92.95028,22.58847],[92.94895,22.59484],[92.95393,22.60186],[92.95173,22.61909],[92.95514,22.62741],[92.95186,22.63261],[92.94176,22.6451],[92.93398,22.66335],[92.93386,22.67751],[92.93303,22.68424],[92.937,22.70669],[92.9337,22.71368],[92.92109,22.72256],[92.91985,22.72818],[92.91863,22.73652],[92.91986,22.76427],[92.92502,22.77142],[92.93096,22.77611],[92.92993,22.78],[92.92546,22.78057],[92.92578,22.78954],[92.9327,22.79027],[92.94193,22.78971],[92.96036,22.78041],[92.96829,22.76953],[92.98013,22.75745],[92.99094,22.7537],[92.99993,22.75394],[93.00593,22.75353],[93.00887,22.75663],[93.00858,22.76263],[93.01203,22.76783],[93.01312,22.77646],[93.01754,22.77974],[93.0192,22.78417],[93.02872,22.78349],[93.03151,22.79578],[93.04534,22.79356],[93.05578,22.79178],[93.06328,22.79394],[93.06323,22.80011],[93.06974,22.80223],[93.07864,22.80634],[93.08641,22.80395],[93.08334,22.80116],[93.08199,22.79709],[93.09034,22.79113],[93.10169,22.78408]]]}}]}