{"type":"FeatureCollection","features":[{"type":"Feature","properties":{"id":"bagalkot","name":"Bagalkot","stateId":"karnataka","stateName":"Karnataka","censuscode":556,"type":"district"},"geometry":{"type":"Polygon","coordinates":[[[76.241,16.16531],[76.23538,16.13015],[76.24746,16.12624],[76.24606,16.11121],[76.25495,16.10996],[76.25529,16.0978],[76.26324,16.09776],[76.26783,16.10204],[76.27091,16.10782],[76.29142,16.10444],[76.33465,16.09034],[76.32962,16.0763],[76.31192,16.08207],[76.30533,16.08234],[76.29994,16.08369],[76.29427,16.08733],[76.26122,16.08888],[76.25916,16.082],[76.26094,16.07321],[76.28337,16.07373],[76.30301,16.0726],[76.30582,16.06684],[76.30782,16.06471],[76.30496,16.04602],[76.30653,16.02444],[76.31251,16.01471],[76.31349,16.01],[76.31329,16.00058],[76.31244,15.9974],[76.30896,15.99676],[76.30671,15.99756],[76.29742,15.99689],[76.29727,15.9919],[76.30072,15.97855],[76.30226,15.96897],[76.31189,15.95428],[76.3221,15.95271],[76.32816,15.93083],[76.31282,15.92658],[76.31095,15.92186],[76.30259,15.92206],[76.30179,15.92762],[76.28573,15.9256],[76.28468,15.91125],[76.28563,15.90133],[76.28563,15.90132],[76.27691,15.90261],[76.27795,15.90772],[76.27261,15.90862],[76.27104,15.90305],[76.26143,15.9045],[76.26061,15.91241],[76.25699,15.91319],[76.25815,15.91716],[76.25771,15.92083],[76.23158,15.92071],[76.22844,15.93922],[76.2196,15.93901],[76.20299,15.94083],[76.20279,15.93463],[76.19794,15.93369],[76.19653,15.93117],[76.19399,15.92978],[76.17378,15.9286],[76.17369,15.9228],[76.17204,15.92147],[76.16459,15.9184],[76.15609,15.91136],[76.1463,15.89267],[76.14358,15.89208],[76.13546,15.89256],[76.12924,15.89104],[76.11802,15.8849],[76.11171,15.8886],[76.10619,15.89058],[76.10361,15.89452],[76.10234,15.89807],[76.07773,15.89956],[76.07275,15.90045],[76.06009,15.9047],[76.06518,15.91464],[76.06456,15.91929],[76.06988,15.93205],[76.07089,15.94129],[76.07349,15.95174],[76.07419,15.9623],[76.07641,15.96787],[76.08046,15.97386],[76.08161,15.98132],[76.08613,15.99235],[76.08481,16.00018],[76.08216,16.00839],[76.08087,16.01],[76.05844,16.00975],[76.05729,16.00488],[76.05277,16.00209],[76.04538,16.00481],[76.03742,16.00461],[76.03032,16.00687],[76.02239,16.00771],[76.01826,16.00262],[76.01511,16.00205],[75.99998,16.00293],[75.99441,16.00374],[75.99103,16.00009],[75.9881,15.99463],[75.98016,15.99045],[75.97749,15.98715],[75.97569,15.9817],[75.97696,15.96053],[75.97632,15.95268],[75.98047,15.95263],[75.97617,15.94827],[75.97572,15.94666],[75.97699,15.94497],[75.97707,15.93694],[75.97826,15.93318],[75.97516,15.92056],[75.97768,15.89885],[75.97647,15.89699],[75.97664,15.89401],[75.97967,15.87665],[75.97933,15.87211],[75.97765,15.86691],[75.97539,15.8636],[75.97189,15.86062],[75.96559,15.85827],[75.96434,15.86181],[75.96253,15.86368],[75.94496,15.865],[75.94137,15.8739],[75.92944,15.87444],[75.93081,15.88435],[75.92511,15.88758],[75.92773,15.89401],[75.91946,15.90628],[75.91123,15.91545],[75.90334,15.92261],[75.90018,15.91968],[75.89233,15.9184],[75.88737,15.92021],[75.88455,15.92235],[75.88045,15.9294],[75.87749,15.9325],[75.86853,15.93316],[75.86391,15.9324],[75.85486,15.93498],[75.85233,15.93544],[75.84643,15.93419],[75.84402,15.93083],[75.84004,15.93052],[75.83507,15.92444],[75.82925,15.92379],[75.82719,15.92593],[75.82073,15.92581],[75.81039,15.92406],[75.8086,15.92179],[75.78784,15.92179],[75.77706,15.91735],[75.77359,15.91371],[75.77885,15.90599],[75.77716,15.90326],[75.7726,15.90289],[75.77205,15.90077],[75.78061,15.89744],[75.79057,15.89684],[75.79536,15.89543],[75.80383,15.89524],[75.8117,15.89329],[75.81228,15.89822],[75.82459,15.90068],[75.82849,15.89922],[75.82946,15.89595],[75.82829,15.89131],[75.82903,15.88764],[75.83391,15.88359],[75.83387,15.87912],[75.83143,15.8784],[75.83211,15.87427],[75.82856,15.86983],[75.82549,15.86435],[75.83224,15.8635],[75.83746,15.86396],[75.84102,15.8703],[75.84549,15.86983],[75.84813,15.86863],[75.84806,15.86671],[75.84788,15.86142],[75.85017,15.86087],[75.84691,15.85375],[75.84688,15.8451],[75.84568,15.83773],[75.83273,15.83912],[75.82529,15.8414],[75.81832,15.84651],[75.81304,15.84671],[75.80806,15.8503],[75.8016,15.85036],[75.79745,15.84707],[75.78437,15.84881],[75.7783,15.85036],[75.77589,15.84579],[75.77415,15.82756],[75.77779,15.82642],[75.77973,15.81738],[75.74554,15.81347],[75.73772,15.81339],[75.73741,15.81723],[75.73357,15.81699],[75.72827,15.81834],[75.71576,15.82478],[75.71131,15.82856],[75.7014,15.8262],[75.69483,15.82586],[75.68651,15.82979],[75.68046,15.82395],[75.67661,15.82348],[75.67532,15.82575],[75.67625,15.83363],[75.67385,15.83497],[75.66345,15.83663],[75.66163,15.83527],[75.66125,15.83061],[75.66023,15.8279],[75.6571,15.82716],[75.64856,15.83085],[75.64308,15.83225],[75.64529,15.84102],[75.63725,15.8399],[75.63684,15.83335],[75.63338,15.83168],[75.63208,15.83419],[75.62617,15.83328],[75.62056,15.8353],[75.62068,15.82216],[75.6172,15.82158],[75.61711,15.82359],[75.60026,15.82754],[75.59262,15.83068],[75.58763,15.83363],[75.58521,15.83313],[75.58063,15.82782],[75.57624,15.82499],[75.57571,15.82808],[75.57614,15.83016],[75.5702,15.83109],[75.56457,15.83099],[75.55871,15.82739],[75.55587,15.82469],[75.55303,15.82694],[75.5543,15.82937],[75.55697,15.83183],[75.54714,15.83458],[75.54656,15.8336],[75.53971,15.83239],[75.53873,15.83421],[75.53059,15.83515],[75.53185,15.83753],[75.53145,15.83982],[75.52945,15.84231],[75.52538,15.84104],[75.52187,15.84189],[75.5208,15.84532],[75.51863,15.84751],[75.5148,15.84922],[75.51746,15.85238],[75.52209,15.85205],[75.52305,15.85505],[75.52128,15.85749],[75.51563,15.85848],[75.51006,15.85844],[75.50821,15.85599],[75.50448,15.85559],[75.5035,15.85729],[75.50582,15.86296],[75.50071,15.8697],[75.49506,15.87396],[75.4876,15.8771],[75.48355,15.87749],[75.4812,15.87676],[75.47647,15.87253],[75.4729,15.87672],[75.46959,15.87592],[75.46829,15.87635],[75.46858,15.87957],[75.46695,15.88103],[75.46418,15.87978],[75.46012,15.88183],[75.46091,15.88684],[75.45546,15.88646],[75.44559,15.8884],[75.44774,15.8936],[75.44676,15.89508],[75.43896,15.89385],[75.44139,15.91801],[75.42569,15.92111],[75.43016,15.93221],[75.43127,15.93894],[75.43124,15.94389],[75.43402,15.9445],[75.4399,15.95919],[75.44054,15.96552],[75.43471,15.97006],[75.43447,15.97315],[75.4379,15.98601],[75.43972,16.00038],[75.43369,16.00659],[75.42764,16.01004],[75.42409,16.02299],[75.42291,16.03207],[75.41687,16.03283],[75.41592,16.04517],[75.41636,16.05176],[75.41907,16.05414],[75.42803,16.05793],[75.43054,16.08079],[75.42762,16.09213],[75.42543,16.09232],[75.42519,16.0968],[75.42036,16.10007],[75.41844,16.10239],[75.41568,16.10885],[75.41111,16.12995],[75.40805,16.12843],[75.405,16.11797],[75.40154,16.11314],[75.39376,16.11238],[75.37994,16.11346],[75.35737,16.11384],[75.3535,16.11687],[75.35316,16.12686],[75.34604,16.1235],[75.34015,16.1222],[75.32866,16.11522],[75.3243,16.11332],[75.30869,16.11448],[75.28968,16.1178],[75.27597,16.11812],[75.2806,16.13183],[75.28206,16.13933],[75.28532,16.14773],[75.2912,16.16963],[75.2848,16.17584],[75.28731,16.18574],[75.28679,16.20066],[75.28088,16.1986],[75.27829,16.20013],[75.27414,16.20488],[75.26706,16.2088],[75.25903,16.20797],[75.25086,16.20606],[75.24438,16.20619],[75.23875,16.20671],[75.23202,16.21018],[75.23351,16.21475],[75.22912,16.22421],[75.22995,16.22936],[75.2277,16.23426],[75.22911,16.23734],[75.23164,16.24046],[75.23192,16.24414],[75.23573,16.24902],[75.23082,16.25081],[75.23188,16.25957],[75.22793,16.26122],[75.21655,16.26823],[75.19879,16.27399],[75.18003,16.27569],[75.16959,16.27746],[75.16611,16.27946],[75.14677,16.28305],[75.12663,16.2878],[75.12846,16.29151],[75.12767,16.29496],[75.12985,16.30365],[75.13621,16.32246],[75.134,16.32644],[75.12986,16.32792],[75.1266,16.32887],[75.12089,16.32876],[75.11652,16.3272],[75.11311,16.32454],[75.10564,16.32697],[75.10156,16.32311],[75.08837,16.32434],[75.08398,16.3292],[75.08075,16.32849],[75.07109,16.33043],[75.06686,16.32497],[75.05957,16.32751],[75.05457,16.3263],[75.04745,16.32247],[75.04382,16.31699],[75.04205,16.31897],[75.03371,16.33724],[75.03388,16.34245],[75.03166,16.36565],[75.03253,16.37913],[75.03405,16.3864],[75.03799,16.39318],[75.04818,16.39389],[75.04905,16.39784],[75.0704,16.40175],[75.07279,16.40298],[75.07442,16.41042],[75.0767,16.42233],[75.07746,16.43575],[75.04349,16.4354],[75.02792,16.43217],[75.02459,16.4325],[75.02424,16.43818],[75.01843,16.43904],[75.01662,16.44813],[75.01672,16.4565],[75.0052,16.45782],[75.00004,16.45549],[74.99759,16.45595],[74.99567,16.45808],[74.99699,16.46034],[74.99681,16.46553],[74.99311,16.46527],[74.99292,16.47014],[74.99473,16.48169],[74.993,16.50781],[74.99697,16.51542],[74.99682,16.5212],[75.00003,16.5276],[75.00674,16.534],[75.00803,16.53796],[75.0262,16.5388],[75.04238,16.538],[75.06556,16.54012],[75.0703,16.56784],[75.08273,16.5614],[75.0866,16.55706],[75.09021,16.54595],[75.09202,16.53743],[75.10163,16.52563],[75.10828,16.50898],[75.11569,16.50626],[75.12394,16.50904],[75.12907,16.51489],[75.13187,16.52031],[75.13788,16.52519],[75.15184,16.52739],[75.15829,16.52956],[75.16205,16.53452],[75.16525,16.54337],[75.16635,16.55041],[75.15961,16.563],[75.15746,16.57214],[75.15781,16.58523],[75.16268,16.59463],[75.16979,16.6011],[75.19354,16.6098],[75.20664,16.61396],[75.21583,16.61598],[75.22883,16.61675],[75.24463,16.60853],[75.25601,16.60468],[75.25756,16.6092],[75.25742,16.617],[75.26287,16.61906],[75.26542,16.62724],[75.26708,16.636],[75.26365,16.67833],[75.26568,16.68749],[75.26885,16.69285],[75.28834,16.71162],[75.2905,16.71291],[75.30489,16.71487],[75.31759,16.71547],[75.32872,16.71402],[75.35409,16.71332],[75.36363,16.71389],[75.36505,16.72168],[75.36383,16.73242],[75.36758,16.75815],[75.38785,16.76193],[75.38784,16.76195],[75.39334,16.76121],[75.39921,16.76158],[75.42,16.76745],[75.42762,16.76677],[75.43888,16.75962],[75.44767,16.75532],[75.45519,16.75473],[75.4641,16.75519],[75.47814,16.74721],[75.49235,16.74518],[75.49406,16.73965],[75.49225,16.72843],[75.49316,16.70678],[75.49098,16.69802],[75.48439,16.69334],[75.45063,16.69805],[75.43928,16.69697],[75.44194,16.68552],[75.44572,16.66341],[75.4556,16.66308],[75.4566,16.6503],[75.46079,16.63269],[75.46155,16.62146],[75.4662,16.61566],[75.4716,16.61311],[75.47709,16.61051],[75.4834,16.60631],[75.48477,16.60501],[75.49016,16.59985],[75.49065,16.59844],[75.49267,16.59261],[75.49234,16.58565],[75.48538,16.57802],[75.48442,16.56985],[75.47906,16.56575],[75.47415,16.56505],[75.47402,16.56048],[75.48389,16.55731],[75.48464,16.556],[75.48862,16.54913],[75.48832,16.53531],[75.4875,16.53135],[75.49072,16.52853],[75.49101,16.5257],[75.49221,16.52373],[75.48966,16.52072],[75.48516,16.51903],[75.48663,16.50901],[75.47603,16.50869],[75.45632,16.5056],[75.46197,16.47533],[75.46018,16.46668],[75.45136,16.45552],[75.43945,16.44327],[75.43472,16.43745],[75.43472,16.42885],[75.45002,16.41333],[75.45879,16.41169],[75.46696,16.41678],[75.478,16.41521],[75.49339,16.41952],[75.4993,16.42711],[75.50062,16.4331],[75.49785,16.44224],[75.49887,16.4516],[75.52106,16.46106],[75.52176,16.46136],[75.53634,16.46464],[75.54617,16.46256],[75.55292,16.456],[75.55282,16.4474],[75.55193,16.4429],[75.55554,16.43112],[75.55687,16.42211],[75.56216,16.41386],[75.56926,16.41074],[75.57248,16.40996],[75.57692,16.41156],[75.58005,16.42016],[75.58553,16.42947],[75.59217,16.43781],[75.60464,16.44477],[75.60561,16.44499],[75.6101,16.44603],[75.62386,16.44443],[75.6257,16.44421],[75.63472,16.44216],[75.64345,16.44017],[75.65237,16.43376],[75.67551,16.4211],[75.67878,16.42239],[75.68393,16.41833],[75.68805,16.41389],[75.69702,16.40825],[75.70864,16.40096],[75.71652,16.39434],[75.7245,16.39037],[75.73404,16.38818],[75.73946,16.3876],[75.74621,16.38689],[75.78232,16.37989],[75.78864,16.37431],[75.79424,16.37091],[75.79485,16.3708],[75.80653,16.36861],[75.81055,16.3671],[75.81716,16.36462],[75.82584,16.35957],[75.8377,16.35124],[75.83869,16.35069],[75.84426,16.34849],[75.85199,16.34651],[75.86592,16.34618],[75.87396,16.34311],[75.88446,16.33228],[75.88728,16.32962],[75.89123,16.32614],[75.9071,16.3211],[75.91517,16.32014],[75.9173,16.31874],[75.93449,16.31374],[75.93785,16.31136],[75.94947,16.30318],[75.9592,16.29751],[75.96744,16.29728],[75.98034,16.29929],[75.98918,16.29816],[75.99419,16.2983],[75.99603,16.29925],[76.00016,16.30138],[76.01367,16.30166],[76.01411,16.30162],[76.02299,16.30064],[76.02826,16.29841],[76.03032,16.29572],[76.03186,16.2927],[76.03454,16.28743],[76.03767,16.28395],[76.04368,16.27946],[76.04986,16.27486],[76.05708,16.2704],[76.05814,16.26938],[76.0636,16.26409],[76.06688,16.25878],[76.06774,16.25393],[76.06892,16.24723],[76.06847,16.24172],[76.06825,16.24091],[76.06136,16.2304],[76.05989,16.22579],[76.05979,16.21939],[76.06175,16.21387],[76.06365,16.20999],[76.06684,16.20779],[76.07106,16.2059],[76.07886,16.204],[76.08692,16.20331],[76.10955,16.19258],[76.11734,16.19056],[76.12041,16.18977],[76.13206,16.18462],[76.14148,16.18046],[76.15464,16.183],[76.16207,16.18379],[76.17003,16.18386],[76.18385,16.17995],[76.19852,16.17598],[76.21083,16.17291],[76.23813,16.16608],[76.24099,16.16533],[76.241,16.16531]]]}}]}