{"type":"FeatureCollection","features":[{"type":"Feature","properties":{"id":"belgaum","name":"Belgaum","stateId":"karnataka","stateName":"Karnataka","censuscode":555,"type":"district"},"geometry":{"type":"MultiPolygon","coordinates":[[[[75.02647,16.93264],[75.02827,16.92717],[75.03087,16.93025],[75.04179,16.93576],[75.0446,16.94021],[75.04723,16.94115],[75.0517,16.94036],[75.06191,16.94077],[75.07954,16.94811],[75.08702,16.95016],[75.09076,16.94874],[75.09134,16.92268],[75.09459,16.91542],[75.10361,16.91107],[75.11548,16.91152],[75.11874,16.90879],[75.12032,16.902],[75.12439,16.89874],[75.13519,16.8945],[75.1339,16.88619],[75.13519,16.87986],[75.13794,16.87513],[75.14737,16.87101],[75.16129,16.86718],[75.16867,16.86642],[75.17782,16.86913],[75.18667,16.87512],[75.18954,16.87119],[75.18599,16.86353],[75.18019,16.84368],[75.1853,16.84254],[75.21296,16.842],[75.22717,16.84259],[75.23009,16.8472],[75.23283,16.85584],[75.2382,16.86462],[75.24066,16.86614],[75.24591,16.86619],[75.25524,16.86379],[75.2656,16.86253],[75.28015,16.87591],[75.28301,16.88046],[75.28487,16.88486],[75.28916,16.90278],[75.28294,16.91106],[75.28094,16.94454],[75.28197,16.95515],[75.28581,16.95636],[75.29213,16.95572],[75.30354,16.95627],[75.3355,16.95516],[75.34289,16.95415],[75.34302,16.94611],[75.33707,16.92575],[75.33475,16.92142],[75.33388,16.91437],[75.33456,16.86811],[75.35675,16.86755],[75.37404,16.86345],[75.39458,16.8605],[75.38505,16.8399],[75.38109,16.82938],[75.37976,16.8243],[75.38064,16.81016],[75.37787,16.80831],[75.37946,16.79801],[75.38261,16.78863],[75.38338,16.77949],[75.38784,16.76195],[75.38785,16.76193],[75.36758,16.75815],[75.36383,16.73242],[75.36505,16.72168],[75.36363,16.71389],[75.35409,16.71332],[75.32872,16.71402],[75.31759,16.71547],[75.30489,16.71487],[75.2905,16.71291],[75.28834,16.71162],[75.26885,16.69285],[75.26568,16.68749],[75.26365,16.67833],[75.26708,16.636],[75.26542,16.62724],[75.26287,16.61906],[75.25742,16.617],[75.25756,16.6092],[75.25601,16.60468],[75.24463,16.60853],[75.22883,16.61675],[75.21583,16.61598],[75.20664,16.61396],[75.19354,16.6098],[75.16979,16.6011],[75.16268,16.59463],[75.15781,16.58523],[75.15746,16.57214],[75.15961,16.563],[75.16635,16.55041],[75.16525,16.54337],[75.16205,16.53452],[75.15829,16.52956],[75.15184,16.52739],[75.13788,16.52519],[75.13187,16.52031],[75.12907,16.51489],[75.12394,16.50904],[75.11569,16.50626],[75.10828,16.50898],[75.10163,16.52563],[75.09202,16.53743],[75.09021,16.54595],[75.0866,16.55706],[75.08273,16.5614],[75.0703,16.56784],[75.06556,16.54012],[75.04238,16.538],[75.0262,16.5388],[75.00803,16.53796],[75.00674,16.534],[75.00003,16.5276],[74.99682,16.5212],[74.99697,16.51542],[74.993,16.50781],[74.99473,16.48169],[74.99292,16.47014],[74.99311,16.46527],[74.99681,16.46553],[74.99699,16.46034],[74.99567,16.45808],[74.99759,16.45595],[75.00004,16.45549],[75.0052,16.45782],[75.01672,16.4565],[75.01662,16.44813],[75.01843,16.43904],[75.02424,16.43818],[75.02459,16.4325],[75.02792,16.43217],[75.04349,16.4354],[75.07746,16.43575],[75.0767,16.42233],[75.07442,16.41042],[75.07279,16.40298],[75.0704,16.40175],[75.04905,16.39784],[75.04818,16.39389],[75.03799,16.39318],[75.03405,16.3864],[75.03253,16.37913],[75.03166,16.36565],[75.03388,16.34245],[75.03371,16.33724],[75.04205,16.31897],[75.04382,16.31699],[75.04745,16.32247],[75.05457,16.3263],[75.05957,16.32751],[75.06686,16.32497],[75.07109,16.33043],[75.08075,16.32849],[75.08398,16.3292],[75.08837,16.32434],[75.10156,16.32311],[75.10564,16.32697],[75.11311,16.32454],[75.11652,16.3272],[75.12089,16.32876],[75.1266,16.32887],[75.12986,16.32792],[75.134,16.32644],[75.13621,16.32246],[75.12985,16.30365],[75.12767,16.29496],[75.12846,16.29151],[75.12663,16.2878],[75.14677,16.28305],[75.16611,16.27946],[75.16959,16.27746],[75.18003,16.27569],[75.19879,16.27399],[75.21655,16.26823],[75.22793,16.26122],[75.23188,16.25957],[75.23082,16.25081],[75.23573,16.24902],[75.23192,16.24414],[75.23164,16.24046],[75.22911,16.23734],[75.2277,16.23426],[75.22995,16.22936],[75.22912,16.22421],[75.23351,16.21475],[75.23202,16.21018],[75.23875,16.20671],[75.24438,16.20619],[75.25086,16.20606],[75.25903,16.20797],[75.26706,16.2088],[75.27414,16.20488],[75.27829,16.20013],[75.28088,16.1986],[75.28679,16.20066],[75.28731,16.18574],[75.2848,16.17584],[75.2912,16.16963],[75.28532,16.14773],[75.28206,16.13933],[75.2806,16.13183],[75.27597,16.11812],[75.28968,16.1178],[75.30869,16.11448],[75.3243,16.11332],[75.32866,16.11522],[75.34015,16.1222],[75.34604,16.1235],[75.35316,16.12686],[75.3535,16.11687],[75.35737,16.11384],[75.37994,16.11346],[75.39376,16.11238],[75.40154,16.11314],[75.405,16.11797],[75.40805,16.12843],[75.41111,16.12995],[75.41568,16.10885],[75.41844,16.10239],[75.42036,16.10007],[75.42519,16.0968],[75.42543,16.09232],[75.42762,16.09213],[75.43054,16.08079],[75.42803,16.05793],[75.41907,16.05414],[75.41636,16.05176],[75.41592,16.04517],[75.41687,16.03283],[75.42291,16.03207],[75.42409,16.02299],[75.42764,16.01004],[75.43369,16.00659],[75.43972,16.00038],[75.4379,15.98601],[75.43447,15.97315],[75.43471,15.97006],[75.44054,15.96552],[75.4399,15.95919],[75.43402,15.9445],[75.43124,15.94389],[75.43127,15.93894],[75.43016,15.93221],[75.42569,15.92111],[75.44139,15.91801],[75.43896,15.89385],[75.44676,15.89508],[75.44774,15.8936],[75.44559,15.8884],[75.45546,15.88646],[75.45396,15.86266],[75.45849,15.85884],[75.46063,15.82403],[75.46018,15.81656],[75.4568,15.81678],[75.45595,15.81143],[75.45401,15.81123],[75.45093,15.79842],[75.44905,15.79391],[75.44099,15.79411],[75.43807,15.77964],[75.41613,15.78361],[75.41733,15.79512],[75.42538,15.82058],[75.42686,15.82933],[75.42768,15.84238],[75.42091,15.84266],[75.41699,15.84076],[75.41212,15.84106],[75.4099,15.83884],[75.40631,15.83786],[75.40296,15.83986],[75.39351,15.83792],[75.3818,15.84224],[75.37753,15.84302],[75.37565,15.83581],[75.37329,15.83473],[75.36735,15.81436],[75.36529,15.80473],[75.34225,15.8038],[75.34092,15.82628],[75.33078,15.82334],[75.33367,15.81513],[75.32756,15.81272],[75.32188,15.80905],[75.32047,15.81132],[75.31578,15.81204],[75.30395,15.81079],[75.30316,15.80537],[75.30393,15.79345],[75.30363,15.78179],[75.30493,15.76677],[75.31131,15.76482],[75.31747,15.76499],[75.31855,15.75789],[75.31846,15.74451],[75.31404,15.73122],[75.3026,15.72831],[75.29248,15.72761],[75.29367,15.73987],[75.28317,15.74001],[75.27543,15.7393],[75.2742,15.72366],[75.2772,15.72141],[75.27885,15.68901],[75.27885,15.689],[75.27252,15.66734],[75.27251,15.65592],[75.27321,15.65047],[75.25791,15.64841],[75.25072,15.64638],[75.24146,15.66533],[75.23733,15.67938],[75.21881,15.67864],[75.2185,15.6819],[75.20262,15.68172],[75.20244,15.67632],[75.20449,15.65935],[75.20309,15.64986],[75.18769,15.64934],[75.18576,15.65728],[75.17087,15.66142],[75.15095,15.66174],[75.14265,15.65946],[75.12326,15.66586],[75.12335,15.6677],[75.10704,15.6717],[75.10462,15.66218],[75.10083,15.66205],[75.09934,15.65071],[75.09841,15.62668],[75.09627,15.6182],[75.09261,15.60865],[75.08877,15.61146],[75.08198,15.62212],[75.05691,15.63135],[75.05687,15.63623],[75.05887,15.64913],[75.0604,15.65531],[75.06278,15.66047],[75.06401,15.66704],[75.06424,15.67003],[75.0616,15.68083],[75.04984,15.68193],[75.04745,15.67137],[75.03021,15.66874],[75.02876,15.65258],[75.02206,15.64975],[75.02033,15.64489],[75.01471,15.64478],[75.00007,15.64767],[74.99247,15.64972],[74.9822,15.64799],[74.96744,15.65145],[74.96402,15.6424],[74.96381,15.62535],[74.94539,15.62236],[74.93258,15.62244],[74.91949,15.6265],[74.91391,15.63046],[74.90805,15.62913],[74.89892,15.63056],[74.89376,15.62906],[74.89028,15.62981],[74.88407,15.62292],[74.87837,15.62073],[74.87856,15.61677],[74.85772,15.61172],[74.85612,15.61034],[74.84208,15.60678],[74.83911,15.61056],[74.8307,15.60936],[74.83091,15.58961],[74.83411,15.58989],[74.84055,15.57428],[74.82728,15.56744],[74.82391,15.56692],[74.82338,15.56382],[74.81919,15.55922],[74.81221,15.55417],[74.80873,15.54912],[74.79795,15.5459],[74.81168,15.52041],[74.81234,15.51799],[74.81039,15.51184],[74.8104,15.50852],[74.81348,15.50317],[74.80401,15.50116],[74.80443,15.49886],[74.79982,15.49748],[74.79947,15.49358],[74.79575,15.48709],[74.78717,15.48456],[74.78943,15.47681],[74.78909,15.47243],[74.77692,15.45957],[74.76569,15.47369],[74.76132,15.46961],[74.75454,15.48218],[74.74666,15.49451],[74.74045,15.49191],[74.72706,15.48915],[74.72749,15.48576],[74.72992,15.48508],[74.73022,15.48221],[74.72952,15.48002],[74.73422,15.46831],[74.74364,15.46464],[74.74489,15.46142],[74.74083,15.44844],[74.7387,15.44607],[74.73457,15.44372],[74.73203,15.43804],[74.73069,15.42953],[74.73467,15.42299],[74.74243,15.41954],[74.74262,15.4115],[74.7363,15.40897],[74.73399,15.40879],[74.72729,15.41132],[74.71788,15.41154],[74.71256,15.40953],[74.70724,15.40643],[74.70397,15.40941],[74.69917,15.40992],[74.6918,15.39912],[74.65423,15.39013],[74.65167,15.39484],[74.64576,15.39023],[74.64583,15.38495],[74.64187,15.38156],[74.63832,15.38184],[74.63649,15.378],[74.63809,15.37392],[74.63048,15.36776],[74.61434,15.35873],[74.59767,15.3725],[74.59594,15.37716],[74.5919,15.38003],[74.58811,15.38094],[74.58033,15.39144],[74.57636,15.39184],[74.56762,15.40343],[74.56289,15.40533],[74.54432,15.41726],[74.53449,15.4192],[74.51535,15.40332],[74.50545,15.40497],[74.49995,15.40463],[74.49427,15.40117],[74.48646,15.40081],[74.47985,15.39587],[74.47446,15.39735],[74.4739,15.40299],[74.47024,15.40303],[74.4701,15.41022],[74.46759,15.41377],[74.46191,15.41319],[74.45937,15.41112],[74.45773,15.40383],[74.45478,15.40239],[74.45317,15.40795],[74.44955,15.4087],[74.44719,15.40622],[74.44311,15.40513],[74.43932,15.4065],[74.43495,15.40384],[74.43477,15.40126],[74.43158,15.39815],[74.42649,15.39706],[74.4233,15.41676],[74.42061,15.46196],[74.41156,15.47556],[74.40487,15.47463],[74.38624,15.48546],[74.37548,15.482],[74.36223,15.49427],[74.3403,15.51881],[74.32975,15.51742],[74.32141,15.51751],[74.28519,15.52509],[74.27732,15.52174],[74.27637,15.52283],[74.28085,15.52829],[74.27916,15.53645],[74.27647,15.54386],[74.27248,15.55097],[74.26606,15.55653],[74.26337,15.56341],[74.26111,15.56571],[74.25804,15.56306],[74.24772,15.56809],[74.24781,15.57475],[74.25082,15.57775],[74.24978,15.58481],[74.25859,15.59241],[74.2589,15.60383],[74.26201,15.61182],[74.26092,15.61928],[74.25592,15.62514],[74.25283,15.62668],[74.24774,15.62535],[74.2459,15.62604],[74.24789,15.63183],[74.25061,15.63615],[74.24985,15.64901],[74.24864,15.65641],[74.23834,15.66782],[74.2352,15.66805],[74.23012,15.66407],[74.22483,15.66871],[74.21727,15.66106],[74.22167,15.65664],[74.22204,15.65516],[74.21731,15.65251],[74.2064,15.65122],[74.20301,15.65632],[74.20513,15.66069],[74.2047,15.66316],[74.1894,15.66709],[74.18753,15.67432],[74.1912,15.67582],[74.19076,15.6811],[74.18318,15.68315],[74.17602,15.67952],[74.17165,15.67359],[74.1684,15.67233],[74.1664,15.65423],[74.15887,15.65456],[74.15616,15.65076],[74.14786,15.65195],[74.13969,15.65084],[74.1356,15.64929],[74.12173,15.65241],[74.11877,15.65246],[74.11407,15.65584],[74.10471,15.6572],[74.09716,15.66136],[74.09062,15.66812],[74.08912,15.673],[74.09314,15.6745],[74.09889,15.67279],[74.11021,15.67294],[74.11973,15.67589],[74.12636,15.68055],[74.13166,15.68838],[74.13323,15.69671],[74.13167,15.70118],[74.13433,15.7025],[74.1317,15.70848],[74.1283,15.71139],[74.12751,15.71816],[74.12335,15.72005],[74.1276,15.72431],[74.13324,15.72381],[74.13465,15.7253],[74.13576,15.72932],[74.14019,15.7322],[74.14333,15.73382],[74.14819,15.7344],[74.15298,15.73648],[74.15514,15.74418],[74.16056,15.75137],[74.16406,15.75207],[74.19014,15.75235],[74.19748,15.75553],[74.20445,15.76071],[74.20774,15.76811],[74.20884,15.77599],[74.21054,15.78087],[74.21562,15.78381],[74.22053,15.78778],[74.2287,15.78894],[74.23215,15.78666],[74.23359,15.78287],[74.22839,15.76174],[74.22847,15.7561],[74.23222,15.75427],[74.23716,15.74653],[74.2434,15.74334],[74.25228,15.74553],[74.25944,15.74916],[74.26428,15.75406],[74.26742,15.75526],[74.27842,15.74547],[74.28567,15.74147],[74.30661,15.75045],[74.30826,15.7543],[74.31229,15.75558],[74.31773,15.75869],[74.3186,15.76345],[74.32124,15.77034],[74.32343,15.77253],[74.32824,15.76984],[74.33601,15.76768],[74.34052,15.76527],[74.34473,15.76552],[74.35868,15.77582],[74.36174,15.78375],[74.3647,15.78433],[74.3694,15.79886],[74.36969,15.80333],[74.36842,15.80666],[74.36788,15.81257],[74.363,15.81429],[74.36021,15.81762],[74.36459,15.81934],[74.36723,15.82796],[74.36841,15.82962],[74.38019,15.83538],[74.38338,15.83843],[74.38324,15.84624],[74.38133,15.84922],[74.34753,15.8502],[74.34012,15.85145],[74.33827,15.85414],[74.34715,15.85783],[74.34672,15.86133],[74.35789,15.87225],[74.36085,15.87317],[74.36126,15.87531],[74.36381,15.87777],[74.36444,15.88208],[74.36435,15.89247],[74.36796,15.89368],[74.36833,15.89202],[74.36661,15.88977],[74.37041,15.88703],[74.37702,15.87986],[74.37947,15.87533],[74.38187,15.86604],[74.38243,15.85932],[74.38622,15.85956],[74.38737,15.85388],[74.3971,15.85108],[74.40052,15.85401],[74.40562,15.85471],[74.40626,15.85976],[74.39316,15.87645],[74.39653,15.88035],[74.39561,15.88937],[74.39327,15.89785],[74.39232,15.8998],[74.38626,15.90134],[74.38578,15.90324],[74.396,15.91312],[74.40628,15.92726],[74.42933,15.95323],[74.4364,15.96753],[74.43809,15.97637],[74.44412,15.98527],[74.44263,15.98843],[74.44257,15.99032],[74.44433,15.99463],[74.44382,16.00055],[74.44753,16.00783],[74.45062,16.01093],[74.45813,16.02458],[74.46134,16.03227],[74.46188,16.03566],[74.4645,16.04255],[74.4622,16.04869],[74.45805,16.04973],[74.45005,16.05416],[74.44216,16.05439],[74.43456,16.05899],[74.43041,16.05871],[74.42619,16.05711],[74.41693,16.05517],[74.40951,16.05304],[74.40517,16.05098],[74.40357,16.04909],[74.40327,16.04731],[74.38996,16.04158],[74.3839,16.03711],[74.37239,16.0386],[74.37204,16.04125],[74.3727,16.04538],[74.37556,16.05554],[74.37396,16.05673],[74.36453,16.05299],[74.36191,16.05492],[74.36476,16.06153],[74.36891,16.06533],[74.37388,16.07154],[74.37441,16.07498],[74.37339,16.07876],[74.37481,16.08021],[74.38063,16.08005],[74.38431,16.08189],[74.39114,16.08035],[74.39221,16.08208],[74.39119,16.08908],[74.39796,16.09293],[74.40152,16.09265],[74.40918,16.09377],[74.41006,16.09795],[74.41243,16.10283],[74.41676,16.10451],[74.42863,16.11256],[74.43201,16.11011],[74.43861,16.10713],[74.44906,16.10463],[74.45417,16.10486],[74.45874,16.10407],[74.47222,16.09387],[74.47317,16.08986],[74.47614,16.08895],[74.48339,16.0893],[74.48475,16.09234],[74.48712,16.09482],[74.48695,16.09752],[74.48783,16.10056],[74.49074,16.10354],[74.49145,16.11433],[74.48525,16.14394],[74.48139,16.14502],[74.48008,16.14892],[74.48425,16.14915],[74.48898,16.15697],[74.48963,16.17092],[74.49212,16.18325],[74.4961,16.18734],[74.50346,16.18976],[74.50726,16.19017],[74.50726,16.19131],[74.5069,16.19775],[74.50517,16.20072],[74.50761,16.20113],[74.50767,16.20314],[74.49751,16.21345],[74.49644,16.21603],[74.49727,16.2181],[74.50207,16.22316],[74.50267,16.22482],[74.49744,16.23291],[74.48935,16.23783],[74.48912,16.2399],[74.47835,16.2486],[74.47503,16.24619],[74.47028,16.2409],[74.46736,16.24038],[74.45756,16.24369],[74.4556,16.24564],[74.45536,16.25029],[74.43682,16.2514],[74.43586,16.25599],[74.43497,16.2545],[74.43033,16.25661],[74.41648,16.25928],[74.41476,16.26571],[74.41552,16.27329],[74.41515,16.28241],[74.41194,16.28275],[74.39459,16.27807],[74.38508,16.27742],[74.38418,16.29204],[74.38121,16.29216],[74.37383,16.2953],[74.36748,16.29212],[74.36331,16.29252],[74.35625,16.28895],[74.3522,16.2906],[74.34976,16.29272],[74.34822,16.29156],[74.34691,16.29363],[74.34531,16.29001],[74.354,16.28371],[74.35352,16.28142],[74.34877,16.2763],[74.34574,16.27629],[74.34437,16.27807],[74.34295,16.27687],[74.34307,16.27508],[74.33749,16.27393],[74.33399,16.26938],[74.3306,16.26754],[74.32739,16.26988],[74.32417,16.27475],[74.32221,16.28123],[74.32282,16.28286],[74.32568,16.2859],[74.32531,16.28798],[74.32992,16.29196],[74.33625,16.29057],[74.34231,16.29327],[74.33842,16.30506],[74.33472,16.30461],[74.33368,16.30578],[74.3359,16.30688],[74.33415,16.3134],[74.32562,16.31254],[74.32453,16.31681],[74.32504,16.31818],[74.32923,16.31678],[74.33356,16.3187],[74.33082,16.32516],[74.3269,16.32551],[74.32345,16.32413],[74.31649,16.32689],[74.31751,16.32919],[74.32078,16.33096],[74.32263,16.33435],[74.31829,16.33844],[74.31693,16.34165],[74.32174,16.34285],[74.32792,16.34227],[74.32507,16.34824],[74.31717,16.35537],[74.32502,16.35732],[74.32574,16.35869],[74.32112,16.36984],[74.32125,16.37207],[74.31893,16.38097],[74.32606,16.3773],[74.32827,16.38459],[74.32851,16.39044],[74.32946,16.39136],[74.33387,16.39268],[74.3366,16.3924],[74.33934,16.39124],[74.3413,16.38774],[74.34218,16.38211],[74.34468,16.3785],[74.34549,16.36805],[74.3553,16.3665],[74.35324,16.38056],[74.36236,16.3929],[74.36278,16.39606],[74.36148,16.40019],[74.35821,16.40496],[74.35315,16.40571],[74.34275,16.40566],[74.34286,16.40112],[74.3362,16.40222],[74.33549,16.40693],[74.3317,16.41508],[74.33081,16.42191],[74.3373,16.42725],[74.33404,16.43466],[74.33416,16.43787],[74.33577,16.44126],[74.33601,16.44402],[74.33256,16.44655],[74.33227,16.44833],[74.33352,16.44982],[74.33239,16.45384],[74.32906,16.45476],[74.324,16.45447],[74.31538,16.45172],[74.30824,16.45488],[74.30046,16.46126],[74.29802,16.46246],[74.29575,16.46275],[74.29474,16.46074],[74.28963,16.46068],[74.28975,16.46838],[74.28815,16.47601],[74.2909,16.48325],[74.29389,16.50128],[74.29323,16.50427],[74.28223,16.50542],[74.27657,16.49767],[74.27376,16.491],[74.27424,16.48744],[74.27579,16.48423],[74.27168,16.4813],[74.26198,16.47768],[74.25835,16.48405],[74.25769,16.4871],[74.25532,16.49032],[74.25324,16.49255],[74.24628,16.49652],[74.24884,16.49841],[74.25628,16.50059],[74.27187,16.50266],[74.27902,16.50501],[74.27996,16.5084],[74.27765,16.51811],[74.27516,16.52218],[74.26986,16.52224],[74.26873,16.52678],[74.26517,16.53504],[74.26476,16.54028],[74.26959,16.54614],[74.27756,16.5447],[74.28148,16.54108],[74.27999,16.53103],[74.2804,16.52896],[74.28284,16.52689],[74.2829,16.52419],[74.28814,16.53091],[74.28779,16.53316],[74.29094,16.53355],[74.30028,16.5308],[74.3023,16.52563],[74.30182,16.5235],[74.30497,16.50857],[74.30686,16.5049],[74.30752,16.50374],[74.31489,16.50431],[74.31734,16.50794],[74.31611,16.52063],[74.31666,16.53384],[74.31559,16.54066],[74.31566,16.54612],[74.31721,16.55307],[74.32287,16.55508],[74.32561,16.55531],[74.3337,16.55174],[74.33965,16.54807],[74.34864,16.55472],[74.35335,16.5553],[74.35669,16.55782],[74.35925,16.55868],[74.36287,16.55489],[74.35649,16.55018],[74.35827,16.5453],[74.35619,16.54036],[74.35975,16.53927],[74.36475,16.53927],[74.37915,16.52904],[74.38366,16.52955],[74.38665,16.53271],[74.3894,16.5373],[74.38925,16.56113],[74.39491,16.5625],[74.39455,16.56509],[74.39217,16.56704],[74.39499,16.57255],[74.39593,16.57634],[74.39728,16.58027],[74.40756,16.58184],[74.41615,16.5851],[74.42273,16.58434],[74.42748,16.59596],[74.43478,16.60028],[74.44095,16.60194],[74.46654,16.6064],[74.46488,16.61654],[74.46545,16.62336],[74.46389,16.62506],[74.45852,16.63556],[74.45687,16.64605],[74.45925,16.64847],[74.45885,16.65451],[74.4642,16.65675],[74.47149,16.66234],[74.47547,16.65563],[74.48002,16.64069],[74.484,16.63765],[74.48596,16.63391],[74.4897,16.62925],[74.4922,16.62822],[74.49589,16.62873],[74.50454,16.63303],[74.52443,16.6322],[74.54587,16.6348],[74.5438,16.61712],[74.54468,16.61063],[74.54429,16.5938],[74.54905,16.59403],[74.56006,16.592],[74.56433,16.58286],[74.5596,16.57627],[74.55418,16.573],[74.55357,16.56876],[74.55416,16.5614],[74.55671,16.55968],[74.56004,16.55944],[74.56361,16.55805],[74.5686,16.55363],[74.57609,16.5535],[74.5761,16.55666],[74.58659,16.55721],[74.58719,16.55893],[74.58624,16.56049],[74.58642,16.56238],[74.58798,16.56548],[74.59054,16.56605],[74.59952,16.5638],[74.61174,16.56962],[74.61741,16.5753],[74.61915,16.57921],[74.61869,16.58357],[74.62172,16.58259],[74.62546,16.57931],[74.63117,16.5774],[74.63535,16.58359],[74.63421,16.596],[74.63457,16.60117],[74.63596,16.60633],[74.63764,16.6084],[74.64258,16.60971],[74.64663,16.60861],[74.65881,16.60272],[74.66377,16.60432],[74.67026,16.60763],[74.67355,16.6082],[74.68544,16.60611],[74.68843,16.60892],[74.68969,16.61247],[74.68935,16.61684],[74.68626,16.61978],[74.68031,16.62151],[74.66884,16.63009],[74.66093,16.63034],[74.65796,16.63379],[74.65542,16.63919],[74.66375,16.65715],[74.66669,16.66513],[74.69115,16.67656],[74.68961,16.68024],[74.68229,16.6806],[74.68254,16.68324],[74.68397,16.68571],[74.69065,16.68741],[74.69008,16.69402],[74.69097,16.71211],[74.69325,16.71676],[74.70292,16.71466],[74.71758,16.71486],[74.73183,16.71741],[74.74348,16.7237],[74.74939,16.72776],[74.75143,16.7312],[74.75914,16.73836],[74.76476,16.74105],[74.77042,16.74236],[74.77091,16.74557],[74.77439,16.75015],[74.78655,16.74972],[74.79589,16.74722],[74.79961,16.75233],[74.84601,16.7619],[74.85065,16.77234],[74.86412,16.77264],[74.88849,16.77027],[74.90292,16.77138],[74.91979,16.77154],[74.91181,16.78725],[74.91175,16.81178],[74.90899,16.83229],[74.90923,16.84298],[74.90786,16.85745],[74.92376,16.86487],[74.92749,16.87105],[74.93309,16.87068],[74.93586,16.87383],[74.93569,16.87803],[74.94119,16.87863],[74.94466,16.8816],[74.95216,16.87881],[74.96021,16.8794],[74.96339,16.90687],[74.94889,16.90798],[74.94408,16.91066],[74.9401,16.91475],[74.93421,16.91795],[74.93291,16.9222],[74.92298,16.92708],[74.92446,16.93666],[74.93438,16.94244],[74.94437,16.93728],[74.94849,16.93768],[74.9506,16.93147],[74.95411,16.93062],[74.95609,16.9344],[74.96282,16.93712],[74.96561,16.93738],[74.97143,16.93608],[74.9776,16.93209],[74.982,16.9305],[74.99069,16.93652],[74.99577,16.94338],[74.99996,16.94731],[75.00769,16.94406],[75.02666,16.94302],[75.02647,16.93264]]],[[[74.28975,15.8308],[74.29628,15.8157],[74.30361,15.80606],[74.30911,15.79856],[74.29779,15.78859],[74.29229,15.79388],[74.28963,15.79383],[74.28707,15.78834],[74.27005,15.79344],[74.26638,15.79318],[74.26502,15.79445],[74.26523,15.79706],[74.26625,15.79968],[74.26722,15.80109],[74.26711,15.80642],[74.26708,15.80792],[74.26817,15.80916],[74.26703,15.8105],[74.267,15.81186],[74.26514,15.81665],[74.26557,15.81919],[74.26552,15.82147],[74.26196,15.82392],[74.26035,15.82689],[74.27736,15.82729],[74.28975,15.8308]]]]}}]}