{"type":"FeatureCollection","features":[{"type":"Feature","properties":{"id":"bellary","name":"Bellary","stateId":"karnataka","stateName":"Karnataka","censuscode":565,"type":"district"},"geometry":{"type":"Polygon","coordinates":[[[77.15757,15.13706],[77.15887,15.12597],[77.15254,15.11279],[77.14419,15.10533],[77.1324,15.09909],[77.13033,15.07368],[77.12573,15.06055],[77.1232,15.05611],[77.12088,15.04559],[77.11642,15.04361],[77.11438,15.03407],[77.10647,15.03282],[77.09554,15.03318],[77.09302,15.02851],[77.08682,15.02775],[77.08525,15.01337],[77.08357,15.00549],[77.07332,15.00657],[77.06618,15.00701],[77.05559,15.00973],[77.04565,15.0109],[77.05104,15.02144],[77.05343,15.02926],[77.05151,15.0346],[77.04206,15.03296],[77.02753,15.03302],[77.01381,15.03492],[77.00518,15.03493],[77.00313,15.03239],[77.00016,15.029],[76.98797,15.02574],[76.98624,15.01568],[76.97121,15.01847],[76.95502,15.02969],[76.94708,15.03228],[76.93597,15.03154],[76.92361,15.03373],[76.91778,15.03615],[76.90966,15.03449],[76.9004,15.03706],[76.89285,15.03692],[76.88083,15.03383],[76.87385,15.04915],[76.86814,15.0551],[76.86462,15.06181],[76.84719,15.07122],[76.84138,15.07752],[76.83338,15.07932],[76.82519,15.07987],[76.81577,15.08523],[76.80077,15.09571],[76.79136,15.0854],[76.78801,15.08574],[76.78603,15.08378],[76.78771,15.08063],[76.78239,15.07654],[76.78014,15.07825],[76.77798,15.07635],[76.77952,15.07412],[76.77634,15.07008],[76.7746,15.06326],[76.77492,15.05907],[76.77883,15.04894],[76.78462,15.03924],[76.78564,15.02836],[76.78843,15.0217],[76.7836,15.01093],[76.77338,15.00561],[76.7719,15.00067],[76.77006,14.99585],[76.76902,14.9941],[76.76619,14.99449],[76.76306,14.9901],[76.76081,14.988],[76.76049,14.98876],[76.75649,14.98607],[76.74182,14.98747],[76.73628,14.98699],[76.72932,15.00031],[76.72855,15.0041],[76.72947,15.00928],[76.73127,15.01405],[76.73731,15.0241],[76.73402,15.03298],[76.72565,15.03232],[76.72074,15.03505],[76.71315,15.03278],[76.7081,15.03305],[76.7034,15.03108],[76.70517,15.01886],[76.70278,15.01666],[76.70035,15.0178],[76.69093,15.01886],[76.68622,15.01856],[76.68933,15.02696],[76.68257,15.02458],[76.67314,15.01892],[76.67285,15.01657],[76.67502,15.01088],[76.6782,15.00641],[76.68112,15.00034],[76.68612,14.98517],[76.68897,14.98008],[76.69227,14.97821],[76.71295,14.97484],[76.71791,14.9725],[76.71894,14.96954],[76.71868,14.96384],[76.71541,14.9428],[76.71038,14.94106],[76.70754,14.9415],[76.70752,14.93771],[76.70902,14.93253],[76.70595,14.93026],[76.69961,14.92924],[76.69272,14.93101],[76.67921,14.93939],[76.66157,14.94169],[76.66342,14.92319],[76.66557,14.91583],[76.67815,14.91117],[76.67856,14.90032],[76.67873,14.89699],[76.67875,14.892],[76.68257,14.88819],[76.69824,14.88894],[76.70913,14.87262],[76.71436,14.86224],[76.7157,14.85417],[76.71561,14.84665],[76.71463,14.83961],[76.71927,14.83331],[76.72609,14.82997],[76.73863,14.82645],[76.74262,14.8231],[76.74136,14.81716],[76.74049,14.81437],[76.73766,14.81447],[76.7352,14.81148],[76.71561,14.81597],[76.70235,14.81581],[76.6929,14.81171],[76.68466,14.8065],[76.67527,14.79391],[76.67164,14.79289],[76.67154,14.78807],[76.66744,14.77848],[76.66656,14.77409],[76.6617,14.77023],[76.65677,14.7608],[76.65046,14.75672],[76.65237,14.74494],[76.65225,14.73632],[76.65092,14.73301],[76.65269,14.72881],[76.65246,14.72633],[76.6492,14.71831],[76.64584,14.71381],[76.64132,14.71122],[76.63916,14.70575],[76.63533,14.70347],[76.62559,14.70001],[76.62108,14.6946],[76.61192,14.68665],[76.61279,14.6741],[76.61212,14.67034],[76.60856,14.66927],[76.60146,14.67001],[76.59945,14.66599],[76.59939,14.65731],[76.60403,14.65364],[76.61081,14.65158],[76.61311,14.64928],[76.60227,14.63406],[76.59848,14.63258],[76.59986,14.62716],[76.60342,14.62421],[76.6003,14.62172],[76.59283,14.6191],[76.58569,14.61524],[76.57816,14.60815],[76.57102,14.5933],[76.55339,14.58071],[76.55044,14.57455],[76.54489,14.57038],[76.5376,14.56571],[76.52922,14.56353],[76.51143,14.56139],[76.5083,14.56379],[76.50824,14.56384],[76.50125,14.56716],[76.49394,14.56903],[76.49394,14.56903],[76.45312,14.57692],[76.44592,14.57949],[76.42506,14.58134],[76.43155,14.60215],[76.43377,14.61347],[76.43255,14.61895],[76.42696,14.62294],[76.42255,14.6246],[76.41526,14.62378],[76.40977,14.62398],[76.40632,14.62314],[76.40334,14.62634],[76.39817,14.62596],[76.39452,14.62783],[76.39299,14.64244],[76.39157,14.64907],[76.3855,14.64867],[76.37877,14.64723],[76.37569,14.6495],[76.37642,14.65492],[76.38144,14.66115],[76.37736,14.66374],[76.36504,14.66587],[76.35159,14.66575],[76.34473,14.66642],[76.3415,14.6749],[76.33894,14.68604],[76.32992,14.68999],[76.32373,14.69235],[76.31784,14.69219],[76.31196,14.68933],[76.30556,14.69042],[76.29973,14.69027],[76.29239,14.6872],[76.27807,14.68681],[76.27522,14.68932],[76.27251,14.6959],[76.26611,14.69694],[76.26128,14.69687],[76.25827,14.69891],[76.2537,14.69763],[76.24962,14.69397],[76.24248,14.67964],[76.2357,14.6587],[76.23145,14.64883],[76.22176,14.65781],[76.21825,14.66306],[76.20515,14.67787],[76.1952,14.68139],[76.19304,14.69725],[76.19,14.69832],[76.18697,14.70067],[76.18697,14.70072],[76.18834,14.71887],[76.1916,14.72269],[76.19612,14.7249],[76.20051,14.72857],[76.20314,14.73483],[76.20441,14.73996],[76.20432,14.74141],[76.20406,14.74569],[76.20271,14.75057],[76.1947,14.76602],[76.19201,14.76841],[76.1859,14.76615],[76.18197,14.76632],[76.17494,14.78016],[76.17022,14.78495],[76.1541,14.78553],[76.14994,14.79033],[76.14602,14.80316],[76.145,14.8096],[76.14916,14.82146],[76.15419,14.8225],[76.15931,14.83001],[76.16557,14.8279],[76.17788,14.8224],[76.18588,14.8207],[76.19639,14.81979],[76.19646,14.82416],[76.19259,14.83535],[76.19068,14.84687],[76.18205,14.84738],[76.16211,14.84712],[76.15797,14.84792],[76.15792,14.85293],[76.15669,14.86027],[76.13203,14.86116],[76.13114,14.86615],[76.12767,14.86961],[76.12156,14.87045],[76.10877,14.8691],[76.07461,14.86827],[76.06988,14.87643],[76.06753,14.88329],[76.08046,14.89967],[76.08276,14.9041],[76.08175,14.91],[76.07585,14.91002],[76.07064,14.90869],[76.06627,14.91064],[76.06332,14.91269],[76.061,14.91499],[76.05553,14.91639],[76.05238,14.91813],[76.0489,14.9286],[76.04433,14.92775],[76.03137,14.91919],[76.02265,14.90975],[76.01888,14.90719],[76.01285,14.89883],[76.01138,14.90434],[76.00704,14.90523],[76.00324,14.90066],[76.00017,14.89993],[75.99741,14.89813],[75.98944,14.90501],[75.98657,14.90675],[75.9782,14.8986],[75.97195,14.90717],[75.96159,14.9026],[75.95334,14.90301],[75.94844,14.90173],[75.94199,14.90005],[75.94284,14.89688],[75.93891,14.8965],[75.93705,14.89299],[75.93273,14.8935],[75.926,14.88976],[75.91686,14.88841],[75.90055,14.88248],[75.9001,14.87883],[75.88922,14.87315],[75.88736,14.86954],[75.87456,14.86863],[75.87077,14.85431],[75.86268,14.85891],[75.8593,14.86209],[75.85551,14.86371],[75.855,14.87135],[75.85739,14.88208],[75.8506,14.88334],[75.84765,14.88817],[75.84329,14.88978],[75.83339,14.88284],[75.82797,14.89781],[75.8205,14.90005],[75.81265,14.89026],[75.81156,14.88586],[75.81431,14.88485],[75.80377,14.87407],[75.80674,14.85985],[75.81146,14.84623],[75.81077,14.84439],[75.80727,14.84256],[75.81359,14.835],[75.81888,14.83634],[75.8252,14.82559],[75.83247,14.81742],[75.83704,14.8059],[75.83605,14.79813],[75.82848,14.78234],[75.82348,14.77755],[75.81949,14.77652],[75.81379,14.77618],[75.80806,14.77383],[75.80487,14.77109],[75.80071,14.76924],[75.79637,14.77349],[75.7913,14.77669],[75.78615,14.7809],[75.77285,14.79274],[75.77197,14.7847],[75.76805,14.7814],[75.76097,14.77737],[75.75851,14.76309],[75.75795,14.74468],[75.75712,14.73838],[75.75712,14.73833],[75.75034,14.73318],[75.73704,14.72868],[75.71749,14.71801],[75.71234,14.71816],[75.70628,14.72166],[75.70332,14.72536],[75.70272,14.72959],[75.70722,14.73666],[75.71906,14.74713],[75.72211,14.75268],[75.72366,14.7596],[75.72419,14.76849],[75.7197,14.77476],[75.71274,14.77845],[75.69502,14.78242],[75.68795,14.78587],[75.67834,14.79788],[75.67293,14.79888],[75.66666,14.79806],[75.66479,14.80251],[75.66588,14.80826],[75.67009,14.81514],[75.67498,14.82929],[75.68092,14.84068],[75.69016,14.85401],[75.69473,14.85838],[75.69721,14.85222],[75.70263,14.85238],[75.70611,14.8537],[75.71499,14.85194],[75.71865,14.85569],[75.72292,14.86401],[75.73398,14.86368],[75.73551,14.86991],[75.73511,14.87719],[75.7369,14.88314],[75.73906,14.88733],[75.7384,14.88896],[75.73249,14.8915],[75.72903,14.89714],[75.69715,14.89196],[75.69462,14.8969],[75.6846,14.92993],[75.68476,14.93908],[75.68682,14.94314],[75.68928,14.94362],[75.69221,14.94531],[75.70199,14.94797],[75.702,14.94797],[75.72321,14.95044],[75.7307,14.94805],[75.73706,14.94341],[75.74352,14.94418],[75.75413,14.9558],[75.76138,14.96633],[75.7809,14.97688],[75.78213,14.98205],[75.78261,14.99306],[75.78567,14.9997],[75.78587,14.99984],[75.78601,14.99984],[75.79828,15.01057],[75.8104,15.02352],[75.83236,15.02724],[75.8362,15.03539],[75.8406,15.04097],[75.84481,15.04279],[75.84996,15.04134],[75.85648,15.03642],[75.86396,15.03391],[75.86758,15.03346],[75.87469,15.0352],[75.87759,15.03812],[75.88299,15.05034],[75.88685,15.05299],[75.90037,15.05412],[75.90508,15.05534],[75.90734,15.05836],[75.9107,15.07559],[75.90767,15.07984],[75.88553,15.09701],[75.88386,15.10122],[75.88537,15.10676],[75.90007,15.11909],[75.90248,15.12617],[75.90534,15.13144],[75.90857,15.13291],[75.91583,15.13414],[75.92385,15.13916],[75.93217,15.1408],[75.94053,15.13905],[75.94739,15.13616],[75.95047,15.13709],[75.95661,15.13755],[75.96476,15.14177],[75.97349,15.14982],[75.9784,15.15305],[75.98319,15.15259],[75.98768,15.14966],[75.99991,15.1466],[76.00314,15.14799],[76.0045,15.1476],[76.00946,15.14923],[76.02842,15.1433],[76.03705,15.14403],[76.0455,15.14585],[76.04715,15.14689],[76.05273,15.1537],[76.05632,15.15596],[76.05974,15.15707],[76.08828,15.16146],[76.09372,15.16281],[76.10161,15.16658],[76.10695,15.17539],[76.11016,15.19149],[76.11167,15.19517],[76.11384,15.19817],[76.11808,15.20118],[76.12506,15.20277],[76.1302,15.20267],[76.15249,15.19635],[76.15893,15.19748],[76.16127,15.20024],[76.16173,15.203],[76.15968,15.20948],[76.16019,15.2127],[76.16289,15.21633],[76.17731,15.22829],[76.18786,15.235],[76.19531,15.23532],[76.23237,15.23279],[76.2323,15.22401],[76.22063,15.2062],[76.22066,15.20046],[76.22325,15.1945],[76.23102,15.19057],[76.23806,15.18985],[76.2487,15.19134],[76.25566,15.19482],[76.25757,15.20206],[76.25933,15.20477],[76.26849,15.20613],[76.2762,15.21259],[76.28144,15.21807],[76.28559,15.22544],[76.28739,15.23252],[76.29148,15.24121],[76.29806,15.24928],[76.31084,15.26053],[76.32319,15.26294],[76.33331,15.26293],[76.33408,15.26292],[76.34,15.27231],[76.34673,15.29606],[76.35262,15.31164],[76.36003,15.31978],[76.36296,15.32541],[76.3681,15.32716],[76.37834,15.3272],[76.38537,15.32849],[76.39159,15.32812],[76.399,15.32527],[76.40712,15.32364],[76.42996,15.33688],[76.43356,15.33851],[76.44256,15.33727],[76.44977,15.33776],[76.45844,15.34285],[76.46206,15.34344],[76.46933,15.34249],[76.47518,15.34601],[76.48109,15.34793],[76.49094,15.3424],[76.49738,15.34547],[76.50197,15.35007],[76.54891,15.38424],[76.55597,15.39414],[76.57239,15.39965],[76.59175,15.41241],[76.59667,15.42242],[76.60202,15.4303],[76.6092,15.43928],[76.61186,15.44153],[76.64228,15.44364],[76.65504,15.44753],[76.66954,15.45033],[76.67889,15.46426],[76.68301,15.46892],[76.69257,15.47652],[76.70301,15.48517],[76.71359,15.48928],[76.72708,15.49145],[76.73223,15.49141],[76.73674,15.49016],[76.7439,15.49046],[76.75402,15.49262],[76.76213,15.49179],[76.78107,15.49293],[76.78639,15.49438],[76.79621,15.49957],[76.8008,15.50389],[76.80795,15.50896],[76.81301,15.51472],[76.80914,15.52045],[76.81148,15.52849],[76.81075,15.53394],[76.80931,15.53813],[76.814,15.54661],[76.81401,15.54664],[76.83574,15.56122],[76.83689,15.56868],[76.83484,15.59488],[76.83777,15.60228],[76.83435,15.61122],[76.8341,15.61574],[76.83697,15.62549],[76.83932,15.62963],[76.86018,15.64327],[76.86622,15.65537],[76.86876,15.65899],[76.87354,15.66462],[76.88476,15.6722],[76.89307,15.68281],[76.89615,15.68472],[76.90698,15.688],[76.91195,15.69042],[76.91572,15.69466],[76.9186,15.69977],[76.92012,15.70716],[76.92096,15.71804],[76.92766,15.73484],[76.93868,15.75131],[76.94759,15.76127],[76.95853,15.76686],[76.96291,15.77025],[76.97159,15.77847],[76.98464,15.79285],[76.99262,15.79956],[76.99992,15.80917],[77.00983,15.81799],[77.01644,15.82414],[77.02818,15.83391],[77.03194,15.83002],[77.03768,15.82884],[77.04218,15.82995],[77.04534,15.82611],[77.05376,15.8246],[77.05611,15.8288],[77.06778,15.82764],[77.06542,15.80243],[77.07116,15.80056],[77.0664,15.78293],[77.06367,15.78337],[77.06051,15.77681],[77.05764,15.76819],[77.05362,15.76863],[77.05239,15.76529],[77.05708,15.76342],[77.05564,15.75468],[77.0506,15.75587],[77.04713,15.73904],[77.05117,15.73773],[77.05102,15.72958],[77.06696,15.72827],[77.08029,15.72603],[77.08029,15.715],[77.0884,15.71361],[77.08568,15.69999],[77.08196,15.69802],[77.07996,15.69554],[77.10494,15.68358],[77.11462,15.67599],[77.12325,15.66684],[77.12918,15.66381],[77.12515,15.64198],[77.12041,15.6299],[77.10806,15.6387],[77.10471,15.64391],[77.10008,15.64889],[77.09301,15.65225],[77.08553,15.65755],[77.07292,15.64561],[77.03999,15.63705],[77.03662,15.63669],[77.03324,15.6385],[77.03107,15.63402],[77.03238,15.61155],[77.03289,15.60296],[77.02844,15.58908],[77.02771,15.5811],[77.03293,15.52991],[77.03284,15.51337],[77.03069,15.50481],[77.00944,15.50756],[77.00002,15.50451],[76.99484,15.50585],[76.98558,15.50952],[76.97581,15.51105],[76.97407,15.4997],[76.97432,15.49567],[76.98004,15.48678],[76.99297,15.47795],[77.00003,15.47228],[77.00479,15.46653],[77.00609,15.46022],[77.01018,15.45308],[77.01939,15.44594],[77.02798,15.44345],[77.03154,15.44008],[77.03466,15.43124],[77.03518,15.42326],[77.03103,15.41267],[77.03272,15.40624],[77.03747,15.40121],[77.04524,15.39647],[77.04806,15.38872],[77.04654,15.37979],[77.04229,15.36378],[77.04687,15.35725],[77.06217,15.34824],[77.06723,15.34298],[77.06751,15.33315],[77.06594,15.32694],[77.07347,15.32456],[77.10377,15.33174],[77.11417,15.33242],[77.11474,15.32588],[77.11793,15.32428],[77.11996,15.29504],[77.12831,15.29278],[77.14346,15.29071],[77.15256,15.29092],[77.15337,15.28311],[77.15268,15.27621],[77.14956,15.27453],[77.14981,15.27132],[77.15453,15.2722],[77.16238,15.26567],[77.16888,15.26438],[77.16998,15.25628],[77.16265,15.25666],[77.15136,15.25558],[77.14492,15.25682],[77.13731,15.2399],[77.12808,15.23859],[77.12554,15.22652],[77.14607,15.22344],[77.15178,15.21415],[77.15469,15.21324],[77.16054,15.19971],[77.16291,15.19919],[77.16633,15.1876],[77.16929,15.17388],[77.16802,15.16675],[77.1636,15.16328],[77.16411,15.15754],[77.16252,15.15437],[77.15785,15.15424],[77.15028,15.1561],[77.14172,15.15464],[77.13684,15.14807],[77.14012,15.14141],[77.15757,15.13706]]]}}]}