{"type":"FeatureCollection","features":[{"type":"Feature","properties":{"id":"bidar","name":"Bidar","stateId":"karnataka","stateName":"Karnataka","censuscode":558,"type":"district"},"geometry":{"type":"MultiPolygon","coordinates":[[[[77.34032,18.43689],[77.3451,18.43174],[77.34832,18.43583],[77.35711,18.45018],[77.37272,18.44911],[77.36846,18.43955],[77.36749,18.43132],[77.37286,18.40223],[77.3958,18.39858],[77.40368,18.39936],[77.41331,18.39011],[77.41109,18.38008],[77.40384,18.37176],[77.39499,18.36751],[77.40143,18.35514],[77.40151,18.34912],[77.39912,18.34626],[77.39595,18.34728],[77.39602,18.34217],[77.3924,18.34241],[77.38935,18.33981],[77.38244,18.34071],[77.38405,18.33355],[77.38116,18.33031],[77.37708,18.33113],[77.37013,18.32395],[77.35852,18.32013],[77.36193,18.31227],[77.36564,18.30992],[77.38445,18.30761],[77.39575,18.3026],[77.3995,18.30465],[77.41103,18.30125],[77.42824,18.30637],[77.43106,18.31087],[77.43965,18.30819],[77.4379,18.29471],[77.44022,18.28379],[77.4482,18.279],[77.44854,18.27187],[77.45413,18.26774],[77.46876,18.26176],[77.47261,18.26496],[77.47819,18.26409],[77.48374,18.27045],[77.49565,18.26771],[77.50117,18.27516],[77.51367,18.28026],[77.51609,18.2838],[77.51188,18.30396],[77.51296,18.30851],[77.52324,18.30916],[77.52737,18.30483],[77.54309,18.29566],[77.5535,18.29319],[77.56455,18.28497],[77.57424,18.29234],[77.57823,18.29117],[77.57791,18.28872],[77.58743,18.28496],[77.60148,18.28313],[77.60668,18.27991],[77.60268,18.27482],[77.59557,18.26369],[77.58511,18.25824],[77.57614,18.24248],[77.58038,18.23505],[77.58471,18.2247],[77.58859,18.21871],[77.57802,18.2019],[77.5679,18.20253],[77.56793,18.19197],[77.57364,18.19115],[77.57609,18.18097],[77.58119,18.17031],[77.58302,18.16416],[77.59283,18.15552],[77.60146,18.15391],[77.5972,18.12996],[77.60032,18.12314],[77.60428,18.10155],[77.60119,18.08646],[77.5935,18.08246],[77.58114,18.07902],[77.57099,18.07844],[77.56412,18.07327],[77.56034,18.06433],[77.55106,18.06578],[77.54937,18.05592],[77.55169,18.05015],[77.5557,18.04911],[77.55675,18.03685],[77.56147,18.03739],[77.57818,18.03294],[77.58869,18.02703],[77.59099,18.01559],[77.59599,18.01244],[77.60324,18.018],[77.61044,18.02028],[77.61384,18.01277],[77.61965,18.00838],[77.6261,18.00697],[77.62772,18.00347],[77.62527,18.00066],[77.63263,17.99485],[77.63656,17.99747],[77.64207,17.99887],[77.64615,17.99824],[77.65003,17.99555],[77.65161,17.98967],[77.65366,17.98822],[77.65277,17.98077],[77.64749,17.97581],[77.65129,17.97282],[77.65728,17.97174],[77.65594,17.96669],[77.64814,17.96507],[77.6467,17.95968],[77.65131,17.95558],[77.64786,17.94878],[77.64448,17.95203],[77.63947,17.95291],[77.63567,17.95591],[77.63357,17.96533],[77.62757,17.96012],[77.63283,17.95622],[77.63271,17.95089],[77.62811,17.94608],[77.62384,17.94684],[77.62062,17.94049],[77.62337,17.93247],[77.62251,17.92423],[77.62278,17.91591],[77.62044,17.9053],[77.60827,17.90791],[77.60361,17.90608],[77.58895,17.91063],[77.58683,17.90078],[77.58898,17.89493],[77.59629,17.88195],[77.60159,17.87952],[77.60052,17.8729],[77.59657,17.87223],[77.58506,17.87818],[77.58151,17.87366],[77.57652,17.87524],[77.57119,17.86858],[77.56979,17.85201],[77.5659,17.85158],[77.56723,17.84446],[77.56294,17.8411],[77.55805,17.83296],[77.55349,17.82051],[77.54853,17.81948],[77.54743,17.82873],[77.52969,17.82926],[77.52977,17.81415],[77.52172,17.81017],[77.51453,17.8039],[77.51066,17.79542],[77.50812,17.78506],[77.513,17.78257],[77.52673,17.78212],[77.53131,17.77917],[77.53821,17.77721],[77.54071,17.77298],[77.55822,17.76382],[77.56976,17.76668],[77.56584,17.7497],[77.55841,17.74372],[77.55566,17.73697],[77.54788,17.73598],[77.54311,17.72801],[77.53772,17.72779],[77.53129,17.72969],[77.52629,17.7266],[77.51316,17.72253],[77.50914,17.71709],[77.49793,17.7186],[77.49539,17.71542],[77.49299,17.70936],[77.48811,17.70621],[77.48473,17.7094],[77.48231,17.70559],[77.47777,17.70394],[77.47517,17.70656],[77.46145,17.7015],[77.4582,17.69664],[77.45392,17.69384],[77.45498,17.69029],[77.45457,17.68341],[77.45267,17.66869],[77.44922,17.66004],[77.44859,17.65101],[77.45111,17.64971],[77.45442,17.63498],[77.45683,17.63339],[77.45242,17.62542],[77.44941,17.61493],[77.45011,17.60989],[77.4449,17.60927],[77.44409,17.60673],[77.44567,17.59847],[77.44353,17.58414],[77.43173,17.58507],[77.41313,17.58444],[77.39949,17.58494],[77.39066,17.58786],[77.37886,17.58343],[77.3785,17.59641],[77.37015,17.60001],[77.3611,17.6013],[77.35033,17.60125],[77.34117,17.5899],[77.32971,17.59296],[77.30875,17.59568],[77.30106,17.59767],[77.29605,17.6086],[77.28614,17.61752],[77.2839,17.62089],[77.28093,17.61856],[77.27868,17.62245],[77.27725,17.62686],[77.26815,17.62774],[77.2571,17.6258],[77.24943,17.62703],[77.2307,17.63219],[77.22785,17.6298],[77.22264,17.63073],[77.21931,17.62902],[77.21637,17.6294],[77.20767,17.62558],[77.20116,17.63073],[77.19709,17.63006],[77.19401,17.62181],[77.19509,17.61602],[77.19085,17.61563],[77.17666,17.62198],[77.17337,17.62653],[77.16694,17.62877],[77.15474,17.62875],[77.15147,17.63148],[77.1513,17.63982],[77.14404,17.64492],[77.14505,17.65256],[77.13292,17.6621],[77.1349,17.68014],[77.11657,17.68477],[77.11217,17.67575],[77.10574,17.6721],[77.1032,17.66742],[77.09272,17.6679],[77.08877,17.65984],[77.08017,17.66497],[77.07334,17.66427],[77.06363,17.6674],[77.05516,17.67018],[77.05068,17.66899],[77.04599,17.66614],[77.04152,17.6697],[77.0383,17.66804],[77.03464,17.67819],[77.0215,17.67539],[77.01154,17.68226],[77.00005,17.69357],[76.99523,17.69539],[76.99176,17.69444],[76.98596,17.69182],[76.98116,17.68774],[76.97848,17.67846],[76.97853,17.66603],[76.98741,17.66114],[76.98622,17.65617],[76.98071,17.64976],[76.96008,17.63651],[76.95834,17.62157],[76.95553,17.61932],[76.95176,17.62353],[76.94187,17.61154],[76.9399,17.6078],[76.92276,17.61081],[76.92007,17.61707],[76.91995,17.62345],[76.92245,17.62398],[76.92891,17.63478],[76.92435,17.63743],[76.90845,17.64105],[76.9016,17.64616],[76.89101,17.64369],[76.87951,17.64432],[76.87336,17.64577],[76.85451,17.64579],[76.84561,17.64913],[76.83681,17.65143],[76.81676,17.64941],[76.80741,17.64951],[76.806,17.65079],[76.79606,17.65105],[76.78866,17.64814],[76.78833,17.64273],[76.78351,17.63581],[76.77548,17.63819],[76.77128,17.64677],[76.77285,17.65659],[76.77271,17.66366],[76.76988,17.66606],[76.74547,17.66788],[76.73426,17.66608],[76.73213,17.65947],[76.72163,17.65377],[76.71843,17.64673],[76.71744,17.63963],[76.71284,17.63928],[76.70408,17.64214],[76.69877,17.64574],[76.70497,17.65045],[76.7106,17.6563],[76.71084,17.66086],[76.6997,17.66291],[76.69632,17.66569],[76.69516,17.67251],[76.6922,17.68175],[76.69479,17.69555],[76.69287,17.69993],[76.69252,17.70372],[76.69403,17.70704],[76.70247,17.70905],[76.70512,17.72039],[76.70378,17.72548],[76.69981,17.72779],[76.70516,17.73087],[76.72935,17.73878],[76.72823,17.74214],[76.72363,17.74978],[76.71968,17.74961],[76.72078,17.76306],[76.72268,17.76932],[76.7189,17.77157],[76.71449,17.77307],[76.71414,17.7768],[76.7174,17.78362],[76.72107,17.787],[76.72634,17.78679],[76.74118,17.78086],[76.74532,17.78252],[76.74578,17.78519],[76.74954,17.78534],[76.75065,17.78808],[76.76458,17.78885],[76.76817,17.79838],[76.77187,17.79876],[76.77814,17.80112],[76.78165,17.80765],[76.78134,17.81202],[76.78328,17.81685],[76.78667,17.82136],[76.79005,17.82818],[76.78732,17.83317],[76.7816,17.83802],[76.76753,17.85247],[76.76614,17.85116],[76.76151,17.85373],[76.75633,17.85824],[76.74752,17.85994],[76.73919,17.85869],[76.74138,17.88522],[76.7413,17.89364],[76.74238,17.8996],[76.74468,17.90061],[76.76774,17.90004],[76.77194,17.89397],[76.77492,17.88678],[76.77562,17.88387],[76.77506,17.8803],[76.77638,17.87861],[76.79933,17.87101],[76.80468,17.87],[76.80815,17.87217],[76.80726,17.87588],[76.81014,17.88475],[76.81298,17.88575],[76.81906,17.88477],[76.8223,17.88612],[76.83504,17.88444],[76.83372,17.89234],[76.84893,17.89808],[76.85585,17.89953],[76.87393,17.89644],[76.87733,17.89445],[76.88326,17.89477],[76.88531,17.89879],[76.89149,17.8989],[76.89452,17.90456],[76.89579,17.90908],[76.89872,17.90973],[76.90236,17.9164],[76.91536,17.91552],[76.91862,17.91681],[76.92052,17.92482],[76.92137,17.93836],[76.91538,17.9389],[76.91944,17.96215],[76.92039,17.9745],[76.92175,17.98702],[76.92183,17.99226],[76.91976,17.99788],[76.92064,18.00032],[76.92032,18.00348],[76.91981,18.01394],[76.92241,18.01536],[76.92155,18.0236],[76.91986,18.03481],[76.94083,18.03882],[76.95429,18.03931],[76.95686,18.04128],[76.95655,18.04432],[76.95084,18.04732],[76.95067,18.05025],[76.95283,18.05985],[76.95488,18.06498],[76.95169,18.06983],[76.94924,18.07532],[76.95194,18.08388],[76.95704,18.0869],[76.96656,18.08976],[76.96959,18.09418],[76.97052,18.09865],[76.96079,18.10795],[76.9556,18.11162],[76.9447,18.11292],[76.93431,18.11248],[76.92468,18.11759],[76.9244,18.12166],[76.9263,18.12594],[76.93213,18.13371],[76.9339,18.13805],[76.9298,18.14131],[76.92749,18.14627],[76.93551,18.15934],[76.94591,18.15619],[76.95314,18.17391],[76.95629,18.18631],[76.96102,18.18757],[76.9821,18.18884],[76.98279,18.19083],[76.99015,18.18993],[76.99374,18.1881],[76.99523,18.1835],[76.99777,18.17985],[76.99757,18.1748],[77.00006,18.16834],[77.02636,18.16419],[77.02405,18.17971],[77.03269,18.18083],[77.03521,18.18527],[77.0405,18.18281],[77.05188,18.17473],[77.05274,18.16281],[77.06012,18.15747],[77.06011,18.15391],[77.0716,18.151],[77.0887,18.15186],[77.09179,18.15754],[77.09916,18.15971],[77.11146,18.15429],[77.1189,18.16918],[77.10549,18.18787],[77.09807,18.19663],[77.10916,18.20334],[77.11919,18.20395],[77.12356,18.20824],[77.13377,18.20773],[77.14213,18.20879],[77.14485,18.2176],[77.15264,18.21811],[77.1533,18.22308],[77.15034,18.22295],[77.15041,18.23918],[77.15404,18.23946],[77.15987,18.2546],[77.16836,18.25744],[77.17005,18.27495],[77.17321,18.28236],[77.18054,18.28334],[77.1944,18.27581],[77.20157,18.28075],[77.20895,18.27949],[77.20721,18.29199],[77.20039,18.29702],[77.19815,18.31418],[77.2029,18.32064],[77.21273,18.31522],[77.2197,18.32637],[77.22577,18.33927],[77.23006,18.34636],[77.22416,18.34866],[77.23361,18.36702],[77.24445,18.36783],[77.24786,18.37202],[77.23566,18.38755],[77.23922,18.40121],[77.24303,18.41004],[77.25195,18.40965],[77.26121,18.41183],[77.26741,18.41978],[77.29769,18.43409],[77.30521,18.43989],[77.31623,18.4408],[77.32037,18.45519],[77.32857,18.45653],[77.32901,18.45027],[77.33571,18.44988],[77.33638,18.44332],[77.34032,18.43689]]],[[[77.30095,18.47674],[77.30078,18.46693],[77.29395,18.45825],[77.28648,18.45367],[77.27511,18.44989],[77.26833,18.45297],[77.26873,18.45523],[77.26946,18.45937],[77.2749,18.47486],[77.28611,18.47388],[77.29175,18.47617],[77.30095,18.47674]]]]}}]}