{"type":"FeatureCollection","features":[{"type":"Feature","properties":{"id":"bijapur","name":"Bijapur","stateId":"karnataka","stateName":"Karnataka","censuscode":557,"type":"district"},"geometry":{"type":"Polygon","coordinates":[[[76.07344,17.33403],[76.0703,17.32251],[76.06676,17.31568],[76.06649,17.30923],[76.07565,17.30323],[76.09012,17.29702],[76.0973,17.29116],[76.09791,17.28341],[76.08782,17.26655],[76.08781,17.2599],[76.09038,17.256],[76.09792,17.25365],[76.11415,17.25024],[76.1249,17.24469],[76.14263,17.23054],[76.14886,17.22476],[76.16097,17.21607],[76.16658,17.21085],[76.17152,17.20396],[76.1778,17.19269],[76.18853,17.18584],[76.1955,17.18273],[76.20594,17.18296],[76.21216,17.18431],[76.21992,17.18411],[76.22394,17.17432],[76.23337,17.16473],[76.23683,17.1574],[76.24093,17.15217],[76.24437,17.1489],[76.25523,17.14692],[76.26057,17.14956],[76.26452,17.15513],[76.27052,17.16136],[76.27617,17.16383],[76.28263,17.16521],[76.29288,17.16583],[76.30369,17.16746],[76.32372,17.16787],[76.33254,17.17029],[76.34685,17.18043],[76.3553,17.18521],[76.36017,17.18392],[76.36627,17.1757],[76.36854,17.16443],[76.36749,17.15789],[76.35965,17.14536],[76.35902,17.14245],[76.36072,17.13796],[76.36677,17.13705],[76.37526,17.14041],[76.38702,17.14214],[76.39376,17.14026],[76.39309,17.13306],[76.38628,17.1275],[76.3786,17.12515],[76.37001,17.12121],[76.36412,17.11666],[76.36335,17.1129],[76.36663,17.10718],[76.3775,17.1029],[76.38478,17.09887],[76.38842,17.09133],[76.38859,17.08581],[76.38699,17.07403],[76.39004,17.06773],[76.39852,17.07156],[76.40401,17.07919],[76.41001,17.08564],[76.41543,17.09],[76.42092,17.09373],[76.4298,17.09925],[76.42932,17.07842],[76.43007,17.05416],[76.4271,17.05184],[76.42732,17.0484],[76.43014,17.02862],[76.43513,17.0274],[76.43532,17.02481],[76.43235,17.02283],[76.43821,17.00665],[76.43747,17.00152],[76.43851,17.0007],[76.43531,16.98022],[76.4198,16.9769],[76.40885,16.97701],[76.40066,16.97579],[76.40117,16.9346],[76.41908,16.92635],[76.42774,16.92796],[76.43671,16.9414],[76.44614,16.94066],[76.45285,16.92562],[76.45923,16.92426],[76.4658,16.90275],[76.46538,16.90035],[76.46244,16.89875],[76.43528,16.89777],[76.43443,16.88101],[76.43764,16.87944],[76.43809,16.86727],[76.45931,16.86576],[76.45992,16.85928],[76.46242,16.85874],[76.46388,16.84875],[76.46967,16.84848],[76.47025,16.83929],[76.46326,16.83756],[76.46197,16.83303],[76.43117,16.83752],[76.42952,16.84786],[76.41742,16.84953],[76.41655,16.85167],[76.4053,16.85386],[76.40382,16.85754],[76.38848,16.85515],[76.37479,16.85856],[76.37127,16.8506],[76.35823,16.83799],[76.35475,16.81872],[76.41398,16.81264],[76.41154,16.79757],[76.40391,16.79767],[76.39686,16.80424],[76.38693,16.79942],[76.37877,16.80085],[76.373,16.77855],[76.37196,16.76742],[76.41232,16.76702],[76.41217,16.76323],[76.41855,16.76274],[76.41936,16.7668],[76.43541,16.76281],[76.44371,16.75622],[76.44034,16.75227],[76.44091,16.7416],[76.43989,16.73982],[76.43487,16.73858],[76.42996,16.73598],[76.42862,16.73191],[76.42368,16.72602],[76.4209,16.71898],[76.4205,16.71537],[76.43105,16.71502],[76.43581,16.71356],[76.44331,16.71276],[76.44737,16.72158],[76.45886,16.72128],[76.4586,16.71664],[76.46021,16.71149],[76.46063,16.71013],[76.46186,16.70703],[76.45923,16.70567],[76.45182,16.71139],[76.43833,16.70671],[76.43818,16.70281],[76.43386,16.69881],[76.43137,16.6994],[76.42675,16.69536],[76.42601,16.68439],[76.42085,16.67949],[76.42003,16.67358],[76.40919,16.65821],[76.40689,16.65271],[76.40507,16.64773],[76.40576,16.62946],[76.41026,16.61796],[76.40956,16.6132],[76.41511,16.60582],[76.41773,16.59914],[76.41421,16.58975],[76.42161,16.57702],[76.42388,16.5626],[76.42438,16.55003],[76.43592,16.51122],[76.43298,16.50687],[76.43414,16.50291],[76.43155,16.49982],[76.4328,16.45189],[76.43497,16.44918],[76.4373,16.43493],[76.40421,16.43191],[76.40328,16.43444],[76.39151,16.43491],[76.38399,16.42227],[76.35477,16.41985],[76.35094,16.42463],[76.34327,16.42497],[76.33381,16.42392],[76.33488,16.41531],[76.33269,16.40855],[76.3379,16.39837],[76.33398,16.3896],[76.328,16.39279],[76.32052,16.3949],[76.31693,16.39194],[76.31373,16.3939],[76.31048,16.39472],[76.30624,16.37637],[76.31118,16.35977],[76.31367,16.35843],[76.31601,16.34476],[76.30691,16.34423],[76.30593,16.3393],[76.30313,16.3396],[76.30269,16.3353],[76.29542,16.33396],[76.29411,16.3245],[76.29548,16.32438],[76.29805,16.31748],[76.30523,16.31555],[76.30165,16.30685],[76.30083,16.29829],[76.30221,16.28337],[76.30976,16.28476],[76.32206,16.28504],[76.32358,16.28078],[76.3415,16.27828],[76.34338,16.27517],[76.34825,16.274],[76.34848,16.26562],[76.34609,16.24607],[76.35005,16.24409],[76.35222,16.23938],[76.35437,16.22587],[76.34673,16.21112],[76.33254,16.19385],[76.3293,16.19106],[76.32217,16.18863],[76.31248,16.18737],[76.30812,16.1848],[76.30449,16.18477],[76.29836,16.18222],[76.29398,16.17644],[76.29133,16.16205],[76.28844,16.15547],[76.28539,16.15193],[76.28151,16.14977],[76.27292,16.15119],[76.26486,16.15422],[76.25806,16.15861],[76.24978,16.16255],[76.24101,16.16535],[76.241,16.16531],[76.24099,16.16533],[76.23813,16.16608],[76.21083,16.17291],[76.19852,16.17598],[76.18385,16.17995],[76.17003,16.18386],[76.16207,16.18379],[76.15464,16.183],[76.14148,16.18046],[76.13206,16.18462],[76.12041,16.18977],[76.11734,16.19056],[76.10955,16.19258],[76.08692,16.20331],[76.07886,16.204],[76.07106,16.2059],[76.06684,16.20779],[76.06365,16.20999],[76.06175,16.21387],[76.05979,16.21939],[76.05989,16.22579],[76.06136,16.2304],[76.06825,16.24091],[76.06847,16.24172],[76.06892,16.24723],[76.06774,16.25393],[76.06688,16.25878],[76.0636,16.26409],[76.05814,16.26938],[76.05708,16.2704],[76.04986,16.27486],[76.04368,16.27946],[76.03767,16.28395],[76.03454,16.28743],[76.03186,16.2927],[76.03032,16.29572],[76.02826,16.29841],[76.02299,16.30064],[76.01411,16.30162],[76.01367,16.30166],[76.00016,16.30138],[75.99603,16.29925],[75.99419,16.2983],[75.98918,16.29816],[75.98034,16.29929],[75.96744,16.29728],[75.9592,16.29751],[75.94947,16.30318],[75.93785,16.31136],[75.93449,16.31374],[75.9173,16.31874],[75.91517,16.32014],[75.9071,16.3211],[75.89123,16.32614],[75.88728,16.32962],[75.88446,16.33228],[75.87396,16.34311],[75.86592,16.34618],[75.85199,16.34651],[75.84426,16.34849],[75.83869,16.35069],[75.8377,16.35124],[75.82584,16.35957],[75.81716,16.36462],[75.81055,16.3671],[75.80653,16.36861],[75.79485,16.3708],[75.79424,16.37091],[75.78864,16.37431],[75.78232,16.37989],[75.74621,16.38689],[75.73946,16.3876],[75.73404,16.38818],[75.7245,16.39037],[75.71652,16.39434],[75.70864,16.40096],[75.69702,16.40825],[75.68805,16.41389],[75.68393,16.41833],[75.67878,16.42239],[75.67551,16.4211],[75.65237,16.43376],[75.64345,16.44017],[75.63472,16.44216],[75.6257,16.44421],[75.62386,16.44443],[75.6101,16.44603],[75.60561,16.44499],[75.60464,16.44477],[75.59217,16.43781],[75.58553,16.42947],[75.58005,16.42016],[75.57692,16.41156],[75.57248,16.40996],[75.56926,16.41074],[75.56216,16.41386],[75.55687,16.42211],[75.55554,16.43112],[75.55193,16.4429],[75.55282,16.4474],[75.55292,16.456],[75.54617,16.46256],[75.53634,16.46464],[75.52176,16.46136],[75.52106,16.46106],[75.49887,16.4516],[75.49785,16.44224],[75.50062,16.4331],[75.4993,16.42711],[75.49339,16.41952],[75.478,16.41521],[75.46696,16.41678],[75.45879,16.41169],[75.45002,16.41333],[75.43472,16.42885],[75.43472,16.43745],[75.43945,16.44327],[75.45136,16.45552],[75.46018,16.46668],[75.46197,16.47533],[75.45632,16.5056],[75.47603,16.50869],[75.48663,16.50901],[75.48516,16.51903],[75.48966,16.52072],[75.49221,16.52373],[75.49101,16.5257],[75.49072,16.52853],[75.4875,16.53135],[75.48832,16.53531],[75.48862,16.54913],[75.48464,16.556],[75.48389,16.55731],[75.47402,16.56048],[75.47415,16.56505],[75.47906,16.56575],[75.48442,16.56985],[75.48538,16.57802],[75.49234,16.58565],[75.49267,16.59261],[75.49065,16.59844],[75.49016,16.59985],[75.48477,16.60501],[75.4834,16.60631],[75.47709,16.61051],[75.4716,16.61311],[75.4662,16.61566],[75.46155,16.62146],[75.46079,16.63269],[75.4566,16.6503],[75.4556,16.66308],[75.44572,16.66341],[75.44194,16.68552],[75.43928,16.69697],[75.45063,16.69805],[75.48439,16.69334],[75.49098,16.69802],[75.49316,16.70678],[75.49225,16.72843],[75.49406,16.73965],[75.49235,16.74518],[75.47814,16.74721],[75.4641,16.75519],[75.45519,16.75473],[75.44767,16.75532],[75.43888,16.75962],[75.42762,16.76677],[75.42,16.76745],[75.39921,16.76158],[75.39334,16.76121],[75.38784,16.76195],[75.38338,16.77949],[75.38261,16.78863],[75.37946,16.79801],[75.37787,16.80831],[75.38064,16.81016],[75.37976,16.8243],[75.38109,16.82938],[75.38505,16.8399],[75.39458,16.8605],[75.37404,16.86345],[75.35675,16.86755],[75.33456,16.86811],[75.33388,16.91437],[75.33475,16.92142],[75.33707,16.92575],[75.34302,16.94611],[75.34289,16.95415],[75.3572,16.95852],[75.362,16.96524],[75.36935,16.97031],[75.3925,16.97801],[75.41467,16.97114],[75.4289,16.96511],[75.43676,16.97254],[75.44172,16.98114],[75.4515,16.9843],[75.46592,16.98699],[75.46661,16.98124],[75.48058,16.97762],[75.48778,16.96708],[75.48988,16.95953],[75.49074,16.95322],[75.49112,16.9469],[75.49061,16.9446],[75.50002,16.94713],[75.50747,16.95031],[75.50882,16.94903],[75.51521,16.95365],[75.52229,16.96045],[75.52824,16.96755],[75.53113,16.96837],[75.5411,16.96485],[75.55682,16.96609],[75.56874,16.96536],[75.56766,17.00057],[75.56828,17.00787],[75.57419,17.0095],[75.59792,17.00694],[75.60802,17.00483],[75.60818,17.00067],[75.60918,16.97138],[75.6196,16.96952],[75.62955,16.96893],[75.63496,16.96759],[75.63802,16.96095],[75.64368,16.95284],[75.6483,16.95381],[75.65433,16.95791],[75.66247,16.95969],[75.67012,16.96035],[75.67337,16.96208],[75.6772,16.96575],[75.67334,16.97115],[75.67138,16.97588],[75.66812,16.97742],[75.66756,16.97955],[75.66741,16.985],[75.66926,17.00059],[75.67184,17.02792],[75.67097,17.03747],[75.66084,17.03417],[75.65266,17.03236],[75.64684,17.03441],[75.64237,17.03812],[75.6465,17.04828],[75.65305,17.0568],[75.66137,17.06348],[75.66969,17.06328],[75.67715,17.06457],[75.67982,17.07285],[75.67887,17.07997],[75.67612,17.08943],[75.67722,17.09587],[75.67422,17.1028],[75.67281,17.1152],[75.65227,17.11477],[75.65135,17.13436],[75.64831,17.1348],[75.64733,17.14042],[75.64132,17.14925],[75.62994,17.16166],[75.62655,17.17169],[75.62705,17.18231],[75.62872,17.18302],[75.62923,17.18772],[75.64121,17.18973],[75.64214,17.19564],[75.65606,17.20534],[75.66075,17.2099],[75.66252,17.21531],[75.66144,17.22948],[75.65954,17.24153],[75.6585,17.26294],[75.65608,17.27206],[75.63083,17.27369],[75.63189,17.27886],[75.62962,17.28132],[75.62636,17.28958],[75.62316,17.29525],[75.60438,17.30468],[75.61218,17.32085],[75.61446,17.33016],[75.61153,17.3437],[75.59649,17.3465],[75.58828,17.35107],[75.58315,17.35115],[75.58237,17.35271],[75.57684,17.38426],[75.58203,17.38354],[75.58651,17.38436],[75.59652,17.38744],[75.6017,17.3912],[75.60897,17.39336],[75.61423,17.3932],[75.61515,17.39999],[75.61336,17.41089],[75.60896,17.41845],[75.60854,17.42086],[75.61384,17.42335],[75.61716,17.44042],[75.62376,17.45939],[75.62972,17.46247],[75.63136,17.47091],[75.63406,17.47879],[75.64807,17.47469],[75.65473,17.46881],[75.66086,17.46098],[75.66904,17.46063],[75.67616,17.45929],[75.67946,17.45529],[75.67943,17.4375],[75.68578,17.41866],[75.68986,17.41397],[75.6959,17.41194],[75.70678,17.40971],[75.71394,17.41031],[75.72116,17.41316],[75.72781,17.42089],[75.73282,17.42304],[75.73586,17.42329],[75.7494,17.4143],[75.75766,17.40981],[75.76304,17.40984],[75.76871,17.40826],[75.7756,17.38965],[75.78131,17.38027],[75.79005,17.37445],[75.80141,17.37158],[75.81042,17.37143],[75.81417,17.37533],[75.8167,17.38222],[75.8168,17.38951],[75.81539,17.39928],[75.81639,17.40266],[75.81936,17.40801],[75.8211,17.42112],[75.82384,17.42429],[75.82694,17.42516],[75.83806,17.42199],[75.84709,17.4168],[75.85522,17.40914],[75.85836,17.39046],[75.86123,17.38735],[75.86413,17.38794],[75.87596,17.39846],[75.87822,17.40182],[75.8784,17.40643],[75.87643,17.41283],[75.87775,17.41802],[75.88174,17.42048],[75.88657,17.41881],[75.88961,17.41509],[75.89372,17.4074],[75.89579,17.3965],[75.89633,17.37854],[75.89576,17.37153],[75.89136,17.36235],[75.89304,17.35518],[75.89748,17.35232],[75.91013,17.34739],[75.91567,17.34055],[75.93065,17.32572],[75.9413,17.32647],[75.95941,17.33545],[75.97116,17.33809],[75.98037,17.33783],[75.99999,17.3394],[76.0039,17.34443],[76.00888,17.34916],[76.01524,17.35225],[76.02108,17.35096],[76.0365,17.35062],[76.05443,17.35596],[76.06036,17.3556],[76.06312,17.35358],[76.07344,17.33403]]]}}]}