{"type":"FeatureCollection","features":[{"type":"Feature","properties":{"id":"chamrajnagar","name":"Chamrajnagar","stateId":"karnataka","stateName":"Karnataka","censuscode":578,"type":"district"},"geometry":{"type":"Polygon","coordinates":[[[77.32282,12.30709],[77.32726,12.30593],[77.33031,12.30256],[77.33337,12.29694],[77.33636,12.28931],[77.34065,12.28287],[77.34696,12.27876],[77.35345,12.27843],[77.36411,12.28235],[77.36964,12.28077],[77.37898,12.2796],[77.39886,12.27833],[77.40809,12.28101],[77.41571,12.28578],[77.42094,12.28759],[77.4303,12.28665],[77.4359,12.28185],[77.43999,12.27455],[77.44348,12.2664],[77.44885,12.2504],[77.45127,12.24858],[77.46391,12.24782],[77.47304,12.24463],[77.47687,12.24286],[77.4838,12.23384],[77.48245,12.22616],[77.47853,12.21909],[77.47583,12.21116],[77.47943,12.20541],[77.48514,12.20474],[77.48898,12.2029],[77.49272,12.19906],[77.50273,12.19614],[77.52164,12.19299],[77.53014,12.19768],[77.53481,12.19727],[77.53841,12.19905],[77.5414,12.19918],[77.5438,12.20288],[77.5489,12.20354],[77.55708,12.19945],[77.56627,12.19621],[77.5758,12.19957],[77.58004,12.1972],[77.59474,12.198],[77.60166,12.19973],[77.60713,12.20448],[77.61467,12.20436],[77.62111,12.20081],[77.6264,12.19901],[77.63199,12.20093],[77.63623,12.19896],[77.63956,12.19558],[77.64366,12.19568],[77.65534,12.19787],[77.66615,12.19706],[77.6789,12.19307],[77.68359,12.19075],[77.71212,12.18203],[77.72166,12.18279],[77.73041,12.18099],[77.7373,12.1768],[77.74004,12.16945],[77.74293,12.16412],[77.75007,12.1574],[77.75117,12.15324],[77.75146,12.15211],[77.75129,12.13884],[77.75528,12.13624],[77.75836,12.13188],[77.76391,12.12755],[77.77816,12.11875],[77.77961,12.11522],[77.77755,12.11061],[77.77398,12.10709],[77.76942,12.10401],[77.7675,12.10156],[77.76169,12.09011],[77.75728,12.07892],[77.74513,12.0698],[77.73151,12.0629],[77.72676,12.05805],[77.72379,12.05092],[77.71837,12.04281],[77.71269,12.03667],[77.70527,12.02472],[77.70061,12.01947],[77.69232,12.00074],[77.6922,12.00074],[77.68837,11.99378],[77.67826,11.96844],[77.67493,11.96246],[77.67594,11.94922],[77.67166,11.94764],[77.66602,11.94685],[77.65795,11.94818],[77.65458,11.95363],[77.65065,11.95229],[77.6479,11.94971],[77.64136,11.9474],[77.62628,11.94355],[77.61482,11.93965],[77.60703,11.93865],[77.60243,11.93569],[77.59678,11.93879],[77.58998,11.93763],[77.5843,11.93332],[77.55893,11.94001],[77.54224,11.93572],[77.53452,11.93069],[77.52489,11.93487],[77.5218,11.93451],[77.51145,11.93639],[77.5012,11.93888],[77.49515,11.94151],[77.49359,11.93781],[77.49472,11.9306],[77.49299,11.92126],[77.49031,11.9095],[77.48814,11.9044],[77.4868,11.89869],[77.48806,11.89091],[77.48776,11.88516],[77.48452,11.88693],[77.48126,11.89273],[77.47824,11.89232],[77.47414,11.89637],[77.46469,11.89963],[77.46357,11.8976],[77.46463,11.89102],[77.46381,11.88497],[77.46409,11.87998],[77.46598,11.87635],[77.46471,11.86644],[77.46293,11.86233],[77.46336,11.8582],[77.46182,11.8534],[77.46623,11.85177],[77.46717,11.84823],[77.46248,11.83252],[77.45749,11.82536],[77.45741,11.82059],[77.45338,11.81557],[77.45181,11.80044],[77.44716,11.79087],[77.44303,11.78803],[77.44121,11.78576],[77.442,11.78078],[77.43478,11.77518],[77.43164,11.76937],[77.4302,11.75975],[77.42442,11.76022],[77.42345,11.76519],[77.42338,11.77134],[77.41744,11.77139],[77.41234,11.77307],[77.3927,11.78514],[77.37297,11.78474],[77.37022,11.78773],[77.36587,11.7873],[77.36164,11.7775],[77.35637,11.77298],[77.33679,11.76782],[77.32417,11.77882],[77.31682,11.78751],[77.30095,11.80293],[77.29528,11.80712],[77.29283,11.80161],[77.28876,11.79849],[77.28272,11.79992],[77.25883,11.80953],[77.25209,11.81112],[77.25162,11.80267],[77.24743,11.79685],[77.23739,11.79239],[77.22671,11.79338],[77.21419,11.79306],[77.1999,11.79138],[77.18861,11.78806],[77.18246,11.78426],[77.17609,11.78274],[77.16554,11.78276],[77.1539,11.77976],[77.1473,11.78042],[77.14468,11.77486],[77.1411,11.77082],[77.13745,11.76937],[77.12978,11.7718],[77.12393,11.77023],[77.12099,11.77155],[77.11283,11.7715],[77.11529,11.76787],[77.11612,11.76462],[77.11577,11.75904],[77.11325,11.75428],[77.11547,11.73997],[77.1184,11.73084],[77.11942,11.72122],[77.11377,11.72397],[77.10633,11.73151],[77.08587,11.73223],[77.0816,11.73335],[77.08383,11.73788],[77.05995,11.76602],[77.06422,11.77324],[77.0717,11.78035],[77.06636,11.78539],[77.06235,11.7875],[77.05548,11.78741],[77.05103,11.78582],[77.03732,11.76992],[77.03208,11.77291],[77.04,11.78651],[77.04139,11.79217],[77.03738,11.7949],[77.03826,11.79733],[77.03243,11.80317],[77.02825,11.8055],[77.02308,11.80734],[77.01847,11.80512],[77.01402,11.81117],[76.99992,11.80744],[76.99165,11.80764],[76.98228,11.80916],[76.98293,11.80319],[76.98437,11.79911],[76.9749,11.78456],[76.97283,11.77888],[76.96913,11.77328],[76.96264,11.77932],[76.95975,11.78348],[76.95389,11.78938],[76.94975,11.78905],[76.94525,11.78476],[76.94181,11.78538],[76.93606,11.78889],[76.92283,11.78834],[76.91614,11.78918],[76.90898,11.79121],[76.90265,11.78522],[76.90081,11.77804],[76.89728,11.77382],[76.89866,11.76853],[76.89784,11.75836],[76.89536,11.75241],[76.89108,11.73802],[76.89023,11.73251],[76.88495,11.72582],[76.8739,11.71843],[76.86288,11.70666],[76.86508,11.70223],[76.85845,11.6951],[76.85551,11.69035],[76.85408,11.68524],[76.85073,11.67763],[76.84774,11.67253],[76.84501,11.66393],[76.84167,11.6605],[76.83938,11.65689],[76.83783,11.65196],[76.83711,11.64628],[76.8386,11.64283],[76.8391,11.6372],[76.84251,11.63316],[76.84826,11.6313],[76.84742,11.62665],[76.8477,11.62372],[76.851,11.62111],[76.85531,11.61954],[76.85539,11.61396],[76.86044,11.60975],[76.85687,11.59656],[76.8533,11.59394],[76.84683,11.58238],[76.84549,11.59192],[76.843,11.59491],[76.8394,11.59769],[76.83306,11.59916],[76.82594,11.60505],[76.81771,11.60401],[76.80009,11.60749],[76.79009,11.61134],[76.78304,11.6112],[76.76058,11.61441],[76.75541,11.61823],[76.7502,11.61349],[76.74455,11.6129],[76.72929,11.61269],[76.71654,11.61355],[76.70209,11.61201],[76.68799,11.61169],[76.67332,11.61262],[76.64251,11.61099],[76.63441,11.61127],[76.61657,11.60784],[76.61011,11.60862],[76.60535,11.61077],[76.5969,11.61173],[76.59477,11.61535],[76.58953,11.61675],[76.5834,11.61306],[76.56857,11.61743],[76.56211,11.62021],[76.56168,11.62682],[76.5581,11.63425],[76.55546,11.64304],[76.5536,11.65551],[76.55142,11.66374],[76.55134,11.67022],[76.54874,11.67775],[76.54359,11.68427],[76.53291,11.69322],[76.52124,11.70137],[76.51234,11.7052],[76.49591,11.69258],[76.4934,11.68949],[76.4874,11.68951],[76.48182,11.69132],[76.48173,11.68523],[76.47465,11.67941],[76.45938,11.66219],[76.43923,11.6636],[76.43138,11.66633],[76.42545,11.67043],[76.41806,11.67155],[76.41522,11.6765],[76.40998,11.69008],[76.41068,11.70644],[76.40411,11.70802],[76.41084,11.71374],[76.41402,11.71056],[76.41642,11.71112],[76.41883,11.71692],[76.42572,11.72056],[76.42667,11.72406],[76.42675,11.72848],[76.42501,11.73291],[76.41969,11.74125],[76.41328,11.74031],[76.41429,11.74759],[76.41852,11.75344],[76.41534,11.76027],[76.41988,11.76602],[76.42092,11.76734],[76.42339,11.77444],[76.41778,11.77556],[76.4159,11.77732],[76.41728,11.78412],[76.41519,11.78732],[76.42096,11.78719],[76.42282,11.7894],[76.424,11.79367],[76.4289,11.79172],[76.42844,11.79559],[76.42456,11.80018],[76.41073,11.80724],[76.41085,11.80977],[76.41256,11.81098],[76.42369,11.8054],[76.44051,11.79957],[76.45428,11.79479],[76.462,11.79029],[76.47002,11.81683],[76.48783,11.81908],[76.49218,11.82081],[76.48926,11.8386],[76.49095,11.8584],[76.49828,11.8584],[76.50429,11.8599],[76.51399,11.86402],[76.52756,11.86742],[76.53407,11.87074],[76.54039,11.86719],[76.54611,11.86227],[76.55543,11.85591],[76.55753,11.88608],[76.55779,11.88981],[76.56002,11.896],[76.57106,11.90556],[76.57488,11.91405],[76.57654,11.92113],[76.57214,11.9249],[76.5712,11.92957],[76.57216,11.93528],[76.56017,11.94547],[76.5654,11.95272],[76.57004,11.95762],[76.57357,11.96348],[76.57866,11.97633],[76.57837,11.98454],[76.58365,11.98232],[76.58786,11.98251],[76.59269,11.9838],[76.59609,11.98352],[76.59866,11.98331],[76.60714,11.98911],[76.61246,11.98923],[76.62176,11.98738],[76.63889,11.98083],[76.6439,11.9823],[76.64728,11.98854],[76.65344,12.00491],[76.65784,12.0089],[76.66228,12.0071],[76.66896,12.00771],[76.67173,12.00696],[76.67482,12.0046],[76.67691,12.00158],[76.67949,12.00073],[76.68353,11.99704],[76.69444,11.99702],[76.69779,11.99502],[76.69967,11.99705],[76.70247,11.99467],[76.70188,11.98879],[76.70539,11.98761],[76.70699,11.98205],[76.71662,11.98191],[76.72071,11.9876],[76.72566,11.9878],[76.7301,11.98971],[76.73434,11.99658],[76.7373,11.99972],[76.74117,12.01046],[76.74492,12.01081],[76.7454,12.00243],[76.74662,12.0011],[76.74819,12.00051],[76.75322,11.99746],[76.76719,11.99606],[76.7703,11.99252],[76.77156,11.99012],[76.7725,11.98833],[76.78021,11.98299],[76.7821,11.98168],[76.78968,11.98312],[76.79569,11.98515],[76.79985,11.98759],[76.79905,12.00237],[76.79293,12.0091],[76.79887,12.0142],[76.80276,12.01663],[76.80631,12.0177],[76.80861,12.0211],[76.81229,12.02461],[76.81375,12.02925],[76.81863,12.02854],[76.82141,12.02716],[76.82266,12.02448],[76.82308,12.01817],[76.82244,12.01427],[76.82409,12.01043],[76.83454,12.00641],[76.83617,12.0032],[76.8407,11.99788],[76.84439,11.9967],[76.8536,11.99611],[76.85587,11.99596],[76.86081,11.99652],[76.86598,12.00304],[76.86525,12.007],[76.87445,12.00567],[76.88489,12.01447],[76.88686,12.00034],[76.88914,11.99687],[76.89909,11.9951],[76.90503,11.99577],[76.91205,12.00197],[76.92605,12.01157],[76.93483,12.01248],[76.93871,12.01536],[76.93947,12.02666],[76.92426,12.02589],[76.91902,12.02677],[76.91631,12.02869],[76.91604,12.03293],[76.91147,12.03626],[76.91166,12.03979],[76.90775,12.04259],[76.901,12.04498],[76.89771,12.04861],[76.89277,12.0476],[76.89253,12.05843],[76.87175,12.05626],[76.86929,12.05955],[76.85744,12.06019],[76.86077,12.06315],[76.87202,12.06475],[76.87211,12.06909],[76.87564,12.07531],[76.88059,12.07957],[76.88361,12.08406],[76.87874,12.10598],[76.8773,12.11093],[76.87715,12.11139],[76.87491,12.11566],[76.86503,12.11815],[76.84852,12.11788],[76.84712,12.11451],[76.84535,12.12007],[76.83368,12.1283],[76.83299,12.13072],[76.83337,12.13389],[76.83478,12.13682],[76.8397,12.14254],[76.84104,12.14409],[76.84318,12.15082],[76.84315,12.15597],[76.85391,12.15919],[76.84788,12.16592],[76.85406,12.16867],[76.85284,12.17804],[76.85606,12.18182],[76.85756,12.18474],[76.8629,12.18007],[76.86668,12.1737],[76.86958,12.16883],[76.87046,12.1615],[76.8702,12.15101],[76.87014,12.14825],[76.8727,12.14054],[76.878,12.13352],[76.88397,12.12928],[76.88805,12.12733],[76.88998,12.12737],[76.89345,12.11995],[76.90074,12.122],[76.90452,12.12154],[76.90608,12.11318],[76.91474,12.11292],[76.92369,12.11365],[76.93355,12.10383],[76.94109,12.09894],[76.94414,12.09801],[76.94726,12.09807],[76.95499,12.10131],[76.96845,12.11099],[76.97285,12.11542],[76.96911,12.11877],[76.96875,12.12228],[76.97375,12.12067],[76.97539,12.12107],[76.97685,12.12562],[76.97714,12.13357],[76.9869,12.14046],[76.98912,12.14385],[76.98976,12.14811],[76.98938,12.16174],[76.99058,12.16565],[76.99085,12.16999],[76.99394,12.17556],[76.99585,12.17651],[76.99806,12.17619],[76.99983,12.16638],[77.00434,12.16612],[77.00502,12.16026],[77.00704,12.16003],[77.01421,12.16397],[77.01227,12.15156],[77.01683,12.14876],[77.01251,12.1447],[77.01521,12.14313],[77.01464,12.13951],[77.01997,12.13519],[77.03592,12.1404],[77.03795,12.13576],[77.03944,12.13036],[77.04241,12.12897],[77.04501,12.13365],[77.04623,12.13944],[77.04467,12.14338],[77.04191,12.14359],[77.04036,12.14772],[77.04443,12.15494],[77.04633,12.16889],[77.05923,12.17096],[77.06635,12.17309],[77.07622,12.18422],[77.08237,12.1885],[77.09015,12.18993],[77.10182,12.18971],[77.10889,12.18958],[77.11589,12.19298],[77.12843,12.20371],[77.1319,12.20486],[77.13375,12.20869],[77.13188,12.21462],[77.13492,12.22742],[77.12622,12.23528],[77.12558,12.23925],[77.11309,12.24232],[77.12167,12.24375],[77.13385,12.24898],[77.14462,12.24901],[77.14613,12.25064],[77.15216,12.25614],[77.16498,12.2563],[77.17,12.2595],[77.16893,12.2664],[77.16584,12.27433],[77.16864,12.29295],[77.16831,12.30215],[77.16608,12.30907],[77.19315,12.30783],[77.21498,12.30786],[77.2185,12.30453],[77.2257,12.30455],[77.23443,12.30924],[77.24979,12.30701],[77.25569,12.31015],[77.26386,12.31221],[77.27206,12.3126],[77.27995,12.30806],[77.29327,12.30345],[77.29634,12.30111],[77.30314,12.29813],[77.30844,12.29978],[77.31464,12.30388],[77.32282,12.30709]]]}}]}