{"type":"FeatureCollection","features":[{"type":"Feature","properties":{"id":"chikkaballapura","name":"Chikkaballapura","stateId":"karnataka","stateName":"Karnataka","censuscode":582,"type":"district"},"geometry":{"type":"Polygon","coordinates":[[[78.1996,13.56615],[78.19897,13.56405],[78.20134,13.53651],[78.19951,13.52271],[78.19165,13.50883],[78.2081,13.48148],[78.20446,13.45191],[78.18464,13.43001],[78.16271,13.41595],[78.1407,13.4078],[78.12875,13.39977],[78.13711,13.37627],[78.14731,13.36459],[78.14345,13.35274],[78.13159,13.33881],[78.1217,13.32688],[78.12186,13.31507],[78.13008,13.30141],[78.11806,13.29928],[78.08788,13.30282],[78.06981,13.30258],[78.04791,13.28851],[78.02381,13.28818],[78.01363,13.29788],[77.98938,13.30738],[77.96551,13.29131],[77.94564,13.27725],[77.93388,13.25741],[77.92568,13.23829],[77.91605,13.2375],[77.91207,13.22864],[77.90213,13.23222],[77.89248,13.2331],[77.89565,13.23644],[77.9047,13.24124],[77.90667,13.24891],[77.9047,13.25292],[77.89961,13.25517],[77.89211,13.25503],[77.88599,13.24969],[77.88071,13.24888],[77.87553,13.24065],[77.88031,13.23786],[77.87701,13.23221],[77.87249,13.2323],[77.86397,13.2389],[77.85609,13.21794],[77.85,13.22026],[77.85163,13.24011],[77.83455,13.24559],[77.82251,13.24995],[77.81384,13.23862],[77.81028,13.24059],[77.81766,13.25307],[77.82141,13.25363],[77.82202,13.25782],[77.8112,13.26132],[77.81395,13.27227],[77.81379,13.27612],[77.81604,13.28208],[77.81909,13.29436],[77.82337,13.29554],[77.82451,13.28934],[77.83114,13.29074],[77.83094,13.29746],[77.82856,13.30321],[77.82042,13.30354],[77.8161,13.30511],[77.81354,13.30891],[77.81407,13.31034],[77.81998,13.31032],[77.82035,13.31296],[77.82583,13.31988],[77.82843,13.32578],[77.82159,13.32828],[77.81464,13.33199],[77.81004,13.33798],[77.80067,13.33837],[77.79618,13.34425],[77.79252,13.35098],[77.78497,13.3513],[77.7708,13.35533],[77.76181,13.35997],[77.75448,13.36132],[77.75142,13.35812],[77.74867,13.35795],[77.74619,13.35406],[77.74333,13.35706],[77.73825,13.35972],[77.73221,13.3586],[77.73124,13.352],[77.71987,13.35061],[77.71979,13.35934],[77.71594,13.36493],[77.71042,13.36163],[77.70321,13.35866],[77.70301,13.35356],[77.70439,13.34758],[77.70648,13.34429],[77.70524,13.34085],[77.69976,13.33514],[77.69469,13.34038],[77.69079,13.34672],[77.68635,13.35133],[77.68118,13.34486],[77.66982,13.34727],[77.66481,13.35263],[77.65995,13.35523],[77.65846,13.36149],[77.65854,13.36575],[77.65972,13.37051],[77.66286,13.3752],[77.66333,13.37853],[77.65978,13.38388],[77.65563,13.38574],[77.65925,13.39686],[77.6545,13.39711],[77.65238,13.3927],[77.64576,13.39209],[77.64089,13.39251],[77.63461,13.37468],[77.62336,13.37525],[77.62239,13.38162],[77.6207,13.38341],[77.61567,13.38521],[77.6186,13.40122],[77.61362,13.4017],[77.60853,13.40384],[77.60662,13.39598],[77.6027,13.39657],[77.6011,13.40692],[77.60131,13.41426],[77.6074,13.41395],[77.61362,13.41531],[77.61517,13.42046],[77.61131,13.42467],[77.60393,13.44078],[77.60035,13.43666],[77.59289,13.43497],[77.59192,13.42647],[77.59213,13.42078],[77.57126,13.41811],[77.55556,13.41725],[77.55296,13.42961],[77.55023,13.43455],[77.53892,13.43529],[77.53651,13.43111],[77.52912,13.43085],[77.52304,13.43322],[77.51762,13.4422],[77.51457,13.44342],[77.50838,13.44763],[77.50577,13.45643],[77.49934,13.45737],[77.49214,13.4609],[77.48712,13.46642],[77.47247,13.46866],[77.46354,13.46462],[77.45969,13.46773],[77.4568,13.4643],[77.44578,13.4621],[77.43746,13.4639],[77.43496,13.46919],[77.42676,13.47221],[77.42587,13.48507],[77.41984,13.48641],[77.41781,13.49135],[77.41536,13.49475],[77.41232,13.49666],[77.40997,13.49696],[77.40099,13.494],[77.38701,13.50002],[77.38365,13.51185],[77.38553,13.51506],[77.39129,13.51981],[77.39348,13.52559],[77.39315,13.53215],[77.39093,13.53548],[77.38801,13.53721],[77.38451,13.54411],[77.38344,13.5552],[77.38361,13.57075],[77.38234,13.57593],[77.37628,13.58817],[77.37107,13.58968],[77.36505,13.5928],[77.36442,13.59992],[77.36291,13.60468],[77.36265,13.61285],[77.3642,13.62127],[77.36909,13.62912],[77.37116,13.6344],[77.37218,13.63961],[77.37812,13.64493],[77.38385,13.66047],[77.39091,13.66389],[77.40226,13.67246],[77.42489,13.67205],[77.43575,13.67275],[77.44023,13.68169],[77.44991,13.68212],[77.4573,13.68335],[77.48411,13.68521],[77.49057,13.68731],[77.49277,13.69431],[77.49115,13.6993],[77.49,13.70642],[77.48732,13.7108],[77.49495,13.71439],[77.51044,13.71204],[77.51447,13.70811],[77.51461,13.70031],[77.51565,13.69646],[77.52004,13.69334],[77.52926,13.69555],[77.53328,13.70488],[77.53555,13.7147],[77.53524,13.72669],[77.53427,13.73289],[77.53036,13.73871],[77.52276,13.74465],[77.52731,13.75146],[77.53716,13.75348],[77.54719,13.75138],[77.54927,13.7426],[77.55287,13.73586],[77.55589,13.7281],[77.56386,13.72417],[77.57441,13.73711],[77.58144,13.73438],[77.58938,13.73831],[77.59473,13.74454],[77.60344,13.75134],[77.61212,13.75033],[77.62356,13.73617],[77.62919,13.73522],[77.63647,13.73777],[77.64153,13.74068],[77.64471,13.74308],[77.64169,13.74912],[77.62053,13.75465],[77.61834,13.76321],[77.62222,13.76808],[77.65702,13.78366],[77.66454,13.7845],[77.67198,13.78371],[77.67821,13.78535],[77.67976,13.778],[77.6778,13.77044],[77.67171,13.76013],[77.67652,13.76017],[77.68686,13.76356],[77.69274,13.76653],[77.7036,13.76935],[77.71033,13.73896],[77.71551,13.74215],[77.71691,13.74071],[77.71916,13.74569],[77.7216,13.75412],[77.72127,13.75871],[77.72231,13.76875],[77.72085,13.78266],[77.72323,13.7912],[77.72093,13.79844],[77.72657,13.80066],[77.73652,13.80968],[77.74169,13.81138],[77.74915,13.81175],[77.75631,13.81418],[77.76348,13.81552],[77.77739,13.81655],[77.78669,13.82092],[77.78863,13.8247],[77.78848,13.82803],[77.78562,13.83206],[77.78225,13.83972],[77.78421,13.8439],[77.79455,13.84793],[77.80272,13.84898],[77.81099,13.84871],[77.81606,13.85471],[77.81902,13.86015],[77.83597,13.86868],[77.82742,13.87406],[77.83549,13.87965],[77.83324,13.88793],[77.82917,13.89725],[77.82285,13.89911],[77.81922,13.90269],[77.81551,13.91121],[77.81448,13.91661],[77.81447,13.92551],[77.8166,13.93054],[77.82234,13.93895],[77.8264,13.94284],[77.82973,13.93851],[77.83827,13.93513],[77.85419,13.93634],[77.86228,13.93512],[77.87067,13.93485],[77.89528,13.93927],[77.89615,13.93582],[77.89563,13.92584],[77.89801,13.91947],[77.90404,13.91586],[77.90882,13.91049],[77.91433,13.90761],[77.92001,13.90542],[77.92823,13.90689],[77.93815,13.91701],[77.94406,13.92611],[77.94727,13.93281],[77.95445,13.93663],[77.9575,13.93495],[77.9592,13.93615],[77.96271,13.94526],[77.96374,13.95012],[77.96971,13.95817],[77.97487,13.95877],[77.98707,13.95589],[77.98643,13.94587],[77.98201,13.9325],[77.98187,13.92814],[77.98312,13.92053],[77.98319,13.91361],[77.98658,13.90165],[77.98016,13.89689],[77.95803,13.89273],[77.95096,13.88849],[77.95033,13.87931],[77.95428,13.84811],[77.95663,13.83768],[77.95673,13.83313],[77.95318,13.8283],[77.97442,13.82853],[77.97902,13.83501],[77.98987,13.85716],[77.99089,13.86516],[77.99378,13.87003],[78.00013,13.87077],[78.01344,13.87011],[78.01904,13.8649],[78.0243,13.8628],[78.04658,13.86132],[78.05009,13.86652],[78.05166,13.87225],[78.05144,13.88183],[78.04985,13.89515],[78.05705,13.89298],[78.06346,13.88782],[78.06913,13.88526],[78.07675,13.88302],[78.07972,13.88047],[78.08375,13.86346],[78.09723,13.86348],[78.10626,13.86135],[78.11495,13.86214],[78.12247,13.84952],[78.12624,13.83044],[78.11665,13.81226],[78.11801,13.80703],[78.1242,13.79638],[78.12728,13.78562],[78.12006,13.77047],[78.11555,13.7655],[78.11024,13.7617],[78.10436,13.75899],[78.09831,13.75175],[78.09396,13.74219],[78.10235,13.73634],[78.10648,13.73188],[78.10954,13.72675],[78.11463,13.72339],[78.11852,13.719],[78.11905,13.71274],[78.11637,13.70714],[78.11455,13.6932],[78.10902,13.69135],[78.09428,13.68939],[78.07312,13.6969],[78.07169,13.69431],[78.07446,13.68879],[78.07318,13.68329],[78.07,13.6805],[78.06743,13.6757],[78.07498,13.67323],[78.08194,13.66394],[78.08917,13.65918],[78.08883,13.65333],[78.08992,13.64414],[78.09554,13.64232],[78.09982,13.64183],[78.1031,13.64909],[78.11659,13.65594],[78.12514,13.6545],[78.13249,13.65777],[78.13835,13.65716],[78.15549,13.65858],[78.16509,13.65764],[78.16835,13.65412],[78.16993,13.63241],[78.17495,13.62996],[78.1953,13.63021],[78.20341,13.62521],[78.20486,13.61062],[78.20322,13.60398],[78.19807,13.59747],[78.18896,13.58801],[78.19056,13.58278],[78.18965,13.57325],[78.19113,13.56825],[78.19281,13.56548],[78.19856,13.56549],[78.1996,13.56615]]]}}]}