{"type":"FeatureCollection","features":[{"type":"Feature","properties":{"id":"dharwad","name":"Dharwad","stateId":"karnataka","stateName":"Karnataka","censuscode":562,"type":"district"},"geometry":{"type":"Polygon","coordinates":[[[75.41951,15.06168],[75.41887,15.06012],[75.41712,15.05624],[75.40337,15.05799],[75.38301,15.05005],[75.36884,15.04732],[75.36722,15.05044],[75.36372,15.05718],[75.35774,15.06219],[75.35493,15.06201],[75.34272,15.06535],[75.33998,15.06863],[75.33952,15.074],[75.33668,15.08019],[75.33093,15.08092],[75.33494,15.08716],[75.34126,15.089],[75.33992,15.09242],[75.34656,15.09318],[75.35061,15.09541],[75.35225,15.1023],[75.3432,15.10629],[75.34006,15.11047],[75.339,15.11869],[75.33831,15.13067],[75.33856,15.13911],[75.33929,15.14682],[75.33839,15.15946],[75.3245,15.15646],[75.30983,15.15462],[75.3108,15.13998],[75.29055,15.13658],[75.29025,15.12901],[75.27801,15.12196],[75.26369,15.11556],[75.25844,15.09643],[75.25438,15.09721],[75.25408,15.10568],[75.24213,15.10401],[75.24221,15.1072],[75.23435,15.10649],[75.22832,15.10447],[75.2272,15.09905],[75.21229,15.09874],[75.19797,15.09772],[75.19182,15.09652],[75.18778,15.10203],[75.1673,15.09999],[75.16067,15.10177],[75.16029,15.10732],[75.14738,15.10351],[75.14693,15.10031],[75.14245,15.09979],[75.13928,15.10981],[75.13817,15.11706],[75.14274,15.12852],[75.14791,15.13343],[75.15567,15.14509],[75.1485,15.15405],[75.14665,15.15864],[75.13885,15.15884],[75.13748,15.14986],[75.13262,15.1414],[75.12786,15.14324],[75.12456,15.13839],[75.1193,15.13831],[75.1139,15.13721],[75.10814,15.13829],[75.10716,15.12887],[75.11514,15.12349],[75.11475,15.11591],[75.10059,15.11306],[75.09424,15.10956],[75.08667,15.10885],[75.08016,15.10973],[75.08352,15.08167],[75.08311,15.07738],[75.08132,15.0726],[75.07149,15.07049],[75.06276,15.07154],[75.05847,15.07298],[75.05715,15.07507],[75.05617,15.08079],[75.03989,15.07733],[75.03436,15.07538],[75.03373,15.07371],[75.02266,15.06878],[75.02018,15.0699],[75.01172,15.06841],[75.00788,15.0695],[75.00016,15.06981],[74.99671,15.07239],[74.99098,15.07054],[74.98648,15.071],[74.98364,15.0703],[74.98045,15.06808],[74.96915,15.07026],[74.961,15.0649],[74.95277,15.06666],[74.94976,15.06491],[74.94533,15.06437],[74.94047,15.06623],[74.93977,15.06303],[74.93984,15.0519],[74.93736,15.05043],[74.9318,15.05154],[74.92748,15.05023],[74.9204,15.0421],[74.91143,15.03768],[74.90953,15.04452],[74.90721,15.0494],[74.89315,15.04484],[74.89031,15.04799],[74.89024,15.05551],[74.88685,15.06199],[74.88649,15.06738],[74.88021,15.07237],[74.88113,15.08397],[74.89005,15.09214],[74.89253,15.09644],[74.89194,15.09811],[74.88951,15.10001],[74.88584,15.09902],[74.88253,15.09948],[74.8769,15.10172],[74.86987,15.1015],[74.86472,15.1031],[74.85863,15.10362],[74.85709,15.10619],[74.85749,15.10867],[74.85619,15.11171],[74.85358,15.11321],[74.85138,15.11717],[74.85345,15.12091],[74.85097,15.12303],[74.84452,15.12154],[74.84303,15.12659],[74.83977,15.12895],[74.83611,15.12808],[74.82876,15.13331],[74.83106,15.1382],[74.83573,15.14027],[74.83619,15.14441],[74.83542,15.14803],[74.8421,15.15361],[74.8438,15.15849],[74.84865,15.16131],[74.85005,15.16907],[74.86311,15.17787],[74.86594,15.18551],[74.87392,15.19034],[74.87705,15.19321],[74.87598,15.19844],[74.87355,15.20316],[74.87395,15.20815],[74.87323,15.21304],[74.8818,15.22137],[74.88634,15.22712],[74.88764,15.23304],[74.90738,15.24741],[74.90903,15.25074],[74.90597,15.2751],[74.89877,15.299],[74.8974,15.30118],[74.89492,15.3005],[74.88976,15.30727],[74.88586,15.30066],[74.88219,15.29802],[74.87615,15.30049],[74.87816,15.30693],[74.87797,15.31192],[74.87743,15.31491],[74.86671,15.32123],[74.85935,15.32939],[74.85513,15.34048],[74.84951,15.34007],[74.84686,15.33542],[74.84152,15.33542],[74.83472,15.3334],[74.8263,15.3434],[74.82581,15.35064],[74.82199,15.36678],[74.82287,15.37189],[74.8292,15.37488],[74.82119,15.38384],[74.79906,15.37683],[74.79048,15.37964],[74.78632,15.38498],[74.78251,15.39389],[74.77019,15.40106],[74.76539,15.3991],[74.76657,15.40364],[74.77141,15.40927],[74.76707,15.41622],[74.75418,15.40989],[74.74908,15.41305],[74.74262,15.4115],[74.74243,15.41954],[74.73467,15.42299],[74.73069,15.42953],[74.73203,15.43804],[74.73457,15.44372],[74.7387,15.44607],[74.74083,15.44844],[74.74489,15.46142],[74.74364,15.46464],[74.73422,15.46831],[74.72952,15.48002],[74.73022,15.48221],[74.72992,15.48508],[74.72749,15.48576],[74.72706,15.48915],[74.74045,15.49191],[74.74666,15.49451],[74.75454,15.48218],[74.76132,15.46961],[74.76569,15.47369],[74.77692,15.45957],[74.78909,15.47243],[74.78943,15.47681],[74.78717,15.48456],[74.79575,15.48709],[74.79947,15.49358],[74.79982,15.49748],[74.80443,15.49886],[74.80401,15.50116],[74.81348,15.50317],[74.8104,15.50852],[74.81039,15.51184],[74.81234,15.51799],[74.81168,15.52041],[74.79795,15.5459],[74.80873,15.54912],[74.81221,15.55417],[74.81919,15.55922],[74.82338,15.56382],[74.82391,15.56692],[74.82728,15.56744],[74.84055,15.57428],[74.83411,15.58989],[74.83091,15.58961],[74.8307,15.60936],[74.83911,15.61056],[74.84208,15.60678],[74.85612,15.61034],[74.85772,15.61172],[74.87856,15.61677],[74.87837,15.62073],[74.88407,15.62292],[74.89028,15.62981],[74.89376,15.62906],[74.89892,15.63056],[74.90805,15.62913],[74.91391,15.63046],[74.91949,15.6265],[74.93258,15.62244],[74.94539,15.62236],[74.96381,15.62535],[74.96402,15.6424],[74.96744,15.65145],[74.9822,15.64799],[74.99247,15.64972],[75.00007,15.64767],[75.01471,15.64478],[75.02033,15.64489],[75.02206,15.64975],[75.02876,15.65258],[75.03021,15.66874],[75.04745,15.67137],[75.04984,15.68193],[75.0616,15.68083],[75.06424,15.67003],[75.06401,15.66704],[75.06278,15.66047],[75.0604,15.65531],[75.05887,15.64913],[75.05687,15.63623],[75.05691,15.63135],[75.08198,15.62212],[75.08877,15.61146],[75.09261,15.60865],[75.09627,15.6182],[75.09841,15.62668],[75.09934,15.65071],[75.10083,15.66205],[75.10462,15.66218],[75.10704,15.6717],[75.12335,15.6677],[75.12326,15.66586],[75.14265,15.65946],[75.15095,15.66174],[75.17087,15.66142],[75.18576,15.65728],[75.18769,15.64934],[75.20309,15.64986],[75.20449,15.65935],[75.20244,15.67632],[75.20262,15.68172],[75.2185,15.6819],[75.21881,15.67864],[75.23733,15.67938],[75.24146,15.66533],[75.25072,15.64638],[75.25791,15.64841],[75.27321,15.65047],[75.27251,15.65592],[75.27252,15.66734],[75.27885,15.689],[75.27885,15.68901],[75.29108,15.6915],[75.2958,15.69129],[75.30454,15.68646],[75.31261,15.67932],[75.32693,15.6765],[75.33382,15.67608],[75.33699,15.67427],[75.33753,15.66325],[75.33685,15.64807],[75.36094,15.64601],[75.36269,15.66122],[75.3646,15.66885],[75.36969,15.66856],[75.37528,15.66753],[75.39008,15.66482],[75.40282,15.65838],[75.41365,15.65571],[75.41989,15.66339],[75.42565,15.66303],[75.42534,15.66685],[75.42662,15.67082],[75.44232,15.67167],[75.44637,15.68038],[75.45057,15.6786],[75.45555,15.68185],[75.46721,15.68249],[75.47447,15.68801],[75.47207,15.69241],[75.47054,15.70158],[75.48936,15.70217],[75.4948,15.68714],[75.49619,15.68332],[75.49938,15.67263],[75.50303,15.65933],[75.50395,15.64831],[75.51699,15.64707],[75.52535,15.64682],[75.535,15.64653],[75.5457,15.64768],[75.55636,15.64746],[75.55382,15.63871],[75.55353,15.63642],[75.55069,15.61598],[75.54836,15.61253],[75.54453,15.6115],[75.54385,15.60646],[75.54201,15.6023],[75.54119,15.59552],[75.53515,15.59032],[75.53415,15.58061],[75.5315,15.5716],[75.52957,15.56231],[75.52979,15.54964],[75.53185,15.53848],[75.51949,15.53372],[75.50708,15.53041],[75.4858,15.53076],[75.48124,15.52067],[75.47653,15.52071],[75.47505,15.51163],[75.47559,15.50371],[75.47293,15.49313],[75.48861,15.48842],[75.49503,15.47083],[75.49471,15.46316],[75.49306,15.45635],[75.49358,15.44633],[75.4985,15.42542],[75.49651,15.39726],[75.49444,15.38588],[75.49301,15.37216],[75.48756,15.37208],[75.48657,15.37643],[75.48237,15.37858],[75.48117,15.38337],[75.48161,15.39287],[75.4718,15.39667],[75.46961,15.38621],[75.44595,15.38528],[75.44653,15.37627],[75.44912,15.36632],[75.44983,15.35895],[75.45568,15.3585],[75.45873,15.34865],[75.45752,15.3426],[75.45365,15.33746],[75.45017,15.32896],[75.4508,15.32141],[75.45021,15.3109],[75.45127,15.30173],[75.44368,15.30112],[75.42908,15.30212],[75.42666,15.29876],[75.41504,15.30059],[75.41301,15.29651],[75.41295,15.28712],[75.40882,15.28443],[75.40931,15.27797],[75.41915,15.27883],[75.41973,15.27566],[75.41387,15.27383],[75.40452,15.27253],[75.40444,15.26095],[75.41211,15.26174],[75.41834,15.26093],[75.4195,15.25705],[75.41776,15.25034],[75.41811,15.23968],[75.41962,15.23389],[75.42449,15.23441],[75.42556,15.22478],[75.44176,15.22629],[75.44907,15.21549],[75.44894,15.20801],[75.43579,15.20814],[75.43452,15.19844],[75.40165,15.1985],[75.40026,15.18687],[75.4023,15.17381],[75.39674,15.17154],[75.39789,15.16528],[75.40259,15.16507],[75.4028,15.17],[75.40719,15.1705],[75.40624,15.16546],[75.4096,15.16602],[75.40933,15.16291],[75.41468,15.1629],[75.41524,15.1517],[75.41819,15.14195],[75.43166,15.12387],[75.43544,15.10594],[75.42891,15.10227],[75.42416,15.09839],[75.42614,15.09526],[75.42351,15.09235],[75.42379,15.08698],[75.41856,15.08627],[75.42001,15.07248],[75.42091,15.06912],[75.41932,15.06209],[75.41951,15.06168]]]}}]}