{"type":"FeatureCollection","features":[{"type":"Feature","properties":{"id":"kolar","name":"Kolar","stateId":"karnataka","stateName":"Karnataka","censuscode":581,"type":"district"},"geometry":{"type":"Polygon","coordinates":[[[77.92568,13.23829],[77.93388,13.25741],[77.94564,13.27725],[77.96551,13.29131],[77.98938,13.30738],[78.01363,13.29788],[78.02381,13.28818],[78.04791,13.28851],[78.06981,13.30258],[78.08788,13.30282],[78.11806,13.29928],[78.13008,13.30141],[78.12186,13.31507],[78.1217,13.32688],[78.13159,13.33881],[78.14345,13.35274],[78.14731,13.36459],[78.13711,13.37627],[78.12875,13.39977],[78.1407,13.4078],[78.16271,13.41595],[78.18464,13.43001],[78.20446,13.45191],[78.2081,13.48148],[78.19165,13.50883],[78.19951,13.52271],[78.20134,13.53651],[78.19897,13.56405],[78.1996,13.56615],[78.2054,13.5698],[78.21196,13.5771],[78.21806,13.591],[78.22437,13.58923],[78.22799,13.58714],[78.2322,13.58624],[78.23728,13.59637],[78.24617,13.59366],[78.25933,13.58351],[78.26795,13.58453],[78.27507,13.58746],[78.29031,13.58693],[78.30158,13.58811],[78.32225,13.59282],[78.33263,13.59234],[78.35351,13.58718],[78.37129,13.5883],[78.37698,13.58974],[78.39024,13.59078],[78.4007,13.58759],[78.40386,13.58016],[78.40775,13.57571],[78.39599,13.55347],[78.39548,13.5412],[78.38311,13.52178],[78.38422,13.51506],[78.3796,13.50947],[78.37732,13.50473],[78.37833,13.49932],[78.3775,13.49152],[78.37736,13.47642],[78.37366,13.46882],[78.37266,13.46165],[78.37431,13.45521],[78.37429,13.44751],[78.37716,13.44088],[78.37546,13.43401],[78.37748,13.42464],[78.37965,13.41859],[78.38148,13.40686],[78.38148,13.40067],[78.37892,13.38949],[78.37468,13.38017],[78.37005,13.374],[78.36539,13.36474],[78.36667,13.35641],[78.37077,13.35666],[78.3743,13.358],[78.37846,13.35803],[78.38506,13.35614],[78.39399,13.35211],[78.39524,13.34796],[78.40288,13.34532],[78.40773,13.34212],[78.40559,13.33237],[78.40161,13.3335],[78.39876,13.32824],[78.39493,13.33332],[78.38932,13.33429],[78.38571,13.33615],[78.38785,13.34107],[78.38159,13.34215],[78.37822,13.33822],[78.37733,13.32979],[78.38545,13.32835],[78.38948,13.32665],[78.39327,13.32386],[78.40166,13.31351],[78.41247,13.31721],[78.41748,13.31993],[78.42568,13.32698],[78.43121,13.32895],[78.4349,13.32897],[78.43951,13.32698],[78.44077,13.31772],[78.44648,13.30826],[78.45182,13.30942],[78.45842,13.31275],[78.4647,13.31408],[78.47106,13.31787],[78.47694,13.32007],[78.48231,13.31789],[78.48076,13.30389],[78.48314,13.30112],[78.49412,13.2981],[78.50587,13.28926],[78.51183,13.28727],[78.5146,13.28253],[78.51902,13.27956],[78.52268,13.27006],[78.52622,13.26727],[78.53153,13.26573],[78.53451,13.27076],[78.53636,13.27942],[78.53947,13.28599],[78.54632,13.28622],[78.55437,13.2834],[78.55794,13.28285],[78.56137,13.2862],[78.56397,13.2948],[78.56487,13.30846],[78.5664,13.30959],[78.57085,13.30352],[78.57232,13.29822],[78.57521,13.2936],[78.57797,13.28198],[78.58694,13.27737],[78.5883,13.2723],[78.58301,13.25885],[78.57939,13.25378],[78.57407,13.24866],[78.57074,13.24363],[78.56974,13.23738],[78.56807,13.22229],[78.57524,13.21833],[78.57959,13.21455],[78.57681,13.21119],[78.57105,13.20848],[78.56929,13.20247],[78.56417,13.19953],[78.55185,13.19751],[78.55336,13.19044],[78.5578,13.1889],[78.56442,13.19017],[78.57035,13.19011],[78.5743,13.18772],[78.57665,13.18208],[78.58007,13.16683],[78.57634,13.16715],[78.57224,13.16604],[78.56905,13.16267],[78.55782,13.16375],[78.54973,13.16187],[78.54465,13.15641],[78.54368,13.15239],[78.54766,13.14724],[78.54643,13.14105],[78.53238,13.13934],[78.52387,13.13051],[78.51971,13.12986],[78.51965,13.12354],[78.5221,13.11662],[78.5272,13.11113],[78.53338,13.10998],[78.53898,13.1077],[78.52582,13.10143],[78.52482,13.095],[78.5178,13.0945],[78.51292,13.09195],[78.51058,13.08611],[78.50958,13.08009],[78.51584,13.0697],[78.51563,13.0631],[78.49894,13.06003],[78.4921,13.05469],[78.48839,13.05351],[78.48208,13.05413],[78.47805,13.05164],[78.47571,13.04517],[78.47205,13.04227],[78.466,13.04284],[78.46256,13.04178],[78.4609,13.03606],[78.46137,13.02513],[78.46366,13.01886],[78.46334,13.01403],[78.46648,13.00039],[78.47252,12.98944],[78.47049,12.98608],[78.46871,12.98099],[78.46903,12.97357],[78.44464,12.97906],[78.43669,12.98003],[78.43368,12.97886],[78.43296,12.97301],[78.43388,12.968],[78.43489,12.96466],[78.43842,12.96081],[78.43164,12.95792],[78.43086,12.95695],[78.42749,12.95464],[78.42439,12.95514],[78.42019,12.95715],[78.41968,12.95428],[78.42246,12.95085],[78.42165,12.94799],[78.41435,12.94562],[78.41214,12.94301],[78.41408,12.9347],[78.41836,12.92551],[78.41874,12.91838],[78.42118,12.9168],[78.42515,12.92434],[78.42572,12.92783],[78.4281,12.9305],[78.43357,12.92773],[78.43709,12.92745],[78.44565,12.91862],[78.45242,12.91599],[78.45409,12.91448],[78.46027,12.90705],[78.46737,12.90316],[78.46959,12.89015],[78.46824,12.87649],[78.46554,12.86361],[78.4634,12.86616],[78.46395,12.87592],[78.45768,12.88514],[78.44972,12.89012],[78.44952,12.89662],[78.44691,12.89923],[78.44701,12.91102],[78.43759,12.9124],[78.43607,12.90851],[78.43584,12.90375],[78.42851,12.89935],[78.42266,12.90121],[78.41406,12.90161],[78.41065,12.90648],[78.39947,12.91576],[78.39618,12.9065],[78.39446,12.90566],[78.38942,12.90543],[78.37972,12.91199],[78.372,12.9218],[78.35638,12.9382],[78.35171,12.93504],[78.35137,12.93212],[78.35496,12.92822],[78.34924,12.92588],[78.34868,12.92325],[78.3493,12.91663],[78.33816,12.89936],[78.33313,12.89971],[78.32742,12.90272],[78.32444,12.89873],[78.32337,12.89341],[78.32426,12.88989],[78.32093,12.8866],[78.3219,12.88394],[78.32716,12.88233],[78.33242,12.8818],[78.33372,12.88633],[78.33849,12.88419],[78.33372,12.878],[78.3326,12.873],[78.32202,12.8755],[78.31505,12.87587],[78.31721,12.8666],[78.31411,12.85733],[78.28664,12.85923],[78.2815,12.86061],[78.27354,12.86662],[78.26902,12.86565],[78.26472,12.85961],[78.25962,12.85985],[78.25553,12.8611],[78.25197,12.85741],[78.2528,12.82236],[78.25116,12.81318],[78.24639,12.79762],[78.2405,12.77206],[78.23613,12.76499],[78.23164,12.76264],[78.22347,12.76509],[78.20988,12.76509],[78.20116,12.77106],[78.19485,12.77257],[78.1896,12.76987],[78.18619,12.77325],[78.17701,12.77491],[78.16898,12.77013],[78.15853,12.77318],[78.15382,12.77651],[78.14729,12.77901],[78.13787,12.77998],[78.13142,12.77983],[78.12855,12.78969],[78.12519,12.79685],[78.12014,12.80117],[78.11272,12.80315],[78.1083,12.80568],[78.10578,12.80996],[78.09708,12.81305],[78.09305,12.81884],[78.08669,12.83018],[78.08424,12.83096],[78.07647,12.82858],[78.07692,12.83633],[78.07508,12.8398],[78.06186,12.84191],[78.06106,12.84818],[78.05718,12.85196],[78.05243,12.85168],[78.05045,12.84779],[78.03255,12.85076],[78.02997,12.85573],[78.02528,12.85543],[78.02471,12.85251],[78.02723,12.84789],[78.02718,12.84306],[78.01944,12.84321],[78.0175,12.83772],[78.01843,12.83248],[78.01752,12.82956],[78.01421,12.82747],[78.01024,12.82855],[78.00367,12.82317],[78.01371,12.81536],[78.01603,12.81281],[78.01189,12.80498],[78.00011,12.8067],[77.9964,12.80481],[77.99178,12.80513],[77.99169,12.8199],[77.98491,12.8239],[77.98392,12.82763],[77.98159,12.83209],[77.96774,12.83095],[77.96528,12.83457],[77.96823,12.84575],[77.96547,12.84811],[77.96158,12.84726],[77.95707,12.84745],[77.95877,12.85749],[77.95574,12.85869],[77.94878,12.85904],[77.94364,12.85413],[77.94273,12.84898],[77.94632,12.84317],[77.95012,12.83873],[77.9432,12.8223],[77.935,12.82308],[77.93095,12.82557],[77.92842,12.82855],[77.92063,12.82902],[77.91938,12.83134],[77.92197,12.84175],[77.92501,12.8483],[77.92547,12.85358],[77.92857,12.85668],[77.93794,12.8598],[77.93895,12.86358],[77.94121,12.86554],[77.9446,12.86538],[77.94371,12.87102],[77.92978,12.8728],[77.92847,12.87816],[77.93883,12.88074],[77.93913,12.88408],[77.93438,12.88714],[77.92782,12.88765],[77.92445,12.88282],[77.91939,12.88222],[77.91226,12.88262],[77.91057,12.87713],[77.9043,12.87747],[77.89749,12.87615],[77.89229,12.86762],[77.88803,12.86849],[77.87687,12.86781],[77.87215,12.86611],[77.86882,12.8668],[77.8681,12.87577],[77.85709,12.87658],[77.85561,12.87936],[77.85586,12.88694],[77.85484,12.8923],[77.86417,12.9127],[77.85998,12.91444],[77.84354,12.91344],[77.84147,12.91927],[77.84259,12.92327],[77.84813,12.92457],[77.85179,12.92898],[77.8551,12.93088],[77.85774,12.93118],[77.86112,12.93319],[77.8696,12.9322],[77.87565,12.94255],[77.87005,12.94706],[77.86787,12.95032],[77.87231,12.95914],[77.86819,12.96162],[77.86624,12.96417],[77.86502,12.97183],[77.87326,12.97331],[77.87172,12.97626],[77.87312,12.98548],[77.87749,13.00019],[77.87772,13.00019],[77.88389,13.00437],[77.88833,13.00969],[77.88934,13.01876],[77.89085,13.02514],[77.89496,13.0334],[77.89012,13.03481],[77.89293,13.0445],[77.89657,13.04621],[77.89371,13.04805],[77.8973,13.05234],[77.90034,13.04992],[77.90577,13.04857],[77.91638,13.04817],[77.92885,13.06745],[77.9354,13.0673],[77.94089,13.06841],[77.9422,13.07654],[77.9418,13.08268],[77.93647,13.07556],[77.93192,13.07343],[77.92742,13.07499],[77.92546,13.07985],[77.9186,13.07872],[77.91434,13.08047],[77.91643,13.08416],[77.9124,13.09369],[77.90272,13.09903],[77.91475,13.10905],[77.91586,13.11641],[77.92387,13.11517],[77.925,13.1118],[77.92896,13.10844],[77.93821,13.10668],[77.93826,13.11615],[77.93995,13.12237],[77.94488,13.1219],[77.94978,13.12492],[77.95758,13.12449],[77.95815,13.12993],[77.95669,13.13769],[77.9588,13.14623],[77.95882,13.15718],[77.95484,13.15979],[77.95677,13.16478],[77.95753,13.17311],[77.95928,13.17885],[77.96307,13.18588],[77.96154,13.19448],[77.95683,13.20109],[77.95682,13.20875],[77.95821,13.21738],[77.95399,13.21652],[77.94922,13.21235],[77.94636,13.21446],[77.94943,13.21874],[77.96473,13.23019],[77.9665,13.24336],[77.9504,13.24699],[77.94639,13.24078],[77.93462,13.24178],[77.93019,13.23672],[77.92736,13.23842],[77.92568,13.23829]]]}}]}