{"type":"FeatureCollection","features":[{"type":"Feature","properties":{"id":"raichur","name":"Raichur","stateId":"karnataka","stateName":"Karnataka","censuscode":559,"type":"district"},"geometry":{"type":"Polygon","coordinates":[[[77.28865,16.40704],[77.29859,16.40366],[77.31103,16.3981],[77.33684,16.39243],[77.34708,16.38387],[77.35672,16.38077],[77.37742,16.38411],[77.3924,16.37602],[77.40543,16.37028],[77.41608,16.36694],[77.42655,16.36712],[77.43215,16.36936],[77.43958,16.37694],[77.4425,16.37872],[77.45339,16.3801],[77.46576,16.37975],[77.48587,16.3821],[77.49902,16.38014],[77.51471,16.37456],[77.52346,16.3745],[77.53326,16.36278],[77.5398,16.35738],[77.54901,16.35421],[77.55418,16.34915],[77.55924,16.34604],[77.57659,16.34046],[77.59122,16.34246],[77.5964,16.34205],[77.58918,16.33258],[77.59144,16.325],[77.59565,16.31654],[77.59581,16.30919],[77.59318,16.30023],[77.5971,16.29471],[77.59513,16.29144],[77.5855,16.29065],[77.57914,16.29352],[77.57404,16.29933],[77.56976,16.30227],[77.55423,16.29521],[77.54792,16.29159],[77.54447,16.28717],[77.5385,16.26718],[77.53053,16.27156],[77.52912,16.27431],[77.524,16.27541],[77.51776,16.27524],[77.50587,16.27231],[77.50484,16.26519],[77.5036,16.26237],[77.49217,16.25433],[77.49354,16.24635],[77.4934,16.22889],[77.49827,16.22757],[77.5069,16.22935],[77.51545,16.22791],[77.51586,16.22176],[77.51348,16.21952],[77.50701,16.22027],[77.49998,16.21757],[77.49838,16.21074],[77.49961,16.19994],[77.49961,16.19172],[77.49306,16.18328],[77.4883,16.16318],[77.4915,16.15772],[77.4928,16.15204],[77.49331,16.13113],[77.49141,16.12045],[77.49497,16.12085],[77.5002,16.11935],[77.50749,16.11418],[77.5142,16.10826],[77.50826,16.10625],[77.50267,16.10195],[77.49767,16.08851],[77.49779,16.08437],[77.50775,16.07799],[77.50435,16.05904],[77.50103,16.05956],[77.4993,16.05456],[77.50049,16.0525],[77.49554,16.03544],[77.4969,16.03038],[77.50367,16.02199],[77.50343,16.01872],[77.50514,16.01619],[77.50656,16.01039],[77.51498,16.00711],[77.51329,16.00071],[77.5104,15.98365],[77.51042,15.97757],[77.51394,15.97235],[77.51982,15.96807],[77.52084,15.96239],[77.51953,15.94839],[77.51441,15.92584],[77.50224,15.93125],[77.4882,15.93299],[77.47184,15.93248],[77.45732,15.9364],[77.44124,15.94388],[77.43115,15.94711],[77.42665,15.94612],[77.42116,15.94278],[77.41233,15.94045],[77.40469,15.94026],[77.39734,15.94155],[77.39025,15.93924],[77.38083,15.93801],[77.3727,15.94079],[77.36444,15.94627],[77.35816,15.94843],[77.33967,15.94797],[77.31922,15.94985],[77.30462,15.95514],[77.29616,15.9546],[77.28681,15.95198],[77.26747,15.95598],[77.26243,15.95855],[77.25317,15.9623],[77.24832,15.96132],[77.24033,15.95726],[77.23133,15.95615],[77.22286,15.95617],[77.20711,15.95439],[77.19194,15.9552],[77.18471,15.95454],[77.17478,15.95003],[77.16115,15.94894],[77.14743,15.94505],[77.14075,15.94066],[77.13391,15.93483],[77.12461,15.93325],[77.10852,15.92894],[77.09392,15.92227],[77.08063,15.91413],[77.06977,15.9037],[77.06202,15.89155],[77.05626,15.88068],[77.04484,15.86836],[77.03695,15.85748],[77.03278,15.84931],[77.02604,15.83619],[77.02818,15.83391],[77.01644,15.82414],[77.00983,15.81799],[76.99992,15.80917],[76.99262,15.79956],[76.98464,15.79285],[76.97159,15.77847],[76.96291,15.77025],[76.95853,15.76686],[76.94759,15.76127],[76.93868,15.75131],[76.92766,15.73484],[76.92096,15.71804],[76.92012,15.70716],[76.9186,15.69977],[76.91572,15.69466],[76.91195,15.69042],[76.90698,15.688],[76.89615,15.68472],[76.89307,15.68281],[76.88476,15.6722],[76.87354,15.66462],[76.86876,15.65899],[76.86622,15.65537],[76.86018,15.64327],[76.83932,15.62963],[76.83697,15.62549],[76.8341,15.61574],[76.83435,15.61122],[76.83777,15.60228],[76.83484,15.59488],[76.83689,15.56868],[76.83574,15.56122],[76.81401,15.54664],[76.814,15.54661],[76.80332,15.54948],[76.79783,15.55122],[76.79134,15.55378],[76.78132,15.55538],[76.77526,15.55716],[76.7737,15.55817],[76.76465,15.56404],[76.76029,15.56531],[76.75738,15.56889],[76.75544,15.58336],[76.75315,15.58842],[76.74793,15.59049],[76.72665,15.59038],[76.71614,15.59297],[76.70192,15.59328],[76.70163,15.58954],[76.69041,15.59448],[76.69264,15.59946],[76.68637,15.60579],[76.68116,15.60677],[76.6806,15.62619],[76.68522,15.62602],[76.69481,15.62268],[76.69256,15.64544],[76.68758,15.64506],[76.67023,15.63818],[76.67213,15.65684],[76.65377,15.66034],[76.65413,15.66509],[76.62659,15.67021],[76.61786,15.66891],[76.59997,15.67278],[76.59846,15.6993],[76.58787,15.69677],[76.56156,15.70528],[76.56025,15.70151],[76.55544,15.70139],[76.54487,15.69831],[76.54523,15.70279],[76.54183,15.69952],[76.54089,15.70315],[76.5375,15.70297],[76.53506,15.69881],[76.53194,15.69928],[76.52532,15.70788],[76.52121,15.71016],[76.51846,15.71091],[76.51504,15.70819],[76.51231,15.71551],[76.49914,15.71082],[76.49222,15.70517],[76.49076,15.70705],[76.49237,15.71056],[76.48352,15.71382],[76.48226,15.71468],[76.46942,15.72351],[76.46218,15.72669],[76.45092,15.73164],[76.44403,15.73595],[76.44758,15.74051],[76.4471,15.7446],[76.44033,15.74781],[76.4409,15.75246],[76.43972,15.76746],[76.43984,15.77117],[76.44023,15.78386],[76.43651,15.7856],[76.42653,15.78499],[76.42341,15.78555],[76.42342,15.78884],[76.41906,15.78973],[76.41359,15.7969],[76.41298,15.802],[76.41697,15.80465],[76.42336,15.80527],[76.42572,15.8087],[76.42711,15.81348],[76.43866,15.82226],[76.44454,15.82459],[76.44776,15.83133],[76.45141,15.83608],[76.45115,15.83909],[76.45296,15.84543],[76.45121,15.85095],[76.4379,15.8551],[76.42161,15.86493],[76.41964,15.86808],[76.42277,15.87098],[76.42761,15.88772],[76.41641,15.89411],[76.40461,15.89783],[76.4038,15.90001],[76.39498,15.90152],[76.38085,15.9009],[76.37611,15.90151],[76.37511,15.91436],[76.35731,15.90597],[76.35549,15.90355],[76.35544,15.902],[76.35745,15.90086],[76.36066,15.90076],[76.35916,15.89661],[76.35845,15.89157],[76.35937,15.87818],[76.35726,15.87255],[76.35707,15.8657],[76.35321,15.86515],[76.35026,15.86252],[76.33917,15.87173],[76.34323,15.87878],[76.34593,15.88697],[76.34703,15.89174],[76.34594,15.89729],[76.33649,15.90107],[76.33348,15.9013],[76.32657,15.90182],[76.31819,15.90115],[76.31206,15.89378],[76.30919,15.89198],[76.29962,15.89356],[76.29043,15.89132],[76.28563,15.90133],[76.28563,15.90133],[76.28468,15.91125],[76.28573,15.9256],[76.30179,15.92762],[76.30259,15.92206],[76.31095,15.92186],[76.31282,15.92658],[76.32816,15.93083],[76.3221,15.95271],[76.31189,15.95428],[76.30226,15.96897],[76.30072,15.97855],[76.29727,15.9919],[76.29742,15.99689],[76.30671,15.99756],[76.30896,15.99676],[76.31244,15.9974],[76.31329,16.00058],[76.31349,16.01],[76.31251,16.01471],[76.30653,16.02444],[76.30496,16.04602],[76.30782,16.06471],[76.30582,16.06684],[76.30301,16.0726],[76.28337,16.07373],[76.26094,16.07321],[76.25916,16.082],[76.26122,16.08888],[76.29427,16.08733],[76.29994,16.08369],[76.30533,16.08234],[76.31192,16.08207],[76.32962,16.0763],[76.33465,16.09034],[76.29142,16.10444],[76.27091,16.10782],[76.26783,16.10204],[76.26324,16.09776],[76.25529,16.0978],[76.25495,16.10996],[76.24606,16.11121],[76.24746,16.12624],[76.23538,16.13015],[76.241,16.16531],[76.24101,16.16535],[76.24978,16.16255],[76.25806,16.15861],[76.26486,16.15422],[76.27292,16.15119],[76.28151,16.14977],[76.28539,16.15193],[76.28844,16.15547],[76.29133,16.16205],[76.29398,16.17644],[76.29836,16.18222],[76.30449,16.18477],[76.30812,16.1848],[76.31248,16.18737],[76.32217,16.18863],[76.3293,16.19106],[76.33596,16.19166],[76.34662,16.1963],[76.36548,16.20935],[76.36998,16.21592],[76.39723,16.2304],[76.40012,16.23578],[76.40494,16.23707],[76.40701,16.23516],[76.41916,16.24755],[76.41835,16.25008],[76.43566,16.26099],[76.47879,16.29012],[76.48636,16.29357],[76.49529,16.29593],[76.51504,16.29936],[76.52394,16.30435],[76.54655,16.31499],[76.55886,16.32334],[76.58041,16.34042],[76.58766,16.34049],[76.59608,16.33917],[76.60512,16.33944],[76.6152,16.34276],[76.63694,16.35489],[76.64839,16.35878],[76.67093,16.37417],[76.68812,16.38151],[76.7066,16.39193],[76.74721,16.41206],[76.75954,16.42636],[76.76228,16.42727],[76.78554,16.41635],[76.82327,16.42374],[76.83907,16.42855],[76.84804,16.43346],[76.85743,16.44459],[76.86325,16.4551],[76.8682,16.46826],[76.86548,16.4813],[76.86957,16.48638],[76.88256,16.49304],[76.91243,16.48578],[76.91896,16.48958],[76.9428,16.4989],[76.97018,16.50514],[76.97343,16.5085],[76.9767,16.51358],[76.97747,16.51793],[76.97697,16.52143],[76.97151,16.53354],[76.97081,16.54038],[76.97238,16.55311],[76.97614,16.55829],[76.98282,16.56082],[76.99115,16.56075],[77.00002,16.55867],[77.00623,16.55211],[77.01106,16.54543],[77.01113,16.54131],[77.00802,16.52641],[77.00666,16.51584],[77.00877,16.50786],[77.01426,16.5011],[77.02075,16.4995],[77.02663,16.50164],[77.03876,16.51282],[77.04596,16.51662],[77.0531,16.51783],[77.05882,16.51766],[77.06567,16.51347],[77.07265,16.50641],[77.07885,16.50166],[77.08671,16.49827],[77.09154,16.49386],[77.09654,16.49118],[77.10303,16.48906],[77.11501,16.4822],[77.12763,16.47901],[77.14531,16.47829],[77.15192,16.47566],[77.15824,16.4705],[77.16426,16.46143],[77.16575,16.45735],[77.16641,16.45064],[77.16446,16.44322],[77.16535,16.44075],[77.17118,16.43502],[77.18309,16.4297],[77.20161,16.4249],[77.22373,16.42049],[77.24379,16.41671],[77.25349,16.41184],[77.25955,16.40627],[77.26783,16.40208],[77.27771,16.40393],[77.28865,16.40704]]]}}]}