{"type":"FeatureCollection","features":[{"type":"Feature","properties":{"id":"ramanagara","name":"Ramanagara","stateId":"karnataka","stateName":"Karnataka","censuscode":584,"type":"district"},"geometry":{"type":"Polygon","coordinates":[[[77.20467,13.18377],[77.20798,13.17926],[77.22035,13.16327],[77.22366,13.14859],[77.24469,13.15046],[77.26569,13.15382],[77.27342,13.14364],[77.27064,13.13179],[77.28589,13.12175],[77.31033,13.10304],[77.31206,13.09127],[77.31269,13.05884],[77.32492,13.04875],[77.33131,13.0297],[77.32113,13.01182],[77.32632,12.97653],[77.33071,12.97271],[77.33343,12.9469],[77.33727,12.94471],[77.33909,12.94165],[77.34566,12.94121],[77.34495,12.93702],[77.33879,12.93384],[77.33894,12.92832],[77.34258,12.9281],[77.34217,12.91364],[77.33781,12.90876],[77.34437,12.88966],[77.34833,12.88035],[77.34894,12.86748],[77.35502,12.86963],[77.36694,12.87077],[77.36905,12.8634],[77.37583,12.85468],[77.37833,12.85338],[77.38104,12.85426],[77.3826,12.85659],[77.38494,12.85621],[77.39458,12.86175],[77.3974,12.86912],[77.403,12.86375],[77.40541,12.87124],[77.40884,12.87399],[77.41304,12.87571],[77.41607,12.87458],[77.41776,12.87077],[77.41982,12.87045],[77.42148,12.87202],[77.42695,12.87304],[77.43088,12.87694],[77.43149,12.8709],[77.42177,12.86835],[77.42295,12.86483],[77.42959,12.85474],[77.43346,12.85129],[77.439,12.84966],[77.43854,12.83938],[77.43237,12.83845],[77.42639,12.8348],[77.42251,12.83032],[77.42355,12.82577],[77.42755,12.82301],[77.43792,12.82286],[77.43389,12.81631],[77.43763,12.81562],[77.43873,12.81165],[77.44168,12.80872],[77.44517,12.80724],[77.44968,12.81407],[77.45368,12.81802],[77.4631,12.8103],[77.46659,12.80875],[77.47298,12.80877],[77.4821,12.80766],[77.48031,12.80539],[77.48244,12.80318],[77.48575,12.80128],[77.48565,12.79899],[77.47393,12.79509],[77.47202,12.79276],[77.4722,12.78926],[77.47835,12.7821],[77.47888,12.77882],[77.47754,12.77241],[77.47499,12.76601],[77.47763,12.75914],[77.47766,12.75391],[77.49037,12.74281],[77.50672,12.73544],[77.51624,12.74454],[77.52103,12.74366],[77.52101,12.73448],[77.52172,12.73194],[77.52408,12.73247],[77.52636,12.73554],[77.52786,12.74155],[77.53926,12.75447],[77.54403,12.75204],[77.54539,12.753],[77.54456,12.76329],[77.55258,12.77333],[77.54459,12.77563],[77.55127,12.7861],[77.54778,12.79161],[77.54212,12.79848],[77.55008,12.7995],[77.55917,12.79964],[77.55517,12.78828],[77.55916,12.78811],[77.5641,12.78561],[77.55762,12.77991],[77.56379,12.76345],[77.56875,12.75872],[77.57291,12.7625],[77.57448,12.76874],[77.57373,12.77949],[77.58304,12.78647],[77.59463,12.7821],[77.59496,12.77721],[77.60011,12.76622],[77.59824,12.75603],[77.59331,12.75168],[77.58898,12.74916],[77.58296,12.75276],[77.57777,12.75158],[77.57042,12.73601],[77.57413,12.7332],[77.5731,12.73149],[77.5655,12.73178],[77.55938,12.73021],[77.55946,12.72153],[77.56137,12.71243],[77.56435,12.70492],[77.57051,12.69868],[77.57393,12.69972],[77.58957,12.71343],[77.59727,12.71871],[77.60361,12.71557],[77.6087,12.71169],[77.61602,12.70825],[77.61826,12.70558],[77.61555,12.70051],[77.60575,12.68894],[77.60476,12.68305],[77.60182,12.67476],[77.59514,12.6643],[77.59894,12.65705],[77.59763,12.6515],[77.59904,12.64546],[77.60138,12.64157],[77.60521,12.63926],[77.60457,12.63595],[77.60757,12.62987],[77.60328,12.6254],[77.59512,12.62076],[77.59185,12.61392],[77.5912,12.59307],[77.58401,12.57607],[77.58097,12.57238],[77.57982,12.56677],[77.58216,12.54928],[77.58627,12.5457],[77.5875,12.53236],[77.58971,12.52038],[77.58841,12.51592],[77.6051,12.51261],[77.61517,12.51229],[77.61634,12.50876],[77.61473,12.50385],[77.61175,12.50062],[77.59247,12.48524],[77.58531,12.47731],[77.60667,12.47359],[77.62084,12.48703],[77.62734,12.49451],[77.63528,12.48629],[77.6318,12.46348],[77.62828,12.45217],[77.63024,12.44714],[77.62709,12.43368],[77.62728,12.42771],[77.63084,12.42283],[77.63028,12.41755],[77.626,12.41395],[77.62348,12.40686],[77.62117,12.39472],[77.6201,12.38272],[77.61777,12.37673],[77.61659,12.36933],[77.61409,12.36283],[77.61047,12.36029],[77.60143,12.35825],[77.59641,12.34535],[77.58553,12.33529],[77.57883,12.33321],[77.57625,12.32573],[77.56633,12.30618],[77.55536,12.30169],[77.55294,12.29271],[77.54976,12.29138],[77.5337,12.28996],[77.52853,12.27849],[77.51221,12.27523],[77.50809,12.27731],[77.50331,12.28169],[77.50074,12.28196],[77.49431,12.27867],[77.48851,12.27853],[77.48528,12.27484],[77.48025,12.27073],[77.4773,12.26204],[77.47676,12.25733],[77.47358,12.2529],[77.47304,12.24463],[77.46391,12.24782],[77.45127,12.24858],[77.44885,12.2504],[77.44348,12.2664],[77.43999,12.27455],[77.4359,12.28185],[77.4303,12.28665],[77.42094,12.28759],[77.41571,12.28578],[77.40809,12.28101],[77.39886,12.27833],[77.37898,12.2796],[77.36964,12.28077],[77.36411,12.28235],[77.35345,12.27843],[77.34696,12.27876],[77.34065,12.28287],[77.33636,12.28931],[77.33337,12.29694],[77.33031,12.30256],[77.32726,12.30593],[77.32282,12.30709],[77.32345,12.31668],[77.32529,12.32613],[77.33373,12.35312],[77.32867,12.36561],[77.31826,12.38483],[77.31453,12.38994],[77.29435,12.3907],[77.28734,12.3919],[77.2846,12.40377],[77.28197,12.40426],[77.28183,12.40639],[77.28395,12.40722],[77.28263,12.41994],[77.28593,12.42178],[77.28474,12.42789],[77.28082,12.42823],[77.27588,12.43026],[77.27108,12.43464],[77.27525,12.43917],[77.27347,12.445],[77.2695,12.46493],[77.26449,12.46197],[77.25928,12.46198],[77.25716,12.46506],[77.25587,12.46916],[77.245,12.4665],[77.24369,12.46888],[77.23819,12.46918],[77.23711,12.47075],[77.23449,12.47188],[77.23417,12.47401],[77.23653,12.47524],[77.23476,12.47779],[77.23487,12.4817],[77.23136,12.48193],[77.22821,12.47473],[77.22652,12.4751],[77.22622,12.48222],[77.22741,12.4879],[77.23499,12.48612],[77.23929,12.48726],[77.24048,12.49236],[77.23959,12.49915],[77.22496,12.4997],[77.22283,12.49078],[77.21738,12.49051],[77.21432,12.48596],[77.21027,12.48469],[77.20645,12.48411],[77.2047,12.48794],[77.20072,12.48805],[77.19918,12.48301],[77.19555,12.48335],[77.19453,12.4821],[77.18826,12.48168],[77.17838,12.47837],[77.17475,12.48239],[77.16921,12.48351],[77.16667,12.48216],[77.16662,12.4751],[77.15836,12.47464],[77.1567,12.4699],[77.14773,12.46163],[77.14107,12.46225],[77.13728,12.46765],[77.13486,12.46997],[77.13343,12.47654],[77.13025,12.47911],[77.12636,12.48044],[77.12426,12.48494],[77.12671,12.4883],[77.13316,12.5009],[77.13149,12.50627],[77.13055,12.51777],[77.1266,12.51995],[77.12546,12.52991],[77.12062,12.53899],[77.11494,12.54246],[77.11584,12.54825],[77.11503,12.55297],[77.12242,12.5535],[77.12907,12.55157],[77.13019,12.56],[77.12912,12.56627],[77.13037,12.56774],[77.11895,12.57951],[77.11421,12.59509],[77.11088,12.59617],[77.10861,12.6012],[77.11193,12.61522],[77.12418,12.61958],[77.12417,12.62269],[77.11658,12.6279],[77.10545,12.62479],[77.10422,12.62825],[77.102,12.62868],[77.10036,12.64077],[77.10012,12.66691],[77.09848,12.67491],[77.09273,12.67436],[77.08385,12.67598],[77.07668,12.67832],[77.07474,12.68243],[77.07325,12.69227],[77.07397,12.70116],[77.0756,12.70815],[77.07783,12.71265],[77.07876,12.7193],[77.08099,12.72415],[77.08208,12.73361],[77.08557,12.74011],[77.08126,12.74608],[77.08218,12.75595],[77.08429,12.75666],[77.08719,12.75444],[77.0892,12.75125],[77.09431,12.75233],[77.09355,12.75631],[77.09532,12.76461],[77.09777,12.76802],[77.10033,12.77424],[77.10338,12.77472],[77.10787,12.77713],[77.11123,12.77472],[77.11493,12.77507],[77.12092,12.77166],[77.13,12.77566],[77.13705,12.78022],[77.14467,12.78005],[77.14952,12.78297],[77.152,12.79195],[77.14733,12.79759],[77.14124,12.80849],[77.15713,12.82501],[77.1505,12.83257],[77.1496,12.83855],[77.15055,12.84698],[77.14116,12.85062],[77.13681,12.85367],[77.13622,12.85724],[77.13495,12.85852],[77.13337,12.85808],[77.13506,12.87339],[77.13465,12.87742],[77.1316,12.87746],[77.13174,12.88263],[77.13328,12.88708],[77.121,12.88524],[77.11569,12.8875],[77.11175,12.89077],[77.11503,12.894],[77.1214,12.89701],[77.12633,12.89751],[77.12868,12.9011],[77.13602,12.8979],[77.13826,12.89884],[77.1411,12.91212],[77.14379,12.9153],[77.15047,12.91475],[77.16021,12.91162],[77.16875,12.92965],[77.16527,12.93176],[77.16401,12.93402],[77.16209,12.9349],[77.16191,12.93858],[77.15972,12.9412],[77.1608,12.94652],[77.16047,12.956],[77.15687,12.95835],[77.1462,12.96206],[77.13924,12.96698],[77.13359,12.97378],[77.13238,12.97885],[77.13409,12.97975],[77.1344,12.98416],[77.1433,12.98364],[77.14701,12.988],[77.14485,12.98872],[77.13767,12.99542],[77.13938,12.99965],[77.13883,13.0002],[77.13861,13.0002],[77.1366,13.00344],[77.13318,13.00576],[77.12672,13.00577],[77.1267,13.00381],[77.12857,13.0002],[77.1288,13.0002],[77.13174,12.99861],[77.13055,12.99381],[77.12057,12.9932],[77.11766,12.9945],[77.11518,12.99333],[77.1095,12.99428],[77.10713,12.99241],[77.09935,12.99763],[77.10109,13.00053],[77.10085,13.00053],[77.10339,13.00389],[77.11192,13.00814],[77.1177,13.01015],[77.11842,13.01347],[77.11446,13.01628],[77.11084,13.02051],[77.10616,13.02283],[77.09685,13.0246],[77.09568,13.02722],[77.08977,13.03215],[77.08282,13.03638],[77.07578,13.0369],[77.07297,13.04561],[77.07452,13.05078],[77.07836,13.05736],[77.07694,13.06155],[77.07436,13.06488],[77.07154,13.06684],[77.07471,13.06988],[77.08133,13.07859],[77.0838,13.08662],[77.07633,13.10586],[77.07227,13.11333],[77.07309,13.12406],[77.07709,13.1287],[77.08212,13.13166],[77.08644,13.13331],[77.0938,13.13394],[77.09731,13.14301],[77.10623,13.14081],[77.10845,13.13748],[77.10785,13.13111],[77.11696,13.12897],[77.11809,13.13471],[77.11587,13.13776],[77.11705,13.14241],[77.12021,13.14452],[77.12111,13.16101],[77.12586,13.16336],[77.13171,13.16431],[77.13994,13.17424],[77.14491,13.1706],[77.14954,13.17335],[77.1569,13.1912],[77.16682,13.19455],[77.16971,13.18289],[77.17774,13.18499],[77.18436,13.18457],[77.19829,13.18028],[77.20463,13.18372],[77.20467,13.18377]]]}}]}