{"type":"FeatureCollection","features":[{"type":"Feature","properties":{"id":"shimoga","name":"Shimoga","stateId":"karnataka","stateName":"Karnataka","censuscode":568,"type":"district"},"geometry":{"type":"Polygon","coordinates":[[[75.53624,14.27739],[75.5354,14.27712],[75.53487,14.27695],[75.53412,14.27694],[75.52993,14.27689],[75.5277,14.25363],[75.52862,14.2282],[75.52778,14.22235],[75.52866,14.20983],[75.52781,14.20435],[75.52649,14.20212],[75.5202,14.20066],[75.51648,14.20318],[75.5126,14.2106],[75.50802,14.21655],[75.47882,14.21455],[75.47062,14.20866],[75.46506,14.20782],[75.46218,14.20739],[75.45747,14.20606],[75.45317,14.20374],[75.48537,14.17402],[75.46089,14.17325],[75.44357,14.16171],[75.43953,14.15703],[75.43053,14.15029],[75.42576,14.14787],[75.42146,14.13982],[75.41629,14.13848],[75.40121,14.12418],[75.40034,14.11863],[75.40023,14.11442],[75.4175,14.10893],[75.42541,14.10653],[75.43532,14.10417],[75.44118,14.10172],[75.44649,14.0958],[75.45165,14.09487],[75.46186,14.09874],[75.47056,14.10069],[75.47221,14.10106],[75.48125,14.09807],[75.49006,14.10217],[75.49359,14.10246],[75.49581,14.09726],[75.50035,14.09794],[75.50856,14.09765],[75.51624,14.09626],[75.53704,14.08663],[75.5412,14.07894],[75.54576,14.07635],[75.5548,14.07618],[75.57125,14.0656],[75.58623,14.05715],[75.59483,14.06196],[75.59887,14.06062],[75.60214,14.05745],[75.60664,14.05668],[75.61242,14.05922],[75.61534,14.06703],[75.61798,14.07166],[75.61804,14.07584],[75.62587,14.07416],[75.63189,14.07353],[75.63592,14.07856],[75.64439,14.07873],[75.64385,14.07508],[75.6531,14.07016],[75.65872,14.06716],[75.66743,14.06561],[75.67079,14.06553],[75.70764,14.07236],[75.72293,14.07453],[75.72198,14.08123],[75.72675,14.08355],[75.73653,14.08621],[75.73911,14.09319],[75.73971,14.10103],[75.75641,14.09997],[75.7575,14.10382],[75.75747,14.10791],[75.76601,14.10889],[75.77,14.10337],[75.77489,14.10188],[75.78112,14.10103],[75.7964,14.09896],[75.80477,14.09602],[75.80853,14.09822],[75.81085,14.10156],[75.81356,14.09792],[75.81586,14.09136],[75.8205,14.07812],[75.82179,14.06334],[75.82043,14.05885],[75.8157,14.05077],[75.81312,14.0479],[75.81196,14.04661],[75.80203,14.0425],[75.79808,14.03166],[75.79934,14.02688],[75.80013,14.02545],[75.80567,14.02407],[75.8231,14.01694],[75.82315,14.00022],[75.82697,13.9877],[75.82707,13.97208],[75.85776,13.91391],[75.86077,13.90355],[75.86129,13.89257],[75.85491,13.87258],[75.86183,13.87151],[75.86675,13.85603],[75.87054,13.8476],[75.87164,13.84069],[75.87055,13.83171],[75.8729,13.82478],[75.87992,13.81029],[75.87987,13.8103],[75.87375,13.80915],[75.86288,13.8103],[75.83623,13.8138],[75.82496,13.8174],[75.80704,13.79428],[75.79175,13.79601],[75.77813,13.78897],[75.77313,13.79429],[75.76575,13.79488],[75.76065,13.79332],[75.76603,13.78473],[75.76269,13.78046],[75.75756,13.78073],[75.74984,13.77987],[75.74095,13.77512],[75.73332,13.7692],[75.71358,13.77031],[75.71075,13.76653],[75.68872,13.76657],[75.68538,13.76358],[75.68426,13.75962],[75.68778,13.75591],[75.68906,13.75199],[75.68635,13.74942],[75.68165,13.74936],[75.67818,13.75096],[75.67317,13.76323],[75.67057,13.76348],[75.66401,13.75496],[75.66171,13.74983],[75.65692,13.74786],[75.65756,13.74409],[75.66038,13.74133],[75.66626,13.73861],[75.66922,13.73149],[75.67553,13.72834],[75.67488,13.72188],[75.67212,13.72046],[75.652,13.71821],[75.65021,13.71349],[75.64371,13.70492],[75.63987,13.70277],[75.63552,13.70151],[75.63189,13.70373],[75.62733,13.70316],[75.62401,13.70538],[75.62195,13.7095],[75.62182,13.71369],[75.61911,13.7218],[75.62353,13.72805],[75.62614,13.73039],[75.62783,13.7335],[75.6209,13.73985],[75.61611,13.74317],[75.61205,13.74457],[75.61044,13.74641],[75.60952,13.75137],[75.6094,13.76079],[75.60645,13.76085],[75.59561,13.76165],[75.58824,13.75809],[75.58291,13.75778],[75.57782,13.75868],[75.57338,13.75656],[75.56968,13.75395],[75.56836,13.74919],[75.56436,13.74151],[75.56026,13.73992],[75.55337,13.73467],[75.54575,13.73024],[75.54121,13.7295],[75.53619,13.73137],[75.53205,13.73443],[75.529,13.7384],[75.52361,13.7421],[75.5214,13.74822],[75.51783,13.75303],[75.51069,13.75494],[75.50623,13.76552],[75.50334,13.76442],[75.50007,13.75993],[75.49412,13.76562],[75.49177,13.76823],[75.48845,13.76622],[75.48943,13.7628],[75.48901,13.7602],[75.46788,13.74757],[75.46233,13.74288],[75.46169,13.73625],[75.45956,13.73008],[75.45617,13.72461],[75.44905,13.72337],[75.43794,13.718],[75.43234,13.71595],[75.42738,13.71507],[75.4239,13.71011],[75.41987,13.70697],[75.41086,13.70611],[75.40679,13.70521],[75.40322,13.70346],[75.39454,13.70825],[75.38395,13.71134],[75.38391,13.70439],[75.38683,13.70342],[75.38883,13.69941],[75.39455,13.70043],[75.39683,13.69276],[75.40143,13.68564],[75.40864,13.67185],[75.41108,13.66068],[75.41507,13.65405],[75.4119,13.64732],[75.4127,13.64276],[75.41385,13.6405],[75.40742,13.63204],[75.40745,13.62618],[75.39795,13.62967],[75.39443,13.62569],[75.38894,13.62358],[75.38971,13.61832],[75.38918,13.61422],[75.37938,13.61672],[75.37883,13.62239],[75.3739,13.62754],[75.36601,13.62265],[75.36718,13.61355],[75.36543,13.60556],[75.36969,13.59974],[75.35623,13.59607],[75.35133,13.58853],[75.34434,13.582],[75.34181,13.58741],[75.32976,13.58494],[75.3284,13.59023],[75.3265,13.59338],[75.32114,13.59225],[75.31222,13.58961],[75.3085,13.58632],[75.296,13.58468],[75.29288,13.57938],[75.28906,13.57574],[75.27916,13.56736],[75.2776,13.568],[75.27707,13.56419],[75.26944,13.57038],[75.26791,13.5732],[75.26649,13.58113],[75.26462,13.58502],[75.26022,13.58233],[75.25713,13.58961],[75.25156,13.59853],[75.24378,13.60553],[75.23906,13.6046],[75.23483,13.60076],[75.22772,13.60319],[75.22264,13.60408],[75.21978,13.60242],[75.21891,13.5967],[75.21536,13.59213],[75.21161,13.58556],[75.21233,13.58265],[75.21886,13.57866],[75.22593,13.57036],[75.22604,13.56664],[75.2237,13.56378],[75.21723,13.5613],[75.22077,13.55448],[75.22475,13.55228],[75.22375,13.53534],[75.22564,13.5314],[75.22404,13.52777],[75.20737,13.52633],[75.20527,13.52199],[75.21039,13.52058],[75.20797,13.51693],[75.20282,13.51259],[75.19478,13.5125],[75.18614,13.5101],[75.18226,13.50771],[75.17666,13.50163],[75.17028,13.50643],[75.16704,13.5039],[75.16073,13.49819],[75.15838,13.49436],[75.15308,13.49072],[75.1469,13.48076],[75.13749,13.47459],[75.13789,13.46714],[75.14023,13.46326],[75.13545,13.46342],[75.12753,13.46466],[75.11719,13.45954],[75.11219,13.46232],[75.1116,13.47153],[75.10836,13.47553],[75.10555,13.48439],[75.10209,13.492],[75.09813,13.48874],[75.0923,13.49423],[75.08784,13.49686],[75.08345,13.49406],[75.07988,13.49618],[75.07825,13.50246],[75.07834,13.51096],[75.07672,13.51548],[75.07063,13.52403],[75.06672,13.5262],[75.06276,13.52151],[75.05947,13.52263],[75.06185,13.52582],[75.06258,13.52902],[75.04916,13.54068],[75.04911,13.54563],[75.04685,13.55659],[75.04302,13.55798],[75.04188,13.56356],[75.0378,13.56713],[75.0348,13.57337],[75.03587,13.57848],[75.04134,13.58344],[75.04675,13.58593],[75.05112,13.58547],[75.05478,13.58636],[75.05701,13.5918],[75.06002,13.59271],[75.06116,13.60107],[75.05939,13.6078],[75.05641,13.61145],[75.05295,13.61264],[75.05008,13.61006],[75.0361,13.61506],[75.03502,13.61922],[75.03187,13.62103],[75.02575,13.6301],[75.02046,13.63249],[75.01728,13.63673],[75.01736,13.64364],[75.01345,13.65345],[75.01444,13.66261],[75.01733,13.66494],[75.02174,13.66465],[75.02491,13.66587],[75.02675,13.6681],[75.02695,13.67139],[75.02469,13.6744],[75.01218,13.68218],[75.01298,13.69416],[75.01524,13.69469],[75.01715,13.69626],[75.01996,13.69643],[75.01945,13.69942],[75.00166,13.71194],[74.99995,13.71161],[74.99168,13.71305],[74.99322,13.72046],[74.99717,13.72496],[74.9984,13.72976],[74.99856,13.73481],[74.99876,13.73923],[74.99711,13.7415],[74.99416,13.74174],[74.9903,13.74564],[74.98089,13.7489],[74.97295,13.75361],[74.95817,13.75728],[74.95029,13.76187],[74.94473,13.7639],[74.94111,13.76606],[74.93865,13.77386],[74.93335,13.77192],[74.93337,13.77646],[74.93594,13.79077],[74.9332,13.79489],[74.92893,13.79894],[74.92876,13.80499],[74.92743,13.81045],[74.92181,13.82209],[74.91927,13.83093],[74.91906,13.83709],[74.91675,13.84513],[74.9166,13.85198],[74.91449,13.85732],[74.90939,13.86154],[74.90075,13.8652],[74.89406,13.86716],[74.88888,13.86792],[74.87844,13.86758],[74.87777,13.86193],[74.87378,13.85884],[74.86782,13.85971],[74.8631,13.86468],[74.85927,13.88047],[74.85585,13.88522],[74.84664,13.89475],[74.83638,13.90156],[74.8219,13.9088],[74.81838,13.90704],[74.8142,13.90735],[74.80209,13.91069],[74.79821,13.90992],[74.79487,13.90694],[74.7918,13.91429],[74.79015,13.91502],[74.77627,13.91622],[74.76521,13.9156],[74.75598,13.91166],[74.75184,13.91433],[74.74601,13.91549],[74.73605,13.9143],[74.72623,13.90949],[74.71709,13.90699],[74.71115,13.92904],[74.70803,13.92752],[74.69826,13.92989],[74.69303,13.93619],[74.70137,13.93977],[74.70098,13.95031],[74.69695,13.95678],[74.68842,13.95986],[74.68556,13.96548],[74.67715,13.97148],[74.67267,13.97955],[74.66769,13.98444],[74.66697,13.99617],[74.66621,14.00059],[74.6695,14.01333],[74.67752,14.03813],[74.66594,14.04044],[74.65595,14.04394],[74.65757,14.05249],[74.6603,14.06167],[74.6581,14.06937],[74.65278,14.08142],[74.64006,14.09748],[74.65558,14.11507],[74.64677,14.11788],[74.64391,14.14412],[74.62909,14.14643],[74.62662,14.16487],[74.65123,14.17291],[74.66657,14.18754],[74.69081,14.17061],[74.69742,14.17624],[74.7037,14.17447],[74.7118,14.16823],[74.7196,14.15942],[74.72571,14.15491],[74.73171,14.15484],[74.74328,14.15253],[74.74657,14.15041],[74.74857,14.15138],[74.74942,14.15828],[74.72896,14.17857],[74.71707,14.23404],[74.72218,14.24497],[74.73078,14.26702],[74.74022,14.26328],[74.74639,14.25843],[74.75947,14.24541],[74.76188,14.24603],[74.76388,14.24425],[74.7671,14.23838],[74.77569,14.24013],[74.78315,14.23807],[74.78508,14.23207],[74.79321,14.23285],[74.80439,14.23221],[74.8127,14.23447],[74.82169,14.23354],[74.82733,14.2297],[74.83404,14.23077],[74.84139,14.2274],[74.84954,14.21831],[74.85682,14.21374],[74.85995,14.21607],[74.86337,14.22056],[74.86874,14.22209],[74.87057,14.24254],[74.87405,14.2435],[74.8771,14.24116],[74.88086,14.23625],[74.87772,14.22953],[74.87745,14.22469],[74.88034,14.22428],[74.88068,14.2208],[74.87821,14.22001],[74.87814,14.217],[74.88238,14.21732],[74.89646,14.22214],[74.89778,14.22869],[74.90032,14.23285],[74.90509,14.23352],[74.91167,14.231],[74.91874,14.23134],[74.92357,14.23402],[74.92983,14.23883],[74.9358,14.24544],[74.93786,14.24947],[74.93895,14.25649],[74.94062,14.26123],[74.93834,14.26689],[74.93087,14.26913],[74.92944,14.28081],[74.92715,14.28209],[74.92126,14.27903],[74.9149,14.27842],[74.91041,14.28917],[74.91167,14.29787],[74.91524,14.30501],[74.91786,14.31303],[74.92625,14.32173],[74.93502,14.32324],[74.94209,14.32323],[74.95037,14.32086],[74.95455,14.3209],[74.95946,14.32385],[74.9669,14.3224],[74.97181,14.32052],[74.97736,14.32075],[74.97868,14.32351],[74.97357,14.32366],[74.97602,14.33519],[74.97321,14.33996],[74.96838,14.34154],[74.9622,14.34476],[74.95772,14.35079],[74.94682,14.35605],[74.94152,14.36183],[74.9432,14.3689],[74.94598,14.37387],[74.953,14.37974],[74.95151,14.39515],[74.94889,14.40293],[74.93872,14.40473],[74.93466,14.40819],[74.92155,14.43273],[74.91407,14.43301],[74.88599,14.43129],[74.88135,14.43693],[74.87781,14.44911],[74.88183,14.45472],[74.88732,14.46055],[74.89323,14.46393],[74.90194,14.46431],[74.91029,14.46011],[74.9216,14.46137],[74.92061,14.46572],[74.91733,14.46979],[74.9061,14.47358],[74.89505,14.47491],[74.89259,14.47939],[74.89327,14.49477],[74.89778,14.50641],[74.90283,14.51086],[74.90524,14.51681],[74.90583,14.52944],[74.914,14.53047],[74.93095,14.52879],[74.9387,14.5209],[74.94455,14.5279],[74.94385,14.53144],[74.94861,14.53396],[74.95304,14.53887],[74.9576,14.55072],[74.96713,14.55002],[74.97208,14.55405],[74.97903,14.55247],[74.98063,14.53548],[74.98355,14.52525],[74.98325,14.52319],[74.97695,14.52362],[74.97671,14.52142],[74.98006,14.5155],[74.98671,14.51119],[74.99347,14.50397],[74.99316,14.49979],[74.99379,14.49538],[74.98751,14.487],[74.99194,14.4758],[75.00004,14.48047],[75.00821,14.4865],[75.00789,14.49135],[75.01506,14.49499],[75.0249,14.4977],[75.04278,14.50082],[75.04264,14.5159],[75.03921,14.52644],[75.04519,14.5282],[75.05284,14.53185],[75.06249,14.54181],[75.05653,14.54651],[75.04914,14.54451],[75.043,14.54583],[75.03353,14.55461],[75.02658,14.55909],[75.02432,14.5641],[75.02468,14.57221],[75.02708,14.581],[75.02618,14.59921],[75.02699,14.6084],[75.03074,14.61642],[75.03771,14.6266],[75.04268,14.63549],[75.04783,14.63888],[75.05061,14.64229],[75.05125,14.64862],[75.06493,14.6507],[75.07503,14.65349],[75.07914,14.65153],[75.08538,14.65128],[75.10142,14.64845],[75.10589,14.64384],[75.11472,14.63823],[75.12362,14.63021],[75.1302,14.62849],[75.13925,14.63146],[75.14326,14.63154],[75.14468,14.61944],[75.14648,14.61766],[75.15056,14.62118],[75.15459,14.62212],[75.15868,14.62048],[75.16316,14.61716],[75.1655,14.62216],[75.16556,14.62697],[75.16722,14.63303],[75.17298,14.63338],[75.18191,14.62597],[75.18773,14.62288],[75.19388,14.62256],[75.20046,14.62576],[75.20382,14.63049],[75.20162,14.63437],[75.20164,14.63764],[75.20641,14.63546],[75.21198,14.62288],[75.20755,14.61466],[75.20563,14.59725],[75.18216,14.59805],[75.18491,14.5854],[75.19679,14.58255],[75.19813,14.57564],[75.20452,14.57424],[75.20954,14.57395],[75.22373,14.58542],[75.22902,14.58343],[75.23104,14.58083],[75.23059,14.57666],[75.22764,14.56714],[75.22862,14.56253],[75.23079,14.55948],[75.23788,14.55678],[75.2424,14.55723],[75.24302,14.56274],[75.24269,14.5683],[75.24599,14.57076],[75.246,14.5764],[75.24791,14.57955],[75.2582,14.57805],[75.26539,14.57916],[75.26915,14.57343],[75.27504,14.56762],[75.27753,14.56372],[75.28501,14.55909],[75.288,14.55602],[75.29238,14.54939],[75.29635,14.54171],[75.29692,14.53845],[75.29462,14.53489],[75.29224,14.5316],[75.28715,14.53066],[75.28165,14.53113],[75.27893,14.53249],[75.27435,14.52955],[75.26937,14.52545],[75.26992,14.52012],[75.26839,14.51631],[75.2701,14.51271],[75.27625,14.50986],[75.28194,14.51175],[75.28681,14.51229],[75.29166,14.51069],[75.29712,14.51131],[75.30989,14.51079],[75.31449,14.51183],[75.32053,14.51133],[75.32383,14.5089],[75.32853,14.49728],[75.33354,14.49132],[75.34291,14.48626],[75.34727,14.48291],[75.34265,14.47353],[75.34284,14.46353],[75.34689,14.45797],[75.34692,14.45464],[75.34507,14.45023],[75.34401,14.43442],[75.35847,14.42932],[75.35901,14.43522],[75.36314,14.43888],[75.37182,14.4362],[75.37697,14.43318],[75.38135,14.43162],[75.37832,14.41011],[75.36536,14.41114],[75.35952,14.40895],[75.35655,14.40563],[75.34905,14.38754],[75.35968,14.38219],[75.37071,14.37003],[75.37644,14.36985],[75.39156,14.36658],[75.399,14.36268],[75.40596,14.35532],[75.41129,14.35133],[75.41643,14.35228],[75.42125,14.35137],[75.4282,14.34889],[75.43105,14.34604],[75.4406,14.33983],[75.45422,14.3286],[75.47736,14.31702],[75.47874,14.32378],[75.47882,14.32953],[75.47737,14.33631],[75.47673,14.34503],[75.48022,14.34589],[75.48143,14.34037],[75.48821,14.33909],[75.4899,14.34677],[75.49961,14.34339],[75.50062,14.33354],[75.50434,14.3137],[75.50273,14.30672],[75.51991,14.301],[75.52073,14.29615],[75.52303,14.29126],[75.53163,14.28886],[75.53439,14.28549],[75.53624,14.27739]]]}}]}