{"type":"FeatureCollection","features":[{"type":"Feature","properties":{"id":"udupi","name":"Udupi","stateId":"karnataka","stateName":"Karnataka","censuscode":569,"type":"district"},"geometry":{"type":"Polygon","coordinates":[[[75.14023,13.46326],[75.14106,13.4614],[75.14446,13.45877],[75.14614,13.45557],[75.15339,13.45481],[75.15465,13.44901],[75.15334,13.44051],[75.15106,13.43899],[75.15323,13.43391],[75.15146,13.42878],[75.15082,13.42112],[75.14576,13.41885],[75.14409,13.41028],[75.14045,13.4079],[75.14696,13.3977],[75.14155,13.3887],[75.13603,13.39016],[75.13219,13.39207],[75.12816,13.38761],[75.12793,13.38375],[75.12967,13.37882],[75.12706,13.36919],[75.11721,13.36248],[75.11607,13.36048],[75.11272,13.35811],[75.10761,13.36073],[75.10247,13.36139],[75.09949,13.35857],[75.09129,13.36222],[75.08899,13.35081],[75.08431,13.34672],[75.08007,13.34454],[75.09434,13.31989],[75.10543,13.29544],[75.11508,13.28456],[75.12023,13.28344],[75.12409,13.28761],[75.12989,13.28656],[75.13404,13.29075],[75.13849,13.28995],[75.15153,13.26896],[75.15837,13.25029],[75.16674,13.22915],[75.16851,13.21268],[75.16718,13.20533],[75.16861,13.20718],[75.16875,13.19985],[75.17315,13.19992],[75.17608,13.20179],[75.18358,13.19452],[75.19979,13.17855],[75.1998,13.17852],[75.19917,13.17269],[75.19771,13.17133],[75.19102,13.16508],[75.18219,13.16088],[75.17813,13.14987],[75.17537,13.14678],[75.16883,13.14348],[75.16728,13.13999],[75.16197,13.13328],[75.15864,13.1358],[75.1574,13.13186],[75.14776,13.127],[75.14292,13.13309],[75.13881,13.13431],[75.13462,13.13508],[75.13001,13.13456],[75.12722,13.13238],[75.12488,13.12813],[75.12431,13.12312],[75.12058,13.11357],[75.11788,13.10886],[75.10791,13.10054],[75.1027,13.09406],[75.09882,13.09099],[75.09834,13.081],[75.0914,13.07859],[75.08915,13.07416],[75.08777,13.06868],[75.08318,13.06779],[75.08236,13.06505],[75.08277,13.05863],[75.0796,13.05417],[75.08002,13.05028],[75.07687,13.04528],[75.06807,13.0458],[75.06574,13.03856],[75.06343,13.03594],[75.06214,13.03309],[75.05654,13.03217],[75.05443,13.02911],[75.052,13.02721],[75.04744,13.02053],[75.04471,13.01917],[75.04013,13.01787],[75.0336,13.01724],[75.03032,13.01595],[75.02947,13.00456],[75.02941,13.00006],[75.02969,13.00007],[75.02969,12.99753],[75.02169,12.99626],[75.01798,12.99405],[75.014,12.98412],[75.00299,12.98456],[75.00003,12.98726],[74.99614,12.98749],[74.98961,12.98907],[74.98786,12.99146],[74.98644,13.00002],[74.98672,12.99994],[74.98686,13.0013],[74.98814,13.00415],[74.99195,13.00347],[74.99628,13.00389],[74.99544,13.00676],[74.99746,13.00964],[74.99892,13.0126],[74.99891,13.01549],[74.99822,13.01656],[74.99584,13.01865],[74.97769,13.02708],[74.96986,13.01629],[74.96559,13.01687],[74.9647,13.01348],[74.95769,13.01559],[74.95639,13.01818],[74.9515,13.01791],[74.94686,13.01594],[74.94524,13.01217],[74.94487,13.00726],[74.94081,13.00458],[74.93078,13.00577],[74.92809,13.00875],[74.93535,13.0149],[74.93326,13.01899],[74.93291,13.02342],[74.9338,13.02761],[74.93464,13.03155],[74.93232,13.03446],[74.9278,13.03403],[74.92347,13.03623],[74.92,13.03511],[74.91712,13.03791],[74.91329,13.0365],[74.90513,13.03984],[74.90724,13.02768],[74.90938,13.02476],[74.90619,13.02347],[74.89614,13.03037],[74.896,13.03661],[74.89084,13.04114],[74.88557,13.04386],[74.88385,13.04787],[74.88462,13.05696],[74.88868,13.05956],[74.89143,13.06292],[74.8913,13.06626],[74.88837,13.06806],[74.88822,13.0696],[74.89073,13.08183],[74.89031,13.09551],[74.88555,13.09932],[74.87608,13.09527],[74.8737,13.09718],[74.87217,13.1109],[74.86832,13.12001],[74.86439,13.1235],[74.86282,13.12607],[74.85408,13.12476],[74.84727,13.12869],[74.84376,13.12611],[74.83836,13.12701],[74.83136,13.1263],[74.82684,13.12841],[74.82229,13.12398],[74.81442,13.1217],[74.81129,13.11407],[74.80704,13.11373],[74.80161,13.11562],[74.79493,13.1161],[74.79583,13.11179],[74.79878,13.10727],[74.79709,13.1005],[74.79461,13.0976],[74.79078,13.09628],[74.78814,13.09693],[74.78764,13.09724],[74.78855,13.0974],[74.78993,13.09917],[74.78996,13.10228],[74.78773,13.10453],[74.78593,13.10455],[74.78403,13.10315],[74.78151,13.10363],[74.78102,13.10352],[74.77783,13.10274],[74.77679,13.10207],[74.77527,13.09983],[74.77525,13.09956],[74.77434,13.08987],[74.7735,13.08761],[74.77329,13.0874],[74.77168,13.08606],[74.77007,13.0863],[74.76985,13.08721],[74.76732,13.08882],[74.76711,13.08972],[74.76678,13.09062],[74.76631,13.09085],[74.76306,13.11876],[74.75623,13.14899],[74.75579,13.15125],[74.75414,13.16395],[74.75172,13.17348],[74.75175,13.176],[74.7491,13.18553],[74.74774,13.1869],[74.74703,13.18691],[74.74687,13.18702],[74.74566,13.18782],[74.74379,13.19318],[74.74318,13.19379],[74.74098,13.19989],[74.74051,13.2001],[74.74006,13.20033],[74.73874,13.20378],[74.73634,13.21423],[74.73561,13.21877],[74.73016,13.24256],[74.72846,13.2519],[74.72369,13.26496],[74.72219,13.26863],[74.72173,13.26887],[74.72095,13.27078],[74.72042,13.27194],[74.71822,13.27728],[74.71728,13.27932],[74.71703,13.27943],[74.7166,13.28056],[74.71613,13.2808],[74.71413,13.28784],[74.71212,13.30943],[74.71202,13.31065],[74.70987,13.31891],[74.70655,13.32705],[74.70628,13.32779],[74.70538,13.32872],[74.70424,13.33009],[74.70396,13.33069],[74.70064,13.33804],[74.70075,13.33977],[74.70299,13.3443],[74.70469,13.34125],[74.7062,13.3398],[74.70957,13.33204],[74.71093,13.33023],[74.7116,13.32978],[74.71282,13.32699],[74.71349,13.32622],[74.71365,13.32613],[74.71925,13.31225],[74.71942,13.30936],[74.72024,13.2983],[74.72044,13.28822],[74.72102,13.28708],[74.72285,13.28593],[74.72502,13.28572],[74.72581,13.29074],[74.72369,13.29724],[74.72524,13.30512],[74.72385,13.31376],[74.72422,13.31538],[74.72504,13.31627],[74.72519,13.31832],[74.72499,13.31911],[74.72473,13.3209],[74.72341,13.32444],[74.72307,13.32513],[74.72192,13.3256],[74.721,13.32674],[74.7196,13.33171],[74.71914,13.33194],[74.7181,13.33538],[74.7172,13.33606],[74.7163,13.33676],[74.71428,13.34062],[74.71016,13.34473],[74.71017,13.3452],[74.70901,13.34634],[74.70901,13.3468],[74.70788,13.34748],[74.70008,13.34893],[74.69597,13.35213],[74.69463,13.3576],[74.69479,13.36999],[74.69556,13.37819],[74.69489,13.38391],[74.69486,13.38423],[74.6949,13.38808],[74.69416,13.39768],[74.6908,13.41919],[74.69036,13.4223],[74.68741,13.43684],[74.68592,13.44173],[74.68637,13.4504],[74.68823,13.4539],[74.69085,13.45098],[74.69208,13.44825],[74.69495,13.43675],[74.69572,13.43226],[74.69631,13.4244],[74.69772,13.42057],[74.69967,13.41553],[74.70526,13.41207],[74.70886,13.40773],[74.70894,13.40599],[74.70937,13.40439],[74.71087,13.40284],[74.71275,13.40267],[74.71406,13.40382],[74.7144,13.40501],[74.71446,13.40602],[74.71559,13.40586],[74.71697,13.40529],[74.71752,13.4038],[74.72033,13.40273],[74.72155,13.4026],[74.72531,13.40189],[74.73222,13.40274],[74.73292,13.40251],[74.73345,13.40204],[74.73446,13.40003],[74.73764,13.39157],[74.73811,13.39134],[74.73853,13.38997],[74.74196,13.38846],[74.74303,13.38702],[74.74541,13.39044],[74.74547,13.39264],[74.74508,13.39366],[74.74312,13.39975],[74.74278,13.4014],[74.7405,13.41035],[74.73904,13.41331],[74.73743,13.41425],[74.7326,13.41494],[74.72386,13.41618],[74.71763,13.41838],[74.71423,13.41969],[74.7067,13.42588],[74.70526,13.43157],[74.70515,13.43202],[74.70517,13.43339],[74.70681,13.43585],[74.70981,13.43672],[74.7119,13.43716],[74.71282,13.43805],[74.71283,13.43851],[74.71466,13.44008],[74.71629,13.44029],[74.71676,13.44075],[74.71742,13.44891],[74.71852,13.45318],[74.72157,13.45633],[74.72167,13.45701],[74.72201,13.45837],[74.72236,13.45858],[74.72375,13.45879],[74.72672,13.45846],[74.73011,13.45849],[74.74133,13.45502],[74.74572,13.45403],[74.74965,13.4558],[74.75036,13.45669],[74.75071,13.45851],[74.75016,13.45964],[74.74879,13.46055],[74.7433,13.46358],[74.74052,13.46405],[74.73938,13.46473],[74.74003,13.47197],[74.73948,13.4729],[74.73559,13.47522],[74.73281,13.47569],[74.7319,13.47547],[74.72959,13.47413],[74.7223,13.47117],[74.72185,13.47027],[74.7182,13.46872],[74.71636,13.46736],[74.71614,13.46725],[74.71485,13.46254],[74.71387,13.46071],[74.71234,13.45596],[74.71151,13.4553],[74.71045,13.45462],[74.70911,13.45158],[74.70645,13.444],[74.70505,13.44243],[74.70183,13.44361],[74.70185,13.44408],[74.70093,13.44499],[74.69868,13.45994],[74.69827,13.46342],[74.69833,13.47105],[74.69737,13.4758],[74.69541,13.4813],[74.69495,13.47858],[74.69585,13.46464],[74.69503,13.46338],[74.69104,13.46207],[74.68936,13.46299],[74.68848,13.4655],[74.68801,13.46571],[74.68552,13.47258],[74.68523,13.47394],[74.68308,13.48915],[74.68172,13.50203],[74.6811,13.52606],[74.67862,13.54087],[74.67851,13.54187],[74.67788,13.54804],[74.67692,13.55421],[74.67486,13.56779],[74.67243,13.59436],[74.67198,13.59977],[74.66882,13.61087],[74.66811,13.61444],[74.66794,13.61999],[74.66704,13.62067],[74.6661,13.62358],[74.66375,13.63096],[74.66573,13.63185],[74.66728,13.63266],[74.66958,13.63287],[74.67233,13.63105],[74.67255,13.63035],[74.67325,13.63011],[74.67518,13.62397],[74.67575,13.62339],[74.67634,13.61968],[74.6773,13.61109],[74.67777,13.61085],[74.67781,13.61058],[74.67786,13.61034],[74.67807,13.60877],[74.67854,13.60854],[74.67854,13.60808],[74.68106,13.60739],[74.68245,13.6083],[74.68448,13.6196],[74.68469,13.62229],[74.68187,13.62754],[74.6814,13.62778],[74.68084,13.63004],[74.68087,13.63289],[74.68113,13.63503],[74.68345,13.63749],[74.68555,13.63837],[74.68716,13.63859],[74.69385,13.63921],[74.69569,13.63873],[74.69616,13.63826],[74.69751,13.63576],[74.69795,13.63553],[74.69801,13.63273],[74.69812,13.62987],[74.69742,13.62762],[74.69507,13.62492],[74.69458,13.62357],[74.69468,13.62106],[74.69547,13.61926],[74.70305,13.61601],[74.70663,13.61528],[74.7088,13.61479],[74.71019,13.6157],[74.71172,13.619],[74.71371,13.62046],[74.71487,13.62122],[74.71672,13.62153],[74.71936,13.62097],[74.72362,13.62147],[74.72117,13.62547],[74.71382,13.63046],[74.71106,13.63197],[74.70701,13.63459],[74.70438,13.63845],[74.70763,13.63826],[74.71207,13.63925],[74.71391,13.63843],[74.71487,13.63808],[74.72367,13.63598],[74.72608,13.63538],[74.72816,13.635],[74.73529,13.63579],[74.73536,13.63609],[74.73921,13.6366],[74.7436,13.63679],[74.74822,13.63637],[74.74883,13.63632],[74.75031,13.63615],[74.7558,13.63315],[74.75787,13.63356],[74.76045,13.63601],[74.76025,13.63853],[74.75887,13.63923],[74.75819,13.63945],[74.75774,13.6406],[74.75774,13.64104],[74.75661,13.64221],[74.7541,13.6438],[74.74947,13.64513],[74.74067,13.64767],[74.72906,13.64656],[74.72381,13.64721],[74.71423,13.64851],[74.71147,13.64897],[74.71122,13.64907],[74.70462,13.65178],[74.70186,13.65361],[74.70186,13.65406],[74.7007,13.65497],[74.69992,13.65634],[74.69984,13.66021],[74.70395,13.66516],[74.70779,13.66894],[74.70728,13.67234],[74.70519,13.67376],[74.70346,13.67354],[74.69556,13.66681],[74.69348,13.66729],[74.69041,13.669],[74.68803,13.67036],[74.68728,13.67076],[74.68729,13.6712],[74.68707,13.67189],[74.67951,13.67514],[74.67941,13.67696],[74.67951,13.67763],[74.68234,13.68124],[74.69061,13.68781],[74.6917,13.68867],[74.69205,13.68883],[74.69689,13.69071],[74.71333,13.69673],[74.69937,13.69623],[74.69596,13.69721],[74.69265,13.69833],[74.69222,13.69969],[74.69133,13.70175],[74.68923,13.70241],[74.68657,13.69961],[74.68455,13.69932],[74.68185,13.70051],[74.68176,13.70074],[74.6813,13.70233],[74.68063,13.70278],[74.68032,13.70374],[74.67866,13.70627],[74.6682,13.71381],[74.67572,13.7019],[74.67701,13.69987],[74.67713,13.69823],[74.67781,13.69099],[74.67747,13.68987],[74.67664,13.68898],[74.67188,13.68035],[74.67171,13.67999],[74.67122,13.67818],[74.66962,13.66845],[74.66911,13.65352],[74.66905,13.64873],[74.66733,13.64159],[74.6657,13.63893],[74.66285,13.64304],[74.66111,13.64881],[74.66008,13.65087],[74.65924,13.65157],[74.65718,13.65363],[74.65621,13.65452],[74.65622,13.65498],[74.65622,13.65544],[74.65508,13.65635],[74.65438,13.65682],[74.65439,13.65748],[74.65396,13.65885],[74.65305,13.65955],[74.65282,13.66022],[74.65054,13.66252],[74.64963,13.66299],[74.64721,13.66867],[74.6466,13.66937],[74.64533,13.67299],[74.64296,13.68773],[74.64051,13.69613],[74.64022,13.69859],[74.63997,13.70129],[74.63955,13.71338],[74.63587,13.72338],[74.6345,13.72475],[74.6344,13.72634],[74.63303,13.72679],[74.63246,13.72905],[74.63242,13.72963],[74.63142,13.74923],[74.62881,13.76603],[74.62802,13.77872],[74.62729,13.78232],[74.62702,13.7834],[74.62687,13.78414],[74.62287,13.79843],[74.62229,13.79901],[74.62002,13.80601],[74.61941,13.81234],[74.61616,13.82585],[74.61433,13.83527],[74.61231,13.84117],[74.61187,13.84141],[74.61104,13.84284],[74.60937,13.84869],[74.60654,13.85855],[74.61237,13.8552],[74.61455,13.8534],[74.61508,13.85232],[74.61551,13.85116],[74.61677,13.8505],[74.62118,13.84811],[74.62394,13.84785],[74.62477,13.84898],[74.62421,13.85124],[74.62442,13.85192],[74.62398,13.85215],[74.62389,13.85419],[74.62517,13.85553],[74.62656,13.8562],[74.6267,13.85779],[74.62636,13.85892],[74.62475,13.86029],[74.6226,13.86046],[74.61923,13.86197],[74.61901,13.86286],[74.61903,13.86422],[74.61812,13.8649],[74.61742,13.86514],[74.6165,13.86491],[74.61418,13.86312],[74.61186,13.86337],[74.61187,13.86382],[74.60845,13.86614],[74.60845,13.8666],[74.60845,13.86704],[74.608,13.86744],[74.60695,13.86827],[74.60525,13.86979],[74.60526,13.87024],[74.60526,13.87071],[74.60319,13.87229],[74.6023,13.87389],[74.60184,13.87502],[74.5984,13.87845],[74.58924,13.90822],[74.58707,13.92048],[74.5866,13.92071],[74.58618,13.92207],[74.58277,13.92574],[74.58238,13.92593],[74.58915,13.93042],[74.59434,13.93485],[74.59786,13.94411],[74.6001,13.94367],[74.60209,13.93522],[74.60753,13.94138],[74.61832,13.94271],[74.62168,13.94228],[74.62519,13.93881],[74.62882,13.94241],[74.6319,13.94843],[74.63444,13.94834],[74.63656,13.94693],[74.64033,13.94097],[74.64427,13.94073],[74.64972,13.94325],[74.6514,13.94655],[74.65208,13.95035],[74.64906,13.95459],[74.64691,13.95963],[74.65774,13.97625],[74.66769,13.98444],[74.67267,13.97955],[74.67715,13.97148],[74.68556,13.96548],[74.68842,13.95986],[74.69695,13.95678],[74.70098,13.95031],[74.70137,13.93977],[74.69303,13.93619],[74.69826,13.92989],[74.70803,13.92752],[74.71115,13.92904],[74.71709,13.90699],[74.72623,13.90949],[74.73605,13.9143],[74.74601,13.91549],[74.75184,13.91433],[74.75598,13.91166],[74.76521,13.9156],[74.77627,13.91622],[74.79015,13.91502],[74.7918,13.91429],[74.79487,13.90694],[74.79821,13.90992],[74.80209,13.91069],[74.8142,13.90735],[74.81838,13.90704],[74.8219,13.9088],[74.83638,13.90156],[74.84664,13.89475],[74.85585,13.88522],[74.85927,13.88047],[74.8631,13.86468],[74.86782,13.85971],[74.87378,13.85884],[74.87777,13.86193],[74.87844,13.86758],[74.88888,13.86792],[74.89406,13.86716],[74.90075,13.8652],[74.90939,13.86154],[74.91449,13.85732],[74.9166,13.85198],[74.91675,13.84513],[74.91906,13.83709],[74.91927,13.83093],[74.92181,13.82209],[74.92743,13.81045],[74.92876,13.80499],[74.92893,13.79894],[74.9332,13.79489],[74.93594,13.79077],[74.93337,13.77646],[74.93335,13.77192],[74.93865,13.77386],[74.94111,13.76606],[74.94473,13.7639],[74.95029,13.76187],[74.95817,13.75728],[74.97295,13.75361],[74.98089,13.7489],[74.9903,13.74564],[74.99416,13.74174],[74.99711,13.7415],[74.99876,13.73923],[74.99856,13.73481],[74.9984,13.72976],[74.99717,13.72496],[74.99322,13.72046],[74.99168,13.71305],[74.99995,13.71161],[75.00166,13.71194],[75.01945,13.69942],[75.01996,13.69643],[75.01715,13.69626],[75.01524,13.69469],[75.01298,13.69416],[75.01218,13.68218],[75.02469,13.6744],[75.02695,13.67139],[75.02675,13.6681],[75.02491,13.66587],[75.02174,13.66465],[75.01733,13.66494],[75.01444,13.66261],[75.01345,13.65345],[75.01736,13.64364],[75.01728,13.63673],[75.02046,13.63249],[75.02575,13.6301],[75.03187,13.62103],[75.03502,13.61922],[75.0361,13.61506],[75.05008,13.61006],[75.05295,13.61264],[75.05641,13.61145],[75.05939,13.6078],[75.06116,13.60107],[75.06002,13.59271],[75.05701,13.5918],[75.05478,13.58636],[75.05112,13.58547],[75.04675,13.58593],[75.04134,13.58344],[75.03587,13.57848],[75.0348,13.57337],[75.0378,13.56713],[75.04188,13.56356],[75.04302,13.55798],[75.04685,13.55659],[75.04911,13.54563],[75.04916,13.54068],[75.06258,13.52902],[75.06185,13.52582],[75.05947,13.52263],[75.06276,13.52151],[75.06672,13.5262],[75.07063,13.52403],[75.07672,13.51548],[75.07834,13.51096],[75.07825,13.50246],[75.07988,13.49618],[75.08345,13.49406],[75.08784,13.49686],[75.0923,13.49423],[75.09813,13.48874],[75.10209,13.492],[75.10555,13.48439],[75.10836,13.47553],[75.1116,13.47153],[75.11219,13.46232],[75.11719,13.45954],[75.12753,13.46466],[75.13545,13.46342],[75.14023,13.46326]]]}}]}