{"type":"FeatureCollection","features":[{"type":"Feature","properties":{"id":"uttara-kannada","name":"Uttara Kannada","stateId":"karnataka","stateName":"Karnataka","censuscode":563,"type":"district"},"geometry":{"type":"MultiPolygon","coordinates":[[[[74.32141,15.51751],[74.32975,15.51742],[74.3403,15.51881],[74.36223,15.49427],[74.37548,15.482],[74.38624,15.48546],[74.40487,15.47463],[74.41156,15.47556],[74.42061,15.46196],[74.4233,15.41676],[74.42649,15.39706],[74.43158,15.39815],[74.43477,15.40126],[74.43495,15.40384],[74.43932,15.4065],[74.44311,15.40513],[74.44719,15.40622],[74.44955,15.4087],[74.45317,15.40795],[74.45478,15.40239],[74.45773,15.40383],[74.45937,15.41112],[74.46191,15.41319],[74.46759,15.41377],[74.4701,15.41022],[74.47024,15.40303],[74.4739,15.40299],[74.47446,15.39735],[74.47985,15.39587],[74.48646,15.40081],[74.49427,15.40117],[74.49995,15.40463],[74.50545,15.40497],[74.51535,15.40332],[74.53449,15.4192],[74.54432,15.41726],[74.56289,15.40533],[74.56762,15.40343],[74.57636,15.39184],[74.58033,15.39144],[74.58811,15.38094],[74.5919,15.38003],[74.59594,15.37716],[74.59767,15.3725],[74.61434,15.35873],[74.63048,15.36776],[74.63809,15.37392],[74.63649,15.378],[74.63832,15.38184],[74.64187,15.38156],[74.64583,15.38495],[74.64576,15.39023],[74.65167,15.39484],[74.65423,15.39013],[74.6918,15.39912],[74.69917,15.40992],[74.70397,15.40941],[74.70724,15.40643],[74.71256,15.40953],[74.71788,15.41154],[74.72729,15.41132],[74.73399,15.40879],[74.7363,15.40897],[74.74262,15.4115],[74.74908,15.41305],[74.75418,15.40989],[74.76707,15.41622],[74.77141,15.40927],[74.76657,15.40364],[74.76539,15.3991],[74.77019,15.40106],[74.78251,15.39389],[74.78632,15.38498],[74.79048,15.37964],[74.79906,15.37683],[74.82119,15.38384],[74.8292,15.37488],[74.82287,15.37189],[74.82199,15.36678],[74.82581,15.35064],[74.8263,15.3434],[74.83472,15.3334],[74.84152,15.33542],[74.84686,15.33542],[74.84951,15.34007],[74.85513,15.34048],[74.85935,15.32939],[74.86671,15.32123],[74.87743,15.31491],[74.87797,15.31192],[74.87816,15.30693],[74.87615,15.30049],[74.88219,15.29802],[74.88586,15.30066],[74.88976,15.30727],[74.89492,15.3005],[74.8974,15.30118],[74.89877,15.299],[74.90597,15.2751],[74.90903,15.25074],[74.90738,15.24741],[74.88764,15.23304],[74.88634,15.22712],[74.8818,15.22137],[74.87323,15.21304],[74.87395,15.20815],[74.87355,15.20316],[74.87598,15.19844],[74.87705,15.19321],[74.87392,15.19034],[74.86594,15.18551],[74.86311,15.17787],[74.85005,15.16907],[74.84865,15.16131],[74.8438,15.15849],[74.8421,15.15361],[74.83542,15.14803],[74.83619,15.14441],[74.83573,15.14027],[74.83106,15.1382],[74.82876,15.13331],[74.83611,15.12808],[74.83977,15.12895],[74.84303,15.12659],[74.84452,15.12154],[74.85097,15.12303],[74.85345,15.12091],[74.85138,15.11717],[74.85358,15.11321],[74.85619,15.11171],[74.85749,15.10867],[74.85709,15.10619],[74.85863,15.10362],[74.86472,15.1031],[74.86987,15.1015],[74.8769,15.10172],[74.88253,15.09948],[74.88584,15.09902],[74.88951,15.10001],[74.89194,15.09811],[74.89253,15.09644],[74.89005,15.09214],[74.88113,15.08397],[74.88021,15.07237],[74.88649,15.06738],[74.88685,15.06199],[74.89024,15.05551],[74.89031,15.04799],[74.89315,15.04484],[74.90721,15.0494],[74.90953,15.04452],[74.91143,15.03768],[74.9204,15.0421],[74.92748,15.05023],[74.9318,15.05154],[74.93736,15.05043],[74.93984,15.0519],[74.93977,15.06303],[74.94047,15.06623],[74.94533,15.06437],[74.94976,15.06491],[74.95277,15.06666],[74.961,15.0649],[74.96915,15.07026],[74.98045,15.06808],[74.98364,15.0703],[74.98648,15.071],[74.99098,15.07054],[74.99671,15.07239],[75.00016,15.06981],[75.00788,15.0695],[75.01172,15.06841],[75.02018,15.0699],[75.02266,15.06878],[75.03373,15.07371],[75.03436,15.07538],[75.03989,15.07733],[75.05617,15.08079],[75.05715,15.07507],[75.05847,15.07298],[75.06276,15.07154],[75.07149,15.07049],[75.08132,15.0726],[75.08133,15.0726],[75.08096,15.06592],[75.0769,15.05752],[75.07527,15.05137],[75.07553,15.04562],[75.07775,15.03868],[75.07687,15.02877],[75.06958,15.01575],[75.07525,15.00075],[75.07554,15.00074],[75.07557,15.00062],[75.07922,14.97404],[75.0847,14.96829],[75.08659,14.95641],[75.101,14.95506],[75.09908,14.94834],[75.10059,14.9405],[75.10602,14.93225],[75.10414,14.92943],[75.10385,14.92602],[75.08952,14.92557],[75.08564,14.92435],[75.0871,14.9211],[75.08446,14.91936],[75.07925,14.92089],[75.07071,14.91811],[75.07072,14.91425],[75.07362,14.8948],[75.07378,14.87686],[75.07635,14.86889],[75.07437,14.86439],[75.07569,14.85672],[75.07567,14.84976],[75.07128,14.84068],[75.0702,14.83601],[75.07538,14.82446],[75.07955,14.82121],[75.09324,14.81767],[75.09462,14.80884],[75.08236,14.80601],[75.07196,14.80586],[75.06808,14.80697],[75.05805,14.81167],[75.05786,14.80567],[75.05931,14.80145],[75.06862,14.79688],[75.07108,14.79157],[75.07127,14.78503],[75.06863,14.78256],[75.07129,14.77981],[75.0685,14.77781],[75.0644,14.7724],[75.05555,14.77355],[75.05202,14.76989],[75.04245,14.76884],[75.04547,14.75333],[75.04806,14.74666],[75.0479,14.74283],[75.04609,14.74027],[75.04645,14.73783],[75.04097,14.73559],[75.04122,14.731],[75.03979,14.72765],[75.03779,14.72677],[75.03208,14.72648],[75.02537,14.72382],[75.02005,14.71933],[75.01808,14.71536],[75.01769,14.7117],[75.01929,14.70928],[75.0323,14.70676],[75.03462,14.68795],[75.03658,14.67737],[75.032,14.67226],[75.03435,14.66465],[75.03833,14.65684],[75.0421,14.65916],[75.04726,14.65157],[75.05108,14.64976],[75.05125,14.64862],[75.05061,14.64229],[75.04783,14.63888],[75.04268,14.63549],[75.03771,14.6266],[75.03074,14.61642],[75.02699,14.6084],[75.02618,14.59921],[75.02708,14.581],[75.02468,14.57221],[75.02432,14.5641],[75.02658,14.55909],[75.03353,14.55461],[75.043,14.54583],[75.04914,14.54451],[75.05653,14.54651],[75.06249,14.54181],[75.05284,14.53185],[75.04519,14.5282],[75.03921,14.52644],[75.04264,14.5159],[75.04278,14.50082],[75.0249,14.4977],[75.01506,14.49499],[75.00789,14.49135],[75.00821,14.4865],[75.00004,14.48047],[74.99194,14.4758],[74.98751,14.487],[74.99379,14.49538],[74.99316,14.49979],[74.99347,14.50397],[74.98671,14.51119],[74.98006,14.5155],[74.97671,14.52142],[74.97695,14.52362],[74.98325,14.52319],[74.98355,14.52525],[74.98063,14.53548],[74.97903,14.55247],[74.97208,14.55405],[74.96713,14.55002],[74.9576,14.55072],[74.95304,14.53887],[74.94861,14.53396],[74.94385,14.53144],[74.94455,14.5279],[74.9387,14.5209],[74.93095,14.52879],[74.914,14.53047],[74.90583,14.52944],[74.90524,14.51681],[74.90283,14.51086],[74.89778,14.50641],[74.89327,14.49477],[74.89259,14.47939],[74.89505,14.47491],[74.9061,14.47358],[74.91733,14.46979],[74.92061,14.46572],[74.9216,14.46137],[74.91029,14.46011],[74.90194,14.46431],[74.89323,14.46393],[74.88732,14.46055],[74.88183,14.45472],[74.87781,14.44911],[74.88135,14.43693],[74.88599,14.43129],[74.91407,14.43301],[74.92155,14.43273],[74.93466,14.40819],[74.93872,14.40473],[74.94889,14.40293],[74.95151,14.39515],[74.953,14.37974],[74.94598,14.37387],[74.9432,14.3689],[74.94152,14.36183],[74.94682,14.35605],[74.95772,14.35079],[74.9622,14.34476],[74.96838,14.34154],[74.97321,14.33996],[74.97602,14.33519],[74.97357,14.32366],[74.97868,14.32351],[74.97736,14.32075],[74.97181,14.32052],[74.9669,14.3224],[74.95946,14.32385],[74.95455,14.3209],[74.95037,14.32086],[74.94209,14.32323],[74.93502,14.32324],[74.92625,14.32173],[74.91786,14.31303],[74.91524,14.30501],[74.91167,14.29787],[74.91041,14.28917],[74.9149,14.27842],[74.92126,14.27903],[74.92715,14.28209],[74.92944,14.28081],[74.93087,14.26913],[74.93834,14.26689],[74.94062,14.26123],[74.93895,14.25649],[74.93786,14.24947],[74.9358,14.24544],[74.92983,14.23883],[74.92357,14.23402],[74.91874,14.23134],[74.91167,14.231],[74.90509,14.23352],[74.90032,14.23285],[74.89778,14.22869],[74.89646,14.22214],[74.88238,14.21732],[74.87814,14.217],[74.87821,14.22001],[74.88068,14.2208],[74.88034,14.22428],[74.87745,14.22469],[74.87772,14.22953],[74.88086,14.23625],[74.8771,14.24116],[74.87405,14.2435],[74.87057,14.24254],[74.86874,14.22209],[74.86337,14.22056],[74.85995,14.21607],[74.85682,14.21374],[74.84954,14.21831],[74.84139,14.2274],[74.83404,14.23077],[74.82733,14.2297],[74.82169,14.23354],[74.8127,14.23447],[74.80439,14.23221],[74.79321,14.23285],[74.78508,14.23207],[74.78315,14.23807],[74.77569,14.24013],[74.7671,14.23838],[74.76388,14.24425],[74.76188,14.24603],[74.75947,14.24541],[74.74639,14.25843],[74.74022,14.26328],[74.73078,14.26702],[74.72218,14.24497],[74.71707,14.23404],[74.72896,14.17857],[74.74942,14.15828],[74.74857,14.15138],[74.74657,14.15041],[74.74328,14.15253],[74.73171,14.15484],[74.72571,14.15491],[74.7196,14.15942],[74.7118,14.16823],[74.7037,14.17447],[74.69742,14.17624],[74.69081,14.17061],[74.66657,14.18754],[74.65123,14.17291],[74.62662,14.16487],[74.62909,14.14643],[74.64391,14.14412],[74.64677,14.11788],[74.65558,14.11507],[74.64006,14.09748],[74.65278,14.08142],[74.6581,14.06937],[74.6603,14.06167],[74.65757,14.05249],[74.65595,14.04394],[74.66594,14.04044],[74.67752,14.03813],[74.6695,14.01333],[74.66621,14.00059],[74.66697,13.99617],[74.66769,13.98444],[74.65774,13.97625],[74.64691,13.95963],[74.64906,13.95459],[74.65208,13.95035],[74.6514,13.94655],[74.64972,13.94325],[74.64427,13.94073],[74.64033,13.94097],[74.63656,13.94693],[74.63444,13.94834],[74.6319,13.94843],[74.62882,13.94241],[74.62519,13.93881],[74.62168,13.94228],[74.61832,13.94271],[74.60753,13.94138],[74.60209,13.93522],[74.6001,13.94367],[74.59786,13.94411],[74.59434,13.93485],[74.58915,13.93042],[74.58238,13.92593],[74.57954,13.92734],[74.57886,13.9294],[74.5784,13.92963],[74.57794,13.92986],[74.57668,13.93312],[74.57503,13.93963],[74.57253,13.94234],[74.57254,13.9428],[74.57163,13.94463],[74.57122,13.945],[74.57108,13.94509],[74.56684,13.94854],[74.55646,13.95159],[74.5544,13.95156],[74.55177,13.95186],[74.55163,13.95187],[74.54935,13.95278],[74.53763,13.96014],[74.53642,13.96647],[74.53794,13.96759],[74.53864,13.96759],[74.54003,13.96849],[74.54005,13.97098],[74.5403,13.97167],[74.53916,13.97257],[74.53755,13.97305],[74.53318,13.97316],[74.53014,13.97355],[74.53015,13.97402],[74.52293,13.97937],[74.52256,13.98039],[74.52201,13.98123],[74.5211,13.98191],[74.5192,13.98455],[74.51897,13.98544],[74.51851,13.98568],[74.51829,13.98658],[74.51715,13.98771],[74.51692,13.98795],[74.51671,13.98853],[74.5158,13.98945],[74.51241,14],[74.51072,14.0127],[74.50932,14.01361],[74.50922,14.01615],[74.50597,14.02552],[74.50814,14.02791],[74.51043,14.02814],[74.51548,14.02677],[74.52233,14.02488],[74.52259,14.02482],[74.52444,14.02479],[74.52492,14.02525],[74.52526,14.02684],[74.52494,14.02774],[74.52448,14.02797],[74.52365,14.03364],[74.5236,14.03389],[74.522,14.03549],[74.52131,14.03571],[74.51738,14.03416],[74.51642,14.03435],[74.51621,14.0344],[74.51407,14.0352],[74.5132,14.03553],[74.51157,14.03991],[74.5096,14.04778],[74.50512,14.05145],[74.50734,14.04781],[74.50831,14.04296],[74.5101,14.03455],[74.50787,14.03088],[74.50575,14.0338],[74.50516,14.03459],[74.5047,14.03473],[74.50399,14.03517],[74.50105,14.0411],[74.49907,14.04862],[74.49827,14.06335],[74.49706,14.06834],[74.49659,14.06855],[74.49311,14.07746],[74.49293,14.07808],[74.49243,14.08013],[74.49011,14.08302],[74.4897,14.08357],[74.48866,14.08586],[74.48357,14.0992],[74.48338,14.09971],[74.48318,14.10243],[74.48405,14.11987],[74.48363,14.12418],[74.48329,14.12533],[74.48261,14.12577],[74.48115,14.12986],[74.48071,14.13009],[74.478,14.13916],[74.47806,14.1408],[74.47811,14.14213],[74.47767,14.15256],[74.47459,14.16934],[74.46895,14.18274],[74.46721,14.19159],[74.46497,14.1982],[74.46268,14.20116],[74.46177,14.20183],[74.45498,14.20415],[74.4538,14.20573],[74.44932,14.21531],[74.44884,14.21555],[74.44557,14.22396],[74.44426,14.23235],[74.43976,14.24767],[74.43811,14.25346],[74.43743,14.25392],[74.43619,14.25665],[74.4358,14.25775],[74.4355,14.25868],[74.43459,14.25915],[74.43241,14.26213],[74.43269,14.26621],[74.4342,14.26686],[74.43466,14.26686],[74.43785,14.2655],[74.44915,14.25948],[74.44984,14.2588],[74.44982,14.25835],[74.45006,14.25765],[74.45257,14.25558],[74.45348,14.25286],[74.45816,14.25001],[74.45828,14.24873],[74.46104,14.25017],[74.46249,14.25122],[74.46319,14.2537],[74.47017,14.25566],[74.47667,14.25348],[74.47901,14.25255],[74.48968,14.24791],[74.49661,14.24435],[74.49799,14.24342],[74.49869,14.24362],[74.49917,14.24385],[74.50312,14.24301],[74.51593,14.24045],[74.52711,14.23976],[74.51768,14.2452],[74.51216,14.24918],[74.51148,14.25147],[74.51103,14.25182],[74.50922,14.25331],[74.50621,14.25571],[74.50528,14.2565],[74.50493,14.25662],[74.50046,14.2581],[74.49103,14.26362],[74.49039,14.26549],[74.48991,14.26706],[74.48997,14.27295],[74.48833,14.27785],[74.48728,14.27912],[74.48517,14.2814],[74.48475,14.28181],[74.47991,14.2839],[74.479,14.28414],[74.47368,14.28327],[74.4723,14.28374],[74.47075,14.28861],[74.46877,14.29193],[74.46524,14.2879],[74.46074,14.28363],[74.45723,14.28298],[74.457,14.28321],[74.45575,14.28271],[74.44936,14.27987],[74.44521,14.28059],[74.44359,14.28107],[74.43782,14.28471],[74.43783,14.28517],[74.43783,14.28563],[74.43564,14.28758],[74.43488,14.28932],[74.43135,14.29782],[74.42603,14.30496],[74.42708,14.29645],[74.42729,14.29344],[74.42878,14.28937],[74.43233,14.27963],[74.43139,14.27302],[74.42759,14.27851],[74.42599,14.28074],[74.42555,14.28097],[74.42269,14.28943],[74.41847,14.30198],[74.41767,14.30437],[74.41406,14.31187],[74.4105,14.33063],[74.40874,14.34504],[74.40819,14.34952],[74.40459,14.3643],[74.40347,14.36749],[74.40349,14.36951],[74.40434,14.37176],[74.40564,14.37539],[74.40502,14.38172],[74.40322,14.38788],[74.39838,14.40479],[74.3974,14.40829],[74.39745,14.41349],[74.40302,14.41904],[74.3945,14.41941],[74.39213,14.4198],[74.38711,14.42129],[74.38665,14.42242],[74.38665,14.42286],[74.3853,14.42379],[74.38144,14.44281],[74.38047,14.44526],[74.37996,14.44876],[74.37548,14.46419],[74.37073,14.47413],[74.37025,14.47436],[74.37008,14.47473],[74.36754,14.4799],[74.36684,14.48035],[74.36684,14.4808],[74.36637,14.48102],[74.36638,14.48194],[74.36284,14.48547],[74.36241,14.48683],[74.36229,14.48694],[74.36182,14.48718],[74.3592,14.49579],[74.35798,14.49899],[74.35754,14.49922],[74.35707,14.49946],[74.35647,14.50665],[74.35646,14.50943],[74.3567,14.51056],[74.36208,14.51504],[74.36432,14.52069],[74.36607,14.5218],[74.37003,14.52292],[74.37071,14.52268],[74.37277,14.52197],[74.37323,14.52108],[74.37553,14.519],[74.37551,14.51855],[74.37621,14.51695],[74.37714,14.51604],[74.37814,14.5147],[74.37835,14.50982],[74.37835,14.50948],[74.37729,14.50721],[74.37658,14.50631],[74.37554,14.50566],[74.37507,14.50566],[74.3733,14.50248],[74.37313,14.49728],[74.37324,14.49684],[74.37785,14.49386],[74.37785,14.4934],[74.37956,14.4909],[74.37988,14.49],[74.38033,14.48726],[74.37988,14.48679],[74.37766,14.48615],[74.3752,14.48458],[74.37506,14.4821],[74.3754,14.48074],[74.37815,14.47843],[74.37815,14.478],[74.37814,14.47754],[74.38112,14.47434],[74.38046,14.46395],[74.38078,14.46279],[74.38563,14.45936],[74.38579,14.45324],[74.38533,14.4521],[74.38718,14.45096],[74.39016,14.45026],[74.39597,14.45107],[74.39642,14.45111],[74.39862,14.45056],[74.40539,14.44873],[74.40772,14.44829],[74.40819,14.44852],[74.41027,14.45009],[74.411,14.45167],[74.41103,14.45596],[74.4103,14.4593],[74.41025,14.45946],[74.40992,14.46142],[74.40995,14.46528],[74.41189,14.47093],[74.41316,14.47159],[74.42123,14.47255],[74.42207,14.47264],[74.42691,14.4719],[74.43151,14.46781],[74.43242,14.46506],[74.43356,14.46393],[74.4347,14.46302],[74.4351,14.46198],[74.44147,14.45663],[74.43814,14.46368],[74.43775,14.46684],[74.4362,14.47161],[74.43366,14.47392],[74.42651,14.4769],[74.42128,14.47798],[74.41567,14.48129],[74.40762,14.48748],[74.40582,14.49111],[74.40101,14.49591],[74.40061,14.4967],[74.39992,14.4983],[74.39908,14.49943],[74.39808,14.50071],[74.39788,14.50163],[74.39783,14.50183],[74.39532,14.50481],[74.39464,14.50708],[74.3937,14.50799],[74.39324,14.50822],[74.38964,14.51776],[74.38873,14.51867],[74.38827,14.5189],[74.38827,14.51959],[74.38737,14.52165],[74.3869,14.52188],[74.3867,14.52278],[74.38473,14.52438],[74.38451,14.5246],[74.38451,14.52505],[74.37886,14.52964],[74.37776,14.53236],[74.3773,14.53257],[74.37659,14.53303],[74.37648,14.53439],[74.37708,14.53552],[74.37814,14.5371],[74.37814,14.53802],[74.3776,14.54053],[74.37622,14.54144],[74.37481,14.54122],[74.37453,14.54131],[74.37293,14.54156],[74.36906,14.54286],[74.36816,14.54716],[74.36952,14.55709],[74.36941,14.55779],[74.36851,14.55869],[74.36757,14.55916],[74.36342,14.55786],[74.36176,14.55364],[74.36008,14.54767],[74.35713,14.54463],[74.35582,14.54228],[74.35536,14.54104],[74.3523,14.53598],[74.35209,14.52581],[74.35209,14.52533],[74.35172,14.52397],[74.35032,14.52285],[74.34526,14.52128],[74.34525,14.52085],[74.34525,14.52041],[74.34103,14.51658],[74.33614,14.51413],[74.33082,14.51418],[74.32465,14.51777],[74.32093,14.51992],[74.31886,14.5197],[74.31466,14.51792],[74.31081,14.51913],[74.31027,14.51931],[74.30866,14.52024],[74.3081,14.52317],[74.31042,14.52509],[74.31182,14.52577],[74.31196,14.52588],[74.31301,14.52723],[74.31315,14.5304],[74.30855,14.53428],[74.3081,14.53677],[74.30858,14.53792],[74.31233,14.5415],[74.3142,14.54512],[74.31425,14.55122],[74.31209,14.55623],[74.312,14.55644],[74.3113,14.5569],[74.30939,14.55968],[74.30809,14.56077],[74.30777,14.56259],[74.30474,14.57056],[74.30189,14.57355],[74.30146,14.57491],[74.3013,14.57509],[74.30083,14.57532],[74.29947,14.58123],[74.29856,14.5819],[74.29766,14.5826],[74.29766,14.58306],[74.29766,14.58352],[74.29433,14.58739],[74.2946,14.59192],[74.29682,14.59257],[74.30074,14.59165],[74.30145,14.59233],[74.3015,14.59245],[74.30192,14.59368],[74.30249,14.5948],[74.30355,14.59549],[74.3068,14.59567],[74.30914,14.59499],[74.31002,14.59475],[74.31072,14.59497],[74.31421,14.59627],[74.31491,14.59696],[74.3149,14.59708],[74.31491,14.59742],[74.31538,14.59742],[74.31889,14.6008],[74.32542,14.60275],[74.32679,14.60317],[74.327,14.60321],[74.32931,14.60343],[74.34156,14.60084],[74.35125,14.59574],[74.35414,14.59485],[74.35789,14.59375],[74.36627,14.59183],[74.37391,14.59305],[74.38414,14.59232],[74.39048,14.59419],[74.39948,14.60179],[74.4124,14.60745],[74.42075,14.61442],[74.42584,14.62206],[74.42956,14.62458],[74.42478,14.6259],[74.41931,14.62339],[74.41446,14.61703],[74.41029,14.61451],[74.40219,14.61073],[74.39144,14.60378],[74.38271,14.60129],[74.37725,14.60006],[74.36983,14.59948],[74.36371,14.59825],[74.36046,14.59853],[74.35685,14.60026],[74.35421,14.60214],[74.35299,14.60326],[74.35271,14.60346],[74.35131,14.60392],[74.34901,14.60552],[74.34812,14.60824],[74.34765,14.60871],[74.3458,14.60895],[74.34304,14.60782],[74.34303,14.60739],[74.34257,14.60716],[74.34094,14.60695],[74.33977,14.60719],[74.33644,14.60935],[74.33239,14.61109],[74.32962,14.6118],[74.32549,14.61091],[74.32314,14.61003],[74.32084,14.61051],[74.31945,14.61096],[74.319,14.61278],[74.31878,14.61391],[74.31693,14.61574],[74.31356,14.61487],[74.31252,14.6142],[74.31083,14.60448],[74.30822,14.60221],[74.30546,14.60134],[74.30004,14.60249],[74.29666,14.60359],[74.28469,14.60852],[74.28469,14.60899],[74.28469,14.60944],[74.28262,14.61126],[74.28219,14.61331],[74.28105,14.61467],[74.28057,14.61491],[74.27943,14.61853],[74.27876,14.61943],[74.27459,14.62239],[74.27413,14.62239],[74.27413,14.62283],[74.27371,14.62311],[74.27234,14.62425],[74.27177,14.62699],[74.27203,14.62924],[74.27516,14.62967],[74.28023,14.62871],[74.28094,14.62894],[74.28232,14.63052],[74.28283,14.63528],[74.2839,14.63573],[74.28472,14.63639],[74.28506,14.63731],[74.28518,14.63956],[74.28338,14.64363],[74.282,14.65042],[74.28012,14.65624],[74.28012,14.65713],[74.28037,14.65759],[74.28299,14.6587],[74.28558,14.66295],[74.28264,14.66404],[74.27638,14.66432],[74.275,14.66523],[74.27456,14.6693],[74.27947,14.67314],[74.27932,14.67477],[74.2791,14.67682],[74.27592,14.68876],[74.27545,14.689],[74.27405,14.69128],[74.27338,14.69288],[74.27019,14.69654],[74.26869,14.6975],[74.2559,14.7057],[74.25556,14.70726],[74.2558,14.70841],[74.25776,14.70883],[74.25822,14.70859],[74.25985,14.70881],[74.26229,14.71041],[74.26407,14.71265],[74.26547,14.71333],[74.26514,14.71627],[74.26524,14.71717],[74.26254,14.72241],[74.2584,14.72572],[74.2576,14.72595],[74.25714,14.72711],[74.257,14.7272],[74.25656,14.72835],[74.25106,14.73336],[74.25035,14.7336],[74.25035,14.73406],[74.25035,14.7345],[74.24937,14.73548],[74.24693,14.73791],[74.24646,14.73906],[74.24647,14.73952],[74.24177,14.74329],[74.24156,14.74389],[74.23658,14.74728],[74.23425,14.74776],[74.22888,14.74709],[74.22801,14.74691],[74.22486,14.74511],[74.22404,14.74466],[74.22379,14.7433],[74.22453,14.73605],[74.22417,14.73514],[74.22277,14.73448],[74.22139,14.73472],[74.20959,14.73435],[74.20388,14.7328],[74.20366,14.73122],[74.20365,14.73032],[74.20477,14.7276],[74.20525,14.72736],[74.20669,14.72056],[74.20483,14.71945],[74.2002,14.72018],[74.19512,14.72382],[74.19216,14.73018],[74.18569,14.73576],[74.18546,14.73646],[74.18319,14.73862],[74.18287,14.73931],[74.18244,14.74024],[74.18055,14.74372],[74.1797,14.74552],[74.17725,14.74772],[74.17587,14.74866],[74.16688,14.7521],[74.16655,14.75485],[74.16667,14.75551],[74.17133,14.75773],[74.17147,14.75789],[74.17367,14.75981],[74.17517,14.76125],[74.17552,14.76154],[74.17599,14.76433],[74.17716,14.76666],[74.1738,14.76678],[74.1707,14.76724],[74.16339,14.76573],[74.16258,14.76504],[74.16093,14.76144],[74.16043,14.75806],[74.15945,14.7508],[74.15891,14.75019],[74.15721,14.74702],[74.15607,14.74945],[74.15434,14.75015],[74.15256,14.75997],[74.15168,14.76492],[74.15121,14.76513],[74.15105,14.76529],[74.15085,14.76621],[74.1487,14.76818],[74.14847,14.76911],[74.14411,14.77358],[74.14367,14.77448],[74.13655,14.77749],[74.13604,14.7777],[74.13308,14.7781],[74.13212,14.77819],[74.12957,14.77798],[74.12559,14.77415],[74.12419,14.77347],[74.12304,14.77371],[74.12212,14.77394],[74.12074,14.77464],[74.11981,14.7769],[74.11959,14.7785],[74.11996,14.77962],[74.1201,14.78256],[74.11939,14.78323],[74.11708,14.78484],[74.11317,14.78397],[74.10945,14.78445],[74.10784,14.7856],[74.10787,14.78946],[74.10811,14.79059],[74.10742,14.79285],[74.10627,14.79375],[74.10049,14.79425],[74.0954,14.797],[74.0954,14.79746],[74.09496,14.79769],[74.09443,14.802],[74.09523,14.80312],[74.10051,14.80338],[74.10091,14.80342],[74.10289,14.80329],[74.10752,14.80213],[74.11465,14.79891],[74.11883,14.80079],[74.12002,14.80202],[74.12049,14.80202],[74.12318,14.80587],[74.12458,14.81274],[74.12546,14.81787],[74.12512,14.83346],[74.12595,14.83415],[74.1263,14.83438],[74.12793,14.83459],[74.13578,14.83272],[74.137,14.83297],[74.14601,14.8347],[74.15035,14.83771],[74.15089,14.83807],[74.15557,14.83983],[74.15904,14.83849],[74.16198,14.83813],[74.16157,14.83569],[74.16164,14.8339],[74.16105,14.83277],[74.15802,14.8312],[74.15777,14.83054],[74.15615,14.82186],[74.15602,14.8168],[74.15675,14.81283],[74.16077,14.81545],[74.16513,14.8187],[74.16572,14.81944],[74.16774,14.82184],[74.16992,14.82449],[74.17017,14.82509],[74.17062,14.82614],[74.171,14.82862],[74.17093,14.82911],[74.17061,14.83266],[74.17062,14.84064],[74.17083,14.8407],[74.17188,14.84137],[74.17667,14.84239],[74.17759,14.84308],[74.17887,14.84511],[74.17866,14.84783],[74.17741,14.84948],[74.17617,14.85328],[74.17618,14.8551],[74.1784,14.8562],[74.17909,14.85597],[74.18085,14.85628],[74.18149,14.85664],[74.18225,14.85676],[74.18704,14.86123],[74.18889,14.86246],[74.19168,14.86357],[74.20468,14.86689],[74.21581,14.86838],[74.21696,14.86791],[74.22073,14.86496],[74.22072,14.8645],[74.22344,14.86263],[74.22344,14.86218],[74.22366,14.86199],[74.22664,14.86038],[74.23099,14.8597],[74.23128,14.85965],[74.23315,14.8601],[74.23851,14.86246],[74.24329,14.86571],[74.24806,14.86929],[74.25015,14.8713],[74.25017,14.87468],[74.24902,14.87538],[74.2488,14.87605],[74.23416,14.87164],[74.22368,14.87217],[74.22105,14.87232],[74.2141,14.8737],[74.20869,14.87579],[74.20746,14.87947],[74.20917,14.88396],[74.21171,14.8868],[74.21006,14.88885],[74.20586,14.88725],[74.20291,14.88523],[74.20041,14.88464],[74.19301,14.88291],[74.19143,14.87974],[74.1911,14.87968],[74.18919,14.87918],[74.185,14.88038],[74.18146,14.8814],[74.17908,14.8811],[74.17733,14.88021],[74.17626,14.87887],[74.17644,14.87207],[74.17482,14.87027],[74.17318,14.86936],[74.17157,14.87006],[74.17111,14.87166],[74.17041,14.87188],[74.17018,14.87281],[74.16903,14.87349],[74.16672,14.87304],[74.16567,14.87169],[74.1641,14.86616],[74.16271,14.86288],[74.16223,14.86244],[74.16029,14.86111],[74.15407,14.85774],[74.14643,14.85779],[74.1425,14.85713],[74.1415,14.85059],[74.13798,14.84607],[74.13754,14.84585],[74.12898,14.84816],[74.12422,14.84732],[74.12362,14.84687],[74.12357,14.84075],[74.12103,14.83842],[74.11432,14.84307],[74.11432,14.84353],[74.11432,14.84399],[74.1125,14.8458],[74.1072,14.86555],[74.10618,14.86804],[74.10571,14.86828],[74.10524,14.86851],[74.10298,14.87393],[74.09653,14.8801],[74.09609,14.8844],[74.09799,14.8869],[74.0978,14.89233],[74.09686,14.89326],[74.08833,14.8958],[74.08802,14.89598],[74.0963,14.90407],[74.09718,14.90634],[74.10611,14.91375],[74.11039,14.91222],[74.11583,14.91524],[74.11963,14.91581],[74.12518,14.91524],[74.12656,14.91855],[74.12935,14.92226],[74.13257,14.92305],[74.13891,14.92003],[74.14243,14.92112],[74.14714,14.91987],[74.15667,14.91587],[74.16315,14.91188],[74.16875,14.91154],[74.17072,14.91581],[74.16719,14.92054],[74.15926,14.93936],[74.15939,14.94204],[74.16295,14.94477],[74.1632,14.9499],[74.16547,14.9536],[74.17372,14.95565],[74.17995,14.95598],[74.18368,14.95432],[74.1859,14.9476],[74.19086,14.94588],[74.19765,14.94047],[74.19755,14.93471],[74.19658,14.93004],[74.20536,14.92405],[74.21283,14.934],[74.21829,14.94396],[74.23534,14.94909],[74.23754,14.9601],[74.24472,14.96343],[74.25034,14.96104],[74.25583,14.96018],[74.25812,14.96587],[74.26039,14.96944],[74.26392,14.96927],[74.26474,14.97415],[74.26773,14.97784],[74.26475,14.98305],[74.25545,14.99337],[74.26442,14.99749],[74.26538,15.00035],[74.26505,15.00035],[74.26481,15.00141],[74.2667,15.00407],[74.26562,15.00509],[74.27021,15.01224],[74.27569,15.01816],[74.28365,15.02421],[74.28291,15.03272],[74.28698,15.03634],[74.29624,15.04246],[74.29511,15.04666],[74.28886,15.05687],[74.28912,15.06527],[74.28285,15.06842],[74.28105,15.07192],[74.2776,15.09656],[74.27209,15.09845],[74.27485,15.10438],[74.27952,15.10628],[74.28205,15.10813],[74.28444,15.11917],[74.28691,15.12251],[74.28524,15.12584],[74.2835,15.1325],[74.28502,15.13791],[74.28334,15.14566],[74.2864,15.15021],[74.29167,15.14884],[74.29527,15.15241],[74.30475,15.16455],[74.31204,15.17784],[74.31585,15.18659],[74.31086,15.19359],[74.30966,15.19882],[74.30946,15.20571],[74.30832,15.20812],[74.30548,15.20955],[74.30453,15.21145],[74.30392,15.21592],[74.30053,15.22149],[74.30051,15.22569],[74.29594,15.23062],[74.28805,15.23446],[74.27236,15.23966],[74.26441,15.24096],[74.25713,15.24434],[74.25535,15.24617],[74.25284,15.25244],[74.25109,15.26008],[74.26157,15.26084],[74.26386,15.26338],[74.26639,15.27022],[74.27027,15.27689],[74.27664,15.28374],[74.28285,15.28151],[74.28929,15.28554],[74.2938,15.28475],[74.29609,15.28831],[74.30362,15.28568],[74.31226,15.28438],[74.32806,15.28532],[74.3356,15.29539],[74.33441,15.29924],[74.32186,15.31571],[74.31719,15.33202],[74.32229,15.34581],[74.31979,15.34966],[74.31644,15.35966],[74.31749,15.36442],[74.32245,15.36788],[74.32221,15.36966],[74.30661,15.37728],[74.29943,15.38289],[74.28361,15.3836],[74.27989,15.38498],[74.27625,15.391],[74.27816,15.40388],[74.27505,15.4114],[74.27094,15.41724],[74.26919,15.42626],[74.27627,15.43564],[74.27359,15.43828],[74.27655,15.43983],[74.27612,15.44546],[74.27348,15.4531],[74.26609,15.46756],[74.24978,15.49182],[74.24978,15.49183],[74.2507,15.49906],[74.25429,15.50314],[74.26162,15.50822],[74.27545,15.51525],[74.27732,15.52174],[74.28519,15.52509],[74.32141,15.51751]]],[[[74.47031,14.27596],[74.47381,14.27535],[74.47821,14.27621],[74.47891,14.27597],[74.47894,14.27584],[74.48075,14.27423],[74.48202,14.26531],[74.47992,14.26464],[74.47971,14.26442],[74.47372,14.26584],[74.46941,14.26757],[74.46118,14.27086],[74.45851,14.27208],[74.45863,14.27254],[74.4583,14.27505],[74.46076,14.27593],[74.46572,14.27678],[74.47031,14.27596]]],[[[74.39905,14.46128],[74.39766,14.46106],[74.39236,14.46292],[74.39073,14.46892],[74.38992,14.4745],[74.39052,14.47608],[74.3918,14.47699],[74.39551,14.47716],[74.39574,14.47717],[74.3976,14.47625],[74.40102,14.47304],[74.40101,14.47235],[74.40193,14.47165],[74.40261,14.46944],[74.40269,14.46532],[74.40232,14.46328],[74.39973,14.4615],[74.39905,14.46128]]],[[[74.19521,14.87109],[74.19184,14.87017],[74.18943,14.87019],[74.18657,14.87256],[74.18804,14.87537],[74.19382,14.87673],[74.19814,14.8767],[74.19811,14.87294],[74.19521,14.87109]]],[[[74.10038,14.83843],[74.09944,14.83775],[74.09737,14.83799],[74.09519,14.83904],[74.0916,14.84074],[74.09126,14.843],[74.09139,14.84367],[74.09162,14.84436],[74.09267,14.84524],[74.09534,14.84592],[74.09651,14.84564],[74.09811,14.8452],[74.10019,14.84339],[74.10052,14.84045],[74.10038,14.83843]]],[[[74.40162,14.31124],[74.39913,14.31026],[74.39709,14.31108],[74.39526,14.3123],[74.39403,14.31291],[74.39446,14.31473],[74.39531,14.31774],[74.39757,14.31852],[74.40045,14.31809],[74.40268,14.31566],[74.40245,14.31304],[74.40162,14.31124]]],[[[74.08748,14.78966],[74.08452,14.78752],[74.08159,14.78826],[74.07978,14.79043],[74.08053,14.79257],[74.08128,14.79437],[74.08276,14.79615],[74.08642,14.79505],[74.08787,14.79145],[74.08748,14.78966]]],[[[74.0583,14.81571],[74.05681,14.81212],[74.05351,14.81215],[74.05096,14.81504],[74.05171,14.81826],[74.05541,14.82003],[74.05722,14.81787],[74.0583,14.81571]]],[[[74.09405,14.83161],[74.09256,14.82804],[74.08926,14.82806],[74.08671,14.83095],[74.08746,14.83417],[74.09115,14.83595],[74.09296,14.83378],[74.09405,14.83161]]],[[[74.09694,14.87216],[74.09545,14.86858],[74.09214,14.8686],[74.08959,14.87149],[74.09035,14.87472],[74.09404,14.87649],[74.09586,14.87432],[74.09694,14.87216]]],[[[74.48482,14.01089],[74.48367,14.01023],[74.48343,14.01046],[74.4812,14.01006],[74.47993,14.01049],[74.47674,14.01142],[74.47674,14.01188],[74.47608,14.01483],[74.48078,14.01525],[74.48325,14.01546],[74.48346,14.01522],[74.48528,14.01316],[74.48507,14.01247],[74.48482,14.01089]]],[[[74.47429,14.0849],[74.47204,14.08382],[74.47064,14.08384],[74.46897,14.08522],[74.46816,14.08797],[74.46902,14.09017],[74.47183,14.09097],[74.47489,14.08902],[74.47486,14.08627],[74.47429,14.0849]]],[[[74.48963,14.02379],[74.48795,14.02243],[74.48626,14.02245],[74.48487,14.02356],[74.4846,14.02492],[74.48323,14.02715],[74.48409,14.02905],[74.48635,14.03041],[74.48774,14.02985],[74.4894,14.02791],[74.48966,14.02626],[74.48963,14.02379]]],[[[74.33223,14.01516],[74.33107,14.01427],[74.32854,14.01476],[74.3277,14.01513],[74.32509,14.01684],[74.32498,14.0179],[74.32612,14.02235],[74.32943,14.01988],[74.3296,14.01974],[74.33157,14.01766],[74.33223,14.01516]]]]}}]}