{"type":"FeatureCollection","features":[{"type":"Feature","properties":{"id":"ambala","name":"Ambala","stateId":"haryana","stateName":"Haryana","censuscode":70,"type":"district"},"geometry":{"type":"MultiPolygon","coordinates":[[[[77.09286,30.55578],[77.09757,30.55057],[77.10943,30.55317],[77.11393,30.55695],[77.12478,30.56349],[77.12515,30.56333],[77.12462,30.56297],[77.12683,30.55811],[77.12962,30.5531],[77.13545,30.54387],[77.14418,30.53714],[77.15068,30.53421],[77.15865,30.53342],[77.16515,30.53251],[77.1768,30.52971],[77.18265,30.52846],[77.18765,30.5261],[77.19846,30.52144],[77.20394,30.51488],[77.20898,30.50732],[77.21276,30.50213],[77.21268,30.49603],[77.20949,30.49526],[77.2023,30.49375],[77.19637,30.49017],[77.18901,30.47928],[77.18631,30.47472],[77.18162,30.46943],[77.17581,30.46065],[77.17436,30.45403],[77.17207,30.44913],[77.16983,30.4418],[77.17153,30.43766],[77.17245,30.43247],[77.17293,30.429],[77.17308,30.42276],[77.16914,30.41991],[77.16558,30.41776],[77.16565,30.41464],[77.16686,30.41431],[77.17535,30.41099],[77.17907,30.40619],[77.17961,30.4003],[77.17281,30.38247],[77.16931,30.37789],[77.1694,30.37408],[77.16948,30.3706],[77.16959,30.36574],[77.16887,30.36226],[77.16287,30.36181],[77.15529,30.36098],[77.15333,30.35886],[77.15342,30.35504],[77.15706,30.35337],[77.16021,30.35586],[77.16344,30.35452],[77.16552,30.35143],[77.16748,30.3532],[77.16906,30.35427],[77.17146,30.35432],[77.17515,30.35056],[77.1733,30.34393],[77.18026,30.33745],[77.18316,30.33299],[77.18846,30.32891],[77.18862,30.32873],[77.18821,30.32873],[77.18316,30.32353],[77.18647,30.31736],[77.18984,30.31285],[77.18462,30.30608],[77.17854,30.3047],[77.17094,30.30511],[77.17006,30.29723],[77.16236,30.29307],[77.15552,30.28792],[77.14758,30.28504],[77.1404,30.28116],[77.13584,30.26901],[77.13916,30.26212],[77.13651,30.25393],[77.13335,30.2493],[77.13666,30.24277],[77.14156,30.24066],[77.14687,30.24314],[77.14887,30.24352],[77.15157,30.24404],[77.15538,30.24386],[77.15974,30.24235],[77.16496,30.23559],[77.16429,30.22798],[77.16011,30.22144],[77.15702,30.2183],[77.14693,30.21359],[77.14173,30.22291],[77.13841,30.2259],[77.12938,30.22975],[77.12664,30.22957],[77.11581,30.22887],[77.11226,30.22537],[77.10464,30.22473],[77.09372,30.22335],[77.09301,30.22024],[77.09238,30.21747],[77.08495,30.21532],[77.07747,30.21089],[77.07396,30.20378],[77.07527,30.19731],[77.08133,30.19398],[77.08858,30.19153],[77.09387,30.19033],[77.10047,30.18733],[77.10849,30.18208],[77.11117,30.17563],[77.11117,30.17562],[77.11114,30.17565],[77.10453,30.16717],[77.10138,30.16271],[77.09888,30.15819],[77.09761,30.15402],[77.09441,30.15366],[77.09077,30.15847],[77.08786,30.16159],[77.08294,30.16366],[77.07816,30.16604],[77.07417,30.16559],[77.07133,30.16236],[77.07419,30.15749],[77.07497,30.15053],[77.06873,30.1411],[77.06965,30.13361],[77.06794,30.12711],[77.06512,30.1224],[77.05759,30.12247],[77.05161,30.12483],[77.04649,30.12766],[77.04162,30.13103],[77.03678,30.13702],[77.03177,30.14247],[77.02636,30.14748],[77.01998,30.15174],[77.00994,30.15765],[77.00461,30.16159],[77.00088,30.16374],[77.00002,30.16445],[76.98173,30.16714],[76.97756,30.16245],[76.96819,30.1602],[76.96655,30.15635],[76.96141,30.15392],[76.95577,30.15666],[76.94958,30.16013],[76.94381,30.16656],[76.94331,30.17659],[76.94587,30.17992],[76.95686,30.18352],[76.96024,30.19174],[76.9373,30.19712],[76.92589,30.19914],[76.91727,30.19916],[76.90803,30.19445],[76.90271,30.18864],[76.89614,30.19249],[76.89197,30.19693],[76.88525,30.20199],[76.88735,30.20965],[76.88339,30.21417],[76.87753,30.21715],[76.86391,30.22776],[76.86237,30.23299],[76.8657,30.2438],[76.86202,30.24601],[76.85429,30.24803],[76.83171,30.24882],[76.82357,30.2419],[76.82204,30.23659],[76.82177,30.22691],[76.81344,30.21582],[76.80764,30.21197],[76.79633,30.2094],[76.78566,30.20804],[76.7807,30.20299],[76.77451,30.19821],[76.76848,30.19697],[76.76123,30.19277],[76.74952,30.19441],[76.73153,30.19169],[76.7008,30.18837],[76.68586,30.18462],[76.67699,30.16897],[76.66407,30.1615],[76.65794,30.15451],[76.64633,30.14849],[76.63968,30.15106],[76.63482,30.16626],[76.65137,30.18116],[76.65384,30.18521],[76.65411,30.18964],[76.6493,30.19292],[76.65107,30.20191],[76.64496,30.20599],[76.62889,30.20706],[76.62155,30.20878],[76.6164,30.21119],[76.61842,30.21603],[76.62403,30.22164],[76.62417,30.227],[76.6215,30.23092],[76.61162,30.23638],[76.6081,30.23999],[76.60252,30.25018],[76.5962,30.2526],[76.58807,30.25195],[76.58123,30.24743],[76.5598,30.23055],[76.55648,30.22697],[76.54463,30.22325],[76.54503,30.22821],[76.55434,30.2325],[76.55812,30.23966],[76.5591,30.24565],[76.558,30.25476],[76.55983,30.26105],[76.57012,30.26038],[76.59316,30.26596],[76.61673,30.26832],[76.62207,30.26666],[76.62663,30.27133],[76.63199,30.28391],[76.63512,30.28743],[76.63858,30.27998],[76.66361,30.29536],[76.67477,30.29556],[76.68544,30.30877],[76.68326,30.31519],[76.68703,30.32196],[76.69188,30.31738],[76.70087,30.32198],[76.71008,30.32084],[76.71268,30.32583],[76.71718,30.32767],[76.72339,30.32584],[76.72761,30.32888],[76.72759,30.33587],[76.73639,30.34033],[76.74147,30.34439],[76.74712,30.34989],[76.75102,30.35561],[76.74754,30.36089],[76.7429,30.36341],[76.72385,30.36113],[76.72143,30.36417],[76.7306,30.3731],[76.72825,30.37626],[76.7174,30.37684],[76.7142,30.38085],[76.71267,30.38963],[76.72544,30.39426],[76.73912,30.40101],[76.73777,30.41643],[76.75048,30.42088],[76.7615,30.42263],[76.76702,30.4288],[76.7699,30.43381],[76.77052,30.43487],[76.77599,30.43572],[76.77941,30.43198],[76.77696,30.42098],[76.78344,30.41426],[76.7933,30.41097],[76.80993,30.41104],[76.82111,30.40777],[76.83581,30.41845],[76.84061,30.42623],[76.84515,30.42977],[76.85241,30.41662],[76.85995,30.41077],[76.87742,30.40462],[76.88023,30.39735],[76.87889,30.39066],[76.88707,30.38709],[76.89288,30.38203],[76.89308,30.3788],[76.88833,30.36534],[76.88904,30.35914],[76.89283,30.35549],[76.89983,30.35416],[76.90488,30.35545],[76.91038,30.35837],[76.91612,30.36327],[76.92967,30.37852],[76.93347,30.38053],[76.93999,30.38439],[76.94297,30.38834],[76.94412,30.39282],[76.94177,30.39565],[76.93851,30.39735],[76.93218,30.3988],[76.92196,30.39905],[76.91789,30.40048],[76.91655,30.4025],[76.91663,30.40574],[76.91796,30.40899],[76.91643,30.41403],[76.91645,30.42068],[76.91443,30.42414],[76.90268,30.43252],[76.9016,30.43694],[76.90349,30.4469],[76.90798,30.45141],[76.91085,30.46362],[76.90947,30.47123],[76.90268,30.47518],[76.90175,30.48046],[76.90671,30.48551],[76.91399,30.48471],[76.92068,30.48664],[76.92523,30.48951],[76.92879,30.49527],[76.93018,30.49981],[76.9357,30.49708],[76.93951,30.49133],[76.94026,30.48579],[76.94097,30.4821],[76.94162,30.48026],[76.94603,30.47505],[76.95463,30.47309],[76.96373,30.47564],[76.96794,30.47837],[76.97365,30.48218],[76.97809,30.48782],[76.98347,30.49268],[76.98706,30.49592],[76.99081,30.50498],[76.99286,30.50846],[76.99524,30.51089],[76.99856,30.51254],[77.00284,30.51261],[77.00736,30.51534],[77.00854,30.51695],[77.01548,30.52052],[77.02731,30.52391],[77.03247,30.52559],[77.03674,30.52593],[77.04217,30.52868],[77.04455,30.53137],[77.04534,30.53667],[77.04582,30.54197],[77.04636,30.54516],[77.04876,30.54705],[77.05271,30.54792],[77.05933,30.552],[77.06235,30.55365],[77.06555,30.56032],[77.06576,30.56429],[77.06749,30.56882],[77.06989,30.57071],[77.07008,30.57548],[77.07958,30.57432],[77.08178,30.57198],[77.08455,30.57124],[77.08829,30.56813],[77.0897,30.56022],[77.09286,30.55578]]],[[[76.61295,30.07615],[76.61068,30.07563],[76.6083,30.0754],[76.60595,30.07548],[76.60357,30.07568],[76.60142,30.07524],[76.59952,30.07409],[76.59771,30.07268],[76.59588,30.07138],[76.59383,30.07061],[76.59104,30.07054],[76.58864,30.07105],[76.58824,30.07206],[76.58974,30.07367],[76.59165,30.07548],[76.59294,30.07723],[76.59384,30.07909],[76.59384,30.08116],[76.59269,30.08281],[76.5907,30.0838],[76.58854,30.08473],[76.58667,30.08593],[76.5849,30.08721],[76.58315,30.08853],[76.58138,30.08985],[76.57957,30.0911],[76.57765,30.09224],[76.57554,30.0931],[76.57333,30.09363],[76.57106,30.09404],[76.56675,30.09476],[76.59216,30.11489],[76.60121,30.11942],[76.6076,30.12489],[76.6195,30.13682],[76.62734,30.14167],[76.63532,30.14535],[76.63512,30.14061],[76.64142,30.13069],[76.64072,30.12612],[76.63721,30.11696],[76.63672,30.11281],[76.63859,30.10988],[76.63952,30.1064],[76.63863,30.10157],[76.6371,30.09776],[76.63141,30.09127],[76.62963,30.08997],[76.62783,30.0887],[76.62603,30.08742],[76.62427,30.08613],[76.62254,30.08478],[76.62088,30.08338],[76.61934,30.08182],[76.61788,30.08022],[76.61638,30.07866],[76.61477,30.07725],[76.61295,30.07615]]]]}}]}