{"type":"FeatureCollection","features":[{"type":"Feature","properties":{"id":"bhiwani","name":"Bhiwani","stateId":"haryana","stateName":"Haryana","censuscode":81,"type":"district"},"geometry":{"type":"Polygon","coordinates":[[[76.04407,29.05018],[76.0564,29.02352],[76.0664,29.02829],[76.07912,29.03435],[76.08528,29.03485],[76.0889,29.03514],[76.10018,29.03226],[76.12467,29.02601],[76.13066,29.01781],[76.16148,29.00645],[76.16701,29.0064],[76.15544,29.02941],[76.15467,29.04086],[76.15578,29.0519],[76.15579,29.05198],[76.16441,29.05315],[76.16722,29.05354],[76.17131,29.05174],[76.17264,29.05116],[76.18668,29.04501],[76.18885,29.02902],[76.18509,29.01196],[76.1928,28.99527],[76.20417,28.98867],[76.21995,28.98088],[76.21257,28.96499],[76.21163,28.96298],[76.21344,28.95837],[76.21548,28.95317],[76.22983,28.93718],[76.23278,28.90533],[76.23707,28.90131],[76.25646,28.9013],[76.27673,28.89948],[76.28633,28.89576],[76.29037,28.87522],[76.29185,28.8759],[76.3002,28.90456],[76.32865,28.89428],[76.35862,28.87307],[76.35988,28.86572],[76.35183,28.85447],[76.3458,28.84604],[76.34295,28.83583],[76.33695,28.82647],[76.33188,28.82082],[76.33223,28.80884],[76.33258,28.80552],[76.35009,28.79752],[76.38752,28.7731],[76.39083,28.77094],[76.40578,28.75147],[76.40076,28.73317],[76.39366,28.72901],[76.38775,28.72298],[76.3868,28.71874],[76.38053,28.70909],[76.3808,28.70361],[76.38396,28.69936],[76.39795,28.6878],[76.39795,28.6878],[76.39829,28.68752],[76.40588,28.68125],[76.40588,28.68125],[76.40701,28.68222],[76.40717,28.68213],[76.40738,28.68039],[76.40913,28.66625],[76.41002,28.65907],[76.4183,28.65798],[76.4524,28.65387],[76.45268,28.65339],[76.4558,28.64789],[76.45493,28.64293],[76.45309,28.63239],[76.45204,28.62643],[76.45368,28.62013],[76.46231,28.60921],[76.4663,28.60417],[76.46467,28.59936],[76.45504,28.59419],[76.44748,28.59311],[76.43772,28.59271],[76.42617,28.54593],[76.41054,28.54741],[76.40916,28.55351],[76.40778,28.55965],[76.40124,28.58859],[76.39241,28.59197],[76.37566,28.59845],[76.37517,28.59864],[76.36028,28.60326],[76.35754,28.60411],[76.34999,28.60294],[76.34367,28.60196],[76.34346,28.58228],[76.34337,28.57332],[76.34333,28.57125],[76.34296,28.54817],[76.33695,28.53577],[76.33679,28.52746],[76.33527,28.51834],[76.33027,28.50138],[76.32679,28.49508],[76.32275,28.49359],[76.3207,28.49377],[76.31962,28.49421],[76.31788,28.49682],[76.31331,28.49899],[76.30505,28.49899],[76.29897,28.49899],[76.2931,28.4979],[76.29027,28.49486],[76.28779,28.4899],[76.28741,28.48976],[76.2844,28.48269],[76.2844,28.4803],[76.28527,28.47834],[76.28766,28.47508],[76.2894,28.47312],[76.29353,28.4703],[76.29375,28.46791],[76.29245,28.46508],[76.29201,28.46008],[76.29158,28.45421],[76.29158,28.449],[76.29159,28.4485],[76.27745,28.44813],[76.27506,28.44813],[76.27375,28.44595],[76.27114,28.44139],[76.26854,28.43813],[76.25919,28.43617],[76.25528,28.43725],[76.25001,28.43941],[76.24736,28.44295],[76.2453,28.45522],[76.24316,28.46071],[76.23113,28.46746],[76.22039,28.46718],[76.21631,28.4598],[76.21441,28.45333],[76.21411,28.45335],[76.21028,28.444],[76.20137,28.444],[76.20115,28.44182],[76.19649,28.44162],[76.19645,28.44158],[76.19561,28.44175],[76.18711,28.44347],[76.18548,28.4438],[76.18183,28.44191],[76.17301,28.43736],[76.17202,28.44127],[76.16346,28.45153],[76.16366,28.4625],[76.15511,28.46254],[76.14536,28.44913],[76.12734,28.44892],[76.11706,28.45081],[76.11318,28.44469],[76.10804,28.42889],[76.09811,28.42544],[76.0926,28.414],[76.08631,28.40873],[76.07882,28.39427],[76.0677,28.39665],[76.05642,28.39598],[76.02799,28.39014],[76.02149,28.39462],[76.02345,28.4037],[76.01421,28.41212],[76.01675,28.43222],[75.99989,28.44014],[75.97238,28.43832],[75.9061,28.42952],[75.90199,28.42696],[75.89997,28.41738],[75.90155,28.40709],[75.90419,28.3995],[75.89757,28.38959],[75.89752,28.38957],[75.89188,28.38792],[75.89149,28.38264],[75.88045,28.3868],[75.84951,28.39327],[75.84337,28.39371],[75.83654,28.40508],[75.82642,28.40192],[75.825,28.40753],[75.81089,28.41028],[75.80232,28.40595],[75.79583,28.40051],[75.79081,28.40332],[75.77857,28.40373],[75.77371,28.41689],[75.78512,28.42657],[75.79343,28.4353],[75.79348,28.44684],[75.78656,28.45372],[75.75546,28.46554],[75.74331,28.46882],[75.74488,28.48339],[75.73228,28.4875],[75.709,28.49158],[75.69839,28.49536],[75.67943,28.51323],[75.67225,28.51717],[75.67382,28.5296],[75.67166,28.53243],[75.66191,28.53691],[75.65185,28.53926],[75.64498,28.54388],[75.63741,28.54236],[75.63359,28.5549],[75.62743,28.58515],[75.62843,28.59564],[75.62645,28.59863],[75.61773,28.60232],[75.59332,28.60285],[75.5854,28.61317],[75.56408,28.61112],[75.55739,28.63967],[75.54797,28.64544],[75.54912,28.65185],[75.54635,28.65787],[75.54824,28.6726],[75.54508,28.67876],[75.54394,28.68499],[75.54,28.71391],[75.53947,28.72946],[75.53458,28.73956],[75.53748,28.74693],[75.53052,28.75281],[75.52467,28.76891],[75.51362,28.77949],[75.50712,28.78437],[75.51253,28.79345],[75.51175,28.806],[75.51744,28.81201],[75.52205,28.83331],[75.51919,28.84014],[75.51138,28.84272],[75.50785,28.84711],[75.50643,28.85294],[75.4967,28.85642],[75.4972,28.89511],[75.4934,28.89847],[75.47588,28.9231],[75.47771,28.93484],[75.50643,28.93829],[75.51243,28.94862],[75.51184,28.95829],[75.51784,28.96254],[75.52546,28.97219],[75.52493,28.97896],[75.53081,28.97744],[75.54982,28.9745],[75.56144,28.9727],[75.58188,28.9776],[75.5934,28.98037],[75.60735,28.98112],[75.62434,28.97723],[75.62526,28.97702],[75.62666,28.9751],[75.63767,28.9637],[75.635,28.95592],[75.64868,28.93867],[75.65425,28.94],[75.68037,28.91293],[75.7057,28.9057],[75.74816,28.90558],[75.76258,28.89935],[75.7684,28.90093],[75.77527,28.91304],[75.7768,28.91901],[75.78649,28.9248],[75.79654,28.927],[75.8159,28.91625],[75.83183,28.91298],[75.85181,28.9275],[75.85664,28.95314],[75.85833,28.96185],[75.871,28.96535],[75.88339,28.97604],[75.88412,28.98051],[75.88412,28.98051],[75.89309,28.97687],[75.89466,28.98501],[75.89719,28.99806],[75.90359,29.0145],[75.9043,29.01633],[75.90469,29.01733],[75.90962,29.01968],[75.92277,29.02595],[75.93536,29.01844],[75.93954,29.01594],[75.95916,29.00422],[75.96856,28.99755],[75.97475,28.99315],[75.97579,28.99582],[75.97937,29.00501],[75.97292,29.02062],[75.96391,29.03131],[75.96351,29.04028],[75.96989,29.05123],[75.97518,29.06029],[75.98693,29.07773],[75.99794,29.06966],[75.9991,29.0691],[76.00128,29.06804],[76.01887,29.05949],[76.01887,29.05949],[76.0212,29.05887],[76.03852,29.05426],[76.04407,29.05018]]]}}]}