{"type":"FeatureCollection","features":[{"type":"Feature","properties":{"id":"faridabad","name":"Faridabad","stateId":"haryana","stateName":"Haryana","censuscode":88,"type":"district"},"geometry":{"type":"Polygon","coordinates":[[[77.34765,28.50346],[77.3531,28.49809],[77.37039,28.49233],[77.37388,28.48737],[77.37402,28.48012],[77.37926,28.47515],[77.38309,28.47254],[77.38591,28.47062],[77.39807,28.46727],[77.4078,28.46561],[77.40993,28.46114],[77.40474,28.45723],[77.40769,28.45307],[77.41818,28.45003],[77.42805,28.45022],[77.4281,28.45021],[77.4357,28.44896],[77.43819,28.43847],[77.44587,28.42602],[77.45388,28.42337],[77.46135,28.41926],[77.46597,28.41538],[77.47859,28.41192],[77.48443,28.40789],[77.48373,28.39818],[77.47668,28.39406],[77.4794,28.38868],[77.49573,28.37406],[77.50187,28.36388],[77.50404,28.35263],[77.49497,28.34458],[77.47619,28.33558],[77.4735,28.33238],[77.47567,28.32832],[77.48332,28.32225],[77.49161,28.31798],[77.50553,28.30139],[77.5039,28.29461],[77.50449,28.28697],[77.50243,28.27498],[77.49777,28.27347],[77.48192,28.27557],[77.47449,28.2718],[77.47695,28.26408],[77.49675,28.2561],[77.51173,28.25218],[77.52029,28.24923],[77.52127,28.24889],[77.52193,28.24866],[77.53471,28.24775],[77.54848,28.24873],[77.55089,28.24205],[77.54529,28.23484],[77.52522,28.22409],[77.52667,28.21572],[77.53122,28.21171],[77.53291,28.20149],[77.52873,28.19611],[77.52242,28.19601],[77.52017,28.20066],[77.50719,28.20735],[77.49872,28.20633],[77.50019,28.1874],[77.50168,28.17943],[77.51109,28.18152],[77.51525,28.1898],[77.53041,28.18606],[77.53978,28.18727],[77.54755,28.1852],[77.55198,28.17597],[77.54134,28.16457],[77.52125,28.15924],[77.51946,28.16736],[77.51541,28.17132],[77.4852,28.17588],[77.4779,28.17174],[77.46113,28.15838],[77.45596,28.16132],[77.45645,28.16485],[77.45123,28.1703],[77.44115,28.16309],[77.42749,28.16438],[77.41319,28.16919],[77.41045,28.16411],[77.40121,28.17151],[77.40284,28.17506],[77.39169,28.19199],[77.39555,28.19759],[77.40463,28.19825],[77.41366,28.20141],[77.41356,28.20594],[77.40833,28.2114],[77.40094,28.21178],[77.37856,28.22198],[77.36186,28.2056],[77.34695,28.21189],[77.3228,28.22458],[77.32434,28.23266],[77.32145,28.23462],[77.3164,28.23152],[77.30741,28.22684],[77.3022,28.23128],[77.29236,28.23917],[77.27862,28.24396],[77.27455,28.24792],[77.27557,28.25348],[77.28055,28.2596],[77.27982,28.26714],[77.27409,28.26906],[77.26609,28.27093],[77.26041,28.27033],[77.25933,28.2678],[77.25951,28.25975],[77.25842,28.25771],[77.25326,28.25964],[77.23919,28.26866],[77.23952,28.2688],[77.24029,28.27013],[77.24171,28.27262],[77.24116,28.27596],[77.23959,28.2787],[77.23335,28.28264],[77.22908,28.28732],[77.22534,28.28971],[77.21653,28.29055],[77.20921,28.29375],[77.20494,28.29391],[77.19938,28.292],[77.19292,28.29151],[77.1898,28.29513],[77.1849,28.2988],[77.17818,28.30133],[77.17167,28.30542],[77.16447,28.30851],[77.15409,28.3166],[77.15128,28.32186],[77.1501,28.33408],[77.15036,28.34083],[77.15173,28.34727],[77.15231,28.36415],[77.14979,28.37816],[77.15042,28.38329],[77.15201,28.38637],[77.16593,28.39483],[77.17538,28.40305],[77.18913,28.40696],[77.20487,28.4071],[77.21556,28.40796],[77.22498,28.4103],[77.23243,28.41352],[77.25034,28.4234],[77.25291,28.42822],[77.25403,28.43621],[77.25303,28.44204],[77.24962,28.44816],[77.24286,28.45401],[77.23618,28.45482],[77.2355,28.45857],[77.23738,28.46431],[77.24218,28.47035],[77.24652,28.47424],[77.25244,28.47915],[77.26379,28.48009],[77.26991,28.48297],[77.28096,28.49156],[77.2879,28.49268],[77.29564,28.4908],[77.30612,28.48567],[77.3108,28.48463],[77.31673,28.48519],[77.32475,28.48907],[77.33159,28.49388],[77.33657,28.49796],[77.3389,28.50282],[77.34437,28.50558],[77.34765,28.50346]]]}}]}