{"type":"FeatureCollection","features":[{"type":"Feature","properties":{"id":"jind","name":"Jind","stateId":"haryana","stateName":"Haryana","censuscode":77,"type":"district"},"geometry":{"type":"Polygon","coordinates":[[[76.61253,29.47448],[76.61912,29.47621],[76.62417,29.47521],[76.62904,29.47292],[76.63566,29.47281],[76.64221,29.4727],[76.65727,29.49195],[76.65813,29.49305],[76.65917,29.49276],[76.65948,29.49268],[76.66118,29.49221],[76.66563,29.48923],[76.69261,29.47816],[76.70022,29.47687],[76.70733,29.47756],[76.71593,29.48193],[76.72326,29.48336],[76.73206,29.48288],[76.7401,29.48004],[76.74934,29.47412],[76.75601,29.4676],[76.75558,29.46642],[76.75031,29.45202],[76.74849,29.4431],[76.74326,29.43292],[76.73608,29.42342],[76.73382,29.41542],[76.73656,29.40685],[76.73429,29.39845],[76.73362,29.39257],[76.72778,29.38951],[76.71982,29.38866],[76.70932,29.38345],[76.69573,29.38512],[76.69085,29.38009],[76.68137,29.3778],[76.67199,29.37748],[76.66777,29.37343],[76.65668,29.37191],[76.64999,29.36879],[76.64763,29.36345],[76.64735,29.35663],[76.64844,29.34572],[76.64678,29.33824],[76.64227,29.33216],[76.63528,29.31647],[76.63977,29.31118],[76.64222,29.29478],[76.64755,29.29001],[76.65273,29.28771],[76.66363,29.28041],[76.68089,29.2772],[76.68197,29.27032],[76.67431,29.26739],[76.66111,29.26745],[76.65212,29.27128],[76.64516,29.27641],[76.6345,29.27759],[76.61974,29.28718],[76.61151,29.29013],[76.60551,29.28978],[76.59974,29.2859],[76.5745,29.28576],[76.56165,29.28297],[76.55847,29.27376],[76.55643,29.26115],[76.56039,29.25027],[76.56235,29.24097],[76.56645,29.23027],[76.56492,29.22267],[76.56078,29.21405],[76.55157,29.20979],[76.54104,29.21033],[76.5335,29.21633],[76.52814,29.22334],[76.52705,29.23103],[76.50421,29.23529],[76.49775,29.23845],[76.48705,29.24107],[76.482,29.24624],[76.47721,29.24265],[76.47589,29.23787],[76.48198,29.22967],[76.49295,29.21813],[76.4928,29.20841],[76.50206,29.18187],[76.51088,29.17243],[76.51431,29.16517],[76.5107,29.16168],[76.50351,29.15696],[76.4903,29.14386],[76.48729,29.13779],[76.48571,29.12981],[76.48012,29.11397],[76.48057,29.10588],[76.47911,29.09634],[76.4726,29.08335],[76.46123,29.06648],[76.45548,29.06239],[76.44647,29.05991],[76.44012,29.06114],[76.4307,29.06533],[76.42418,29.07156],[76.41205,29.07923],[76.40485,29.08088],[76.39626,29.07797],[76.39069,29.07439],[76.38103,29.0731],[76.3514,29.08672],[76.34085,29.0859],[76.33233,29.08745],[76.30151,29.08679],[76.30275,29.09216],[76.31116,29.10284],[76.31401,29.10758],[76.30575,29.11849],[76.30412,29.12263],[76.29927,29.13497],[76.29761,29.15088],[76.29683,29.15844],[76.29532,29.17962],[76.29134,29.18811],[76.28446,29.19446],[76.27714,29.19519],[76.25754,29.19826],[76.24231,29.20295],[76.23462,29.20842],[76.23062,29.22032],[76.22762,29.22927],[76.22738,29.22998],[76.21634,29.24246],[76.21414,29.24779],[76.20775,29.26325],[76.2008,29.26827],[76.18872,29.27701],[76.1883,29.28396],[76.19447,29.29357],[76.20136,29.30428],[76.20723,29.31438],[76.20724,29.32071],[76.20719,29.32074],[76.1886,29.33172],[76.18348,29.33508],[76.18858,29.34208],[76.18974,29.34367],[76.19017,29.34395],[76.19244,29.34541],[76.2073,29.355],[76.20861,29.35528],[76.22241,29.35818],[76.23678,29.35375],[76.24735,29.35336],[76.25244,29.36154],[76.25062,29.36965],[76.24134,29.37897],[76.23072,29.38752],[76.19942,29.3998],[76.19814,29.4003],[76.18253,29.40498],[76.18154,29.40535],[76.18113,29.4054],[76.17902,29.40604],[76.16119,29.40863],[76.16086,29.40836],[76.14177,29.39309],[76.13817,29.39021],[76.13813,29.39018],[76.13222,29.38866],[76.12323,29.39495],[76.11061,29.40005],[76.09404,29.40121],[76.09213,29.40545],[76.08852,29.41346],[76.08688,29.42598],[76.08164,29.43174],[76.07906,29.43457],[76.06909,29.43304],[76.05459,29.43082],[76.04654,29.42369],[76.03465,29.41579],[76.02657,29.42283],[76.02657,29.42952],[76.01579,29.44164],[76.00001,29.44744],[75.99349,29.45214],[75.99311,29.45875],[75.99372,29.46063],[75.99622,29.46849],[76.00135,29.47134],[76.00365,29.47444],[76.00374,29.47506],[76.00373,29.4757],[76.00364,29.47633],[76.00344,29.47693],[76.00316,29.47751],[76.00279,29.47805],[76.00234,29.47855],[76.00184,29.479],[76.00126,29.47937],[76.00002,29.48003],[75.99674,29.48241],[75.99053,29.48429],[75.98194,29.48644],[75.96331,29.49359],[75.9408,29.49843],[75.93606,29.50341],[75.9356,29.50912],[75.93753,29.51562],[75.94315,29.52201],[75.9485,29.52615],[75.95991,29.54342],[75.96242,29.55161],[75.95991,29.56546],[75.95916,29.57193],[75.95888,29.57426],[75.96045,29.57765],[75.96066,29.5781],[75.96169,29.58429],[75.95711,29.5933],[75.95001,29.59665],[75.95066,29.60548],[75.95422,29.61068],[75.95511,29.61884],[75.95521,29.62183],[75.94858,29.63632],[75.94509,29.64706],[75.94671,29.6569],[75.94893,29.66149],[75.95152,29.66685],[75.94876,29.67092],[75.9445,29.67718],[75.93766,29.68371],[75.93728,29.69027],[75.93894,29.69734],[75.94006,29.6993],[75.94117,29.70125],[75.94466,29.70739],[75.94831,29.71824],[75.9494,29.73013],[75.95307,29.73091],[75.96082,29.73051],[75.96822,29.72871],[75.97559,29.72795],[75.98329,29.72893],[75.99076,29.73274],[76.00006,29.73886],[76.01464,29.74746],[76.02209,29.74935],[76.02841,29.75259],[76.03508,29.75211],[76.04255,29.74739],[76.04648,29.74315],[76.05232,29.74525],[76.06933,29.76961],[76.07411,29.77392],[76.08081,29.77247],[76.08527,29.77769],[76.08637,29.78435],[76.08654,29.79351],[76.08864,29.80224],[76.09705,29.80635],[76.10155,29.80727],[76.10536,29.808],[76.11421,29.80483],[76.12126,29.79973],[76.12738,29.7928],[76.13241,29.79587],[76.1382,29.80181],[76.14314,29.80843],[76.15031,29.81313],[76.16418,29.81262],[76.17773,29.81466],[76.19694,29.82755],[76.20051,29.83679],[76.20533,29.84128],[76.21338,29.8416],[76.21923,29.83957],[76.21969,29.82475],[76.22121,29.81428],[76.22154,29.80378],[76.21815,29.79634],[76.21236,29.78885],[76.20913,29.77616],[76.20432,29.77605],[76.20471,29.76345],[76.20624,29.75298],[76.20054,29.74233],[76.18887,29.7305],[76.18184,29.72402],[76.17859,29.71239],[76.18119,29.70614],[76.17979,29.70088],[76.17607,29.69393],[76.17709,29.6864],[76.18363,29.67832],[76.18923,29.67503],[76.19492,29.66899],[76.19511,29.66281],[76.1929,29.65796],[76.197,29.65257],[76.20022,29.6499],[76.19829,29.63613],[76.19937,29.62655],[76.20117,29.61904],[76.20906,29.61785],[76.2279,29.6183],[76.23742,29.61509],[76.24164,29.60558],[76.24208,29.59118],[76.24311,29.58297],[76.24489,29.57614],[76.2552,29.57295],[76.26641,29.56566],[76.26742,29.55814],[76.27324,29.54729],[76.28505,29.54619],[76.29197,29.55116],[76.2995,29.56162],[76.29996,29.57261],[76.30764,29.57828],[76.32878,29.58014],[76.33582,29.58098],[76.34531,29.58161],[76.34493,29.5811],[76.36134,29.57782],[76.36695,29.57739],[76.37041,29.57583],[76.37238,29.56843],[76.37173,29.55787],[76.37214,29.54396],[76.37661,29.53942],[76.39121,29.53511],[76.40422,29.5354],[76.41867,29.53614],[76.42342,29.53878],[76.43149,29.54318],[76.44351,29.54428],[76.44889,29.54187],[76.45146,29.53645],[76.46023,29.53327],[76.4636,29.53334],[76.46938,29.53389],[76.47548,29.5395],[76.4841,29.5418],[76.48764,29.53597],[76.48447,29.52873],[76.48032,29.52232],[76.47994,29.51851],[76.49163,29.51455],[76.49371,29.51599],[76.49282,29.51465],[76.49529,29.50834],[76.50147,29.4967],[76.50815,29.49353],[76.50923,29.48516],[76.50168,29.48101],[76.4852,29.48251],[76.48169,29.47186],[76.47756,29.46479],[76.47478,29.44474],[76.46861,29.43439],[76.46602,29.42547],[76.45405,29.42082],[76.45393,29.40868],[76.45406,29.40417],[76.47094,29.39946],[76.4803,29.40302],[76.48418,29.40659],[76.48629,29.40886],[76.49211,29.40835],[76.49757,29.40752],[76.49976,29.40693],[76.50595,29.4058],[76.5124,29.40848],[76.51521,29.41139],[76.51791,29.41843],[76.52596,29.42876],[76.52943,29.43423],[76.5365,29.44041],[76.54566,29.45012],[76.55229,29.45783],[76.55675,29.45861],[76.56744,29.46314],[76.57251,29.46293],[76.57691,29.46423],[76.58092,29.46737],[76.58537,29.46872],[76.59418,29.4698],[76.60251,29.47372],[76.60811,29.47338],[76.61253,29.47448]]]}}]}