{"type":"FeatureCollection","features":[{"type":"Feature","properties":{"id":"karnal","name":"Karnal","stateId":"haryana","stateName":"Haryana","censuscode":74,"type":"district"},"geometry":{"type":"Polygon","coordinates":[[[77.13364,29.9656],[77.13605,29.96292],[77.14077,29.96335],[77.14673,29.9671],[77.15301,29.96963],[77.15683,29.96942],[77.16137,29.96586],[77.16453,29.96568],[77.1674,29.96829],[77.17649,29.9628],[77.18257,29.95507],[77.18817,29.95175],[77.18502,29.94433],[77.19265,29.93651],[77.20001,29.93389],[77.22323,29.93586],[77.21467,29.92625],[77.20765,29.92244],[77.2012,29.91721],[77.19895,29.91266],[77.19796,29.90821],[77.1922,29.90139],[77.19158,29.89744],[77.19687,29.89004],[77.19699,29.88547],[77.19429,29.87674],[77.19445,29.86843],[77.19203,29.86429],[77.19008,29.85731],[77.17952,29.84154],[77.17896,29.83886],[77.18094,29.82472],[77.17715,29.81963],[77.16752,29.81193],[77.16583,29.80892],[77.16395,29.8028],[77.16356,29.79861],[77.16585,29.79282],[77.16421,29.78841],[77.15404,29.78271],[77.14924,29.77733],[77.14378,29.77414],[77.13528,29.773],[77.13007,29.77071],[77.12879,29.76606],[77.13063,29.75937],[77.12961,29.75557],[77.12594,29.74944],[77.12467,29.74375],[77.12687,29.7401],[77.13429,29.73795],[77.13426,29.73117],[77.1519,29.71237],[77.155,29.70106],[77.15426,29.69673],[77.15154,29.69533],[77.14384,29.69458],[77.13718,29.69202],[77.13273,29.68667],[77.13079,29.68095],[77.13159,29.67536],[77.14274,29.66143],[77.1429,29.65808],[77.141,29.65367],[77.13336,29.64862],[77.12124,29.64233],[77.11937,29.63505],[77.11643,29.63067],[77.1126,29.62818],[77.1131,29.62001],[77.11197,29.61737],[77.10604,29.61286],[77.10536,29.60806],[77.10367,29.60377],[77.09708,29.5959],[77.09827,29.59156],[77.10133,29.58551],[77.10521,29.58229],[77.11341,29.57207],[77.11817,29.56142],[77.12111,29.54804],[77.11581,29.54396],[77.10666,29.5427],[77.10077,29.53975],[77.09757,29.53457],[77.09624,29.52865],[77.09782,29.52331],[77.10893,29.50705],[77.11474,29.50458],[77.12584,29.49818],[77.1312,29.49234],[77.13462,29.48107],[77.13167,29.47507],[77.12671,29.4704],[77.12528,29.46529],[77.12554,29.45686],[77.12907,29.45146],[77.13464,29.44833],[77.12079,29.44384],[77.09567,29.44204],[77.07659,29.44066],[77.06339,29.44422],[77.04486,29.44979],[77.02954,29.44722],[77.01573,29.44687],[77.00055,29.45117],[76.99282,29.45776],[76.97912,29.46708],[76.96353,29.45808],[76.95483,29.45847],[76.94787,29.46475],[76.93287,29.47033],[76.93691,29.47618],[76.92796,29.47821],[76.91763,29.48085],[76.91078,29.47412],[76.90246,29.46801],[76.89463,29.47949],[76.88946,29.48507],[76.88426,29.48781],[76.8687,29.49044],[76.85937,29.48659],[76.85937,29.48658],[76.85655,29.47811],[76.83699,29.46911],[76.82668,29.47093],[76.82288,29.47295],[76.80609,29.4819],[76.80609,29.48188],[76.80609,29.48188],[76.7975,29.47795],[76.7927,29.46906],[76.78416,29.46752],[76.77106,29.47175],[76.75558,29.46642],[76.75601,29.4676],[76.74934,29.47412],[76.7401,29.48004],[76.73206,29.48288],[76.72326,29.48336],[76.71593,29.48193],[76.70733,29.47756],[76.70022,29.47687],[76.69261,29.47816],[76.66563,29.48923],[76.66118,29.49221],[76.65917,29.49276],[76.65813,29.49305],[76.65727,29.49195],[76.64221,29.4727],[76.63566,29.47281],[76.62904,29.47292],[76.62417,29.47521],[76.61912,29.47621],[76.61253,29.47448],[76.60811,29.47338],[76.60251,29.47372],[76.59418,29.4698],[76.58537,29.46872],[76.58092,29.46737],[76.57691,29.46423],[76.57251,29.46293],[76.56744,29.46314],[76.55675,29.45861],[76.55229,29.45783],[76.54566,29.45012],[76.5365,29.44041],[76.52943,29.43423],[76.52596,29.42876],[76.51791,29.41843],[76.51521,29.41139],[76.5124,29.40848],[76.50595,29.4058],[76.49976,29.40693],[76.49757,29.40752],[76.49211,29.40835],[76.48629,29.40886],[76.48418,29.40659],[76.4803,29.40302],[76.47094,29.39946],[76.45406,29.40417],[76.45393,29.40868],[76.45405,29.42082],[76.46602,29.42547],[76.46861,29.43439],[76.47478,29.44474],[76.47756,29.46479],[76.48169,29.47186],[76.4852,29.48251],[76.50168,29.48101],[76.50923,29.48516],[76.50815,29.49353],[76.50147,29.4967],[76.49529,29.50834],[76.49282,29.51465],[76.50086,29.52665],[76.50679,29.53208],[76.50928,29.53795],[76.52463,29.53992],[76.52637,29.54354],[76.52463,29.55106],[76.53199,29.5705],[76.53917,29.57616],[76.54474,29.57768],[76.54824,29.581],[76.54939,29.5848],[76.54764,29.59006],[76.53235,29.60996],[76.53415,29.6137],[76.54129,29.61503],[76.54576,29.61817],[76.54868,29.62161],[76.56562,29.62921],[76.57709,29.62779],[76.58842,29.62973],[76.59629,29.62771],[76.60277,29.62835],[76.61417,29.63605],[76.62218,29.64446],[76.63874,29.65159],[76.64573,29.65662],[76.64759,29.66445],[76.65218,29.66972],[76.6601,29.67104],[76.67319,29.66838],[76.67917,29.67093],[76.68347,29.68382],[76.68712,29.68291],[76.69147,29.67665],[76.69612,29.67234],[76.70065,29.66988],[76.70608,29.67444],[76.7125,29.68245],[76.71244,29.68787],[76.71131,29.69135],[76.69277,29.69811],[76.6901,29.70333],[76.69661,29.72036],[76.69712,29.72913],[76.69465,29.74035],[76.69698,29.74755],[76.68762,29.75798],[76.68711,29.76283],[76.68888,29.76848],[76.69936,29.7794],[76.70034,29.78892],[76.70267,29.7971],[76.71622,29.8125],[76.71317,29.81913],[76.70635,29.82193],[76.68906,29.8257],[76.68874,29.83161],[76.6907,29.83634],[76.69159,29.85177],[76.68657,29.85741],[76.68109,29.85875],[76.67692,29.86083],[76.67711,29.86404],[76.68691,29.86697],[76.68998,29.87433],[76.69169,29.88431],[76.69423,29.8927],[76.70032,29.89533],[76.70987,29.88512],[76.7131,29.88292],[76.71866,29.88176],[76.7249,29.88209],[76.72974,29.88417],[76.73368,29.89118],[76.7406,29.89576],[76.74694,29.90255],[76.75054,29.90777],[76.75301,29.91839],[76.75562,29.92494],[76.75563,29.92497],[76.76291,29.93412],[76.7838,29.93851],[76.78935,29.94305],[76.79477,29.94473],[76.80223,29.94022],[76.80651,29.93399],[76.81188,29.93011],[76.81992,29.93362],[76.82689,29.92981],[76.82868,29.91639],[76.83063,29.91095],[76.83835,29.90988],[76.83811,29.91772],[76.83888,29.925],[76.85067,29.92987],[76.8594,29.93219],[76.86419,29.93166],[76.86642,29.92694],[76.87788,29.9245],[76.88675,29.92417],[76.8993,29.92039],[76.90986,29.92475],[76.94189,29.922],[76.94551,29.92248],[76.95318,29.93201],[76.96626,29.94358],[76.97444,29.94917],[76.97597,29.957],[76.9812,29.96415],[77,29.96516],[77.00217,29.96463],[77.00138,29.95083],[77.00364,29.94982],[77.00764,29.95179],[77.01405,29.94757],[77.02286,29.94486],[77.03398,29.95172],[77.03646,29.95218],[77.05332,29.9455],[77.05893,29.9441],[77.0623,29.94737],[77.06612,29.94829],[77.07509,29.94665],[77.09439,29.94926],[77.10705,29.96233],[77.11634,29.97766],[77.11401,29.98847],[77.11494,29.99079],[77.13122,29.98258],[77.13629,29.97913],[77.13364,29.9656]]]}}]}