{"type":"FeatureCollection","features":[{"type":"Feature","properties":{"id":"kurukshetra","name":"Kurukshetra","stateId":"haryana","stateName":"Haryana","censuscode":72,"type":"district"},"geometry":{"type":"Polygon","coordinates":[[[77.09233,30.10062],[77.09181,30.10008],[77.08967,30.0991],[77.08774,30.09671],[77.08668,30.09559],[77.08618,30.09401],[77.08623,30.09197],[77.08628,30.08977],[77.08578,30.08819],[77.0835,30.08532],[77.08299,30.08406],[77.08336,30.08354],[77.08321,30.08234],[77.08217,30.08059],[77.08166,30.07885],[77.07846,30.07707],[77.07662,30.07639],[77.07709,30.07198],[77.08483,30.06201],[77.09092,30.0582],[77.09214,30.05398],[77.09298,30.05041],[77.0934,30.04846],[77.09645,30.04655],[77.10322,30.0457],[77.1115,30.04454],[77.11303,30.04326],[77.11429,30.03741],[77.11395,30.03577],[77.10986,30.03439],[77.10763,30.0337],[77.10655,30.03172],[77.10628,30.02715],[77.10608,30.01964],[77.10881,30.01545],[77.11109,30.01386],[77.12084,30.01403],[77.12424,30.01279],[77.12444,30.00463],[77.11719,29.99373],[77.11727,29.99047],[77.11778,29.98936],[77.11494,29.99079],[77.11401,29.98847],[77.11634,29.97766],[77.10705,29.96233],[77.09439,29.94926],[77.07509,29.94665],[77.06612,29.94829],[77.0623,29.94737],[77.05893,29.9441],[77.05332,29.9455],[77.03646,29.95218],[77.03398,29.95172],[77.02286,29.94486],[77.01405,29.94757],[77.00764,29.95179],[77.00364,29.94982],[77.00138,29.95083],[77.00217,29.96463],[77,29.96516],[76.9812,29.96415],[76.97597,29.957],[76.97444,29.94917],[76.96626,29.94358],[76.95318,29.93201],[76.94551,29.92248],[76.94189,29.922],[76.90986,29.92475],[76.8993,29.92039],[76.88675,29.92417],[76.87788,29.9245],[76.86642,29.92694],[76.86419,29.93166],[76.8594,29.93219],[76.85067,29.92987],[76.83888,29.925],[76.83811,29.91772],[76.83835,29.90988],[76.83063,29.91095],[76.82868,29.91639],[76.82689,29.92981],[76.81992,29.93362],[76.81188,29.93011],[76.80651,29.93399],[76.80223,29.94022],[76.79477,29.94473],[76.78935,29.94305],[76.7838,29.93851],[76.76291,29.93412],[76.75563,29.92497],[76.75562,29.92494],[76.73205,29.92812],[76.72048,29.92459],[76.71404,29.9218],[76.70926,29.92353],[76.69837,29.9299],[76.69053,29.91665],[76.68563,29.92444],[76.68449,29.92623],[76.68249,29.93289],[76.68195,29.93469],[76.68303,29.9414],[76.68191,29.94787],[76.67447,29.94324],[76.66738,29.95664],[76.65823,29.95672],[76.65128,29.95319],[76.64741,29.94497],[76.63439,29.93664],[76.62475,29.93955],[76.61803,29.92769],[76.61765,29.91872],[76.6103,29.9149],[76.59271,29.91233],[76.59323,29.90511],[76.59902,29.897],[76.60022,29.89153],[76.59653,29.87699],[76.56233,29.86775],[76.56179,29.86078],[76.55431,29.85769],[76.54292,29.86963],[76.53711,29.87572],[76.53094,29.88451],[76.52222,29.89692],[76.5113,29.90126],[76.50628,29.90326],[76.49516,29.90631],[76.4858,29.90647],[76.47872,29.90788],[76.47051,29.91191],[76.47392,29.91748],[76.47895,29.93287],[76.48116,29.94675],[76.4826,29.95575],[76.47839,29.95959],[76.47325,29.96643],[76.4665,29.96739],[76.45943,29.96449],[76.45783,29.96894],[76.46581,29.98037],[76.46237,30.00098],[76.46367,30.00339],[76.47125,30.01408],[76.47436,30.01927],[76.47479,30.02267],[76.47011,30.02449],[76.46551,30.02347],[76.46096,30.02429],[76.4566,30.02593],[76.45255,30.02795],[76.451,30.02709],[76.44837,30.02337],[76.44202,30.02103],[76.43807,30.02324],[76.43241,30.02961],[76.42748,30.03655],[76.42458,30.04216],[76.42421,30.04407],[76.42546,30.04785],[76.4281,30.05121],[76.4316,30.05394],[76.43772,30.05691],[76.44321,30.06334],[76.44942,30.07419],[76.45399,30.08344],[76.45541,30.08923],[76.46104,30.09101],[76.46651,30.09637],[76.4734,30.09513],[76.49533,30.09565],[76.50265,30.09323],[76.50701,30.08846],[76.50684,30.08315],[76.50896,30.07762],[76.51294,30.07268],[76.52076,30.07557],[76.53739,30.07687],[76.54549,30.07879],[76.56675,30.09476],[76.57106,30.09404],[76.57333,30.09363],[76.57554,30.0931],[76.57765,30.09224],[76.57957,30.0911],[76.58138,30.08985],[76.58315,30.08853],[76.5849,30.08721],[76.58667,30.08593],[76.58854,30.08473],[76.5907,30.0838],[76.59269,30.08281],[76.59384,30.08116],[76.59384,30.07909],[76.59294,30.07723],[76.59165,30.07548],[76.58974,30.07367],[76.58824,30.07206],[76.58864,30.07105],[76.59104,30.07054],[76.59383,30.07061],[76.59588,30.07138],[76.59771,30.07268],[76.59952,30.07409],[76.60142,30.07524],[76.60357,30.07568],[76.60595,30.07548],[76.6083,30.0754],[76.61068,30.07563],[76.61295,30.07615],[76.61477,30.07725],[76.61638,30.07866],[76.61788,30.08022],[76.61934,30.08182],[76.62088,30.08338],[76.62254,30.08478],[76.62427,30.08613],[76.62603,30.08742],[76.62783,30.0887],[76.62963,30.08997],[76.63141,30.09127],[76.6371,30.09776],[76.63863,30.10157],[76.63952,30.1064],[76.63859,30.10988],[76.63672,30.11281],[76.63721,30.11696],[76.64072,30.12612],[76.64142,30.13069],[76.63512,30.14061],[76.63532,30.14535],[76.63968,30.15106],[76.64633,30.14849],[76.65794,30.15451],[76.66407,30.1615],[76.67699,30.16897],[76.68586,30.18462],[76.7008,30.18837],[76.73153,30.19169],[76.74952,30.19441],[76.76123,30.19277],[76.76848,30.19697],[76.77451,30.19821],[76.7807,30.20299],[76.78566,30.20804],[76.79633,30.2094],[76.80764,30.21197],[76.81344,30.21582],[76.82177,30.22691],[76.82204,30.23659],[76.82357,30.2419],[76.83171,30.24882],[76.85429,30.24803],[76.86202,30.24601],[76.8657,30.2438],[76.86237,30.23299],[76.86391,30.22776],[76.87753,30.21715],[76.88339,30.21417],[76.88735,30.20965],[76.88525,30.20199],[76.89197,30.19693],[76.89614,30.19249],[76.90271,30.18864],[76.90803,30.19445],[76.91727,30.19916],[76.92589,30.19914],[76.9373,30.19712],[76.96024,30.19174],[76.95686,30.18352],[76.94587,30.17992],[76.94331,30.17659],[76.94381,30.16656],[76.94958,30.16013],[76.95577,30.15666],[76.96141,30.15392],[76.96655,30.15635],[76.96819,30.1602],[76.97756,30.16245],[76.98173,30.16714],[77.00002,30.16445],[77.00088,30.16374],[77.00461,30.16159],[77.00994,30.15765],[77.01998,30.15174],[77.02636,30.14748],[77.03177,30.14247],[77.03678,30.13702],[77.04162,30.13103],[77.04649,30.12766],[77.05161,30.12483],[77.05759,30.12247],[77.06512,30.1224],[77.06523,30.12258],[77.08062,30.11251],[77.08794,30.10448],[77.09233,30.10062]]]}}]}