{"type":"FeatureCollection","features":[{"type":"Feature","properties":{"id":"mahendragarh","name":"Mahendragarh","stateId":"haryana","stateName":"Haryana","censuscode":84,"type":"district"},"geometry":{"type":"Polygon","coordinates":[[[76.2453,28.45522],[76.24736,28.44295],[76.25001,28.43941],[76.25528,28.43725],[76.25919,28.43617],[76.26854,28.43813],[76.27114,28.44139],[76.27375,28.44595],[76.27506,28.44813],[76.27745,28.44813],[76.29159,28.4485],[76.29179,28.44074],[76.29076,28.43536],[76.29093,28.43527],[76.29077,28.43479],[76.29065,28.42339],[76.28872,28.41708],[76.2843,28.40851],[76.28465,28.40602],[76.28699,28.40363],[76.30265,28.40221],[76.29945,28.39074],[76.30052,28.38266],[76.3064,28.37683],[76.32452,28.37341],[76.32834,28.37197],[76.33082,28.36458],[76.34808,28.36444],[76.35957,28.34609],[76.35958,28.34609],[76.35958,28.34608],[76.36647,28.34119],[76.37098,28.32522],[76.36329,28.32211],[76.36105,28.31371],[76.35316,28.31022],[76.35003,28.30363],[76.35294,28.29663],[76.35373,28.29233],[76.35577,28.28118],[76.34644,28.27041],[76.3518,28.26447],[76.35362,28.25901],[76.35212,28.25303],[76.35151,28.24835],[76.3517,28.24553],[76.35195,28.2418],[76.35027,28.23604],[76.34733,28.22599],[76.34534,28.22328],[76.33195,28.22389],[76.32544,28.20887],[76.31975,28.20516],[76.31691,28.20497],[76.31064,28.20467],[76.30999,28.20227],[76.30793,28.19818],[76.31187,28.19111],[76.31581,28.18762],[76.31608,28.18582],[76.31658,28.18259],[76.31635,28.1788],[76.31341,28.17919],[76.30647,28.17821],[76.2973,28.17802],[76.28748,28.17408],[76.2852,28.16813],[76.28658,28.16393],[76.30142,28.16062],[76.30694,28.15789],[76.30688,28.15479],[76.30348,28.15239],[76.3043,28.15001],[76.30997,28.14633],[76.31662,28.1462],[76.31953,28.14998],[76.32574,28.14838],[76.33115,28.14453],[76.33942,28.13427],[76.346,28.13014],[76.35164,28.12805],[76.35777,28.12743],[76.36402,28.12371],[76.35189,28.10849],[76.34794,28.10498],[76.34026,28.10201],[76.32252,28.10744],[76.31637,28.10659],[76.30965,28.10152],[76.30572,28.09637],[76.3155,28.09176],[76.32177,28.08997],[76.32887,28.0896],[76.3332,28.08744],[76.33712,28.08304],[76.33958,28.07692],[76.34046,28.07207],[76.34567,28.06833],[76.35268,28.06914],[76.35882,28.07103],[76.36294,28.06945],[76.36161,28.06082],[76.3542,28.04105],[76.34952,28.03131],[76.34504,28.02492],[76.33818,28.02014],[76.3319,28.01912],[76.32481,28.01627],[76.30535,28.02126],[76.29831,28.02521],[76.29632,28.03736],[76.29832,28.04442],[76.29025,28.05426],[76.28002,28.06173],[76.27315,28.06409],[76.25932,28.06629],[76.25177,28.06431],[76.24155,28.0518],[76.23411,28.05058],[76.21649,28.05096],[76.21179,28.05494],[76.20806,28.05617],[76.20099,28.05524],[76.18547,28.05471],[76.18357,28.04971],[76.18499,28.0444],[76.19128,28.03846],[76.20152,28.03064],[76.20627,28.03037],[76.21229,28.03766],[76.22168,28.03558],[76.22193,28.02709],[76.21156,28.02576],[76.20848,28.02108],[76.20396,28.01715],[76.19876,28.01684],[76.19197,28.01897],[76.18762,28.01872],[76.18232,28.01735],[76.17743,28.0123],[76.16672,28],[76.16294,27.99445],[76.16186,27.98799],[76.17047,27.98375],[76.16894,27.97554],[76.17501,27.97458],[76.18221,27.97063],[76.18745,27.96826],[76.18615,27.96288],[76.18425,27.95647],[76.18488,27.95048],[76.18432,27.94372],[76.1827,27.93667],[76.17828,27.9287],[76.17557,27.92377],[76.17396,27.91641],[76.17434,27.91048],[76.17762,27.90516],[76.18304,27.90251],[76.1905,27.90047],[76.19884,27.89808],[76.20653,27.89437],[76.208,27.88768],[76.20763,27.88348],[76.20229,27.87932],[76.19817,27.87696],[76.19685,27.87175],[76.19917,27.8648],[76.20094,27.85929],[76.20678,27.85503],[76.21289,27.85088],[76.21376,27.84335],[76.21845,27.84017],[76.2311,27.83627],[76.22162,27.82793],[76.21552,27.82383],[76.20833,27.82426],[76.20191,27.82658],[76.19818,27.82212],[76.19398,27.81442],[76.18815,27.80777],[76.18065,27.80284],[76.17505,27.80452],[76.17056,27.81024],[76.16091,27.8167],[76.15039,27.82325],[76.13547,27.82865],[76.13593,27.83328],[76.1362,27.84236],[76.12987,27.84985],[76.12032,27.85404],[76.11108,27.85785],[76.1035,27.86028],[76.09579,27.86395],[76.09336,27.86071],[76.09245,27.85188],[76.08777,27.84657],[76.0677,27.85271],[76.06244,27.84735],[76.05727,27.8434],[76.05132,27.84439],[76.04603,27.84805],[76.04146,27.84973],[76.03724,27.84945],[76.0284,27.85309],[76.01694,27.85819],[76.01285,27.85303],[76.00421,27.85577],[76.00208,27.85652],[75.99187,27.85849],[75.98302,27.86025],[75.97065,27.86037],[75.97183,27.86715],[75.98106,27.87308],[75.98042,27.88102],[75.98281,27.88873],[75.9749,27.89496],[75.98506,27.9049],[75.97519,27.91102],[75.96354,27.91522],[75.9494,27.91477],[75.93644,27.9125],[75.9364,27.92218],[75.93124,27.9288],[75.93623,27.93746],[75.9462,27.94679],[75.94938,27.94204],[75.95227,27.93578],[75.96163,27.93512],[75.97085,27.93262],[75.98095,27.95366],[75.97605,27.95797],[75.98159,27.9656],[75.9896,27.97396],[75.99425,27.97676],[75.9947,27.98028],[75.98987,27.98264],[75.98094,27.97964],[75.97342,27.98224],[75.96322,27.98434],[75.96305,27.98987],[75.96418,27.99671],[75.9683,27.99779],[75.9723,27.99835],[75.97466,27.99791],[75.98007,27.99702],[75.9877,27.99712],[75.99692,27.99998],[75.99837,28.00582],[75.99365,28.01042],[75.98698,28.01113],[75.9805,28.01383],[75.97867,28.01943],[75.97783,28.02664],[75.98221,28.03261],[75.98838,28.03438],[75.99893,28.03557],[76.01797,28.03235],[76.0188,28.04268],[76.01787,28.04556],[76.01329,28.05018],[76.0246,28.05175],[76.03024,28.05794],[76.04111,28.06427],[76.04361,28.0696],[76.0422,28.07557],[76.03921,28.07952],[76.02364,28.0845],[76.02282,28.07673],[76.0204,28.072],[76.00985,28.05639],[76.00554,28.05313],[75.99897,28.05211],[75.99243,28.04641],[75.98529,28.04788],[75.98248,28.05274],[75.99555,28.06626],[75.99,28.07591],[75.985,28.07988],[75.96688,28.07978],[75.94399,28.08928],[75.95043,28.10138],[75.95534,28.10543],[75.96546,28.11128],[75.9756,28.11511],[75.98508,28.12292],[75.99914,28.12387],[76.00232,28.1268],[76.00375,28.13101],[76.00274,28.1463],[76.00785,28.15213],[76.01412,28.15224],[76.01929,28.15335],[76.0243,28.15675],[76.03588,28.16838],[76.06889,28.1656],[76.07453,28.16339],[76.07356,28.15126],[76.07182,28.1455],[76.07319,28.14007],[76.08305,28.13754],[76.09134,28.13783],[76.0961,28.13912],[76.09996,28.142],[76.10105,28.14719],[76.10108,28.1508],[76.08862,28.1637],[76.083,28.16804],[76.07977,28.17484],[76.07752,28.18987],[76.07383,28.19458],[76.06488,28.19686],[76.05328,28.19857],[76.05203,28.20114],[76.05797,28.20548],[76.06051,28.21008],[76.06125,28.21988],[76.04459,28.22278],[76.03402,28.23161],[76.01942,28.23746],[76.01565,28.24888],[76.02686,28.27632],[76.02701,28.27668],[76.01662,28.28208],[76.0067,28.28723],[75.99954,28.29094],[75.99668,28.29138],[75.99486,28.29165],[75.99484,28.29169],[75.99474,28.29183],[75.98762,28.30211],[75.98303,28.31164],[75.97632,28.31945],[75.97595,28.31989],[75.96973,28.31724],[75.96297,28.31435],[75.96297,28.31439],[75.96296,28.3152],[75.96281,28.32453],[75.95974,28.32931],[75.96294,28.3306],[75.96493,28.3314],[75.96465,28.33419],[75.94615,28.33852],[75.93571,28.34096],[75.9366,28.35042],[75.93674,28.35187],[75.93674,28.35188],[75.93664,28.35212],[75.93332,28.36056],[75.93072,28.3648],[75.93063,28.36483],[75.913,28.37196],[75.90558,28.37593],[75.90546,28.37599],[75.90522,28.38592],[75.90505,28.386],[75.89757,28.38959],[75.89757,28.38959],[75.90419,28.3995],[75.90155,28.40709],[75.89997,28.41738],[75.90199,28.42696],[75.9061,28.42952],[75.97238,28.43832],[75.99989,28.44014],[76.01675,28.43222],[76.01421,28.41212],[76.02345,28.4037],[76.02149,28.39462],[76.02799,28.39014],[76.05642,28.39598],[76.0677,28.39665],[76.07882,28.39427],[76.08631,28.40873],[76.0926,28.414],[76.09811,28.42544],[76.10804,28.42889],[76.11318,28.44469],[76.11706,28.45081],[76.12734,28.44892],[76.14536,28.44913],[76.15511,28.46254],[76.16366,28.4625],[76.16346,28.45153],[76.17202,28.44127],[76.17301,28.43736],[76.18183,28.44191],[76.18548,28.4438],[76.18711,28.44347],[76.18925,28.44304],[76.19561,28.44175],[76.19615,28.44164],[76.19631,28.44161],[76.19645,28.44158],[76.19649,28.44162],[76.20115,28.44182],[76.20137,28.444],[76.21028,28.444],[76.21411,28.45335],[76.21441,28.45333],[76.21631,28.4598],[76.22039,28.46718],[76.23113,28.46746],[76.24316,28.46071],[76.2453,28.45522]]]}}]}