{"type":"FeatureCollection","features":[{"type":"Feature","properties":{"id":"mewat","name":"Mewat","stateId":"haryana","stateName":"Haryana","censuscode":87,"type":"district"},"geometry":{"type":"Polygon","coordinates":[[[77.19306,28.1805],[77.18314,28.18002],[77.17462,28.18237],[77.16574,28.18315],[77.16343,28.18076],[77.16291,28.17443],[77.1648,28.16928],[77.16249,28.16214],[77.14926,28.15577],[77.14648,28.14712],[77.14327,28.14153],[77.13287,28.13091],[77.13401,28.12521],[77.145,28.12178],[77.14614,28.11428],[77.14279,28.10966],[77.13819,28.10594],[77.14043,28.0979],[77.13232,28.08331],[77.13161,28.07252],[77.12066,28.06683],[77.11571,28.06848],[77.10048,28.06399],[77.10521,28.05628],[77.1118,28.05335],[77.11532,28.04624],[77.11237,28.03804],[77.11186,28.03284],[77.1128,28.02687],[77.10915,28.02251],[77.10395,28.0199],[77.10407,28.01828],[77.10786,28.01573],[77.11044,28.01187],[77.10865,28.00841],[77.10227,28.00528],[77.08399,27.99984],[77.07817,27.99349],[77.07448,27.98616],[77.08872,27.97936],[77.10212,27.97063],[77.10517,27.96785],[77.11056,27.96629],[77.12075,27.96077],[77.13331,27.96062],[77.13794,27.96317],[77.1465,27.96335],[77.1484,27.95631],[77.15045,27.95348],[77.1524,27.95156],[77.15862,27.94826],[77.16139,27.94291],[77.16641,27.94096],[77.17372,27.94185],[77.17656,27.93953],[77.1774,27.93752],[77.18235,27.93466],[77.18492,27.93708],[77.18618,27.94137],[77.18834,27.94306],[77.19471,27.94059],[77.19827,27.93614],[77.2057,27.92988],[77.21008,27.92456],[77.21688,27.91887],[77.22232,27.91246],[77.23345,27.89458],[77.23741,27.89105],[77.2484,27.8858],[77.2586,27.87721],[77.2632,27.87594],[77.27311,27.87151],[77.28374,27.86964],[77.28771,27.8716],[77.29701,27.89086],[77.29701,27.89086],[77.30722,27.88767],[77.32186,27.87495],[77.32444,27.87021],[77.32452,27.85677],[77.33086,27.85109],[77.3382,27.84639],[77.333,27.83527],[77.33626,27.83212],[77.33103,27.82912],[77.3261,27.82765],[77.32184,27.82446],[77.31521,27.82642],[77.31371,27.82564],[77.30805,27.82579],[77.29777,27.82357],[77.29951,27.81413],[77.29855,27.81225],[77.29233,27.81035],[77.28818,27.80641],[77.28592,27.80117],[77.28461,27.80099],[77.27632,27.80641],[77.27134,27.81055],[77.26688,27.80374],[77.26581,27.79969],[77.26165,27.79209],[77.25673,27.7882],[77.24966,27.78481],[77.24332,27.78026],[77.2405,27.78025],[77.23601,27.78312],[77.23747,27.78756],[77.23562,27.79056],[77.23092,27.79212],[77.22559,27.78997],[77.21553,27.79553],[77.21449,27.79996],[77.21088,27.80705],[77.20553,27.81392],[77.20263,27.81642],[77.19624,27.80953],[77.19536,27.80497],[77.19769,27.79291],[77.18427,27.78171],[77.17741,27.7794],[77.17271,27.78141],[77.17088,27.7851],[77.1753,27.79042],[77.17798,27.79506],[77.18688,27.79701],[77.18918,27.79892],[77.18942,27.80315],[77.18462,27.80894],[77.18113,27.81082],[77.16982,27.8077],[77.1654,27.80811],[77.16084,27.81028],[77.15936,27.81007],[77.15844,27.80694],[77.16225,27.79694],[77.162,27.79236],[77.16013,27.78632],[77.15596,27.78117],[77.15012,27.78074],[77.14402,27.77847],[77.13519,27.77099],[77.13385,27.77146],[77.13334,27.77936],[77.13078,27.78283],[77.12863,27.784],[77.12608,27.78472],[77.12345,27.78442],[77.11612,27.7812],[77.11128,27.77972],[77.1098,27.78003],[77.10227,27.78425],[77.08886,27.79495],[77.0853,27.79603],[77.08292,27.79891],[77.08106,27.80409],[77.07713,27.80614],[77.07394,27.80715],[77.06487,27.80603],[77.06046,27.80975],[77.05546,27.81268],[77.05377,27.81156],[77.04691,27.81463],[77.04368,27.81126],[77.044,27.80869],[77.0432,27.8071],[77.039,27.80602],[77.03259,27.79277],[77.03162,27.78178],[77.02831,27.77492],[77.02921,27.77271],[77.03133,27.77255],[77.03266,27.77162],[77.03531,27.77251],[77.03697,27.77489],[77.04801,27.76949],[77.05548,27.76256],[77.05866,27.75561],[77.06279,27.75647],[77.06458,27.75895],[77.07039,27.76025],[77.07593,27.75832],[77.07927,27.7534],[77.07975,27.74648],[77.08109,27.74366],[77.08698,27.73743],[77.088,27.73473],[77.08777,27.73295],[77.08652,27.73189],[77.07969,27.7303],[77.07428,27.72697],[77.06797,27.72592],[77.06173,27.72243],[77.05916,27.72268],[77.05278,27.72681],[77.05126,27.73048],[77.0488,27.73294],[77.04785,27.73617],[77.04502,27.7392],[77.04049,27.743],[77.03748,27.74396],[77.03336,27.74172],[77.02531,27.74235],[77.01992,27.74112],[77.0135,27.73375],[77.01186,27.73315],[77.00948,27.73313],[77.00287,27.73666],[77.00202,27.73631],[76.99984,27.73105],[76.99758,27.72839],[76.9959,27.72389],[76.99122,27.71312],[76.98752,27.70078],[76.98448,27.68748],[76.98151,27.67504],[76.98064,27.66749],[76.97868,27.66008],[76.97884,27.65176],[76.96856,27.65706],[76.95987,27.66089],[76.95311,27.66521],[76.94677,27.66832],[76.94253,27.66974],[76.9386,27.66636],[76.93513,27.66009],[76.93214,27.65538],[76.92729,27.65614],[76.92212,27.65427],[76.91775,27.65147],[76.91364,27.65064],[76.9109,27.65319],[76.9088,27.65812],[76.90838,27.66271],[76.90545,27.6671],[76.90152,27.67156],[76.89993,27.67459],[76.90231,27.67801],[76.90505,27.68064],[76.90303,27.68435],[76.89693,27.68752],[76.89141,27.6902],[76.88922,27.69406],[76.89114,27.69806],[76.89633,27.69636],[76.90182,27.69294],[76.90864,27.68931],[76.91434,27.69052],[76.91869,27.69131],[76.92291,27.69548],[76.92055,27.70077],[76.91665,27.70676],[76.91114,27.71112],[76.90373,27.71319],[76.89689,27.71424],[76.8917,27.71912],[76.89243,27.7256],[76.89624,27.7319],[76.89899,27.73671],[76.89981,27.75588],[76.90075,27.76672],[76.90208,27.77395],[76.90405,27.78083],[76.90711,27.78578],[76.91238,27.78958],[76.91128,27.79597],[76.91509,27.80235],[76.91373,27.80725],[76.90888,27.81585],[76.90958,27.82012],[76.91231,27.82735],[76.91641,27.83061],[76.92352,27.8293],[76.93048,27.82651],[76.93519,27.82889],[76.93666,27.83865],[76.93848,27.8499],[76.93689,27.86181],[76.93339,27.87147],[76.93474,27.88305],[76.93471,27.8891],[76.94683,27.89067],[76.94541,27.90222],[76.94751,27.91371],[76.93861,27.91605],[76.92996,27.91575],[76.92778,27.91955],[76.92778,27.93552],[76.92825,27.94753],[76.93151,27.96047],[76.93368,27.97305],[76.93109,27.98052],[76.92742,27.99231],[76.93044,28.0004],[76.93539,28.00721],[76.93959,28.0252],[76.94072,28.03673],[76.94252,28.04284],[76.94692,28.05431],[76.95144,28.06151],[76.95548,28.06603],[76.957,28.07336],[76.96002,28.09079],[76.96448,28.10645],[76.96484,28.11841],[76.9708,28.13871],[76.96558,28.14072],[76.95077,28.14341],[76.94957,28.14563],[76.95061,28.14987],[76.94684,28.15007],[76.93657,28.15363],[76.93008,28.15698],[76.92109,28.1666],[76.90818,28.17408],[76.89913,28.1826],[76.89309,28.18643],[76.89292,28.1895],[76.89478,28.1915],[76.90892,28.19953],[76.90575,28.20239],[76.89575,28.20527],[76.88833,28.20516],[76.87523,28.20631],[76.87487,28.21276],[76.8727,28.21943],[76.8668,28.21797],[76.86341,28.22005],[76.85555,28.23432],[76.85494,28.23456],[76.85541,28.23522],[76.86513,28.24658],[76.87544,28.26872],[76.88787,28.25857],[76.89487,28.25679],[76.90137,28.25768],[76.91453,28.27026],[76.91824,28.2788],[76.90347,28.29545],[76.90726,28.30053],[76.91857,28.30036],[76.93069,28.32061],[76.94247,28.31891],[76.95298,28.31603],[76.95673,28.32303],[76.96359,28.32701],[76.97007,28.32906],[76.97777,28.33421],[76.98477,28.33242],[76.98754,28.32593],[76.99446,28.3276],[77.00406,28.32624],[77.0137,28.30525],[77.01441,28.29372],[77.01471,28.28141],[77.01892,28.26878],[77.01938,28.24954],[77.02688,28.24507],[77.03562,28.2433],[77.05653,28.24138],[77.055,28.2325],[77.05644,28.22675],[77.05355,28.22016],[77.07026,28.212],[77.07695,28.22328],[77.07988,28.22796],[77.08997,28.22391],[77.09615,28.21978],[77.10129,28.22334],[77.10528,28.21995],[77.11007,28.21927],[77.11277,28.21547],[77.12445,28.2176],[77.1348,28.22126],[77.14443,28.21835],[77.14892,28.21189],[77.15502,28.21122],[77.17866,28.19953],[77.18678,28.19911],[77.19296,28.19708],[77.197,28.19347],[77.19306,28.1805],[77.19306,28.1805]]]}}]}