{"type":"FeatureCollection","features":[{"type":"Feature","properties":{"id":"palwal","name":"Palwal","stateId":"haryana","stateName":"Haryana","censuscode":89,"type":"district"},"geometry":{"type":"Polygon","coordinates":[[[77.28055,28.2596],[77.27557,28.25348],[77.27455,28.24792],[77.27862,28.24396],[77.29236,28.23917],[77.3022,28.23128],[77.30741,28.22684],[77.3164,28.23152],[77.32145,28.23462],[77.32434,28.23266],[77.3228,28.22458],[77.34695,28.21189],[77.36186,28.2056],[77.37856,28.22198],[77.40094,28.21178],[77.40833,28.2114],[77.41356,28.20594],[77.41366,28.20141],[77.40463,28.19825],[77.39555,28.19759],[77.39169,28.19199],[77.40284,28.17506],[77.40121,28.17151],[77.41045,28.16411],[77.41319,28.16919],[77.42749,28.16438],[77.44115,28.16309],[77.45123,28.1703],[77.45645,28.16485],[77.45596,28.16132],[77.46113,28.15838],[77.4779,28.17174],[77.4852,28.17588],[77.51541,28.17132],[77.51946,28.16736],[77.52125,28.15924],[77.52114,28.15921],[77.50844,28.15734],[77.50589,28.1542],[77.50478,28.14014],[77.49935,28.13872],[77.49673,28.13576],[77.49744,28.13311],[77.50796,28.13001],[77.50914,28.12169],[77.50887,28.11692],[77.50084,28.10704],[77.5027,28.1025],[77.50318,28.0966],[77.50174,28.09234],[77.49957,28.08961],[77.49545,28.09172],[77.49223,28.10219],[77.48766,28.10231],[77.48422,28.09863],[77.4825,28.09806],[77.47828,28.08034],[77.47942,28.07807],[77.48112,28.07309],[77.48622,28.06765],[77.49227,28.05504],[77.49222,28.05198],[77.48699,28.04343],[77.48846,28.03848],[77.49906,28.03364],[77.50452,28.02862],[77.5068,28.02496],[77.51111,28.0217],[77.51585,28.01666],[77.5187,28.01203],[77.52121,28.00456],[77.52945,28.00085],[77.54454,27.98762],[77.54145,27.98315],[77.53597,27.97832],[77.52271,27.97175],[77.51886,27.96763],[77.51987,27.96251],[77.52429,27.95979],[77.53828,27.96055],[77.54521,27.95984],[77.5466,27.95206],[77.54539,27.94359],[77.54059,27.93611],[77.52842,27.92618],[77.52299,27.93064],[77.52038,27.93172],[77.51508,27.93044],[77.50699,27.92572],[77.50459,27.92507],[77.50147,27.92611],[77.49979,27.92826],[77.49716,27.93577],[77.49396,27.93823],[77.48685,27.93453],[77.47792,27.92724],[77.47763,27.92621],[77.47978,27.92222],[77.48003,27.91493],[77.4816,27.91352],[77.48378,27.90638],[77.48163,27.89553],[77.47895,27.88905],[77.46758,27.87963],[77.45494,27.87275],[77.45127,27.87282],[77.43942,27.88319],[77.43129,27.88883],[77.42331,27.89087],[77.42137,27.89051],[77.42012,27.88938],[77.41618,27.8835],[77.41316,27.88096],[77.41059,27.87626],[77.41357,27.87018],[77.41418,27.8661],[77.41534,27.86402],[77.42273,27.85695],[77.42345,27.85504],[77.42142,27.85342],[77.41279,27.8526],[77.40184,27.85331],[77.39109,27.85747],[77.38289,27.85807],[77.37901,27.85751],[77.37381,27.85497],[77.36163,27.85083],[77.35303,27.85339],[77.34829,27.85398],[77.34163,27.84928],[77.34016,27.84708],[77.3382,27.84639],[77.33086,27.85109],[77.32452,27.85677],[77.32444,27.87021],[77.32186,27.87495],[77.30722,27.88767],[77.29701,27.89086],[77.29701,27.89086],[77.28771,27.8716],[77.28374,27.86964],[77.27311,27.87151],[77.2632,27.87594],[77.2586,27.87721],[77.2484,27.8858],[77.23741,27.89105],[77.23345,27.89458],[77.22232,27.91246],[77.21688,27.91887],[77.21008,27.92456],[77.2057,27.92988],[77.19827,27.93614],[77.19471,27.94059],[77.18834,27.94306],[77.18618,27.94137],[77.18492,27.93708],[77.18235,27.93466],[77.1774,27.93752],[77.17656,27.93953],[77.17372,27.94185],[77.16641,27.94096],[77.16139,27.94291],[77.15862,27.94826],[77.1524,27.95156],[77.15045,27.95348],[77.1484,27.95631],[77.1465,27.96335],[77.13794,27.96317],[77.13331,27.96062],[77.12075,27.96077],[77.11056,27.96629],[77.10517,27.96785],[77.10212,27.97063],[77.08872,27.97936],[77.07448,27.98616],[77.07817,27.99349],[77.08399,27.99984],[77.10227,28.00528],[77.10865,28.00841],[77.11044,28.01187],[77.10786,28.01573],[77.10407,28.01828],[77.10395,28.0199],[77.10915,28.02251],[77.1128,28.02687],[77.11186,28.03284],[77.11237,28.03804],[77.11532,28.04624],[77.1118,28.05335],[77.10521,28.05628],[77.10048,28.06399],[77.11571,28.06848],[77.12066,28.06683],[77.13161,28.07252],[77.13232,28.08331],[77.14043,28.0979],[77.13819,28.10594],[77.14279,28.10966],[77.14614,28.11428],[77.145,28.12178],[77.13401,28.12521],[77.13287,28.13091],[77.14327,28.14153],[77.14648,28.14712],[77.14926,28.15577],[77.16249,28.16214],[77.1648,28.16928],[77.16291,28.17443],[77.16343,28.18076],[77.16574,28.18315],[77.17462,28.18237],[77.18314,28.18002],[77.19306,28.1805],[77.19306,28.1805],[77.197,28.19347],[77.19296,28.19708],[77.18678,28.19911],[77.17866,28.19953],[77.178,28.20416],[77.18037,28.21106],[77.1847,28.21477],[77.19731,28.22179],[77.20035,28.22582],[77.19796,28.23016],[77.19665,28.23952],[77.19939,28.24482],[77.20582,28.24806],[77.21044,28.25039],[77.21145,28.25523],[77.2144,28.26013],[77.22878,28.26371],[77.2282,28.26404],[77.23919,28.26866],[77.25326,28.25964],[77.25842,28.25771],[77.25951,28.25975],[77.25933,28.2678],[77.26041,28.27033],[77.26609,28.27093],[77.27409,28.26906],[77.27982,28.26714],[77.28055,28.2596]]]}}]}