{"type":"FeatureCollection","features":[{"type":"Feature","properties":{"id":"panipat","name":"Panipat","stateId":"haryana","stateName":"Haryana","censuscode":75,"type":"district"},"geometry":{"type":"Polygon","coordinates":[[[76.80609,29.4819],[76.82288,29.47295],[76.82668,29.47093],[76.83699,29.46911],[76.85655,29.47811],[76.85937,29.48658],[76.85937,29.48659],[76.8687,29.49044],[76.88426,29.48781],[76.88946,29.48507],[76.89463,29.47949],[76.90246,29.46801],[76.91078,29.47412],[76.91763,29.48085],[76.92796,29.47821],[76.93691,29.47618],[76.93287,29.47033],[76.94787,29.46475],[76.95483,29.45847],[76.96353,29.45808],[76.97912,29.46708],[76.99282,29.45776],[77.00055,29.45117],[77.01573,29.44687],[77.02954,29.44722],[77.04486,29.44979],[77.06339,29.44422],[77.07659,29.44066],[77.09567,29.44204],[77.12079,29.44384],[77.13464,29.44833],[77.13536,29.44793],[77.14322,29.44547],[77.14898,29.44155],[77.15062,29.43707],[77.14968,29.43182],[77.14698,29.42718],[77.13605,29.41714],[77.13704,29.4056],[77.14025,29.39745],[77.14461,29.39339],[77.15122,29.38967],[77.15712,29.38742],[77.15794,29.38472],[77.14979,29.37885],[77.14218,29.37565],[77.13158,29.37372],[77.12804,29.37163],[77.1278,29.36754],[77.12992,29.35692],[77.12859,29.3521],[77.1311,29.34474],[77.13475,29.33992],[77.13865,29.33929],[77.15752,29.33998],[77.16293,29.3342],[77.16502,29.33039],[77.16107,29.3266],[77.16209,29.32042],[77.16464,29.31716],[77.16524,29.31182],[77.15331,29.29641],[77.15536,29.2911],[77.14859,29.28237],[77.14044,29.26769],[77.14593,29.26138],[77.15339,29.24648],[77.15493,29.23821],[77.1537,29.23266],[77.13808,29.22302],[77.13609,29.21975],[77.13857,29.2133],[77.14348,29.20799],[77.147,29.20232],[77.14898,29.19592],[77.15079,29.17693],[77.1432,29.16665],[77.11414,29.17026],[77.10284,29.16346],[77.09938,29.16531],[77.09267,29.17482],[77.08391,29.18185],[77.06861,29.17712],[77.06159,29.17685],[77.04904,29.1878],[77.03993,29.18417],[77.02936,29.18291],[77.02007,29.18835],[77.01189,29.19147],[77.01057,29.19524],[77.01389,29.2169],[77.00915,29.22013],[77.0008,29.21887],[76.99672,29.21747],[76.98207,29.2163],[76.97463,29.21682],[76.96586,29.21929],[76.95748,29.21365],[76.95075,29.21007],[76.93861,29.2094],[76.92957,29.215],[76.91592,29.2192],[76.90447,29.21672],[76.8938,29.21016],[76.88822,29.19745],[76.88398,29.19281],[76.87805,29.19436],[76.86732,29.20217],[76.86741,29.20414],[76.83923,29.20603],[76.82748,29.20891],[76.80113,29.22653],[76.7966,29.24169],[76.79363,29.26123],[76.79111,29.27003],[76.78569,29.27373],[76.7767,29.27736],[76.76614,29.27737],[76.75732,29.27337],[76.7423,29.26079],[76.71121,29.25105],[76.70092,29.26294],[76.68197,29.27032],[76.68089,29.2772],[76.66363,29.28041],[76.65273,29.28771],[76.64755,29.29001],[76.64222,29.29478],[76.63977,29.31118],[76.63528,29.31647],[76.64227,29.33216],[76.64678,29.33824],[76.64844,29.34572],[76.64735,29.35663],[76.64763,29.36345],[76.64999,29.36879],[76.65668,29.37191],[76.66777,29.37343],[76.67199,29.37748],[76.68137,29.3778],[76.69085,29.38009],[76.69573,29.38512],[76.70932,29.38345],[76.71982,29.38866],[76.72778,29.38951],[76.73362,29.39257],[76.73429,29.39845],[76.73656,29.40685],[76.73382,29.41542],[76.73608,29.42342],[76.74326,29.43292],[76.74849,29.4431],[76.75031,29.45202],[76.75558,29.46642],[76.77106,29.47175],[76.78416,29.46752],[76.7927,29.46906],[76.7975,29.47795],[76.80609,29.48188],[76.80609,29.48188],[76.80609,29.4819]]]}}]}