{"type":"FeatureCollection","features":[{"type":"Feature","properties":{"id":"rewari","name":"Rewari","stateId":"haryana","stateName":"Haryana","censuscode":85,"type":"district"},"geometry":{"type":"Polygon","coordinates":[[[76.39312,28.46817],[76.39868,28.46707],[76.40559,28.46723],[76.40908,28.46608],[76.41064,28.46001],[76.42304,28.46151],[76.43202,28.46171],[76.43831,28.45941],[76.43515,28.44895],[76.44214,28.44605],[76.44232,28.43995],[76.44391,28.43265],[76.44959,28.42728],[76.46896,28.42649],[76.48326,28.43414],[76.48739,28.43484],[76.49711,28.43322],[76.51527,28.42629],[76.519,28.41659],[76.51843,28.4123],[76.51869,28.40315],[76.52505,28.39779],[76.53883,28.39931],[76.54644,28.39886],[76.5521,28.3941],[76.55229,28.38738],[76.55928,28.38448],[76.56268,28.38638],[76.56736,28.39198],[76.57063,28.39877],[76.57747,28.40136],[76.58988,28.40224],[76.59333,28.40232],[76.59678,28.40239],[76.60451,28.40386],[76.60945,28.42014],[76.61399,28.42715],[76.61514,28.42892],[76.62185,28.42811],[76.62998,28.42424],[76.63789,28.41835],[76.64564,28.40964],[76.6519,28.40108],[76.65963,28.39577],[76.66453,28.38917],[76.66716,28.38078],[76.66511,28.37149],[76.66033,28.35907],[76.66339,28.34947],[76.66194,28.34183],[76.66188,28.33296],[76.65787,28.32456],[76.65742,28.32042],[76.6616,28.3177],[76.67634,28.31694],[76.68629,28.31499],[76.6854,28.30286],[76.67708,28.27455],[76.68209,28.26284],[76.68724,28.26154],[76.6946,28.2624],[76.70236,28.26036],[76.71106,28.26223],[76.72224,28.26245],[76.73267,28.25565],[76.73851,28.25325],[76.75675,28.24792],[76.77017,28.24078],[76.77218,28.23459],[76.7789,28.22676],[76.7829,28.22582],[76.78595,28.22916],[76.79093,28.23731],[76.79802,28.24588],[76.80489,28.24875],[76.80424,28.24786],[76.83202,28.24422],[76.83587,28.24191],[76.85494,28.23456],[76.85555,28.23432],[76.86341,28.22005],[76.85956,28.22148],[76.84247,28.21966],[76.83626,28.21232],[76.83285,28.20953],[76.82797,28.20952],[76.82222,28.21116],[76.81481,28.21073],[76.81038,28.20645],[76.81146,28.19948],[76.81458,28.19522],[76.81159,28.19091],[76.80685,28.18923],[76.80281,28.1944],[76.79919,28.18862],[76.80117,28.17778],[76.80122,28.17051],[76.80507,28.16532],[76.80039,28.15208],[76.79195,28.15053],[76.78181,28.14628],[76.77103,28.14489],[76.76393,28.14149],[76.74794,28.12393],[76.74177,28.12346],[76.7404,28.12334],[76.72884,28.12643],[76.71874,28.12727],[76.71778,28.12629],[76.7142,28.12264],[76.7075,28.11062],[76.69899,28.10972],[76.69824,28.10842],[76.69438,28.10181],[76.69088,28.0927],[76.6866,28.09274],[76.67262,28.09279],[76.66668,28.09402],[76.65989,28.09171],[76.65652,28.08716],[76.65561,28.08007],[76.65668,28.07404],[76.65654,28.06262],[76.65755,28.05666],[76.66025,28.05042],[76.65958,28.0394],[76.662,28.03486],[76.66821,28.02861],[76.67004,28.02424],[76.67099,28.01786],[76.66864,28.01398],[76.66311,28.01051],[76.65524,28.00755],[76.6454,28.00562],[76.63384,28.00543],[76.62448,28.00627],[76.61241,28.00577],[76.60745,28.00482],[76.60371,28.00114],[76.60021,27.99866],[76.59228,27.99531],[76.58572,27.98987],[76.58225,27.98403],[76.57591,27.97859],[76.56818,27.9768],[76.56182,27.97005],[76.55498,27.9664],[76.54655,27.96558],[76.54186,27.96877],[76.53941,27.97438],[76.54033,27.98075],[76.54394,27.9881],[76.54483,27.99977],[76.54687,28.00041],[76.54615,28.00255],[76.54705,28.0071],[76.54699,28.01173],[76.54397,28.02077],[76.54699,28.03416],[76.53971,28.03817],[76.53434,28.04052],[76.52704,28.03403],[76.51984,28.03043],[76.51366,28.03012],[76.50793,28.03145],[76.50691,28.03528],[76.50448,28.03873],[76.50065,28.0422],[76.4915,28.04144],[76.48413,28.03918],[76.47009,28.0397],[76.46414,28.04162],[76.46213,28.04481],[76.46242,28.05021],[76.4664,28.05711],[76.47973,28.05623],[76.49226,28.05339],[76.49802,28.05435],[76.503,28.05617],[76.50612,28.05983],[76.50385,28.06274],[76.49436,28.07023],[76.47836,28.08145],[76.47209,28.07921],[76.46726,28.08014],[76.46189,28.08294],[76.45704,28.08833],[76.45968,28.09281],[76.46239,28.10104],[76.46537,28.10554],[76.46944,28.10705],[76.47474,28.10812],[76.48106,28.10785],[76.4858,28.10112],[76.49726,28.09985],[76.50633,28.10173],[76.50583,28.11109],[76.50663,28.11766],[76.49544,28.11793],[76.4943,28.12325],[76.4983,28.12881],[76.49365,28.13003],[76.49185,28.12998],[76.48579,28.12981],[76.48174,28.13088],[76.47851,28.13365],[76.48091,28.14475],[76.47957,28.14989],[76.47376,28.15076],[76.46965,28.14753],[76.46461,28.1466],[76.44566,28.14734],[76.43989,28.14276],[76.43582,28.14113],[76.42076,28.14269],[76.40553,28.14301],[76.4015,28.13627],[76.39698,28.13476],[76.39249,28.1351],[76.38523,28.13331],[76.36828,28.13864],[76.36585,28.14312],[76.36444,28.15506],[76.36172,28.16146],[76.35108,28.16922],[76.34439,28.17264],[76.33442,28.17274],[76.31717,28.17869],[76.31635,28.1788],[76.31658,28.18259],[76.31608,28.18582],[76.31581,28.18762],[76.31187,28.19111],[76.30793,28.19818],[76.30999,28.20227],[76.31064,28.20467],[76.31691,28.20497],[76.31975,28.20516],[76.32544,28.20887],[76.33195,28.22389],[76.34534,28.22328],[76.34733,28.22599],[76.35027,28.23604],[76.35195,28.2418],[76.3517,28.24553],[76.35151,28.24835],[76.35212,28.25303],[76.35362,28.25901],[76.3518,28.26447],[76.34644,28.27041],[76.35577,28.28118],[76.35373,28.29233],[76.35294,28.29663],[76.35003,28.30363],[76.35316,28.31022],[76.36105,28.31371],[76.36329,28.32211],[76.37098,28.32522],[76.36647,28.34119],[76.35958,28.34608],[76.35958,28.34609],[76.35957,28.34609],[76.34808,28.36444],[76.33082,28.36458],[76.32834,28.37197],[76.32452,28.37341],[76.3064,28.37683],[76.30052,28.38266],[76.29945,28.39074],[76.30265,28.40221],[76.28699,28.40363],[76.28465,28.40602],[76.2843,28.40851],[76.28872,28.41708],[76.29065,28.42339],[76.29067,28.4253],[76.29968,28.42509],[76.30018,28.43182],[76.30492,28.43499],[76.30905,28.4357],[76.3117,28.43942],[76.31514,28.44011],[76.31795,28.43835],[76.31881,28.43287],[76.32508,28.43118],[76.33127,28.43193],[76.33464,28.43506],[76.33457,28.43751],[76.33377,28.44115],[76.33299,28.44419],[76.33281,28.4503],[76.33479,28.4534],[76.33892,28.4541],[76.3395,28.45778],[76.34005,28.46268],[76.34277,28.46396],[76.34635,28.45977],[76.34586,28.45304],[76.34813,28.44637],[76.34891,28.44333],[76.34831,28.44027],[76.34981,28.43602],[76.35894,28.43134],[76.36515,28.43149],[76.37562,28.42806],[76.38235,28.43432],[76.39262,28.43761],[76.39937,28.44326],[76.39719,28.44688],[76.39361,28.45107],[76.39351,28.45474],[76.38862,28.45646],[76.38504,28.46065],[76.38492,28.46493],[76.39312,28.46817]]]}}]}