{"type":"FeatureCollection","features":[{"type":"Feature","properties":{"id":"rohtak","name":"Rohtak","stateId":"haryana","stateName":"Haryana","censuscode":82,"type":"district"},"geometry":{"type":"Polygon","coordinates":[[[76.55426,29.08551],[76.56694,29.06675],[76.57186,29.06322],[76.58999,29.06442],[76.61177,29.06041],[76.6331,29.06043],[76.63908,29.05859],[76.63932,29.0559],[76.65089,29.05907],[76.65689,29.06302],[76.66641,29.06552],[76.6787,29.06271],[76.69296,29.05151],[76.70095,29.04631],[76.70634,29.04029],[76.72238,29.02758],[76.7287,29.01928],[76.73245,29.00939],[76.73263,29.0025],[76.73292,28.99177],[76.73152,28.97872],[76.72974,28.96776],[76.74365,28.95986],[76.7577,28.9636],[76.76643,28.9581],[76.77742,28.94577],[76.77885,28.94449],[76.7756,28.94086],[76.78371,28.9273],[76.79122,28.92572],[76.81292,28.92828],[76.81883,28.92829],[76.82752,28.92071],[76.82555,28.91359],[76.8272,28.90352],[76.81949,28.89093],[76.82018,28.88533],[76.81223,28.86456],[76.81933,28.85914],[76.84583,28.86115],[76.85887,28.86106],[76.86435,28.86192],[76.86821,28.86627],[76.87991,28.86937],[76.89193,28.86796],[76.90288,28.86207],[76.88659,28.83499],[76.8779,28.83305],[76.86669,28.82394],[76.86415,28.81797],[76.84556,28.80812],[76.83074,28.80901],[76.82718,28.81665],[76.82166,28.82187],[76.79895,28.81549],[76.79452,28.80474],[76.81293,28.79503],[76.82262,28.78456],[76.80355,28.76759],[76.79648,28.755],[76.78536,28.74293],[76.77864,28.74279],[76.76701,28.75026],[76.76947,28.7592],[76.76527,28.76563],[76.75378,28.76777],[76.74191,28.75864],[76.72911,28.75957],[76.71076,28.76689],[76.7116,28.78587],[76.69007,28.78602],[76.67509,28.79282],[76.67222,28.79987],[76.67188,28.8123],[76.66234,28.81685],[76.65179,28.83381],[76.64699,28.83726],[76.64169,28.83419],[76.63386,28.82514],[76.63541,28.81747],[76.64782,28.80647],[76.64524,28.80227],[76.63674,28.7932],[76.62951,28.78712],[76.61333,28.78856],[76.60137,28.78297],[76.59713,28.77543],[76.59604,28.75715],[76.59009,28.74157],[76.57591,28.73565],[76.5486,28.74349],[76.53574,28.74743],[76.52641,28.7388],[76.50093,28.73824],[76.47063,28.73898],[76.45314,28.73719],[76.42958,28.72542],[76.41851,28.72237],[76.42055,28.70696],[76.41781,28.69145],[76.40701,28.68222],[76.40588,28.68125],[76.39829,28.68752],[76.39795,28.6878],[76.39795,28.6878],[76.38396,28.69936],[76.3808,28.70361],[76.38053,28.70909],[76.3868,28.71874],[76.38775,28.72298],[76.39366,28.72901],[76.40076,28.73317],[76.40578,28.75147],[76.39083,28.77094],[76.38752,28.7731],[76.35009,28.79752],[76.33258,28.80552],[76.33223,28.80884],[76.33188,28.82082],[76.33695,28.82647],[76.34295,28.83583],[76.3458,28.84604],[76.35183,28.85447],[76.35988,28.86572],[76.35862,28.87307],[76.32865,28.89428],[76.3002,28.90456],[76.29185,28.8759],[76.29037,28.87522],[76.28633,28.89576],[76.27673,28.89948],[76.25646,28.9013],[76.23707,28.90131],[76.23278,28.90533],[76.22983,28.93718],[76.21548,28.95317],[76.21344,28.95837],[76.21163,28.96298],[76.21257,28.96499],[76.21995,28.98088],[76.2398,28.99675],[76.23888,29.01342],[76.23457,29.05238],[76.24102,29.054],[76.25393,29.05724],[76.27374,29.06136],[76.28056,29.06881],[76.28249,29.06908],[76.28719,29.06973],[76.29064,29.07413],[76.29195,29.07838],[76.30151,29.08679],[76.33233,29.08745],[76.34085,29.0859],[76.3514,29.08672],[76.38103,29.0731],[76.39069,29.07439],[76.39626,29.07797],[76.40485,29.08088],[76.41205,29.07923],[76.42418,29.07156],[76.4307,29.06533],[76.44012,29.06114],[76.44647,29.05991],[76.45548,29.06239],[76.46123,29.06648],[76.4726,29.08335],[76.47911,29.09634],[76.48732,29.09127],[76.49869,29.08286],[76.50551,29.08079],[76.51242,29.08053],[76.52001,29.08508],[76.52684,29.09231],[76.54011,29.1043],[76.54596,29.09882],[76.55061,29.09239],[76.55426,29.08551]]]}}]}