{"type":"FeatureCollection","features":[{"type":"Feature","properties":{"id":"almora","name":"Almora","stateId":"uttarakhand","stateName":"Uttarakhand","censuscode":64,"type":"district"},"geometry":{"type":"Polygon","coordinates":[[[79.89642,29.70153],[79.89642,29.70152],[79.89719,29.7003],[79.90106,29.6979],[79.91282,29.69551],[79.9182,29.69508],[79.92267,29.6969],[79.93443,29.6907],[79.94242,29.6827],[79.94532,29.68498],[79.95088,29.68265],[79.9564,29.67899],[79.95917,29.6723],[79.95838,29.66793],[79.96214,29.66493],[79.96227,29.66062],[79.9595,29.65668],[79.96257,29.65235],[79.96735,29.6478],[79.97861,29.62759],[79.98373,29.62015],[79.98589,29.61132],[79.99072,29.60221],[79.99323,29.59414],[79.99418,29.58632],[79.99601,29.57956],[80.00001,29.56791],[80.00267,29.56015],[80.00544,29.55457],[80.00969,29.54844],[80.01538,29.54633],[80.02283,29.54698],[80.02988,29.54592],[80.04434,29.54294],[80.05258,29.53996],[80.05734,29.5366],[80.06184,29.53453],[80.06421,29.53108],[80.06481,29.52636],[80.06583,29.52439],[80.07039,29.52338],[80.07184,29.52077],[80.07249,29.51961],[80.07261,29.51625],[80.06508,29.5115],[80.04203,29.50586],[80.03201,29.50555],[80.02974,29.50321],[80.02737,29.49717],[80.0238,29.49573],[80.01677,29.49078],[80.01091,29.48953],[80.00749,29.48676],[80.00397,29.48739],[80.00001,29.48581],[79.99441,29.48755],[79.99071,29.48788],[79.98677,29.48538],[79.97933,29.48376],[79.97604,29.48008],[79.9608,29.47526],[79.9448,29.47751],[79.92747,29.47418],[79.92171,29.47435],[79.91988,29.47888],[79.91539,29.48493],[79.91215,29.4876],[79.90806,29.48911],[79.89752,29.48622],[79.8869,29.48206],[79.87698,29.4731],[79.87133,29.46236],[79.86705,29.45619],[79.86755,29.45457],[79.86174,29.44881],[79.85818,29.45207],[79.8542,29.45395],[79.85128,29.45204],[79.84888,29.44351],[79.84948,29.4379],[79.85197,29.43436],[79.84874,29.43071],[79.84553,29.42845],[79.83727,29.42609],[79.8287,29.42683],[79.8177,29.43388],[79.80963,29.43764],[79.7977,29.43826],[79.78714,29.44938],[79.77678,29.44979],[79.76974,29.44753],[79.76666,29.43645],[79.76376,29.43405],[79.74947,29.43228],[79.74426,29.43071],[79.74007,29.4317],[79.7342,29.43445],[79.72915,29.43996],[79.7287,29.44731],[79.73212,29.46128],[79.71866,29.45754],[79.71318,29.46023],[79.70819,29.46131],[79.69513,29.46885],[79.691,29.47334],[79.6829,29.48824],[79.68001,29.49654],[79.68281,29.50538],[79.68452,29.51615],[79.68278,29.52182],[79.67838,29.52705],[79.67237,29.5306],[79.66769,29.53221],[79.66729,29.53668],[79.66351,29.54014],[79.65253,29.54275],[79.646,29.54612],[79.63555,29.54155],[79.62757,29.54926],[79.6224,29.55264],[79.61519,29.55426],[79.59704,29.54867],[79.59108,29.54814],[79.57762,29.54047],[79.55817,29.53813],[79.549,29.53892],[79.5492,29.54939],[79.54531,29.54974],[79.54032,29.54537],[79.53739,29.54418],[79.53357,29.54551],[79.53004,29.54557],[79.52758,29.5403],[79.52719,29.53334],[79.52319,29.51977],[79.51826,29.51402],[79.51483,29.50851],[79.5014,29.49912],[79.49602,29.49939],[79.47912,29.49414],[79.48095,29.50158],[79.47836,29.50712],[79.47388,29.50837],[79.46891,29.50848],[79.46326,29.51638],[79.45464,29.51586],[79.44868,29.51985],[79.44486,29.52738],[79.44036,29.5341],[79.40892,29.55927],[79.40371,29.56137],[79.39484,29.57274],[79.39109,29.574],[79.38686,29.57963],[79.37911,29.58745],[79.36913,29.58896],[79.36306,29.59433],[79.35807,29.5954],[79.35404,29.59368],[79.35402,29.6012],[79.35075,29.6042],[79.3411,29.60882],[79.33567,29.60891],[79.32777,29.60419],[79.30869,29.59905],[79.30041,29.59116],[79.28954,29.58507],[79.28551,29.57741],[79.27947,29.57489],[79.27327,29.57089],[79.26917,29.56415],[79.25878,29.55674],[79.25456,29.55258],[79.24773,29.54114],[79.24313,29.53624],[79.23871,29.53208],[79.23339,29.52952],[79.22788,29.52421],[79.22317,29.52125],[79.2145,29.52225],[79.20333,29.52161],[79.19693,29.5238],[79.18127,29.53095],[79.17425,29.53209],[79.16724,29.53209],[79.15505,29.53487],[79.14762,29.53773],[79.14571,29.54672],[79.14332,29.55058],[79.13814,29.55066],[79.13327,29.54777],[79.11902,29.54618],[79.11211,29.54756],[79.11088,29.55841],[79.1056,29.55825],[79.10018,29.5615],[79.09229,29.56683],[79.08048,29.57783],[79.07154,29.57871],[79.06104,29.57822],[79.04933,29.57997],[79.04081,29.58262],[79.03673,29.58549],[79.04542,29.58731],[79.05711,29.58648],[79.06176,29.58715],[79.06387,29.5927],[79.06275,29.59866],[79.06343,29.60414],[79.06712,29.60685],[79.07035,29.61249],[79.07088,29.61831],[79.08123,29.61597],[79.08785,29.61895],[79.09227,29.62398],[79.08255,29.63364],[79.0799,29.6382],[79.08656,29.65695],[79.08966,29.66166],[79.09888,29.67136],[79.10104,29.67129],[79.10478,29.65951],[79.10867,29.6613],[79.11184,29.66539],[79.11125,29.67158],[79.11764,29.68153],[79.11641,29.6899],[79.11199,29.69126],[79.10926,29.69306],[79.10787,29.69648],[79.11548,29.70512],[79.12171,29.70805],[79.12319,29.71803],[79.12144,29.71943],[79.1179,29.71989],[79.11879,29.7241],[79.11237,29.72963],[79.11134,29.73483],[79.11224,29.7413],[79.11487,29.7502],[79.11546,29.75919],[79.11475,29.76699],[79.11948,29.7669],[79.12355,29.76968],[79.12726,29.77411],[79.12961,29.78042],[79.12878,29.78506],[79.12184,29.803],[79.12335,29.80825],[79.11329,29.82954],[79.10806,29.83439],[79.10408,29.83627],[79.10332,29.84528],[79.08659,29.85632],[79.07861,29.85946],[79.07011,29.86109],[79.07765,29.87255],[79.08309,29.88472],[79.08893,29.88827],[79.0938,29.88934],[79.10755,29.88981],[79.11385,29.89221],[79.12024,29.89502],[79.12447,29.89895],[79.1278,29.90453],[79.14079,29.90647],[79.1497,29.90922],[79.16433,29.91597],[79.17283,29.90744],[79.18006,29.9087],[79.1908,29.91861],[79.19219,29.92117],[79.19341,29.94102],[79.19629,29.94464],[79.20384,29.9393],[79.20722,29.93792],[79.22378,29.94555],[79.22936,29.94737],[79.23376,29.95836],[79.23442,29.96545],[79.23121,29.97144],[79.22836,29.9776],[79.23835,29.97598],[79.24456,29.97165],[79.25462,29.96211],[79.26318,29.96276],[79.27174,29.96066],[79.2745,29.95961],[79.28732,29.95155],[79.28604,29.92679],[79.3122,29.92986],[79.31909,29.92628],[79.32642,29.92922],[79.32834,29.93736],[79.33498,29.94143],[79.33499,29.94447],[79.32843,29.96295],[79.33037,29.97],[79.33458,29.97214],[79.33992,29.97084],[79.34444,29.96723],[79.34802,29.96239],[79.35056,29.9568],[79.35667,29.9497],[79.35977,29.94204],[79.36758,29.93825],[79.37061,29.93106],[79.37489,29.92704],[79.38924,29.9295],[79.40953,29.94131],[79.41377,29.94263],[79.41713,29.94171],[79.42337,29.93514],[79.4256,29.9346],[79.43015,29.93673],[79.43304,29.94413],[79.43777,29.95116],[79.45064,29.95698],[79.44941,29.96387],[79.46505,29.97227],[79.46836,29.97652],[79.46996,29.98069],[79.47021,29.98259],[79.47023,29.98258],[79.4741,29.98048],[79.48814,29.97285],[79.4911,29.96947],[79.49069,29.967],[79.48704,29.9593],[79.48789,29.95647],[79.49349,29.94907],[79.49719,29.94598],[79.50034,29.94562],[79.50603,29.94088],[79.51205,29.93266],[79.50375,29.93291],[79.50283,29.92824],[79.50464,29.9223],[79.50543,29.90802],[79.50315,29.9006],[79.49511,29.8885],[79.50564,29.88148],[79.50871,29.87518],[79.50841,29.87161],[79.51009,29.87125],[79.53008,29.86234],[79.54499,29.86329],[79.55047,29.8569],[79.55877,29.8561],[79.57079,29.84213],[79.59358,29.84152],[79.6109,29.84296],[79.62234,29.84189],[79.63425,29.82792],[79.63289,29.82572],[79.64751,29.81614],[79.65128,29.82045],[79.66029,29.82541],[79.6753,29.82745],[79.68256,29.81859],[79.69084,29.82602],[79.70699,29.81905],[79.71459,29.81325],[79.72112,29.80676],[79.69337,29.77916],[79.68909,29.77018],[79.69574,29.76272],[79.71055,29.74825],[79.71725,29.75119],[79.71832,29.74286],[79.71205,29.73534],[79.71488,29.73269],[79.72274,29.73664],[79.73126,29.72879],[79.74104,29.71498],[79.7395,29.70234],[79.74844,29.68981],[79.75483,29.69037],[79.75746,29.68662],[79.76616,29.68929],[79.78514,29.68977],[79.79499,29.69235],[79.80811,29.68751],[79.81367,29.69318],[79.8174,29.6967],[79.82926,29.7053],[79.83808,29.69972],[79.85245,29.69589],[79.87123,29.68465],[79.87647,29.69106],[79.89639,29.70151],[79.89642,29.70153]]]}}]}