{"type":"FeatureCollection","features":[{"type":"Feature","properties":{"id":"champawat","name":"Champawat","stateId":"uttarakhand","stateName":"Uttarakhand","censuscode":65,"type":"district"},"geometry":{"type":"Polygon","coordinates":[[[80.24659,29.4426],[80.24637,29.44102],[80.24633,29.44074],[80.24626,29.4397],[80.24626,29.43743],[80.24709,29.43291],[80.24761,29.4327],[80.2482,29.43057],[80.24886,29.42594],[80.24888,29.41983],[80.24764,29.41462],[80.24821,29.40991],[80.24876,29.40935],[80.24891,29.40807],[80.25641,29.40468],[80.26029,29.40197],[80.26082,29.40086],[80.26849,29.3974],[80.2715,29.39688],[80.27345,29.39702],[80.27627,29.39569],[80.2768,29.395],[80.27756,29.39408],[80.27946,29.38777],[80.28016,29.38327],[80.28047,29.38157],[80.28112,29.37376],[80.27862,29.37136],[80.27569,29.36924],[80.27507,29.36788],[80.27534,29.36494],[80.2805,29.36155],[80.2805,29.36109],[80.28103,29.36066],[80.28307,29.35907],[80.2836,29.35862],[80.28423,29.35683],[80.28494,29.34567],[80.28541,29.34372],[80.29136,29.34056],[80.29212,29.34079],[80.2947,29.34033],[80.2951,29.33964],[80.29705,29.33356],[80.29681,29.32678],[80.30173,29.32487],[80.30299,29.32431],[80.30542,29.324],[80.31122,29.32542],[80.31226,29.32521],[80.31392,29.32458],[80.31522,29.32352],[80.31664,29.32251],[80.31673,29.31732],[80.31676,29.31611],[80.31729,29.31284],[80.31861,29.30807],[80.3195,29.30487],[80.31939,29.29953],[80.319,29.29788],[80.31127,29.2913],[80.30795,29.28295],[80.30724,29.27456],[80.30468,29.26418],[80.30317,29.25288],[80.30312,29.25066],[80.30305,29.24747],[80.30357,29.24723],[80.3041,29.24566],[80.30423,29.24113],[80.29947,29.23684],[80.2978,29.23594],[80.29757,29.23502],[80.29809,29.22124],[80.29991,29.21627],[80.30041,29.21603],[80.30146,29.21514],[80.30302,29.20702],[80.30329,29.20295],[80.30296,29.20121],[80.30225,29.19842],[80.29843,29.19482],[80.29688,29.19459],[80.29174,29.19571],[80.28933,29.19697],[80.28836,29.19922],[80.28783,29.19944],[80.28631,29.20537],[80.28502,29.20633],[80.284,29.20705],[80.28348,29.20743],[80.28245,29.20766],[80.27517,29.20761],[80.27244,29.20788],[80.26472,29.21058],[80.26446,29.2115],[80.26393,29.2117],[80.26161,29.2185],[80.26057,29.21894],[80.25771,29.21985],[80.25414,29.21915],[80.25349,29.21871],[80.25284,29.21713],[80.25045,29.20246],[80.25119,29.20128],[80.25566,29.19723],[80.25721,29.19634],[80.25933,29.19343],[80.26012,29.19297],[80.26166,29.19159],[80.26193,29.1907],[80.26269,29.19024],[80.26402,29.1873],[80.26476,29.18528],[80.2658,29.17963],[80.26581,29.1758],[80.26379,29.17127],[80.26341,29.16473],[80.26588,29.16223],[80.26664,29.15952],[80.26742,29.1592],[80.26749,29.15809],[80.26788,29.15724],[80.26826,29.15661],[80.26903,29.15596],[80.26986,29.1547],[80.27044,29.15381],[80.27151,29.15291],[80.27427,29.14913],[80.27415,29.14507],[80.27362,29.14437],[80.27209,29.14348],[80.26713,29.14203],[80.26306,29.14026],[80.26077,29.13866],[80.25569,29.1359],[80.25451,29.13487],[80.25272,29.13374],[80.25017,29.13156],[80.24287,29.12062],[80.24081,29.11903],[80.24032,29.11881],[80.23288,29.11971],[80.23082,29.12017],[80.23021,29.12017],[80.22607,29.11961],[80.22505,29.11984],[80.2195,29.11924],[80.21821,29.11992],[80.21393,29.1218],[80.21286,29.12202],[80.21026,29.12329],[80.21026,29.12398],[80.20948,29.12555],[80.20636,29.12826],[80.20124,29.1296],[80.19996,29.1294],[80.19816,29.13052],[80.1917,29.13276],[80.19016,29.13319],[80.18594,29.13208],[80.18528,29.13185],[80.18437,29.13049],[80.18402,29.12957],[80.17863,29.12505],[80.16965,29.12034],[80.16683,29.11829],[80.1662,29.11823],[80.16311,29.11437],[80.15554,29.12505],[80.1515,29.12728],[80.14801,29.1269],[80.13596,29.12002],[80.12747,29.11745],[80.12222,29.11685],[80.10451,29.11754],[80.09753,29.116],[80.08161,29.12251],[80.07965,29.12032],[80.08333,29.11099],[80.08464,29.10336],[80.07924,29.08378],[80.07423,29.07546],[80.07124,29.07322],[80.06858,29.0734],[80.06569,29.07695],[80.06213,29.08368],[80.05983,29.08535],[80.05681,29.08589],[80.05303,29.08358],[80.04941,29.07984],[80.04102,29.07355],[80.03239,29.07174],[80.02693,29.07295],[80.02186,29.07586],[80.01164,29.08749],[80.00735,29.08951],[80.00434,29.08883],[80.00161,29.08562],[80,29.06872],[79.97177,29.05197],[79.97013,29.05316],[79.96627,29.05597],[79.9618,29.06041],[79.95969,29.06468],[79.95904,29.07139],[79.96129,29.08977],[79.96503,29.1001],[79.9705,29.10685],[79.98024,29.11277],[79.97821,29.11673],[79.97556,29.11878],[79.97089,29.12059],[79.95935,29.12245],[79.94954,29.12584],[79.92356,29.13041],[79.91811,29.12562],[79.91631,29.12502],[79.90187,29.13311],[79.89606,29.14814],[79.88253,29.15274],[79.88004,29.15612],[79.87936,29.15792],[79.87999,29.16946],[79.88214,29.17191],[79.89305,29.17269],[79.90213,29.17848],[79.90293,29.18658],[79.90505,29.19389],[79.91008,29.19625],[79.914,29.19947],[79.91936,29.20552],[79.92524,29.20876],[79.92544,29.21533],[79.92385,29.22015],[79.91491,29.22789],[79.91247,29.23316],[79.90221,29.24929],[79.89784,29.25275],[79.89148,29.25095],[79.88932,29.25099],[79.88203,29.25413],[79.87514,29.2601],[79.86861,29.26003],[79.8664,29.26679],[79.86186,29.26916],[79.85977,29.27317],[79.85512,29.27455],[79.84729,29.27366],[79.82783,29.26672],[79.82476,29.26731],[79.82072,29.27037],[79.81588,29.27533],[79.81409,29.28071],[79.817,29.28551],[79.81432,29.28975],[79.81605,29.29983],[79.81864,29.30515],[79.81814,29.30773],[79.81251,29.31233],[79.8077,29.31468],[79.8065,29.3164],[79.80529,29.32691],[79.79889,29.33483],[79.82085,29.34147],[79.8237,29.33902],[79.82739,29.33734],[79.83262,29.33683],[79.83177,29.3244],[79.83853,29.32229],[79.85335,29.31498],[79.8582,29.31354],[79.8619,29.31507],[79.86401,29.3178],[79.86456,29.32782],[79.86815,29.33211],[79.86914,29.33528],[79.86944,29.34081],[79.87122,29.34451],[79.87744,29.34751],[79.88707,29.34934],[79.89997,29.34811],[79.90165,29.35342],[79.90067,29.35743],[79.89189,29.36814],[79.887,29.36705],[79.87364,29.37035],[79.86022,29.36876],[79.85798,29.36994],[79.85739,29.37974],[79.85049,29.38357],[79.84215,29.39572],[79.83972,29.39702],[79.83625,29.39749],[79.83432,29.40056],[79.83616,29.40508],[79.8523,29.42175],[79.85697,29.42978],[79.85713,29.43288],[79.8549,29.43457],[79.85197,29.43436],[79.84948,29.4379],[79.84888,29.44351],[79.85128,29.45204],[79.8542,29.45395],[79.85818,29.45207],[79.86174,29.44881],[79.86755,29.45457],[79.86705,29.45619],[79.87133,29.46236],[79.87698,29.4731],[79.8869,29.48206],[79.89752,29.48622],[79.90806,29.48911],[79.91215,29.4876],[79.91539,29.48493],[79.91988,29.47888],[79.92171,29.47435],[79.92747,29.47418],[79.9448,29.47751],[79.9608,29.47526],[79.97604,29.48008],[79.97933,29.48376],[79.98677,29.48538],[79.99071,29.48788],[79.99441,29.48755],[80.00001,29.48581],[80.00397,29.48739],[80.00749,29.48676],[80.01091,29.48953],[80.01677,29.49078],[80.0238,29.49573],[80.02737,29.49717],[80.02974,29.50321],[80.03201,29.50555],[80.04203,29.50586],[80.06508,29.5115],[80.07261,29.51625],[80.07249,29.51961],[80.07184,29.52077],[80.07864,29.52314],[80.08448,29.52257],[80.09358,29.52143],[80.10073,29.52654],[80.10658,29.52426],[80.11242,29.51687],[80.12281,29.51174],[80.12801,29.50663],[80.1228,29.49583],[80.12929,29.48844],[80.13643,29.48843],[80.13967,29.48218],[80.14487,29.47876],[80.14616,29.47251],[80.15915,29.47591],[80.1598,29.4725],[80.1585,29.47022],[80.16304,29.46908],[80.16434,29.46567],[80.17343,29.4668],[80.17863,29.46566],[80.17991,29.45827],[80.19486,29.45995],[80.20264,29.45312],[80.21758,29.45367],[80.23704,29.44512],[80.24659,29.4426]]]}}]}