{"type":"FeatureCollection","features":[{"type":"Feature","properties":{"id":"nainital","name":"Nainital","stateId":"uttarakhand","stateName":"Uttarakhand","censuscode":66,"type":"district"},"geometry":{"type":"Polygon","coordinates":[[[79.85197,29.43436],[79.8549,29.43457],[79.85713,29.43288],[79.85697,29.42978],[79.8523,29.42175],[79.83616,29.40508],[79.83432,29.40056],[79.83625,29.39749],[79.83972,29.39702],[79.84215,29.39572],[79.85049,29.38357],[79.85739,29.37974],[79.85798,29.36994],[79.86022,29.36876],[79.87364,29.37035],[79.887,29.36705],[79.89189,29.36814],[79.90067,29.35743],[79.90165,29.35342],[79.89997,29.34811],[79.88707,29.34934],[79.87744,29.34751],[79.87122,29.34451],[79.86944,29.34081],[79.86914,29.33528],[79.86815,29.33211],[79.86456,29.32782],[79.86401,29.3178],[79.8619,29.31507],[79.8582,29.31354],[79.85335,29.31498],[79.83853,29.32229],[79.83177,29.3244],[79.83262,29.33683],[79.82739,29.33734],[79.8237,29.33902],[79.82085,29.34147],[79.79889,29.33483],[79.80529,29.32691],[79.8065,29.3164],[79.8077,29.31468],[79.81251,29.31233],[79.81814,29.30773],[79.81864,29.30515],[79.81605,29.29983],[79.81432,29.28975],[79.817,29.28551],[79.81409,29.28071],[79.81588,29.27533],[79.82072,29.27037],[79.82476,29.26731],[79.82783,29.26672],[79.84729,29.27366],[79.85512,29.27455],[79.85977,29.27317],[79.86186,29.26916],[79.8664,29.26679],[79.86861,29.26003],[79.87514,29.2601],[79.88203,29.25413],[79.88932,29.25099],[79.89148,29.25095],[79.89784,29.25275],[79.90221,29.24929],[79.91247,29.23316],[79.91491,29.22789],[79.92385,29.22015],[79.92544,29.21533],[79.92524,29.20876],[79.91936,29.20552],[79.914,29.19947],[79.91008,29.19625],[79.90505,29.19389],[79.90293,29.18658],[79.90213,29.17848],[79.89305,29.17269],[79.88214,29.17191],[79.87999,29.16946],[79.87936,29.15792],[79.88004,29.15612],[79.88253,29.15274],[79.89606,29.14814],[79.90187,29.13311],[79.91631,29.12502],[79.91811,29.12562],[79.92356,29.13041],[79.94954,29.12584],[79.95935,29.12245],[79.97089,29.12059],[79.97556,29.11878],[79.97821,29.11673],[79.98024,29.11277],[79.9705,29.10685],[79.96503,29.1001],[79.96129,29.08977],[79.95904,29.07139],[79.95969,29.06468],[79.9618,29.06041],[79.96627,29.05597],[79.97013,29.05316],[79.97027,29.05195],[79.96943,29.04956],[79.96797,29.04773],[79.96558,29.04599],[79.9614,29.04599],[79.95806,29.04516],[79.95681,29.04415],[79.95441,29.04479],[79.95128,29.04433],[79.94868,29.04287],[79.94617,29.04222],[79.94385,29.04234],[79.93762,29.04231],[79.93345,29.03956],[79.93209,29.038],[79.92824,29.03708],[79.92469,29.03213],[79.92314,29.03118],[79.92,29.03002],[79.91541,29.03268],[79.91405,29.03249],[79.91343,29.0313],[79.91374,29.0291],[79.91312,29.02773],[79.91072,29.02699],[79.90822,29.02488],[79.90353,29.01782],[79.90228,29.01663],[79.90207,29.01434],[79.90239,29.01259],[79.90124,29.01113],[79.90187,29.00929],[79.90364,29.00865],[79.90427,29.0071],[79.90375,29.00544],[79.90062,29.00535],[79.89791,29.00452],[79.89697,29.00168],[79.89885,28.99637],[79.89833,28.9949],[79.89635,28.99361],[79.895,28.9916],[79.8926,28.99224],[79.89072,28.99453],[79.88916,28.9959],[79.88686,28.99535],[79.88238,28.99306],[79.88113,28.99095],[79.88162,28.9868],[79.88177,28.98242],[79.88,28.98013],[79.87812,28.97857],[79.87624,28.97857],[79.87259,28.98095],[79.87207,28.98223],[79.87248,28.9859],[79.87447,28.98814],[79.87634,28.99067],[79.87613,28.99213],[79.87534,28.99271],[79.87146,28.99564],[79.86788,28.99845],[79.8659,29.00193],[79.86454,29.00587],[79.86443,29.00807],[79.86391,29.00972],[79.85817,29.01284],[79.85622,29.0116],[79.85525,29.01054],[79.85389,29.01072],[79.8515,29.0099],[79.85035,29.00779],[79.84816,29.00586],[79.84587,29.00237],[79.84432,28.99825],[79.84223,28.99595],[79.83994,28.99614],[79.83983,28.99797],[79.84066,28.9998],[79.83931,28.99989],[79.83233,28.99604],[79.82889,28.99392],[79.82618,28.99025],[79.82368,28.98888],[79.81962,28.98795],[79.81597,28.98648],[79.81461,28.98667],[79.81492,28.99061],[79.81408,28.99299],[79.80845,28.99198],[79.80762,28.99353],[79.80761,28.99692],[79.80844,29.00068],[79.80739,29.00242],[79.79988,29.00691],[79.79727,29.01066],[79.79778,29.01305],[79.80028,29.01497],[79.8055,29.01498],[79.80717,29.01517],[79.80455,29.02332],[79.8011,29.0246],[79.79958,29.02446],[79.79797,29.02432],[79.79464,29.02276],[79.78984,29.0233],[79.78514,29.0254],[79.78066,29.02714],[79.77701,29.0253],[79.77336,29.0253],[79.77273,29.02759],[79.77324,29.03089],[79.77115,29.03474],[79.76582,29.03766],[79.76374,29.03766],[79.76207,29.03527],[79.75634,29.03481],[79.753,29.03544],[79.74893,29.0336],[79.748,29.03149],[79.7504,29.02948],[79.75072,29.0271],[79.7477,29.02526],[79.73518,29.02698],[79.72495,29.02898],[79.72109,29.03154],[79.71473,29.03144],[79.70972,29.03299],[79.70418,29.03793],[79.7001,29.04085],[79.69634,29.04469],[79.69695,29.04882],[79.69381,29.0545],[79.688,29.06],[79.68356,29.06189],[79.67946,29.06384],[79.66048,29.07368],[79.65129,29.07659],[79.64702,29.07383],[79.64381,29.06548],[79.6387,29.06309],[79.63444,29.05831],[79.6307,29.0529],[79.59461,29.05162],[79.58115,29.05003],[79.56717,29.05256],[79.51571,29.05161],[79.46092,29.05245],[79.44188,29.0517],[79.41924,29.05145],[79.41412,29.05253],[79.4093,29.05792],[79.40082,29.0641],[79.39579,29.06777],[79.38583,29.07799],[79.37079,29.08847],[79.36426,29.09313],[79.35002,29.1015],[79.34111,29.10889],[79.33288,29.11723],[79.32568,29.1256],[79.31593,29.13271],[79.3036,29.14106],[79.30071,29.14329],[79.29536,29.14941],[79.29443,29.15048],[79.28731,29.15329],[79.27808,29.16031],[79.27219,29.16816],[79.26704,29.17428],[79.25448,29.17945],[79.25039,29.18236],[79.24753,29.18858],[79.24676,29.19481],[79.24464,29.19919],[79.24723,29.20241],[79.24762,29.2081],[79.25217,29.21472],[79.26216,29.22191],[79.27482,29.23663],[79.27469,29.23984],[79.25357,29.24308],[79.22502,29.24721],[79.21817,29.249],[79.19029,29.25631],[79.16857,29.26286],[79.16378,29.26431],[79.15801,29.26721],[79.15498,29.26674],[79.14847,29.26935],[79.13999,29.27436],[79.13287,29.27542],[79.12546,29.27382],[79.11433,29.2668],[79.11342,29.26267],[79.11012,29.25669],[79.10761,29.25693],[79.09759,29.2579],[79.09391,29.25825],[79.09013,29.26025],[79.09282,29.26448],[79.09344,29.26676],[79.09435,29.27007],[79.08951,29.27362],[79.08554,29.27332],[79.07753,29.26842],[79.07639,29.26596],[79.07527,29.26355],[79.07554,29.25864],[79.07563,29.25705],[79.07409,29.25356],[79.07188,29.25515],[79.07019,29.25614],[79.06549,29.25809],[79.054,29.25701],[79.04856,29.25817],[79.04312,29.25842],[79.03786,29.26287],[79.03388,29.26392],[79.03053,29.2653],[79.02662,29.2706],[79.02441,29.27315],[79.02282,29.27598],[79.02278,29.28056],[79.01941,29.2832],[79.01583,29.28702],[79.01536,29.28897],[79.01507,29.29013],[79.01558,29.29243],[79.01865,29.29531],[79.0245,29.30027],[79.02728,29.30642],[79.02653,29.30834],[79.02224,29.30951],[79.01837,29.30967],[79.0167,29.3092],[79.01523,29.30928],[79.0146,29.31065],[79.01426,29.31331],[79.01278,29.31522],[79.01036,29.31704],[79.00513,29.31756],[79.00086,29.31543],[78.99565,29.31301],[78.99305,29.31217],[78.98907,29.31297],[78.98677,29.31222],[78.98455,29.31099],[78.97959,29.30824],[78.97761,29.30841],[78.97519,29.31004],[78.97244,29.31387],[78.9696,29.31559],[78.96215,29.31848],[78.95773,29.32193],[78.95384,29.32438],[78.95238,29.32483],[78.95069,29.32637],[78.94335,29.32979],[78.94124,29.3308],[78.93682,29.33416],[78.93263,29.3356],[78.93115,29.33678],[78.92988,29.33906],[78.92306,29.34177],[78.91468,29.34299],[78.91237,29.3438],[78.90326,29.34511],[78.9016,29.34465],[78.89553,29.34479],[78.89355,29.34349],[78.89011,29.34264],[78.88675,29.34381],[78.88465,29.34526],[78.88168,29.34964],[78.87979,29.35063],[78.87554,29.34611],[78.87282,29.3461],[78.86716,29.34789],[78.85605,29.35056],[78.849,29.35294],[78.84348,29.3577],[78.84099,29.36218],[78.84098,29.36219],[78.84101,29.36219],[78.84658,29.36368],[78.84845,29.36542],[78.84693,29.36834],[78.84405,29.37059],[78.84474,29.37536],[78.84851,29.37544],[78.85259,29.37393],[78.86902,29.3796],[78.87199,29.38168],[78.87226,29.38331],[78.87112,29.38549],[78.87245,29.38789],[78.87483,29.38861],[78.87823,29.38713],[78.88243,29.38637],[78.88501,29.39258],[78.89508,29.39881],[78.89948,29.40299],[78.90291,29.41043],[78.90878,29.41758],[78.91275,29.4407],[78.91949,29.44584],[78.9353,29.45018],[78.93217,29.45416],[78.91269,29.45018],[78.90836,29.45018],[78.91024,29.45484],[78.91234,29.45726],[78.91721,29.45878],[78.92135,29.46171],[78.92653,29.46381],[78.9357,29.47031],[78.939,29.4717],[78.93983,29.47574],[78.94359,29.48398],[78.94793,29.49345],[78.95213,29.49986],[78.95005,29.50726],[78.95433,29.52417],[78.96004,29.53075],[78.9637,29.53662],[78.96638,29.5391],[78.9716,29.53999],[78.97482,29.54185],[78.98679,29.54494],[78.99048,29.54731],[78.99559,29.5491],[79.00001,29.54889],[79.00434,29.55569],[79.00157,29.56225],[79.00145,29.56529],[79.00791,29.57197],[79.00884,29.57423],[79.00888,29.58349],[79.0131,29.58489],[79.02108,29.58417],[79.02425,29.58572],[79.02808,29.58648],[79.03268,29.58547],[79.03673,29.58549],[79.04081,29.58262],[79.04933,29.57997],[79.06104,29.57822],[79.07154,29.57871],[79.08048,29.57783],[79.09229,29.56683],[79.10018,29.5615],[79.1056,29.55825],[79.11088,29.55841],[79.11211,29.54756],[79.11902,29.54618],[79.13327,29.54777],[79.13814,29.55066],[79.14332,29.55058],[79.14571,29.54672],[79.14762,29.53773],[79.15505,29.53487],[79.16724,29.53209],[79.17425,29.53209],[79.18127,29.53095],[79.19693,29.5238],[79.20333,29.52161],[79.2145,29.52225],[79.22317,29.52125],[79.22788,29.52421],[79.23339,29.52952],[79.23871,29.53208],[79.24313,29.53624],[79.24773,29.54114],[79.25456,29.55258],[79.25878,29.55674],[79.26917,29.56415],[79.27327,29.57089],[79.27947,29.57489],[79.28551,29.57741],[79.28954,29.58507],[79.30041,29.59116],[79.30869,29.59905],[79.32777,29.60419],[79.33567,29.60891],[79.3411,29.60882],[79.35075,29.6042],[79.35402,29.6012],[79.35404,29.59368],[79.35807,29.5954],[79.36306,29.59433],[79.36913,29.58896],[79.37911,29.58745],[79.38686,29.57963],[79.39109,29.574],[79.39484,29.57274],[79.40371,29.56137],[79.40892,29.55927],[79.44036,29.5341],[79.44486,29.52738],[79.44868,29.51985],[79.45464,29.51586],[79.46326,29.51638],[79.46891,29.50848],[79.47388,29.50837],[79.47836,29.50712],[79.48095,29.50158],[79.47912,29.49414],[79.49602,29.49939],[79.5014,29.49912],[79.51483,29.50851],[79.51826,29.51402],[79.52319,29.51977],[79.52719,29.53334],[79.52758,29.5403],[79.53004,29.54557],[79.53357,29.54551],[79.53739,29.54418],[79.54032,29.54537],[79.54531,29.54974],[79.5492,29.54939],[79.549,29.53892],[79.55817,29.53813],[79.57762,29.54047],[79.59108,29.54814],[79.59704,29.54867],[79.61519,29.55426],[79.6224,29.55264],[79.62757,29.54926],[79.63555,29.54155],[79.646,29.54612],[79.65253,29.54275],[79.66351,29.54014],[79.66729,29.53668],[79.66769,29.53221],[79.67237,29.5306],[79.67838,29.52705],[79.68278,29.52182],[79.68452,29.51615],[79.68281,29.50538],[79.68001,29.49654],[79.6829,29.48824],[79.691,29.47334],[79.69513,29.46885],[79.70819,29.46131],[79.71318,29.46023],[79.71866,29.45754],[79.73212,29.46128],[79.7287,29.44731],[79.72915,29.43996],[79.7342,29.43445],[79.74007,29.4317],[79.74426,29.43071],[79.74947,29.43228],[79.76376,29.43405],[79.76666,29.43645],[79.76974,29.44753],[79.77678,29.44979],[79.78714,29.44938],[79.7977,29.43826],[79.80963,29.43764],[79.8177,29.43388],[79.8287,29.42683],[79.83727,29.42609],[79.84553,29.42845],[79.84874,29.43071],[79.85197,29.43436]]]}}]}