{"type":"FeatureCollection","features":[{"type":"Feature","properties":{"id":"pithoragarh","name":"Pithoragarh","stateId":"uttarakhand","stateName":"Uttarakhand","censuscode":62,"type":"district"},"geometry":{"type":"Polygon","coordinates":[[[80.24659,29.4426],[80.23704,29.44512],[80.21758,29.45367],[80.20264,29.45312],[80.19486,29.45995],[80.17991,29.45827],[80.17863,29.46566],[80.17343,29.4668],[80.16434,29.46567],[80.16304,29.46908],[80.1585,29.47022],[80.1598,29.4725],[80.15915,29.47591],[80.14616,29.47251],[80.14487,29.47876],[80.13967,29.48218],[80.13643,29.48843],[80.12929,29.48844],[80.1228,29.49583],[80.12801,29.50663],[80.12281,29.51174],[80.11242,29.51687],[80.10658,29.52426],[80.10073,29.52654],[80.09358,29.52143],[80.08448,29.52257],[80.07864,29.52314],[80.07184,29.52077],[80.07039,29.52338],[80.06583,29.52439],[80.06481,29.52636],[80.06421,29.53108],[80.06184,29.53453],[80.05734,29.5366],[80.05258,29.53996],[80.04434,29.54294],[80.02988,29.54592],[80.02283,29.54698],[80.01538,29.54633],[80.00969,29.54844],[80.00544,29.55457],[80.00267,29.56015],[80.00001,29.56791],[79.99601,29.57956],[79.99418,29.58632],[79.99323,29.59414],[79.99072,29.60221],[79.98589,29.61132],[79.98373,29.62015],[79.97861,29.62759],[79.96735,29.6478],[79.96257,29.65235],[79.9595,29.65668],[79.96227,29.66062],[79.96214,29.66493],[79.95838,29.66793],[79.95917,29.6723],[79.9564,29.67899],[79.95088,29.68265],[79.94532,29.68498],[79.94242,29.6827],[79.93443,29.6907],[79.92267,29.6969],[79.9182,29.69508],[79.91282,29.69551],[79.90106,29.6979],[79.89719,29.7003],[79.89642,29.70152],[79.89642,29.70153],[79.89361,29.70603],[79.89414,29.71586],[79.89073,29.72051],[79.87867,29.73239],[79.87032,29.73892],[79.86279,29.74025],[79.83331,29.74991],[79.83022,29.75442],[79.82834,29.76108],[79.82508,29.76823],[79.82199,29.77245],[79.82264,29.77797],[79.82512,29.7822],[79.83326,29.78155],[79.84144,29.77837],[79.85623,29.76796],[79.87117,29.76841],[79.87544,29.77226],[79.88115,29.77256],[79.88754,29.77476],[79.88951,29.78231],[79.89416,29.79163],[79.90012,29.79244],[79.90417,29.79755],[79.90713,29.79792],[79.90947,29.79451],[79.91099,29.79015],[79.91372,29.79173],[79.92123,29.79105],[79.93072,29.78913],[79.93231,29.77125],[79.93382,29.76701],[79.94468,29.76365],[79.96317,29.76323],[79.98036,29.75896],[79.9892,29.76205],[79.99523,29.7659],[80.00001,29.7703],[80.00598,29.77619],[80.01465,29.77553],[80.01801,29.77677],[80.0219,29.78278],[80.03483,29.78441],[80.03737,29.78731],[80.03956,29.79183],[80.03804,29.79605],[80.03508,29.79931],[80.03216,29.80648],[80.02447,29.80951],[80.02199,29.81305],[80.0206,29.81641],[80.02129,29.82662],[80.02066,29.82924],[80.01779,29.83112],[80.00382,29.83407],[80.00001,29.83411],[79.99634,29.8373],[79.99291,29.84217],[79.98262,29.84121],[79.98016,29.84344],[79.97676,29.84971],[80.00001,29.85033],[80.01256,29.85232],[80.01303,29.85438],[80.00949,29.86369],[80.00932,29.86845],[80.00987,29.87524],[80.0136,29.88479],[80.01706,29.88885],[80.02229,29.89189],[80.03706,29.89699],[80.05175,29.89765],[80.05493,29.89866],[80.05742,29.90152],[80.06786,29.90167],[80.07265,29.9004],[80.07702,29.89825],[80.08298,29.89033],[80.08734,29.88761],[80.09115,29.88694],[80.09943,29.89725],[80.11362,29.90348],[80.12251,29.901],[80.12658,29.89892],[80.1317,29.89805],[80.145,29.89873],[80.14602,29.89723],[80.1506,29.89491],[80.15226,29.89631],[80.1574,29.89894],[80.16028,29.90503],[80.16054,29.90848],[80.15697,29.91586],[80.1495,29.92959],[80.14699,29.93287],[80.14398,29.94028],[80.12461,29.95099],[80.11857,29.95539],[80.0978,29.9662],[80.093,29.97123],[80.08887,29.97682],[80.07877,30.00025],[80.0753,30.00502],[80.07197,30.01865],[80.07195,30.02406],[80.07767,30.03763],[80.07901,30.0446],[80.08219,30.04957],[80.08609,30.06046],[80.08635,30.06523],[80.08343,30.0822],[80.08575,30.09313],[80.08457,30.09737],[80.08445,30.10226],[80.08534,30.11296],[80.09173,30.12339],[80.09872,30.12889],[80.10428,30.13892],[80.106,30.14458],[80.10677,30.16166],[80.11097,30.178],[80.11213,30.19817],[80.11824,30.21393],[80.1193,30.21933],[80.11913,30.22408],[80.11727,30.22688],[80.11438,30.22732],[80.10403,30.22593],[80.0882,30.22839],[80.08385,30.23202],[80.08095,30.23617],[80.0762,30.24669],[80.07521,30.25779],[80.07574,30.26059],[80.07408,30.26394],[80.06947,30.26384],[80.06564,30.26631],[80.06754,30.27441],[80.06952,30.2787],[80.05123,30.28828],[80.04456,30.2936],[80.0371,30.30425],[80.0295,30.31232],[80.02311,30.31403],[80.01477,30.315],[80.00782,30.31471],[79.99936,30.31434],[79.99352,30.31427],[79.99092,30.31792],[79.99274,30.32228],[79.99271,30.32531],[79.99456,30.33191],[79.99645,30.33536],[79.99923,30.34956],[80.00342,30.35236],[80.00331,30.35508],[79.99924,30.35693],[79.99686,30.35924],[79.99709,30.36149],[79.99941,30.36398],[80.01372,30.3694],[80.01804,30.37698],[80.0266,30.38624],[80.03019,30.38891],[80.03332,30.39338],[80.03807,30.40342],[80.03717,30.4088],[80.03401,30.41183],[80.0335,30.41658],[80.03685,30.42207],[80.03675,30.42879],[80.03777,30.43299],[80.03695,30.44033],[80.02864,30.44413],[80.02627,30.44706],[80.02393,30.45613],[80.01425,30.46511],[80.01465,30.47024],[80.01737,30.47363],[80.02115,30.47549],[80.02095,30.4781],[80.01937,30.48082],[80.01718,30.48827],[80.01296,30.49021],[80.01422,30.49333],[80.01428,30.49655],[80.0129,30.50003],[80.01137,30.50147],[80.01005,30.51154],[80.00663,30.52041],[79.99961,30.52809],[79.99762,30.52907],[79.99639,30.53492],[79.99675,30.53798],[79.99962,30.54054],[80.00203,30.54391],[80.00851,30.54923],[80.01143,30.55404],[80.01565,30.56853],[80.01864,30.57396],[80.02656,30.58481],[80.03114,30.58958],[80.03597,30.58984],[80.04035,30.59143],[80.04236,30.5957],[80.04238,30.60136],[80.03012,30.61415],[80.0335,30.61668],[80.03531,30.62122],[80.03492,30.62452],[80.03176,30.62719],[80.03509,30.63236],[80.03463,30.63478],[80.02458,30.63826],[80.02194,30.64039],[80.01898,30.64511],[80.01681,30.6566],[80.01675,30.66167],[80.01411,30.66424],[80.0102,30.66419],[80.00531,30.67309],[80.00216,30.67738],[79.99977,30.67839],[79.99519,30.67986],[79.98803,30.6857],[79.98647,30.68835],[79.98547,30.69347],[79.98067,30.70524],[79.9815,30.70829],[79.99075,30.71212],[79.99976,30.71965],[80.01814,30.7255],[80.02378,30.72829],[80.02708,30.73142],[80.03171,30.73259],[80.03735,30.73272],[80.06506,30.7257],[80.07268,30.72703],[80.08075,30.72679],[80.08777,30.72583],[80.09485,30.72351],[80.10385,30.72234],[80.10498,30.72495],[80.10348,30.73385],[80.09761,30.74269],[80.09669,30.74656],[80.09074,30.75773],[80.08937,30.76304],[80.09024,30.77139],[80.09876,30.78388],[80.10162,30.78628],[80.10297,30.78513],[80.10297,30.78467],[80.11609,30.77591],[80.11637,30.77529],[80.11817,30.77408],[80.12287,30.77342],[80.12809,30.77526],[80.13374,30.78075],[80.13539,30.78184],[80.13747,30.78544],[80.14032,30.78793],[80.14108,30.78837],[80.15257,30.79045],[80.15336,30.79113],[80.15375,30.79248],[80.15279,30.79994],[80.15371,30.80446],[80.1546,30.80559],[80.1598,30.80762],[80.16293,30.80785],[80.17182,30.80698],[80.17235,30.80718],[80.17445,30.80652],[80.17862,30.8044],[80.18257,30.80159],[80.1834,30.79998],[80.18364,30.79954],[80.18468,30.79773],[80.18598,30.79684],[80.18598,30.79638],[80.18728,30.79548],[80.18808,30.79503],[80.18912,30.79278],[80.18965,30.79255],[80.19124,30.78985],[80.19206,30.78923],[80.1934,30.78795],[80.19622,30.78375],[80.1991,30.78151],[80.19989,30.78105],[80.2003,30.77993],[80.20045,30.77474],[80.19994,30.76907],[80.20099,30.76477],[80.2015,30.76455],[80.20363,30.76118],[80.20443,30.76072],[80.20512,30.75932],[80.20547,30.75822],[80.21044,30.75553],[80.21228,30.7544],[80.22221,30.75193],[80.22298,30.75217],[80.22581,30.75849],[80.22778,30.76007],[80.22979,30.76086],[80.23228,30.76141],[80.23287,30.76146],[80.236,30.76033],[80.2368,30.75942],[80.23784,30.75965],[80.2381,30.75897],[80.23887,30.75851],[80.24045,30.75537],[80.24119,30.75477],[80.24202,30.75286],[80.24255,30.75264],[80.24308,30.75243],[80.24336,30.75105],[80.24453,30.74812],[80.24503,30.74791],[80.24726,30.74319],[80.24797,30.74261],[80.24925,30.73999],[80.25,30.7394],[80.25226,30.73506],[80.25227,30.7321],[80.25187,30.73096],[80.24761,30.72395],[80.2458,30.71697],[80.24033,30.71199],[80.23851,30.70904],[80.23618,30.69891],[80.23579,30.69552],[80.23498,30.69494],[80.23467,30.69163],[80.23208,30.6896],[80.22478,30.68574],[80.22398,30.68593],[80.21386,30.6845],[80.21204,30.68387],[80.20822,30.68211],[80.20823,30.68122],[80.20773,30.68076],[80.2076,30.6803],[80.20043,30.67668],[80.1977,30.67397],[80.19697,30.67248],[80.19606,30.66919],[80.19536,30.66423],[80.19799,30.65971],[80.20323,30.65657],[80.20323,30.65566],[80.21216,30.65111],[80.21525,30.64983],[80.21577,30.64937],[80.21576,30.64824],[80.21797,30.64658],[80.21797,30.64612],[80.22127,30.64328],[80.22324,30.63967],[80.22378,30.63945],[80.22419,30.63581],[80.22261,30.63109],[80.22047,30.6289],[80.21771,30.62497],[80.214,30.6219],[80.21348,30.62097],[80.21329,30.61748],[80.21383,30.61368],[80.21433,30.61322],[80.22062,30.61074],[80.22401,30.61006],[80.22544,30.60993],[80.22608,30.60984],[80.22608,30.60938],[80.22687,30.60892],[80.22728,30.60779],[80.22703,30.60329],[80.22663,30.60217],[80.22117,30.59672],[80.22067,30.59559],[80.22069,30.59174],[80.22566,30.57665],[80.22949,30.57422],[80.23044,30.57337],[80.23593,30.57067],[80.23614,30.57011],[80.23906,30.5693],[80.2445,30.56695],[80.24683,30.56536],[80.2471,30.56378],[80.24866,30.56289],[80.24893,30.5622],[80.25177,30.56057],[80.25333,30.56],[80.25492,30.55973],[80.25875,30.5611],[80.26074,30.56182],[80.26248,30.5629],[80.26446,30.56685],[80.26583,30.56812],[80.26691,30.56926],[80.26788,30.5695],[80.26939,30.56951],[80.27008,30.5695],[80.27117,30.56915],[80.27171,30.56856],[80.27132,30.56539],[80.27159,30.56269],[80.27252,30.5623],[80.27273,30.56175],[80.27525,30.56087],[80.27575,30.5618],[80.27678,30.56225],[80.27704,30.56315],[80.27717,30.56451],[80.27826,30.56545],[80.28233,30.5681],[80.28693,30.5684],[80.2927,30.56882],[80.2953,30.56824],[80.29597,30.56802],[80.2967,30.56767],[80.29827,30.56679],[80.29884,30.56636],[80.30143,30.56607],[80.30403,30.56534],[80.30713,30.56432],[80.30837,30.56383],[80.30927,30.56368],[80.30995,30.56397],[80.31146,30.56413],[80.3125,30.56405],[80.31355,30.56409],[80.31355,30.56319],[80.31615,30.56274],[80.31691,30.56242],[80.32031,30.56184],[80.32187,30.56116],[80.32233,30.56035],[80.32206,30.55922],[80.32365,30.55767],[80.32366,30.55721],[80.32607,30.55416],[80.3266,30.55395],[80.32738,30.55168],[80.32817,30.55122],[80.32895,30.55079],[80.33027,30.54831],[80.33467,30.54554],[80.34302,30.54109],[80.35242,30.53747],[80.35525,30.53568],[80.35608,30.53462],[80.36024,30.53219],[80.37981,30.52302],[80.38294,30.5212],[80.39598,30.51784],[80.40221,30.52234],[80.40609,30.52416],[80.41522,30.52551],[80.41689,30.5248],[80.4174,30.52367],[80.42097,30.52079],[80.42411,30.51307],[80.42721,30.51016],[80.428,30.50946],[80.43023,30.50565],[80.43087,30.50497],[80.4314,30.5045],[80.43817,30.49999],[80.46269,30.49071],[80.47152,30.48823],[80.48626,30.48669],[80.48817,30.48637],[80.48977,30.4862],[80.49991,30.48482],[80.50433,30.48348],[80.50877,30.4803],[80.50877,30.47917],[80.50957,30.47894],[80.51007,30.47781],[80.51164,30.47623],[80.51243,30.47577],[80.51293,30.47421],[80.51346,30.47398],[80.51891,30.4647],[80.51971,30.46426],[80.52024,30.46312],[80.52415,30.45974],[80.52624,30.45765],[80.52675,30.45726],[80.52817,30.45567],[80.52883,30.45498],[80.53429,30.45183],[80.53455,30.45092],[80.53857,30.44977],[80.54106,30.44866],[80.54262,30.44956],[80.54378,30.45364],[80.5444,30.45441],[80.54518,30.45543],[80.54965,30.4579],[80.54965,30.45836],[80.55409,30.45902],[80.55874,30.45769],[80.56631,30.45901],[80.5702,30.46151],[80.57581,30.47009],[80.58102,30.48296],[80.58338,30.48365],[80.58424,30.48377],[80.59131,30.48407],[80.59884,30.48159],[80.60821,30.4766],[80.64335,30.45419],[80.64567,30.45193],[80.64828,30.44986],[80.64828,30.44899],[80.65143,30.44671],[80.65142,30.44626],[80.65204,30.4454],[80.6528,30.44477],[80.65809,30.44188],[80.65933,30.44144],[80.66123,30.44061],[80.66182,30.44038],[80.66364,30.43969],[80.6652,30.44014],[80.66805,30.43968],[80.67535,30.44013],[80.68053,30.43777],[80.68183,30.43695],[80.68235,30.43557],[80.68392,30.4349],[80.68471,30.43421],[80.69147,30.42944],[80.69147,30.42857],[80.71437,30.41271],[80.73417,30.40227],[80.74582,30.39659],[80.75202,30.39252],[80.75983,30.38593],[80.76009,30.38526],[80.76371,30.38232],[80.76371,30.38185],[80.76605,30.37983],[80.76685,30.37845],[80.77027,30.37433],[80.77122,30.37369],[80.77188,30.37137],[80.77298,30.37028],[80.77385,30.36964],[80.77852,30.35989],[80.77901,30.35967],[80.78083,30.35559],[80.78132,30.35537],[80.78159,30.35424],[80.78264,30.35334],[80.78317,30.35312],[80.7869,30.34247],[80.78832,30.33999],[80.78885,30.33978],[80.79045,30.33752],[80.79666,30.33276],[80.79692,30.33212],[80.8082,30.32464],[80.82571,30.31436],[80.83246,30.31117],[80.83515,30.31011],[80.8413,30.30786],[80.86021,30.3016],[80.86794,30.30036],[80.8794,30.29851],[80.88022,30.29837],[80.88489,30.29722],[80.89789,30.29401],[80.91086,30.28832],[80.91983,30.28551],[80.93111,30.28237],[80.94434,30.28009],[80.94864,30.27965],[80.95077,30.27953],[80.95499,30.27887],[80.95663,30.27844],[80.96163,30.27697],[80.98172,30.27018],[80.98692,30.2688],[80.99269,30.26752],[81.00844,30.26488],[81.02535,30.25721],[81.02643,30.2564],[81.02945,30.25404],[81.03022,30.25349],[81.0315,30.25189],[81.03343,30.2476],[81.03396,30.24736],[81.03435,30.24511],[81.03429,30.24456],[81.03297,30.22838],[81.03552,30.22091],[81.03631,30.22047],[81.03718,30.21983],[81.04023,30.21322],[81.04108,30.21186],[81.04183,30.20997],[81.04233,30.20575],[81.04286,30.20552],[81.04295,30.20026],[81.04296,30.19854],[81.04098,30.19841],[81.03365,30.19805],[81.03262,30.19824],[81.0279,30.19769],[81.01075,30.19258],[80.99733,30.18814],[80.99329,30.18678],[80.9915,30.18702],[80.98579,30.18883],[80.98477,30.19085],[80.98424,30.19108],[80.98345,30.19132],[80.98034,30.19087],[80.97761,30.18952],[80.97645,30.1891],[80.97332,30.18459],[80.97071,30.18302],[80.96319,30.18506],[80.95826,30.18442],[80.95177,30.18243],[80.94188,30.1786],[80.93824,30.17681],[80.93668,30.17659],[80.93603,30.17674],[80.92762,30.17889],[80.92581,30.1798],[80.92499,30.18152],[80.92479,30.18225],[80.92383,30.18278],[80.92116,30.18592],[80.92037,30.18604],[80.91972,30.18898],[80.92025,30.18909],[80.91993,30.19065],[80.92092,30.19314],[80.92096,30.19592],[80.9212,30.2049],[80.92173,30.20739],[80.91941,30.21327],[80.91864,30.21373],[80.91786,30.21531],[80.91271,30.2185],[80.90621,30.21761],[80.90283,30.21604],[80.89981,30.21177],[80.89883,30.21095],[80.8968,30.20566],[80.89497,30.20398],[80.88888,30.19604],[80.88796,30.19485],[80.88299,30.18425],[80.87596,30.17818],[80.87244,30.17615],[80.87086,30.17549],[80.8679,30.17194],[80.86749,30.16983],[80.86878,30.16982],[80.87637,30.15038],[80.87766,30.14384],[80.87764,30.13614],[80.87478,30.1305],[80.86742,30.12555],[80.86018,30.1219],[80.85685,30.12062],[80.85139,30.11701],[80.84608,30.10624],[80.84566,30.10531],[80.84199,30.10168],[80.84148,30.10123],[80.83838,30.10011],[80.83292,30.09921],[80.82449,30.10011],[80.82182,30.09945],[80.81855,30.09818],[80.81199,30.09501],[80.81112,30.09448],[80.80995,30.09329],[80.80864,30.09224],[80.80826,30.09184],[80.80565,30.0871],[80.80324,30.08502],[80.80279,30.08435],[80.79914,30.07673],[80.79586,30.07398],[80.79224,30.07023],[80.79135,30.06976],[80.78926,30.06637],[80.78718,30.06526],[80.78277,30.06209],[80.78095,30.06051],[80.77343,30.05829],[80.77228,30.05761],[80.76927,30.05534],[80.76861,30.05421],[80.76798,30.05309],[80.76254,30.04792],[80.76201,30.04634],[80.76195,30.04562],[80.76185,30.04246],[80.76146,30.03208],[80.75469,30.01857],[80.74975,30.01157],[80.74743,30.00569],[80.74431,30.00207],[80.73522,29.99713],[80.72822,30.00009],[80.72485,30.00079],[80.72109,29.99942],[80.7194,29.9976],[80.71518,29.99518],[80.71505,29.99404],[80.71389,29.9936],[80.71189,29.99177],[80.71131,29.99069],[80.71015,29.99001],[80.70709,29.98703],[80.70619,29.98568],[80.70335,29.984],[80.70308,29.98334],[80.69244,29.97487],[80.69128,29.97329],[80.68791,29.96966],[80.68649,29.96854],[80.68491,29.96313],[80.68156,29.96065],[80.67329,29.95957],[80.67024,29.95964],[80.66755,29.95933],[80.66187,29.95867],[80.65953,29.95888],[80.65887,29.95858],[80.64664,29.95902],[80.64185,29.95934],[80.64067,29.95955],[80.63932,29.95981],[80.63538,29.96156],[80.63459,29.96337],[80.63383,29.96404],[80.6314,29.96368],[80.63027,29.96391],[80.62898,29.9638],[80.61785,29.95802],[80.61706,29.95759],[80.61404,29.95746],[80.61249,29.95792],[80.60917,29.95772],[80.60801,29.95761],[80.60465,29.95626],[80.60034,29.95355],[80.58313,29.93688],[80.57924,29.93368],[80.57251,29.92307],[80.57199,29.91786],[80.573,29.91515],[80.57432,29.89481],[80.57269,29.8902],[80.57095,29.88669],[80.56651,29.88187],[80.56483,29.87949],[80.56241,29.87633],[80.56085,29.87088],[80.56139,29.86682],[80.56191,29.86524],[80.56086,29.8623],[80.55644,29.85824],[80.55519,29.85372],[80.55466,29.85325],[80.55027,29.85203],[80.54391,29.84931],[80.54223,29.84831],[80.54194,29.84792],[80.53631,29.83996],[80.52827,29.83365],[80.52543,29.83024],[80.51132,29.82347],[80.50804,29.82039],[80.50112,29.81241],[80.49648,29.79614],[80.49466,29.79481],[80.4908,29.79547],[80.48977,29.79527],[80.48977,29.79435],[80.48978,29.79366],[80.48728,29.79435],[80.48302,29.79683],[80.47035,29.80113],[80.4676,29.80083],[80.46631,29.80106],[80.46192,29.80042],[80.45407,29.79776],[80.45102,29.79843],[80.4489,29.79888],[80.448,29.79937],[80.44527,29.80091],[80.44371,29.80408],[80.44179,29.80552],[80.43814,29.80529],[80.43549,29.80332],[80.43339,29.79909],[80.4326,29.79842],[80.42459,29.79604],[80.41866,29.79165],[80.41155,29.79024],[80.41084,29.78991],[80.41005,29.78973],[80.40976,29.78849],[80.40425,29.76743],[80.40397,29.76477],[80.40217,29.75978],[80.40138,29.7591],[80.39855,29.75753],[80.39752,29.75776],[80.39469,29.75735],[80.3934,29.7569],[80.39207,29.75572],[80.39136,29.75214],[80.39091,29.75159],[80.38921,29.74992],[80.38719,29.74848],[80.38564,29.74803],[80.37813,29.75028],[80.37464,29.74937],[80.374,29.74894],[80.37362,29.74779],[80.37155,29.74393],[80.37039,29.74282],[80.37008,29.74015],[80.37017,29.72748],[80.37043,29.72497],[80.37251,29.72068],[80.37432,29.71932],[80.37557,29.71902],[80.37948,29.7182],[80.37987,29.71617],[80.38027,29.71549],[80.38027,29.71437],[80.38,29.71233],[80.37969,29.71157],[80.37922,29.71028],[80.37962,29.70645],[80.38015,29.70622],[80.3816,29.70216],[80.3821,29.70195],[80.38289,29.70014],[80.38444,29.69899],[80.38471,29.69787],[80.3847,29.69718],[80.38521,29.69697],[80.38573,29.69674],[80.3866,29.69421],[80.38713,29.69399],[80.39065,29.68568],[80.39481,29.66871],[80.39539,29.66832],[80.39591,29.66809],[80.39618,29.66746],[80.39699,29.66724],[80.40781,29.6597],[80.40996,29.65798],[80.4109,29.65728],[80.41162,29.65625],[80.41243,29.65602],[80.42068,29.6495],[80.42378,29.6407],[80.42458,29.63552],[80.42367,29.63077],[80.42302,29.62919],[80.41529,29.61947],[80.41323,29.61541],[80.41313,29.60813],[80.41366,29.60588],[80.41378,29.59778],[80.41173,29.59604],[80.41139,29.59576],[80.41007,29.59323],[80.40933,29.59257],[80.40844,29.59032],[80.40807,29.58963],[80.40786,29.58919],[80.40399,29.58648],[80.40219,29.57969],[80.3996,29.57767],[80.39929,29.57679],[80.39897,29.5727],[80.39845,29.57271],[80.39809,29.5711],[80.39756,29.57067],[80.39329,29.56979],[80.39227,29.56956],[80.3875,29.57089],[80.38577,29.57047],[80.38171,29.56861],[80.38079,29.56726],[80.37635,29.56333],[80.37525,29.56273],[80.37383,29.56184],[80.36689,29.55959],[80.35813,29.55279],[80.35142,29.55053],[80.34938,29.54737],[80.34989,29.54105],[80.34849,29.53742],[80.34888,29.53627],[80.35688,29.53244],[80.35777,29.53132],[80.35768,29.52689],[80.35739,29.52519],[80.35536,29.51998],[80.35471,29.51839],[80.35348,29.51655],[80.35175,29.51483],[80.34747,29.51258],[80.34559,29.51166],[80.34068,29.5103],[80.33736,29.50965],[80.33707,29.50913],[80.33448,29.5078],[80.332,29.50569],[80.32804,29.50238],[80.32742,29.50102],[80.32499,29.49807],[80.32413,29.49734],[80.32108,29.49501],[80.31961,29.49374],[80.3189,29.49357],[80.31854,29.49289],[80.31802,29.49288],[80.31546,29.487],[80.316,29.48067],[80.31461,29.48019],[80.31242,29.48073],[80.3094,29.48239],[80.30771,29.48654],[80.30669,29.48699],[80.30386,29.48676],[80.30271,29.48587],[80.30128,29.48293],[80.29794,29.47592],[80.29322,29.47137],[80.2923,29.47117],[80.29204,29.46937],[80.29283,29.46687],[80.30087,29.46116],[80.30125,29.4605],[80.30173,29.46011],[80.30355,29.45414],[80.30384,29.45311],[80.30345,29.45106],[80.30293,29.45038],[80.30008,29.44835],[80.29416,29.45039],[80.29005,29.44947],[80.28953,29.4488],[80.28799,29.44767],[80.2849,29.4493],[80.2841,29.45015],[80.28387,29.45105],[80.28255,29.45435],[80.28164,29.45511],[80.28163,29.45669],[80.28048,29.45736],[80.27571,29.45624],[80.27572,29.45556],[80.27302,29.45193],[80.27044,29.45036],[80.26942,29.45013],[80.26297,29.45058],[80.26016,29.45012],[80.25553,29.44649],[80.25343,29.44603],[80.2506,29.44694],[80.24702,29.44579],[80.24659,29.4426]]]}}]}