{"type":"FeatureCollection","features":[{"type":"Feature","properties":{"id":"rudraprayag","name":"Rudraprayag","stateId":"uttarakhand","stateName":"Uttarakhand","censuscode":58,"type":"district"},"geometry":{"type":"Polygon","coordinates":[[[79.27897,30.72611],[79.28977,30.72314],[79.29634,30.72033],[79.30017,30.7166],[79.30107,30.70811],[79.30144,30.7061],[79.30303,30.69771],[79.30285,30.6914],[79.30509,30.68885],[79.30734,30.68347],[79.30631,30.67817],[79.30823,30.67461],[79.31438,30.67135],[79.31703,30.67163],[79.32295,30.66983],[79.32954,30.66355],[79.33338,30.65854],[79.33698,30.65737],[79.3411,30.65675],[79.3517,30.65149],[79.35586,30.64456],[79.35722,30.62757],[79.35035,30.62663],[79.34889,30.62407],[79.35007,30.61959],[79.34948,30.61164],[79.3477,30.60816],[79.34443,30.60687],[79.34296,30.60586],[79.34277,30.60238],[79.34015,30.59826],[79.3351,30.59504],[79.32897,30.59529],[79.31692,30.5967],[79.3128,30.59568],[79.30775,30.5931],[79.30717,30.58359],[79.30476,30.58039],[79.30299,30.57499],[79.30228,30.56932],[79.29736,30.56235],[79.29483,30.56197],[79.28827,30.56377],[79.28414,30.56467],[79.27908,30.56428],[79.2757,30.56454],[79.27347,30.56645],[79.26807,30.56789],[79.26395,30.56759],[79.25816,30.56501],[79.25237,30.56197],[79.24954,30.55848],[79.24862,30.55336],[79.24541,30.54384],[79.24554,30.53881],[79.24377,30.53597],[79.2298,30.52439],[79.22493,30.50947],[79.22539,30.50371],[79.22732,30.49924],[79.22512,30.49521],[79.22378,30.49136],[79.21947,30.48778],[79.21483,30.48776],[79.20265,30.48231],[79.19746,30.4799],[79.19201,30.4754],[79.18845,30.46998],[79.18817,30.46486],[79.1845,30.46174],[79.18092,30.46007],[79.17999,30.45696],[79.17853,30.45439],[79.17601,30.4531],[79.17497,30.45054],[79.17171,30.44924],[79.16804,30.4463],[79.16894,30.43689],[79.17267,30.43233],[79.17607,30.42824],[79.17654,30.42157],[79.17489,30.41616],[79.16911,30.41229],[79.16629,30.40881],[79.16515,30.40469],[79.16603,30.39994],[79.16605,30.39458],[79.1659,30.38887],[79.16339,30.38438],[79.16024,30.38345],[79.15802,30.38371],[79.15477,30.38114],[79.15004,30.37892],[79.14634,30.37945],[79.14233,30.38098],[79.14023,30.3796],[79.13653,30.38058],[79.13352,30.38152],[79.1229,30.38481],[79.11636,30.38468],[79.11057,30.38236],[79.10659,30.37887],[79.10587,30.37667],[79.10779,30.37321],[79.10825,30.36845],[79.1109,30.36627],[79.11313,30.36501],[79.1143,30.36346],[79.11357,30.36162],[79.11803,30.35753],[79.12083,30.35617],[79.12247,30.35536],[79.12459,30.35483],[79.12502,30.35291],[79.12398,30.35062],[79.12579,30.34816],[79.12916,30.34854],[79.13274,30.35048],[79.13569,30.35022],[79.13781,30.34868],[79.13962,30.34586],[79.14123,30.34239],[79.14092,30.34065],[79.14611,30.33812],[79.14853,30.33758],[79.15043,30.33732],[79.15193,30.33504],[79.15299,30.33294],[79.15563,30.33232],[79.15859,30.33178],[79.1604,30.32887],[79.16043,30.32512],[79.15833,30.32346],[79.15687,30.3219],[79.15464,30.32372],[79.15389,30.32499],[79.15094,30.32498],[79.15001,30.32241],[79.14942,30.31701],[79.14661,30.3116],[79.14591,30.30593],[79.14678,30.30246],[79.14996,30.29937],[79.16134,30.29924],[79.16535,30.29862],[79.16937,30.29672],[79.16875,30.2948],[79.16317,30.29386],[79.15853,30.29438],[79.15484,30.29528],[79.14831,30.29424],[79.14003,30.28779],[79.13423,30.28868],[79.1243,30.29137],[79.12029,30.29198],[79.11525,30.28967],[79.11128,30.28517],[79.11068,30.28078],[79.10534,30.27663],[79.10534,30.27563],[79.10715,30.27307],[79.1079,30.27162],[79.10866,30.26833],[79.10733,30.26366],[79.106,30.25761],[79.09888,30.25218],[79.09546,30.24493],[79.09339,30.24255],[79.09044,30.23914],[79.08837,30.23502],[79.08481,30.23116],[79.08084,30.22729],[79.07982,30.22345],[79.07992,30.22039],[79.07408,30.22165],[79.07105,30.22142],[79.06756,30.2194],[79.05489,30.21695],[79.04698,30.21746],[79.04446,30.21825],[79.04248,30.21986],[79.03915,30.22365],[79.0364,30.23119],[79.03639,30.23321],[79.03839,30.24202],[79.04158,30.25043],[79.04223,30.25175],[79.04532,30.25389],[79.04735,30.2574],[79.04866,30.26017],[79.0528,30.26403],[79.05878,30.26807],[79.06779,30.27667],[79.08003,30.2859],[79.08641,30.29322],[79.09082,30.29698],[79.09193,30.29905],[79.09039,30.29972],[79.07474,30.29898],[79.06488,30.30127],[79.05774,30.30149],[79.05555,30.3024],[79.05257,30.30573],[79.04685,30.31003],[79.04388,30.31112],[79.03872,30.31048],[79.03518,30.30863],[79.0268,30.30422],[79.01842,30.30196],[79.00528,30.29967],[79.00184,30.30054],[79.00002,30.30166],[78.99419,30.29726],[78.98529,30.29006],[78.98171,30.2888],[78.98167,30.28752],[78.97573,30.28202],[78.95433,30.27304],[78.94779,30.27145],[78.9415,30.27164],[78.9364,30.27056],[78.93562,30.27002],[78.93376,30.25908],[78.93125,30.25738],[78.929,30.25697],[78.92358,30.26425],[78.91941,30.26336],[78.91604,30.26124],[78.91027,30.25104],[78.90676,30.24672],[78.90385,30.24777],[78.90141,30.25212],[78.89811,30.25562],[78.89639,30.25663],[78.89602,30.25998],[78.89388,30.26344],[78.89298,30.26433],[78.89058,30.26671],[78.88889,30.2678],[78.88561,30.2685],[78.88424,30.26859],[78.8839,30.27105],[78.88347,30.2727],[78.8804,30.27414],[78.87785,30.27677],[78.87697,30.28029],[78.87674,30.28108],[78.87599,30.28353],[78.87512,30.28479],[78.87396,30.28644],[78.87248,30.28707],[78.87076,30.29062],[78.86918,30.29107],[78.86726,30.29298],[78.86524,30.29534],[78.8627,30.29624],[78.86067,30.29915],[78.85916,30.30335],[78.86071,30.30637],[78.86069,30.30903],[78.85981,30.31286],[78.85967,30.31588],[78.8608,30.31909],[78.86647,30.32141],[78.86761,30.32398],[78.86432,30.32688],[78.85859,30.33013],[78.85624,30.33332],[78.8582,30.33809],[78.86034,30.34606],[78.85916,30.34824],[78.85471,30.35022],[78.84929,30.35531],[78.84306,30.35618],[78.83989,30.35688],[78.83881,30.35944],[78.8395,30.36438],[78.83926,30.36739],[78.83733,30.37104],[78.83868,30.37361],[78.8396,30.37654],[78.83788,30.37936],[78.83647,30.38356],[78.83701,30.38541],[78.8377,30.38777],[78.83809,30.39061],[78.83723,30.39271],[78.83151,30.39504],[78.82453,30.39719],[78.81626,30.40151],[78.82066,30.40456],[78.82236,30.40609],[78.82683,30.41009],[78.82942,30.41313],[78.8334,30.41782],[78.83978,30.42386],[78.84323,30.42712],[78.84657,30.43172],[78.84746,30.4373],[78.84743,30.44041],[78.84601,30.44534],[78.84523,30.44908],[78.84491,30.45063],[78.84825,30.45459],[78.84915,30.45925],[78.84563,30.46362],[78.84488,30.46488],[78.84209,30.46953],[78.83231,30.47678],[78.82773,30.48026],[78.8254,30.48203],[78.8241,30.48531],[78.82873,30.48717],[78.83369,30.4873],[78.83789,30.49016],[78.8403,30.49155],[78.84337,30.49038],[78.84759,30.49087],[78.85233,30.49228],[78.85674,30.49468],[78.85956,30.49754],[78.86201,30.50117],[78.86476,30.5058],[78.86727,30.50801],[78.86995,30.51525],[78.86835,30.51762],[78.86759,30.51999],[78.86627,30.52528],[78.86392,30.52791],[78.86316,30.53047],[78.86397,30.53358],[78.86396,30.53513],[78.86415,30.53715],[78.86241,30.54234],[78.86132,30.547],[78.85938,30.55119],[78.86052,30.55321],[78.86357,30.55469],[78.86449,30.55753],[78.86359,30.56392],[78.86493,30.5674],[78.86734,30.56897],[78.86831,30.5698],[78.8707,30.57183],[78.87268,30.57395],[78.87391,30.57852],[78.8779,30.5812],[78.88211,30.58297],[78.88654,30.58318],[78.89043,30.58513],[78.89199,30.58806],[78.89046,30.59344],[78.88946,30.59855],[78.88743,30.60146],[78.88814,30.60421],[78.89307,30.60872],[78.90064,30.6127],[78.90357,30.61546],[78.90394,30.62205],[78.90667,30.62398],[78.90929,30.62647],[78.91001,30.62867],[78.91019,30.63177],[78.90911,30.63433],[78.90907,30.6388],[78.9103,30.64329],[78.90919,30.64876],[78.90737,30.65149],[78.90808,30.65497],[78.90869,30.6579],[78.90992,30.66147],[78.91052,30.6624],[78.91301,30.67722],[78.91554,30.68564],[78.91473,30.69129],[78.92628,30.7144],[78.93098,30.71978],[78.94639,30.72297],[78.95281,30.73163],[78.95738,30.73543],[78.96415,30.73616],[78.97671,30.74016],[78.99189,30.74226],[78.99693,30.74364],[79.00294,30.74948],[79.00909,30.74988],[79.01823,30.75315],[79.02149,30.76317],[79.02652,30.76739],[79.02336,30.78212],[79.02896,30.78985],[79.02847,30.7948],[79.03319,30.80667],[79.04561,30.80551],[79.05201,30.80299],[79.06185,30.80047],[79.06711,30.80014],[79.06785,30.79789],[79.07299,30.79411],[79.07975,30.78577],[79.09142,30.7764],[79.09427,30.77555],[79.10112,30.77568],[79.10943,30.77368],[79.11899,30.77375],[79.12705,30.77101],[79.12906,30.76934],[79.12993,30.76634],[79.12989,30.76128],[79.13105,30.75621],[79.13472,30.7519],[79.1399,30.74978],[79.14309,30.74978],[79.1482,30.75226],[79.15582,30.75418],[79.16112,30.75649],[79.16716,30.75696],[79.18905,30.74904],[79.19684,30.74318],[79.20005,30.73518],[79.20895,30.73847],[79.21717,30.73963],[79.22966,30.73648],[79.24913,30.73304],[79.25932,30.72383],[79.26145,30.72348],[79.27497,30.72483],[79.27897,30.72611]]]}}]}