{"type":"FeatureCollection","features":[{"type":"Feature","properties":{"id":"udham-singh-nagar","name":"Udham Singh Nagar","stateId":"uttarakhand","stateName":"Uttarakhand","censuscode":67,"type":"district"},"geometry":{"type":"Polygon","coordinates":[[[78.84098,29.36219],[78.84099,29.36218],[78.84348,29.3577],[78.849,29.35294],[78.85605,29.35056],[78.86716,29.34789],[78.87282,29.3461],[78.87554,29.34611],[78.87979,29.35063],[78.88168,29.34964],[78.88465,29.34526],[78.88675,29.34381],[78.89011,29.34264],[78.89355,29.34349],[78.89553,29.34479],[78.9016,29.34465],[78.90326,29.34511],[78.91237,29.3438],[78.91468,29.34299],[78.92306,29.34177],[78.92988,29.33906],[78.93115,29.33678],[78.93263,29.3356],[78.93682,29.33416],[78.94124,29.3308],[78.94335,29.32979],[78.95069,29.32637],[78.95238,29.32483],[78.95384,29.32438],[78.95773,29.32193],[78.96215,29.31848],[78.9696,29.31559],[78.97244,29.31387],[78.97519,29.31004],[78.97761,29.30841],[78.97959,29.30824],[78.98455,29.31099],[78.98677,29.31222],[78.98907,29.31297],[78.99305,29.31217],[78.99565,29.31301],[79.00086,29.31543],[79.00513,29.31756],[79.01036,29.31704],[79.01278,29.31522],[79.01426,29.31331],[79.0146,29.31065],[79.01523,29.30928],[79.0167,29.3092],[79.01837,29.30967],[79.02224,29.30951],[79.02653,29.30834],[79.02728,29.30642],[79.0245,29.30027],[79.01865,29.29531],[79.01558,29.29243],[79.01507,29.29013],[79.01536,29.28897],[79.01583,29.28702],[79.01941,29.2832],[79.02278,29.28056],[79.02282,29.27598],[79.02441,29.27315],[79.02662,29.2706],[79.03053,29.2653],[79.03388,29.26392],[79.03786,29.26287],[79.04312,29.25842],[79.04856,29.25817],[79.054,29.25701],[79.06549,29.25809],[79.07019,29.25614],[79.07188,29.25515],[79.07409,29.25356],[79.07563,29.25705],[79.07554,29.25864],[79.07527,29.26355],[79.07639,29.26596],[79.07753,29.26842],[79.08554,29.27332],[79.08951,29.27362],[79.09435,29.27007],[79.09344,29.26676],[79.09282,29.26448],[79.09013,29.26025],[79.09391,29.25825],[79.09759,29.2579],[79.10761,29.25693],[79.11012,29.25669],[79.11342,29.26267],[79.11433,29.2668],[79.12546,29.27382],[79.13287,29.27542],[79.13999,29.27436],[79.14847,29.26935],[79.15498,29.26674],[79.15801,29.26721],[79.16378,29.26431],[79.16857,29.26286],[79.19029,29.25631],[79.21817,29.249],[79.22502,29.24721],[79.25357,29.24308],[79.27469,29.23984],[79.27482,29.23663],[79.26216,29.22191],[79.25217,29.21472],[79.24762,29.2081],[79.24723,29.20241],[79.24464,29.19919],[79.24676,29.19481],[79.24753,29.18858],[79.25039,29.18236],[79.25448,29.17945],[79.26704,29.17428],[79.27219,29.16816],[79.27808,29.16031],[79.28731,29.15329],[79.29443,29.15048],[79.29536,29.14941],[79.30071,29.14329],[79.3036,29.14106],[79.31593,29.13271],[79.32568,29.1256],[79.33288,29.11723],[79.34111,29.10889],[79.35002,29.1015],[79.36426,29.09313],[79.37079,29.08847],[79.38583,29.07799],[79.39579,29.06777],[79.40082,29.0641],[79.4093,29.05792],[79.41412,29.05253],[79.41924,29.05145],[79.44188,29.0517],[79.46092,29.05245],[79.51571,29.05161],[79.56717,29.05256],[79.58115,29.05003],[79.59461,29.05162],[79.6307,29.0529],[79.63444,29.05831],[79.6387,29.06309],[79.64381,29.06548],[79.64702,29.07383],[79.65129,29.07659],[79.66048,29.07368],[79.67946,29.06384],[79.68356,29.06189],[79.688,29.06],[79.69381,29.0545],[79.69695,29.04882],[79.69634,29.04469],[79.7001,29.04085],[79.70418,29.03793],[79.70972,29.03299],[79.71473,29.03144],[79.72109,29.03154],[79.72495,29.02898],[79.73518,29.02698],[79.7477,29.02526],[79.75072,29.0271],[79.7504,29.02948],[79.748,29.03149],[79.74893,29.0336],[79.753,29.03544],[79.75634,29.03481],[79.76207,29.03527],[79.76374,29.03766],[79.76582,29.03766],[79.77115,29.03474],[79.77324,29.03089],[79.77273,29.02759],[79.77336,29.0253],[79.77701,29.0253],[79.78066,29.02714],[79.78514,29.0254],[79.78984,29.0233],[79.79464,29.02276],[79.79797,29.02432],[79.79958,29.02446],[79.8011,29.0246],[79.80455,29.02332],[79.80717,29.01517],[79.8055,29.01498],[79.80028,29.01497],[79.79778,29.01305],[79.79727,29.01066],[79.79988,29.00691],[79.80739,29.00242],[79.80844,29.00068],[79.80761,28.99692],[79.80762,28.99353],[79.80845,28.99198],[79.81408,28.99299],[79.81492,28.99061],[79.81461,28.98667],[79.81597,28.98648],[79.81962,28.98795],[79.82368,28.98888],[79.82618,28.99025],[79.82889,28.99392],[79.83233,28.99604],[79.83931,28.99989],[79.84066,28.9998],[79.83983,28.99797],[79.83994,28.99614],[79.84223,28.99595],[79.84432,28.99825],[79.84587,29.00237],[79.84816,29.00586],[79.85035,29.00779],[79.8515,29.0099],[79.85389,29.01072],[79.85525,29.01054],[79.85622,29.0116],[79.85817,29.01284],[79.86391,29.00972],[79.86443,29.00807],[79.86454,29.00587],[79.8659,29.00193],[79.86788,28.99845],[79.87146,28.99564],[79.87534,28.99271],[79.87613,28.99213],[79.87634,28.99067],[79.87447,28.98814],[79.87248,28.9859],[79.87207,28.98223],[79.87259,28.98095],[79.87624,28.97857],[79.87812,28.97857],[79.88,28.98013],[79.88177,28.98242],[79.88162,28.9868],[79.88113,28.99095],[79.88238,28.99306],[79.88686,28.99535],[79.88916,28.9959],[79.89072,28.99453],[79.8926,28.99224],[79.895,28.9916],[79.89635,28.99361],[79.89833,28.9949],[79.89885,28.99637],[79.89697,29.00168],[79.89791,29.00452],[79.90062,29.00535],[79.90375,29.00544],[79.90427,29.0071],[79.90364,29.00865],[79.90187,29.00929],[79.90124,29.01113],[79.90239,29.01259],[79.90207,29.01434],[79.90228,29.01663],[79.90353,29.01782],[79.90822,29.02488],[79.91072,29.02699],[79.91312,29.02773],[79.91374,29.0291],[79.91343,29.0313],[79.91405,29.03249],[79.91541,29.03268],[79.92,29.03002],[79.92314,29.03118],[79.92469,29.03213],[79.92824,29.03708],[79.93209,29.038],[79.93345,29.03956],[79.93762,29.04231],[79.94385,29.04234],[79.94617,29.04222],[79.94868,29.04287],[79.95128,29.04433],[79.95441,29.04479],[79.95681,29.04415],[79.95806,29.04516],[79.9614,29.04599],[79.96558,29.04599],[79.96797,29.04773],[79.96943,29.04956],[79.97027,29.05195],[79.97013,29.05316],[79.97177,29.05197],[80,29.06872],[80.00161,29.08562],[80.00434,29.08883],[80.00735,29.08951],[80.01164,29.08749],[80.02186,29.07586],[80.02693,29.07295],[80.03239,29.07174],[80.04102,29.07355],[80.04941,29.07984],[80.05303,29.08358],[80.05681,29.08589],[80.05983,29.08535],[80.06213,29.08368],[80.06569,29.07695],[80.06858,29.0734],[80.07124,29.07322],[80.07423,29.07546],[80.07924,29.08378],[80.08464,29.10336],[80.08333,29.11099],[80.07965,29.12032],[80.08161,29.12251],[80.09753,29.116],[80.10451,29.11754],[80.12222,29.11685],[80.12747,29.11745],[80.13596,29.12002],[80.14801,29.1269],[80.1515,29.12728],[80.15554,29.12505],[80.16311,29.11437],[80.16186,29.11284],[80.15838,29.10953],[80.1549,29.10679],[80.15324,29.10543],[80.15225,29.10466],[80.15137,29.10284],[80.14892,29.09966],[80.1446,29.09265],[80.13813,29.0781],[80.13617,29.07245],[80.13556,29.06877],[80.13584,29.06531],[80.13649,29.06396],[80.13702,29.06396],[80.14372,29.05899],[80.14359,29.05605],[80.13835,29.04973],[80.13419,29.042],[80.1302,29.03456],[80.132,29.03389],[80.13253,29.03367],[80.13381,29.03006],[80.13357,29.02529],[80.13066,29.01671],[80.13055,29.01422],[80.13723,29.01265],[80.14083,29.01041],[80.14085,29.00634],[80.13804,29.00429],[80.13366,29.00359],[80.13264,29.00405],[80.13009,29.0045],[80.12546,29.00247],[80.12471,29.00112],[80.12383,28.99308],[80.12164,28.98648],[80.12117,28.98529],[80.11788,28.98391],[80.11092,28.98343],[80.10618,28.9823],[80.10412,28.98139],[80.10261,28.98136],[80.1021,28.97978],[80.09917,28.97638],[80.09803,28.97541],[80.09715,28.97366],[80.09429,28.97074],[80.09203,28.96577],[80.08883,28.96217],[80.08154,28.94416],[80.08097,28.94325],[80.08025,28.94154],[80.07371,28.93092],[80.06987,28.92639],[80.0666,28.91872],[80.06334,28.90379],[80.06414,28.88908],[80.06413,28.88452],[80.06361,28.84526],[80.06465,28.83984],[80.07035,28.82923],[80.04596,28.80378],[80.04547,28.79942],[80.04384,28.79745],[80.03754,28.7938],[80.03922,28.79134],[80.04454,28.78814],[80.04809,28.78468],[80.0523,28.77707],[80.04999,28.76908],[80.04636,28.76299],[80.04579,28.76034],[80.04657,28.75718],[80.04526,28.75533],[80.04304,28.75452],[80.04087,28.75202],[80.03476,28.74262],[80.0254,28.73133],[80.0174,28.72345],[80.01462,28.7209],[80.01132,28.71959],[79.99999,28.71097],[79.98655,28.7107],[79.97955,28.70956],[79.96461,28.71147],[79.95259,28.7154],[79.94124,28.72045],[79.93412,28.72665],[79.93408,28.73222],[79.93325,28.73894],[79.92983,28.74614],[79.9235,28.75322],[79.92191,28.75726],[79.92383,28.75889],[79.91749,28.76604],[79.91105,28.76779],[79.90628,28.77294],[79.90388,28.7752],[79.90072,28.77971],[79.9052,28.7858],[79.90994,28.78882],[79.91237,28.79334],[79.91311,28.79606],[79.90662,28.79538],[79.89785,28.79274],[79.89193,28.79075],[79.88486,28.79039],[79.87908,28.79038],[79.87148,28.79238],[79.86516,28.79472],[79.85829,28.79889],[79.85234,28.80259],[79.85514,28.80896],[79.85804,28.81523],[79.86154,28.81567],[79.86606,28.81476],[79.87224,28.81183],[79.88307,28.81034],[79.88746,28.81227],[79.8873,28.81522],[79.88717,28.82417],[79.88286,28.82456],[79.87245,28.82807],[79.86746,28.83299],[79.86653,28.83535],[79.86591,28.83821],[79.86135,28.83931],[79.85599,28.83747],[79.85356,28.83653],[79.84568,28.83832],[79.8415,28.8406],[79.83631,28.83871],[79.83419,28.83568],[79.82562,28.82563],[79.82466,28.8241],[79.82753,28.81859],[79.82802,28.81566],[79.82645,28.81304],[79.82681,28.8085],[79.82771,28.80618],[79.82586,28.80453],[79.82308,28.8053],[79.82084,28.80466],[79.81682,28.80265],[79.81599,28.80098],[79.81482,28.79951],[79.81305,28.79846],[79.80651,28.79772],[79.8038,28.79696],[79.79724,28.80012],[79.79513,28.79934],[79.79394,28.8071],[79.79797,28.81485],[79.8012,28.81362],[79.80369,28.80908],[79.80658,28.80864],[79.80885,28.81041],[79.80963,28.81474],[79.81169,28.81861],[79.81302,28.82356],[79.81328,28.8272],[79.81102,28.83015],[79.80551,28.83319],[79.80615,28.83695],[79.81,28.83995],[79.81002,28.84195],[79.80855,28.84346],[79.80648,28.84677],[79.81178,28.84818],[79.81997,28.85021],[79.82089,28.85283],[79.8205,28.85674],[79.8188,28.86023],[79.81762,28.86297],[79.81467,28.86574],[79.80883,28.86437],[79.80672,28.86378],[79.80349,28.86432],[79.80314,28.86773],[79.80252,28.87135],[79.78635,28.88574],[79.77386,28.88361],[79.77165,28.88344],[79.76186,28.88727],[79.76058,28.88545],[79.75675,28.88369],[79.75318,28.87927],[79.75232,28.87709],[79.74915,28.8765],[79.7447,28.877],[79.74023,28.87898],[79.73,28.87668],[79.72741,28.87569],[79.72404,28.87459],[79.72147,28.87312],[79.71859,28.86915],[79.71749,28.86626],[79.71702,28.86413],[79.71375,28.86381],[79.70889,28.86419],[79.70417,28.86223],[79.69997,28.86209],[79.69827,28.8609],[79.69616,28.85125],[79.68467,28.85151],[79.67889,28.84801],[79.67909,28.84393],[79.678,28.84223],[79.67126,28.84164],[79.66584,28.84264],[79.65573,28.84681],[79.65506,28.84713],[79.65289,28.85036],[79.64635,28.85234],[79.64254,28.85276],[79.63578,28.85659],[79.63085,28.86147],[79.62537,28.86263],[79.62047,28.8606],[79.6154,28.85859],[79.60984,28.85881],[79.60405,28.86044],[79.59374,28.84973],[79.59055,28.84628],[79.58831,28.84417],[79.58603,28.84319],[79.58364,28.84291],[79.57755,28.84336],[79.57522,28.84265],[79.57409,28.84181],[79.57115,28.84059],[79.56891,28.83959],[79.56536,28.83894],[79.56267,28.83978],[79.55997,28.84394],[79.55944,28.84819],[79.5617,28.85405],[79.56297,28.85709],[79.56303,28.86],[79.56345,28.86214],[79.56553,28.8687],[79.56576,28.87242],[79.56435,28.87542],[79.56229,28.87807],[79.55513,28.88455],[79.55049,28.8863],[79.54825,28.88644],[79.54489,28.88421],[79.5417,28.88078],[79.53771,28.87589],[79.53437,28.87022],[79.53174,28.86718],[79.5291,28.86447],[79.52582,28.86148],[79.52189,28.85858],[79.51899,28.85719],[79.51424,28.85665],[79.50868,28.85628],[79.50311,28.8565],[79.49829,28.85849],[79.49437,28.86011],[79.48839,28.86106],[79.4795,28.85879],[79.47643,28.85664],[79.47511,28.85441],[79.47146,28.85305],[79.46683,28.85394],[79.45951,28.85395],[79.45148,28.85493],[79.44517,28.85553],[79.44202,28.85368],[79.43924,28.85114],[79.4356,28.84913],[79.43133,28.84918],[79.42883,28.84972],[79.42291,28.84976],[79.42047,28.85191],[79.41791,28.85614],[79.41664,28.86133],[79.41652,28.86501],[79.41603,28.86879],[79.4136,28.87117],[79.40963,28.87492],[79.40738,28.87933],[79.41213,28.88947],[79.41291,28.89365],[79.413,28.89575],[79.41185,28.9049],[79.41077,28.91086],[79.41321,28.91526],[79.41441,28.92293],[79.41324,28.92615],[79.41011,28.92905],[79.40737,28.93064],[79.40125,28.9322],[79.39678,28.9312],[79.39114,28.93018],[79.38883,28.93093],[79.3867,28.93328],[79.38517,28.93575],[79.38433,28.94152],[79.38407,28.94507],[79.38257,28.94847],[79.38081,28.95157],[79.37927,28.95383],[79.37689,28.95589],[79.37522,28.96056],[79.37152,28.96437],[79.36895,28.96187],[79.36692,28.95917],[79.36467,28.95512],[79.36457,28.95271],[79.36572,28.95071],[79.36658,28.9473],[79.3637,28.94632],[79.36143,28.94598],[79.3557,28.94702],[79.34945,28.94842],[79.3455,28.94888],[79.34062,28.94929],[79.33274,28.95065],[79.32839,28.95068],[79.32395,28.95195],[79.31897,28.95236],[79.31647,28.94783],[79.31329,28.94675],[79.3107,28.947],[79.30726,28.94819],[79.29778,28.95439],[79.29068,28.95874],[79.28546,28.96676],[79.28232,28.96932],[79.28025,28.9713],[79.27615,28.97603],[79.26985,28.98085],[79.26179,28.98607],[79.25572,28.99037],[79.25121,28.9938],[79.2496,29.00073],[79.23339,29.01118],[79.22301,29.0176],[79.21588,29.02302],[79.21097,29.01918],[79.20942,29.01599],[79.1948,29.01811],[79.19678,29.0119],[79.18944,29.01353],[79.1804,29.00976],[79.17745,29.01121],[79.17593,29.0145],[79.1701,29.01679],[79.16635,29.02132],[79.16604,29.02682],[79.17053,29.0281],[79.17201,29.03722],[79.17727,29.04516],[79.16533,29.04868],[79.15557,29.054],[79.14886,29.06326],[79.14662,29.07582],[79.14894,29.08482],[79.15513,29.09287],[79.15591,29.10053],[79.15418,29.11365],[79.14581,29.11808],[79.14278,29.12328],[79.12977,29.1278],[79.12558,29.12458],[79.12049,29.12437],[79.11271,29.12561],[79.10419,29.13067],[79.08484,29.14593],[79.07145,29.1502],[79.06635,29.14911],[79.05811,29.14867],[79.05021,29.16023],[79.04576,29.16503],[79.03894,29.16621],[79.03813,29.1659],[79.03504,29.16472],[79.03374,29.16124],[79.03587,29.15732],[79.03948,29.15468],[79.03938,29.14981],[79.04063,29.14633],[79.03835,29.14379],[79.03343,29.14474],[79.02892,29.14791],[79.02532,29.15163],[79.02292,29.15115],[79.02241,29.14696],[79.02474,29.14306],[79.02398,29.13881],[79.02053,29.1333],[79.02068,29.13015],[79.0238,29.12865],[79.03094,29.12902],[79.03544,29.12707],[79.0396,29.12689],[79.04288,29.12415],[79.04162,29.11936],[79.03799,29.11548],[79.03375,29.11285],[79.0289,29.11179],[79.01848,29.11445],[79.01246,29.11048],[79.01029,29.11687],[79.00656,29.1193],[79.00732,29.12321],[79.00452,29.12756],[79.00001,29.12905],[78.99546,29.13129],[78.99455,29.1409],[78.99095,29.14869],[78.98514,29.15476],[78.97857,29.15949],[78.97427,29.16075],[78.97253,29.15981],[78.9723,29.15855],[78.97321,29.15713],[78.97275,29.15555],[78.96804,29.15432],[78.96341,29.15366],[78.9608,29.14673],[78.95629,29.14353],[78.94564,29.14816],[78.93554,29.15107],[78.93267,29.14681],[78.92635,29.14293],[78.9123,29.14457],[78.91024,29.14884],[78.90779,29.14973],[78.90694,29.15076],[78.91152,29.15537],[78.91669,29.15712],[78.91763,29.15916],[78.91523,29.16163],[78.91643,29.16452],[78.91432,29.16846],[78.91766,29.17145],[78.91764,29.17429],[78.91326,29.17669],[78.91106,29.1846],[78.90631,29.18986],[78.90917,29.19265],[78.91112,29.19655],[78.90552,29.1988],[78.89974,29.20429],[78.90424,29.20681],[78.90412,29.20884],[78.90301,29.21043],[78.89887,29.21179],[78.89644,29.21347],[78.89485,29.21929],[78.88213,29.22251],[78.88157,29.22351],[78.88504,29.22624],[78.8856,29.22922],[78.883,29.2347],[78.87609,29.24347],[78.86988,29.24617],[78.8664,29.2494],[78.86586,29.25319],[78.86465,29.25529],[78.86264,29.25621],[78.85871,29.25223],[78.85721,29.25213],[78.85435,29.24827],[78.84606,29.25017],[78.8452,29.2534],[78.84328,29.25472],[78.83959,29.25192],[78.83491,29.24977],[78.82813,29.24782],[78.82579,29.24628],[78.81188,29.25185],[78.80487,29.25661],[78.80194,29.25698],[78.79938,29.25933],[78.79801,29.26702],[78.79356,29.26523],[78.77067,29.28067],[78.77886,29.27992],[78.77756,29.28392],[78.77311,29.28734],[78.7588,29.29671],[78.75094,29.30033],[78.74344,29.30502],[78.73961,29.30681],[78.73285,29.30631],[78.72589,29.31138],[78.72618,29.31336],[78.73179,29.31245],[78.73316,29.31349],[78.7394,29.31151],[78.74068,29.31298],[78.73799,29.31915],[78.73777,29.324],[78.73981,29.32541],[78.74042,29.32819],[78.74368,29.32833],[78.74688,29.32578],[78.75359,29.32664],[78.75373,29.3299],[78.75818,29.33494],[78.75914,29.33736],[78.76952,29.34378],[78.77565,29.34141],[78.77744,29.33975],[78.77596,29.33722],[78.77804,29.33507],[78.78172,29.33467],[78.79117,29.33629],[78.79301,29.33753],[78.79459,29.34046],[78.79659,29.33695],[78.79345,29.32597],[78.80093,29.32329],[78.80344,29.32901],[78.80951,29.33098],[78.81003,29.33233],[78.80484,29.33745],[78.8038,29.34189],[78.80226,29.34441],[78.80228,29.34614],[78.80934,29.34965],[78.81902,29.36716],[78.81996,29.37428],[78.82117,29.3769],[78.82381,29.37872],[78.82721,29.37936],[78.82317,29.3743],[78.82395,29.36632],[78.82637,29.36405],[78.83611,29.36245],[78.84098,29.36219]]]}}]}