{"type":"FeatureCollection","features":[{"type":"Feature","properties":{"id":"nizamabad","name":"Nizamabad","stateId":"telangana","stateName":"Telangana","censuscode":533,"type":"district"},"geometry":{"type":"Polygon","coordinates":[[[78.53378,18.94357],[78.52749,18.92997],[78.52245,18.91525],[78.52335,18.90926],[78.53545,18.89766],[78.5404,18.89144],[78.5459,18.87608],[78.54782,18.85792],[78.54988,18.84634],[78.55029,18.83319],[78.55137,18.82423],[78.554,18.82089],[78.55631,18.81583],[78.55964,18.79724],[78.56818,18.78529],[78.56127,18.77226],[78.56094,18.76368],[78.57509,18.74541],[78.58489,18.73818],[78.59372,18.73556],[78.60415,18.73452],[78.61365,18.73649],[78.62548,18.73683],[78.63696,18.7327],[78.64222,18.7278],[78.64292,18.7197],[78.64506,18.71137],[78.64243,18.69612],[78.64299,18.69092],[78.6469,18.67982],[78.65219,18.65982],[78.6595,18.64327],[78.66514,18.63546],[78.6681,18.6337],[78.67559,18.62918],[78.67919,18.62535],[78.67514,18.6187],[78.65846,18.59993],[78.64554,18.59282],[78.62045,18.58708],[78.61183,18.58392],[78.604,18.57814],[78.60031,18.57145],[78.59449,18.54706],[78.58858,18.54456],[78.58019,18.5469],[78.57317,18.54743],[78.56399,18.54254],[78.55872,18.53663],[78.54903,18.51709],[78.537,18.49711],[78.52642,18.47733],[78.52449,18.47026],[78.53309,18.46292],[78.54261,18.45824],[78.55114,18.44624],[78.55384,18.4377],[78.5528,18.43093],[78.54777,18.42514],[78.54497,18.41943],[78.5471,18.41134],[78.55145,18.40677],[78.56315,18.39751],[78.56617,18.3908],[78.55973,18.3903],[78.54969,18.39119],[78.53764,18.39078],[78.53409,18.38569],[78.53715,18.36794],[78.54487,18.3521],[78.54927,18.34524],[78.55108,18.33835],[78.54282,18.31734],[78.54206,18.30275],[78.53693,18.29832],[78.52734,18.29206],[78.52258,18.285],[78.54935,18.26893],[78.55661,18.26098],[78.56016,18.25428],[78.56399,18.24152],[78.56858,18.22981],[78.5694,18.22129],[78.5678,18.20182],[78.56846,18.18822],[78.56096,18.18444],[78.55331,18.18227],[78.54506,18.18186],[78.53513,18.18423],[78.52406,18.18091],[78.51788,18.17567],[78.51146,18.17432],[78.50407,18.17157],[78.49532,18.16515],[78.48938,18.1575],[78.48875,18.1492],[78.49757,18.13949],[78.49046,18.1328],[78.48544,18.1313],[78.47189,18.12914],[78.46272,18.12963],[78.45601,18.13284],[78.4516,18.13809],[78.44815,18.1449],[78.44569,18.15603],[78.44149,18.16648],[78.4278,18.15809],[78.42718,18.14995],[78.42449,18.14236],[78.41464,18.13259],[78.4038,18.13002],[78.39522,18.13131],[78.3886,18.12463],[78.38368,18.13005],[78.37386,18.14785],[78.36781,18.1509],[78.36836,18.15983],[78.35994,18.17228],[78.34062,18.18908],[78.32664,18.20012],[78.32259,18.20057],[78.31738,18.19287],[78.31419,18.18419],[78.30898,18.17615],[78.29646,18.16524],[78.28305,18.149],[78.27294,18.14426],[78.26171,18.14728],[78.24853,18.15999],[78.24027,18.16443],[78.23175,18.17172],[78.22543,18.17557],[78.21806,18.1787],[78.22315,18.18811],[78.21701,18.20334],[78.21259,18.21882],[78.20305,18.21929],[78.19366,18.21467],[78.18384,18.20432],[78.17629,18.18989],[78.17275,18.1789],[78.17126,18.16972],[78.17307,18.15254],[78.17728,18.12761],[78.17717,18.11462],[78.17336,18.10672],[78.16977,18.10151],[78.16533,18.09691],[78.16101,18.09404],[78.15822,18.09056],[78.15777,18.08929],[78.15374,18.08727],[78.15101,18.08345],[78.14662,18.07938],[78.14098,18.07653],[78.12345,18.0768],[78.11742,18.07933],[78.11356,18.09797],[78.10887,18.09783],[78.10145,18.09192],[78.09743,18.07959],[78.09434,18.07661],[78.09382,18.0771],[78.09297,18.07724],[78.09146,18.07968],[78.07877,18.07942],[78.07563,18.08236],[78.06312,18.08821],[78.05374,18.09111],[78.04122,18.09697],[78.02253,18.09686],[78.01628,18.09979],[78.00995,18.11153],[78.00395,18.11379],[78.00002,18.11314],[77.97882,18.11359],[77.96726,18.11306],[77.95368,18.11476],[77.94198,18.11256],[77.93724,18.10684],[77.92906,18.09942],[77.91378,18.0983],[77.89787,18.0904],[77.89784,18.09259],[77.89939,18.09516],[77.90269,18.098],[77.90796,18.09888],[77.90696,18.1059],[77.91183,18.1026],[77.91716,18.10319],[77.91959,18.10724],[77.92348,18.10493],[77.92838,18.10539],[77.93149,18.11733],[77.91972,18.11541],[77.91153,18.12354],[77.91452,18.12593],[77.91961,18.12504],[77.92743,18.13121],[77.92657,18.13382],[77.92325,18.13682],[77.92618,18.14232],[77.93282,18.14105],[77.93418,18.14221],[77.93309,18.14705],[77.93816,18.15198],[77.93071,18.15705],[77.92341,18.15214],[77.9272,18.14873],[77.92248,18.14664],[77.91843,18.14799],[77.91815,18.14538],[77.91588,18.14422],[77.91206,18.14837],[77.9073,18.1455],[77.90491,18.14755],[77.90615,18.1546],[77.9009,18.15615],[77.8975,18.16035],[77.90688,18.1687],[77.90383,18.17268],[77.90364,18.18327],[77.90575,18.19411],[77.88275,18.1892],[77.87155,18.19115],[77.86546,18.19312],[77.86477,18.19848],[77.867,18.20314],[77.85497,18.20726],[77.84898,18.20241],[77.84181,18.20408],[77.83173,18.20083],[77.82932,18.1963],[77.81203,18.19871],[77.80615,18.20433],[77.79635,18.20541],[77.78785,18.19915],[77.78229,18.20069],[77.7788,18.19612],[77.77831,18.19277],[77.77261,18.19058],[77.76133,18.20322],[77.75987,18.20757],[77.74814,18.2072],[77.74479,18.20642],[77.74594,18.21096],[77.74451,18.22603],[77.74089,18.22605],[77.73932,18.23557],[77.73104,18.23514],[77.73265,18.24312],[77.72957,18.25446],[77.72473,18.26036],[77.71312,18.25835],[77.70881,18.26073],[77.6902,18.26198],[77.6898,18.26717],[77.66819,18.28326],[77.64728,18.2858],[77.62894,18.2848],[77.62045,18.2755],[77.60268,18.27482],[77.60668,18.27991],[77.60148,18.28313],[77.58743,18.28496],[77.57791,18.28872],[77.57823,18.29117],[77.57424,18.29234],[77.56455,18.28497],[77.5535,18.29319],[77.55858,18.30014],[77.5738,18.31002],[77.57048,18.31978],[77.5569,18.33301],[77.54571,18.33568],[77.5308,18.34115],[77.52295,18.35099],[77.52484,18.36636],[77.53395,18.37748],[77.54506,18.38693],[77.55282,18.38943],[77.5587,18.41953],[77.54761,18.42208],[77.53864,18.42283],[77.53945,18.4251],[77.52938,18.42899],[77.53191,18.4421],[77.53796,18.44402],[77.54992,18.4422],[77.56368,18.43671],[77.57045,18.44027],[77.57767,18.44101],[77.5862,18.44474],[77.58877,18.44712],[77.58684,18.44885],[77.5872,18.4552],[77.56258,18.45963],[77.55328,18.45959],[77.55235,18.46243],[77.54967,18.46499],[77.55,18.46733],[77.56158,18.46689],[77.5639,18.46911],[77.57415,18.46849],[77.58004,18.48539],[77.59432,18.48274],[77.5967,18.47514],[77.60465,18.47586],[77.60734,18.4869],[77.60642,18.49301],[77.59745,18.49549],[77.58981,18.50452],[77.59061,18.51144],[77.60004,18.51658],[77.60502,18.52353],[77.60398,18.52655],[77.59684,18.52472],[77.59684,18.52959],[77.60175,18.5366],[77.60083,18.54909],[77.61445,18.54932],[77.6169,18.54396],[77.61941,18.54451],[77.61992,18.55023],[77.63268,18.55221],[77.63804,18.54677],[77.64412,18.55551],[77.65247,18.5542],[77.6532,18.55125],[77.65587,18.55122],[77.65314,18.54293],[77.64896,18.53791],[77.66125,18.52884],[77.66577,18.53488],[77.67962,18.54297],[77.68649,18.54245],[77.71615,18.55609],[77.73175,18.55321],[77.74034,18.55648],[77.73921,18.56484],[77.75102,18.59072],[77.75194,18.60693],[77.7468,18.62299],[77.73984,18.63246],[77.73351,18.64427],[77.73356,18.64713],[77.73391,18.64964],[77.73472,18.65685],[77.73697,18.65724],[77.73704,18.66366],[77.7319,18.66572],[77.73665,18.6775],[77.7485,18.6854],[77.75333,18.69128],[77.75375,18.69933],[77.76149,18.70856],[77.76824,18.70943],[77.77266,18.70313],[77.77327,18.69211],[77.79033,18.68566],[77.79042,18.69586],[77.80613,18.71764],[77.80664,18.73075],[77.81432,18.74175],[77.82714,18.76997],[77.8315,18.78745],[77.84141,18.80888],[77.86322,18.8155],[77.91167,18.83098],[77.93287,18.82322],[77.94672,18.82381],[77.94939,18.83361],[77.94828,18.84377],[77.95682,18.85499],[77.96425,18.87002],[77.97262,18.87677],[78.00001,18.88306],[78.02248,18.87686],[78.0291,18.8779],[78.03359,18.88142],[78.03808,18.8954],[78.0432,18.90631],[78.05158,18.91956],[78.05237,18.9205],[78.06508,18.93116],[78.07048,18.93472],[78.07346,18.93692],[78.08628,18.93979],[78.09374,18.94347],[78.10184,18.94592],[78.12189,18.95394],[78.13405,18.96006],[78.16187,18.98169],[78.17884,18.98922],[78.19397,18.99387],[78.20657,18.99992],[78.22243,19.00295],[78.23751,19.00419],[78.24964,19.00006],[78.25277,18.99907],[78.2651,18.99192],[78.2728,18.98331],[78.278,18.97038],[78.27736,18.95876],[78.28156,18.94517],[78.28938,18.94249],[78.30375,18.94622],[78.31846,18.95264],[78.33075,18.95919],[78.35899,18.98035],[78.36952,18.98659],[78.38282,18.99],[78.39348,18.99189],[78.40535,18.98962],[78.41647,18.98144],[78.43435,18.96524],[78.44332,18.96041],[78.4517,18.95905],[78.46556,18.95921],[78.49891,18.96555],[78.51061,18.96041],[78.52406,18.9478],[78.53104,18.94484],[78.53378,18.94357]]]}}]}