{"type":"FeatureCollection","features":[{"type":"Feature","properties":{"id":"alappuzha","name":"Alappuzha","stateId":"kerala","stateName":"Kerala","censuscode":598,"type":"district"},"geometry":{"type":"Polygon","coordinates":[[[76.37334,9.83565],[76.37955,9.82888],[76.38176,9.81554],[76.36837,9.80001],[76.36622,9.79158],[76.37219,9.77614],[76.37426,9.76774],[76.37769,9.7615],[76.38182,9.74993],[76.38246,9.74205],[76.38187,9.7262],[76.38041,9.71731],[76.37779,9.70813],[76.37734,9.69521],[76.39026,9.68919],[76.40331,9.68433],[76.39772,9.66576],[76.3971,9.6599],[76.39797,9.64582],[76.39936,9.63059],[76.39799,9.61813],[76.39687,9.59384],[76.39566,9.58689],[76.3946,9.56312],[76.39384,9.55571],[76.39174,9.54585],[76.40464,9.55167],[76.40544,9.55752],[76.41078,9.56093],[76.41495,9.55992],[76.41524,9.55811],[76.41561,9.55589],[76.42081,9.55534],[76.42752,9.54753],[76.43994,9.55214],[76.46587,9.55872],[76.46505,9.55051],[76.46601,9.54045],[76.47933,9.53414],[76.48031,9.52609],[76.47989,9.51064],[76.48164,9.50574],[76.49293,9.50508],[76.49898,9.50222],[76.50569,9.50193],[76.5078,9.4987],[76.50806,9.49496],[76.5069,9.48647],[76.50711,9.47762],[76.50517,9.4743],[76.50599,9.46809],[76.50445,9.46385],[76.5017,9.46049],[76.49912,9.45568],[76.49668,9.43962],[76.50613,9.43621],[76.51148,9.433],[76.50628,9.42569],[76.50852,9.42441],[76.50896,9.42136],[76.51066,9.41744],[76.50839,9.41459],[76.5099,9.40188],[76.51568,9.40011],[76.51356,9.39726],[76.51237,9.39336],[76.51298,9.38939],[76.51481,9.38662],[76.51239,9.38118],[76.51235,9.37624],[76.50945,9.37574],[76.51144,9.37062],[76.51759,9.36655],[76.52371,9.36506],[76.5234,9.36248],[76.51432,9.36221],[76.51251,9.35262],[76.49568,9.34667],[76.48978,9.34649],[76.47805,9.33354],[76.47644,9.32838],[76.48024,9.32559],[76.48887,9.32581],[76.49624,9.32265],[76.50148,9.32066],[76.50703,9.3205],[76.51614,9.32376],[76.53089,9.32324],[76.53452,9.32171],[76.53698,9.31865],[76.55002,9.32142],[76.55472,9.32351],[76.55486,9.33436],[76.55864,9.33692],[76.55996,9.3419],[76.5539,9.34322],[76.55139,9.34668],[76.55614,9.34895],[76.5593,9.34616],[76.56396,9.34945],[76.57295,9.35329],[76.5782,9.35014],[76.58094,9.34731],[76.5868,9.34864],[76.59681,9.34907],[76.60136,9.34748],[76.60521,9.34469],[76.62455,9.33977],[76.62878,9.33973],[76.6322,9.342],[76.64198,9.34204],[76.64334,9.33967],[76.64227,9.33525],[76.64501,9.33058],[76.64498,9.33056],[76.63894,9.32557],[76.64756,9.31229],[76.65268,9.30748],[76.65495,9.30424],[76.65487,9.2947],[76.65574,9.28821],[76.6596,9.28559],[76.66423,9.28612],[76.66844,9.28471],[76.67198,9.28721],[76.67616,9.28826],[76.681,9.29362],[76.68536,9.28922],[76.68687,9.28961],[76.6876,9.29368],[76.69385,9.2942],[76.69407,9.28616],[76.69299,9.28203],[76.68279,9.27925],[76.67807,9.2686],[76.66435,9.26688],[76.65687,9.25763],[76.65432,9.25122],[76.65908,9.23935],[76.65446,9.23433],[76.65179,9.23286],[76.64809,9.23249],[76.64096,9.22991],[76.64415,9.21758],[76.64134,9.21433],[76.64401,9.21431],[76.64449,9.21121],[76.64251,9.20846],[76.64482,9.20172],[76.64742,9.20107],[76.647,9.20676],[76.65012,9.20714],[76.65428,9.19969],[76.66838,9.19785],[76.67768,9.18381],[76.68427,9.1768],[76.68636,9.17271],[76.68483,9.16899],[76.6797,9.17064],[76.67611,9.17015],[76.67435,9.16747],[76.67334,9.1634],[76.67453,9.15494],[76.67334,9.15128],[76.66749,9.14914],[76.6561,9.14895],[76.64268,9.14803],[76.63988,9.14518],[76.63465,9.13511],[76.62372,9.13377],[76.62017,9.13196],[76.61847,9.12904],[76.61417,9.12695],[76.6032,9.12808],[76.59719,9.12841],[76.59077,9.12772],[76.58995,9.11991],[76.58635,9.11764],[76.58516,9.11352],[76.57668,9.11497],[76.56968,9.10807],[76.56506,9.10805],[76.5584,9.10673],[76.5512,9.10966],[76.54721,9.12279],[76.54336,9.12655],[76.54315,9.13557],[76.53666,9.13436],[76.51459,9.1358],[76.51185,9.13226],[76.50854,9.1312],[76.50712,9.12736],[76.50843,9.12396],[76.50846,9.12092],[76.50287,9.12297],[76.49848,9.12295],[76.49003,9.12135],[76.48571,9.12143],[76.48488,9.12145],[76.48289,9.12032],[76.48116,9.11935],[76.47959,9.11632],[76.49177,9.08762],[76.48662,9.08456],[76.4865,9.085],[76.4851,9.08702],[76.48423,9.08985],[76.48336,9.09103],[76.48291,9.09127],[76.48294,9.0924],[76.48249,9.09264],[76.48188,9.09581],[76.47893,9.09797],[76.47895,9.09843],[76.47823,9.09905],[76.47576,9.10347],[76.47396,9.10511],[76.47206,9.1099],[76.4692,9.11316],[76.46878,9.11499],[76.46705,9.11736],[76.46594,9.11892],[76.46525,9.11939],[76.46423,9.12469],[76.46276,9.12911],[76.45813,9.14293],[76.4528,9.15209],[76.44977,9.15836],[76.4478,9.16068],[76.44736,9.16168],[76.4411,9.17695],[76.43779,9.18497],[76.43685,9.18605],[76.43594,9.187],[76.43432,9.19165],[76.43389,9.19189],[76.4303,9.2015],[76.42907,9.20607],[76.42817,9.20699],[76.4273,9.20791],[76.42605,9.21227],[76.4256,9.21249],[76.42514,9.21274],[76.42475,9.21431],[76.42304,9.21765],[76.42219,9.21885],[76.42109,9.22061],[76.41595,9.23339],[76.41469,9.23476],[76.41355,9.23776],[76.4108,9.24442],[76.40103,9.27322],[76.4006,9.27346],[76.39623,9.28401],[76.39403,9.28633],[76.39381,9.29087],[76.39336,9.29111],[76.39177,9.29548],[76.39124,9.29575],[76.39056,9.29763],[76.3875,9.30553],[76.38368,9.31541],[76.38279,9.31634],[76.38082,9.31888],[76.38042,9.32047],[76.37952,9.32119],[76.37906,9.32141],[76.37607,9.32852],[76.37321,9.332],[76.37286,9.33358],[76.37243,9.33382],[76.37244,9.33451],[76.37176,9.33658],[76.37086,9.33704],[76.36816,9.3434],[76.36729,9.34432],[76.36505,9.34968],[76.36329,9.35132],[76.36143,9.35726],[76.36097,9.35748],[76.36051,9.35773],[76.35847,9.36255],[76.35736,9.36546],[76.3569,9.3657],[76.35569,9.36852],[76.3501,9.38384],[76.34965,9.38409],[76.34919,9.38433],[76.34287,9.40273],[76.34243,9.4044],[76.34183,9.40612],[76.33729,9.42227],[76.33669,9.4248],[76.33694,9.42592],[76.33631,9.42752],[76.33617,9.43068],[76.33598,9.43147],[76.33476,9.4374],[76.33266,9.44567],[76.33212,9.44624],[76.32957,9.4551],[76.32898,9.45848],[76.32742,9.46713],[76.32701,9.4688],[76.32623,9.47317],[76.32016,9.49726],[76.31987,9.49844],[76.31889,9.5039],[76.31624,9.52602],[76.31467,9.53934],[76.31217,9.55145],[76.30901,9.56397],[76.3085,9.57034],[76.30788,9.57284],[76.30754,9.57402],[76.30721,9.57486],[76.30626,9.58985],[76.30603,9.59353],[76.30583,9.59667],[76.29753,9.62568],[76.29296,9.65379],[76.28997,9.67236],[76.28637,9.7175],[76.28579,9.72502],[76.28547,9.73918],[76.28515,9.74492],[76.28461,9.74816],[76.28477,9.75267],[76.28117,9.78122],[76.28024,9.78852],[76.28379,9.78955],[76.28514,9.79247],[76.2847,9.79557],[76.28293,9.7984],[76.28337,9.80334],[76.29117,9.80839],[76.28895,9.81306],[76.2881,9.81692],[76.28487,9.81746],[76.28314,9.81966],[76.28182,9.82754],[76.28496,9.83774],[76.2869,9.84847],[76.29079,9.84965],[76.2956,9.84972],[76.29834,9.85246],[76.2945,9.87358],[76.29328,9.88829],[76.29677,9.89022],[76.2984,9.89014],[76.30244,9.88995],[76.30854,9.88404],[76.33346,9.87645],[76.34076,9.87754],[76.35232,9.88142],[76.35511,9.88174],[76.36216,9.8729],[76.37022,9.85882],[76.37113,9.85577],[76.37022,9.85061],[76.37061,9.84113],[76.37334,9.83565]]]}}]}