{"type":"FeatureCollection","features":[{"type":"Feature","properties":{"id":"idukki","name":"Idukki","stateId":"kerala","stateName":"Kerala","censuscode":596,"type":"district"},"geometry":{"type":"Polygon","coordinates":[[[77.28895,10.22973],[77.29462,10.21643],[77.29323,10.21319],[77.29039,10.21283],[77.28804,10.21064],[77.28716,10.20692],[77.28385,10.20595],[77.28554,10.20322],[77.28362,10.19626],[77.27862,10.18888],[77.27339,10.16448],[77.27389,10.15036],[77.27172,10.145],[77.27188,10.14133],[77.27445,10.13979],[77.27534,10.13783],[77.27413,10.12821],[77.26934,10.12542],[77.26763,10.12052],[77.26042,10.12144],[77.25421,10.12322],[77.2491,10.12571],[77.24476,10.12917],[77.23935,10.12749],[77.23548,10.1244],[77.23298,10.12031],[77.22965,10.1183],[77.22658,10.11778],[77.22022,10.11502],[77.21752,10.1126],[77.21208,10.11545],[77.20877,10.11522],[77.20234,10.1046],[77.202,10.10145],[77.2041,10.09992],[77.20403,10.0955],[77.20498,10.0901],[77.20947,10.0825],[77.21335,10.07963],[77.21875,10.07747],[77.2273,10.06745],[77.23254,10.06587],[77.23509,10.05963],[77.23894,10.05458],[77.24513,10.04856],[77.25159,10.04426],[77.25686,10.03522],[77.26011,10.0327],[77.26266,10.02933],[77.26351,10.0249],[77.25903,10.01683],[77.25529,10.01196],[77.25548,10.0092],[77.26232,10.00392],[77.26237,10.00024],[77.26251,10.00024],[77.2598,9.9953],[77.26142,9.99057],[77.26544,9.99049],[77.26346,9.98648],[77.26454,9.98185],[77.27427,9.97531],[77.27618,9.97283],[77.27377,9.96248],[77.27007,9.95928],[77.26469,9.95162],[77.25497,9.95212],[77.25135,9.95043],[77.25069,9.95242],[77.24945,9.95187],[77.24924,9.94715],[77.23667,9.93183],[77.23571,9.92675],[77.23168,9.91474],[77.21923,9.90328],[77.22137,9.88671],[77.21756,9.88369],[77.21629,9.87871],[77.21395,9.87491],[77.22409,9.86275],[77.22818,9.86095],[77.23324,9.86246],[77.23862,9.85799],[77.2387,9.85196],[77.22879,9.84751],[77.22834,9.84186],[77.23001,9.83984],[77.22392,9.82347],[77.22737,9.82189],[77.23403,9.82223],[77.23454,9.81781],[77.24218,9.8153],[77.24795,9.8063],[77.24716,9.8034],[77.24915,9.79753],[77.24184,9.79574],[77.23767,9.79075],[77.22493,9.78888],[77.22582,9.77533],[77.23379,9.76897],[77.2276,9.76433],[77.22657,9.75419],[77.22126,9.74641],[77.22349,9.73059],[77.21514,9.72619],[77.20517,9.72438],[77.20546,9.71502],[77.20428,9.70636],[77.20699,9.69505],[77.20122,9.68702],[77.20011,9.68033],[77.19751,9.67756],[77.19494,9.66921],[77.18787,9.66501],[77.18844,9.66066],[77.18422,9.66038],[77.18099,9.65702],[77.18125,9.64673],[77.17601,9.63901],[77.17603,9.63608],[77.17766,9.62858],[77.16998,9.6227],[77.1703,9.61713],[77.16729,9.61476],[77.17093,9.61025],[77.18275,9.60945],[77.19008,9.60595],[77.19465,9.61027],[77.1995,9.61125],[77.20149,9.61475],[77.21149,9.61304],[77.21216,9.60455],[77.21641,9.60127],[77.22098,9.60115],[77.22425,9.59772],[77.22477,9.59331],[77.23034,9.5877],[77.23854,9.58169],[77.24563,9.58486],[77.25466,9.58233],[77.25778,9.58051],[77.26057,9.57758],[77.26253,9.57763],[77.26637,9.57439],[77.27084,9.57399],[77.27371,9.57716],[77.27699,9.57569],[77.29116,9.58564],[77.29082,9.59001],[77.29541,9.58914],[77.30235,9.59639],[77.32021,9.60218],[77.32494,9.59798],[77.32965,9.5993],[77.33079,9.59778],[77.32673,9.59365],[77.32798,9.5873],[77.32571,9.58512],[77.32666,9.57951],[77.33704,9.57654],[77.34083,9.57238],[77.34453,9.58242],[77.3569,9.60429],[77.36711,9.59856],[77.36737,9.5973],[77.36528,9.59575],[77.36228,9.59706],[77.36085,9.59685],[77.35924,9.59405],[77.35698,9.58687],[77.36133,9.57651],[77.35981,9.57308],[77.35661,9.57329],[77.35198,9.56604],[77.35354,9.56407],[77.35417,9.55948],[77.35611,9.55833],[77.36272,9.5578],[77.36497,9.55544],[77.36674,9.5495],[77.36678,9.53553],[77.37095,9.53316],[77.37727,9.52544],[77.38257,9.52407],[77.38706,9.51797],[77.40311,9.52607],[77.40278,9.51612],[77.40648,9.51396],[77.41129,9.51374],[77.41269,9.50589],[77.40432,9.50028],[77.40194,9.49551],[77.40038,9.4884],[77.40055,9.47909],[77.40332,9.47669],[77.39872,9.47048],[77.39387,9.46794],[77.3951,9.46004],[77.38875,9.45454],[77.38416,9.45316],[77.38013,9.45254],[77.3767,9.45292],[77.37301,9.45714],[77.36806,9.45892],[77.36186,9.45445],[77.35937,9.44962],[77.3507,9.44021],[77.35109,9.43308],[77.34832,9.43054],[77.34657,9.42435],[77.34061,9.4173],[77.33818,9.41477],[77.33787,9.41091],[77.34396,9.40318],[77.34417,9.39893],[77.34144,9.39265],[77.34266,9.38958],[77.34236,9.38779],[77.33635,9.38523],[77.33614,9.37234],[77.33967,9.36766],[77.33664,9.3639],[77.33725,9.36018],[77.32632,9.3437],[77.32804,9.33695],[77.32371,9.33667],[77.31678,9.33397],[77.30718,9.33667],[77.30349,9.33589],[77.30076,9.33645],[77.30178,9.33021],[77.29892,9.32859],[77.30203,9.32458],[77.30349,9.31904],[77.30343,9.31708],[77.3009,9.31403],[77.30019,9.30987],[77.29438,9.30421],[77.29012,9.30313],[77.28677,9.30069],[77.2835,9.2998],[77.28383,9.29061],[77.29088,9.2721],[77.28437,9.2713],[77.27523,9.2751],[77.27304,9.27717],[77.26848,9.27925],[77.26205,9.28001],[77.25798,9.28548],[77.2475,9.28867],[77.24628,9.28191],[77.24204,9.28491],[77.23979,9.28244],[77.23764,9.29233],[77.23047,9.29699],[77.22749,9.29593],[77.22688,9.31357],[77.23723,9.3255],[77.23646,9.32847],[77.23355,9.33133],[77.23774,9.3354],[77.24018,9.33937],[77.23942,9.34424],[77.23688,9.34901],[77.23907,9.35407],[77.24313,9.35836],[77.24407,9.36931],[77.2479,9.37585],[77.24968,9.38113],[77.24843,9.38512],[77.23022,9.4106],[77.23263,9.416],[77.23093,9.41953],[77.2265,9.41832],[77.22584,9.42193],[77.22318,9.42445],[77.22464,9.43265],[77.21467,9.43844],[77.21197,9.44269],[77.20946,9.44107],[77.20772,9.44137],[77.21027,9.44586],[77.20534,9.45086],[77.20214,9.44917],[77.19788,9.45055],[77.19271,9.44916],[77.18992,9.45007],[77.18824,9.45491],[77.18537,9.45392],[77.1828,9.45719],[77.18502,9.46087],[77.18537,9.46312],[77.18338,9.46411],[77.18155,9.47044],[77.1746,9.4659],[77.16953,9.46071],[77.1697,9.46514],[77.16822,9.46424],[77.16716,9.46962],[77.16134,9.46879],[77.15578,9.4691],[77.14361,9.46052],[77.1417,9.47001],[77.1423,9.47601],[77.14433,9.48072],[77.14414,9.48572],[77.14198,9.48928],[77.13173,9.49167],[77.12402,9.48072],[77.12051,9.47787],[77.11199,9.47858],[77.10464,9.47828],[77.09305,9.46528],[77.08812,9.46113],[77.08361,9.45911],[77.08027,9.4584],[77.07376,9.4549],[77.07024,9.45452],[77.06342,9.45895],[77.05924,9.45959],[77.05483,9.45982],[77.05087,9.45632],[77.04875,9.45098],[77.05747,9.4332],[77.06375,9.42486],[77.06801,9.4164],[77.06468,9.41574],[77.05451,9.41714],[77.0438,9.41319],[77.0374,9.41234],[77.03543,9.41022],[77.03249,9.40997],[77.03007,9.40732],[77.02624,9.4078],[77.02216,9.4066],[77.01429,9.40876],[77.01472,9.41969],[77.00572,9.41866],[77.00006,9.42297],[76.99295,9.42228],[76.97834,9.4247],[76.96368,9.4293],[76.94052,9.42966],[76.94379,9.43147],[76.9458,9.43415],[76.94006,9.44025],[76.94215,9.44477],[76.94962,9.44595],[76.9561,9.45281],[76.96132,9.45981],[76.96678,9.46248],[76.98493,9.46681],[76.98696,9.47309],[76.98693,9.47711],[76.98417,9.48103],[76.98561,9.48483],[76.97618,9.50031],[76.96741,9.5063],[76.96055,9.50018],[76.95567,9.49041],[76.94856,9.49083],[76.94011,9.49923],[76.93746,9.5039],[76.93292,9.50251],[76.92576,9.50738],[76.9069,9.52335],[76.90316,9.53581],[76.89014,9.53684],[76.888,9.55828],[76.88868,9.56738],[76.88616,9.57479],[76.88498,9.57822],[76.88714,9.58079],[76.89558,9.58455],[76.89392,9.59213],[76.89396,9.60071],[76.89143,9.60727],[76.89172,9.61276],[76.88985,9.61679],[76.89091,9.61878],[76.89493,9.61977],[76.89587,9.62125],[76.89482,9.62567],[76.89687,9.62869],[76.90044,9.63197],[76.90549,9.63284],[76.91404,9.62508],[76.93246,9.61432],[76.93721,9.61965],[76.92468,9.63397],[76.9227,9.63805],[76.92264,9.64297],[76.92405,9.64513],[76.92953,9.64823],[76.92962,9.6508],[76.92033,9.65948],[76.91395,9.6691],[76.9059,9.67513],[76.90478,9.6839],[76.89591,9.70431],[76.89249,9.71025],[76.8881,9.71659],[76.87638,9.72164],[76.87039,9.726],[76.86615,9.73138],[76.86091,9.72861],[76.85476,9.73355],[76.83622,9.75791],[76.83012,9.76244],[76.82964,9.76675],[76.81416,9.78338],[76.80462,9.79087],[76.78359,9.80462],[76.77725,9.80737],[76.76886,9.80865],[76.76362,9.81214],[76.75768,9.81461],[76.75517,9.81302],[76.74692,9.80356],[76.74259,9.80423],[76.73555,9.80785],[76.73163,9.8111],[76.7269,9.81172],[76.72182,9.814],[76.70927,9.82267],[76.70441,9.82374],[76.70101,9.82578],[76.69886,9.83177],[76.69511,9.83319],[76.68833,9.83347],[76.68603,9.83504],[76.68368,9.83845],[76.67806,9.83844],[76.67589,9.84162],[76.67266,9.84337],[76.6693,9.84265],[76.6662,9.84009],[76.66353,9.83891],[76.64953,9.84156],[76.63555,9.84633],[76.63101,9.84941],[76.63167,9.85296],[76.63309,9.85565],[76.63417,9.86001],[76.63459,9.86851],[76.63727,9.87096],[76.63905,9.87485],[76.63896,9.87853],[76.63351,9.88512],[76.63262,9.89513],[76.63149,9.89864],[76.63274,9.90265],[76.63187,9.90932],[76.6333,9.91328],[76.63546,9.91579],[76.63837,9.918],[76.64289,9.91727],[76.65027,9.91986],[76.65472,9.91786],[76.65942,9.91869],[76.6638,9.91664],[76.66769,9.91666],[76.67269,9.91932],[76.68004,9.91926],[76.68225,9.91867],[76.68578,9.91238],[76.69258,9.90772],[76.69529,9.90735],[76.69885,9.90985],[76.70021,9.91197],[76.7007,9.91529],[76.69108,9.9221],[76.69111,9.92531],[76.69567,9.93004],[76.69913,9.92864],[76.70511,9.93634],[76.71107,9.94801],[76.71028,9.95112],[76.71698,9.9552],[76.71851,9.95817],[76.71727,9.96852],[76.71084,9.98731],[76.71686,9.9853],[76.71869,9.98753],[76.72686,9.98143],[76.7324,9.98517],[76.74466,9.98926],[76.74873,9.98997],[76.7661,9.98201],[76.76544,9.98569],[76.76576,9.98925],[76.77157,9.99052],[76.77216,10.00025],[76.76662,10.0115],[76.77681,10.02625],[76.78447,10.0351],[76.79254,10.03283],[76.79421,10.0311],[76.8052,10.0271],[76.81679,10.0193],[76.83035,10.01379],[76.83333,10.01509],[76.83559,10.01887],[76.8405,10.0239],[76.8287,10.02573],[76.81735,10.0337],[76.81172,10.03521],[76.80506,10.03926],[76.79935,10.03991],[76.79456,10.04183],[76.78744,10.0476],[76.78852,10.05195],[76.78285,10.06018],[76.77938,10.06157],[76.77048,10.06201],[76.75416,10.07263],[76.75018,10.07586],[76.74285,10.0857],[76.72725,10.09454],[76.71589,10.10595],[76.70809,10.11211],[76.69931,10.11766],[76.68983,10.12578],[76.67648,10.13909],[76.6733,10.14128],[76.66937,10.14221],[76.666,10.14177],[76.6616,10.13943],[76.6583,10.14076],[76.64911,10.15577],[76.64339,10.16145],[76.64423,10.16621],[76.65216,10.19143],[76.65826,10.19577],[76.66112,10.19874],[76.67376,10.2139],[76.67581,10.2174],[76.67904,10.22823],[76.68118,10.24027],[76.68065,10.25169],[76.68323,10.25679],[76.68724,10.2617],[76.68924,10.26721],[76.69944,10.26554],[76.70595,10.26781],[76.70897,10.26986],[76.73031,10.27197],[76.73775,10.27441],[76.74511,10.27507],[76.75035,10.27798],[76.75393,10.2747],[76.7615,10.26968],[76.76632,10.27064],[76.77119,10.27039],[76.77652,10.27192],[76.77702,10.27726],[76.78282,10.27707],[76.79082,10.2779],[76.79559,10.28024],[76.7976,10.27742],[76.80027,10.27747],[76.80663,10.28559],[76.81307,10.28511],[76.82031,10.28343],[76.82909,10.27985],[76.83099,10.27657],[76.83383,10.27645],[76.83668,10.27799],[76.83961,10.28412],[76.8413,10.28429],[76.8458,10.28015],[76.84777,10.28107],[76.86646,10.27275],[76.86755,10.27006],[76.86975,10.26983],[76.87179,10.27229],[76.87943,10.26893],[76.88064,10.26688],[76.88062,10.26328],[76.88293,10.26294],[76.88693,10.26078],[76.88957,10.25735],[76.8959,10.25872],[76.89924,10.2535],[76.90468,10.2513],[76.90645,10.24567],[76.90521,10.2409],[76.91164,10.2408],[76.91417,10.23605],[76.91844,10.23301],[76.92232,10.23147],[76.93329,10.23373],[76.938,10.23808],[76.94079,10.2379],[76.95229,10.22945],[76.95896,10.23114],[76.96539,10.22812],[76.97194,10.22712],[76.97493,10.2242],[76.98054,10.221],[76.984,10.21708],[76.9878,10.22235],[76.99467,10.22835],[77.00051,10.22839],[77.00466,10.23147],[77.00695,10.2362],[77.009,10.23783],[77.01265,10.23828],[77.01993,10.24488],[77.02851,10.24611],[77.02931,10.24949],[77.03187,10.25036],[77.04357,10.25149],[77.05188,10.25675],[77.05582,10.27056],[77.04708,10.28075],[77.05939,10.2829],[77.06661,10.28851],[77.0644,10.29147],[77.06514,10.2941],[77.07408,10.2951],[77.08087,10.29888],[77.08675,10.30446],[77.09504,10.30834],[77.0952,10.3084],[77.10132,10.31047],[77.10559,10.31298],[77.11409,10.31319],[77.12171,10.31593],[77.12766,10.31933],[77.13273,10.3243],[77.14015,10.32905],[77.1475,10.33254],[77.16168,10.34291],[77.17643,10.35517],[77.18232,10.3549],[77.18663,10.35293],[77.19489,10.35211],[77.20253,10.35513],[77.2063,10.35237],[77.21304,10.35094],[77.22809,10.35039],[77.23582,10.34934],[77.23619,10.33758],[77.23203,10.33105],[77.22821,10.31482],[77.23097,10.30703],[77.23469,10.30507],[77.24577,10.2863],[77.26046,10.26665],[77.2645,10.26286],[77.26152,10.26067],[77.25926,10.25767],[77.2588,10.25429],[77.25978,10.24125],[77.25956,10.23535],[77.26057,10.22971],[77.26319,10.23115],[77.26526,10.23347],[77.26825,10.23244],[77.26962,10.23466],[77.27283,10.233],[77.28031,10.23424],[77.28406,10.23349],[77.28895,10.22973]]]}}]}