{"type":"FeatureCollection","features":[{"type":"Feature","properties":{"id":"kannur","name":"Kannur","stateId":"kerala","stateName":"Kerala","censuscode":589,"type":"district"},"geometry":{"type":"Polygon","coordinates":[[[75.46997,12.30049],[75.48558,12.29131],[75.48955,12.2866],[75.49544,12.27197],[75.49693,12.27029],[75.50498,12.2692],[75.5069,12.26832],[75.50686,12.26487],[75.51414,12.2585],[75.51445,12.25563],[75.51613,12.25451],[75.51973,12.24895],[75.52238,12.24115],[75.52304,12.23838],[75.52161,12.2358],[75.52649,12.23408],[75.52796,12.23026],[75.52848,12.22485],[75.54116,12.21629],[75.54127,12.21202],[75.54012,12.20876],[75.53621,12.20433],[75.53698,12.20132],[75.54118,12.20064],[75.54365,12.19762],[75.54715,12.19722],[75.55206,12.19365],[75.55447,12.18971],[75.55576,12.18141],[75.55863,12.18161],[75.56302,12.17396],[75.56726,12.17212],[75.57383,12.17076],[75.58035,12.15607],[75.58624,12.15576],[75.59072,12.15363],[75.59502,12.1484],[75.59677,12.14831],[75.59832,12.15071],[75.6012,12.15188],[75.6057,12.15211],[75.61179,12.15405],[75.61497,12.15124],[75.62079,12.15432],[75.6306,12.15046],[75.63312,12.14702],[75.63886,12.14781],[75.64057,12.14584],[75.64142,12.1392],[75.64451,12.13859],[75.64634,12.1362],[75.64769,12.1325],[75.64817,12.12915],[75.64684,12.12537],[75.65133,12.12019],[75.65197,12.11103],[75.65546,12.10942],[75.65671,12.10676],[75.6622,12.09977],[75.66643,12.09666],[75.67162,12.09548],[75.67678,12.09616],[75.68236,12.09856],[75.68569,12.10209],[75.68826,12.10775],[75.69606,12.10811],[75.70575,12.10587],[75.70449,12.09356],[75.70483,12.08907],[75.71073,12.08836],[75.7214,12.084],[75.7218,12.08302],[75.71844,12.07478],[75.71892,12.07092],[75.72134,12.06766],[75.73238,12.0697],[75.73869,12.0733],[75.74326,12.07779],[75.74731,12.0774],[75.75196,12.07907],[75.7563,12.08305],[75.76256,12.08285],[75.76741,12.08423],[75.77235,12.08318],[75.78826,12.08212],[75.79415,12.08031],[75.79993,12.07994],[75.8043,12.07689],[75.80633,12.0737],[75.80082,12.05521],[75.79789,12.05323],[75.80252,12.04736],[75.80326,12.0454],[75.80284,12.0384],[75.80466,12.03602],[75.81495,12.0298],[75.81675,12.02771],[75.81668,12.02186],[75.82835,12.01511],[75.83148,12.01157],[75.83239,12.00862],[75.82861,12.00035],[75.82844,12.00035],[75.82929,11.99006],[75.83187,11.98376],[75.83551,11.98043],[75.84464,11.97863],[75.84945,11.97609],[75.85158,11.97048],[75.85614,11.96288],[75.87103,11.9515],[75.88194,11.9466],[75.88852,11.94481],[75.89494,11.94406],[75.89971,11.94246],[75.90911,11.94071],[75.9208,11.93999],[75.92498,11.94159],[75.9306,11.93885],[75.92544,11.92657],[75.92487,11.9207],[75.93453,11.90961],[75.93655,11.90146],[75.93713,11.8937],[75.93575,11.88775],[75.92925,11.87945],[75.91345,11.8728],[75.91886,11.86778],[75.9306,11.86064],[75.92801,11.85164],[75.92864,11.84307],[75.92685,11.83982],[75.92457,11.83945],[75.9235,11.84298],[75.92115,11.84503],[75.91768,11.8433],[75.91395,11.84376],[75.90124,11.84081],[75.89595,11.84227],[75.89204,11.84176],[75.88763,11.84407],[75.88389,11.84304],[75.88069,11.84355],[75.87571,11.84662],[75.86759,11.84561],[75.8639,11.84859],[75.86003,11.84704],[75.85628,11.84693],[75.85042,11.84892],[75.84765,11.85086],[75.84489,11.85407],[75.84163,11.85423],[75.83403,11.84964],[75.82965,11.84948],[75.8246,11.85047],[75.81701,11.85502],[75.80761,11.85453],[75.8047,11.85084],[75.80332,11.84765],[75.80042,11.8458],[75.79226,11.84552],[75.79084,11.84071],[75.78994,11.83539],[75.79263,11.83162],[75.79678,11.8285],[75.79817,11.82354],[75.79821,11.81866],[75.79675,11.81426],[75.79246,11.81175],[75.78778,11.81089],[75.78283,11.80787],[75.77998,11.80435],[75.77724,11.79769],[75.77262,11.80102],[75.76663,11.80231],[75.75358,11.80331],[75.74975,11.80107],[75.75054,11.7952],[75.75411,11.79194],[75.75591,11.78743],[75.75505,11.78451],[75.74915,11.78391],[75.74026,11.78616],[75.73832,11.78091],[75.73334,11.7796],[75.72848,11.78282],[75.72725,11.78641],[75.7245,11.78983],[75.71704,11.79476],[75.71176,11.79593],[75.7069,11.79565],[75.70291,11.79783],[75.69785,11.79854],[75.69451,11.79755],[75.69156,11.79536],[75.68603,11.77625],[75.68291,11.77395],[75.67386,11.76942],[75.6712,11.76711],[75.66827,11.75836],[75.65842,11.75414],[75.63586,11.73551],[75.62824,11.73619],[75.62481,11.72912],[75.61029,11.71726],[75.60659,11.71582],[75.60247,11.71697],[75.59929,11.7146],[75.59654,11.7143],[75.59247,11.71505],[75.59135,11.71363],[75.59392,11.7106],[75.59487,11.70783],[75.59407,11.70429],[75.59506,11.70071],[75.60364,11.69629],[75.60508,11.69472],[75.60333,11.68756],[75.59859,11.6863],[75.5929,11.68759],[75.58905,11.68747],[75.58628,11.68567],[75.58164,11.67908],[75.57781,11.6762],[75.57388,11.67465],[75.57072,11.67411],[75.56827,11.67777],[75.56421,11.67989],[75.56315,11.6829],[75.56431,11.68684],[75.56257,11.69157],[75.55624,11.70136],[75.55304,11.70244],[75.54422,11.70347],[75.54419,11.70348],[75.54226,11.70713],[75.54019,11.70933],[75.53669,11.70967],[75.52914,11.70532],[75.52773,11.70662],[75.52751,11.70728],[75.52089,11.71314],[75.52092,11.71406],[75.51758,11.71752],[75.51738,11.71845],[75.51672,11.71936],[75.51674,11.71982],[75.51584,11.72053],[75.51428,11.7224],[75.51383,11.72328],[75.51341,11.72465],[75.51209,11.72719],[75.51122,11.72834],[75.50844,11.73094],[75.4962,11.74049],[75.48217,11.75102],[75.48125,11.75173],[75.48028,11.75381],[75.4803,11.75494],[75.48067,11.75539],[75.48053,11.75787],[75.47804,11.76019],[75.47681,11.76395],[75.47635,11.76419],[75.47488,11.76689],[75.47436,11.76726],[75.47366,11.76847],[75.47253,11.76873],[75.46951,11.76768],[75.46786,11.76636],[75.46761,11.76568],[75.46459,11.76463],[75.46368,11.76441],[75.46093,11.76545],[75.45814,11.76592],[75.45917,11.76773],[75.46063,11.76997],[75.46132,11.7706],[75.4615,11.77307],[75.46148,11.77329],[75.46141,11.77421],[75.45974,11.77652],[75.4585,11.77814],[75.45786,11.7795],[75.45743,11.7802],[75.45517,11.78207],[75.45454,11.78338],[75.45387,11.78475],[75.44712,11.78995],[75.44624,11.79136],[75.44169,11.79488],[75.43933,11.79673],[75.43868,11.79765],[75.43857,11.7981],[75.42825,11.80698],[75.42608,11.81133],[75.42248,11.81483],[75.42032,11.81962],[75.41943,11.82033],[75.41764,11.82265],[75.41678,11.82562],[75.41544,11.82701],[75.41478,11.82747],[75.41434,11.82862],[75.41345,11.83044],[75.41172,11.83187],[75.41095,11.83324],[75.41051,11.83397],[75.41025,11.83462],[75.40833,11.83623],[75.40034,11.84165],[75.3999,11.84279],[75.39908,11.8434],[75.39864,11.84372],[75.39684,11.84558],[75.39641,11.84672],[75.39394,11.8488],[75.39395,11.84926],[75.39103,11.85182],[75.38887,11.85687],[75.38796,11.85779],[75.38436,11.86015],[75.38232,11.86005],[75.37722,11.85964],[75.37338,11.85814],[75.37257,11.85748],[75.37086,11.85414],[75.36865,11.85237],[75.36852,11.85192],[75.36586,11.8512],[75.36303,11.85109],[75.36034,11.85244],[75.35777,11.85446],[75.35779,11.85516],[75.35637,11.8579],[75.35624,11.86628],[75.35466,11.86768],[75.35331,11.86906],[75.35307,11.86956],[75.35181,11.87228],[75.34934,11.87439],[75.34937,11.87527],[75.3435,11.88072],[75.34329,11.88137],[75.34061,11.88433],[75.33972,11.88502],[75.33974,11.88594],[75.3366,11.8892],[75.33662,11.89007],[75.33166,11.89429],[75.32234,11.8977],[75.32122,11.89885],[75.32076,11.89909],[75.32084,11.90224],[75.31992,11.90445],[75.32059,11.90586],[75.32301,11.9072],[75.32393,11.90831],[75.32366,11.90893],[75.32161,11.91039],[75.31875,11.91884],[75.31518,11.92276],[75.31299,11.92781],[75.31188,11.92897],[75.31097,11.92966],[75.31084,11.93375],[75.31054,11.93466],[75.3097,11.93762],[75.30924,11.93787],[75.30892,11.93923],[75.30895,11.94036],[75.30945,11.94127],[75.31049,11.94191],[75.31432,11.94294],[75.3214,11.94119],[75.32277,11.94071],[75.32976,11.93637],[75.33339,11.9341],[75.33588,11.93201],[75.33606,11.93065],[75.33971,11.92819],[75.34113,11.9274],[75.3424,11.92665],[75.3463,11.92563],[75.34813,11.92605],[75.34966,11.92714],[75.35056,11.92956],[75.34986,11.93326],[75.34149,11.94126],[75.33782,11.94464],[75.33783,11.9451],[75.33309,11.94861],[75.3301,11.94976],[75.32375,11.95268],[75.3233,11.95314],[75.32202,11.95612],[75.32155,11.95634],[75.32109,11.95658],[75.32056,11.95841],[75.31974,11.9648],[75.3192,11.96941],[75.31863,11.97335],[75.31464,11.97658],[75.31145,11.97474],[75.31118,11.97245],[75.31149,11.96963],[75.31006,11.9673],[75.30672,11.96885],[75.30394,11.971],[75.30224,11.97433],[75.30053,11.97823],[75.29882,11.98212],[75.29595,11.98596],[75.29311,11.98925],[75.29093,11.99085],[75.28829,11.9896],[75.2881,11.98524],[75.28903,11.97971],[75.28989,11.97706],[75.29036,11.97682],[75.29079,11.97658],[75.29099,11.9754],[75.29145,11.97516],[75.29167,11.97426],[75.29275,11.97179],[75.29365,11.97131],[75.29624,11.96525],[75.29613,11.96498],[75.29818,11.96223],[75.29968,11.9589],[75.30118,11.95555],[75.3015,11.95273],[75.29941,11.95207],[75.29612,11.9525],[75.29216,11.95516],[75.28816,11.95838],[75.28432,11.96276],[75.28216,11.96573],[75.28092,11.967],[75.27933,11.96938],[75.27867,11.97009],[75.27867,11.97055],[75.27578,11.97311],[75.2758,11.97402],[75.27398,11.97586],[75.27206,11.98136],[75.27139,11.98182],[75.27141,11.98228],[75.26782,11.98662],[75.26733,11.9873],[75.26524,11.99306],[75.25853,12.00072],[75.25677,12.00392],[75.25633,12.00528],[75.25456,12.00735],[75.25411,12.00759],[75.25412,12.00805],[75.25366,12.00829],[75.25347,12.0092],[75.25279,12.01013],[75.2521,12.01061],[75.25147,12.01334],[75.25081,12.01379],[75.24928,12.01613],[75.2434,12.02101],[75.2361,12.02345],[75.23345,12.023],[75.23033,12.02246],[75.23031,12.022],[75.22875,12.02081],[75.22657,12.01914],[75.22282,12.01318],[75.2225,12.01268],[75.22027,12.01115],[75.22014,12.01069],[75.21219,12.00672],[75.21198,12.00612],[75.20891,12.00258],[75.20751,12.0017],[75.205,12.00335],[75.2043,12.00336],[75.20388,12.00406],[75.20381,12.00588],[75.20191,12.01769],[75.19925,12.02532],[75.19881,12.02557],[75.19847,12.02707],[75.19667,12.02892],[75.19269,12.03942],[75.19222,12.03967],[75.18652,12.05275],[75.18607,12.05299],[75.18482,12.05569],[75.18299,12.06077],[75.17792,12.0756],[75.1772,12.07975],[75.17466,12.08341],[75.17147,12.09312],[75.17768,12.09961],[75.18058,12.1017],[75.18442,12.10039],[75.18649,12.09841],[75.19214,12.10024],[75.19205,12.10939],[75.19017,12.11724],[75.19261,12.12044],[75.18857,12.12992],[75.18889,12.13284],[75.19119,12.13926],[75.1951,12.14347],[75.19153,12.14874],[75.19005,12.16281],[75.18699,12.17268],[75.18463,12.17587],[75.18045,12.17919],[75.17624,12.18506],[75.17374,12.19141],[75.17715,12.19275],[75.18094,12.19213],[75.19049,12.19282],[75.19648,12.19464],[75.20028,12.1942],[75.20219,12.19251],[75.20583,12.19384],[75.21169,12.19981],[75.218,12.20427],[75.22491,12.21046],[75.22874,12.21777],[75.23115,12.21964],[75.23357,12.22053],[75.23711,12.21887],[75.24312,12.21776],[75.2474,12.21783],[75.25637,12.21973],[75.26269,12.22512],[75.27271,12.22712],[75.278,12.22906],[75.28025,12.2318],[75.28355,12.23417],[75.2877,12.23395],[75.29105,12.23483],[75.29346,12.23664],[75.29423,12.2421],[75.29028,12.25463],[75.29021,12.25796],[75.29212,12.26081],[75.29649,12.26501],[75.30132,12.26823],[75.30779,12.27057],[75.31387,12.27066],[75.32156,12.27247],[75.32622,12.27166],[75.33012,12.26925],[75.33664,12.26693],[75.34186,12.26893],[75.34875,12.26776],[75.36512,12.27658],[75.36862,12.28154],[75.37203,12.28299],[75.38111,12.28345],[75.38747,12.28745],[75.38873,12.29463],[75.39208,12.29539],[75.39388,12.29433],[75.39339,12.28807],[75.39957,12.29184],[75.4142,12.2924],[75.41658,12.29128],[75.42168,12.29143],[75.42624,12.29207],[75.42997,12.29571],[75.43332,12.29705],[75.43869,12.29686],[75.44405,12.29507],[75.4611,12.29364],[75.46997,12.30049]],[[75.53973,11.73507],[75.53796,11.73336],[75.53225,11.73402],[75.53006,11.73181],[75.53006,11.73181],[75.53032,11.72911],[75.52888,11.727],[75.52888,11.727],[75.52783,11.72214],[75.52783,11.72214],[75.52833,11.72024],[75.53127,11.71852],[75.53308,11.71747],[75.53552,11.71749],[75.54061,11.71409],[75.54061,11.71409],[75.5443,11.71559],[75.54664,11.71591],[75.54908,11.71524],[75.54908,11.71524],[75.55349,11.7181],[75.55387,11.71798],[75.5553,11.71751],[75.55752,11.71822],[75.55925,11.72113],[75.55925,11.72113],[75.55878,11.7251],[75.55523,11.72922],[75.54502,11.73396],[75.54645,11.73923],[75.54653,11.74141],[75.54563,11.74342],[75.54643,11.75117],[75.54643,11.75117],[75.54549,11.75427],[75.54584,11.75613],[75.54612,11.75765],[75.54488,11.75848],[75.54363,11.7593],[75.54363,11.7593],[75.53574,11.75831],[75.53574,11.75831],[75.53564,11.75819],[75.53337,11.75571],[75.53337,11.75571],[75.53309,11.75267],[75.53309,11.75267],[75.53405,11.75133],[75.53682,11.74745],[75.5396,11.74598],[75.54062,11.74378],[75.54052,11.73706],[75.53973,11.73507]]]}}]}