{"type":"FeatureCollection","features":[{"type":"Feature","properties":{"id":"kasaragod","name":"Kasaragod","stateId":"kerala","stateName":"Kerala","censuscode":588,"type":"district"},"geometry":{"type":"Polygon","coordinates":[[[75.41667,12.50166],[75.4224,12.48463],[75.42277,12.47652],[75.42656,12.47123],[75.42478,12.46504],[75.41903,12.46386],[75.41692,12.45905],[75.4113,12.45481],[75.40571,12.45253],[75.39408,12.45003],[75.38795,12.45563],[75.36865,12.45656],[75.36791,12.45398],[75.3715,12.45054],[75.37262,12.43385],[75.3677,12.41196],[75.37185,12.40673],[75.37435,12.40065],[75.37834,12.39739],[75.38077,12.3916],[75.38338,12.38973],[75.38802,12.39054],[75.39297,12.3884],[75.3966,12.38479],[75.39941,12.38021],[75.40346,12.38068],[75.4057,12.37754],[75.4138,12.37957],[75.42128,12.37453],[75.42382,12.37174],[75.42387,12.36691],[75.42181,12.35756],[75.42018,12.35344],[75.41672,12.34894],[75.41247,12.34635],[75.4136,12.34282],[75.41682,12.33876],[75.41882,12.32649],[75.42236,12.32449],[75.42247,12.31949],[75.4256,12.31317],[75.43248,12.30728],[75.43297,12.30457],[75.4242,12.296],[75.42168,12.29143],[75.41658,12.29128],[75.4142,12.2924],[75.39957,12.29184],[75.39339,12.28807],[75.39388,12.29433],[75.39208,12.29539],[75.38873,12.29463],[75.38747,12.28745],[75.38111,12.28345],[75.37203,12.28299],[75.36862,12.28154],[75.36512,12.27658],[75.34875,12.26776],[75.34186,12.26893],[75.33664,12.26693],[75.33012,12.26925],[75.32622,12.27166],[75.32156,12.27247],[75.31387,12.27066],[75.30779,12.27057],[75.30132,12.26823],[75.29649,12.26501],[75.29212,12.26081],[75.29021,12.25796],[75.29028,12.25463],[75.29423,12.2421],[75.29346,12.23664],[75.29105,12.23483],[75.2877,12.23395],[75.28355,12.23417],[75.28025,12.2318],[75.278,12.22906],[75.27271,12.22712],[75.26269,12.22512],[75.25637,12.21973],[75.2474,12.21783],[75.24312,12.21776],[75.23711,12.21887],[75.23357,12.22053],[75.23115,12.21964],[75.22874,12.21777],[75.22491,12.21046],[75.218,12.20427],[75.21169,12.19981],[75.20583,12.19384],[75.20219,12.19251],[75.20028,12.1942],[75.19648,12.19464],[75.19049,12.19282],[75.18094,12.19213],[75.17715,12.19275],[75.17374,12.19141],[75.17624,12.18506],[75.18045,12.17919],[75.18463,12.17587],[75.18699,12.17268],[75.19005,12.16281],[75.19153,12.14874],[75.1951,12.14347],[75.19119,12.13926],[75.18889,12.13284],[75.18857,12.12992],[75.19261,12.12044],[75.19017,12.11724],[75.19205,12.10939],[75.19214,12.10024],[75.18649,12.09841],[75.18442,12.10039],[75.18058,12.1017],[75.17768,12.09961],[75.17147,12.09312],[75.17466,12.08341],[75.1772,12.07975],[75.17792,12.0756],[75.18299,12.06077],[75.17866,12.07275],[75.17829,12.0737],[75.17406,12.08326],[75.17254,12.08663],[75.17192,12.0872],[75.16924,12.09424],[75.16836,12.09515],[75.16801,12.0964],[75.16625,12.09872],[75.16536,12.09941],[75.16324,12.10575],[75.16238,12.1068],[75.1614,12.11041],[75.16094,12.11063],[75.16037,12.11288],[75.15992,12.11312],[75.15949,12.11336],[75.15693,12.12126],[75.15599,12.12569],[75.15555,12.12593],[75.15512,12.12775],[75.15467,12.12799],[75.14905,12.14087],[75.14701,12.14446],[75.14611,12.14784],[75.14527,12.14964],[75.14334,12.1547],[75.14311,12.15563],[75.14249,12.15624],[75.13558,12.17531],[75.13308,12.18126],[75.13175,12.18242],[75.12996,12.18704],[75.12952,12.18728],[75.12193,12.20824],[75.12146,12.20848],[75.11804,12.21666],[75.11657,12.22053],[75.1151,12.22452],[75.11397,12.22683],[75.1121,12.23218],[75.11096,12.23544],[75.11052,12.23568],[75.10963,12.23659],[75.10853,12.23957],[75.1081,12.23981],[75.10613,12.24462],[75.10615,12.24531],[75.10546,12.24576],[75.10502,12.246],[75.1025,12.25626],[75.09959,12.26357],[75.09912,12.26381],[75.09904,12.26494],[75.09389,12.28004],[75.09044,12.28894],[75.08998,12.28917],[75.08929,12.28963],[75.08931,12.29032],[75.08885,12.29056],[75.08732,12.29513],[75.08686,12.29536],[75.08618,12.29704],[75.08535,12.29952],[75.08491,12.29976],[75.08081,12.30998],[75.08015,12.31043],[75.07881,12.31205],[75.07658,12.31834],[75.07486,12.32088],[75.07203,12.32786],[75.0698,12.33016],[75.0686,12.3336],[75.06798,12.33417],[75.06755,12.33576],[75.06612,12.33909],[75.06545,12.33956],[75.06499,12.33977],[75.06196,12.34801],[75.0615,12.34826],[75.06103,12.34849],[75.0609,12.34955],[75.06031,12.35015],[75.05728,12.35777],[75.05544,12.36089],[75.05483,12.36148],[75.0495,12.37481],[75.0486,12.37573],[75.04814,12.37595],[75.04629,12.38052],[75.046,12.38211],[75.04554,12.38236],[75.04535,12.38418],[75.04423,12.3851],[75.0431,12.38626],[75.04115,12.3904],[75.03571,12.3948],[75.03485,12.39664],[75.03464,12.39757],[75.03033,12.40151],[75.02968,12.40288],[75.02927,12.40402],[75.02701,12.40612],[75.02659,12.40726],[75.0266,12.40772],[75.02568,12.40842],[75.02388,12.41052],[75.02348,12.41135],[75.02126,12.41644],[75.02014,12.41737],[75.01746,12.4206],[75.01695,12.42158],[75.01551,12.42472],[75.01459,12.42543],[75.01389,12.42591],[75.01282,12.42887],[75.01212,12.42933],[75.0095,12.4337],[75.00686,12.43875],[75.00622,12.44147],[75.00528,12.44242],[75.00485,12.44264],[75.00381,12.44605],[75.00267,12.44719],[75.00198,12.44768],[74.99858,12.4584],[74.99568,12.4621],[74.9951,12.46451],[74.9944,12.46756],[74.99451,12.47187],[74.99585,12.47409],[74.99581,12.47704],[74.99486,12.47998],[74.99255,12.48608],[74.99054,12.49182],[74.98769,12.49306],[74.98643,12.49027],[74.9852,12.48679],[74.98351,12.48533],[74.98095,12.48797],[74.97979,12.49031],[74.97967,12.49303],[74.97888,12.49505],[74.9724,12.51342],[74.96907,12.52125],[74.96846,12.52188],[74.96802,12.52325],[74.96714,12.52419],[74.96654,12.52483],[74.96485,12.53052],[74.96439,12.53076],[74.96392,12.53098],[74.9635,12.53234],[74.96185,12.53579],[74.96095,12.53671],[74.96024,12.53909],[74.95967,12.53968],[74.94975,12.56823],[74.94878,12.57051],[74.94673,12.57281],[74.94546,12.5767],[74.945,12.57694],[74.94454,12.57716],[74.94308,12.58203],[74.94098,12.58702],[74.94045,12.58742],[74.93925,12.59111],[74.93621,12.6],[74.9351,12.60139],[74.93268,12.60621],[74.93248,12.60734],[74.93201,12.60759],[74.92893,12.61782],[74.92847,12.61806],[74.92802,12.6183],[74.92546,12.62425],[74.925,12.62449],[74.92477,12.62569],[74.92431,12.62593],[74.9233,12.62893],[74.92014,12.63569],[74.91728,12.64599],[74.91681,12.64623],[74.91652,12.64789],[74.91606,12.64811],[74.91585,12.64915],[74.91539,12.64939],[74.91495,12.64963],[74.91455,12.65061],[74.91294,12.65474],[74.91165,12.65792],[74.91119,12.65816],[74.90928,12.66357],[74.90883,12.6638],[74.90836,12.66404],[74.90707,12.66768],[74.9066,12.66792],[74.9016,12.68108],[74.90117,12.68132],[74.90007,12.68439],[74.8996,12.68462],[74.89643,12.69392],[74.89598,12.69416],[74.89376,12.69992],[74.89332,12.70014],[74.89288,12.70038],[74.89003,12.70656],[74.88493,12.71181],[74.87863,12.72901],[74.86992,12.74502],[74.8641,12.75536],[74.86304,12.75828],[74.87508,12.75944],[74.87688,12.7565],[74.87724,12.7544],[74.87913,12.75342],[74.88486,12.75293],[74.88795,12.75654],[74.89104,12.75869],[74.89381,12.76027],[74.89707,12.75957],[74.90073,12.7637],[74.90444,12.76411],[74.90738,12.76675],[74.90845,12.76722],[74.92879,12.77554],[74.93682,12.77641],[74.95375,12.78351],[74.95983,12.78328],[74.96297,12.77907],[74.96497,12.77905],[74.96688,12.78111],[74.96825,12.78051],[74.96863,12.77719],[74.97031,12.77682],[74.98162,12.77951],[74.98701,12.78218],[74.99232,12.78789],[74.98854,12.7935],[74.98915,12.79508],[74.99201,12.79474],[74.99575,12.79227],[75.00006,12.78777],[75.00373,12.78991],[75.00507,12.78979],[75.00392,12.77783],[75.00504,12.77363],[75.00763,12.7694],[75.00845,12.76474],[75.00695,12.76136],[75.0041,12.75829],[75.00007,12.75585],[74.99508,12.74914],[74.99156,12.74246],[74.98964,12.74159],[74.98583,12.74277],[74.98418,12.74022],[74.98455,12.73417],[74.98673,12.73309],[74.98817,12.73622],[74.98995,12.7354],[74.99286,12.73744],[75.00008,12.73171],[75.01209,12.72716],[75.01077,12.72361],[75.00297,12.71801],[75.00393,12.71604],[75.007,12.71354],[75.01425,12.71213],[75.01902,12.71908],[75.02296,12.71997],[75.0257,12.71867],[75.0314,12.7213],[75.03817,12.72295],[75.04316,12.7199],[75.04634,12.72072],[75.04977,12.71908],[75.05299,12.7142],[75.0559,12.70779],[75.05232,12.70255],[75.05698,12.69111],[75.05472,12.68797],[75.0523,12.6914],[75.04874,12.6927],[75.04481,12.69182],[75.04325,12.67495],[75.04492,12.66768],[75.04799,12.66448],[75.05554,12.66446],[75.05851,12.66303],[75.06112,12.66588],[75.06629,12.66237],[75.07057,12.66244],[75.07552,12.66985],[75.07975,12.67101],[75.08344,12.67085],[75.08524,12.67491],[75.08707,12.67529],[75.08778,12.6804],[75.08531,12.69411],[75.08271,12.69765],[75.08641,12.7022],[75.09199,12.69915],[75.09965,12.6978],[75.10484,12.69601],[75.10909,12.6894],[75.11314,12.68038],[75.12131,12.67805],[75.12745,12.6778],[75.13246,12.67533],[75.13727,12.67567],[75.1398,12.67725],[75.14514,12.67742],[75.15128,12.68086],[75.15137,12.67339],[75.15643,12.67056],[75.16186,12.67022],[75.16202,12.6686],[75.1558,12.65822],[75.15235,12.65389],[75.15198,12.64797],[75.15103,12.64643],[75.14189,12.64234],[75.14365,12.63783],[75.1484,12.63318],[75.15566,12.62413],[75.15996,12.6216],[75.1636,12.6222],[75.17085,12.62113],[75.17835,12.62678],[75.18346,12.63202],[75.19077,12.63164],[75.19533,12.63002],[75.20241,12.62972],[75.20379,12.62768],[75.20044,12.61773],[75.1997,12.61077],[75.20347,12.60734],[75.20835,12.60457],[75.2106,12.6019],[75.21006,12.59616],[75.20855,12.59313],[75.2056,12.59127],[75.20447,12.58519],[75.2086,12.58762],[75.21195,12.58861],[75.21516,12.57805],[75.21806,12.57571],[75.22409,12.5673],[75.2325,12.56548],[75.23755,12.56651],[75.23945,12.56879],[75.23991,12.57718],[75.24128,12.57865],[75.25078,12.57957],[75.25148,12.58388],[75.25747,12.5904],[75.26012,12.59566],[75.26348,12.5977],[75.26915,12.61038],[75.27165,12.61369],[75.27808,12.61637],[75.28242,12.61276],[75.29028,12.60932],[75.29258,12.60136],[75.29537,12.60029],[75.2998,12.60316],[75.30297,12.60382],[75.30714,12.59968],[75.30979,12.59264],[75.32013,12.58992],[75.32949,12.58998],[75.33009,12.58192],[75.32794,12.57924],[75.32097,12.57853],[75.3178,12.57345],[75.31134,12.5764],[75.30469,12.57827],[75.29645,12.57969],[75.29288,12.57963],[75.28824,12.56974],[75.28495,12.56892],[75.27827,12.56882],[75.27399,12.56359],[75.27234,12.55826],[75.27386,12.54461],[75.28114,12.52814],[75.28266,12.52289],[75.28736,12.52462],[75.29334,12.52546],[75.29772,12.52443],[75.30167,12.52167],[75.30629,12.52208],[75.30598,12.50231],[75.30661,12.50155],[75.30902,12.50221],[75.31181,12.50062],[75.31591,12.49683],[75.3224,12.49607],[75.32985,12.4966],[75.33667,12.49508],[75.33743,12.4899],[75.34085,12.48778],[75.34122,12.48451],[75.34019,12.47819],[75.34243,12.46948],[75.33865,12.46263],[75.34277,12.46091],[75.35761,12.4629],[75.36138,12.46487],[75.36473,12.46978],[75.37408,12.47368],[75.37502,12.48206],[75.37255,12.48589],[75.372,12.48837],[75.37425,12.49041],[75.37924,12.49133],[75.38154,12.49279],[75.38311,12.49639],[75.38512,12.49757],[75.38862,12.49684],[75.39395,12.49746],[75.39701,12.50248],[75.39942,12.50274],[75.40311,12.49551],[75.40638,12.49454],[75.41107,12.49914],[75.41667,12.50166]]]}}]}