{"type":"FeatureCollection","features":[{"type":"Feature","properties":{"id":"kollam","name":"Kollam","stateId":"kerala","stateName":"Kerala","censuscode":600,"type":"district"},"geometry":{"type":"Polygon","coordinates":[[[77.2086,9.07053],[77.20579,9.06505],[77.20148,9.05919],[77.19999,9.05565],[77.19733,9.05334],[77.19924,9.04505],[77.18727,9.04239],[77.18454,9.04703],[77.17084,9.04502],[77.16532,9.04143],[77.16242,9.03565],[77.164,9.02999],[77.15767,9.02384],[77.15359,9.02149],[77.14926,9.02024],[77.15037,9.01664],[77.15223,9.01386],[77.15138,9.00837],[77.15439,9.0066],[77.16037,9.00629],[77.16113,9.00025],[77.16123,9.00025],[77.16411,8.99536],[77.17574,8.98663],[77.18056,8.97078],[77.19213,8.96532],[77.1927,8.95929],[77.1976,8.9555],[77.19869,8.95044],[77.19712,8.94597],[77.19913,8.94103],[77.19936,8.9373],[77.1967,8.92943],[77.19814,8.9269],[77.19795,8.9242],[77.20233,8.91863],[77.20723,8.92104],[77.2043,8.92415],[77.2073,8.92805],[77.2114,8.9304],[77.21566,8.92782],[77.22234,8.92592],[77.22499,8.92242],[77.21967,8.91518],[77.22392,8.90169],[77.22934,8.90157],[77.23244,8.90065],[77.23918,8.89669],[77.24165,8.8937],[77.24095,8.88635],[77.24492,8.88038],[77.24987,8.87762],[77.25771,8.87664],[77.25938,8.87337],[77.26086,8.86785],[77.26109,8.86366],[77.25831,8.86005],[77.26355,8.85367],[77.2639,8.85166],[77.26084,8.84982],[77.26503,8.84046],[77.25417,8.82617],[77.24995,8.82198],[77.24886,8.82008],[77.2496,8.81561],[77.24539,8.80906],[77.24198,8.80682],[77.23536,8.8055],[77.23338,8.79511],[77.23273,8.7842],[77.22765,8.78214],[77.22333,8.77881],[77.21641,8.77789],[77.21739,8.77398],[77.22032,8.76928],[77.21587,8.76612],[77.20948,8.76675],[77.20101,8.76946],[77.18847,8.77491],[77.18104,8.77939],[77.17483,8.78467],[77.16389,8.79019],[77.1594,8.79409],[77.15462,8.79559],[77.14973,8.80116],[77.14374,8.80426],[77.13533,8.80679],[77.12831,8.81218],[77.12336,8.81781],[77.11098,8.82418],[77.10788,8.82883],[77.09877,8.83004],[77.08224,8.83704],[77.05275,8.84433],[77.04479,8.84439],[77.03453,8.84111],[77.03047,8.83324],[77.02701,8.82916],[77.0244,8.81515],[77.01708,8.81302],[77.01345,8.80826],[77.01598,8.79769],[77.01954,8.78851],[77.02961,8.77375],[77.02142,8.77157],[77.00645,8.77018],[76.99994,8.77747],[76.99614,8.78129],[76.98779,8.7846],[76.98117,8.78517],[76.97775,8.78294],[76.97536,8.77807],[76.97407,8.77246],[76.97002,8.77108],[76.95993,8.76966],[76.95239,8.7706],[76.94875,8.76906],[76.94261,8.76439],[76.93499,8.76051],[76.9319,8.765],[76.91576,8.77824],[76.92266,8.78407],[76.91998,8.79133],[76.91596,8.79432],[76.9131,8.79914],[76.90226,8.81022],[76.89206,8.81032],[76.88905,8.80808],[76.88691,8.80481],[76.88328,8.80591],[76.87989,8.80863],[76.87016,8.81106],[76.86096,8.81653],[76.85888,8.81556],[76.85498,8.81712],[76.85229,8.82154],[76.85161,8.82464],[76.84851,8.82683],[76.84813,8.83453],[76.84337,8.83844],[76.83464,8.84276],[76.83192,8.84339],[76.82765,8.84259],[76.82309,8.85363],[76.81711,8.85719],[76.81266,8.85376],[76.80788,8.85434],[76.80555,8.84986],[76.80146,8.85056],[76.79826,8.85407],[76.78714,8.8561],[76.78496,8.85955],[76.77995,8.85889],[76.78148,8.85205],[76.7788,8.8466],[76.77838,8.84275],[76.78132,8.84119],[76.79457,8.82639],[76.79241,8.82037],[76.78895,8.82078],[76.7856,8.8189],[76.78559,8.81706],[76.79037,8.81635],[76.79352,8.81198],[76.79258,8.80796],[76.77385,8.80773],[76.77252,8.80636],[76.77233,8.80355],[76.77072,8.80298],[76.77301,8.80044],[76.76856,8.79696],[76.76136,8.79795],[76.76031,8.79422],[76.74832,8.7942],[76.74342,8.79485],[76.72852,8.79914],[76.72547,8.80093],[76.72247,8.80082],[76.71397,8.79419],[76.71085,8.79316],[76.70975,8.7903],[76.70732,8.78881],[76.7056,8.79123],[76.70411,8.79204],[76.70277,8.79014],[76.69914,8.78958],[76.69413,8.79034],[76.69377,8.78431],[76.69273,8.78217],[76.69042,8.77739],[76.69033,8.7772],[76.68647,8.77698],[76.68341,8.77527],[76.68204,8.77739],[76.68128,8.77965],[76.67982,8.78406],[76.67954,8.78786],[76.67781,8.78786],[76.67641,8.7812],[76.67225,8.78069],[76.67176,8.79038],[76.66989,8.79234],[76.666,8.79396],[76.66337,8.79588],[76.66176,8.79776],[76.66042,8.79884],[76.65767,8.80095],[76.65552,8.80262],[76.65359,8.80603],[76.65297,8.80713],[76.65199,8.80753],[76.65179,8.80845],[76.65047,8.81008],[76.64735,8.81427],[76.64638,8.8163],[76.64545,8.81814],[76.6427,8.82105],[76.63711,8.82752],[76.63223,8.83303],[76.63224,8.83348],[76.63004,8.8358],[76.62916,8.8365],[76.62917,8.83696],[76.62849,8.83741],[76.62829,8.83834],[76.62656,8.84065],[76.62656,8.84111],[76.62543,8.84206],[76.62475,8.84252],[76.6235,8.84529],[76.62282,8.84575],[76.62284,8.84621],[76.62061,8.84853],[76.61991,8.84922],[76.61947,8.85013],[76.61727,8.85224],[76.61554,8.8539],[76.6147,8.85595],[76.61091,8.85946],[76.61093,8.85992],[76.60714,8.86337],[76.60695,8.86402],[76.60424,8.86635],[76.60401,8.86703],[76.60321,8.86783],[76.5954,8.87446],[76.59165,8.87714],[76.5856,8.88036],[76.58388,8.88107],[76.58267,8.88157],[76.58,8.88346],[76.57866,8.88442],[76.57544,8.88428],[76.56998,8.88117],[76.56944,8.88082],[76.56876,8.88107],[76.5669,8.88209],[76.56674,8.88262],[76.56483,8.88388],[76.55467,8.88985],[76.55376,8.89055],[76.55317,8.89261],[76.5525,8.89309],[76.55033,8.89679],[76.54997,8.89793],[76.54952,8.89815],[76.54742,8.90615],[76.54577,8.92],[76.54274,8.92941],[76.54231,8.93074],[76.5405,8.93466],[76.54007,8.9349],[76.53965,8.93627],[76.53919,8.93651],[76.53873,8.93676],[76.53599,8.94408],[76.53528,8.95066],[76.53153,8.96256],[76.52963,8.97483],[76.52749,8.98258],[76.5244,8.99312],[76.52362,8.99586],[76.51469,9.01763],[76.51449,9.019],[76.51205,9.02563],[76.51061,9.03108],[76.5074,9.04072],[76.50322,9.05055],[76.50185,9.05257],[76.49993,9.05748],[76.49929,9.0581],[76.49568,9.06672],[76.49516,9.06715],[76.4943,9.06956],[76.49279,9.0717],[76.49259,9.0724],[76.49219,9.07377],[76.49072,9.07722],[76.48982,9.07814],[76.48892,9.07906],[76.48711,9.08294],[76.48662,9.08456],[76.49177,9.08762],[76.47959,9.11632],[76.48116,9.11935],[76.48289,9.12032],[76.48488,9.12145],[76.48571,9.12143],[76.49003,9.12135],[76.49848,9.12295],[76.50287,9.12297],[76.50846,9.12092],[76.50843,9.12396],[76.50712,9.12736],[76.50854,9.1312],[76.51185,9.13226],[76.51459,9.1358],[76.53666,9.13436],[76.54315,9.13557],[76.54336,9.12655],[76.54721,9.12279],[76.5512,9.10966],[76.5584,9.10673],[76.56506,9.10805],[76.56968,9.10807],[76.57668,9.11497],[76.58516,9.11352],[76.58635,9.11764],[76.58995,9.11991],[76.59077,9.12772],[76.59719,9.12841],[76.6032,9.12808],[76.61417,9.12695],[76.61847,9.12904],[76.62017,9.13196],[76.62372,9.13377],[76.63465,9.13511],[76.63988,9.14518],[76.64268,9.14803],[76.6561,9.14895],[76.65672,9.13447],[76.65615,9.12195],[76.65145,9.11929],[76.64952,9.11684],[76.6541,9.11099],[76.65637,9.10667],[76.65714,9.10253],[76.65692,9.09667],[76.6603,9.09342],[76.6737,9.09233],[76.69729,9.08667],[76.71178,9.08489],[76.71732,9.08421],[76.72516,9.08161],[76.72975,9.0841],[76.73614,9.08134],[76.73872,9.08603],[76.74115,9.08613],[76.74447,9.08259],[76.74875,9.08267],[76.75184,9.08626],[76.75574,9.08881],[76.7581,9.08713],[76.75917,9.07299],[76.77121,9.07466],[76.77125,9.08505],[76.76875,9.0892],[76.76741,9.09426],[76.76738,9.09742],[76.78485,9.11332],[76.80715,9.10948],[76.81369,9.10722],[76.81615,9.10496],[76.81772,9.10058],[76.82389,9.09527],[76.82917,9.09324],[76.83291,9.09432],[76.83739,9.09361],[76.84933,9.09829],[76.85114,9.10311],[76.85099,9.11231],[76.8557,9.11845],[76.86052,9.11676],[76.86208,9.1183],[76.86346,9.12462],[76.86788,9.12287],[76.87566,9.13022],[76.89039,9.12412],[76.89742,9.13024],[76.89971,9.12638],[76.90267,9.11641],[76.90429,9.11576],[76.90533,9.12314],[76.91438,9.12402],[76.92237,9.12266],[76.93697,9.11741],[76.94563,9.11622],[76.94887,9.11645],[76.95375,9.11887],[76.96599,9.12732],[76.95014,9.13234],[76.94205,9.13756],[76.93573,9.13745],[76.92931,9.13893],[76.92645,9.1561],[76.92861,9.16144],[76.9287,9.16574],[76.93067,9.17154],[76.93789,9.16946],[76.94841,9.16124],[76.97361,9.14654],[76.9838,9.14149],[76.9941,9.13729],[77.00025,9.13213],[77.01027,9.13887],[77.01898,9.13059],[77.02318,9.12903],[77.02635,9.12681],[77.03344,9.12757],[77.03647,9.12448],[77.04011,9.12411],[77.0434,9.12236],[77.04967,9.12574],[77.05485,9.12656],[77.05588,9.12486],[77.05612,9.12188],[77.0578,9.11968],[77.06178,9.11737],[77.06632,9.11639],[77.06808,9.11505],[77.06867,9.11242],[77.07176,9.11118],[77.08046,9.11031],[77.08265,9.10824],[77.08906,9.10604],[77.09269,9.10418],[77.09618,9.10128],[77.1076,9.09582],[77.11211,9.09542],[77.12259,9.09292],[77.13511,9.08772],[77.13741,9.08616],[77.13977,9.08646],[77.14696,9.08376],[77.1526,9.08327],[77.15447,9.08476],[77.1573,9.08465],[77.15577,9.07956],[77.16699,9.07576],[77.17531,9.07614],[77.17938,9.07762],[77.18415,9.07486],[77.18798,9.07479],[77.19257,9.07674],[77.20323,9.07178],[77.2059,9.06908],[77.2086,9.07053]]]}}]}