{"type":"FeatureCollection","features":[{"type":"Feature","properties":{"id":"kottayam","name":"Kottayam","stateId":"kerala","stateName":"Kerala","censuscode":597,"type":"district"},"geometry":{"type":"Polygon","coordinates":[[[76.63309,9.85565],[76.63167,9.85296],[76.63101,9.84941],[76.63555,9.84633],[76.64953,9.84156],[76.66353,9.83891],[76.6662,9.84009],[76.6693,9.84265],[76.67266,9.84337],[76.67589,9.84162],[76.67806,9.83844],[76.68368,9.83845],[76.68603,9.83504],[76.68833,9.83347],[76.69511,9.83319],[76.69886,9.83177],[76.70101,9.82578],[76.70441,9.82374],[76.70927,9.82267],[76.72182,9.814],[76.7269,9.81172],[76.73163,9.8111],[76.73555,9.80785],[76.74259,9.80423],[76.74692,9.80356],[76.75517,9.81302],[76.75768,9.81461],[76.76362,9.81214],[76.76886,9.80865],[76.77725,9.80737],[76.78359,9.80462],[76.80462,9.79087],[76.81416,9.78338],[76.82964,9.76675],[76.83012,9.76244],[76.83622,9.75791],[76.85476,9.73355],[76.86091,9.72861],[76.86615,9.73138],[76.87039,9.726],[76.87638,9.72164],[76.8881,9.71659],[76.89249,9.71025],[76.89591,9.70431],[76.90478,9.6839],[76.9059,9.67513],[76.91395,9.6691],[76.92033,9.65948],[76.92962,9.6508],[76.92953,9.64823],[76.92405,9.64513],[76.92264,9.64297],[76.9227,9.63805],[76.92468,9.63397],[76.93721,9.61965],[76.93246,9.61432],[76.91404,9.62508],[76.90549,9.63284],[76.90044,9.63197],[76.89687,9.62869],[76.89482,9.62567],[76.89587,9.62125],[76.89493,9.61977],[76.89091,9.61878],[76.88985,9.61679],[76.89172,9.61276],[76.89143,9.60727],[76.89396,9.60071],[76.89392,9.59213],[76.89558,9.58455],[76.88714,9.58079],[76.88498,9.57822],[76.88616,9.57479],[76.88868,9.56738],[76.888,9.55828],[76.89014,9.53684],[76.90316,9.53581],[76.9069,9.52335],[76.92576,9.50738],[76.93292,9.50251],[76.93746,9.5039],[76.94011,9.49923],[76.94856,9.49083],[76.95567,9.49041],[76.96055,9.50018],[76.96741,9.5063],[76.97618,9.50031],[76.98561,9.48483],[76.98417,9.48103],[76.98693,9.47711],[76.98696,9.47309],[76.98493,9.46681],[76.96678,9.46248],[76.96132,9.45981],[76.9561,9.45281],[76.94962,9.44595],[76.94215,9.44477],[76.94006,9.44025],[76.9458,9.43415],[76.94379,9.43147],[76.94052,9.42966],[76.93956,9.4217],[76.93672,9.42212],[76.93288,9.41937],[76.9275,9.41761],[76.92488,9.41788],[76.92397,9.42104],[76.92421,9.42373],[76.92279,9.42598],[76.91111,9.42743],[76.89806,9.43558],[76.89135,9.44122],[76.88558,9.44442],[76.87925,9.44574],[76.87377,9.44596],[76.86532,9.45021],[76.85528,9.45694],[76.853,9.45031],[76.85065,9.44666],[76.84573,9.44681],[76.83934,9.44916],[76.83518,9.44988],[76.8306,9.4498],[76.82855,9.44666],[76.82529,9.4456],[76.82131,9.4517],[76.81654,9.45443],[76.81352,9.45342],[76.8023,9.45374],[76.80064,9.45049],[76.79771,9.45229],[76.7944,9.45139],[76.79489,9.44784],[76.79359,9.44449],[76.79354,9.4445],[76.78619,9.44639],[76.78319,9.44584],[76.77389,9.44196],[76.77069,9.43969],[76.76426,9.439],[76.76186,9.44218],[76.75961,9.45036],[76.75749,9.45233],[76.75257,9.45168],[76.75097,9.45336],[76.75382,9.46132],[76.75165,9.46439],[76.75047,9.46859],[76.74767,9.47333],[76.74425,9.47232],[76.73464,9.47258],[76.73155,9.46939],[76.73232,9.46484],[76.72906,9.4628],[76.71919,9.45898],[76.71481,9.45448],[76.7092,9.45412],[76.70725,9.45581],[76.70475,9.46117],[76.7017,9.46349],[76.70099,9.46873],[76.70132,9.47298],[76.70007,9.47557],[76.69366,9.47695],[76.68654,9.47718],[76.67958,9.48144],[76.67291,9.47948],[76.66291,9.48071],[76.65405,9.48016],[76.64145,9.47561],[76.64071,9.46953],[76.63859,9.46518],[76.63636,9.46301],[76.63197,9.46937],[76.62942,9.46968],[76.62738,9.46694],[76.62612,9.46223],[76.62737,9.45941],[76.61511,9.4598],[76.61046,9.45823],[76.61019,9.45323],[76.6092,9.45272],[76.60519,9.4573],[76.60299,9.45662],[76.60321,9.44847],[76.60008,9.44838],[76.59171,9.44373],[76.59128,9.44046],[76.5935,9.43637],[76.59329,9.43206],[76.59179,9.42667],[76.59614,9.42014],[76.59681,9.41715],[76.59395,9.41487],[76.59131,9.41731],[76.58203,9.42112],[76.57809,9.42029],[76.57285,9.41585],[76.56558,9.41143],[76.56083,9.41038],[76.55718,9.41098],[76.55607,9.41593],[76.55361,9.41986],[76.54882,9.42145],[76.54465,9.42073],[76.54056,9.41468],[76.5365,9.41373],[76.53426,9.41605],[76.53106,9.41395],[76.53046,9.41148],[76.52757,9.41185],[76.52551,9.40808],[76.52412,9.40722],[76.51579,9.40752],[76.51568,9.40011],[76.5099,9.40188],[76.50839,9.41459],[76.51066,9.41744],[76.50896,9.42136],[76.50852,9.42441],[76.50628,9.42569],[76.51148,9.433],[76.50613,9.43621],[76.49668,9.43962],[76.49912,9.45568],[76.5017,9.46049],[76.50445,9.46385],[76.50599,9.46809],[76.50517,9.4743],[76.50711,9.47762],[76.5069,9.48647],[76.50806,9.49496],[76.5078,9.4987],[76.50569,9.50193],[76.49898,9.50222],[76.49293,9.50508],[76.48164,9.50574],[76.47989,9.51064],[76.48031,9.52609],[76.47933,9.53414],[76.46601,9.54045],[76.46505,9.55051],[76.46587,9.55872],[76.43994,9.55214],[76.42752,9.54753],[76.42081,9.55534],[76.41561,9.55589],[76.41524,9.55811],[76.41495,9.55992],[76.41078,9.56093],[76.40544,9.55752],[76.40464,9.55167],[76.39174,9.54585],[76.39384,9.55571],[76.3946,9.56312],[76.39566,9.58689],[76.39687,9.59384],[76.39799,9.61813],[76.39936,9.63059],[76.39797,9.64582],[76.3971,9.6599],[76.39772,9.66576],[76.40331,9.68433],[76.39026,9.68919],[76.37734,9.69521],[76.37779,9.70813],[76.38041,9.71731],[76.38187,9.7262],[76.38246,9.74205],[76.38182,9.74993],[76.37769,9.7615],[76.37426,9.76774],[76.37219,9.77614],[76.36622,9.79158],[76.36837,9.80001],[76.38176,9.81554],[76.37955,9.82888],[76.37334,9.83565],[76.37736,9.83849],[76.3806,9.83989],[76.3873,9.84278],[76.39634,9.82841],[76.40636,9.82799],[76.41414,9.82327],[76.41813,9.82215],[76.42358,9.8228],[76.43276,9.82531],[76.44584,9.83182],[76.45063,9.83735],[76.45512,9.84065],[76.46236,9.84806],[76.47594,9.84411],[76.48275,9.84779],[76.48813,9.84666],[76.49999,9.85139],[76.5103,9.85119],[76.51503,9.84978],[76.52363,9.82403],[76.53441,9.82428],[76.53938,9.8235],[76.54145,9.8221],[76.54311,9.81319],[76.54479,9.81254],[76.54456,9.80594],[76.54687,9.80494],[76.5488,9.79981],[76.55308,9.8007],[76.55907,9.803],[76.56152,9.812],[76.56109,9.81551],[76.56793,9.82264],[76.57117,9.82267],[76.5767,9.81952],[76.58189,9.82275],[76.58384,9.82682],[76.58243,9.83217],[76.58352,9.83722],[76.58349,9.84153],[76.58714,9.84132],[76.5964,9.84585],[76.59991,9.84461],[76.6046,9.84405],[76.60984,9.83953],[76.61096,9.84193],[76.61406,9.8399],[76.61872,9.84233],[76.61499,9.84609],[76.61334,9.84892],[76.62453,9.85762],[76.63102,9.8567],[76.63309,9.85565]]]}}]}