{"type":"FeatureCollection","features":[{"type":"Feature","properties":{"id":"pathanamthitta","name":"Pathanamthitta","stateId":"kerala","stateName":"Kerala","censuscode":599,"type":"district"},"geometry":{"type":"Polygon","coordinates":[[[77.28437,9.2713],[77.28459,9.26677],[77.28269,9.26419],[77.28245,9.25257],[77.27928,9.24979],[77.28049,9.24073],[77.27633,9.23327],[77.27825,9.22584],[77.28371,9.2177],[77.27508,9.20892],[77.27021,9.20219],[77.26717,9.19906],[77.26395,9.19806],[77.2566,9.19874],[77.25645,9.19534],[77.25351,9.18797],[77.26023,9.18492],[77.26532,9.18458],[77.26929,9.17376],[77.26662,9.16484],[77.26884,9.15184],[77.2631,9.14802],[77.26244,9.14432],[77.25472,9.13872],[77.24963,9.12664],[77.24722,9.12353],[77.24278,9.12285],[77.2341,9.11677],[77.22877,9.11502],[77.2264,9.10622],[77.22189,9.10444],[77.2193,9.10001],[77.2129,9.09703],[77.20682,9.08377],[77.2077,9.07856],[77.20997,9.07361],[77.2086,9.07053],[77.2059,9.06908],[77.20323,9.07178],[77.19257,9.07674],[77.18798,9.07479],[77.18415,9.07486],[77.17938,9.07762],[77.17531,9.07614],[77.16699,9.07576],[77.15577,9.07956],[77.1573,9.08465],[77.15447,9.08476],[77.1526,9.08327],[77.14696,9.08376],[77.13977,9.08646],[77.13741,9.08616],[77.13511,9.08772],[77.12259,9.09292],[77.11211,9.09542],[77.1076,9.09582],[77.09618,9.10128],[77.09269,9.10418],[77.08906,9.10604],[77.08265,9.10824],[77.08046,9.11031],[77.07176,9.11118],[77.06867,9.11242],[77.06808,9.11505],[77.06632,9.11639],[77.06178,9.11737],[77.0578,9.11968],[77.05612,9.12188],[77.05588,9.12486],[77.05485,9.12656],[77.04967,9.12574],[77.0434,9.12236],[77.04011,9.12411],[77.03647,9.12448],[77.03344,9.12757],[77.02635,9.12681],[77.02318,9.12903],[77.01898,9.13059],[77.01027,9.13887],[77.00025,9.13213],[76.9941,9.13729],[76.9838,9.14149],[76.97361,9.14654],[76.94841,9.16124],[76.93789,9.16946],[76.93067,9.17154],[76.9287,9.16574],[76.92861,9.16144],[76.92645,9.1561],[76.92931,9.13893],[76.93573,9.13745],[76.94205,9.13756],[76.95014,9.13234],[76.96599,9.12732],[76.95375,9.11887],[76.94887,9.11645],[76.94563,9.11622],[76.93697,9.11741],[76.92237,9.12266],[76.91438,9.12402],[76.90533,9.12314],[76.90429,9.11576],[76.90267,9.11641],[76.89971,9.12638],[76.89742,9.13024],[76.89039,9.12412],[76.87566,9.13022],[76.86788,9.12287],[76.86346,9.12462],[76.86208,9.1183],[76.86052,9.11676],[76.8557,9.11845],[76.85099,9.11231],[76.85114,9.10311],[76.84933,9.09829],[76.83739,9.09361],[76.83291,9.09432],[76.82917,9.09324],[76.82389,9.09527],[76.81772,9.10058],[76.81615,9.10496],[76.81369,9.10722],[76.80715,9.10948],[76.78485,9.11332],[76.76738,9.09742],[76.76741,9.09426],[76.76875,9.0892],[76.77125,9.08505],[76.77121,9.07466],[76.75917,9.07299],[76.7581,9.08713],[76.75574,9.08881],[76.75184,9.08626],[76.74875,9.08267],[76.74447,9.08259],[76.74115,9.08613],[76.73872,9.08603],[76.73614,9.08134],[76.72975,9.0841],[76.72516,9.08161],[76.71732,9.08421],[76.71178,9.08489],[76.69729,9.08667],[76.6737,9.09233],[76.6603,9.09342],[76.65692,9.09667],[76.65714,9.10253],[76.65637,9.10667],[76.6541,9.11099],[76.64952,9.11684],[76.65145,9.11929],[76.65615,9.12195],[76.65672,9.13447],[76.6561,9.14895],[76.66749,9.14914],[76.67334,9.15128],[76.67453,9.15494],[76.67334,9.1634],[76.67435,9.16747],[76.67611,9.17015],[76.6797,9.17064],[76.68483,9.16899],[76.68636,9.17271],[76.68427,9.1768],[76.67768,9.18381],[76.66838,9.19785],[76.65428,9.19969],[76.65012,9.20714],[76.647,9.20676],[76.64742,9.20107],[76.64482,9.20172],[76.64251,9.20846],[76.64449,9.21121],[76.64401,9.21431],[76.64134,9.21433],[76.64415,9.21758],[76.64096,9.22991],[76.64809,9.23249],[76.65179,9.23286],[76.65446,9.23433],[76.65908,9.23935],[76.65432,9.25122],[76.65687,9.25763],[76.66435,9.26688],[76.67807,9.2686],[76.68279,9.27925],[76.69299,9.28203],[76.69407,9.28616],[76.69385,9.2942],[76.6876,9.29368],[76.68687,9.28961],[76.68536,9.28922],[76.681,9.29362],[76.67616,9.28826],[76.67198,9.28721],[76.66844,9.28471],[76.66423,9.28612],[76.6596,9.28559],[76.65574,9.28821],[76.65487,9.2947],[76.65495,9.30424],[76.65268,9.30748],[76.64756,9.31229],[76.63894,9.32557],[76.64498,9.33056],[76.64501,9.33058],[76.64227,9.33525],[76.64334,9.33967],[76.64198,9.34204],[76.6322,9.342],[76.62878,9.33973],[76.62455,9.33977],[76.60521,9.34469],[76.60136,9.34748],[76.59681,9.34907],[76.5868,9.34864],[76.58094,9.34731],[76.5782,9.35014],[76.57295,9.35329],[76.56396,9.34945],[76.5593,9.34616],[76.55614,9.34895],[76.55139,9.34668],[76.5539,9.34322],[76.55996,9.3419],[76.55864,9.33692],[76.55486,9.33436],[76.55472,9.32351],[76.55002,9.32142],[76.53698,9.31865],[76.53452,9.32171],[76.53089,9.32324],[76.51614,9.32376],[76.50703,9.3205],[76.50148,9.32066],[76.49624,9.32265],[76.48887,9.32581],[76.48024,9.32559],[76.47644,9.32838],[76.47805,9.33354],[76.48978,9.34649],[76.49568,9.34667],[76.51251,9.35262],[76.51432,9.36221],[76.5234,9.36248],[76.52371,9.36506],[76.51759,9.36655],[76.51144,9.37062],[76.50945,9.37574],[76.51235,9.37624],[76.51239,9.38118],[76.51481,9.38662],[76.51298,9.38939],[76.51237,9.39336],[76.51356,9.39726],[76.51568,9.40011],[76.51579,9.40752],[76.52412,9.40722],[76.52551,9.40808],[76.52757,9.41185],[76.53046,9.41148],[76.53106,9.41395],[76.53426,9.41605],[76.5365,9.41373],[76.54056,9.41468],[76.54465,9.42073],[76.54882,9.42145],[76.55361,9.41986],[76.55607,9.41593],[76.55718,9.41098],[76.56083,9.41038],[76.56558,9.41143],[76.57285,9.41585],[76.57809,9.42029],[76.58203,9.42112],[76.59131,9.41731],[76.59395,9.41487],[76.59681,9.41715],[76.59614,9.42014],[76.59179,9.42667],[76.59329,9.43206],[76.5935,9.43637],[76.59128,9.44046],[76.59171,9.44373],[76.60008,9.44838],[76.60321,9.44847],[76.60299,9.45662],[76.60519,9.4573],[76.6092,9.45272],[76.61019,9.45323],[76.61046,9.45823],[76.61511,9.4598],[76.62737,9.45941],[76.62612,9.46223],[76.62738,9.46694],[76.62942,9.46968],[76.63197,9.46937],[76.63636,9.46301],[76.63859,9.46518],[76.64071,9.46953],[76.64145,9.47561],[76.65405,9.48016],[76.66291,9.48071],[76.67291,9.47948],[76.67958,9.48144],[76.68654,9.47718],[76.69366,9.47695],[76.70007,9.47557],[76.70132,9.47298],[76.70099,9.46873],[76.7017,9.46349],[76.70475,9.46117],[76.70725,9.45581],[76.7092,9.45412],[76.71481,9.45448],[76.71919,9.45898],[76.72906,9.4628],[76.73232,9.46484],[76.73155,9.46939],[76.73464,9.47258],[76.74425,9.47232],[76.74767,9.47333],[76.75047,9.46859],[76.75165,9.46439],[76.75382,9.46132],[76.75097,9.45336],[76.75257,9.45168],[76.75749,9.45233],[76.75961,9.45036],[76.76186,9.44218],[76.76426,9.439],[76.77069,9.43969],[76.77389,9.44196],[76.78319,9.44584],[76.78619,9.44639],[76.79354,9.4445],[76.79359,9.44449],[76.79489,9.44784],[76.7944,9.45139],[76.79771,9.45229],[76.80064,9.45049],[76.8023,9.45374],[76.81352,9.45342],[76.81654,9.45443],[76.82131,9.4517],[76.82529,9.4456],[76.82855,9.44666],[76.8306,9.4498],[76.83518,9.44988],[76.83934,9.44916],[76.84573,9.44681],[76.85065,9.44666],[76.853,9.45031],[76.85528,9.45694],[76.86532,9.45021],[76.87377,9.44596],[76.87925,9.44574],[76.88558,9.44442],[76.89135,9.44122],[76.89806,9.43558],[76.91111,9.42743],[76.92279,9.42598],[76.92421,9.42373],[76.92397,9.42104],[76.92488,9.41788],[76.9275,9.41761],[76.93288,9.41937],[76.93672,9.42212],[76.93956,9.4217],[76.94052,9.42966],[76.96368,9.4293],[76.97834,9.4247],[76.99295,9.42228],[77.00006,9.42297],[77.00572,9.41866],[77.01472,9.41969],[77.01429,9.40876],[77.02216,9.4066],[77.02624,9.4078],[77.03007,9.40732],[77.03249,9.40997],[77.03543,9.41022],[77.0374,9.41234],[77.0438,9.41319],[77.05451,9.41714],[77.06468,9.41574],[77.06801,9.4164],[77.06375,9.42486],[77.05747,9.4332],[77.04875,9.45098],[77.05087,9.45632],[77.05483,9.45982],[77.05924,9.45959],[77.06342,9.45895],[77.07024,9.45452],[77.07376,9.4549],[77.08027,9.4584],[77.08361,9.45911],[77.08812,9.46113],[77.09305,9.46528],[77.10464,9.47828],[77.11199,9.47858],[77.12051,9.47787],[77.12402,9.48072],[77.13173,9.49167],[77.14198,9.48928],[77.14414,9.48572],[77.14433,9.48072],[77.1423,9.47601],[77.1417,9.47001],[77.14361,9.46052],[77.15578,9.4691],[77.16134,9.46879],[77.16716,9.46962],[77.16822,9.46424],[77.1697,9.46514],[77.16953,9.46071],[77.1746,9.4659],[77.18155,9.47044],[77.18338,9.46411],[77.18537,9.46312],[77.18502,9.46087],[77.1828,9.45719],[77.18537,9.45392],[77.18824,9.45491],[77.18992,9.45007],[77.19271,9.44916],[77.19788,9.45055],[77.20214,9.44917],[77.20534,9.45086],[77.21027,9.44586],[77.20772,9.44137],[77.20946,9.44107],[77.21197,9.44269],[77.21467,9.43844],[77.22464,9.43265],[77.22318,9.42445],[77.22584,9.42193],[77.2265,9.41832],[77.23093,9.41953],[77.23263,9.416],[77.23022,9.4106],[77.24843,9.38512],[77.24968,9.38113],[77.2479,9.37585],[77.24407,9.36931],[77.24313,9.35836],[77.23907,9.35407],[77.23688,9.34901],[77.23942,9.34424],[77.24018,9.33937],[77.23774,9.3354],[77.23355,9.33133],[77.23646,9.32847],[77.23723,9.3255],[77.22688,9.31357],[77.22749,9.29593],[77.23047,9.29699],[77.23764,9.29233],[77.23979,9.28244],[77.24204,9.28491],[77.24628,9.28191],[77.2475,9.28867],[77.25798,9.28548],[77.26205,9.28001],[77.26848,9.27925],[77.27304,9.27717],[77.27523,9.2751],[77.28437,9.2713]]]}}]}