{"type":"FeatureCollection","features":[{"type":"Feature","properties":{"id":"wayanad","name":"Wayanad","stateId":"kerala","stateName":"Kerala","censuscode":590,"type":"district"},"geometry":{"type":"Polygon","coordinates":[[[76.41534,11.76027],[76.41852,11.75344],[76.41429,11.74759],[76.41328,11.74031],[76.41969,11.74125],[76.42501,11.73291],[76.42675,11.72848],[76.42667,11.72406],[76.42572,11.72056],[76.41883,11.71692],[76.41642,11.71112],[76.41402,11.71056],[76.41084,11.71374],[76.40411,11.70802],[76.41068,11.70644],[76.40998,11.69008],[76.41522,11.6765],[76.41806,11.67155],[76.42545,11.67043],[76.43138,11.66633],[76.43564,11.65454],[76.43779,11.65211],[76.4426,11.64865],[76.44357,11.64474],[76.44222,11.64056],[76.43871,11.63667],[76.43387,11.63606],[76.43279,11.63031],[76.42925,11.63211],[76.40409,11.63228],[76.38789,11.62936],[76.38459,11.62167],[76.38467,11.61157],[76.37888,11.60763],[76.37856,11.6004],[76.3732,11.59864],[76.3579,11.58962],[76.34811,11.58743],[76.34333,11.5852],[76.34125,11.5875],[76.34115,11.59198],[76.33627,11.5954],[76.31875,11.58432],[76.31686,11.57641],[76.31284,11.57722],[76.30554,11.57111],[76.30141,11.57181],[76.30079,11.57854],[76.29821,11.58733],[76.29343,11.58971],[76.28546,11.59025],[76.2835,11.59669],[76.27845,11.59963],[76.27419,11.59604],[76.26713,11.59365],[76.2331,11.57109],[76.2343,11.56633],[76.24188,11.55315],[76.24579,11.54004],[76.24997,11.53548],[76.25047,11.53088],[76.24715,11.52763],[76.24068,11.52536],[76.23252,11.52464],[76.22767,11.51897],[76.22362,11.51215],[76.20189,11.50655],[76.19003,11.49532],[76.18283,11.48214],[76.18636,11.47621],[76.18429,11.47105],[76.17567,11.46706],[76.1692,11.46536],[76.16528,11.45866],[76.1426,11.4492],[76.13483,11.45555],[76.12903,11.46378],[76.12131,11.47161],[76.1127,11.47463],[76.10487,11.48005],[76.09538,11.48169],[76.09045,11.48842],[76.09518,11.49295],[76.09136,11.49778],[76.09038,11.50536],[76.07751,11.52011],[76.07489,11.52],[76.0635,11.50758],[76.05843,11.50868],[76.05335,11.50261],[76.04841,11.50498],[76.04491,11.50424],[76.04194,11.50115],[76.03369,11.50824],[76.02375,11.51269],[76.01735,11.51455],[76.00822,11.5217],[75.99986,11.52637],[75.99058,11.53288],[75.98712,11.53672],[75.98007,11.54068],[75.97473,11.54632],[75.97067,11.5484],[75.9683,11.55051],[75.95865,11.56111],[75.95913,11.56633],[75.95769,11.5717],[75.95728,11.57935],[75.95172,11.58145],[75.94631,11.58216],[75.94064,11.58535],[75.93805,11.58786],[75.92677,11.59027],[75.91771,11.59598],[75.90813,11.60255],[75.90595,11.60516],[75.90486,11.61401],[75.89783,11.61929],[75.89833,11.62587],[75.90008,11.62956],[75.90018,11.64269],[75.90223,11.64724],[75.90389,11.65937],[75.90406,11.66608],[75.90213,11.67683],[75.90631,11.67953],[75.90911,11.68264],[75.91469,11.68566],[75.91617,11.68788],[75.90675,11.69302],[75.90405,11.69605],[75.89644,11.69857],[75.88602,11.69736],[75.87903,11.69829],[75.87673,11.70068],[75.86988,11.69948],[75.85874,11.70089],[75.85084,11.69942],[75.84984,11.70259],[75.84562,11.70514],[75.84567,11.70847],[75.84456,11.71222],[75.83599,11.7172],[75.83024,11.72291],[75.82483,11.72415],[75.82105,11.7322],[75.81816,11.73483],[75.80822,11.74056],[75.80276,11.74243],[75.79558,11.7422],[75.79875,11.74778],[75.78872,11.75546],[75.78544,11.7589],[75.78571,11.76147],[75.78921,11.76492],[75.79021,11.77398],[75.79397,11.78007],[75.79265,11.78905],[75.7885,11.7928],[75.77724,11.79769],[75.77998,11.80435],[75.78283,11.80787],[75.78778,11.81089],[75.79246,11.81175],[75.79675,11.81426],[75.79821,11.81866],[75.79817,11.82354],[75.79678,11.8285],[75.79263,11.83162],[75.78994,11.83539],[75.79084,11.84071],[75.79226,11.84552],[75.80042,11.8458],[75.80332,11.84765],[75.8047,11.85084],[75.80761,11.85453],[75.81701,11.85502],[75.8246,11.85047],[75.82965,11.84948],[75.83403,11.84964],[75.84163,11.85423],[75.84489,11.85407],[75.84765,11.85086],[75.85042,11.84892],[75.85628,11.84693],[75.86003,11.84704],[75.8639,11.84859],[75.86759,11.84561],[75.87571,11.84662],[75.88069,11.84355],[75.88389,11.84304],[75.88763,11.84407],[75.89204,11.84176],[75.89595,11.84227],[75.90124,11.84081],[75.91395,11.84376],[75.91768,11.8433],[75.92115,11.84503],[75.9235,11.84298],[75.92457,11.83945],[75.92685,11.83982],[75.92864,11.84307],[75.92801,11.85164],[75.9306,11.86064],[75.91886,11.86778],[75.91345,11.8728],[75.92925,11.87945],[75.93575,11.88775],[75.93713,11.8937],[75.93655,11.90146],[75.93453,11.90961],[75.92487,11.9207],[75.92544,11.92657],[75.9306,11.93885],[75.93656,11.9371],[75.94265,11.93882],[75.95389,11.93993],[75.96044,11.93754],[75.96442,11.93465],[75.9735,11.93303],[75.97825,11.93362],[75.98189,11.93104],[75.98552,11.93074],[75.98903,11.93152],[76.00016,11.92941],[76.00391,11.92975],[76.0097,11.93805],[76.01967,11.9394],[76.02422,11.94116],[76.02882,11.9408],[76.03541,11.93895],[76.04435,11.94518],[76.0478,11.94948],[76.05364,11.95066],[76.07269,11.9645],[76.07876,11.96752],[76.08698,11.96692],[76.0973,11.96786],[76.11397,11.97694],[76.1148,11.9344],[76.1137,11.88267],[76.11502,11.87693],[76.11563,11.86492],[76.11438,11.85752],[76.12288,11.8494],[76.1268,11.85065],[76.13204,11.85114],[76.14543,11.8635],[76.15587,11.86742],[76.16911,11.86647],[76.18024,11.8689],[76.19062,11.87024],[76.20272,11.86204],[76.20755,11.86064],[76.2101,11.85558],[76.21181,11.84519],[76.21395,11.83828],[76.21226,11.82612],[76.21877,11.82081],[76.22113,11.81076],[76.22537,11.80661],[76.23899,11.80306],[76.25135,11.80192],[76.2601,11.80643],[76.27246,11.80707],[76.27905,11.8102],[76.28214,11.80744],[76.29075,11.79155],[76.30186,11.78479],[76.30716,11.78288],[76.31034,11.77632],[76.31781,11.75062],[76.32491,11.74715],[76.33172,11.74552],[76.34241,11.73744],[76.34835,11.73793],[76.35372,11.73734],[76.35862,11.74127],[76.36354,11.74676],[76.3799,11.74309],[76.39136,11.75194],[76.39834,11.74979],[76.41206,11.75679],[76.41534,11.76028],[76.41534,11.76027]]]}}]}