{"type":"FeatureCollection","features":[{"type":"Feature","properties":{"id":"bilaspur","name":"Bilaspur","stateId":"himachal-pradesh","stateName":"Himachal Pradesh","censuscode":30,"type":"district"},"geometry":{"type":"Polygon","coordinates":[[[76.7298,31.58543],[76.7313,31.58222],[76.73111,31.57295],[76.72836,31.5638],[76.73494,31.56274],[76.72925,31.55556],[76.73026,31.54657],[76.73619,31.53982],[76.73474,31.53291],[76.73972,31.52501],[76.73682,31.52214],[76.73283,31.5199],[76.74089,31.51786],[76.74721,31.51883],[76.7632,31.51924],[76.7671,31.52009],[76.77252,31.5161],[76.78523,31.50285],[76.78632,31.50171],[76.78922,31.49457],[76.78593,31.4841],[76.7922,31.47929],[76.79802,31.47617],[76.79861,31.46459],[76.80251,31.45674],[76.80327,31.45144],[76.79857,31.45169],[76.79719,31.44564],[76.80373,31.44033],[76.80582,31.43294],[76.80295,31.42679],[76.80413,31.42264],[76.81201,31.42374],[76.81649,31.42032],[76.82433,31.41828],[76.82803,31.42057],[76.83402,31.42159],[76.84592,31.41601],[76.8592,31.41291],[76.86986,31.4131],[76.88059,31.41185],[76.88293,31.4012],[76.88353,31.38832],[76.87674,31.38533],[76.86929,31.38461],[76.86518,31.38108],[76.87079,31.37465],[76.87573,31.36725],[76.87389,31.36074],[76.87579,31.35441],[76.87605,31.35379],[76.87589,31.34969],[76.87738,31.34603],[76.88194,31.3403],[76.87607,31.33134],[76.88024,31.32741],[76.89503,31.31916],[76.90423,31.31609],[76.91295,31.31645],[76.91936,31.3137],[76.92308,31.3034],[76.92803,31.30217],[76.92068,31.2894],[76.91628,31.2841],[76.91029,31.28107],[76.90473,31.28017],[76.89868,31.27813],[76.89623,31.2737],[76.89934,31.2681],[76.89662,31.26476],[76.88994,31.26613],[76.88228,31.26283],[76.87638,31.26206],[76.87192,31.25692],[76.86702,31.24634],[76.87037,31.24624],[76.87437,31.23534],[76.88351,31.22385],[76.87391,31.21852],[76.86073,31.21881],[76.84976,31.22378],[76.84472,31.22973],[76.83778,31.23195],[76.83126,31.22622],[76.82664,31.22599],[76.82575,31.2255],[76.81853,31.22843],[76.8133,31.22824],[76.80794,31.23043],[76.79904,31.22633],[76.77905,31.22047],[76.77494,31.22709],[76.76799,31.22819],[76.75767,31.22855],[76.74913,31.23323],[76.74533,31.23653],[76.73812,31.23949],[76.73262,31.24019],[76.7287,31.23433],[76.72284,31.23026],[76.71318,31.2262],[76.70572,31.22398],[76.69994,31.22112],[76.69409,31.21705],[76.67191,31.21521],[76.66426,31.21223],[76.6494,31.20982],[76.64813,31.21218],[76.63851,31.2179],[76.63995,31.22395],[76.63026,31.22632],[76.60072,31.21296],[76.59456,31.21326],[76.59331,31.21741],[76.58993,31.22272],[76.59651,31.22788],[76.5987,31.23658],[76.6067,31.24308],[76.61564,31.24783],[76.58457,31.27714],[76.56627,31.26186],[76.55993,31.25288],[76.54893,31.25238],[76.54665,31.26355],[76.54882,31.26937],[76.55121,31.281],[76.54526,31.2806],[76.5419,31.26701],[76.53209,31.25937],[76.52828,31.26156],[76.53062,31.27446],[76.5283,31.28016],[76.52494,31.2797],[76.51741,31.27498],[76.51224,31.27038],[76.50259,31.27051],[76.49721,31.2814],[76.49374,31.28624],[76.48967,31.28935],[76.48909,31.29615],[76.48651,31.30387],[76.48075,31.30738],[76.47612,31.304],[76.46502,31.2934],[76.45976,31.2869],[76.44513,31.28006],[76.44247,31.28645],[76.4498,31.29186],[76.4596,31.29761],[76.4623,31.30319],[76.45149,31.31466],[76.44206,31.32244],[76.43225,31.3346],[76.42692,31.34497],[76.42292,31.35107],[76.41337,31.36282],[76.40517,31.37601],[76.39339,31.38857],[76.40454,31.39473],[76.39582,31.40805],[76.39656,31.41299],[76.39578,31.42179],[76.39881,31.42697],[76.41729,31.41258],[76.435,31.41148],[76.44159,31.41482],[76.44904,31.41665],[76.45975,31.42235],[76.46686,31.42424],[76.47002,31.42436],[76.47189,31.42441],[76.47367,31.43075],[76.4737,31.44019],[76.47922,31.44186],[76.47809,31.4448],[76.4713,31.4441],[76.46453,31.44636],[76.46642,31.44878],[76.47048,31.45868],[76.4588,31.47315],[76.45279,31.48317],[76.45897,31.48604],[76.46407,31.48408],[76.46762,31.48056],[76.48431,31.47076],[76.49202,31.46943],[76.49987,31.46914],[76.51307,31.46031],[76.51767,31.46791],[76.52576,31.46093],[76.53294,31.46127],[76.53465,31.45453],[76.554,31.44178],[76.55701,31.43883],[76.56052,31.42933],[76.57234,31.43178],[76.58968,31.42215],[76.59333,31.42571],[76.60196,31.42219],[76.60827,31.42107],[76.61423,31.41871],[76.61788,31.42354],[76.61618,31.43131],[76.62529,31.43884],[76.6272,31.44517],[76.61021,31.46985],[76.60797,31.49065],[76.61931,31.51476],[76.61936,31.52051],[76.62074,31.52789],[76.61688,31.53267],[76.61663,31.53958],[76.61433,31.54701],[76.61936,31.55731],[76.61679,31.56572],[76.62206,31.57349],[76.62277,31.57363],[76.63256,31.5756],[76.64467,31.58732],[76.65528,31.58419],[76.66682,31.5829],[76.67317,31.58548],[76.68119,31.58713],[76.68506,31.59317],[76.70539,31.59899],[76.72899,31.58718],[76.7298,31.58543]]]}}]}