{"type":"FeatureCollection","features":[{"type":"Feature","properties":{"id":"chamba","name":"Chamba","stateId":"himachal-pradesh","stateName":"Himachal Pradesh","censuscode":23,"type":"district"},"geometry":{"type":"Polygon","coordinates":[[[76.57371,33.20634],[76.58079,33.20566],[76.58546,33.2065],[76.59458,33.20525],[76.59974,33.20632],[76.60404,33.20365],[76.60404,33.20365],[76.60404,33.20365],[76.60254,33.19898],[76.60185,33.19248],[76.60581,33.18941],[76.61037,33.19002],[76.61514,33.18742],[76.61668,33.18329],[76.61668,33.18329],[76.61627,33.17587],[76.61738,33.17312],[76.63036,33.16529],[76.64478,33.16178],[76.65854,33.16396],[76.66893,33.1711],[76.67729,33.17036],[76.68731,33.17255],[76.70312,33.17325],[76.71152,33.17681],[76.71459,33.18068],[76.72634,33.18048],[76.73207,33.17661],[76.74775,33.17858],[76.74775,33.17858],[76.74669,33.15871],[76.74441,33.15456],[76.74827,33.14877],[76.74888,33.14009],[76.74773,33.13053],[76.74573,33.12574],[76.74081,33.12093],[76.74113,33.11495],[76.73793,33.10659],[76.73576,33.09697],[76.73731,33.08984],[76.73591,33.08305],[76.7375,33.0754],[76.74382,33.06412],[76.74588,33.05354],[76.75556,33.04463],[76.75423,33.03882],[76.75762,33.03699],[76.75677,33.02566],[76.76262,33.01833],[76.76888,33.0179],[76.77569,33.01478],[76.7732,33.00993],[76.77469,33.00244],[76.77362,33.00064],[76.77446,32.99399],[76.78033,32.99266],[76.78568,32.99031],[76.78715,32.98835],[76.78006,32.98414],[76.77672,32.98069],[76.78006,32.96802],[76.7798,32.96123],[76.78557,32.96158],[76.79127,32.96083],[76.77729,32.94565],[76.77368,32.93766],[76.76822,32.93637],[76.76548,32.93383],[76.76326,32.92971],[76.74474,32.92599],[76.71917,32.92283],[76.71801,32.9136],[76.71753,32.89025],[76.702,32.88141],[76.69779,32.87823],[76.69649,32.87114],[76.69042,32.86435],[76.68499,32.85414],[76.67884,32.85178],[76.67091,32.84575],[76.66412,32.8463],[76.65683,32.84876],[76.64761,32.84404],[76.6401,32.84179],[76.63009,32.84338],[76.62286,32.84831],[76.61795,32.85316],[76.61242,32.85423],[76.60383,32.84868],[76.59128,32.8381],[76.57571,32.82843],[76.56256,32.82413],[76.55432,32.8173],[76.54691,32.81292],[76.53645,32.81158],[76.52731,32.80679],[76.51325,32.80316],[76.47338,32.80531],[76.4701,32.81251],[76.47112,32.82088],[76.46484,32.82571],[76.45697,32.84632],[76.4556,32.85207],[76.44387,32.85376],[76.43335,32.85114],[76.41821,32.84536],[76.41035,32.8415],[76.40503,32.83656],[76.39886,32.82884],[76.39316,32.82317],[76.3829,32.82158],[76.37719,32.81976],[76.37522,32.80998],[76.37552,32.79685],[76.38525,32.79236],[76.38705,32.78435],[76.38489,32.7747],[76.40358,32.73771],[76.40358,32.72758],[76.41787,32.71952],[76.42552,32.71239],[76.42927,32.70616],[76.43091,32.69891],[76.429,32.69161],[76.42642,32.68825],[76.4305,32.68304],[76.43582,32.67824],[76.43952,32.67603],[76.44604,32.67436],[76.44269,32.65956],[76.45166,32.65495],[76.46422,32.6527],[76.49215,32.66205],[76.50404,32.66501],[76.51669,32.66691],[76.52209,32.66585],[76.53029,32.65777],[76.53864,32.65585],[76.55009,32.65825],[76.5757,32.64952],[76.59364,32.64246],[76.59671,32.63083],[76.60358,32.62568],[76.60331,32.61745],[76.60447,32.61038],[76.60886,32.60625],[76.61599,32.6046],[76.6315,32.60303],[76.6289,32.59818],[76.62481,32.58618],[76.62526,32.5785],[76.6299,32.57418],[76.639,32.57597],[76.64947,32.58035],[76.6689,32.57229],[76.68035,32.57001],[76.6895,32.57053],[76.70553,32.57326],[76.71001,32.56952],[76.70906,32.56137],[76.7066,32.55433],[76.70083,32.54636],[76.70719,32.54353],[76.71491,32.53816],[76.72479,32.55212],[76.73157,32.55508],[76.73967,32.56071],[76.7466,32.55819],[76.75366,32.55774],[76.75778,32.55839],[76.76767,32.54734],[76.77238,32.55085],[76.78153,32.5525],[76.79234,32.54412],[76.79554,32.53715],[76.80204,32.53417],[76.80902,32.53373],[76.81488,32.53505],[76.82172,32.53772],[76.82797,32.5385],[76.83024,32.53091],[76.83922,32.52638],[76.8487,32.52895],[76.8568,32.53221],[76.86586,32.5334],[76.87337,32.53154],[76.87168,32.52722],[76.8742,32.52174],[76.88323,32.51994],[76.87972,32.51707],[76.87594,32.5098],[76.87016,32.50424],[76.86519,32.49624],[76.86302,32.48952],[76.85719,32.48302],[76.8538,32.4763],[76.85577,32.46956],[76.85915,32.4645],[76.86534,32.46114],[76.85742,32.45611],[76.84752,32.44783],[76.83557,32.44128],[76.82416,32.43709],[76.814,32.42759],[76.81135,32.41861],[76.803,32.41216],[76.78688,32.40625],[76.78477,32.39003],[76.78571,32.38198],[76.78793,32.37464],[76.78286,32.36924],[76.77821,32.36206],[76.77324,32.35949],[76.75907,32.36007],[76.75407,32.3583],[76.75729,32.35183],[76.76316,32.34526],[76.77285,32.33917],[76.77703,32.33284],[76.77905,32.32676],[76.78571,32.31664],[76.78046,32.31264],[76.77213,32.30854],[76.77505,32.30058],[76.77619,32.2911],[76.77074,32.28169],[76.77972,32.26802],[76.7758,32.2615],[76.76986,32.25402],[76.77106,32.25035],[76.77823,32.24856],[76.77155,32.24249],[76.77316,32.22717],[76.77131,32.2212],[76.76641,32.21403],[76.76084,32.20712],[76.75466,32.20339],[76.73975,32.18868],[76.73712,32.18769],[76.7283,32.19115],[76.72096,32.19559],[76.71367,32.19853],[76.70934,32.1987],[76.69838,32.19683],[76.69323,32.18995],[76.68775,32.18568],[76.68245,32.17967],[76.67339,32.17898],[76.66594,32.18025],[76.65943,32.18324],[76.62503,32.19248],[76.61361,32.19908],[76.60782,32.2069],[76.59958,32.2148],[76.5901,32.22108],[76.57239,32.22567],[76.56449,32.22515],[76.55663,32.22896],[76.54847,32.22851],[76.526,32.23326],[76.52449,32.23769],[76.5135,32.23286],[76.50443,32.2333],[76.49454,32.24334],[76.48904,32.24573],[76.48213,32.25192],[76.47648,32.24803],[76.47009,32.24781],[76.46377,32.24873],[76.45841,32.25514],[76.44964,32.26203],[76.44047,32.26569],[76.43287,32.26314],[76.42452,32.26449],[76.41968,32.27992],[76.40714,32.28278],[76.37908,32.2972],[76.37332,32.30236],[76.36388,32.31731],[76.35583,32.32664],[76.34831,32.32582],[76.33863,32.32622],[76.33082,32.33253],[76.32543,32.33578],[76.31695,32.33734],[76.30916,32.34021],[76.3019,32.3377],[76.2949,32.34014],[76.28742,32.35657],[76.28629,32.36353],[76.28402,32.36792],[76.27546,32.37431],[76.27342,32.37543],[76.2666,32.3737],[76.26175,32.37968],[76.25948,32.39301],[76.25473,32.39432],[76.24272,32.39347],[76.22325,32.39552],[76.22017,32.39385],[76.21703,32.38755],[76.2114,32.3789],[76.20578,32.37399],[76.19879,32.36906],[76.19015,32.36505],[76.17729,32.35698],[76.16646,32.35379],[76.16971,32.35099],[76.17059,32.34575],[76.17349,32.34027],[76.1728,32.33748],[76.16963,32.3326],[76.16834,32.32645],[76.16571,32.3227],[76.16044,32.31795],[76.16261,32.31289],[76.16278,32.29818],[76.16698,32.28884],[76.168,32.28368],[76.17325,32.28023],[76.18148,32.27681],[76.18656,32.27268],[76.18705,32.26662],[76.18481,32.25621],[76.18051,32.24541],[76.18424,32.23237],[76.18173,32.22737],[76.17686,32.22494],[76.17333,32.22483],[76.17275,32.23064],[76.16862,32.23703],[76.15946,32.23047],[76.15074,32.22718],[76.14374,32.22543],[76.13225,32.22854],[76.12606,32.22844],[76.12261,32.2284],[76.12513,32.23513],[76.12359,32.24194],[76.12414,32.25141],[76.1198,32.2568],[76.11018,32.25863],[76.09957,32.26361],[76.09378,32.26845],[76.08658,32.27111],[76.07843,32.27123],[76.0722,32.26896],[76.0474,32.26436],[76.04146,32.26901],[76.03109,32.27048],[76.02662,32.27865],[76.01699,32.29085],[76.01679,32.29888],[76.0198,32.30342],[76.02113,32.31211],[76.02363,32.31831],[76.02362,32.32082],[76.01574,32.31815],[76.01811,32.32461],[76.02196,32.33068],[76.01975,32.33791],[76.00525,32.35415],[76.00003,32.36365],[75.99139,32.3756],[75.97935,32.38506],[75.97462,32.3909],[75.96753,32.39187],[75.95916,32.39025],[75.94739,32.39224],[75.93774,32.39553],[75.93494,32.4006],[75.9269,32.40871],[75.93123,32.40978],[75.94173,32.41128],[75.94798,32.41631],[75.95046,32.42426],[75.94726,32.43029],[75.9403,32.43852],[75.93137,32.44827],[75.91131,32.46149],[75.90303,32.47169],[75.88469,32.48841],[75.87121,32.49934],[75.86691,32.50766],[75.86736,32.52111],[75.87238,32.53751],[75.88636,32.55859],[75.89153,32.57069],[75.88864,32.57603],[75.90243,32.59176],[75.92078,32.61506],[75.92397,32.61898],[75.93988,32.64353],[75.94173,32.65412],[75.94173,32.65412],[75.94036,32.65807],[75.93107,32.66581],[75.92172,32.67217],[75.91519,32.68057],[75.91519,32.68057],[75.91417,32.68529],[75.91292,32.69102],[75.91292,32.69102],[75.91542,32.70023],[75.92125,32.70933],[75.92625,32.72093],[75.93052,32.74202],[75.93052,32.74202],[75.92895,32.75714],[75.92895,32.75714],[75.91658,32.76993],[75.91658,32.76993],[75.90224,32.79562],[75.90224,32.79562],[75.89588,32.8054],[75.89036,32.8139],[75.87183,32.82639],[75.85398,32.83708],[75.84415,32.84071],[75.83765,32.84311],[75.83239,32.84744],[75.82493,32.8536],[75.82487,32.85366],[75.82473,32.85381],[75.82214,32.85655],[75.81128,32.87065],[75.81128,32.87065],[75.80647,32.88189],[75.80613,32.88363],[75.80584,32.88511],[75.80409,32.89383],[75.80655,32.89449],[75.81051,32.89781],[75.8167,32.90442],[75.81848,32.91077],[75.81599,32.91742],[75.81504,32.91995],[75.82009,32.92406],[75.82471,32.93031],[75.83822,32.93396],[75.85067,32.93508],[75.86688,32.93159],[75.88393,32.93061],[75.89771,32.92512],[75.91691,32.916],[75.93037,32.90647],[75.94001,32.89831],[75.95055,32.88449],[75.95631,32.8844],[75.96254,32.8853],[76.00003,32.9005],[76.00425,32.90068],[76.01438,32.90946],[76.02149,32.91409],[76.03039,32.91601],[76.03408,32.9177],[76.03808,32.9245],[76.04057,32.93165],[76.045,32.93751],[76.05955,32.94028],[76.06736,32.94431],[76.07145,32.951],[76.08288,32.95801],[76.08701,32.96225],[76.09539,32.96608],[76.09923,32.96881],[76.10271,32.97502],[76.10831,32.99278],[76.11166,33.00036],[76.1112,33.00278],[76.11109,33.00335],[76.11079,33.00487],[76.12445,33.00792],[76.13311,33.00859],[76.13764,33.01042],[76.14536,33.01007],[76.16107,33.01644],[76.16943,33.02285],[76.20552,33.02747],[76.23341,33.02841],[76.24674,33.03007],[76.24704,33.03065],[76.25455,33.0324],[76.27256,33.05208],[76.2849,33.08594],[76.28865,33.09619],[76.29327,33.09787],[76.29431,33.10046],[76.29244,33.10383],[76.29244,33.10383],[76.30546,33.11299],[76.30942,33.12005],[76.32443,33.12704],[76.33306,33.13],[76.35316,33.14607],[76.36972,33.15462],[76.37338,33.15437],[76.37646,33.15727],[76.37842,33.16252],[76.38378,33.16781],[76.39116,33.17323],[76.3975,33.17622],[76.40223,33.18264],[76.40938,33.18644],[76.41835,33.1863],[76.42539,33.18815],[76.43947,33.1815],[76.44748,33.18249],[76.45952,33.18012],[76.46791,33.18256],[76.47327,33.18295],[76.48385,33.17948],[76.48678,33.17951],[76.50654,33.18974],[76.51375,33.1956],[76.5166,33.19626],[76.52354,33.19534],[76.53803,33.19995],[76.55198,33.19886],[76.55978,33.20628],[76.56531,33.20903],[76.57371,33.20634]]]}}]}