{"type":"FeatureCollection","features":[{"type":"Feature","properties":{"id":"hamirpur","name":"Hamirpur","stateId":"himachal-pradesh","stateName":"Himachal Pradesh","censuscode":28,"type":"district"},"geometry":{"type":"Polygon","coordinates":[[[76.64071,31.87466],[76.6364,31.86874],[76.63403,31.85117],[76.6282,31.8427],[76.62764,31.83494],[76.62866,31.82517],[76.62748,31.81631],[76.62122,31.79007],[76.62543,31.7756],[76.62952,31.76868],[76.63674,31.74977],[76.64804,31.74242],[76.65019,31.74199],[76.65762,31.73986],[76.6665,31.7388],[76.67386,31.7321],[76.67218,31.7218],[76.67599,31.71476],[76.6886,31.7088],[76.68687,31.70143],[76.69197,31.6975],[76.69174,31.69359],[76.69368,31.68223],[76.71812,31.67198],[76.7277,31.66488],[76.72387,31.65745],[76.71556,31.6307],[76.71624,31.62108],[76.72394,31.60695],[76.72876,31.593],[76.7298,31.58543],[76.72899,31.58718],[76.70539,31.59899],[76.68506,31.59317],[76.68119,31.58713],[76.67317,31.58548],[76.66682,31.5829],[76.65528,31.58419],[76.64467,31.58732],[76.63256,31.5756],[76.62277,31.57363],[76.62206,31.57349],[76.61679,31.56572],[76.61936,31.55731],[76.61433,31.54701],[76.61663,31.53958],[76.61688,31.53267],[76.62074,31.52789],[76.61936,31.52051],[76.61931,31.51476],[76.60797,31.49065],[76.61021,31.46985],[76.6272,31.44517],[76.62529,31.43884],[76.61618,31.43131],[76.61788,31.42354],[76.61423,31.41871],[76.60827,31.42107],[76.60196,31.42219],[76.59333,31.42571],[76.58968,31.42215],[76.57234,31.43178],[76.56052,31.42933],[76.55701,31.43883],[76.554,31.44178],[76.53465,31.45453],[76.53294,31.46127],[76.52576,31.46093],[76.51767,31.46791],[76.51307,31.46031],[76.49987,31.46914],[76.49202,31.46943],[76.48431,31.47076],[76.46762,31.48056],[76.46407,31.48408],[76.45897,31.48604],[76.4452,31.50344],[76.43919,31.51405],[76.43573,31.52217],[76.43782,31.52476],[76.43688,31.52741],[76.43941,31.53679],[76.43573,31.54059],[76.43259,31.5456],[76.40807,31.5903],[76.40006,31.61051],[76.39562,31.61368],[76.39381,31.61495],[76.39437,31.62014],[76.37794,31.63453],[76.36765,31.64058],[76.35705,31.65215],[76.35225,31.66453],[76.34447,31.67536],[76.33573,31.68284],[76.32802,31.695],[76.31958,31.71261],[76.31488,31.71865],[76.31388,31.72173],[76.31732,31.72591],[76.31956,31.73127],[76.31613,31.7338],[76.31587,31.73991],[76.31264,31.7425],[76.31049,31.74825],[76.31145,31.75614],[76.30796,31.75781],[76.31012,31.76403],[76.31283,31.76859],[76.30281,31.77618],[76.30114,31.78257],[76.30128,31.78792],[76.30459,31.78753],[76.30679,31.78223],[76.30868,31.7801],[76.31441,31.77809],[76.32134,31.7789],[76.3382,31.78455],[76.35265,31.79342],[76.35662,31.7913],[76.36273,31.78605],[76.36765,31.78138],[76.37006,31.77759],[76.38233,31.78093],[76.39342,31.7928],[76.39922,31.79757],[76.40811,31.7913],[76.41273,31.78472],[76.41452,31.79596],[76.43036,31.79462],[76.43656,31.79688],[76.44032,31.81011],[76.44625,31.81017],[76.44494,31.80291],[76.45074,31.80314],[76.46146,31.80533],[76.45537,31.81397],[76.45916,31.81817],[76.46515,31.81569],[76.4687,31.81045],[76.47409,31.81078],[76.47519,31.81626],[76.46782,31.82703],[76.47026,31.82925],[76.47335,31.83063],[76.47931,31.8316],[76.49962,31.83937],[76.51994,31.84396],[76.52073,31.8507],[76.51651,31.85698],[76.51688,31.85825],[76.52333,31.86418],[76.5375,31.87142],[76.55244,31.88207],[76.56838,31.8898],[76.59209,31.89616],[76.60604,31.89402],[76.64071,31.87466]]]}}]}