{"type":"FeatureCollection","features":[{"type":"Feature","properties":{"id":"kangra","name":"Kangra","stateId":"himachal-pradesh","stateName":"Himachal Pradesh","censuscode":24,"type":"district"},"geometry":{"type":"Polygon","coordinates":[[[77.07467,32.39696],[77.07612,32.39401],[77.0726,32.39018],[77.06917,32.38336],[77.05513,32.37043],[77.05243,32.36651],[77.04623,32.34821],[77.04091,32.33988],[77.04405,32.33347],[77.04507,32.32792],[77.04495,32.32283],[77.04199,32.31819],[77.03185,32.31034],[77.03072,32.30675],[77.03427,32.29368],[77.03665,32.29028],[77.03646,32.28483],[77.03154,32.27602],[77.0302,32.2719],[77.03009,32.2613],[77.03254,32.25702],[77.03289,32.25285],[77.03168,32.24741],[77.03433,32.2429],[77.04339,32.23598],[77.05241,32.22601],[77.04675,32.21631],[77.03857,32.20707],[77.02112,32.20606],[77.01646,32.20118],[77.00547,32.20003],[77.00225,32.19657],[76.99497,32.18686],[76.99953,32.18233],[76.99502,32.175],[76.99129,32.16387],[76.98696,32.15431],[76.98461,32.13162],[76.98679,32.11685],[76.98867,32.11089],[76.94618,32.11235],[76.94477,32.10494],[76.94239,32.09903],[76.93873,32.09293],[76.94284,32.08595],[76.94218,32.07937],[76.94388,32.06661],[76.93939,32.06276],[76.9298,32.0594],[76.92213,32.05858],[76.91481,32.06046],[76.9029,32.05969],[76.88735,32.05759],[76.86834,32.05112],[76.85891,32.0502],[76.85178,32.04769],[76.8483,32.04421],[76.84235,32.04112],[76.83925,32.04355],[76.82613,32.04868],[76.81493,32.05828],[76.80366,32.06586],[76.80114,32.07361],[76.79247,32.07464],[76.78711,32.07342],[76.78264,32.06676],[76.77695,32.06888],[76.77023,32.06518],[76.76135,32.05356],[76.74397,32.03757],[76.73813,32.03009],[76.73067,32.02923],[76.72989,32.03237],[76.72356,32.0325],[76.71415,32.03506],[76.70636,32.03938],[76.70597,32.04498],[76.70294,32.04895],[76.68852,32.05181],[76.67969,32.04813],[76.67631,32.04532],[76.67525,32.04123],[76.66278,32.03065],[76.66468,32.01206],[76.66919,32.0008],[76.68041,31.98712],[76.68447,31.97705],[76.68673,31.96702],[76.68439,31.9615],[76.68956,31.95502],[76.69023,31.94787],[76.6912,31.94378],[76.69408,31.9326],[76.68881,31.93049],[76.68709,31.92624],[76.68725,31.92169],[76.683,31.91082],[76.67793,31.90789],[76.67757,31.90472],[76.67895,31.8982],[76.67522,31.89446],[76.67536,31.88781],[76.67542,31.88593],[76.67746,31.87925],[76.6782,31.87344],[76.66876,31.87324],[76.65958,31.87083],[76.64936,31.87211],[76.64071,31.87466],[76.60604,31.89402],[76.59209,31.89616],[76.56838,31.8898],[76.55244,31.88207],[76.5375,31.87142],[76.52333,31.86418],[76.51688,31.85825],[76.51651,31.85698],[76.52073,31.8507],[76.51994,31.84396],[76.49962,31.83937],[76.47931,31.8316],[76.47335,31.83063],[76.47026,31.82925],[76.46782,31.82703],[76.47519,31.81626],[76.47409,31.81078],[76.4687,31.81045],[76.46515,31.81569],[76.45916,31.81817],[76.45537,31.81397],[76.46146,31.80533],[76.45074,31.80314],[76.44494,31.80291],[76.44625,31.81017],[76.44032,31.81011],[76.43656,31.79688],[76.43036,31.79462],[76.41452,31.79596],[76.41273,31.78472],[76.40811,31.7913],[76.39922,31.79757],[76.39342,31.7928],[76.38233,31.78093],[76.37006,31.77759],[76.36765,31.78138],[76.36273,31.78605],[76.35662,31.7913],[76.35265,31.79342],[76.3382,31.78455],[76.32134,31.7789],[76.31441,31.77809],[76.30868,31.7801],[76.30679,31.78223],[76.30459,31.78753],[76.30128,31.78792],[76.30114,31.78257],[76.30281,31.77618],[76.31283,31.76859],[76.31012,31.76403],[76.30796,31.75781],[76.31145,31.75614],[76.31049,31.74825],[76.31264,31.7425],[76.31587,31.73991],[76.31613,31.7338],[76.31956,31.73127],[76.31732,31.72591],[76.31388,31.72173],[76.31253,31.72009],[76.29469,31.69123],[76.28964,31.68662],[76.28446,31.69082],[76.27922,31.69864],[76.27116,31.70573],[76.25692,31.71462],[76.25127,31.71824],[76.24878,31.72233],[76.22393,31.74267],[76.20998,31.76326],[76.20925,31.76842],[76.20378,31.7729],[76.19468,31.77217],[76.18956,31.76808],[76.18268,31.77001],[76.18463,31.77658],[76.18026,31.78404],[76.17177,31.78864],[76.16605,31.7936],[76.15999,31.79616],[76.13189,31.80017],[76.11493,31.80549],[76.10194,31.81906],[76.09037,31.82363],[76.0856,31.83048],[76.08502,31.8313],[76.08266,31.84442],[76.07276,31.83908],[76.05442,31.85452],[76.04751,31.86155],[76.03813,31.86393],[76.0086,31.86311],[76.00187,31.8553],[76.00003,31.85101],[75.98975,31.84963],[75.9793,31.84925],[75.97011,31.85332],[75.95898,31.85623],[75.95313,31.86663],[75.94619,31.88261],[75.94095,31.88857],[75.9275,31.91543],[75.91759,31.9268],[75.91081,31.93916],[75.90942,31.94873],[75.89261,31.96095],[75.88461,31.96496],[75.88343,31.96591],[75.88106,31.96783],[75.87166,31.96848],[75.86618,31.97157],[75.8565,31.97268],[75.85125,31.98073],[75.82891,31.98253],[75.82048,31.98417],[75.81,31.98776],[75.79916,31.99353],[75.78919,32.00002],[75.78134,32.00691],[75.77644,32.01318],[75.76871,32.01918],[75.76328,32.02649],[75.75495,32.03383],[75.75292,32.03516],[75.74889,32.0367],[75.73815,32.03556],[75.7254,32.03543],[75.71532,32.04303],[75.70722,32.05893],[75.70476,32.06102],[75.68804,32.06645],[75.6643,32.07677],[75.65499,32.07636],[75.64023,32.07231],[75.62446,32.06914],[75.61341,32.0657],[75.59364,32.08144],[75.62553,32.09932],[75.6462,32.11919],[75.66292,32.13735],[75.67057,32.14574],[75.67695,32.16436],[75.6713,32.17634],[75.66473,32.17943],[75.63535,32.18498],[75.63461,32.18967],[75.63349,32.19685],[75.63532,32.22007],[75.63699,32.22989],[75.63778,32.23455],[75.64935,32.2446],[75.6562,32.24724],[75.66774,32.25528],[75.67019,32.25568],[75.69117,32.26382],[75.70024,32.26481],[75.72025,32.26699],[75.7518,32.27344],[75.76726,32.28384],[75.77011,32.28575],[75.77733,32.29578],[75.77883,32.30182],[75.79867,32.32186],[75.80103,32.32343],[75.80928,32.33202],[75.81485,32.33702],[75.82952,32.3502],[75.83449,32.35467],[75.85308,32.37264],[75.85956,32.37892],[75.88204,32.39415],[75.88768,32.39803],[75.9269,32.40871],[75.93494,32.4006],[75.93774,32.39553],[75.94739,32.39224],[75.95916,32.39025],[75.96753,32.39187],[75.97462,32.3909],[75.97935,32.38506],[75.99139,32.3756],[76.00003,32.36365],[76.00525,32.35415],[76.01975,32.33791],[76.02196,32.33068],[76.01811,32.32461],[76.01574,32.31815],[76.02362,32.32082],[76.02363,32.31831],[76.02113,32.31211],[76.0198,32.30342],[76.01679,32.29888],[76.01699,32.29085],[76.02662,32.27865],[76.03109,32.27048],[76.04146,32.26901],[76.0474,32.26436],[76.0722,32.26896],[76.07843,32.27123],[76.08658,32.27111],[76.09378,32.26845],[76.09957,32.26361],[76.11018,32.25863],[76.1198,32.2568],[76.12414,32.25141],[76.12359,32.24194],[76.12513,32.23513],[76.12261,32.2284],[76.12606,32.22844],[76.13225,32.22854],[76.14374,32.22543],[76.15074,32.22718],[76.15946,32.23047],[76.16862,32.23703],[76.17275,32.23064],[76.17333,32.22483],[76.17686,32.22494],[76.18173,32.22737],[76.18424,32.23237],[76.18051,32.24541],[76.18481,32.25621],[76.18705,32.26662],[76.18656,32.27268],[76.18148,32.27681],[76.17325,32.28023],[76.168,32.28368],[76.16698,32.28884],[76.16278,32.29818],[76.16261,32.31289],[76.16044,32.31795],[76.16571,32.3227],[76.16834,32.32645],[76.16963,32.3326],[76.1728,32.33748],[76.17349,32.34027],[76.17059,32.34575],[76.16971,32.35099],[76.16646,32.35379],[76.17729,32.35698],[76.19015,32.36505],[76.19879,32.36906],[76.20578,32.37399],[76.2114,32.3789],[76.21703,32.38755],[76.22017,32.39385],[76.22325,32.39552],[76.24272,32.39347],[76.25473,32.39432],[76.25948,32.39301],[76.26175,32.37968],[76.2666,32.3737],[76.27342,32.37543],[76.27546,32.37431],[76.28402,32.36792],[76.28629,32.36353],[76.28742,32.35657],[76.2949,32.34014],[76.3019,32.3377],[76.30916,32.34021],[76.31695,32.33734],[76.32543,32.33578],[76.33082,32.33253],[76.33863,32.32622],[76.34831,32.32582],[76.35583,32.32664],[76.36388,32.31731],[76.37332,32.30236],[76.37908,32.2972],[76.40714,32.28278],[76.41968,32.27992],[76.42452,32.26449],[76.43287,32.26314],[76.44047,32.26569],[76.44964,32.26203],[76.45841,32.25514],[76.46377,32.24873],[76.47009,32.24781],[76.47648,32.24803],[76.48213,32.25192],[76.48904,32.24573],[76.49454,32.24334],[76.50443,32.2333],[76.5135,32.23286],[76.52449,32.23769],[76.526,32.23326],[76.54847,32.22851],[76.55663,32.22896],[76.56449,32.22515],[76.57239,32.22567],[76.5901,32.22108],[76.59958,32.2148],[76.60782,32.2069],[76.61361,32.19908],[76.62503,32.19248],[76.65943,32.18324],[76.66594,32.18025],[76.67339,32.17898],[76.68245,32.17967],[76.68775,32.18568],[76.69323,32.18995],[76.69838,32.19683],[76.70934,32.1987],[76.71367,32.19853],[76.72096,32.19559],[76.7283,32.19115],[76.73712,32.18769],[76.73975,32.18868],[76.75466,32.20339],[76.76084,32.20712],[76.76641,32.21403],[76.77131,32.2212],[76.77316,32.22717],[76.77155,32.24249],[76.77823,32.24856],[76.77106,32.25035],[76.76986,32.25402],[76.7758,32.2615],[76.77972,32.26802],[76.77074,32.28169],[76.77619,32.2911],[76.77505,32.30058],[76.77213,32.30854],[76.78046,32.31264],[76.78571,32.31664],[76.77905,32.32676],[76.77703,32.33284],[76.77285,32.33917],[76.76316,32.34526],[76.75729,32.35183],[76.75407,32.3583],[76.75907,32.36007],[76.77324,32.35949],[76.77821,32.36206],[76.78286,32.36924],[76.78793,32.37464],[76.78571,32.38198],[76.78477,32.39003],[76.78688,32.40625],[76.803,32.41216],[76.81135,32.41861],[76.814,32.42759],[76.82416,32.43709],[76.83557,32.44128],[76.84752,32.44783],[76.85742,32.45611],[76.86534,32.46114],[76.88216,32.46709],[76.89366,32.46943],[76.90132,32.47021],[76.90883,32.46719],[76.90794,32.4602],[76.90004,32.45349],[76.89549,32.44686],[76.89146,32.43881],[76.90045,32.44222],[76.9096,32.44168],[76.91779,32.43571],[76.91764,32.42865],[76.91214,32.41986],[76.91915,32.41669],[76.92602,32.41559],[76.93659,32.41945],[76.94307,32.42311],[76.94856,32.42516],[76.95369,32.42469],[76.95168,32.40958],[76.95258,32.40321],[76.96195,32.40333],[76.97096,32.40611],[76.9814,32.405],[76.99105,32.41164],[76.99572,32.4103],[77.00288,32.41161],[77.01419,32.41607],[77.03238,32.42013],[77.04658,32.42414],[77.05877,32.42917],[77.0651,32.42512],[77.0675,32.42216],[77.06901,32.41699],[77.07851,32.41732],[77.08047,32.4125],[77.08076,32.40914],[77.07868,32.40054],[77.07467,32.39696]]]}}]}