{"type":"FeatureCollection","features":[{"type":"Feature","properties":{"id":"kinnaur","name":"Kinnaur","stateId":"himachal-pradesh","stateName":"Himachal Pradesh","censuscode":34,"type":"district"},"geometry":{"type":"Polygon","coordinates":[[[78.66791,32.08905],[78.66924,32.08394],[78.67354,32.07951],[78.67422,32.077],[78.67479,32.07656],[78.67658,32.07515],[78.67665,32.07468],[78.67761,32.07395],[78.6912,32.06494],[78.69758,32.0595],[78.69811,32.05907],[78.69884,32.05788],[78.69935,32.05653],[78.70161,32.05421],[78.70289,32.05327],[78.7044,32.049],[78.70493,32.04876],[78.70561,32.04821],[78.70618,32.0466],[78.70686,32.04136],[78.7102,32.03877],[78.71072,32.03832],[78.71068,32.03741],[78.71225,32.03692],[78.71269,32.03553],[78.71374,32.03483],[78.71423,32.03436],[78.72195,32.02931],[78.72217,32.02868],[78.72868,32.02486],[78.73365,32.02084],[78.73388,32.02019],[78.73932,32.016],[78.73957,32.01535],[78.74221,32.0131],[78.74267,32.01185],[78.74361,32.00878],[78.74438,32.00853],[78.74566,32.0076],[78.74589,32.00667],[78.74641,32.00645],[78.74689,32.00508],[78.74686,32.00439],[78.74788,32.0039],[78.74813,32.00322],[78.75378,31.99964],[78.75619,32.00001],[78.76726,31.99919],[78.76985,31.99858],[78.77727,31.99677],[78.7851,31.99543],[78.78667,31.99493],[78.78775,31.99535],[78.78772,31.99195],[78.7873,31.99048],[78.78709,31.99004],[78.78588,31.98685],[78.7777,31.9593],[78.77412,31.95017],[78.76918,31.93507],[78.76685,31.93014],[78.76196,31.92052],[78.75682,31.91546],[78.75608,31.91528],[78.75404,31.91287],[78.75251,31.91153],[78.75175,31.91133],[78.75145,31.91061],[78.75108,31.91025],[78.74928,31.9085],[78.74887,31.90511],[78.74779,31.90437],[78.74668,31.90363],[78.74596,31.90206],[78.74579,31.90118],[78.74756,31.89977],[78.7479,31.89839],[78.7481,31.89364],[78.74486,31.88548],[78.74414,31.88494],[78.74368,31.8841],[78.74124,31.88046],[78.74082,31.87942],[78.74057,31.87873],[78.74022,31.87696],[78.74048,31.87061],[78.73979,31.8424],[78.73831,31.83341],[78.73817,31.83275],[78.7369,31.83075],[78.73608,31.83034],[78.73473,31.82967],[78.72016,31.82225],[78.71839,31.82118],[78.71785,31.8212],[78.7177,31.82075],[78.71731,31.81988],[78.71677,31.8199],[78.711,31.8126],[78.7093,31.80972],[78.70875,31.80805],[78.70712,31.80213],[78.70762,31.78875],[78.70949,31.78192],[78.71012,31.78132],[78.71056,31.77913],[78.71252,31.77415],[78.71709,31.76992],[78.7181,31.769],[78.71956,31.76578],[78.73181,31.76226],[78.73807,31.76042],[78.74091,31.7592],[78.74026,31.75539],[78.73312,31.74909],[78.73136,31.74567],[78.73038,31.74458],[78.72796,31.7402],[78.72753,31.73659],[78.72806,31.73637],[78.72858,31.73612],[78.72878,31.7343],[78.72953,31.73384],[78.73029,31.73336],[78.7305,31.73198],[78.73464,31.72982],[78.73626,31.72729],[78.73679,31.72727],[78.73763,31.72565],[78.74183,31.7131],[78.74473,31.69765],[78.74807,31.693],[78.74936,31.69125],[78.7505,31.68727],[78.75126,31.68681],[78.75139,31.68622],[78.75218,31.68574],[78.75607,31.68332],[78.76363,31.68036],[78.76454,31.68042],[78.766,31.67999],[78.76972,31.68032],[78.77075,31.68006],[78.78092,31.68143],[78.78751,31.68313],[78.78928,31.68367],[78.79578,31.68511],[78.79634,31.68282],[78.79686,31.6679],[78.80031,31.65649],[78.80212,31.65506],[78.80259,31.65368],[78.8028,31.65278],[78.80358,31.6523],[78.80533,31.64999],[78.80841,31.64743],[78.80914,31.64635],[78.81065,31.64554],[78.81063,31.64509],[78.81141,31.64437],[78.82497,31.63511],[78.83274,31.63168],[78.83592,31.62898],[78.8401,31.62558],[78.84087,31.62454],[78.84292,31.62317],[78.84326,31.62249],[78.84367,31.62176],[78.84363,31.62087],[78.84435,31.62025],[78.84666,31.61563],[78.8472,31.61505],[78.8471,31.61042],[78.84356,31.60239],[78.84046,31.59797],[78.83978,31.59756],[78.83879,31.59578],[78.8349,31.5927],[78.83394,31.59137],[78.83098,31.58881],[78.82992,31.58842],[78.82893,31.58732],[78.82821,31.58599],[78.82694,31.58422],[78.82623,31.58355],[78.82543,31.58335],[78.82513,31.58262],[78.82107,31.5784],[78.8132,31.57131],[78.80728,31.56881],[78.80067,31.56655],[78.78401,31.5609],[78.78398,31.56021],[78.77963,31.55731],[78.77707,31.55266],[78.77346,31.54871],[78.76587,31.54399],[78.76243,31.54288],[78.74592,31.53942],[78.73707,31.53611],[78.73497,31.53191],[78.73296,31.52562],[78.73224,31.52509],[78.73144,31.52491],[78.73113,31.52424],[78.72449,31.51913],[78.72254,31.51625],[78.72243,31.51355],[78.72384,31.5101],[78.73091,31.50287],[78.73182,31.49901],[78.73177,31.48229],[78.73231,31.48],[78.7349,31.47924],[78.73947,31.48115],[78.75991,31.48544],[78.76254,31.48558],[78.7639,31.486],[78.76469,31.48574],[78.76723,31.48405],[78.77031,31.47582],[78.77619,31.47157],[78.77694,31.47085],[78.7769,31.46996],[78.78129,31.46752],[78.78184,31.46722],[78.78207,31.46653],[78.78389,31.46603],[78.78719,31.46422],[78.78875,31.46259],[78.78989,31.46129],[78.79481,31.45808],[78.79589,31.45704],[78.80817,31.45042],[78.81118,31.44782],[78.81263,31.44414],[78.81296,31.43963],[78.81168,31.43469],[78.81129,31.42568],[78.8081,31.41289],[78.80536,31.4105],[78.7992,31.40799],[78.79744,31.40693],[78.79728,31.40602],[78.79675,31.40557],[78.79208,31.40169],[78.79163,31.39741],[78.79202,31.39626],[78.79343,31.39646],[78.79761,31.3954],[78.81009,31.39156],[78.81732,31.38885],[78.82356,31.38731],[78.82689,31.38582],[78.83231,31.38341],[78.83662,31.37918],[78.83659,31.37829],[78.84226,31.37605],[78.8428,31.37627],[78.8457,31.37052],[78.84979,31.36745],[78.85034,31.36614],[78.85031,31.36545],[78.85134,31.36437],[78.85312,31.35941],[78.85362,31.35919],[78.85583,31.34941],[78.85567,31.34556],[78.85328,31.33999],[78.84724,31.33388],[78.8442,31.32741],[78.8445,31.32516],[78.84894,31.32407],[78.85053,31.32424],[78.85336,31.32371],[78.85417,31.32335],[78.85558,31.32265],[78.86104,31.31911],[78.86386,31.31728],[78.86484,31.31589],[78.86611,31.31495],[78.86607,31.31404],[78.86711,31.31334],[78.8676,31.31286],[78.86887,31.31192],[78.86883,31.311],[78.86936,31.31099],[78.8737,31.3079],[78.87628,31.3032],[78.87681,31.30318],[78.87689,31.30258],[78.87967,31.30024],[78.88008,31.29924],[78.88014,31.29864],[78.88291,31.2963],[78.88548,31.28627],[78.88601,31.28602],[78.88645,31.28442],[78.88697,31.28417],[78.89374,31.26777],[78.89427,31.26752],[78.89495,31.26561],[78.90035,31.26168],[78.90082,31.26134],[78.90495,31.26005],[78.92227,31.25406],[78.92123,31.24505],[78.92526,31.22875],[78.93099,31.22001],[78.93495,31.21792],[78.95048,31.21719],[78.9504,31.21402],[78.94856,31.20938],[78.95116,31.20051],[78.95699,31.19561],[78.96016,31.19175],[78.96149,31.18837],[78.96813,31.18461],[78.9762,31.18123],[78.98145,31.18079],[78.98372,31.17826],[78.98716,31.17716],[78.98993,31.17289],[78.99274,31.16494],[78.99292,31.1496],[78.99102,31.14548],[78.9933,31.14043],[79.00002,31.1357],[79.00228,31.13536],[79.0044,31.13211],[79.00597,31.12563],[79.01187,31.11233],[79.01189,31.11092],[79.01176,31.11008],[79.00597,31.11183],[79.00002,31.11121],[78.9808,31.11012],[78.97097,31.10564],[78.96759,31.10316],[78.95725,31.09978],[78.95266,31.10009],[78.9477,31.10173],[78.93559,31.10235],[78.9278,31.11095],[78.92294,31.11109],[78.91891,31.11023],[78.91571,31.10683],[78.91454,31.10236],[78.91191,31.1004],[78.90586,31.10085],[78.89928,31.099],[78.89515,31.09861],[78.88649,31.10209],[78.87735,31.10719],[78.86714,31.121],[78.85945,31.12285],[78.85291,31.12549],[78.84411,31.13117],[78.83987,31.13837],[78.83388,31.14204],[78.83103,31.14876],[78.82538,31.1587],[78.8269,31.16426],[78.81569,31.17312],[78.81278,31.17737],[78.81325,31.18381],[78.81636,31.18877],[78.81841,31.1941],[78.81541,31.19725],[78.81027,31.19992],[78.80406,31.19933],[78.7861,31.19218],[78.77981,31.19079],[78.77278,31.18957],[78.76465,31.18924],[78.73556,31.19192],[78.72821,31.19157],[78.72265,31.18987],[78.71588,31.1913],[78.71074,31.1912],[78.69127,31.19811],[78.68093,31.1974],[78.67501,31.19818],[78.66584,31.19279],[78.66285,31.18961],[78.66066,31.19747],[78.65317,31.20334],[78.6512,31.21454],[78.64964,31.21686],[78.6435,31.21689],[78.6323,31.22022],[78.62848,31.22241],[78.62526,31.22603],[78.61581,31.23084],[78.61056,31.23138],[78.59911,31.2293],[78.59459,31.23],[78.58176,31.22875],[78.57707,31.22461],[78.5715,31.22239],[78.5654,31.2135],[78.55223,31.20171],[78.52925,31.19893],[78.50166,31.1992],[78.49207,31.20013],[78.48518,31.19879],[78.48232,31.20689],[78.48168,31.216],[78.47234,31.22287],[78.45928,31.23928],[78.44684,31.24469],[78.44221,31.25108],[78.43461,31.25498],[78.42952,31.24601],[78.4202,31.24377],[78.41265,31.2429],[78.40647,31.2481],[78.40823,31.2574],[78.40135,31.26476],[78.39843,31.26945],[78.39654,31.27662],[78.38864,31.27436],[78.38443,31.28306],[78.37853,31.28526],[78.37147,31.28604],[78.36264,31.2853],[78.35126,31.28267],[78.3418,31.28343],[78.33207,31.28027],[78.32147,31.28144],[78.31351,31.28343],[78.30674,31.28593],[78.29537,31.29275],[78.29559,31.29914],[78.29802,31.30412],[78.29769,31.30942],[78.30179,31.31513],[78.29192,31.32378],[78.27484,31.32461],[78.25999,31.32779],[78.2557,31.33026],[78.25322,31.33414],[78.24959,31.33672],[78.24751,31.34083],[78.24459,31.34213],[78.24097,31.34085],[78.23526,31.33447],[78.22875,31.33155],[78.22562,31.32825],[78.21997,31.32584],[78.2147,31.32561],[78.209,31.3289],[78.20287,31.32943],[78.18602,31.33688],[78.18014,31.33654],[78.1715,31.3443],[78.16423,31.34461],[78.15969,31.34955],[78.15329,31.35994],[78.16605,31.37816],[78.16325,31.38378],[78.15963,31.38739],[78.15339,31.39073],[78.14674,31.38759],[78.14069,31.39439],[78.13551,31.39652],[78.12952,31.40338],[78.12642,31.40577],[78.11677,31.40887],[78.11042,31.40946],[78.1047,31.41579],[78.10362,31.41978],[78.09407,31.42069],[78.08875,31.42224],[78.08606,31.42134],[78.07952,31.41721],[78.07378,31.4175],[78.06928,31.41559],[78.05462,31.41867],[78.04775,31.41484],[78.03291,31.4045],[78.02887,31.40213],[78.02444,31.4008],[78.01425,31.40337],[78.0087,31.40238],[78.00001,31.40268],[77.99552,31.4047],[77.97676,31.40157],[77.96367,31.40252],[77.96073,31.41425],[77.94892,31.4221],[77.9444,31.42344],[77.93263,31.42243],[77.9281,31.42444],[77.92197,31.43165],[77.91656,31.43285],[77.91233,31.43588],[77.9089,31.4404],[77.90271,31.44303],[77.89818,31.45675],[77.89508,31.46053],[77.88865,31.4657],[77.88007,31.47082],[77.88325,31.48055],[77.88258,31.48692],[77.87956,31.49152],[77.87145,31.49774],[77.86951,31.504],[77.8634,31.50753],[77.85942,31.51139],[77.85596,31.5059],[77.85138,31.5085],[77.84092,31.50699],[77.84079,31.51325],[77.8442,31.52088],[77.84521,31.52743],[77.84337,31.53733],[77.84064,31.54573],[77.83656,31.55386],[77.83538,31.56284],[77.83916,31.57956],[77.83541,31.58573],[77.82047,31.60496],[77.81429,31.61097],[77.81561,31.61701],[77.82373,31.6324],[77.82493,31.63809],[77.82029,31.64324],[77.81594,31.6576],[77.81218,31.6632],[77.80407,31.66939],[77.79466,31.67382],[77.7933,31.67889],[77.78962,31.68708],[77.78346,31.69494],[77.77188,31.70369],[77.76351,31.70442],[77.7553,31.70786],[77.75078,31.71385],[77.75188,31.71685],[77.75619,31.71977],[77.75585,31.72681],[77.75279,31.74355],[77.75265,31.75152],[77.76161,31.75517],[77.76296,31.76205],[77.76816,31.75774],[77.77963,31.75211],[77.78903,31.75196],[77.799,31.75903],[77.81082,31.76067],[77.8286,31.76049],[77.84912,31.75478],[77.85379,31.75903],[77.85676,31.76815],[77.85823,31.77466],[77.85535,31.78123],[77.86683,31.78334],[77.87184,31.78021],[77.87625,31.77317],[77.88448,31.76983],[77.89766,31.75927],[77.8992,31.75303],[77.90603,31.75151],[77.91449,31.75285],[77.92116,31.74813],[77.9306,31.74688],[77.93666,31.74874],[77.93601,31.7562],[77.94221,31.7584],[77.9456,31.77827],[77.94554,31.78477],[77.95422,31.78464],[77.95965,31.78187],[77.96544,31.78006],[77.97335,31.77964],[77.97753,31.77763],[77.98235,31.77963],[77.99197,31.77636],[78.00001,31.77543],[78.00432,31.77497],[78.01003,31.77554],[78.014,31.77055],[78.02024,31.76617],[78.02606,31.7603],[78.03325,31.76098],[78.04683,31.77276],[78.05238,31.7761],[78.05491,31.78039],[78.05818,31.78352],[78.0763,31.78385],[78.08352,31.78752],[78.08397,31.79069],[78.08281,31.79403],[78.08566,31.80092],[78.08618,31.80932],[78.09095,31.81486],[78.09542,31.82298],[78.0927,31.82986],[78.09676,31.83298],[78.09583,31.83777],[78.08545,31.84514],[78.08828,31.85064],[78.09409,31.85323],[78.08999,31.85839],[78.09572,31.85931],[78.10578,31.85863],[78.11227,31.86109],[78.12404,31.86748],[78.13244,31.86761],[78.13806,31.8668],[78.14889,31.86778],[78.15286,31.86382],[78.16158,31.86223],[78.17314,31.8629],[78.17668,31.86626],[78.18919,31.87217],[78.18799,31.87783],[78.18331,31.88784],[78.18609,31.89414],[78.18393,31.89831],[78.18676,31.90387],[78.18668,31.90744],[78.18452,31.91581],[78.19224,31.91912],[78.19544,31.92254],[78.19639,31.928],[78.20252,31.93294],[78.21277,31.93489],[78.22114,31.93324],[78.2586,31.93459],[78.27281,31.9362],[78.28651,31.93103],[78.30278,31.92697],[78.30458,31.93496],[78.31189,31.9382],[78.33976,31.93613],[78.34342,31.93418],[78.34801,31.93937],[78.35441,31.94084],[78.36214,31.94772],[78.37141,31.96037],[78.3897,31.95629],[78.40185,31.95504],[78.40864,31.95103],[78.42192,31.9379],[78.42833,31.93891],[78.43359,31.93636],[78.4413,31.93845],[78.44773,31.93739],[78.45304,31.938],[78.45697,31.93962],[78.45843,31.94219],[78.4544,31.94997],[78.45891,31.95428],[78.46055,31.95916],[78.44973,31.96759],[78.44408,31.97055],[78.43618,31.97266],[78.43326,31.97944],[78.42013,31.98958],[78.42071,31.99608],[78.42219,32.00093],[78.42698,32.00591],[78.42637,32.01648],[78.43025,32.02569],[78.43508,32.03418],[78.43796,32.04349],[78.44105,32.04724],[78.44415,32.05279],[78.44924,32.05514],[78.45548,32.05491],[78.46086,32.05312],[78.47038,32.0485],[78.47554,32.04775],[78.48223,32.04828],[78.48256,32.04419],[78.48383,32.04208],[78.48649,32.04334],[78.49032,32.04693],[78.50521,32.04996],[78.51558,32.05339],[78.52442,32.05829],[78.54262,32.06349],[78.54757,32.06211],[78.56009,32.06057],[78.56869,32.06157],[78.58792,32.06046],[78.5974,32.0582],[78.60134,32.0524],[78.60557,32.05255],[78.61686,32.05972],[78.62562,32.06385],[78.63509,32.06447],[78.64418,32.06602],[78.65345,32.06973],[78.65961,32.0738],[78.66241,32.08038],[78.66283,32.08588],[78.66517,32.08925],[78.66791,32.08905]]]}}]}