{"type":"FeatureCollection","features":[{"type":"Feature","properties":{"id":"mandi","name":"Mandi","stateId":"himachal-pradesh","stateName":"Himachal Pradesh","censuscode":27,"type":"district"},"geometry":{"type":"Polygon","coordinates":[[[76.93939,32.06276],[76.94271,32.05743],[76.94397,32.04465],[76.95903,32.03318],[76.96415,32.02795],[76.97718,32.02371],[76.98154,32.01137],[76.98203,31.99998],[76.9812,31.99212],[76.97857,31.98351],[76.99011,31.96514],[76.99997,31.95398],[77.0037,31.94571],[77.01757,31.92967],[77.02436,31.92053],[77.02685,31.91105],[77.02763,31.90026],[77.03051,31.89337],[77.05505,31.8622],[77.05686,31.85777],[77.06129,31.85609],[77.05772,31.84406],[77.0596,31.83872],[77.05953,31.83487],[77.06967,31.83571],[77.07871,31.83308],[77.08312,31.82957],[77.09545,31.83684],[77.10511,31.83848],[77.12121,31.83777],[77.16737,31.83828],[77.17287,31.84017],[77.1804,31.84161],[77.17896,31.83187],[77.17606,31.82622],[77.18759,31.8215],[77.19059,31.81469],[77.1889,31.80818],[77.19665,31.79739],[77.19483,31.79105],[77.1989,31.78499],[77.19821,31.77911],[77.20575,31.76919],[77.2079,31.76491],[77.21096,31.75533],[77.2112,31.74929],[77.21286,31.74144],[77.21303,31.73111],[77.21746,31.72099],[77.22531,31.7248],[77.22652,31.72369],[77.22779,31.72255],[77.23857,31.71908],[77.24646,31.71284],[77.25831,31.71023],[77.27383,31.70116],[77.28464,31.69036],[77.30584,31.66183],[77.29884,31.6533],[77.30608,31.62168],[77.30711,31.61077],[77.30446,31.59877],[77.30168,31.59266],[77.30579,31.57967],[77.3046,31.56543],[77.30194,31.55746],[77.30632,31.54638],[77.31385,31.53789],[77.31977,31.52974],[77.31667,31.52445],[77.31787,31.50725],[77.32205,31.49761],[77.32359,31.48261],[77.32627,31.47066],[77.33137,31.4579],[77.3372,31.44913],[77.34421,31.44582],[77.35806,31.43276],[77.36352,31.42865],[77.37065,31.42368],[77.37631,31.42125],[77.38078,31.41789],[77.38421,31.41183],[77.38547,31.40663],[77.3833,31.40174],[77.38415,31.39868],[77.38286,31.39389],[77.38878,31.3892],[77.38784,31.38632],[77.3909,31.38343],[77.3892,31.37639],[77.39077,31.37132],[77.38666,31.36134],[77.38543,31.35834],[77.37863,31.35905],[77.37194,31.35883],[77.36419,31.35642],[77.35789,31.35193],[77.35286,31.3456],[77.34134,31.32265],[77.33893,31.30528],[77.3367,31.29819],[77.33121,31.29387],[77.32481,31.29302],[77.31796,31.28339],[77.31355,31.28117],[77.30557,31.27129],[77.30195,31.26969],[77.28981,31.26773],[77.28275,31.26583],[77.27809,31.26791],[77.27584,31.27352],[77.27058,31.27559],[77.26695,31.2704],[77.25506,31.26284],[77.25192,31.25765],[77.24837,31.25418],[77.24624,31.25626],[77.24032,31.25874],[77.22606,31.26099],[77.21959,31.25996],[77.21115,31.24944],[77.20461,31.24459],[77.19661,31.24435],[77.19429,31.25071],[77.19018,31.25515],[77.17914,31.24439],[77.16699,31.23397],[77.16177,31.23079],[77.15491,31.23038],[77.14705,31.23145],[77.13932,31.22843],[77.13259,31.22869],[77.12725,31.23126],[77.12494,31.23536],[77.12616,31.24067],[77.12503,31.24459],[77.1217,31.24705],[77.11142,31.24437],[77.10589,31.24759],[77.09527,31.24445],[77.0834,31.2479],[77.07394,31.25654],[77.06342,31.26201],[77.06081,31.26381],[77.04026,31.27127],[77.03192,31.27523],[77.01768,31.28861],[77.00308,31.29782],[77.0001,31.2997],[76.97844,31.31092],[76.96792,31.32267],[76.95582,31.32996],[76.94346,31.33444],[76.94572,31.33949],[76.94265,31.34803],[76.93268,31.358],[76.92091,31.36703],[76.90923,31.36286],[76.90183,31.36433],[76.89164,31.36202],[76.88513,31.35837],[76.87579,31.35441],[76.87389,31.36074],[76.87573,31.36725],[76.87079,31.37465],[76.86518,31.38108],[76.86929,31.38461],[76.87674,31.38533],[76.88353,31.38832],[76.88293,31.4012],[76.88059,31.41185],[76.86986,31.4131],[76.8592,31.41291],[76.84592,31.41601],[76.83402,31.42159],[76.82803,31.42057],[76.82433,31.41828],[76.81649,31.42032],[76.81201,31.42374],[76.80413,31.42264],[76.80295,31.42679],[76.80582,31.43294],[76.80373,31.44033],[76.79719,31.44564],[76.79857,31.45169],[76.80327,31.45144],[76.80251,31.45674],[76.79861,31.46459],[76.79802,31.47617],[76.7922,31.47929],[76.78593,31.4841],[76.78922,31.49457],[76.78632,31.50171],[76.78523,31.50285],[76.77252,31.5161],[76.7671,31.52009],[76.7632,31.51924],[76.74721,31.51883],[76.74089,31.51786],[76.73283,31.5199],[76.73682,31.52214],[76.73972,31.52501],[76.73474,31.53291],[76.73619,31.53982],[76.73026,31.54657],[76.72925,31.55556],[76.73494,31.56274],[76.72836,31.5638],[76.73111,31.57295],[76.7313,31.58222],[76.7298,31.58543],[76.72876,31.593],[76.72394,31.60695],[76.71624,31.62108],[76.71556,31.6307],[76.72387,31.65745],[76.7277,31.66488],[76.71812,31.67198],[76.69368,31.68223],[76.69174,31.69359],[76.69197,31.6975],[76.68687,31.70143],[76.6886,31.7088],[76.67599,31.71476],[76.67218,31.7218],[76.67386,31.7321],[76.6665,31.7388],[76.65762,31.73986],[76.65019,31.74199],[76.64804,31.74242],[76.63674,31.74977],[76.62952,31.76868],[76.62543,31.7756],[76.62122,31.79007],[76.62748,31.81631],[76.62866,31.82517],[76.62764,31.83494],[76.6282,31.8427],[76.63403,31.85117],[76.6364,31.86874],[76.64071,31.87466],[76.64936,31.87211],[76.65958,31.87083],[76.66876,31.87324],[76.6782,31.87344],[76.67746,31.87925],[76.67542,31.88593],[76.67536,31.88781],[76.67522,31.89446],[76.67895,31.8982],[76.67757,31.90472],[76.67793,31.90789],[76.683,31.91082],[76.68725,31.92169],[76.68709,31.92624],[76.68881,31.93049],[76.69408,31.9326],[76.6912,31.94378],[76.69023,31.94787],[76.68956,31.95502],[76.68439,31.9615],[76.68673,31.96702],[76.68447,31.97705],[76.68041,31.98712],[76.66919,32.0008],[76.66468,32.01206],[76.66278,32.03065],[76.67525,32.04123],[76.67631,32.04532],[76.67969,32.04813],[76.68852,32.05181],[76.70294,32.04895],[76.70597,32.04498],[76.70636,32.03938],[76.71415,32.03506],[76.72356,32.0325],[76.72989,32.03237],[76.73067,32.02923],[76.73813,32.03009],[76.74397,32.03757],[76.76135,32.05356],[76.77023,32.06518],[76.77695,32.06888],[76.78264,32.06676],[76.78711,32.07342],[76.79247,32.07464],[76.80114,32.07361],[76.80366,32.06586],[76.81493,32.05828],[76.82613,32.04868],[76.83925,32.04355],[76.84235,32.04112],[76.8483,32.04421],[76.85178,32.04769],[76.85891,32.0502],[76.86834,32.05112],[76.88735,32.05759],[76.9029,32.05969],[76.91481,32.06046],[76.92213,32.05858],[76.9298,32.0594],[76.93939,32.06276]]]}}]}