{"type":"FeatureCollection","features":[{"type":"Feature","properties":{"id":"shimla","name":"Shimla","stateId":"himachal-pradesh","stateName":"Himachal Pradesh","censuscode":33,"type":"district"},"geometry":{"type":"Polygon","coordinates":[[[77.77188,31.70369],[77.78346,31.69494],[77.78962,31.68708],[77.7933,31.67889],[77.79466,31.67382],[77.80407,31.66939],[77.81218,31.6632],[77.81594,31.6576],[77.82029,31.64324],[77.82493,31.63809],[77.82373,31.6324],[77.81561,31.61701],[77.81429,31.61097],[77.82047,31.60496],[77.83541,31.58573],[77.83916,31.57956],[77.83538,31.56284],[77.83656,31.55386],[77.84064,31.54573],[77.84337,31.53733],[77.84521,31.52743],[77.8442,31.52088],[77.84079,31.51325],[77.84092,31.50699],[77.85138,31.5085],[77.85596,31.5059],[77.85942,31.51139],[77.8634,31.50753],[77.86951,31.504],[77.87145,31.49774],[77.87956,31.49152],[77.88258,31.48692],[77.88325,31.48055],[77.88007,31.47082],[77.88865,31.4657],[77.89508,31.46053],[77.89818,31.45675],[77.90271,31.44303],[77.9089,31.4404],[77.91233,31.43588],[77.91656,31.43285],[77.92197,31.43165],[77.9281,31.42444],[77.93263,31.42243],[77.9444,31.42344],[77.94892,31.4221],[77.96073,31.41425],[77.96367,31.40252],[77.97676,31.40157],[77.99552,31.4047],[78.00001,31.40268],[78.0087,31.40238],[78.01425,31.40337],[78.02444,31.4008],[78.02887,31.40213],[78.03291,31.4045],[78.04775,31.41484],[78.05462,31.41867],[78.06928,31.41559],[78.07378,31.4175],[78.07952,31.41721],[78.08606,31.42134],[78.08875,31.42224],[78.09407,31.42069],[78.10362,31.41978],[78.1047,31.41579],[78.11042,31.40946],[78.11677,31.40887],[78.12642,31.40577],[78.12952,31.40338],[78.13551,31.39652],[78.14069,31.39439],[78.14674,31.38759],[78.15339,31.39073],[78.15963,31.38739],[78.16325,31.38378],[78.16605,31.37816],[78.15329,31.35994],[78.15969,31.34955],[78.16423,31.34461],[78.1715,31.3443],[78.18014,31.33654],[78.18602,31.33688],[78.20287,31.32943],[78.209,31.3289],[78.2147,31.32561],[78.21997,31.32584],[78.22562,31.32825],[78.22875,31.33155],[78.23526,31.33447],[78.24097,31.34085],[78.24459,31.34213],[78.24751,31.34083],[78.24959,31.33672],[78.25322,31.33414],[78.2557,31.33026],[78.25999,31.32779],[78.27484,31.32461],[78.29192,31.32378],[78.30179,31.31513],[78.29769,31.30942],[78.29802,31.30412],[78.29559,31.29914],[78.29537,31.29275],[78.30674,31.28593],[78.31351,31.28343],[78.31195,31.27967],[78.31063,31.26805],[78.30852,31.26122],[78.30355,31.25937],[78.29325,31.26185],[78.28412,31.26657],[78.27321,31.25557],[78.27001,31.25181],[78.26829,31.24808],[78.26478,31.24576],[78.26325,31.24186],[78.25767,31.23857],[78.25253,31.23915],[78.25267,31.235],[78.24761,31.23022],[78.23346,31.23394],[78.22712,31.23377],[78.22183,31.23245],[78.21898,31.22931],[78.21525,31.22094],[78.20781,31.21813],[78.20253,31.21744],[78.19988,31.21856],[78.19145,31.22527],[78.1864,31.22705],[78.18079,31.22631],[78.1754,31.22717],[78.17038,31.22555],[78.16279,31.22684],[78.16079,31.22214],[78.15856,31.21934],[78.15207,31.21768],[78.14983,31.21137],[78.13407,31.20931],[78.12869,31.20151],[78.12474,31.20093],[78.12176,31.19776],[78.11566,31.19506],[78.10722,31.1881],[78.10259,31.18608],[78.09492,31.18599],[78.09034,31.18818],[78.07399,31.18766],[78.06866,31.18822],[78.0545,31.18282],[78.05358,31.18245],[78.04475,31.18061],[78.04169,31.17549],[78.03099,31.16682],[78.03005,31.16145],[78.03129,31.1538],[78.02899,31.15023],[78.02247,31.15239],[78.00732,31.16235],[77.99998,31.16334],[77.99372,31.16177],[77.98411,31.16049],[77.96951,31.17414],[77.96077,31.17153],[77.95598,31.16653],[77.95395,31.16266],[77.94915,31.16266],[77.92939,31.15196],[77.9241,31.15088],[77.91688,31.15421],[77.90747,31.15266],[77.90217,31.15009],[77.90436,31.14436],[77.9004,31.13846],[77.89505,31.13282],[77.89369,31.12697],[77.89332,31.12004],[77.88739,31.11859],[77.87246,31.11163],[77.86611,31.10636],[77.86471,31.09958],[77.86493,31.09055],[77.85736,31.07667],[77.85197,31.07288],[77.84553,31.07241],[77.83921,31.06981],[77.83402,31.06029],[77.82917,31.05629],[77.82393,31.05511],[77.82409,31.05675],[77.82136,31.05772],[77.81507,31.05748],[77.81936,31.05416],[77.81948,31.04947],[77.82511,31.03896],[77.82953,31.02929],[77.83322,31.02766],[77.83601,31.02527],[77.83545,31.01642],[77.83324,31.01113],[77.83709,31.00713],[77.8397,31.00346],[77.83908,31.00052],[77.82441,31.00055],[77.82464,30.99747],[77.82795,30.99425],[77.82525,30.99071],[77.82188,30.98917],[77.82053,30.98339],[77.82079,30.98036],[77.82054,30.97881],[77.81955,30.97697],[77.81751,30.97504],[77.81303,30.97144],[77.81158,30.96829],[77.81071,30.96514],[77.81169,30.96308],[77.81587,30.95888],[77.8189,30.95629],[77.82753,30.95776],[77.83069,30.95729],[77.8332,30.95539],[77.8336,30.95213],[77.83142,30.94887],[77.82687,30.94809],[77.8218,30.94901],[77.81653,30.9504],[77.81086,30.95374],[77.8019,30.96105],[77.79266,30.96766],[77.78522,30.971],[77.77816,30.97235],[77.7682,30.9722],[77.75622,30.96301],[77.75058,30.95895],[77.7488,30.95495],[77.74749,30.94487],[77.74908,30.93937],[77.75087,30.93495],[77.75344,30.93202],[77.75778,30.93057],[77.76069,30.92931],[77.76155,30.92404],[77.75977,30.91763],[77.76637,30.91629],[77.77243,30.91569],[77.77736,30.91546],[77.78144,30.91579],[77.78579,30.91951],[77.78869,30.92064],[77.79606,30.92153],[77.80295,30.92157],[77.80523,30.92142],[77.80757,30.92127],[77.80982,30.91909],[77.80917,30.91571],[77.81161,30.91204],[77.81504,30.90801],[77.81313,30.90407],[77.80879,30.89876],[77.80504,30.89595],[77.80056,30.89132],[77.79958,30.88864],[77.79858,30.88365],[77.79826,30.87742],[77.79775,30.87392],[77.79761,30.86733],[77.80116,30.86337],[77.80302,30.86021],[77.80347,30.85379],[77.79262,30.85526],[77.78768,30.8563],[77.78307,30.85821],[77.77925,30.86045],[77.77688,30.86344],[77.77589,30.87038],[77.77437,30.87313],[77.77232,30.87577],[77.76864,30.87773],[77.76515,30.87802],[77.76186,30.87757],[77.75863,30.87649],[77.75587,30.87358],[77.75495,30.86962],[77.75509,30.86521],[77.75576,30.85949],[77.75365,30.85548],[77.74977,30.85234],[77.74741,30.84948],[77.7455,30.84605],[77.74742,30.84278],[77.75492,30.83542],[77.75808,30.83152],[77.75842,30.8251],[77.7544,30.82293],[77.75144,30.82157],[77.74803,30.81934],[77.74488,30.81466],[77.74054,30.80968],[77.73804,30.80631],[77.73337,30.80357],[77.732,30.80037],[77.73103,30.79476],[77.72932,30.78949],[77.72256,30.77977],[77.71842,30.77427],[77.71231,30.76868],[77.70653,30.76668],[77.70217,30.76394],[77.6961,30.76814],[77.69071,30.77291],[77.68728,30.77761],[77.68577,30.78231],[77.68536,30.78667],[77.6814,30.78977],[77.67523,30.79144],[77.671,30.79557],[77.66817,30.79918],[77.66461,30.80143],[77.66002,30.79909],[77.65915,30.80236],[77.65783,30.80602],[77.65481,30.80374],[77.64928,30.80466],[77.63677,30.80721],[77.62902,30.80716],[77.62434,30.80809],[77.62224,30.80442],[77.62172,30.80207],[77.62154,30.79846],[77.62049,30.79429],[77.61695,30.79073],[77.61203,30.78886],[77.60218,30.78119],[77.59463,30.77823],[77.5872,30.77628],[77.57905,30.77613],[77.57102,30.77561],[77.5626,30.77637],[77.55386,30.77638],[77.54801,30.77478],[77.54486,30.77375],[77.54393,30.77639],[77.54786,30.78131],[77.54975,30.78418],[77.55288,30.79288],[77.5526,30.79643],[77.54859,30.79752],[77.543,30.79798],[77.5384,30.79787],[77.53287,30.79747],[77.52959,30.79583],[77.52789,30.79262],[77.52431,30.78287],[77.51469,30.78798],[77.50877,30.78913],[77.50132,30.79269],[77.49296,30.79412],[77.49617,30.79985],[77.49358,30.80392],[77.49363,30.81028],[77.49282,30.81388],[77.49057,30.81635],[77.48962,30.8254],[77.49037,30.83566],[77.49304,30.84093],[77.48744,30.84482],[77.48544,30.84946],[77.47742,30.86494],[77.47045,30.86362],[77.46524,30.86448],[77.46115,30.86597],[77.45176,30.86259],[77.44286,30.86976],[77.43213,30.87216],[77.43599,30.87881],[77.4372,30.88746],[77.43499,30.89399],[77.43102,30.89823],[77.42745,30.90121],[77.42617,30.90809],[77.42483,30.91347],[77.42126,30.91633],[77.41821,30.92069],[77.41233,30.92486],[77.41134,30.92642],[77.42968,30.93369],[77.43565,30.93759],[77.44248,30.94503],[77.44206,30.94991],[77.44195,30.95609],[77.44259,30.96279],[77.44257,30.96749],[77.44079,30.97586],[77.43238,30.98519],[77.42709,30.98783],[77.42293,30.99092],[77.42167,30.9931],[77.41776,30.99544],[77.41637,30.99871],[77.4098,31.0002],[77.40913,31.00094],[77.40423,31.00475],[77.39415,31.01209],[77.37375,31.02225],[77.37313,31.01696],[77.36331,31.00984],[77.33746,31.00087],[77.33398,30.99558],[77.33073,30.98894],[77.32804,30.98658],[77.32535,30.98394],[77.32399,30.97976],[77.32097,30.97586],[77.31702,30.97569],[77.313,30.97167],[77.30852,30.96909],[77.30175,30.96811],[77.30038,30.9641],[77.30056,30.95665],[77.29512,30.95154],[77.28735,30.95142],[77.28077,30.94901],[77.27441,30.94447],[77.26561,30.94073],[77.26267,30.93712],[77.26094,30.92841],[77.2546,30.92199],[77.24622,30.91877],[77.24512,30.92524],[77.24331,30.93011],[77.24072,30.93474],[77.24055,30.93972],[77.24732,30.94249],[77.25202,30.94765],[77.24653,30.95229],[77.24104,30.95571],[77.23475,30.96034],[77.21962,30.96622],[77.21244,30.9662],[77.2067,30.96694],[77.20273,30.9698],[77.2023,30.97444],[77.20524,30.97714],[77.20778,30.98201],[77.20953,30.98676],[77.20858,30.99107],[77.20393,30.99546],[77.19874,30.99935],[77.19729,31.0006],[77.18641,31.00909],[77.18077,31.00938],[77.1794,31.00823],[77.17744,31.00764],[77.17118,31.00478],[77.14888,31.0085],[77.14477,31.02088],[77.12985,31.02926],[77.12046,31.03213],[77.1136,31.03057],[77.10601,31.03143],[77.09322,31.03779],[77.08713,31.04296],[77.08067,31.04578],[77.07351,31.04723],[77.06769,31.05059],[77.07105,31.0548],[77.08061,31.05658],[77.08188,31.06214],[77.08667,31.06584],[77.07977,31.07948],[77.07831,31.0851],[77.07351,31.08717],[77.07037,31.08547],[77.06469,31.08831],[77.05852,31.09005],[77.05169,31.08528],[77.0463,31.08012],[77.04331,31.07248],[77.03918,31.06834],[77.03478,31.07982],[77.02789,31.08171],[77.02601,31.08734],[77.02683,31.09179],[77.03659,31.0952],[77.04138,31.09948],[77.05003,31.10041],[77.05605,31.10394],[77.05199,31.11048],[77.0467,31.11606],[77.03967,31.11469],[77.03071,31.11465],[77.02812,31.11034],[77.02599,31.10932],[77.0173,31.10915],[77.00007,31.10538],[76.99281,31.11173],[76.99268,31.11452],[76.99256,31.11647],[76.99601,31.11726],[77.00008,31.11493],[77.00584,31.11453],[77.00924,31.11586],[77.01119,31.11848],[77.0108,31.13077],[77.01252,31.13713],[77.03052,31.15236],[77.03394,31.15893],[77.02592,31.16866],[77.01272,31.17492],[77.0057,31.18107],[77.00408,31.1879],[77.00352,31.19522],[77.00516,31.20309],[77.01014,31.2098],[77.02003,31.21851],[77.01389,31.22645],[77.01284,31.23402],[77.00478,31.23715],[77.01181,31.26283],[77.01514,31.27165],[77.0139,31.27877],[77.00308,31.29782],[77.01768,31.28861],[77.03192,31.27523],[77.04026,31.27127],[77.06081,31.26381],[77.06342,31.26201],[77.07394,31.25654],[77.0834,31.2479],[77.09527,31.24445],[77.10589,31.24759],[77.11142,31.24437],[77.1217,31.24705],[77.12503,31.24459],[77.12616,31.24067],[77.12494,31.23536],[77.12725,31.23126],[77.13259,31.22869],[77.13932,31.22843],[77.14705,31.23145],[77.15491,31.23038],[77.16177,31.23079],[77.16699,31.23397],[77.17914,31.24439],[77.19018,31.25515],[77.19429,31.25071],[77.19661,31.24435],[77.20461,31.24459],[77.21115,31.24944],[77.21959,31.25996],[77.22606,31.26099],[77.24032,31.25874],[77.24624,31.25626],[77.24837,31.25418],[77.25192,31.25765],[77.25506,31.26284],[77.26695,31.2704],[77.27058,31.27559],[77.27584,31.27352],[77.27809,31.26791],[77.28275,31.26583],[77.28981,31.26773],[77.30195,31.26969],[77.30557,31.27129],[77.31355,31.28117],[77.31796,31.28339],[77.32481,31.29302],[77.33121,31.29387],[77.3367,31.29819],[77.33893,31.30528],[77.34134,31.32265],[77.35286,31.3456],[77.35789,31.35193],[77.36419,31.35642],[77.37194,31.35883],[77.37863,31.35905],[77.38543,31.35834],[77.38666,31.36134],[77.39204,31.35972],[77.39685,31.35925],[77.40202,31.36212],[77.40639,31.35681],[77.41882,31.34616],[77.4243,31.34666],[77.42994,31.34152],[77.43637,31.34416],[77.44697,31.34298],[77.45434,31.34763],[77.47613,31.35006],[77.47894,31.35277],[77.49852,31.35605],[77.5076,31.35523],[77.51832,31.35115],[77.52566,31.35125],[77.53162,31.35336],[77.53953,31.36885],[77.54783,31.38205],[77.55421,31.38653],[77.56318,31.38857],[77.57144,31.38641],[77.5914,31.39545],[77.60049,31.39594],[77.61043,31.3936],[77.61968,31.38849],[77.62998,31.39098],[77.63403,31.39743],[77.62621,31.4138],[77.62307,31.42355],[77.62507,31.43895],[77.62818,31.44603],[77.63223,31.45017],[77.64081,31.45441],[77.65435,31.45857],[77.66284,31.45963],[77.67096,31.46277],[77.67649,31.46926],[77.6815,31.47778],[77.68871,31.4865],[77.70144,31.49546],[77.7066,31.49677],[77.70899,31.50241],[77.70329,31.50907],[77.70116,31.51872],[77.70447,31.52978],[77.69928,31.54192],[77.69135,31.54484],[77.68429,31.54966],[77.67989,31.55966],[77.67401,31.56118],[77.66454,31.57219],[77.65614,31.57833],[77.65257,31.59226],[77.64915,31.59885],[77.64826,31.60572],[77.64858,31.61304],[77.65143,31.6248],[77.65346,31.62929],[77.65965,31.63134],[77.66341,31.63473],[77.6521,31.65117],[77.64916,31.65291],[77.64785,31.65771],[77.64875,31.66047],[77.65247,31.66524],[77.65928,31.67047],[77.6619,31.67952],[77.66997,31.6834],[77.67974,31.69912],[77.68587,31.70353],[77.69473,31.70424],[77.7092,31.7028],[77.71564,31.7042],[77.73476,31.71462],[77.74281,31.71493],[77.75078,31.71385],[77.7553,31.70786],[77.76351,31.70442],[77.77188,31.70369]]]}}]}