{"type":"FeatureCollection","features":[{"type":"Feature","properties":{"id":"sirmaur","name":"Sirmaur","stateId":"himachal-pradesh","stateName":"Himachal Pradesh","censuscode":32,"type":"district"},"geometry":{"type":"Polygon","coordinates":[[[77.70217,30.76394],[77.70533,30.75552],[77.70685,30.75311],[77.7056,30.7503],[77.70423,30.74658],[77.70542,30.74354],[77.70779,30.74142],[77.71153,30.74021],[77.71456,30.74021],[77.71817,30.74094],[77.72107,30.74076],[77.72311,30.73938],[77.72548,30.73731],[77.72673,30.73467],[77.72917,30.73347],[77.73146,30.73409],[77.73416,30.73345],[77.73554,30.73156],[77.73633,30.72857],[77.73601,30.72583],[77.73903,30.72256],[77.74449,30.71967],[77.74608,30.71589],[77.74812,30.71188],[77.75108,30.70866],[77.75489,30.70584],[77.75418,30.70229],[77.75069,30.70019],[77.74952,30.69675],[77.74735,30.69263],[77.74715,30.68867],[77.74717,30.68101],[77.75032,30.67802],[77.7565,30.67571],[77.76162,30.67329],[77.76793,30.67121],[77.77253,30.66753],[77.77668,30.66357],[77.77963,30.66041],[77.78325,30.65931],[77.78594,30.66051],[77.78797,30.66079],[77.7908,30.66072],[77.79277,30.65888],[77.78864,30.65356],[77.78397,30.65026],[77.782,30.6466],[77.78585,30.64008],[77.78867,30.63623],[77.78914,30.63257],[77.786,30.62748],[77.78495,30.62358],[77.79013,30.62122],[77.79329,30.61777],[77.79565,30.61444],[77.7923,30.61297],[77.78588,30.61292],[77.78075,30.61328],[77.77497,30.61456],[77.77025,30.61542],[77.76926,30.6113],[77.77085,30.5999],[77.76803,30.59584],[77.76331,30.59647],[77.75608,30.60228],[77.75194,30.60321],[77.7484,30.60327],[77.74571,30.60225],[77.74519,30.5999],[77.74486,30.59663],[77.7431,30.59349],[77.74552,30.5913],[77.75222,30.58797],[77.75721,30.58486],[77.75978,30.57952],[77.76306,30.57505],[77.76543,30.56966],[77.76708,30.5653],[77.77082,30.56065],[77.77541,30.55806],[77.78007,30.55857],[77.78446,30.55746],[77.78815,30.55395],[77.79181,30.55241],[77.79995,30.55645],[77.80415,30.55529],[77.80874,30.55619],[77.81182,30.55916],[77.81681,30.55881],[77.81944,30.55577],[77.82043,30.54928],[77.82036,30.54436],[77.8235,30.53902],[77.82573,30.53305],[77.82417,30.52818],[77.81853,30.51978],[77.81762,30.51537],[77.81545,30.51038],[77.81405,30.50816],[77.81266,30.50639],[77.80735,30.5036],[77.80165,30.5011],[77.78107,30.49938],[77.77687,30.49527],[77.76848,30.49335],[77.76095,30.48907],[77.75,30.48229],[77.74267,30.47738],[77.73481,30.47281],[77.72459,30.47232],[77.71803,30.46844],[77.71253,30.46375],[77.70342,30.45799],[77.69551,30.45274],[77.69238,30.44679],[77.67489,30.44384],[77.6665,30.44461],[77.65994,30.44755],[77.65352,30.44744],[77.6511,30.44458],[77.64895,30.43943],[77.6466,30.43485],[77.64379,30.43124],[77.62996,30.43133],[77.62525,30.43351],[77.61699,30.43255],[77.60364,30.4289],[77.59428,30.42542],[77.58781,30.42165],[77.58107,30.41685],[77.57604,30.41221],[77.5754,30.40517],[77.5762,30.39961],[77.581,30.39388],[77.58606,30.3882],[77.58928,30.38499],[77.58801,30.37962],[77.57845,30.37999],[77.57104,30.38548],[77.56559,30.38849],[77.55601,30.39236],[77.55187,30.39705],[77.54877,30.40421],[77.5424,30.40866],[77.53892,30.4123],[77.53121,30.42606],[77.52753,30.43461],[77.52304,30.44402],[77.51852,30.44356],[77.51433,30.43888],[77.50608,30.42825],[77.50432,30.42018],[77.50447,30.41255],[77.49996,30.40781],[77.49568,30.41041],[77.49063,30.40856],[77.48106,30.407],[77.47406,30.40059],[77.46619,30.40002],[77.45609,30.39983],[77.44802,30.39892],[77.44347,30.40272],[77.4295,30.40364],[77.42896,30.40808],[77.43401,30.41208],[77.43879,30.41526],[77.45282,30.41965],[77.45517,30.42514],[77.46649,30.4356],[77.46745,30.44131],[77.46994,30.44679],[77.46946,30.45344],[77.46373,30.46049],[77.45888,30.46095],[77.44874,30.44628],[77.43932,30.43639],[77.43035,30.42912],[77.42072,30.42316],[77.41366,30.41403],[77.40853,30.41623],[77.40989,30.42576],[77.40719,30.42957],[77.39495,30.43458],[77.39349,30.44145],[77.3893,30.44157],[77.38273,30.44116],[77.36988,30.43739],[77.36657,30.44391],[77.3628,30.45263],[77.35917,30.45725],[77.35248,30.45897],[77.34578,30.4596],[77.33935,30.45856],[77.33548,30.45751],[77.32985,30.453],[77.32376,30.449],[77.32322,30.44917],[77.31377,30.452],[77.30681,30.45453],[77.29551,30.45734],[77.28762,30.45947],[77.27664,30.46211],[77.27499,30.46649],[77.27391,30.47157],[77.26968,30.47688],[77.26488,30.47988],[77.25496,30.48084],[77.24654,30.48296],[77.23983,30.48411],[77.23191,30.48149],[77.22496,30.47738],[77.21565,30.47585],[77.21208,30.48006],[77.21337,30.48457],[77.21266,30.49467],[77.21276,30.50213],[77.20898,30.50732],[77.20394,30.51488],[77.19846,30.52144],[77.18765,30.5261],[77.18265,30.52846],[77.1768,30.52971],[77.16515,30.53251],[77.15865,30.53342],[77.15068,30.53421],[77.14418,30.53714],[77.13545,30.54387],[77.12962,30.5531],[77.12683,30.55811],[77.12462,30.56297],[77.12601,30.56392],[77.12829,30.56552],[77.13373,30.56686],[77.13695,30.56836],[77.137,30.56839],[77.13904,30.56936],[77.14585,30.57412],[77.15305,30.57886],[77.16012,30.58461],[77.16443,30.58849],[77.16731,30.59196],[77.17071,30.5952],[77.17187,30.59879],[77.17172,30.60312],[77.17188,30.60947],[77.17315,30.62715],[77.17567,30.63433],[77.17375,30.63807],[77.16951,30.6436],[77.16604,30.64989],[77.16596,30.65446],[77.16854,30.66376],[77.16723,30.67265],[77.16405,30.67692],[77.16357,30.68027],[77.16689,30.68444],[77.16512,30.68623],[77.16082,30.68922],[77.15376,30.69331],[77.14722,30.69792],[77.1385,30.70286],[77.13564,30.70793],[77.13087,30.7137],[77.123,30.71846],[77.11657,30.71625],[77.11332,30.71809],[77.11363,30.7222],[77.11577,30.72659],[77.11399,30.7282],[77.10955,30.73045],[77.10455,30.73204],[77.09971,30.73578],[77.09026,30.74061],[77.08314,30.74284],[77.07512,30.742],[77.06839,30.74262],[77.06048,30.74455],[77.05142,30.74903],[77.04712,30.75133],[77.04373,30.74767],[77.04377,30.74225],[77.04169,30.73935],[77.03742,30.73753],[77.03144,30.73637],[77.02647,30.73814],[77.02276,30.74164],[77.01984,30.74545],[77.01809,30.74844],[77.02058,30.7486],[77.02395,30.74752],[77.02868,30.74777],[77.0301,30.75081],[77.03027,30.75516],[77.03168,30.75889],[77.03441,30.76142],[77.04345,30.76591],[77.05017,30.77149],[77.06994,30.78198],[77.0757,30.78549],[77.08132,30.79032],[77.08444,30.79491],[77.08371,30.80293],[77.08583,30.80924],[77.08809,30.81474],[77.08851,30.8203],[77.0886,30.8246],[77.08817,30.82861],[77.09296,30.8304],[77.09781,30.83247],[77.10189,30.833],[77.1049,30.8345],[77.10699,30.83668],[77.1086,30.84012],[77.11535,30.84443],[77.11923,30.85355],[77.12547,30.8542],[77.13113,30.8541],[77.13514,30.8556],[77.14114,30.85475],[77.14483,30.85373],[77.14819,30.85322],[77.15086,30.85712],[77.15547,30.85662],[77.15708,30.85261],[77.16278,30.84838],[77.16642,30.8449],[77.17129,30.84474],[77.1772,30.84601],[77.18034,30.84945],[77.17918,30.85552],[77.17999,30.86211],[77.18439,30.86218],[77.19044,30.86259],[77.19531,30.86506],[77.19805,30.86822],[77.20224,30.87092],[77.21463,30.87632],[77.20606,30.88863],[77.21482,30.8962],[77.21512,30.9021],[77.21754,30.90383],[77.22143,30.90223],[77.22461,30.90022],[77.22777,30.89995],[77.23158,30.90104],[77.23474,30.90231],[77.23616,30.90621],[77.24039,30.91384],[77.24622,30.91877],[77.2546,30.92199],[77.26094,30.92841],[77.26267,30.93712],[77.26561,30.94073],[77.27441,30.94447],[77.28077,30.94901],[77.28735,30.95142],[77.29512,30.95154],[77.30056,30.95665],[77.30038,30.9641],[77.30175,30.96811],[77.30852,30.96909],[77.313,30.97167],[77.31702,30.97569],[77.32097,30.97586],[77.32399,30.97976],[77.32535,30.98394],[77.32804,30.98658],[77.33073,30.98894],[77.33398,30.99558],[77.33746,31.00087],[77.36331,31.00984],[77.37313,31.01696],[77.37375,31.02225],[77.39415,31.01209],[77.40423,31.00475],[77.40913,31.00094],[77.4098,31.0002],[77.41637,30.99871],[77.41776,30.99544],[77.42167,30.9931],[77.42293,30.99092],[77.42709,30.98783],[77.43238,30.98519],[77.44079,30.97586],[77.44257,30.96749],[77.44259,30.96279],[77.44195,30.95609],[77.44206,30.94991],[77.44248,30.94503],[77.43565,30.93759],[77.42968,30.93369],[77.41134,30.92642],[77.41233,30.92486],[77.41821,30.92069],[77.42126,30.91633],[77.42483,30.91347],[77.42617,30.90809],[77.42745,30.90121],[77.43102,30.89823],[77.43499,30.89399],[77.4372,30.88746],[77.43599,30.87881],[77.43213,30.87216],[77.44286,30.86976],[77.45176,30.86259],[77.46115,30.86597],[77.46524,30.86448],[77.47045,30.86362],[77.47742,30.86494],[77.48544,30.84946],[77.48744,30.84482],[77.49304,30.84093],[77.49037,30.83566],[77.48962,30.8254],[77.49057,30.81635],[77.49282,30.81388],[77.49363,30.81028],[77.49358,30.80392],[77.49617,30.79985],[77.49296,30.79412],[77.50132,30.79269],[77.50877,30.78913],[77.51469,30.78798],[77.52431,30.78287],[77.52789,30.79262],[77.52959,30.79583],[77.53287,30.79747],[77.5384,30.79787],[77.543,30.79798],[77.54859,30.79752],[77.5526,30.79643],[77.55288,30.79288],[77.54975,30.78418],[77.54786,30.78131],[77.54393,30.77639],[77.54486,30.77375],[77.54801,30.77478],[77.55386,30.77638],[77.5626,30.77637],[77.57102,30.77561],[77.57905,30.77613],[77.5872,30.77628],[77.59463,30.77823],[77.60218,30.78119],[77.61203,30.78886],[77.61695,30.79073],[77.62049,30.79429],[77.62154,30.79846],[77.62172,30.80207],[77.62224,30.80442],[77.62434,30.80809],[77.62902,30.80716],[77.63677,30.80721],[77.64928,30.80466],[77.65481,30.80374],[77.65783,30.80602],[77.65915,30.80236],[77.66002,30.79909],[77.66461,30.80143],[77.66817,30.79918],[77.671,30.79557],[77.67523,30.79144],[77.6814,30.78977],[77.68536,30.78667],[77.68577,30.78231],[77.68728,30.77761],[77.69071,30.77291],[77.6961,30.76814],[77.70217,30.76394]]]}}]}