{"type":"FeatureCollection","features":[{"type":"Feature","properties":{"id":"solan","name":"Solan","stateId":"himachal-pradesh","stateName":"Himachal Pradesh","censuscode":31,"type":"district"},"geometry":{"type":"Polygon","coordinates":[[[77.00308,31.29782],[77.0139,31.27877],[77.01514,31.27165],[77.01181,31.26283],[77.00478,31.23715],[77.01284,31.23402],[77.01389,31.22645],[77.02003,31.21851],[77.01014,31.2098],[77.00516,31.20309],[77.00352,31.19522],[77.00408,31.1879],[77.0057,31.18107],[77.01272,31.17492],[77.02592,31.16866],[77.03394,31.15893],[77.03052,31.15236],[77.01252,31.13713],[77.0108,31.13077],[77.01119,31.11848],[77.00924,31.11586],[77.00584,31.11453],[77.00008,31.11493],[76.99601,31.11726],[76.99256,31.11647],[76.99268,31.11452],[76.99281,31.11173],[77.00007,31.10538],[77.0173,31.10915],[77.02599,31.10932],[77.02812,31.11034],[77.03071,31.11465],[77.03967,31.11469],[77.0467,31.11606],[77.05199,31.11048],[77.05605,31.10394],[77.05003,31.10041],[77.04138,31.09948],[77.03659,31.0952],[77.02683,31.09179],[77.02601,31.08734],[77.02789,31.08171],[77.03478,31.07982],[77.03918,31.06834],[77.04331,31.07248],[77.0463,31.08012],[77.05169,31.08528],[77.05852,31.09005],[77.06469,31.08831],[77.07037,31.08547],[77.07351,31.08717],[77.07831,31.0851],[77.07977,31.07948],[77.08667,31.06584],[77.08188,31.06214],[77.08061,31.05658],[77.07105,31.0548],[77.06769,31.05059],[77.07351,31.04723],[77.08067,31.04578],[77.08713,31.04296],[77.09322,31.03779],[77.10601,31.03143],[77.1136,31.03057],[77.12046,31.03213],[77.12985,31.02926],[77.14477,31.02088],[77.14888,31.0085],[77.17118,31.00478],[77.17744,31.00764],[77.1794,31.00823],[77.18077,31.00938],[77.18641,31.00909],[77.19729,31.0006],[77.19874,30.99935],[77.20393,30.99546],[77.20858,30.99107],[77.20953,30.98676],[77.20778,30.98201],[77.20524,30.97714],[77.2023,30.97444],[77.20273,30.9698],[77.2067,30.96694],[77.21244,30.9662],[77.21962,30.96622],[77.23475,30.96034],[77.24104,30.95571],[77.24653,30.95229],[77.25202,30.94765],[77.24732,30.94249],[77.24055,30.93972],[77.24072,30.93474],[77.24331,30.93011],[77.24512,30.92524],[77.24622,30.91877],[77.24039,30.91384],[77.23616,30.90621],[77.23474,30.90231],[77.23158,30.90104],[77.22777,30.89995],[77.22461,30.90022],[77.22143,30.90223],[77.21754,30.90383],[77.21512,30.9021],[77.21482,30.8962],[77.20606,30.88863],[77.21463,30.87632],[77.20224,30.87092],[77.19805,30.86822],[77.19531,30.86506],[77.19044,30.86259],[77.18439,30.86218],[77.17999,30.86211],[77.17918,30.85552],[77.18034,30.84945],[77.1772,30.84601],[77.17129,30.84474],[77.16642,30.8449],[77.16278,30.84838],[77.15708,30.85261],[77.15547,30.85662],[77.15086,30.85712],[77.14819,30.85322],[77.14483,30.85373],[77.14114,30.85475],[77.13514,30.8556],[77.13113,30.8541],[77.12547,30.8542],[77.11923,30.85355],[77.11535,30.84443],[77.1086,30.84012],[77.10699,30.83668],[77.1049,30.8345],[77.10189,30.833],[77.09781,30.83247],[77.09296,30.8304],[77.08817,30.82861],[77.0886,30.8246],[77.08851,30.8203],[77.08809,30.81474],[77.08583,30.80924],[77.08371,30.80293],[77.08444,30.79491],[77.08132,30.79032],[77.0757,30.78549],[77.06994,30.78198],[77.05017,30.77149],[77.04345,30.76591],[77.03441,30.76142],[77.03168,30.75889],[77.03027,30.75516],[77.0301,30.75081],[77.02868,30.74777],[77.02395,30.74752],[77.02058,30.7486],[77.01809,30.74844],[77.01806,30.75329],[77.01922,30.75769],[77.01788,30.76231],[77.01582,30.76392],[77.01224,30.76511],[77.00867,30.76701],[77.00464,30.76942],[77.00204,30.77305],[77.00439,30.77664],[77.00831,30.78104],[77.01348,30.78499],[77.01318,30.78996],[77.01382,30.79361],[77.01323,30.80088],[77.01202,30.80573],[77.01146,30.81029],[77.00934,30.81271],[77.00617,30.81431],[77.00194,30.81101],[77.00002,30.80926],[76.99825,30.80648],[76.9961,30.80031],[76.99254,30.79481],[76.98211,30.80399],[76.97528,30.80503],[76.96722,30.80726],[76.96114,30.81924],[76.95632,30.82528],[76.94719,30.82805],[76.941,30.83345],[76.9413,30.84426],[76.94013,30.85057],[76.92938,30.86547],[76.92064,30.88717],[76.91575,30.89342],[76.90011,30.88449],[76.89213,30.88219],[76.88317,30.87437],[76.8753,30.86977],[76.86594,30.86691],[76.85065,30.87512],[76.83617,30.88438],[76.82927,30.89231],[76.82333,30.90311],[76.82794,30.91765],[76.82697,30.92364],[76.82377,30.92671],[76.81234,30.92098],[76.78337,30.90276],[76.76736,30.91421],[76.76764,30.91935],[76.76221,30.92021],[76.76216,30.92557],[76.75736,30.92546],[76.75192,30.92649],[76.73956,30.93578],[76.73903,30.93897],[76.73875,30.94063],[76.73768,30.94705],[76.72617,30.9599],[76.71865,30.9598],[76.71195,30.9654],[76.70973,30.96831],[76.70781,30.96901],[76.68175,30.96643],[76.67618,30.96769],[76.66663,30.9784],[76.64692,30.98734],[76.63949,30.98914],[76.63453,30.99495],[76.62599,30.99872],[76.62364,31.00091],[76.62721,31.01867],[76.61882,31.03022],[76.61516,31.04028],[76.61263,31.05028],[76.62321,31.05739],[76.61861,31.07513],[76.62155,31.08025],[76.6256,31.09314],[76.63952,31.10698],[76.6375,31.11477],[76.62938,31.11835],[76.62109,31.11642],[76.61124,31.123],[76.60311,31.12452],[76.60776,31.13332],[76.61259,31.148],[76.60851,31.14817],[76.60393,31.15412],[76.60534,31.15717],[76.6033,31.16161],[76.60635,31.16915],[76.60429,31.17973],[76.61221,31.18334],[76.61458,31.1879],[76.6197,31.19398],[76.62615,31.1995],[76.63265,31.20075],[76.63408,31.20351],[76.6494,31.20982],[76.66426,31.21223],[76.67191,31.21521],[76.69409,31.21705],[76.69994,31.22112],[76.70572,31.22398],[76.71318,31.2262],[76.72284,31.23026],[76.7287,31.23433],[76.73262,31.24019],[76.73812,31.23949],[76.74533,31.23653],[76.74913,31.23323],[76.75767,31.22855],[76.76799,31.22819],[76.77494,31.22709],[76.77905,31.22047],[76.79904,31.22633],[76.80794,31.23043],[76.8133,31.22824],[76.81853,31.22843],[76.82575,31.2255],[76.82664,31.22599],[76.83126,31.22622],[76.83778,31.23195],[76.84472,31.22973],[76.84976,31.22378],[76.86073,31.21881],[76.87391,31.21852],[76.88351,31.22385],[76.87437,31.23534],[76.87037,31.24624],[76.86702,31.24634],[76.87192,31.25692],[76.87638,31.26206],[76.88228,31.26283],[76.88994,31.26613],[76.89662,31.26476],[76.89934,31.2681],[76.89623,31.2737],[76.89868,31.27813],[76.90473,31.28017],[76.91029,31.28107],[76.91628,31.2841],[76.92068,31.2894],[76.92803,31.30217],[76.92308,31.3034],[76.91936,31.3137],[76.91295,31.31645],[76.90423,31.31609],[76.89503,31.31916],[76.88024,31.32741],[76.87607,31.33134],[76.88194,31.3403],[76.87738,31.34603],[76.87589,31.34969],[76.87605,31.35379],[76.87579,31.35441],[76.88513,31.35837],[76.89164,31.36202],[76.90183,31.36433],[76.90923,31.36286],[76.92091,31.36703],[76.93268,31.358],[76.94265,31.34803],[76.94572,31.33949],[76.94346,31.33444],[76.95582,31.32996],[76.96792,31.32267],[76.97844,31.31092],[77.0001,31.2997],[77.00308,31.29782]]]}}]}