{"type":"FeatureCollection","features":[{"type":"Feature","properties":{"id":"una","name":"Una","stateId":"himachal-pradesh","stateName":"Himachal Pradesh","censuscode":29,"type":"district"},"geometry":{"type":"Polygon","coordinates":[[[76.31388,31.72173],[76.31488,31.71865],[76.31958,31.71261],[76.32802,31.695],[76.33573,31.68284],[76.34447,31.67536],[76.35225,31.66453],[76.35705,31.65215],[76.36765,31.64058],[76.37794,31.63453],[76.39437,31.62014],[76.39381,31.61495],[76.39562,31.61368],[76.40006,31.61051],[76.40807,31.5903],[76.43259,31.5456],[76.43573,31.54059],[76.43941,31.53679],[76.43688,31.52741],[76.43782,31.52476],[76.43573,31.52217],[76.43919,31.51405],[76.4452,31.50344],[76.45897,31.48604],[76.45279,31.48317],[76.4588,31.47315],[76.47048,31.45868],[76.46642,31.44878],[76.46453,31.44636],[76.4713,31.4441],[76.47809,31.4448],[76.47922,31.44186],[76.4737,31.44019],[76.47367,31.43075],[76.47189,31.42441],[76.47002,31.42436],[76.46686,31.42424],[76.45975,31.42235],[76.44904,31.41665],[76.44159,31.41482],[76.435,31.41148],[76.41729,31.41258],[76.39881,31.42697],[76.39578,31.42179],[76.39656,31.41299],[76.39582,31.40805],[76.38721,31.41109],[76.38946,31.4196],[76.38337,31.4256],[76.37737,31.43884],[76.37096,31.42709],[76.37334,31.4131],[76.36729,31.40993],[76.36103,31.40319],[76.34874,31.40123],[76.34364,31.39864],[76.32995,31.3999],[76.33287,31.38568],[76.33232,31.37859],[76.34365,31.37698],[76.34408,31.36518],[76.34534,31.35654],[76.35069,31.35044],[76.34409,31.34272],[76.33846,31.34456],[76.33184,31.34968],[76.32982,31.34496],[76.31392,31.34132],[76.30996,31.33971],[76.31622,31.32381],[76.31004,31.31667],[76.30433,31.31309],[76.2983,31.31102],[76.29127,31.30741],[76.28231,31.30409],[76.27507,31.30334],[76.26951,31.31247],[76.25804,31.31125],[76.23706,31.31064],[76.22882,31.30522],[76.22024,31.30285],[76.19952,31.30229],[76.18666,31.30439],[76.1823,31.3118],[76.17995,31.32386],[76.1802,31.33916],[76.17196,31.34466],[76.16162,31.3459],[76.1535,31.35088],[76.14893,31.35954],[76.14804,31.38045],[76.15259,31.38466],[76.1611,31.38968],[76.16701,31.39504],[76.17075,31.40229],[76.16753,31.41181],[76.16109,31.41667],[76.16115,31.42343],[76.15752,31.43013],[76.14913,31.43537],[76.14229,31.44164],[76.13667,31.45163],[76.13536,31.45889],[76.12962,31.46337],[76.12882,31.47147],[76.12206,31.48017],[76.12229,31.49308],[76.11827,31.5003],[76.1087,31.51222],[76.10479,31.51702],[76.10315,31.52569],[76.09821,31.53525],[76.09102,31.54405],[76.08582,31.55226],[76.08026,31.55864],[76.07913,31.55992],[76.06577,31.57996],[76.05743,31.59017],[76.05697,31.5941],[76.05835,31.60125],[76.05429,31.6067],[76.051,31.60504],[76.04571,31.60771],[76.03749,31.61373],[76.03192,31.61995],[76.01709,31.64492],[76.02062,31.64977],[76.0183,31.65525],[76.01912,31.66139],[76.01175,31.66726],[76.01183,31.67439],[76.00911,31.67996],[76.00658,31.68293],[76.00541,31.68416],[76.00509,31.68315],[76.00003,31.68381],[75.99023,31.69378],[75.99182,31.70346],[75.98705,31.71363],[75.98384,31.71817],[75.98052,31.73197],[75.97551,31.7353],[75.97204,31.73903],[75.97426,31.74285],[75.97405,31.74809],[75.96644,31.7616],[75.95963,31.7799],[75.95104,31.78299],[75.95039,31.7884],[75.9476,31.79577],[75.94183,31.80383],[75.93645,31.81589],[75.94139,31.81514],[75.94396,31.81393],[75.94788,31.81371],[75.95071,31.81694],[75.96344,31.8218],[75.96757,31.82262],[75.97498,31.81711],[75.98163,31.81349],[75.98614,31.81316],[75.9856,31.81782],[75.98231,31.82214],[75.97044,31.83103],[75.96827,31.83862],[75.96444,31.84679],[75.95898,31.85623],[75.97011,31.85332],[75.9793,31.84925],[75.98975,31.84963],[76.00003,31.85101],[76.00187,31.8553],[76.0086,31.86311],[76.03813,31.86393],[76.04751,31.86155],[76.05442,31.85452],[76.07276,31.83908],[76.08266,31.84442],[76.08502,31.8313],[76.0856,31.83048],[76.09037,31.82363],[76.10194,31.81906],[76.11493,31.80549],[76.13189,31.80017],[76.15999,31.79616],[76.16605,31.7936],[76.17177,31.78864],[76.18026,31.78404],[76.18463,31.77658],[76.18268,31.77001],[76.18956,31.76808],[76.19468,31.77217],[76.20378,31.7729],[76.20925,31.76842],[76.20998,31.76326],[76.22393,31.74267],[76.24878,31.72233],[76.25127,31.71824],[76.25692,31.71462],[76.27116,31.70573],[76.27922,31.69864],[76.28446,31.69082],[76.28964,31.68662],[76.29469,31.69123],[76.31253,31.72009],[76.31388,31.72173]]]}}]}