{"type":"FeatureCollection","features":[{"type":"Feature","properties":{"id":"ariyalur","name":"Ariyalur","stateId":"tamil-nadu","stateName":"Tamil Nadu","censuscode":616,"type":"district"},"geometry":{"type":"Polygon","coordinates":[[[79.32232,11.41967],[79.32473,11.41745],[79.33487,11.41896],[79.33904,11.41833],[79.34651,11.41585],[79.35638,11.41927],[79.35923,11.41859],[79.36597,11.41889],[79.37005,11.41923],[79.37424,11.41607],[79.37543,11.41404],[79.37881,11.41095],[79.37832,11.40532],[79.37529,11.40497],[79.37562,11.40358],[79.37392,11.40304],[79.37421,11.39873],[79.38338,11.39813],[79.38365,11.39697],[79.38523,11.39718],[79.38488,11.40098],[79.38563,11.40068],[79.38554,11.40228],[79.38385,11.40226],[79.38354,11.40066],[79.38028,11.40064],[79.38014,11.40237],[79.37896,11.40198],[79.37896,11.40198],[79.37865,11.40382],[79.38057,11.40437],[79.38213,11.41084],[79.38651,11.40893],[79.3862,11.40739],[79.38897,11.40568],[79.38974,11.40348],[79.3945,11.40295],[79.39537,11.3992],[79.39223,11.39902],[79.39206,11.39168],[79.39039,11.38918],[79.39293,11.38782],[79.39226,11.3787],[79.39496,11.37659],[79.39203,11.37129],[79.39085,11.36701],[79.39451,11.3662],[79.39503,11.35471],[79.39878,11.35351],[79.40148,11.35099],[79.40573,11.35546],[79.40606,11.35454],[79.41144,11.36738],[79.4139,11.36458],[79.41507,11.36192],[79.42308,11.36089],[79.42635,11.36147],[79.42663,11.36514],[79.42862,11.36195],[79.42959,11.35688],[79.43818,11.35663],[79.43777,11.34854],[79.43369,11.34768],[79.4343,11.34613],[79.43312,11.34511],[79.43238,11.34196],[79.43458,11.34141],[79.43484,11.34025],[79.43484,11.34025],[79.43694,11.34],[79.43875,11.33331],[79.44761,11.33214],[79.44835,11.33459],[79.4505,11.33399],[79.45088,11.33243],[79.4521,11.33269],[79.45353,11.33112],[79.45476,11.32783],[79.45626,11.32718],[79.45617,11.32523],[79.45728,11.32515],[79.45737,11.32728],[79.45931,11.32535],[79.46095,11.32607],[79.46261,11.32053],[79.4651,11.3198],[79.46535,11.31785],[79.47313,11.3171],[79.47662,11.31325],[79.48255,11.31391],[79.48869,11.31565],[79.49755,11.31378],[79.50038,11.31248],[79.50111,11.31097],[79.49883,11.3036],[79.49954,11.29704],[79.4996,11.29296],[79.50169,11.28966],[79.50152,11.27508],[79.50304,11.27207],[79.50414,11.2717],[79.50448,11.25717],[79.4978,11.25705],[79.4978,11.25705],[79.4962,11.248],[79.50187,11.2424],[79.50361,11.23881],[79.50723,11.23629],[79.50775,11.23197],[79.51387,11.2263],[79.50979,11.22143],[79.50542,11.20323],[79.48252,11.1731],[79.47794,11.17387],[79.47403,11.17312],[79.46729,11.16915],[79.4658,11.16326],[79.46295,11.15882],[79.46142,11.15434],[79.46142,11.15434],[79.45965,11.14912],[79.43868,11.12619],[79.43152,11.11708],[79.42607,11.10518],[79.42519,11.10015],[79.42247,11.09404],[79.41338,11.07973],[79.40758,11.07314],[79.3948,11.06208],[79.3768,11.05333],[79.36283,11.04879],[79.35739,11.04607],[79.353,11.0424],[79.34424,11.03727],[79.34014,11.03407],[79.33573,11.02841],[79.32245,11.02087],[79.31345,11.01474],[79.31192,11.01689],[79.30904,11.01785],[79.30116,11.01419],[79.29727,11.01431],[79.29626,11.01403],[79.29473,11.01361],[79.28477,11.00491],[79.28402,11.0004],[79.28024,10.99695],[79.27495,10.98828],[79.26678,10.98128],[79.2595,10.97525],[79.24846,10.96656],[79.23908,10.9603],[79.23005,10.95026],[79.22166,10.94285],[79.21387,10.93847],[79.20822,10.93743],[79.20508,10.94581],[79.19321,10.9438],[79.18043,10.93786],[79.16919,10.93808],[79.15962,10.93994],[79.15219,10.94006],[79.1455,10.93846],[79.1319,10.93097],[79.12331,10.92635],[79.11502,10.92328],[79.10775,10.92169],[79.10226,10.92179],[79.09737,10.9227],[79.09028,10.92356],[79.08389,10.92303],[79.07916,10.91965],[79.0746,10.91659],[79.07049,10.91141],[79.06736,10.90462],[79.06551,10.89834],[79.06234,10.89349],[79.05709,10.88825],[79.05061,10.88519],[79.04318,10.88394],[79.03519,10.88297],[79.0278,10.88424],[79.02109,10.88586],[79.00753,10.88933],[79.00742,10.88937],[79.00715,10.89123],[79.00595,10.89682],[79.00506,10.90251],[79.00395,10.90948],[78.99987,10.92015],[78.99,10.92629],[78.98646,10.92626],[78.98421,10.9222],[78.98104,10.92092],[78.9778,10.92827],[78.97976,10.93341],[78.97719,10.93734],[78.96952,10.94499],[78.96618,10.94832],[78.96009,10.94792],[78.95335,10.94859],[78.95023,10.95207],[78.93917,10.95829],[78.93896,10.96188],[78.94922,10.96546],[78.95283,10.96936],[78.95911,10.96931],[78.96595,10.9681],[78.97261,10.96546],[78.97789,10.96585],[78.97883,10.97341],[78.986,10.97616],[78.98615,10.98111],[78.98444,10.99018],[78.98687,10.9937],[78.98783,11.0001],[78.99159,10.99626],[78.99459,10.99673],[78.99985,11],[79.00275,11.00164],[79.00954,11.00726],[79.01481,11.00829],[79.0123,11.01547],[79.01215,11.02604],[79.01209,11.03023],[79.01194,11.04038],[79.00901,11.0427],[79.009,11.05682],[79.01062,11.05971],[79.01652,11.06209],[79.02136,11.06086],[79.01942,11.0649],[79.02751,11.06666],[79.02594,11.07016],[79.02782,11.07485],[79.03314,11.08271],[79.0435,11.08539],[79.05552,11.08556],[79.06969,11.1059],[79.0702,11.11112],[79.06552,11.12944],[79.06194,11.13329],[79.05739,11.13317],[79.05773,11.13713],[79.05952,11.14092],[79.06272,11.14013],[79.06248,11.14502],[79.06319,11.15166],[79.07229,11.15315],[79.07518,11.15695],[79.0754,11.16523],[79.07177,11.17574],[79.07541,11.17666],[79.07814,11.17848],[79.07902,11.182],[79.07853,11.18838],[79.0675,11.18831],[79.06761,11.19255],[79.06786,11.20131],[79.06794,11.20424],[79.07112,11.20606],[79.07934,11.20342],[79.08118,11.20361],[79.08451,11.2035],[79.09138,11.20205],[79.09359,11.19838],[79.09633,11.1984],[79.097,11.2074],[79.0968,11.21057],[79.09669,11.21217],[79.09817,11.21701],[79.09946,11.22128],[79.10105,11.23002],[79.10488,11.2295],[79.10878,11.23205],[79.11354,11.23037],[79.11126,11.24403],[79.12373,11.24825],[79.12276,11.25734],[79.12549,11.25816],[79.12224,11.26652],[79.11813,11.26766],[79.11757,11.27072],[79.11156,11.2687],[79.11099,11.2723],[79.11168,11.27674],[79.11257,11.28239],[79.11595,11.2816],[79.11711,11.28557],[79.11336,11.28618],[79.11507,11.29024],[79.1176,11.29359],[79.12226,11.29235],[79.12617,11.29517],[79.13657,11.29496],[79.14236,11.28843],[79.14196,11.29274],[79.14474,11.30122],[79.14496,11.30942],[79.14104,11.3103],[79.12735,11.3103],[79.13121,11.31996],[79.13195,11.33293],[79.14117,11.33335],[79.15,11.33547],[79.15702,11.33803],[79.16026,11.34508],[79.15949,11.35066],[79.15232,11.36052],[79.15266,11.36412],[79.15767,11.36487],[79.16331,11.36842],[79.16473,11.37473],[79.16755,11.37619],[79.16989,11.37748],[79.17692,11.37343],[79.18088,11.37378],[79.18842,11.37715],[79.19346,11.3794],[79.1983,11.38024],[79.20321,11.38253],[79.20956,11.38346],[79.21667,11.388],[79.2298,11.39177],[79.23399,11.39194],[79.23803,11.38999],[79.24098,11.38133],[79.24058,11.37444],[79.24112,11.37168],[79.24481,11.36962],[79.25091,11.37274],[79.25387,11.37626],[79.25645,11.38506],[79.258,11.38773],[79.25929,11.38841],[79.26133,11.38872],[79.26809,11.38603],[79.27553,11.38633],[79.27553,11.38633],[79.27616,11.38195],[79.27875,11.37979],[79.28207,11.38077],[79.28268,11.38209],[79.28723,11.38007],[79.29881,11.38075],[79.29574,11.38861],[79.2931,11.39846],[79.29273,11.40519],[79.29476,11.41211],[79.30134,11.41223],[79.30982,11.41567],[79.3143,11.41635],[79.31428,11.41819],[79.32232,11.41967]]]}}]}