{"type":"FeatureCollection","features":[{"type":"Feature","properties":{"id":"chennai","name":"Chennai","stateId":"tamil-nadu","stateName":"Tamil Nadu","censuscode":603,"type":"district"},"geometry":{"type":"Polygon","coordinates":[[[80.29769,13.12548],[80.29798,13.11914],[80.30015,13.11373],[80.30066,13.11078],[80.30074,13.10958],[80.30101,13.10171],[80.30332,13.10105],[80.30588,13.09882],[80.3057,13.09474],[80.30144,13.08448],[80.29984,13.08313],[80.2985,13.07993],[80.29672,13.07804],[80.29396,13.07397],[80.29271,13.07286],[80.29138,13.0722],[80.28969,13.0669],[80.28872,13.06535],[80.28739,13.06323],[80.2852,13.05548],[80.28294,13.03438],[80.28031,13.02437],[80.27885,13.01255],[80.27568,13.00051],[80.27331,12.99504],[80.27326,12.99475],[80.27184,12.99525],[80.26343,12.99498],[80.25908,12.99527],[80.25501,12.99443],[80.25124,12.99301],[80.24718,12.9933],[80.2434,12.99018],[80.23934,12.98933],[80.23093,12.9902],[80.2231,12.99249],[80.21991,12.99249],[80.21498,12.99449],[80.21266,12.9962],[80.21092,12.99763],[80.21024,12.99938],[80.21066,13.00028],[80.2119,13.00253],[80.21231,13.00291],[80.21289,13.00664],[80.20069,13.01543],[80.20117,13.02106],[80.20183,13.02136],[80.20255,13.02467],[80.20456,13.0282],[80.20445,13.02821],[80.20662,13.03092],[80.21387,13.02721],[80.21533,13.03176],[80.21475,13.0346],[80.2107,13.03831],[80.21099,13.04286],[80.21042,13.04656],[80.20868,13.05055],[80.20927,13.05453],[80.21044,13.05794],[80.21161,13.0642],[80.21161,13.06818],[80.21133,13.07131],[80.2093,13.07274],[80.20756,13.07644],[80.20757,13.07929],[80.20786,13.08128],[80.20961,13.08469],[80.21251,13.08753],[80.21456,13.09692],[80.21457,13.10432],[80.2169,13.10915],[80.22185,13.11597],[80.22563,13.1228],[80.22768,13.12646],[80.24174,13.12722],[80.24567,13.12248],[80.24973,13.12162],[80.25467,13.12189],[80.26484,13.12472],[80.26948,13.12642],[80.27298,13.1321],[80.27669,13.13964],[80.28062,13.14179],[80.28822,13.14273],[80.30349,13.14125],[80.29964,13.13277],[80.29925,13.13175],[80.29769,13.12548]]]}}]}