{"type":"FeatureCollection","features":[{"type":"Feature","properties":{"id":"cuddalore","name":"Cuddalore","stateId":"tamil-nadu","stateName":"Tamil Nadu","censuscode":617,"type":"district"},"geometry":{"type":"MultiPolygon","coordinates":[[[[79.69546,11.88492],[79.69546,11.88492],[79.69675,11.88702],[79.69714,11.88766],[79.69714,11.88766],[79.69714,11.88766],[79.7056,11.88838],[79.71083,11.88771],[79.71083,11.88771],[79.71083,11.88771],[79.71019,11.88219],[79.71019,11.88219],[79.7099,11.87964],[79.70943,11.87558],[79.70858,11.86823],[79.70858,11.86823],[79.71281,11.86679],[79.71897,11.85268],[79.72186,11.86148],[79.72186,11.86148],[79.73316,11.86204],[79.73316,11.86204],[79.73327,11.86248],[79.73335,11.86278],[79.73335,11.86278],[79.74555,11.86132],[79.74297,11.84678],[79.75362,11.84948],[79.75463,11.86433],[79.75859,11.86811],[79.75859,11.86811],[79.75881,11.87419],[79.75881,11.87419],[79.765,11.87501],[79.76619,11.87344],[79.77012,11.87234],[79.77012,11.87234],[79.77094,11.86498],[79.77094,11.86498],[79.77094,11.86498],[79.76917,11.85674],[79.76678,11.85615],[79.76678,11.85615],[79.76678,11.85615],[79.76551,11.85049],[79.76551,11.85049],[79.76394,11.85034],[79.76254,11.84721],[79.76254,11.84721],[79.76254,11.84721],[79.76741,11.83898],[79.76741,11.83898],[79.77337,11.83664],[79.77454,11.83711],[79.77571,11.83757],[79.77337,11.83664],[79.77571,11.83757],[79.77571,11.83757],[79.77884,11.84706],[79.78066,11.84788],[79.78066,11.84788],[79.78066,11.84788],[79.78066,11.84788],[79.78236,11.85503],[79.79374,11.8534],[79.79703,11.85485],[79.80142,11.85299],[79.80142,11.85299],[79.80158,11.85269],[79.80316,11.8497],[79.80625,11.84642],[79.80931,11.84483],[79.80705,11.84159],[79.80705,11.84159],[79.80705,11.84159],[79.80813,11.83409],[79.80756,11.8321],[79.80576,11.83134],[79.80311,11.83284],[79.80115,11.83394],[79.79988,11.83663],[79.79946,11.83752],[79.79914,11.83741],[79.79841,11.83715],[79.79841,11.83715],[79.79841,11.83715],[79.79795,11.83405],[79.79795,11.83405],[79.79615,11.83358],[79.79345,11.83286],[79.79345,11.83286],[79.79345,11.83286],[79.79354,11.83247],[79.79366,11.83194],[79.79588,11.83185],[79.80079,11.83004],[79.80188,11.82899],[79.79701,11.82311],[79.79638,11.82725],[79.79638,11.82725],[79.79638,11.82725],[79.79638,11.82725],[79.79638,11.82725],[79.79569,11.82778],[79.79404,11.82619],[79.79269,11.8261],[79.78906,11.82795],[79.78544,11.8311],[79.78226,11.83207],[79.78033,11.83182],[79.77423,11.82561],[79.77423,11.82561],[79.77423,11.82561],[79.77353,11.82199],[79.77353,11.82199],[79.77137,11.82219],[79.76447,11.82284],[79.76449,11.83116],[79.76449,11.83116],[79.7634,11.8325],[79.75493,11.83752],[79.73872,11.84277],[79.73872,11.84277],[79.73872,11.84277],[79.73884,11.83933],[79.73424,11.83957],[79.73093,11.83813],[79.7302,11.8378],[79.73012,11.83771],[79.72931,11.83673],[79.72931,11.83673],[79.72931,11.83673],[79.73273,11.83329],[79.73159,11.82418],[79.73159,11.82418],[79.73159,11.82418],[79.73292,11.82248],[79.73342,11.82185],[79.73298,11.81313],[79.73298,11.81313],[79.73298,11.81313],[79.73298,11.81313],[79.73298,11.81313],[79.73377,11.81212],[79.73652,11.80859],[79.73336,11.80819],[79.72859,11.80872],[79.72669,11.80893],[79.72669,11.80893],[79.72669,11.80893],[79.72522,11.80505],[79.72522,11.80505],[79.72522,11.80505],[79.72522,11.80505],[79.72522,11.80505],[79.72575,11.80206],[79.72369,11.80167],[79.72318,11.80158],[79.72318,11.80158],[79.72318,11.80158],[79.72318,11.80158],[79.72348,11.79848],[79.72287,11.7966],[79.71993,11.79623],[79.71838,11.79604],[79.71386,11.79376],[79.71386,11.79376],[79.71386,11.79376],[79.7125,11.7893],[79.7125,11.7893],[79.7125,11.7893],[79.7125,11.7893],[79.72086,11.78405],[79.7228,11.78557],[79.7245,11.78261],[79.72865,11.78065],[79.74178,11.77883],[79.75515,11.7742],[79.75515,11.7742],[79.75515,11.7742],[79.75689,11.77784],[79.75689,11.77784],[79.75779,11.78247],[79.76222,11.78952],[79.76345,11.79042],[79.76991,11.79043],[79.76991,11.79043],[79.77072,11.7868],[79.7701,11.78129],[79.7701,11.78129],[79.7701,11.78129],[79.7743,11.78134],[79.78086,11.77997],[79.78086,11.77997],[79.78107,11.7822],[79.78107,11.7822],[79.78366,11.784],[79.78366,11.784],[79.78366,11.784],[79.784,11.78721],[79.784,11.78721],[79.7951,11.78486],[79.7951,11.78486],[79.7951,11.78486],[79.7951,11.78486],[79.79407,11.78006],[79.79418,11.77369],[79.79314,11.75782],[79.79307,11.75642],[79.79006,11.74711],[79.78645,11.73934],[79.78599,11.73887],[79.78484,11.73816],[79.78416,11.73837],[79.78163,11.7382],[79.78078,11.73959],[79.77981,11.73887],[79.77651,11.74112],[79.77025,11.74534],[79.76887,11.74576],[79.76698,11.7445],[79.76707,11.74192],[79.76761,11.7411],[79.76851,11.7404],[79.77109,11.73661],[79.77626,11.733],[79.7765,11.73238],[79.78086,11.73017],[79.7827,11.72974],[79.78498,11.73044],[79.78558,11.72932],[79.78517,11.72613],[79.78481,11.72496],[79.78395,11.7218],[79.78176,11.7152],[79.77804,11.70427],[79.77628,11.69924],[79.772,11.67922],[79.76977,11.67375],[79.76747,11.66189],[79.76674,11.65604],[79.76487,11.64732],[79.76336,11.63696],[79.76153,11.62866],[79.75926,11.61258],[79.759,11.60282],[79.75845,11.57809],[79.75917,11.56578],[79.75929,11.56363],[79.75971,11.56108],[79.76085,11.55655],[79.7632,11.53753],[79.76517,11.52917],[79.76735,11.52287],[79.77039,11.51973],[79.77063,11.51884],[79.77134,11.51839],[79.77323,11.51433],[79.77601,11.5121],[79.77674,11.50985],[79.7772,11.50963],[79.77766,11.5094],[79.77886,11.50578],[79.78281,11.49586],[79.78329,11.49566],[79.78435,11.49271],[79.79059,11.47602],[79.79291,11.47403],[79.79588,11.46769],[79.7974,11.46568],[79.79941,11.46119],[79.8014,11.45826],[79.80225,11.45669],[79.8027,11.45647],[79.8035,11.45452],[79.80412,11.45398],[79.80616,11.44835],[79.80756,11.44657],[79.80803,11.44637],[79.81043,11.43935],[79.8137,11.42297],[79.81417,11.42064],[79.81,11.40957],[79.80748,11.39078],[79.80513,11.38244],[79.80227,11.37852],[79.79673,11.37368],[79.79064,11.3712],[79.78473,11.37244],[79.77853,11.37708],[79.77024,11.38169],[79.76544,11.38022],[79.76167,11.37702],[79.75867,11.37189],[79.76109,11.35624],[79.76054,11.35125],[79.73412,11.34938],[79.72885,11.34741],[79.72028,11.34203],[79.69773,11.3211],[79.6766,11.30554],[79.67014,11.30449],[79.66327,11.3046],[79.65714,11.3024],[79.6525,11.29967],[79.64634,11.29252],[79.64373,11.28275],[79.64597,11.26996],[79.64912,11.26072],[79.64972,11.25486],[79.64912,11.24976],[79.64349,11.24663],[79.63813,11.24552],[79.63261,11.24561],[79.62212,11.25451],[79.61864,11.2545],[79.61281,11.24983],[79.61112,11.23596],[79.60652,11.2249],[79.59903,11.21743],[79.59107,11.21382],[79.57186,11.20828],[79.55489,11.20062],[79.53406,11.18831],[79.53299,11.18755],[79.52517,11.18198],[79.52516,11.18199],[79.51139,11.17662],[79.50153,11.17418],[79.48222,11.1618],[79.47275,11.15804],[79.46546,11.15308],[79.45989,11.14928],[79.46142,11.15434],[79.46142,11.15434],[79.46295,11.15882],[79.4658,11.16326],[79.46729,11.16915],[79.47403,11.17312],[79.47794,11.17387],[79.48252,11.1731],[79.50542,11.20323],[79.50979,11.22143],[79.51387,11.2263],[79.50775,11.23197],[79.50723,11.23629],[79.50361,11.23881],[79.50187,11.2424],[79.4962,11.248],[79.4978,11.25705],[79.50448,11.25717],[79.50414,11.2717],[79.50304,11.27207],[79.50152,11.27508],[79.50169,11.28966],[79.4996,11.29296],[79.49954,11.29704],[79.49883,11.3036],[79.50111,11.31097],[79.50038,11.31248],[79.49755,11.31378],[79.48869,11.31565],[79.48255,11.31391],[79.47662,11.31325],[79.47313,11.3171],[79.46535,11.31785],[79.4651,11.3198],[79.46261,11.32053],[79.46095,11.32607],[79.45931,11.32535],[79.45737,11.32728],[79.45728,11.32515],[79.45617,11.32523],[79.45626,11.32718],[79.45476,11.32783],[79.45353,11.33112],[79.4521,11.33269],[79.45088,11.33243],[79.4505,11.33399],[79.44835,11.33459],[79.44761,11.33214],[79.43875,11.33331],[79.43694,11.34],[79.43484,11.34025],[79.43458,11.34141],[79.43238,11.34196],[79.43312,11.34511],[79.4343,11.34613],[79.43369,11.34768],[79.43777,11.34854],[79.43818,11.35663],[79.42959,11.35688],[79.42862,11.36195],[79.42663,11.36514],[79.42635,11.36147],[79.42308,11.36089],[79.41507,11.36192],[79.4139,11.36458],[79.41144,11.36738],[79.40606,11.35454],[79.40573,11.35546],[79.40148,11.35099],[79.39878,11.35351],[79.39503,11.35471],[79.39451,11.3662],[79.39085,11.36701],[79.39203,11.37129],[79.39496,11.37659],[79.39226,11.3787],[79.39293,11.38782],[79.39039,11.38918],[79.39206,11.39168],[79.39223,11.39902],[79.39537,11.3992],[79.3945,11.40295],[79.38974,11.40348],[79.38897,11.40568],[79.3862,11.40739],[79.38651,11.40893],[79.38213,11.41084],[79.38057,11.40437],[79.37865,11.40382],[79.37896,11.40198],[79.37896,11.40198],[79.38014,11.40237],[79.38028,11.40064],[79.38354,11.40066],[79.38385,11.40226],[79.38554,11.40228],[79.38563,11.40068],[79.38488,11.40098],[79.38523,11.39718],[79.38365,11.39697],[79.38338,11.39813],[79.37421,11.39873],[79.37392,11.40304],[79.37562,11.40358],[79.37529,11.40497],[79.37832,11.40532],[79.37881,11.41095],[79.37543,11.41404],[79.37424,11.41607],[79.37005,11.41923],[79.36597,11.41889],[79.35923,11.41859],[79.35638,11.41927],[79.34651,11.41585],[79.33904,11.41833],[79.33487,11.41896],[79.32473,11.41745],[79.32232,11.41967],[79.31428,11.41819],[79.3143,11.41635],[79.30982,11.41567],[79.30134,11.41223],[79.29476,11.41211],[79.29273,11.40519],[79.2931,11.39846],[79.29574,11.38861],[79.29881,11.38075],[79.28723,11.38007],[79.28268,11.38209],[79.28207,11.38077],[79.27875,11.37979],[79.27616,11.38195],[79.27553,11.38633],[79.27553,11.38633],[79.26809,11.38603],[79.26133,11.38872],[79.25929,11.38841],[79.25929,11.38841],[79.258,11.38773],[79.25645,11.38506],[79.25387,11.37626],[79.25091,11.37274],[79.24481,11.36962],[79.24112,11.37168],[79.24058,11.37444],[79.24098,11.38133],[79.23803,11.38999],[79.23399,11.39194],[79.2298,11.39177],[79.21667,11.388],[79.20956,11.38346],[79.20321,11.38253],[79.1983,11.38024],[79.19346,11.3794],[79.18842,11.37715],[79.18088,11.37378],[79.17692,11.37343],[79.16989,11.37748],[79.16871,11.37816],[79.16357,11.38075],[79.1584,11.38112],[79.14965,11.38342],[79.14623,11.38353],[79.12462,11.39654],[79.10806,11.40114],[79.10171,11.40009],[79.09441,11.3975],[79.08172,11.39681],[79.07236,11.40091],[79.06076,11.40234],[79.05574,11.40143],[79.05238,11.4016],[79.04361,11.39851],[79.0385,11.39485],[79.03429,11.39307],[79.01585,11.39626],[79.01072,11.39921],[79.00004,11.40315],[78.99347,11.4043],[78.9837,11.39886],[78.97069,11.40201],[78.96509,11.40108],[78.96187,11.40275],[78.95868,11.40559],[78.95837,11.41027],[78.9545,11.41144],[78.94986,11.41454],[78.94709,11.41776],[78.94577,11.42176],[78.94054,11.4297],[78.92798,11.44045],[78.92519,11.44882],[78.92024,11.45093],[78.91827,11.45373],[78.91685,11.45811],[78.91028,11.46106],[78.90882,11.46568],[78.9088,11.47044],[78.90557,11.47408],[78.89014,11.48486],[78.88959,11.48878],[78.88351,11.49287],[78.88266,11.49468],[78.88001,11.50029],[78.87942,11.50096],[78.87583,11.50498],[78.87741,11.50484],[78.90514,11.50233],[78.90808,11.51227],[78.91302,11.52267],[78.91647,11.52521],[78.9179,11.5291],[78.91478,11.53133],[78.91949,11.54695],[78.92348,11.56465],[78.93033,11.56506],[78.93573,11.56447],[78.9451,11.56977],[78.94957,11.57061],[78.96209,11.57088],[78.97459,11.57422],[78.9749,11.56926],[78.99171,11.571],[78.99406,11.5749],[79.00001,11.57323],[79.00703,11.57625],[79.00882,11.58158],[79.01165,11.58169],[79.01511,11.58324],[79.01844,11.59156],[79.01584,11.59662],[79.01437,11.59847],[79.01416,11.60225],[79.01807,11.60435],[79.02451,11.60329],[79.03135,11.6012],[79.03747,11.59846],[79.04436,11.59741],[79.04765,11.59761],[79.05005,11.59484],[79.04552,11.58841],[79.04919,11.58627],[79.05514,11.58568],[79.05805,11.58822],[79.05885,11.59084],[79.06707,11.59279],[79.06778,11.59594],[79.07508,11.59752],[79.07855,11.59737],[79.0784,11.60683],[79.07456,11.60744],[79.0718,11.60958],[79.07156,11.61733],[79.07156,11.61733],[79.07043,11.62309],[79.07039,11.6294],[79.08063,11.62875],[79.08272,11.63138],[79.08591,11.63275],[79.08693,11.62978],[79.08844,11.62846],[79.09696,11.62101],[79.10186,11.6132],[79.10415,11.61159],[79.1057,11.61331],[79.10852,11.61405],[79.11475,11.61346],[79.1165,11.61158],[79.1168,11.60608],[79.12046,11.60583],[79.11731,11.59806],[79.12462,11.59919],[79.12738,11.59632],[79.13186,11.59608],[79.13656,11.59061],[79.1406,11.5882],[79.14626,11.58814],[79.149,11.58987],[79.14999,11.59231],[79.15416,11.59729],[79.16386,11.59537],[79.16926,11.59252],[79.18046,11.58672],[79.18495,11.58576],[79.19385,11.59482],[79.19409,11.60131],[79.20034,11.61126],[79.20409,11.61101],[79.20444,11.61435],[79.21063,11.61835],[79.21254,11.62106],[79.21225,11.62248],[79.21122,11.62757],[79.21127,11.63413],[79.21683,11.63839],[79.22268,11.63851],[79.22398,11.63429],[79.22656,11.63132],[79.23142,11.62901],[79.23591,11.62741],[79.23941,11.64005],[79.24907,11.6465],[79.24987,11.65011],[79.25334,11.65076],[79.25829,11.64961],[79.26342,11.64729],[79.27159,11.64202],[79.27157,11.64562],[79.27458,11.64618],[79.27907,11.64548],[79.2861,11.64804],[79.28985,11.64779],[79.2938,11.64506],[79.2971,11.64187],[79.29733,11.6343],[79.31077,11.63311],[79.31211,11.64005],[79.31347,11.64277],[79.31723,11.64152],[79.32051,11.64406],[79.32149,11.64749],[79.32926,11.64996],[79.33269,11.65872],[79.33698,11.66028],[79.34348,11.65958],[79.34586,11.65806],[79.35135,11.65728],[79.36323,11.65976],[79.36128,11.66607],[79.36126,11.67057],[79.38291,11.67869],[79.39462,11.67847],[79.39545,11.67505],[79.42027,11.66848],[79.42239,11.66425],[79.4297,11.66599],[79.43328,11.66267],[79.43675,11.66467],[79.43968,11.66522],[79.44508,11.66398],[79.44357,11.67407],[79.44335,11.6848],[79.44195,11.69029],[79.44036,11.69169],[79.43856,11.69326],[79.43597,11.69803],[79.4355,11.7028],[79.4371,11.71291],[79.43616,11.72111],[79.42916,11.73028],[79.433,11.73282],[79.43739,11.73338],[79.44114,11.73303],[79.44636,11.73116],[79.45377,11.73353],[79.46061,11.73852],[79.46343,11.74304],[79.46451,11.74827],[79.46367,11.75227],[79.46327,11.75981],[79.46363,11.76315],[79.46608,11.76685],[79.46297,11.76837],[79.45473,11.76834],[79.45199,11.76662],[79.45127,11.7631],[79.4499,11.76165],[79.44679,11.76146],[79.4412,11.76315],[79.44293,11.76704],[79.43487,11.767],[79.43576,11.77368],[79.43154,11.77592],[79.43353,11.7817],[79.43646,11.78117],[79.43845,11.78632],[79.44322,11.8078],[79.46144,11.8076],[79.46437,11.80671],[79.46541,11.79887],[79.47311,11.7979],[79.47446,11.80386],[79.48452,11.80697],[79.48414,11.80824],[79.48369,11.80974],[79.48276,11.81291],[79.4814,11.81534],[79.47824,11.82101],[79.48233,11.82915],[79.48085,11.83239],[79.47873,11.835],[79.47617,11.83544],[79.46995,11.83226],[79.47121,11.83795],[79.46973,11.84272],[79.47192,11.84435],[79.47091,11.84679],[79.45818,11.84502],[79.45589,11.84565],[79.45323,11.84753],[79.45284,11.8515],[79.45128,11.85456],[79.45399,11.86341],[79.45609,11.86585],[79.4557,11.87],[79.4644,11.87022],[79.47614,11.86864],[79.4923,11.86384],[79.49835,11.86183],[79.5153,11.85533],[79.52189,11.8568],[79.52711,11.85582],[79.53839,11.85108],[79.54335,11.84776],[79.56295,11.84015],[79.56801,11.83818],[79.57278,11.83765],[79.5811,11.84048],[79.58724,11.84094],[79.59301,11.83907],[79.59927,11.83364],[79.60472,11.82921],[79.60825,11.82693],[79.61604,11.82416],[79.61916,11.82173],[79.63643,11.79995],[79.64285,11.79771],[79.64697,11.79763],[79.65465,11.8017],[79.66168,11.80849],[79.66498,11.80967],[79.66873,11.80949],[79.67536,11.80626],[79.67574,11.80155],[79.69054,11.80274],[79.69054,11.80274],[79.69057,11.80745],[79.68831,11.81179],[79.68338,11.81216],[79.68656,11.82072],[79.69059,11.81965],[79.68947,11.82803],[79.68581,11.82793],[79.68562,11.83235],[79.70274,11.83122],[79.69879,11.8396],[79.69576,11.8432],[79.69545,11.85944],[79.69178,11.86205],[79.69003,11.86691],[79.69,11.87986],[79.68999,11.88162],[79.68942,11.88247],[79.68823,11.88424],[79.68905,11.88418],[79.68905,11.88418],[79.69347,11.88387],[79.69477,11.88456],[79.69546,11.88492],[79.69372,11.884],[79.69347,11.88387],[79.69546,11.88492],[79.69546,11.88492]],[[79.69394,11.82106],[79.69333,11.81275],[79.69333,11.81275],[79.70398,11.81205],[79.70398,11.81205],[79.70398,11.81205],[79.70173,11.82025],[79.69394,11.82106]]],[[[79.77109,11.90091],[79.77439,11.90344],[79.78147,11.90178],[79.78388,11.8984],[79.78996,11.89538],[79.78996,11.89538],[79.79763,11.89749],[79.79776,11.89347],[79.79649,11.88959],[79.78973,11.87575],[79.78753,11.86994],[79.7845,11.86195],[79.77998,11.86233],[79.77955,11.86237],[79.77837,11.86607],[79.77974,11.86834],[79.78066,11.87321],[79.78028,11.87556],[79.7799,11.87792],[79.7799,11.87792],[79.77968,11.87797],[79.77851,11.87823],[79.77707,11.87764],[79.77357,11.87619],[79.77394,11.88256],[79.77179,11.88288],[79.77247,11.88671],[79.77058,11.89404],[79.7724,11.899],[79.77109,11.90091]]]]}}]}