{"type":"FeatureCollection","features":[{"type":"Feature","properties":{"id":"dharmapuri","name":"Dharmapuri","stateId":"tamil-nadu","stateName":"Tamil Nadu","censuscode":630,"type":"district"},"geometry":{"type":"Polygon","coordinates":[[[78.63535,12.17519],[78.64941,12.16151],[78.64942,12.15737],[78.64473,12.14904],[78.63967,12.14663],[78.63639,12.14317],[78.63316,12.1293],[78.63565,12.12703],[78.65209,12.12784],[78.65471,12.12677],[78.65934,12.12337],[78.66029,12.12014],[78.66661,12.1127],[78.6639,12.10238],[78.67256,12.10324],[78.68588,12.10587],[78.68776,12.10683],[78.69171,12.11322],[78.7021,12.11566],[78.70572,12.11889],[78.72778,12.12738],[78.74057,12.13386],[78.74492,12.12685],[78.74729,12.12527],[78.74209,12.11775],[78.73825,12.11487],[78.73664,12.11277],[78.73794,12.10987],[78.73025,12.09974],[78.72892,12.09649],[78.7294,12.09378],[78.72627,12.09123],[78.72526,12.0824],[78.7226,12.0718],[78.71941,12.06213],[78.71027,12.04276],[78.7069,12.03177],[78.70558,12.02661],[78.70462,12.01627],[78.70183,12.00958],[78.70058,12.00035],[78.70422,11.99562],[78.69853,11.98833],[78.70104,11.98351],[78.70431,11.98074],[78.71163,11.97962],[78.71752,11.97979],[78.71138,11.96005],[78.71253,11.94567],[78.707,11.94337],[78.70727,11.93969],[78.7054,11.93376],[78.71245,11.92563],[78.71492,11.92662],[78.7205,11.92076],[78.72446,11.91535],[78.72212,11.91166],[78.71306,11.90277],[78.70862,11.89648],[78.70639,11.89039],[78.70386,11.88958],[78.69564,11.88928],[78.69303,11.89002],[78.68996,11.89342],[78.68825,11.89793],[78.6824,11.89673],[78.67131,11.89068],[78.66572,11.89063],[78.65944,11.8881],[78.65596,11.88427],[78.65527,11.87889],[78.64141,11.88175],[78.63638,11.8838],[78.63405,11.88121],[78.63648,11.87456],[78.63559,11.8713],[78.63308,11.86842],[78.62933,11.86712],[78.62698,11.86355],[78.60848,11.84566],[78.60262,11.83067],[78.60484,11.82809],[78.59608,11.81856],[78.58826,11.81534],[78.57543,11.81478],[78.56234,11.80723],[78.54251,11.80044],[78.53883,11.80286],[78.53327,11.80458],[78.52839,11.80812],[78.52318,11.8096],[78.51281,11.80671],[78.50703,11.80865],[78.5023,11.80812],[78.49655,11.8119],[78.49142,11.81407],[78.48507,11.81442],[78.47722,11.8125],[78.47472,11.81594],[78.46586,11.82065],[78.46066,11.82299],[78.45415,11.82386],[78.44196,11.83707],[78.43844,11.8446],[78.43432,11.85892],[78.4409,11.86465],[78.43759,11.8681],[78.42896,11.87045],[78.42362,11.87411],[78.41695,11.87568],[78.4089,11.87244],[78.4061,11.8725],[78.40372,11.8699],[78.40197,11.86144],[78.39668,11.85632],[78.389,11.8425],[78.38157,11.82382],[78.37611,11.81628],[78.35552,11.7925],[78.3441,11.78612],[78.32925,11.77192],[78.31402,11.77916],[78.31849,11.7843],[78.3303,11.79539],[78.34376,11.81862],[78.35124,11.83358],[78.34914,11.83345],[78.34874,11.83696],[78.35294,11.8398],[78.35269,11.84211],[78.35013,11.84227],[78.3493,11.84429],[78.35179,11.84666],[78.35625,11.85967],[78.36146,11.86364],[78.36779,11.8765],[78.36806,11.88115],[78.36644,11.88738],[78.35814,11.88593],[78.35457,11.88852],[78.36001,11.89801],[78.36037,11.90374],[78.35789,11.90816],[78.35405,11.90587],[78.34154,11.89221],[78.33677,11.89564],[78.33335,11.89375],[78.32801,11.88897],[78.31063,11.87644],[78.30885,11.87756],[78.31163,11.8825],[78.32715,11.89547],[78.32448,11.89914],[78.32577,11.90486],[78.32837,11.90951],[78.33129,11.91279],[78.33005,11.92074],[78.32747,11.92503],[78.32365,11.9235],[78.32121,11.92711],[78.3178,11.92551],[78.31389,11.92225],[78.31119,11.91834],[78.30575,11.91764],[78.30047,11.91578],[78.29934,11.91219],[78.29327,11.90863],[78.29401,11.90172],[78.29269,11.90037],[78.28991,11.90048],[78.2869,11.8991],[78.28216,11.89477],[78.27605,11.8954],[78.27509,11.89386],[78.27251,11.8934],[78.27352,11.89752],[78.27638,11.90332],[78.28101,11.91052],[78.28232,11.91441],[78.28241,11.91917],[78.28707,11.91896],[78.29083,11.92039],[78.29354,11.92482],[78.29289,11.92712],[78.2869,11.92511],[78.28416,11.92786],[78.27927,11.92772],[78.26887,11.9154],[78.26299,11.90977],[78.26249,11.91329],[78.26402,11.91773],[78.26825,11.92173],[78.269,11.9243],[78.2727,11.92905],[78.27322,11.93433],[78.26683,11.93542],[78.25634,11.93499],[78.253,11.92597],[78.24616,11.92128],[78.23909,11.91234],[78.2392,11.91768],[78.24055,11.92104],[78.24997,11.93166],[78.252,11.93966],[78.25272,11.94671],[78.25092,11.95237],[78.24705,11.95761],[78.24451,11.9646],[78.23534,11.975],[78.22333,11.97183],[78.2002,11.96927],[78.18471,11.96451],[78.1777,11.96613],[78.17343,11.96265],[78.15543,11.96292],[78.14952,11.96165],[78.14598,11.96246],[78.14147,11.96123],[78.13675,11.95856],[78.13386,11.95953],[78.12368,11.95219],[78.11993,11.95347],[78.11066,11.95065],[78.10552,11.94995],[78.09912,11.94759],[78.0983,11.94462],[78.09475,11.94462],[78.08251,11.93848],[78.08104,11.93506],[78.07795,11.93523],[78.07413,11.93323],[78.07067,11.93261],[78.06157,11.93489],[78.0523,11.93368],[78.0497,11.93137],[78.04256,11.93024],[78.03639,11.92783],[78.02875,11.91499],[78.02639,11.91376],[78.02021,11.91646],[78.01503,11.91655],[78.01156,11.91553],[78.00715,11.91027],[78.00309,11.9112],[77.9999,11.90704],[77.99094,11.90265],[77.97378,11.89254],[77.96982,11.89319],[77.96011,11.89765],[77.94279,11.89392],[77.93673,11.89743],[77.92075,11.89815],[77.90542,11.89983],[77.89943,11.90192],[77.89303,11.90738],[77.88985,11.90611],[77.88763,11.90607],[77.88513,11.90918],[77.8737,11.90935],[77.87038,11.91221],[77.86653,11.91304],[77.86259,11.9114],[77.86075,11.90695],[77.85776,11.90476],[77.85225,11.9036],[77.84685,11.89298],[77.83331,11.90062],[77.80951,11.90814],[77.79818,11.90964],[77.79308,11.91102],[77.77797,11.91215],[77.76236,11.91137],[77.75935,11.91687],[77.75307,11.92232],[77.75038,11.92605],[77.7466,11.92524],[77.74431,11.92691],[77.73971,11.93222],[77.73817,11.93689],[77.716,11.93823],[77.70046,11.94039],[77.69314,11.93932],[77.68702,11.94213],[77.68223,11.94583],[77.67594,11.94922],[77.67493,11.96246],[77.67826,11.96844],[77.68837,11.99378],[77.6922,12.00074],[77.69232,12.00074],[77.70061,12.01947],[77.70527,12.02472],[77.71269,12.03667],[77.71837,12.04281],[77.72379,12.05092],[77.72676,12.05805],[77.73151,12.0629],[77.74513,12.0698],[77.75728,12.07892],[77.76169,12.09011],[77.7675,12.10156],[77.76942,12.10401],[77.77398,12.10709],[77.77755,12.11061],[77.77961,12.11522],[77.77816,12.11875],[77.76391,12.12755],[77.75836,12.13188],[77.75528,12.13624],[77.75129,12.13884],[77.75146,12.15211],[77.75117,12.15324],[77.75592,12.16244],[77.76783,12.16556],[77.78291,12.15698],[77.79341,12.1542],[77.79614,12.17041],[77.8063,12.18968],[77.81914,12.2281],[77.84414,12.25495],[77.86355,12.25671],[77.86491,12.26556],[77.87216,12.28037],[77.87184,12.30096],[77.87601,12.32161],[77.88789,12.32767],[77.8984,12.32488],[77.92082,12.32668],[77.9402,12.33137],[77.95051,12.34182],[77.95014,12.36682],[77.96328,12.38908],[77.9735,12.40688],[77.95359,12.43749],[77.93994,12.44907],[77.92627,12.46212],[77.92612,12.47241],[77.9124,12.4884],[77.90176,12.49855],[77.90317,12.50446],[77.91962,12.50617],[77.93149,12.5137],[77.94499,12.51242],[77.94831,12.49039],[77.96029,12.49057],[77.97071,12.49513],[77.98111,12.50116],[77.99153,12.50572],[78.00815,12.49565],[78.01587,12.47957],[78.0207,12.45609],[78.04465,12.45642],[78.05203,12.46388],[78.0701,12.45677],[78.09567,12.44828],[78.11821,12.44269],[78.13046,12.42225],[78.13234,12.39432],[78.14462,12.37094],[78.16266,12.36529],[78.16887,12.34772],[78.18554,12.33175],[78.21396,12.33211],[78.23481,12.33972],[78.24242,12.32952],[78.23215,12.31321],[78.23823,12.30593],[78.25481,12.29584],[78.25939,12.28854],[78.26109,12.27239],[78.2762,12.25933],[78.30153,12.26699],[78.33449,12.26149],[78.35262,12.24553],[78.35728,12.23088],[78.36189,12.22064],[78.37977,12.22525],[78.3962,12.22691],[78.40229,12.21668],[78.38446,12.20766],[78.37866,12.19289],[78.38618,12.18857],[78.39964,12.18725],[78.42056,12.18748],[78.44148,12.18771],[78.45953,12.17761],[78.47452,12.17336],[78.46883,12.14684],[78.50324,12.1428],[78.50616,12.14871],[78.51497,12.1635],[78.52235,12.17239],[78.54462,12.18585],[78.55807,12.18599],[78.57002,12.18611],[78.57607,12.17882],[78.58068,12.1671],[78.5867,12.16275],[78.59708,12.17021],[78.61045,12.17769],[78.62539,12.17783],[78.63535,12.17519]]]}}]}