{"type":"FeatureCollection","features":[{"type":"Feature","properties":{"id":"dindigul","name":"Dindigul","stateId":"tamil-nadu","stateName":"Tamil Nadu","censuscode":612,"type":"district"},"geometry":{"type":"Polygon","coordinates":[[[78.19782,10.54686],[78.198,10.54667],[78.19216,10.54126],[78.18247,10.52091],[78.17742,10.51303],[78.17178,10.50183],[78.18081,10.50138],[78.19057,10.49644],[78.19896,10.48871],[78.20304,10.48364],[78.20024,10.48171],[78.20381,10.47837],[78.20793,10.47198],[78.21699,10.46888],[78.22425,10.46288],[78.23512,10.46831],[78.25047,10.46254],[78.25519,10.45838],[78.26612,10.45711],[78.28096,10.45192],[78.29681,10.44901],[78.30695,10.44189],[78.31214,10.44014],[78.31497,10.43829],[78.3141,10.43044],[78.3092,10.42502],[78.30893,10.41327],[78.30658,10.40847],[78.29941,10.40405],[78.29373,10.40168],[78.28874,10.40108],[78.2879,10.38905],[78.27966,10.38721],[78.27811,10.38091],[78.28044,10.37585],[78.28144,10.36983],[78.2864,10.3679],[78.29144,10.3603],[78.29629,10.35878],[78.30497,10.35042],[78.31157,10.3498],[78.31803,10.3481],[78.32181,10.34314],[78.32449,10.33808],[78.32968,10.3357],[78.33474,10.33079],[78.33772,10.32567],[78.33661,10.31117],[78.3341,10.2999],[78.33228,10.29475],[78.33561,10.29094],[78.33524,10.28791],[78.33106,10.28685],[78.32825,10.28434],[78.32797,10.27758],[78.32917,10.27511],[78.32867,10.27133],[78.33039,10.26839],[78.33006,10.26335],[78.3273,10.25964],[78.3279,10.25448],[78.33115,10.2493],[78.33147,10.24488],[78.32953,10.24117],[78.32736,10.23877],[78.3271,10.23465],[78.32897,10.2297],[78.32887,10.22581],[78.32084,10.21348],[78.31576,10.20847],[78.30004,10.19584],[78.27874,10.18222],[78.26601,10.17513],[78.26169,10.16932],[78.25761,10.16642],[78.25603,10.1627],[78.25942,10.16022],[78.27698,10.16446],[78.28126,10.16392],[78.28284,10.15921],[78.28413,10.14819],[78.28132,10.13646],[78.28074,10.13027],[78.27293,10.13003],[78.27192,10.12649],[78.27367,10.12126],[78.27223,10.1145],[78.27046,10.10907],[78.26629,10.10864],[78.26402,10.10533],[78.26161,10.09949],[78.26196,10.09301],[78.25977,10.08552],[78.24749,10.08439],[78.24034,10.0787],[78.22632,10.07833],[78.21604,10.07513],[78.21214,10.06449],[78.20178,10.06971],[78.20413,10.0787],[78.1923,10.08393],[78.17874,10.09221],[78.17035,10.09203],[78.16972,10.09456],[78.17048,10.09805],[78.16918,10.10139],[78.16551,10.10261],[78.16268,10.10624],[78.16049,10.11061],[78.1607,10.11428],[78.16497,10.1252],[78.16356,10.14023],[78.15826,10.14341],[78.15881,10.1484],[78.15764,10.15471],[78.15302,10.16488],[78.14974,10.17447],[78.14619,10.17862],[78.14153,10.18243],[78.1301,10.18663],[78.12519,10.18694],[78.12153,10.18892],[78.11625,10.18516],[78.10751,10.18373],[78.07295,10.18267],[78.072,10.17854],[78.05483,10.17921],[78.03497,10.17801],[78.03047,10.17929],[78.0248,10.17056],[78.02001,10.16479],[78.01911,10.15964],[78.00012,10.15904],[77.99391,10.15159],[77.98883,10.14245],[77.97886,10.13345],[77.97477,10.13118],[77.96985,10.13159],[77.96687,10.13268],[77.95282,10.14021],[77.94776,10.13344],[77.95069,10.13207],[77.9552,10.13221],[77.95467,10.12851],[77.95088,10.12737],[77.94866,10.12053],[77.94594,10.11712],[77.94266,10.11524],[77.94203,10.10953],[77.93712,10.10674],[77.93724,10.09826],[77.93811,10.09535],[77.9448,10.09436],[77.94784,10.09043],[77.93997,10.08993],[77.93891,10.08614],[77.91988,10.08296],[77.9204,10.08019],[77.92247,10.07688],[77.92034,10.07422],[77.91146,10.07559],[77.90808,10.07399],[77.90584,10.06904],[77.90139,10.069],[77.89542,10.0717],[77.8921,10.07027],[77.88937,10.06699],[77.88543,10.06632],[77.88256,10.06471],[77.87672,10.05905],[77.87169,10.06833],[77.8667,10.07318],[77.86083,10.0749],[77.85471,10.07519],[77.8391,10.07262],[77.8302,10.07049],[77.82354,10.06666],[77.81465,10.0674],[77.80838,10.06637],[77.8025,10.06436],[77.79776,10.0614],[77.79585,10.05811],[77.79244,10.05531],[77.78221,10.04976],[77.77582,10.05126],[77.76416,10.05544],[77.75983,10.04961],[77.7626,10.04635],[77.75985,10.04508],[77.75368,10.04605],[77.75018,10.04405],[77.74224,10.03422],[77.72322,10.02235],[77.72117,10.01792],[77.71103,10.02023],[77.71103,10.02023],[77.71217,10.03116],[77.70622,10.03443],[77.70666,10.03976],[77.7118,10.0423],[77.71336,10.04497],[77.70988,10.04738],[77.71016,10.05621],[77.70886,10.06066],[77.70805,10.06962],[77.70843,10.07455],[77.7096,10.07854],[77.70793,10.08121],[77.69945,10.08573],[77.70093,10.09672],[77.70058,10.10269],[77.6952,10.10893],[77.68909,10.11266],[77.67504,10.11642],[77.6751,10.11957],[77.66699,10.1215],[77.66988,10.12443],[77.67482,10.12577],[77.67317,10.13957],[77.6735,10.14421],[77.69115,10.14451],[77.69228,10.14013],[77.69613,10.13593],[77.70097,10.13515],[77.70906,10.12841],[77.71367,10.12763],[77.71682,10.12878],[77.7214,10.133],[77.72699,10.12894],[77.72947,10.13136],[77.72561,10.13539],[77.72379,10.13944],[77.72362,10.14856],[77.72469,10.15359],[77.72901,10.15552],[77.72815,10.15892],[77.7227,10.16103],[77.7222,10.16528],[77.71674,10.16688],[77.7095,10.17602],[77.70536,10.18011],[77.70092,10.19012],[77.70095,10.19493],[77.70534,10.19715],[77.70286,10.20041],[77.70541,10.20122],[77.70616,10.2039],[77.70951,10.20642],[77.70293,10.21377],[77.70179,10.20806],[77.69752,10.20601],[77.69802,10.2021],[77.69465,10.19769],[77.69172,10.19602],[77.68509,10.20045],[77.68215,10.19769],[77.67939,10.19837],[77.67784,10.19639],[77.67025,10.19573],[77.66765,10.18993],[77.66508,10.18866],[77.6614,10.18976],[77.65861,10.18912],[77.65696,10.19041],[77.65642,10.19243],[77.65402,10.19454],[77.65159,10.19435],[77.64971,10.19565],[77.64888,10.1979],[77.64551,10.20003],[77.64374,10.20419],[77.64034,10.2023],[77.63637,10.20611],[77.63104,10.20569],[77.63012,10.2088],[77.62418,10.21034],[77.62283,10.21519],[77.61615,10.21107],[77.61154,10.21184],[77.60936,10.2101],[77.60468,10.2037],[77.59535,10.20312],[77.59439,10.20108],[77.60192,10.19864],[77.59618,10.19221],[77.59284,10.18952],[77.5906,10.19306],[77.58833,10.1931],[77.58759,10.19042],[77.58449,10.18864],[77.58066,10.18796],[77.57487,10.18422],[77.5723,10.18031],[77.56852,10.17952],[77.56829,10.18566],[77.56685,10.18878],[77.56811,10.19129],[77.56371,10.19469],[77.5622,10.19684],[77.55773,10.19629],[77.55422,10.1975],[77.55125,10.19951],[77.55015,10.2028],[77.54768,10.20296],[77.54591,10.19817],[77.54981,10.19362],[77.55107,10.18941],[77.54899,10.18962],[77.5467,10.19127],[77.54428,10.19149],[77.54422,10.18845],[77.54666,10.18559],[77.54689,10.18278],[77.54604,10.18027],[77.54219,10.18177],[77.53782,10.18638],[77.53669,10.17872],[77.52359,10.17407],[77.52669,10.1727],[77.51314,10.15946],[77.50513,10.15828],[77.50042,10.16026],[77.49717,10.15602],[77.49529,10.15456],[77.48946,10.1456],[77.4863,10.14738],[77.48446,10.15097],[77.48103,10.14999],[77.48103,10.14695],[77.47433,10.14443],[77.47207,10.14115],[77.46812,10.14311],[77.46645,10.14033],[77.46944,10.13626],[77.46471,10.12751],[77.45282,10.13191],[77.44855,10.13273],[77.44187,10.1309],[77.43706,10.13047],[77.42402,10.1354],[77.41736,10.13839],[77.41102,10.14275],[77.40918,10.14634],[77.40786,10.15399],[77.39447,10.1587],[77.39254,10.15409],[77.38697,10.14673],[77.38332,10.14335],[77.37192,10.13638],[77.366,10.14469],[77.36187,10.14694],[77.35255,10.14366],[77.34928,10.13844],[77.34333,10.13223],[77.33469,10.13754],[77.33042,10.13836],[77.32533,10.12904],[77.32492,10.12509],[77.31403,10.134],[77.30416,10.13498],[77.29902,10.13231],[77.29035,10.12311],[77.28662,10.12461],[77.28418,10.12385],[77.28351,10.116],[77.27457,10.1169],[77.26763,10.12052],[77.26934,10.12542],[77.27413,10.12821],[77.27534,10.13783],[77.27445,10.13979],[77.27188,10.14133],[77.27172,10.145],[77.27389,10.15036],[77.27339,10.16448],[77.27862,10.18888],[77.28362,10.19626],[77.28554,10.20322],[77.28385,10.20595],[77.28716,10.20692],[77.28804,10.21064],[77.29039,10.21283],[77.29323,10.21319],[77.29462,10.21643],[77.28895,10.22973],[77.29698,10.25093],[77.29871,10.25096],[77.30217,10.24717],[77.30368,10.24421],[77.30347,10.24238],[77.30905,10.24395],[77.32565,10.26231],[77.32513,10.26593],[77.32553,10.27189],[77.33462,10.26536],[77.34304,10.26057],[77.34464,10.26284],[77.34782,10.26261],[77.35049,10.27581],[77.3483,10.28004],[77.3468,10.28942],[77.34501,10.29323],[77.34229,10.29328],[77.34161,10.29737],[77.34206,10.29942],[77.33928,10.30326],[77.32939,10.30923],[77.32918,10.31405],[77.3262,10.31915],[77.32729,10.32475],[77.33396,10.33209],[77.33042,10.33428],[77.32988,10.34025],[77.33463,10.34671],[77.33608,10.35334],[77.31498,10.35497],[77.31372,10.36205],[77.31507,10.38922],[77.31742,10.39738],[77.31705,10.4026],[77.32092,10.42118],[77.32321,10.42665],[77.32086,10.43409],[77.32716,10.43358],[77.32714,10.43576],[77.32496,10.43654],[77.32633,10.43887],[77.3245,10.44022],[77.32658,10.44352],[77.32413,10.44574],[77.32467,10.44963],[77.32785,10.4525],[77.33357,10.45521],[77.34072,10.45348],[77.34357,10.45412],[77.34729,10.44837],[77.35303,10.44564],[77.35969,10.44592],[77.37549,10.44892],[77.385,10.44926],[77.3837,10.46099],[77.38616,10.46244],[77.38465,10.47836],[77.38346,10.48268],[77.37977,10.48688],[77.38037,10.49094],[77.38321,10.4945],[77.39001,10.49593],[77.3927,10.49428],[77.39667,10.49914],[77.40065,10.49827],[77.40383,10.51066],[77.40508,10.52211],[77.3881,10.52442],[77.37808,10.52482],[77.37631,10.52944],[77.37179,10.53205],[77.36907,10.53588],[77.36776,10.5433],[77.36918,10.54775],[77.37459,10.55236],[77.37855,10.56629],[77.37983,10.57355],[77.3813,10.57748],[77.38426,10.58093],[77.38407,10.58656],[77.38502,10.59061],[77.38764,10.5951],[77.39103,10.59688],[77.39492,10.59715],[77.39555,10.59972],[77.39428,10.6033],[77.40178,10.6112],[77.40524,10.61349],[77.40988,10.61404],[77.41352,10.61633],[77.4175,10.62515],[77.42768,10.62761],[77.43274,10.63131],[77.44073,10.6279],[77.44723,10.62858],[77.45065,10.63529],[77.45519,10.63997],[77.46207,10.64191],[77.46943,10.64213],[77.47485,10.64375],[77.47765,10.64806],[77.48166,10.64897],[77.48561,10.64603],[77.49018,10.64617],[77.50146,10.64213],[77.50338,10.639],[77.50373,10.63308],[77.51024,10.62471],[77.50893,10.61974],[77.51334,10.61685],[77.51543,10.61423],[77.51665,10.61088],[77.51261,10.61193],[77.50815,10.61149],[77.50749,10.60715],[77.50971,10.60544],[77.52245,10.60527],[77.52702,10.60777],[77.53293,10.60503],[77.53992,10.60679],[77.54366,10.61189],[77.54561,10.62321],[77.54782,10.62661],[77.54854,10.63429],[77.57232,10.65726],[77.57507,10.66484],[77.57929,10.67096],[77.58325,10.67519],[77.58022,10.67697],[77.58519,10.68215],[77.58927,10.6807],[77.59256,10.67692],[77.59663,10.67466],[77.61236,10.67289],[77.63041,10.66848],[77.64001,10.66756],[77.65594,10.67358],[77.66256,10.70191],[77.66244,10.70782],[77.66454,10.71467],[77.66915,10.71636],[77.6709,10.71983],[77.68075,10.72579],[77.68871,10.72954],[77.68953,10.73343],[77.6978,10.73258],[77.7021,10.72998],[77.70656,10.71802],[77.70861,10.70737],[77.70583,10.70077],[77.70603,10.69606],[77.70691,10.6914],[77.70973,10.68699],[77.70884,10.6827],[77.70466,10.6763],[77.70169,10.67538],[77.70092,10.67166],[77.7017,10.66706],[77.69928,10.66492],[77.70136,10.65846],[77.70705,10.65239],[77.7147,10.64095],[77.7227,10.64114],[77.71877,10.63559],[77.71968,10.63185],[77.72382,10.62999],[77.72978,10.62988],[77.74336,10.63709],[77.74639,10.64093],[77.75584,10.64976],[77.75245,10.66348],[77.75304,10.66742],[77.75548,10.67025],[77.75832,10.67071],[77.76219,10.67007],[77.76705,10.6756],[77.76786,10.67862],[77.77712,10.68109],[77.78215,10.68363],[77.78907,10.68436],[77.80918,10.679],[77.81669,10.68075],[77.81828,10.67636],[77.81702,10.67105],[77.81522,10.64957],[77.81372,10.64736],[77.82396,10.64034],[77.8268,10.63512],[77.83102,10.63154],[77.84131,10.63347],[77.84889,10.63889],[77.85291,10.6367],[77.87318,10.63063],[77.8755,10.63858],[77.8788,10.64414],[77.88482,10.65001],[77.89204,10.64586],[77.89687,10.64405],[77.90067,10.64886],[77.90924,10.65444],[77.91462,10.64517],[77.92363,10.64614],[77.92964,10.64591],[77.93385,10.64239],[77.93967,10.64032],[77.94906,10.64069],[77.95264,10.63683],[77.97965,10.63775],[77.97898,10.64506],[77.97691,10.65117],[77.97343,10.65678],[77.9716,10.66965],[77.97357,10.67254],[77.98249,10.67195],[77.99143,10.66963],[77.99636,10.67086],[77.99997,10.67268],[78.00751,10.67383],[78.00837,10.68076],[78.01021,10.68722],[78.0114,10.70097],[78.01086,10.70677],[78.01645,10.7178],[78.01049,10.72058],[78.01315,10.72779],[77.99995,10.72819],[77.99734,10.73004],[77.99562,10.73321],[77.99744,10.74133],[77.98833,10.74073],[77.97831,10.74195],[77.95176,10.74148],[77.93233,10.73474],[77.93021,10.73909],[77.93149,10.7484],[77.93081,10.75157],[77.9367,10.75922],[77.9396,10.7655],[77.96297,10.76006],[77.97393,10.76302],[77.98528,10.75948],[77.98972,10.76126],[77.99526,10.76242],[77.99646,10.76824],[77.99993,10.77264],[78.01781,10.77345],[78.02487,10.7718],[78.02592,10.77329],[78.02357,10.77588],[78.02457,10.77782],[78.0289,10.77648],[78.02945,10.78014],[78.03397,10.78012],[78.03365,10.77554],[78.04204,10.77388],[78.04282,10.77766],[78.04995,10.77642],[78.04911,10.77373],[78.05096,10.77315],[78.05224,10.77406],[78.05363,10.77347],[78.05299,10.77182],[78.05634,10.77082],[78.0552,10.76584],[78.05779,10.76279],[78.05936,10.76295],[78.061,10.76615],[78.06738,10.76629],[78.07008,10.77269],[78.07253,10.77503],[78.086,10.77088],[78.09807,10.76457],[78.10096,10.77802],[78.09738,10.78079],[78.09725,10.78669],[78.10413,10.79932],[78.10636,10.80492],[78.13302,10.80265],[78.14223,10.80311],[78.14944,10.80507],[78.15221,10.82019],[78.15422,10.82511],[78.15915,10.82634],[78.15866,10.83121],[78.16906,10.83316],[78.1698,10.83057],[78.17143,10.83228],[78.17265,10.83227],[78.17324,10.83399],[78.17678,10.83374],[78.17681,10.8315],[78.17547,10.82968],[78.17838,10.82336],[78.18094,10.82449],[78.18203,10.83055],[78.18574,10.83122],[78.18607,10.82933],[78.18524,10.82618],[78.18248,10.82144],[78.18651,10.81929],[78.17305,10.80218],[78.17062,10.79406],[78.16869,10.77653],[78.1605,10.758],[78.15518,10.74394],[78.15349,10.73449],[78.15587,10.72634],[78.15502,10.71408],[78.15314,10.70279],[78.14941,10.6913],[78.14755,10.68236],[78.14654,10.67102],[78.14746,10.66219],[78.14634,10.65148],[78.15258,10.64915],[78.16446,10.64896],[78.16103,10.63958],[78.16057,10.63248],[78.16599,10.6137],[78.16191,10.6104],[78.14495,10.60408],[78.13844,10.59942],[78.13565,10.5913],[78.13516,10.57915],[78.13373,10.57308],[78.13926,10.56938],[78.14149,10.56472],[78.14708,10.56165],[78.15226,10.56477],[78.16328,10.55938],[78.17078,10.55371],[78.17407,10.55398],[78.18041,10.55721],[78.18891,10.55624],[78.19782,10.54686]]]}}]}