{"type":"FeatureCollection","features":[{"type":"Feature","properties":{"id":"kancheepuram","name":"Kancheepuram","stateId":"tamil-nadu","stateName":"Tamil Nadu","censuscode":604,"type":"district"},"geometry":{"type":"Polygon","coordinates":[[[80.09392,13.13565],[80.10326,13.1331],[80.11287,13.1321],[80.11952,13.1243],[80.12367,13.1157],[80.12662,13.10763],[80.12772,13.10038],[80.12707,13.09468],[80.12291,13.09178],[80.12595,13.07801],[80.12569,13.06674],[80.12482,13.06017],[80.13184,13.0579],[80.13063,13.05074],[80.14135,13.05182],[80.14126,13.04838],[80.14855,13.04122],[80.15076,13.03732],[80.14669,13.03696],[80.14835,13.03026],[80.16165,13.03088],[80.16285,13.02762],[80.16636,13.0268],[80.16729,13.03087],[80.17301,13.02978],[80.1798,13.02768],[80.18446,13.02623],[80.18548,13.02487],[80.18982,13.02532],[80.18983,13.02533],[80.18985,13.0253],[80.20159,13.02859],[80.20445,13.02821],[80.20456,13.0282],[80.20255,13.02467],[80.20183,13.02136],[80.20117,13.02106],[80.20069,13.01543],[80.21289,13.00664],[80.21231,13.00291],[80.2119,13.00253],[80.21066,13.00028],[80.21024,12.99938],[80.21092,12.99763],[80.21266,12.9962],[80.21498,12.99449],[80.21991,12.99249],[80.2231,12.99249],[80.23093,12.9902],[80.23934,12.98933],[80.2434,12.99018],[80.24718,12.9933],[80.25124,12.99301],[80.25501,12.99443],[80.25908,12.99527],[80.26343,12.99498],[80.27184,12.99525],[80.27326,12.99475],[80.27074,12.98094],[80.26819,12.97092],[80.26635,12.96365],[80.26503,12.95843],[80.26354,12.94864],[80.26022,12.93728],[80.25804,12.91979],[80.25549,12.90208],[80.25365,12.89248],[80.25179,12.87753],[80.25113,12.85592],[80.25105,12.85282],[80.2507,12.84033],[80.24684,12.80059],[80.24716,12.79333],[80.24973,12.79223],[80.25228,12.78976],[80.25475,12.7826],[80.25507,12.78164],[80.25554,12.78142],[80.2549,12.77323],[80.25387,12.76688],[80.25331,12.7662],[80.25298,12.76461],[80.24592,12.74977],[80.24482,12.74614],[80.24104,12.73672],[80.2404,12.73523],[80.23655,12.72608],[80.23182,12.71015],[80.23036,12.70695],[80.22814,12.6999],[80.22691,12.69783],[80.22646,12.6976],[80.22494,12.69214],[80.22376,12.68779],[80.22231,12.68249],[80.22205,12.68154],[80.22189,12.68108],[80.21927,12.67529],[80.21849,12.6721],[80.21607,12.66437],[80.20753,12.64226],[80.20321,12.62722],[80.20087,12.62222],[80.1963,12.60356],[80.19153,12.59085],[80.19062,12.58628],[80.18938,12.58101],[80.18752,12.5717],[80.1837,12.56324],[80.18288,12.55825],[80.18207,12.55597],[80.17996,12.55163],[80.17522,12.54409],[80.17468,12.54204],[80.17055,12.53268],[80.1685,12.53063],[80.16383,12.51717],[80.16293,12.50846],[80.16363,12.50199],[80.16437,12.49541],[80.16382,12.47823],[80.16327,12.47552],[80.16253,12.47181],[80.16243,12.47068],[80.15946,12.4688],[80.15184,12.47008],[80.1493,12.46958],[80.15046,12.46144],[80.14991,12.45938],[80.14924,12.45891],[80.14552,12.46004],[80.14153,12.45937],[80.14043,12.45774],[80.14053,12.45585],[80.14117,12.45524],[80.14163,12.45501],[80.14247,12.45417],[80.14346,12.45324],[80.14347,12.45278],[80.14519,12.45184],[80.14603,12.45051],[80.14887,12.44818],[80.14398,12.44491],[80.13887,12.4474],[80.13778,12.44795],[80.13694,12.44834],[80.13425,12.44798],[80.13106,12.44709],[80.13284,12.4434],[80.13431,12.44035],[80.13872,12.43657],[80.13908,12.43521],[80.13824,12.43246],[80.13736,12.43127],[80.1313,12.42308],[80.12881,12.42079],[80.12824,12.41965],[80.12616,12.41661],[80.12513,12.4159],[80.12486,12.41546],[80.12396,12.41399],[80.12301,12.4126],[80.12227,12.41139],[80.11443,12.40336],[80.11237,12.40013],[80.11207,12.39969],[80.10808,12.39622],[80.10483,12.39097],[80.09622,12.38157],[80.08649,12.36828],[80.08217,12.36412],[80.08021,12.36103],[80.0795,12.36],[80.07722,12.35748],[80.07675,12.35747],[80.07632,12.35657],[80.07588,12.35611],[80.06787,12.34871],[80.06746,12.34829],[80.06666,12.34693],[80.0622,12.34122],[80.06072,12.33983],[80.05695,12.3343],[80.05612,12.33311],[80.05477,12.33148],[80.05109,12.3254],[80.04979,12.32298],[80.04952,12.32252],[80.04557,12.3176],[80.04378,12.3137],[80.03947,12.3089],[80.03813,12.30593],[80.03542,12.30317],[80.03341,12.29928],[80.02955,12.29493],[80.02832,12.29286],[80.02505,12.28782],[80.02403,12.2869],[80.0237,12.28598],[80.01915,12.28207],[80.01883,12.28093],[80.01578,12.27705],[80.01403,12.27246],[80.01247,12.27048],[80.01019,12.26627],[80.00886,12.26174],[80.00479,12.25592],[79.99973,12.25745],[79.99287,12.25311],[79.98611,12.2456],[79.97858,12.23784],[79.97348,12.23474],[79.97224,12.23681],[79.96041,12.23355],[79.95529,12.23113],[79.94988,12.23602],[79.94506,12.24235],[79.9261,12.2465],[79.92503,12.23564],[79.92549,12.2299],[79.91625,12.23371],[79.90423,12.22876],[79.90011,12.22927],[79.88688,12.23716],[79.87911,12.23884],[79.87074,12.24435],[79.86538,12.25322],[79.86216,12.26252],[79.8485,12.27484],[79.84272,12.27836],[79.84349,12.28172],[79.84291,12.28907],[79.83576,12.29687],[79.83087,12.30386],[79.82981,12.30797],[79.82505,12.31049],[79.81177,12.32144],[79.81003,12.32651],[79.80336,12.32649],[79.79919,12.33625],[79.78739,12.33733],[79.78332,12.34001],[79.77214,12.33255],[79.76083,12.32725],[79.75709,12.32714],[79.75255,12.32441],[79.73788,12.32937],[79.73157,12.33079],[79.72808,12.32999],[79.718,12.336],[79.70259,12.33449],[79.70116,12.326],[79.6963,12.32425],[79.69064,12.32361],[79.68526,12.3162],[79.66985,12.31992],[79.66001,12.32582],[79.65441,12.33277],[79.65132,12.33411],[79.65062,12.33962],[79.64922,12.34302],[79.64477,12.34518],[79.64458,12.35483],[79.64654,12.35943],[79.65243,12.36031],[79.66317,12.36506],[79.66778,12.37119],[79.66113,12.37799],[79.66356,12.38261],[79.68795,12.39847],[79.69644,12.39822],[79.69852,12.40852],[79.69278,12.41047],[79.68974,12.41388],[79.69068,12.41764],[79.70562,12.41333],[79.70724,12.41821],[79.70616,12.42639],[79.70447,12.42973],[79.70878,12.43049],[79.71526,12.42748],[79.71734,12.43587],[79.7358,12.42777],[79.73961,12.43322],[79.74042,12.43929],[79.73329,12.44631],[79.73539,12.45028],[79.73856,12.45366],[79.74483,12.45551],[79.75,12.45499],[79.75013,12.46194],[79.74707,12.4646],[79.74697,12.48282],[79.74234,12.48463],[79.73605,12.48949],[79.73412,12.49271],[79.728,12.49201],[79.72416,12.49482],[79.72516,12.49835],[79.72767,12.50074],[79.7309,12.49859],[79.73674,12.49722],[79.73896,12.49534],[79.74001,12.49916],[79.74374,12.50198],[79.75228,12.50396],[79.75309,12.50796],[79.75691,12.51157],[79.75676,12.51812],[79.75187,12.52469],[79.74554,12.53171],[79.73612,12.5395],[79.71731,12.54903],[79.72111,12.55869],[79.72149,12.56537],[79.71504,12.56758],[79.70998,12.56794],[79.70731,12.57114],[79.71703,12.57696],[79.71839,12.58016],[79.72431,12.57804],[79.72827,12.5788],[79.72854,12.58346],[79.72577,12.58762],[79.70639,12.59496],[79.70052,12.59346],[79.69766,12.59831],[79.69192,12.60038],[79.68622,12.59716],[79.6813,12.59718],[79.67722,12.59446],[79.67055,12.59219],[79.66424,12.59567],[79.66263,12.59821],[79.65839,12.59917],[79.65407,12.60231],[79.65018,12.60121],[79.64563,12.60998],[79.64697,12.61945],[79.64696,12.62497],[79.64434,12.62661],[79.63881,12.62551],[79.63866,12.62821],[79.63372,12.63105],[79.63657,12.64447],[79.6406,12.65407],[79.64367,12.65698],[79.64849,12.66771],[79.65892,12.66987],[79.67114,12.66674],[79.6843,12.66755],[79.70691,12.67542],[79.7273,12.68496],[79.73861,12.68846],[79.7452,12.69361],[79.74675,12.69819],[79.74549,12.70103],[79.73732,12.6998],[79.73533,12.7017],[79.73839,12.70512],[79.7396,12.70941],[79.73905,12.71583],[79.73476,12.72018],[79.72599,12.72296],[79.71768,12.72253],[79.71562,12.72667],[79.72066,12.72865],[79.73105,12.7299],[79.74182,12.73229],[79.7449,12.73652],[79.74654,12.74278],[79.7423,12.74701],[79.73472,12.75126],[79.72884,12.75557],[79.71189,12.75798],[79.71066,12.76162],[79.71,12.76941],[79.71132,12.77612],[79.70704,12.77972],[79.70259,12.77568],[79.69439,12.77945],[79.68831,12.78443],[79.67861,12.79091],[79.66986,12.78386],[79.67288,12.7774],[79.65936,12.77463],[79.66133,12.77015],[79.65654,12.7638],[79.65308,12.76777],[79.6495,12.77352],[79.65009,12.78239],[79.63945,12.78533],[79.63797,12.78759],[79.64138,12.79108],[79.64417,12.79738],[79.64468,12.80739],[79.63994,12.81631],[79.63214,12.82004],[79.62264,12.82216],[79.61287,12.8268],[79.59677,12.8298],[79.5881,12.83361],[79.58259,12.84074],[79.56038,12.84958],[79.5604,12.84959],[79.5652,12.85295],[79.56773,12.85636],[79.56732,12.86158],[79.56334,12.86898],[79.55967,12.87363],[79.56081,12.8804],[79.56626,12.88602],[79.57298,12.89944],[79.58332,12.90069],[79.59269,12.90304],[79.60307,12.90705],[79.61304,12.90867],[79.62178,12.91222],[79.6393,12.92218],[79.66205,12.92961],[79.66087,12.94824],[79.68033,12.95596],[79.68268,12.96],[79.69065,12.96743],[79.70637,12.97514],[79.72636,12.98087],[79.73485,12.98498],[79.74255,12.99206],[79.7501,13.00031],[79.76068,13.0104],[79.77011,13.01599],[79.78551,13.02213],[79.78663,13.02212],[79.79947,13.02657],[79.80012,13.02014],[79.80225,13.0148],[79.8101,13.01681],[79.82056,13.00025],[79.82029,12.99346],[79.81559,12.99028],[79.81771,12.98684],[79.82335,12.98803],[79.82132,12.98503],[79.82328,12.96684],[79.82504,12.96331],[79.83806,12.96378],[79.83668,12.95888],[79.84711,12.95699],[79.85164,12.95492],[79.85367,12.95012],[79.86466,12.94841],[79.89568,12.94644],[79.89955,12.95695],[79.90324,12.96057],[79.9098,12.96311],[79.91238,12.96746],[79.91284,12.9729],[79.9169,12.97706],[79.90128,12.98819],[79.89454,12.99054],[79.89759,12.99471],[79.9022,12.99462],[79.90839,13.00015],[79.91291,13.00314],[79.91587,12.9987],[79.92945,12.99074],[79.9385,12.99301],[79.9409,12.99473],[79.94357,13.00008],[79.94431,13.00306],[79.94385,13.00696],[79.93239,13.01203],[79.92436,13.01447],[79.92241,13.01917],[79.91613,13.016],[79.91142,13.01645],[79.90524,13.01491],[79.90385,13.02134],[79.90375,13.02967],[79.89811,13.03446],[79.9041,13.05077],[79.91501,13.04797],[79.92194,13.04806],[79.92157,13.03729],[79.92601,13.03512],[79.93555,13.0336],[79.94633,13.0334],[79.96277,13.03966],[79.97127,13.03821],[79.97275,13.03957],[79.97155,13.04355],[79.97145,13.04736],[79.977,13.05297],[79.98938,13.05687],[79.99307,13.0518],[79.983,13.04781],[79.97903,13.03993],[79.97912,13.03649],[79.98457,13.03269],[79.99178,13.03142],[79.99464,13.03513],[79.9966,13.04127],[79.99824,13.05189],[79.9944,13.05777],[79.99108,13.06069],[79.98753,13.06312],[79.98032,13.06538],[79.98141,13.07361],[79.98327,13.08169],[79.98752,13.08694],[79.98826,13.09129],[79.99686,13.09654],[80.00102,13.09346],[80.0036,13.09691],[80.00213,13.09999],[80.00499,13.10044],[80.011,13.10379],[80.01349,13.10741],[80.01063,13.11883],[80.01229,13.12091],[80.01719,13.12028],[80.01516,13.12617],[80.0147,13.13151],[80.0306,13.13006],[80.03855,13.13096],[80.04391,13.13314],[80.0428,13.13794],[80.05547,13.13775],[80.06027,13.13521],[80.07969,13.14254],[80.08773,13.14063],[80.09392,13.13565]]]}}]}