{"type":"FeatureCollection","features":[{"type":"Feature","properties":{"id":"kanniyakumari","name":"Kanniyakumari","stateId":"tamil-nadu","stateName":"Tamil Nadu","censuscode":629,"type":"district"},"geometry":{"type":"Polygon","coordinates":[[[77.5911,8.1418],[77.58924,8.14134],[77.58309,8.13733],[77.57897,8.13293],[77.57832,8.13222],[77.57161,8.12755],[77.56869,8.12613],[77.56743,8.1258],[77.56687,8.12563],[77.56673,8.12505],[77.56309,8.12169],[77.56257,8.11991],[77.56175,8.11871],[77.5617,8.11779],[77.55936,8.11183],[77.55883,8.11002],[77.55873,8.10684],[77.55911,8.10344],[77.56196,8.09656],[77.56368,8.09521],[77.5654,8.09386],[77.56612,8.09203],[77.56582,8.09017],[77.56417,8.08828],[77.55824,8.08213],[77.5556,8.07884],[77.55293,8.07785],[77.54718,8.07818],[77.53748,8.07959],[77.52788,8.08118],[77.52384,8.08127],[77.51202,8.08036],[77.50798,8.08009],[77.50461,8.08001],[77.49919,8.08082],[77.49239,8.08297],[77.48052,8.08549],[77.46663,8.08795],[77.45478,8.08907],[77.44884,8.09144],[77.44242,8.09378],[77.42163,8.09853],[77.4097,8.10335],[77.40571,8.10423],[77.40389,8.10405],[77.39855,8.1046],[77.39236,8.10651],[77.39008,8.10736],[77.38995,8.10802],[77.38917,8.1078],[77.38182,8.11148],[77.38169,8.11215],[77.37951,8.11233],[77.37374,8.11547],[77.3708,8.11776],[77.36589,8.12096],[77.36109,8.12328],[77.35856,8.12389],[77.35805,8.12395],[77.35553,8.12412],[77.35284,8.1239],[77.34901,8.12437],[77.3481,8.12411],[77.34059,8.12528],[77.33804,8.12459],[77.33787,8.12454],[77.33611,8.12338],[77.32861,8.12321],[77.31751,8.12136],[77.31036,8.12597],[77.30987,8.12732],[77.30915,8.12821],[77.30861,8.12861],[77.30698,8.13429],[77.3063,8.13473],[77.30538,8.13561],[77.30248,8.14235],[77.302,8.14257],[77.30025,8.14571],[77.29987,8.14706],[77.29702,8.14984],[77.29008,8.15511],[77.28341,8.16008],[77.27676,8.16399],[77.25048,8.17021],[77.2403,8.1779],[77.23853,8.17786],[77.2362,8.18397],[77.23572,8.18418],[77.23379,8.18917],[77.2325,8.19068],[77.23215,8.19099],[77.22736,8.19527],[77.22323,8.19796],[77.20507,8.2066],[77.19917,8.21136],[77.19349,8.21588],[77.19188,8.21674],[77.18714,8.21979],[77.18713,8.22025],[77.18367,8.22289],[77.18355,8.22335],[77.18147,8.22513],[77.17935,8.22803],[77.17748,8.23001],[77.17446,8.23289],[77.17445,8.23336],[77.17144,8.23577],[77.17052,8.23622],[77.1696,8.23732],[77.16836,8.24071],[77.16421,8.24333],[77.16031,8.2456],[77.15729,8.24681],[77.15245,8.25055],[77.14439,8.25444],[77.14324,8.2552],[77.12844,8.26585],[77.12226,8.27245],[77.11523,8.27873],[77.11405,8.27935],[77.1138,8.28001],[77.1109,8.28255],[77.10006,8.29136],[77.1038,8.29969],[77.10858,8.30498],[77.11572,8.30572],[77.11745,8.30917],[77.12389,8.30928],[77.12005,8.31933],[77.12805,8.32059],[77.13076,8.32421],[77.14118,8.3307],[77.14987,8.33202],[77.15631,8.32788],[77.16402,8.32805],[77.16908,8.32977],[77.17144,8.32731],[77.17419,8.32145],[77.17902,8.32036],[77.17903,8.32524],[77.17248,8.33351],[77.17036,8.33879],[77.1702,8.34332],[77.17607,8.35308],[77.17384,8.35928],[77.17126,8.36261],[77.16671,8.36244],[77.16072,8.35699],[77.15496,8.35349],[77.15456,8.35957],[77.1624,8.37014],[77.16035,8.37685],[77.15494,8.38036],[77.15391,8.38638],[77.15984,8.39069],[77.1649,8.3896],[77.16853,8.38334],[77.17284,8.38535],[77.18362,8.39579],[77.18621,8.40343],[77.19135,8.40969],[77.1989,8.41709],[77.19949,8.42662],[77.20174,8.43552],[77.20774,8.44281],[77.21787,8.44488],[77.22864,8.44585],[77.22933,8.45119],[77.22814,8.45882],[77.22418,8.46365],[77.21779,8.46836],[77.2136,8.47749],[77.20983,8.49632],[77.20535,8.50149],[77.21089,8.50752],[77.21745,8.51211],[77.22529,8.51262],[77.23621,8.50435],[77.24155,8.49654],[77.24656,8.49884],[77.25141,8.50417],[77.26027,8.50641],[77.26655,8.50968],[77.27147,8.52541],[77.27713,8.53649],[77.28412,8.54584],[77.28401,8.55095],[77.27861,8.55744],[77.27035,8.57938],[77.28737,8.56829],[77.29216,8.57018],[77.3089,8.56214],[77.31598,8.5596],[77.32283,8.55845],[77.3352,8.55328],[77.33934,8.5519],[77.34675,8.54644],[77.35361,8.54494],[77.35458,8.54172],[77.36033,8.54023],[77.36315,8.54149],[77.36727,8.53132],[77.3744,8.51995],[77.37791,8.518],[77.38085,8.52184],[77.38626,8.52063],[77.38971,8.52252],[77.39552,8.52097],[77.40082,8.52045],[77.40617,8.51625],[77.42492,8.51308],[77.44229,8.5037],[77.44757,8.49824],[77.44762,8.49314],[77.44905,8.48791],[77.4473,8.48108],[77.4474,8.47396],[77.4631,8.46809],[77.46793,8.4671],[77.46522,8.4628],[77.46666,8.46068],[77.47223,8.45602],[77.47181,8.45194],[77.46801,8.44655],[77.46597,8.43949],[77.46497,8.42824],[77.47139,8.41554],[77.47467,8.41365],[77.4735,8.40865],[77.47469,8.40027],[77.47825,8.39573],[77.48601,8.39233],[77.49277,8.38033],[77.49858,8.38026],[77.50843,8.38611],[77.51649,8.3838],[77.52155,8.38403],[77.53101,8.39142],[77.53521,8.39084],[77.53951,8.38762],[77.54226,8.37993],[77.53729,8.37373],[77.5364,8.36214],[77.53688,8.35888],[77.53712,8.35364],[77.54068,8.34795],[77.54015,8.3429],[77.54261,8.33819],[77.54123,8.33538],[77.53415,8.33596],[77.53453,8.327],[77.53631,8.32626],[77.53303,8.32259],[77.53238,8.3184],[77.53854,8.31678],[77.54117,8.31482],[77.5472,8.30701],[77.54994,8.30121],[77.56398,8.28012],[77.558,8.28019],[77.5561,8.27738],[77.55971,8.27301],[77.56437,8.27151],[77.56539,8.26852],[77.56291,8.26537],[77.56589,8.26181],[77.57165,8.26002],[77.57599,8.25301],[77.57759,8.24876],[77.57535,8.24681],[77.57362,8.24916],[77.56677,8.2463],[77.56091,8.24545],[77.55124,8.24535],[77.54606,8.24294],[77.54547,8.23399],[77.54706,8.22945],[77.54325,8.22578],[77.5429,8.22314],[77.54975,8.22307],[77.54727,8.21918],[77.54536,8.21413],[77.54437,8.20873],[77.54919,8.20809],[77.5489,8.20436],[77.54647,8.20098],[77.55181,8.19644],[77.55295,8.19293],[77.54425,8.18864],[77.547,8.18324],[77.53922,8.1759],[77.5404,8.16689],[77.55154,8.15826],[77.56223,8.15779],[77.57649,8.15438],[77.58362,8.15535],[77.58499,8.15196],[77.58991,8.14593],[77.5911,8.1418]]]}}]}