{"type":"FeatureCollection","features":[{"type":"Feature","properties":{"id":"krishnagiri","name":"Krishnagiri","stateId":"tamil-nadu","stateName":"Tamil Nadu","censuscode":631,"type":"district"},"geometry":{"type":"Polygon","coordinates":[[[78.63535,12.17519],[78.62539,12.17783],[78.61045,12.17769],[78.59708,12.17021],[78.5867,12.16275],[78.58068,12.1671],[78.57607,12.17882],[78.57002,12.18611],[78.55807,12.18599],[78.54462,12.18585],[78.52235,12.17239],[78.51497,12.1635],[78.50616,12.14871],[78.50324,12.1428],[78.46883,12.14684],[78.47452,12.17336],[78.45953,12.17761],[78.44148,12.18771],[78.42056,12.18748],[78.39964,12.18725],[78.38618,12.18857],[78.37866,12.19289],[78.38446,12.20766],[78.40229,12.21668],[78.3962,12.22691],[78.37977,12.22525],[78.36189,12.22064],[78.35728,12.23088],[78.35262,12.24553],[78.33449,12.26149],[78.30153,12.26699],[78.2762,12.25933],[78.26109,12.27239],[78.25939,12.28854],[78.25481,12.29584],[78.23823,12.30593],[78.23215,12.31321],[78.24242,12.32952],[78.23481,12.33972],[78.21396,12.33211],[78.18554,12.33175],[78.16887,12.34772],[78.16266,12.36529],[78.14462,12.37094],[78.13234,12.39432],[78.13046,12.42225],[78.11821,12.44269],[78.09567,12.44828],[78.0701,12.45677],[78.05203,12.46388],[78.04465,12.45642],[78.0207,12.45609],[78.01587,12.47957],[78.00815,12.49565],[77.99153,12.50572],[77.98111,12.50116],[77.97071,12.49513],[77.96029,12.49057],[77.94831,12.49039],[77.94499,12.51242],[77.93149,12.5137],[77.91962,12.50617],[77.90317,12.50446],[77.90176,12.49855],[77.9124,12.4884],[77.92612,12.47241],[77.92627,12.46212],[77.93994,12.44907],[77.95359,12.43749],[77.9735,12.40688],[77.96328,12.38908],[77.95014,12.36682],[77.95051,12.34182],[77.9402,12.33137],[77.92082,12.32668],[77.8984,12.32488],[77.88789,12.32767],[77.87601,12.32161],[77.87184,12.30096],[77.87216,12.28037],[77.86491,12.26556],[77.86355,12.25671],[77.84414,12.25495],[77.81914,12.2281],[77.8063,12.18968],[77.79614,12.17041],[77.79341,12.1542],[77.78291,12.15698],[77.76783,12.16556],[77.75592,12.16244],[77.75117,12.15324],[77.75007,12.1574],[77.74293,12.16412],[77.74004,12.16945],[77.7373,12.1768],[77.73041,12.18099],[77.72166,12.18279],[77.71212,12.18203],[77.68359,12.19075],[77.6789,12.19307],[77.66615,12.19706],[77.65534,12.19787],[77.64366,12.19568],[77.63956,12.19558],[77.63623,12.19896],[77.63199,12.20093],[77.6264,12.19901],[77.62111,12.20081],[77.61467,12.20436],[77.60713,12.20448],[77.60166,12.19973],[77.59474,12.198],[77.58004,12.1972],[77.5758,12.19957],[77.56627,12.19621],[77.55708,12.19945],[77.5489,12.20354],[77.5438,12.20288],[77.5414,12.19918],[77.53841,12.19905],[77.53481,12.19727],[77.53014,12.19768],[77.52164,12.19299],[77.50273,12.19614],[77.49272,12.19906],[77.48898,12.2029],[77.48514,12.20474],[77.47943,12.20541],[77.47583,12.21116],[77.47853,12.21909],[77.48245,12.22616],[77.4838,12.23384],[77.47687,12.24286],[77.47304,12.24463],[77.47358,12.2529],[77.47676,12.25733],[77.4773,12.26204],[77.48025,12.27073],[77.48528,12.27484],[77.48851,12.27853],[77.49431,12.27867],[77.50074,12.28196],[77.50331,12.28169],[77.50809,12.27731],[77.51221,12.27523],[77.52853,12.27849],[77.5337,12.28996],[77.54976,12.29138],[77.55294,12.29271],[77.55536,12.30169],[77.56633,12.30618],[77.57625,12.32573],[77.57883,12.33321],[77.58553,12.33529],[77.59641,12.34535],[77.60143,12.35825],[77.61047,12.36029],[77.61409,12.36283],[77.61659,12.36933],[77.61777,12.37673],[77.6201,12.38272],[77.62117,12.39472],[77.62348,12.40686],[77.626,12.41395],[77.63028,12.41755],[77.63084,12.42283],[77.62728,12.42771],[77.62709,12.43368],[77.63024,12.44714],[77.62828,12.45217],[77.6318,12.46348],[77.63528,12.48629],[77.62734,12.49451],[77.62084,12.48703],[77.60667,12.47359],[77.58531,12.47731],[77.59247,12.48524],[77.61175,12.50062],[77.61473,12.50385],[77.61634,12.50876],[77.61517,12.51229],[77.6051,12.51261],[77.58841,12.51592],[77.58971,12.52038],[77.5875,12.53236],[77.58627,12.5457],[77.58216,12.54928],[77.57982,12.56677],[77.58097,12.57238],[77.58401,12.57607],[77.5912,12.59307],[77.59185,12.61392],[77.59512,12.62076],[77.60328,12.6254],[77.60757,12.62987],[77.60457,12.63595],[77.60521,12.63926],[77.60138,12.64157],[77.59904,12.64546],[77.59763,12.6515],[77.59894,12.65705],[77.59997,12.66635],[77.6075,12.66783],[77.61912,12.67219],[77.64267,12.67901],[77.64853,12.67903],[77.66406,12.68309],[77.68013,12.68019],[77.67574,12.67332],[77.67915,12.6709],[77.67724,12.66181],[77.67767,12.65961],[77.68317,12.65941],[77.68825,12.65801],[77.69743,12.66091],[77.70539,12.66027],[77.71172,12.66728],[77.71374,12.68277],[77.72405,12.67933],[77.72409,12.67444],[77.72527,12.67207],[77.72837,12.67105],[77.73319,12.67229],[77.74141,12.67307],[77.74318,12.68097],[77.74088,12.68704],[77.73722,12.69193],[77.74351,12.70055],[77.74997,12.69764],[77.75709,12.69574],[77.76026,12.69627],[77.766,12.70617],[77.76734,12.7131],[77.77151,12.71682],[77.77303,12.72357],[77.76555,12.72466],[77.76162,12.72749],[77.76301,12.73418],[77.76831,12.7384],[77.77693,12.73873],[77.78808,12.7428],[77.79291,12.74795],[77.79495,12.75418],[77.78826,12.75698],[77.7838,12.76022],[77.78158,12.76387],[77.78155,12.76892],[77.79147,12.78013],[77.79296,12.78522],[77.79786,12.79042],[77.80347,12.79298],[77.80785,12.79204],[77.80944,12.79599],[77.80644,12.79873],[77.80128,12.80542],[77.80431,12.8149],[77.80869,12.81403],[77.81058,12.81474],[77.80858,12.82086],[77.81091,12.8299],[77.80218,12.83044],[77.79788,12.8327],[77.79339,12.8373],[77.79472,12.84285],[77.79843,12.8444],[77.79932,12.84783],[77.80179,12.84888],[77.80967,12.84691],[77.8148,12.85183],[77.81891,12.85182],[77.8235,12.85312],[77.82693,12.85807],[77.83198,12.85895],[77.83213,12.86372],[77.83549,12.86809],[77.84085,12.86697],[77.84636,12.86676],[77.84956,12.86499],[77.85402,12.86504],[77.85939,12.86701],[77.86447,12.8659],[77.86882,12.8668],[77.87215,12.86611],[77.87687,12.86781],[77.88803,12.86849],[77.89229,12.86762],[77.89749,12.87615],[77.9043,12.87747],[77.91057,12.87713],[77.91226,12.88262],[77.91939,12.88222],[77.92445,12.88282],[77.92782,12.88765],[77.93438,12.88714],[77.93913,12.88408],[77.93883,12.88074],[77.92847,12.87816],[77.92978,12.8728],[77.94371,12.87102],[77.9446,12.86538],[77.94121,12.86554],[77.93895,12.86358],[77.93794,12.8598],[77.92857,12.85668],[77.92547,12.85358],[77.92501,12.8483],[77.92197,12.84175],[77.91938,12.83134],[77.92063,12.82902],[77.92842,12.82855],[77.93095,12.82557],[77.935,12.82308],[77.9432,12.8223],[77.95012,12.83873],[77.94632,12.84317],[77.94273,12.84898],[77.94364,12.85413],[77.94878,12.85904],[77.95574,12.85869],[77.95877,12.85749],[77.95707,12.84745],[77.96158,12.84726],[77.96547,12.84811],[77.96823,12.84575],[77.96528,12.83457],[77.96774,12.83095],[77.98159,12.83209],[77.98392,12.82763],[77.98491,12.8239],[77.99169,12.8199],[77.99178,12.80513],[77.9964,12.80481],[78.00011,12.8067],[78.01189,12.80498],[78.01603,12.81281],[78.01371,12.81536],[78.00367,12.82317],[78.01024,12.82855],[78.01421,12.82747],[78.01752,12.82956],[78.01843,12.83248],[78.0175,12.83772],[78.01944,12.84321],[78.02718,12.84306],[78.02723,12.84789],[78.02471,12.85251],[78.02528,12.85543],[78.02997,12.85573],[78.03255,12.85076],[78.05045,12.84779],[78.05243,12.85168],[78.05718,12.85196],[78.06106,12.84818],[78.06186,12.84191],[78.07508,12.8398],[78.07692,12.83633],[78.07647,12.82858],[78.08424,12.83096],[78.08669,12.83018],[78.09305,12.81884],[78.09708,12.81305],[78.10578,12.80996],[78.1083,12.80568],[78.11272,12.80315],[78.12014,12.80117],[78.12519,12.79685],[78.12855,12.78969],[78.13142,12.77983],[78.13787,12.77998],[78.14729,12.77901],[78.15382,12.77651],[78.15853,12.77318],[78.16898,12.77013],[78.17701,12.77491],[78.18619,12.77325],[78.1896,12.76987],[78.19485,12.77257],[78.20116,12.77106],[78.20988,12.76509],[78.22347,12.76509],[78.23164,12.76264],[78.23028,12.75708],[78.23996,12.7303],[78.23832,12.72526],[78.23142,12.71339],[78.2249,12.71244],[78.22088,12.70933],[78.21431,12.70907],[78.21105,12.70629],[78.20713,12.70674],[78.20577,12.70532],[78.2104,12.70004],[78.20985,12.69877],[78.20053,12.69361],[78.20091,12.69136],[78.20639,12.69003],[78.2112,12.68572],[78.23924,12.68399],[78.2378,12.69027],[78.23857,12.6994],[78.24378,12.70388],[78.25021,12.70253],[78.27563,12.70205],[78.27844,12.69764],[78.29547,12.67789],[78.29833,12.66844],[78.30019,12.66685],[78.30178,12.66321],[78.3063,12.66454],[78.32014,12.66034],[78.33379,12.64758],[78.34084,12.64881],[78.3503,12.64232],[78.35986,12.6341],[78.3721,12.6256],[78.37991,12.62234],[78.38578,12.62359],[78.39774,12.62441],[78.40916,12.62416],[78.40791,12.6186],[78.40986,12.61093],[78.40982,12.60731],[78.40786,12.60112],[78.4104,12.59845],[78.41077,12.58724],[78.42048,12.56786],[78.41776,12.54928],[78.41726,12.53814],[78.41481,12.5261],[78.41777,12.52422],[78.41579,12.5158],[78.41846,12.51376],[78.42052,12.51091],[78.41714,12.49446],[78.41721,12.48595],[78.42407,12.4788],[78.42755,12.47157],[78.4338,12.4616],[78.44619,12.45184],[78.45097,12.44948],[78.4489,12.44013],[78.45484,12.42897],[78.45071,12.41804],[78.4416,12.40655],[78.44076,12.40019],[78.43649,12.39622],[78.43639,12.39305],[78.43979,12.38945],[78.4436,12.38962],[78.45973,12.38401],[78.46246,12.3861],[78.46444,12.38988],[78.46667,12.39048],[78.48316,12.3894],[78.49009,12.3866],[78.4929,12.40376],[78.49719,12.40927],[78.50253,12.40661],[78.50701,12.39903],[78.51234,12.39977],[78.51598,12.40443],[78.52016,12.40316],[78.52854,12.3988],[78.53583,12.39681],[78.54044,12.39595],[78.54501,12.39652],[78.55704,12.38963],[78.56742,12.38685],[78.5702,12.38537],[78.5709,12.38082],[78.5746,12.37319],[78.583,12.36307],[78.59228,12.35691],[78.61316,12.351],[78.61811,12.34598],[78.61659,12.34135],[78.61723,12.33732],[78.6122,12.32877],[78.60762,12.3313],[78.60363,12.32762],[78.60099,12.32283],[78.59542,12.32169],[78.59389,12.31666],[78.58972,12.31199],[78.59185,12.3095],[78.59512,12.30825],[78.60016,12.31335],[78.60518,12.31253],[78.6095,12.31115],[78.61126,12.30768],[78.61232,12.30394],[78.61182,12.29768],[78.61442,12.29523],[78.61469,12.2939],[78.61245,12.28829],[78.60886,12.28277],[78.6046,12.27122],[78.60489,12.26626],[78.607,12.26285],[78.61085,12.26164],[78.61484,12.26274],[78.61989,12.26825],[78.62615,12.26408],[78.64343,12.2819],[78.64468,12.27941],[78.64381,12.2754],[78.64157,12.27077],[78.64081,12.26561],[78.6367,12.26158],[78.65221,12.25781],[78.65223,12.25775],[78.65364,12.25095],[78.65397,12.24503],[78.65271,12.23872],[78.66325,12.23472],[78.66966,12.22952],[78.67245,12.22385],[78.67259,12.21752],[78.67,12.20853],[78.65907,12.19637],[78.6445,12.20394],[78.64195,12.19397],[78.63865,12.18717],[78.63462,12.1759],[78.63535,12.17519]]]}}]}