{"type":"FeatureCollection","features":[{"type":"Feature","properties":{"id":"madurai","name":"Madurai","stateId":"tamil-nadu","stateName":"Tamil Nadu","censuscode":623,"type":"district"},"geometry":{"type":"Polygon","coordinates":[[[78.14582,9.78354],[78.14199,9.78084],[78.1395,9.77549],[78.13885,9.76876],[78.14021,9.76076],[78.13385,9.76457],[78.12835,9.76273],[78.12773,9.76952],[78.12201,9.7754],[78.10946,9.78491],[78.10279,9.78297],[78.09967,9.77952],[78.09237,9.77936],[78.0908,9.77654],[78.09617,9.77182],[78.10445,9.76645],[78.1038,9.76127],[78.10193,9.75489],[78.09353,9.75548],[78.0852,9.75894],[78.08196,9.74847],[78.07259,9.75228],[78.06337,9.7409],[78.07498,9.73105],[78.07028,9.72398],[78.0745,9.7192],[78.07783,9.70993],[78.08101,9.70561],[78.08017,9.69537],[78.08539,9.69226],[78.08618,9.68759],[78.08941,9.68218],[78.08905,9.67545],[78.08431,9.67448],[78.0818,9.67132],[78.08395,9.66734],[78.08376,9.66217],[78.07865,9.65981],[78.06627,9.65903],[78.061,9.6599],[78.06201,9.67054],[78.04106,9.67638],[78.03224,9.65895],[78.02633,9.65833],[78.0229,9.65143],[78.01791,9.64499],[78.01552,9.63919],[78.01175,9.63907],[78.00604,9.64167],[78.00623,9.64869],[78.0034,9.64892],[78.00002,9.64616],[77.99637,9.64205],[77.99271,9.64272],[77.99057,9.64038],[77.98903,9.63638],[77.98431,9.63502],[77.9813,9.63225],[77.97537,9.6303],[77.96718,9.63447],[77.96682,9.63768],[77.9642,9.63859],[77.96433,9.64516],[77.9539,9.64815],[77.9529,9.64633],[77.95042,9.6459],[77.94923,9.64753],[77.93543,9.64826],[77.93171,9.64626],[77.92558,9.64621],[77.92248,9.63728],[77.91375,9.63712],[77.90532,9.63106],[77.903,9.62859],[77.90216,9.62466],[77.89937,9.62563],[77.89459,9.62943],[77.89249,9.63519],[77.89148,9.64184],[77.86877,9.64748],[77.84759,9.65022],[77.84376,9.63547],[77.83363,9.63558],[77.81834,9.64121],[77.81157,9.64048],[77.80715,9.64193],[77.79687,9.64843],[77.79293,9.63862],[77.79112,9.63894],[77.77622,9.64037],[77.77008,9.65058],[77.76626,9.66078],[77.77057,9.66209],[77.77039,9.6649],[77.76798,9.66629],[77.76847,9.67268],[77.76632,9.67573],[77.76518,9.67985],[77.76326,9.68055],[77.7629,9.68365],[77.76139,9.68361],[77.76051,9.68175],[77.73481,9.6919],[77.7296,9.69155],[77.72534,9.69318],[77.71108,9.70376],[77.71214,9.69597],[77.70879,9.69049],[77.70283,9.69052],[77.7007,9.69259],[77.70167,9.69808],[77.69556,9.69684],[77.69607,9.69226],[77.68566,9.68425],[77.68506,9.6778],[77.68161,9.67691],[77.67914,9.68122],[77.6694,9.67674],[77.66154,9.68126],[77.65997,9.6791],[77.65818,9.67883],[77.65692,9.68087],[77.65226,9.68179],[77.65175,9.68391],[77.65347,9.68723],[77.65165,9.69069],[77.6511,9.6943],[77.64982,9.69749],[77.64811,9.69647],[77.64657,9.69724],[77.64759,9.701],[77.64586,9.70079],[77.64425,9.70535],[77.63744,9.70203],[77.63331,9.70273],[77.63068,9.70652],[77.62471,9.70155],[77.6232,9.69933],[77.619,9.69854],[77.61712,9.69453],[77.61131,9.69784],[77.60353,9.69139],[77.60318,9.68672],[77.59979,9.68572],[77.59988,9.68405],[77.59373,9.68],[77.58665,9.66597],[77.5793,9.66833],[77.57765,9.66443],[77.57568,9.6622],[77.56896,9.66026],[77.56371,9.6572],[77.55806,9.64873],[77.55115,9.6446],[77.5447,9.64576],[77.54458,9.64846],[77.54706,9.65341],[77.54745,9.65693],[77.54414,9.65972],[77.53805,9.65751],[77.53607,9.65332],[77.53338,9.65216],[77.52752,9.64788],[77.52656,9.64418],[77.5204,9.63822],[77.5197,9.63361],[77.52086,9.63093],[77.5165,9.61208],[77.51474,9.61031],[77.51146,9.60253],[77.50789,9.60204],[77.50564,9.59946],[77.49959,9.58821],[77.50048,9.58266],[77.49894,9.57658],[77.49419,9.57216],[77.49172,9.57123],[77.48755,9.57136],[77.48545,9.56976],[77.48501,9.5663],[77.48202,9.56306],[77.47844,9.56263],[77.47844,9.5626],[77.47841,9.56264],[77.47558,9.56965],[77.46932,9.57477],[77.46433,9.57884],[77.46957,9.58655],[77.47355,9.59242],[77.47986,9.599],[77.48019,9.59934],[77.48691,9.60635],[77.48768,9.61361],[77.49959,9.6277],[77.50348,9.63231],[77.50593,9.63638],[77.50571,9.63897],[77.50357,9.64269],[77.50359,9.64627],[77.50507,9.64943],[77.51152,9.65205],[77.51987,9.65881],[77.52112,9.65887],[77.52312,9.65896],[77.52597,9.66071],[77.5305,9.66983],[77.53679,9.67611],[77.5419,9.69329],[77.54408,9.69234],[77.54611,9.69479],[77.54723,9.69812],[77.54604,9.70419],[77.55329,9.71774],[77.55439,9.72142],[77.56219,9.73509],[77.56945,9.74782],[77.57978,9.75578],[77.58366,9.75973],[77.58507,9.76116],[77.5894,9.76556],[77.59578,9.77206],[77.60036,9.77672],[77.60737,9.79402],[77.61269,9.79948],[77.61861,9.80701],[77.62428,9.82132],[77.62476,9.82252],[77.62597,9.83039],[77.6263,9.83257],[77.62787,9.83591],[77.62558,9.83757],[77.62019,9.83605],[77.61845,9.83772],[77.61908,9.84742],[77.61937,9.852],[77.61959,9.85538],[77.62262,9.8634],[77.63673,9.87259],[77.6497,9.89071],[77.64952,9.90146],[77.65063,9.90506],[77.65427,9.90906],[77.65544,9.91454],[77.65745,9.91852],[77.66654,9.91508],[77.66805,9.9117],[77.6747,9.92249],[77.67552,9.92382],[77.67614,9.92482],[77.68068,9.93439],[77.67492,9.95463],[77.6746,9.95749],[77.67439,9.95946],[77.6757,9.96181],[77.683,9.96892],[77.69323,9.96774],[77.69415,9.97734],[77.69602,9.9836],[77.69671,9.99252],[77.69712,10.00032],[77.6991,10.00636],[77.69827,10.01289],[77.70179,10.01312],[77.70256,10.01591],[77.70688,10.01679],[77.71103,10.02023],[77.71103,10.02023],[77.72117,10.01792],[77.72322,10.02235],[77.74224,10.03422],[77.75018,10.04405],[77.75368,10.04605],[77.75985,10.04508],[77.7626,10.04635],[77.75983,10.04961],[77.76416,10.05544],[77.77582,10.05126],[77.78221,10.04976],[77.79244,10.05531],[77.79585,10.05811],[77.79776,10.0614],[77.8025,10.06436],[77.80838,10.06637],[77.81465,10.0674],[77.82354,10.06666],[77.8302,10.07049],[77.8391,10.07262],[77.85471,10.07519],[77.86083,10.0749],[77.8667,10.07318],[77.87169,10.06833],[77.87672,10.05905],[77.88256,10.06471],[77.88543,10.06632],[77.88937,10.06699],[77.8921,10.07027],[77.89542,10.0717],[77.90139,10.069],[77.90584,10.06904],[77.90808,10.07399],[77.91146,10.07559],[77.92034,10.07422],[77.92247,10.07688],[77.9204,10.08019],[77.91988,10.08296],[77.93891,10.08614],[77.93997,10.08993],[77.94784,10.09043],[77.9448,10.09436],[77.93811,10.09535],[77.93724,10.09826],[77.93712,10.10674],[77.94203,10.10953],[77.94266,10.11524],[77.94594,10.11712],[77.94866,10.12053],[77.95088,10.12737],[77.95467,10.12851],[77.9552,10.13221],[77.95069,10.13207],[77.94776,10.13344],[77.95282,10.14021],[77.96687,10.13268],[77.96985,10.13159],[77.97477,10.13118],[77.97886,10.13345],[77.98883,10.14245],[77.99391,10.15159],[78.00012,10.15904],[78.01911,10.15964],[78.02001,10.16479],[78.0248,10.17056],[78.03047,10.17929],[78.03497,10.17801],[78.05483,10.17921],[78.072,10.17854],[78.07295,10.18267],[78.10751,10.18373],[78.11625,10.18516],[78.12153,10.18892],[78.12519,10.18694],[78.1301,10.18663],[78.14153,10.18243],[78.14619,10.17862],[78.14974,10.17447],[78.15302,10.16488],[78.15764,10.15471],[78.15881,10.1484],[78.15826,10.14341],[78.16356,10.14023],[78.16497,10.1252],[78.1607,10.11428],[78.16049,10.11061],[78.16268,10.10624],[78.16551,10.10261],[78.16918,10.10139],[78.17048,10.09805],[78.16972,10.09456],[78.17035,10.09203],[78.17874,10.09221],[78.1923,10.08393],[78.20413,10.0787],[78.20178,10.06971],[78.21214,10.06449],[78.21604,10.07513],[78.22632,10.07833],[78.24034,10.0787],[78.24749,10.08439],[78.25977,10.08552],[78.26196,10.09301],[78.26161,10.09949],[78.26402,10.10533],[78.26629,10.10864],[78.27046,10.10907],[78.27223,10.1145],[78.27367,10.12126],[78.27192,10.12649],[78.27293,10.13003],[78.28074,10.13027],[78.28132,10.13646],[78.28413,10.14819],[78.28284,10.15921],[78.28126,10.16392],[78.27698,10.16446],[78.25942,10.16022],[78.25603,10.1627],[78.25761,10.16642],[78.26169,10.16932],[78.26601,10.17513],[78.27874,10.18222],[78.30004,10.19584],[78.31576,10.20847],[78.32084,10.21348],[78.32887,10.22581],[78.32897,10.2297],[78.3271,10.23465],[78.32736,10.23877],[78.32953,10.24117],[78.33147,10.24488],[78.33115,10.2493],[78.3279,10.25448],[78.3273,10.25964],[78.33006,10.26335],[78.33039,10.26839],[78.32867,10.27133],[78.32917,10.27511],[78.32797,10.27758],[78.32825,10.28434],[78.33106,10.28685],[78.33524,10.28791],[78.33561,10.29094],[78.33228,10.29475],[78.3341,10.2999],[78.36489,10.29287],[78.3684,10.29818],[78.37333,10.29884],[78.37166,10.3075],[78.38058,10.30905],[78.38687,10.3023],[78.38994,10.30245],[78.38965,10.2954],[78.38679,10.29284],[78.38695,10.29072],[78.38537,10.28993],[78.38245,10.29264],[78.3811,10.29116],[78.38172,10.28852],[78.38655,10.28441],[78.38548,10.27468],[78.3828,10.27315],[78.38633,10.27163],[78.38636,10.26963],[78.3881,10.26921],[78.39148,10.27148],[78.39669,10.27179],[78.4043,10.27524],[78.40808,10.27109],[78.41481,10.27316],[78.42005,10.26951],[78.42374,10.26829],[78.42348,10.25676],[78.4091,10.25388],[78.405,10.24858],[78.39606,10.24606],[78.39498,10.2416],[78.39492,10.23449],[78.39861,10.22552],[78.40282,10.22377],[78.40771,10.22041],[78.41273,10.21253],[78.41183,10.20846],[78.40924,10.20332],[78.40568,10.19899],[78.40343,10.18754],[78.39623,10.17773],[78.39681,10.1713],[78.39903,10.16796],[78.40022,10.16457],[78.41493,10.15903],[78.41438,10.15599],[78.4097,10.15052],[78.40628,10.14366],[78.40392,10.13686],[78.41055,10.13458],[78.41609,10.13385],[78.41676,10.13081],[78.41894,10.12867],[78.42162,10.13083],[78.42706,10.13062],[78.42676,10.12363],[78.42981,10.12241],[78.43263,10.12583],[78.43341,10.12886],[78.43309,10.13288],[78.43393,10.13442],[78.44007,10.13002],[78.44296,10.12937],[78.45224,10.11882],[78.45531,10.11914],[78.46004,10.12421],[78.46316,10.12316],[78.46573,10.12016],[78.47017,10.11795],[78.47171,10.11501],[78.47121,10.11146],[78.46944,10.10763],[78.46635,10.10462],[78.45775,10.10026],[78.45817,10.0955],[78.45976,10.09102],[78.45796,10.08192],[78.46268,10.0777],[78.46132,10.06957],[78.45554,10.07012],[78.45166,10.06018],[78.44483,10.05885],[78.43908,10.0586],[78.43374,10.0568],[78.42915,10.05208],[78.42964,10.04485],[78.43163,10.04232],[78.43235,10.03658],[78.44049,10.03497],[78.44631,10.03276],[78.45003,10.0239],[78.45767,10.01663],[78.45898,10.01324],[78.46213,10.01053],[78.45912,10.00252],[78.45926,10.00041],[78.45819,9.9914],[78.45112,9.99021],[78.45042,9.98699],[78.45543,9.98174],[78.45817,9.96781],[78.43874,9.96228],[78.3944,9.95266],[78.38531,9.95464],[78.37763,9.9626],[78.37413,9.958],[78.37255,9.95007],[78.37368,9.94166],[78.37331,9.93263],[78.36299,9.93375],[78.35646,9.93819],[78.35304,9.93647],[78.34766,9.93769],[78.34029,9.93529],[78.33507,9.93082],[78.32695,9.92773],[78.31952,9.92303],[78.31447,9.89916],[78.31682,9.89173],[78.31819,9.88229],[78.31586,9.87954],[78.31567,9.87373],[78.31428,9.87085],[78.31345,9.8651],[78.29942,9.86087],[78.29392,9.86307],[78.28919,9.86918],[78.28201,9.86885],[78.27865,9.87041],[78.27558,9.8684],[78.25358,9.8723],[78.26501,9.85685],[78.26881,9.84856],[78.2637,9.84644],[78.25991,9.83397],[78.25279,9.83484],[78.24649,9.839],[78.2402,9.84614],[78.24769,9.85827],[78.23595,9.86157],[78.23045,9.86411],[78.22645,9.86113],[78.22391,9.8643],[78.21136,9.87186],[78.20389,9.87469],[78.2007,9.87233],[78.19919,9.869],[78.19062,9.87293],[78.18743,9.87006],[78.18418,9.86995],[78.18018,9.86667],[78.17648,9.87111],[78.17262,9.87342],[78.16694,9.87498],[78.16132,9.87505],[78.1594,9.87171],[78.15552,9.87293],[78.1532,9.86902],[78.15249,9.86442],[78.15387,9.85716],[78.15408,9.85038],[78.14025,9.8554],[78.13678,9.85489],[78.13416,9.85311],[78.13242,9.85041],[78.12675,9.8541],[78.12616,9.85105],[78.12772,9.84725],[78.12736,9.84305],[78.13176,9.83798],[78.13365,9.83148],[78.13228,9.81284],[78.13963,9.8107],[78.14409,9.81276],[78.15499,9.82051],[78.15779,9.8269],[78.16364,9.82666],[78.16927,9.82895],[78.17291,9.82842],[78.18135,9.82174],[78.1843,9.81742],[78.18829,9.81459],[78.18944,9.81148],[78.19318,9.80682],[78.19073,9.79871],[78.18672,9.79348],[78.18411,9.78842],[78.18009,9.77767],[78.17944,9.77307],[78.17695,9.77071],[78.17307,9.77377],[78.16618,9.77217],[78.16329,9.77396],[78.16348,9.7808],[78.17066,9.78234],[78.17288,9.78901],[78.17104,9.79776],[78.16607,9.79961],[78.16156,9.80307],[78.15653,9.8048],[78.14651,9.80649],[78.14338,9.80592],[78.14164,9.80097],[78.1418,9.79648],[78.1455,9.79383],[78.14582,9.78354]]]}}]}