{"type":"FeatureCollection","features":[{"type":"Feature","properties":{"id":"ramanathapuram","name":"Ramanathapuram","stateId":"tamil-nadu","stateName":"Tamil Nadu","censuscode":626,"type":"district"},"geometry":{"type":"Polygon","coordinates":[[[78.72222,9.74756],[78.72565,9.7467],[78.73422,9.7462],[78.74424,9.74674],[78.74704,9.74974],[78.74704,9.75214],[78.74844,9.75314],[78.75024,9.75474],[78.75184,9.75734],[78.75184,9.75993],[78.75443,9.76073],[78.75663,9.76333],[78.75663,9.76593],[78.75783,9.76793],[78.76103,9.77072],[78.76183,9.77172],[78.76443,9.77212],[78.76722,9.77132],[78.76982,9.76733],[78.77202,9.76693],[78.77562,9.76893],[78.77682,9.77252],[78.77801,9.77532],[78.77642,9.78951],[78.77921,9.79491],[78.78021,9.79511],[78.78161,9.79411],[78.78281,9.79031],[78.78661,9.78471],[78.7924,9.77972],[78.7944,9.77852],[78.798,9.77852],[78.8012,9.77592],[78.80359,9.77272],[78.80679,9.77212],[78.82078,9.77352],[78.82258,9.77352],[78.82458,9.77013],[78.82538,9.76533],[78.8273,9.75843],[78.82434,9.75509],[78.81857,9.74641],[78.81652,9.73996],[78.82526,9.72433],[78.82976,9.72149],[78.83263,9.73093],[78.83781,9.73691],[78.84877,9.74022],[78.85442,9.74677],[78.85798,9.75436],[78.87153,9.75496],[78.88444,9.75388],[78.88879,9.75623],[78.89288,9.76481],[78.89221,9.77046],[78.89613,9.77812],[78.90061,9.78358],[78.89971,9.78963],[78.89504,9.79328],[78.88394,9.79901],[78.88242,9.80921],[78.88431,9.81757],[78.88008,9.82807],[78.8766,9.83966],[78.87322,9.86122],[78.87755,9.8728],[78.88286,9.88139],[78.90429,9.88003],[78.90611,9.8851],[78.90157,9.89416],[78.90322,9.90004],[78.90748,9.90631],[78.91674,9.91641],[78.92389,9.92126],[78.93136,9.92303],[78.95707,9.92108],[78.96225,9.92422],[78.96354,9.92885],[78.96821,9.93651],[78.97302,9.93693],[78.97919,9.94142],[78.98442,9.94282],[78.99052,9.94533],[78.99483,9.94162],[78.99768,9.93415],[78.99988,9.92572],[79.00786,9.91489],[79.01076,9.90848],[79.01607,9.90325],[79.01892,9.90201],[79.02286,9.90245],[79.02873,9.8932],[79.03323,9.88824],[79.04147,9.87431],[79.04246,9.86794],[79.04618,9.85993],[79.04978,9.85801],[79.06055,9.85823],[79.06971,9.85062],[79.07294,9.85105],[79.07606,9.8528],[79.0819,9.85234],[79.095,9.85682],[79.0997,9.85612],[79.10828,9.84896],[79.11053,9.84858],[79.11406,9.84624],[79.10519,9.83898],[79.10142,9.83347],[79.09467,9.82726],[79.09041,9.82331],[79.0903,9.82285],[79.0875,9.81962],[79.08706,9.81848],[79.08605,9.81777],[79.08098,9.81115],[79.0802,9.80964],[79.07759,9.80014],[79.07454,9.79328],[79.06895,9.78615],[79.0666,9.78406],[79.06228,9.7781],[79.05709,9.77392],[79.05654,9.77276],[79.05644,9.77207],[79.05575,9.77139],[79.04514,9.76619],[79.03727,9.7606],[79.02873,9.75229],[79.02728,9.75023],[79.02643,9.74969],[79.02529,9.74768],[79.02509,9.74448],[79.01773,9.73777],[79.01416,9.73295],[79.0136,9.73181],[79.0112,9.72986],[79.00941,9.72782],[78.99161,9.71257],[78.99114,9.71197],[78.98935,9.70963],[78.98756,9.70727],[78.98693,9.70545],[78.98485,9.70203],[78.98276,9.69745],[78.97711,9.68279],[78.97576,9.67648],[78.97424,9.66506],[78.97314,9.66345],[78.97067,9.66114],[78.96963,9.65902],[78.96719,9.65197],[78.96587,9.64922],[78.96094,9.63961],[78.96036,9.63916],[78.95845,9.63486],[78.95722,9.63157],[78.95573,9.62822],[78.95468,9.62566],[78.95125,9.62083],[78.95035,9.62035],[78.9487,9.61601],[78.94409,9.6111],[78.94303,9.60933],[78.94263,9.60877],[78.94134,9.60725],[78.9381,9.60447],[78.9362,9.60307],[78.93587,9.60193],[78.93555,9.6008],[78.93217,9.59802],[78.93089,9.59481],[78.92526,9.58638],[78.92455,9.58335],[78.92302,9.5788],[78.92276,9.57764],[78.92033,9.57262],[78.91878,9.56461],[78.91963,9.54819],[78.9197,9.5474],[78.91908,9.54352],[78.91876,9.53525],[78.91861,9.5315],[78.91643,9.52043],[78.91584,9.51392],[78.91561,9.51258],[78.91515,9.51008],[78.91517,9.50895],[78.91546,9.49964],[78.91471,9.49827],[78.90765,9.49657],[78.90148,9.49214],[78.90102,9.49213],[78.89799,9.48889],[78.89706,9.48676],[78.89455,9.47862],[78.89536,9.4716],[78.89889,9.46009],[78.90044,9.45673],[78.90079,9.45639],[78.90322,9.45404],[78.9037,9.45292],[78.90417,9.45293],[78.9043,9.45228],[78.90498,9.45183],[78.90604,9.45001],[78.90671,9.44958],[78.90892,9.44559],[78.91043,9.4429],[78.91105,9.4418],[78.9115,9.44158],[78.91381,9.43699],[78.91895,9.43141],[78.9213,9.42668],[78.92766,9.41988],[78.92926,9.4174],[78.9297,9.41642],[78.93736,9.40927],[78.93899,9.40774],[78.939,9.40728],[78.9418,9.40348],[78.94226,9.40236],[78.94458,9.40023],[78.94504,9.39978],[78.94785,9.39725],[78.95064,9.39456],[78.95065,9.39366],[78.95326,9.39158],[78.95397,9.39091],[78.95745,9.38811],[78.9577,9.38745],[78.96192,9.38328],[78.96337,9.38128],[78.9639,9.3803],[78.96925,9.37517],[78.97042,9.37247],[78.97462,9.36823],[78.97463,9.36777],[78.97463,9.36731],[78.97697,9.3653],[78.97812,9.36465],[78.97927,9.36219],[78.9802,9.36176],[78.98639,9.35644],[78.98764,9.35462],[78.98765,9.35415],[78.99342,9.34995],[79.01519,9.33154],[79.0164,9.3286],[79.01917,9.3266],[79.01964,9.32617],[79.02171,9.32439],[79.02243,9.32328],[79.02635,9.3203],[79.02636,9.31984],[79.03071,9.3166],[79.03374,9.31532],[79.03422,9.31441],[79.04315,9.30735],[79.0434,9.30667],[79.04389,9.30626],[79.0518,9.29997],[79.05464,9.29853],[79.05668,9.29813],[79.06004,9.29611],[79.0633,9.29474],[79.06928,9.29427],[79.07196,9.29444],[79.07331,9.29536],[79.07806,9.29681],[79.08011,9.29731],[79.08489,9.29627],[79.09573,9.29021],[79.09778,9.2896],[79.09826,9.28948],[79.10144,9.2893],[79.1101,9.29038],[79.12098,9.29307],[79.12876,9.29072],[79.14772,9.28811],[79.14826,9.28784],[79.14957,9.28722],[79.15325,9.28593],[79.15529,9.28573],[79.15665,9.28599],[79.158,9.28714],[79.15833,9.28784],[79.16073,9.28834],[79.17015,9.28849],[79.17609,9.28795],[79.17702,9.28815],[79.18408,9.28758],[79.18656,9.28752],[79.19167,9.28586],[79.18828,9.28093],[79.18425,9.27797],[79.18027,9.27846],[79.17943,9.27865],[79.17761,9.27832],[79.1744,9.27766],[79.16095,9.27624],[79.14957,9.27496],[79.1294,9.26869],[79.09628,9.2605],[79.09379,9.25988],[79.08241,9.25921],[79.0671,9.26145],[79.0646,9.26119],[79.0556,9.26181],[79.0547,9.26157],[79.04967,9.26233],[79.04083,9.26436],[79.03125,9.26555],[79.01616,9.2687],[78.9992,9.27337],[78.9967,9.27337],[78.98777,9.27518],[78.9855,9.27514],[78.98461,9.27467],[78.96841,9.27416],[78.96591,9.27455],[78.96205,9.27395],[78.94183,9.27071],[78.92621,9.26521],[78.91515,9.25885],[78.91252,9.25336],[78.90853,9.24946],[78.90489,9.24824],[78.89356,9.25028],[78.88472,9.25468],[78.8776,9.25658],[78.87577,9.25608],[78.86966,9.25507],[78.86762,9.25503],[78.8565,9.25187],[78.85222,9.24927],[78.84654,9.24792],[78.81485,9.23748],[78.80951,9.23508],[78.80518,9.23293],[78.79452,9.22856],[78.77666,9.22197],[78.7652,9.21864],[78.7601,9.21663],[78.74426,9.2116],[78.74132,9.21064],[78.73031,9.20971],[78.72723,9.20945],[78.72498,9.20876],[78.72295,9.20711],[78.72163,9.203],[78.72226,9.18892],[78.72083,9.18733],[78.70697,9.19091],[78.69405,9.19484],[78.68596,9.19538],[78.67691,9.19451],[78.67289,9.19375],[78.66823,9.19152],[78.65771,9.18747],[78.65189,9.18328],[78.64992,9.1789],[78.64566,9.17499],[78.64522,9.17272],[78.64512,9.16726],[78.64606,9.1666],[78.64722,9.16571],[78.64936,9.16144],[78.65079,9.16038],[78.65159,9.15742],[78.65066,9.1554],[78.64993,9.15487],[78.64399,9.15566],[78.63999,9.15772],[78.63032,9.15652],[78.62602,9.15519],[78.62044,9.15342],[78.61107,9.15107],[78.60018,9.14754],[78.58555,9.1393],[78.5851,9.13885],[78.58211,9.1366],[78.58031,9.13398],[78.57913,9.13202],[78.57539,9.12868],[78.57529,9.12821],[78.57429,9.12801],[78.56878,9.12878],[78.56065,9.13111],[78.55698,9.13283],[78.55673,9.13375],[78.55606,9.13418],[78.54895,9.13542],[78.53231,9.1362],[78.52822,9.13612],[78.52739,9.13601],[78.51127,9.13327],[78.49145,9.12907],[78.48411,9.13141],[78.4773,9.13059],[78.47618,9.1301],[78.47416,9.12757],[78.46604,9.12423],[78.45078,9.12165],[78.43541,9.11771],[78.42229,9.11339],[78.39775,9.09902],[78.39128,9.09386],[78.38662,9.09629],[78.37997,9.09803],[78.37066,9.09862],[78.36522,9.09973],[78.36048,9.09801],[78.35955,9.11355],[78.3574,9.11666],[78.35162,9.11719],[78.34584,9.11979],[78.34491,9.12227],[78.32394,9.12778],[78.32389,9.13094],[78.29069,9.13498],[78.27614,9.14099],[78.28227,9.15381],[78.2895,9.16657],[78.29909,9.20331],[78.28724,9.20432],[78.27262,9.20198],[78.27316,9.23202],[78.27464,9.24737],[78.27687,9.26256],[78.28281,9.27515],[78.30002,9.26757],[78.30766,9.27141],[78.32272,9.26453],[78.33209,9.26147],[78.34954,9.2792],[78.35728,9.27994],[78.36948,9.27979],[78.37809,9.27667],[78.37944,9.2853],[78.37762,9.29174],[78.37126,9.29532],[78.36236,9.29586],[78.3629,9.30207],[78.37447,9.30446],[78.37738,9.30923],[78.37659,9.3181],[78.37094,9.32421],[78.36199,9.32825],[78.35408,9.33397],[78.34753,9.34543],[78.34395,9.34763],[78.34158,9.35091],[78.34397,9.35654],[78.34191,9.36052],[78.33752,9.36576],[78.32782,9.37113],[78.32251,9.37494],[78.30696,9.37578],[78.30646,9.38303],[78.30102,9.38293],[78.2987,9.3789],[78.29605,9.38087],[78.29659,9.38869],[78.2823,9.38809],[78.2802,9.3832],[78.27639,9.38298],[78.27101,9.38615],[78.26944,9.38356],[78.26482,9.38306],[78.26289,9.37759],[78.2582,9.37352],[78.25288,9.376],[78.2496,9.37866],[78.24491,9.37688],[78.24587,9.39472],[78.24345,9.39581],[78.24422,9.40507],[78.22515,9.41006],[78.22424,9.41616],[78.22118,9.41881],[78.22223,9.42243],[78.22086,9.42882],[78.21554,9.43297],[78.21986,9.44418],[78.25919,9.4452],[78.27557,9.44557],[78.29528,9.44019],[78.30332,9.44057],[78.30668,9.44459],[78.30606,9.44971],[78.29977,9.45651],[78.301,9.45887],[78.3069,9.45874],[78.31194,9.46305],[78.31762,9.46563],[78.32813,9.46186],[78.33213,9.46214],[78.3359,9.46524],[78.34324,9.465],[78.34746,9.46274],[78.35144,9.45899],[78.35578,9.46037],[78.35326,9.46624],[78.35014,9.46907],[78.3425,9.46966],[78.34053,9.47116],[78.33441,9.47054],[78.33263,9.47641],[78.33044,9.47901],[78.33317,9.48354],[78.33034,9.48718],[78.33043,9.49529],[78.33294,9.50598],[78.33254,9.50805],[78.32648,9.51244],[78.32702,9.51814],[78.33276,9.52365],[78.34882,9.51481],[78.36596,9.51736],[78.38424,9.51605],[78.38564,9.52232],[78.3882,9.5268],[78.38776,9.53555],[78.3784,9.5373],[78.37873,9.55341],[78.37527,9.5556],[78.3768,9.5663],[78.36975,9.56821],[78.36854,9.57155],[78.37763,9.57274],[78.37943,9.57469],[78.40034,9.58103],[78.40055,9.59351],[78.41263,9.58727],[78.41855,9.59595],[78.42492,9.59472],[78.42892,9.59862],[78.4323,9.60782],[78.44189,9.61677],[78.45081,9.61877],[78.45398,9.61559],[78.45797,9.61478],[78.46088,9.62081],[78.46424,9.62149],[78.46567,9.61574],[78.4718,9.61486],[78.47659,9.61099],[78.49731,9.60961],[78.50338,9.60799],[78.50186,9.60316],[78.49663,9.59817],[78.50634,9.59354],[78.51672,9.58212],[78.52327,9.58457],[78.5419,9.58469],[78.54686,9.58088],[78.55165,9.57586],[78.55547,9.5747],[78.5638,9.57439],[78.57073,9.57109],[78.58199,9.5622],[78.59066,9.56068],[78.59752,9.55416],[78.60243,9.5519],[78.60851,9.55171],[78.60993,9.54382],[78.6173,9.53586],[78.63441,9.53109],[78.64498,9.52611],[78.65647,9.51894],[78.66161,9.51858],[78.66002,9.52537],[78.65434,9.53782],[78.65378,9.54329],[78.67547,9.55507],[78.68151,9.56029],[78.68413,9.56643],[78.68381,9.57438],[78.68258,9.58203],[78.67983,9.59004],[78.67859,9.59821],[78.68363,9.6005],[78.69549,9.59793],[78.70799,9.59806],[78.71694,9.5955],[78.72186,9.59364],[78.72796,9.58741],[78.73954,9.58656],[78.74571,9.58343],[78.74528,9.57682],[78.75443,9.57731],[78.76619,9.5825],[78.77274,9.58415],[78.78639,9.58364],[78.80765,9.58845],[78.82024,9.5933],[78.81556,9.59591],[78.80938,9.59754],[78.81089,9.60104],[78.82127,9.60526],[78.82346,9.61532],[78.82092,9.61752],[78.80607,9.62206],[78.80369,9.62034],[78.79866,9.62157],[78.79432,9.62458],[78.79463,9.62832],[78.78887,9.6365],[78.79351,9.63718],[78.794,9.64161],[78.78765,9.64744],[78.78546,9.65079],[78.78635,9.65596],[78.78951,9.66441],[78.79334,9.66658],[78.79436,9.67308],[78.79234,9.67377],[78.79363,9.67901],[78.79005,9.68086],[78.79302,9.68568],[78.79714,9.68757],[78.79976,9.69141],[78.79702,9.70063],[78.79745,9.70552],[78.79015,9.70618],[78.77972,9.71651],[78.77649,9.71865],[78.75882,9.71532],[78.75169,9.7158],[78.74818,9.70592],[78.74558,9.70679],[78.74553,9.70921],[78.72457,9.70928],[78.72327,9.71555],[78.72548,9.71658],[78.72671,9.72239],[78.72174,9.72327],[78.72124,9.73052],[78.70933,9.7347],[78.70826,9.74115],[78.70111,9.74767],[78.70205,9.75181],[78.70858,9.74788],[78.71599,9.7486],[78.72189,9.74732],[78.72222,9.74756]]]}}]}