{"type":"FeatureCollection","features":[{"type":"Feature","properties":{"id":"thanjavur","name":"Thanjavur","stateId":"tamil-nadu","stateName":"Tamil Nadu","censuscode":620,"type":"district"},"geometry":{"type":"Polygon","coordinates":[[[79.52558,11.17887],[79.53069,11.17655],[79.53789,11.17738],[79.54095,11.16209],[79.54414,11.16129],[79.54543,11.15824],[79.55189,11.16141],[79.55608,11.16052],[79.55918,11.16089],[79.55902,11.15297],[79.56631,11.15308],[79.56715,11.14661],[79.5739,11.14501],[79.56409,11.13631],[79.56209,11.13453],[79.56001,11.12886],[79.5571,11.12705],[79.55602,11.12821],[79.55509,11.1292],[79.55327,11.12776],[79.55337,11.12416],[79.54992,11.12253],[79.5523,11.11831],[79.55076,11.11434],[79.5473,11.11379],[79.54622,11.11154],[79.5469,11.11126],[79.54886,11.11047],[79.54841,11.10831],[79.54623,11.10704],[79.53994,11.10765],[79.53977,11.10459],[79.53768,11.10207],[79.53742,11.09928],[79.5399,11.09371],[79.54227,11.0938],[79.54153,11.09695],[79.54196,11.10271],[79.54303,11.10274],[79.5487,11.10291],[79.54844,11.09967],[79.54565,11.09407],[79.54165,11.08606],[79.54248,11.08301],[79.54512,11.085],[79.54785,11.08393],[79.55224,11.0789],[79.55071,11.07512],[79.54816,11.0725],[79.54488,11.07285],[79.53716,11.06698],[79.53582,11.06113],[79.53282,11.05896],[79.53119,11.05571],[79.52856,11.05292],[79.5221,11.04993],[79.52066,11.04686],[79.5154,11.04001],[79.51928,11.025],[79.52829,11.0244],[79.53448,11.02478],[79.53532,11.01877],[79.53579,11.01543],[79.53744,11.01202],[79.53316,11.01147],[79.53006,11.01353],[79.52724,11.01262],[79.52708,11.00677],[79.53526,11.00851],[79.54182,11.00673],[79.54593,11.00512],[79.54876,11.00046],[79.54623,10.99568],[79.54195,10.99639],[79.5303,10.995],[79.52975,10.99734],[79.52647,10.99742],[79.52649,10.99681],[79.52657,10.99472],[79.52302,10.99624],[79.52358,10.99093],[79.52568,10.98788],[79.52396,10.98536],[79.51986,10.98642],[79.5124,10.98631],[79.50986,10.9836],[79.51507,10.9784],[79.51492,10.9677],[79.51528,10.95342],[79.52066,10.95325],[79.51971,10.94381],[79.51861,10.94363],[79.51567,10.93883],[79.4996,10.93728],[79.49942,10.93065],[79.48866,10.92219],[79.48525,10.918],[79.49095,10.91732],[79.49171,10.91519],[79.49437,10.91482],[79.49424,10.90816],[79.49431,10.90797],[79.4943,10.90792],[79.49261,10.90538],[79.49401,10.90472],[79.49387,10.90318],[79.49592,10.90337],[79.4976,10.9008],[79.5016,10.9036],[79.50799,10.90121],[79.50797,10.89542],[79.50208,10.89167],[79.49695,10.88849],[79.4929,10.88736],[79.49154,10.88826],[79.48897,10.8861],[79.48952,10.88395],[79.48853,10.88265],[79.48423,10.87652],[79.48679,10.87088],[79.48682,10.87087],[79.48668,10.86885],[79.48115,10.86763],[79.4811,10.86773],[79.48093,10.86763],[79.47619,10.86867],[79.47495,10.87195],[79.47252,10.87141],[79.47261,10.87005],[79.47106,10.87071],[79.46842,10.8664],[79.467,10.86191],[79.45897,10.86483],[79.45651,10.86203],[79.45604,10.86243],[79.45457,10.86654],[79.45135,10.86874],[79.44724,10.87035],[79.44166,10.87197],[79.43916,10.8727],[79.43608,10.87534],[79.43447,10.87652],[79.43197,10.87666],[79.4283,10.87666],[79.42595,10.87769],[79.42155,10.88004],[79.41788,10.8821],[79.41289,10.88312],[79.41142,10.88474],[79.40981,10.88723],[79.40776,10.89002],[79.40409,10.89105],[79.40115,10.8909],[79.39895,10.8909],[79.39601,10.89252],[79.39396,10.89428],[79.39058,10.89457],[79.38398,10.89296],[79.38134,10.89237],[79.3784,10.89164],[79.37649,10.89164],[79.37326,10.89208],[79.3715,10.89252],[79.37136,10.89589],[79.36989,10.89604],[79.36783,10.89633],[79.36695,10.89824],[79.36431,10.89765],[79.36299,10.89663],[79.36094,10.89751],[79.35962,10.89912],[79.35683,10.90088],[79.35463,10.90162],[79.35448,10.9047],[79.35096,10.90499],[79.34978,10.90793],[79.34699,10.90925],[79.34274,10.90925],[79.3398,10.91116],[79.3354,10.91248],[79.33129,10.91394],[79.32967,10.91526],[79.33217,10.91849],[79.3329,10.91981],[79.32909,10.9204],[79.32953,10.92304],[79.32964,10.92855],[79.3227,10.92823],[79.31923,10.93044],[79.31828,10.93234],[79.31386,10.93234],[79.31071,10.93234],[79.30597,10.93644],[79.30408,10.93707],[79.30061,10.93455],[79.29777,10.93044],[79.29272,10.9295],[79.29114,10.92823],[79.28925,10.92445],[79.28925,10.92319],[79.29209,10.92003],[79.29619,10.91877],[79.29682,10.91467],[79.29556,10.91183],[79.29051,10.91183],[79.28641,10.91088],[79.28515,10.90836],[79.28515,10.90205],[79.2842,10.89921],[79.27978,10.89763],[79.27442,10.89668],[79.27379,10.89384],[79.2741,10.88974],[79.27568,10.88658],[79.28105,10.88658],[79.28294,10.88501],[79.28136,10.88185],[79.27789,10.87964],[79.27537,10.8768],[79.27442,10.87302],[79.27694,10.87081],[79.28609,10.87049],[79.29304,10.87144],[79.29524,10.86576],[79.29461,10.86103],[79.2963,10.85419],[79.29714,10.84998],[79.29503,10.84451],[79.29251,10.83904],[79.29438,10.83657],[79.29591,10.83349],[79.29764,10.83311],[79.30283,10.83272],[79.30551,10.83272],[79.30743,10.83196],[79.30667,10.82965],[79.30513,10.82792],[79.30417,10.82543],[79.30551,10.82331],[79.30743,10.81986],[79.30839,10.81813],[79.31108,10.81621],[79.31454,10.81487],[79.3203,10.81275],[79.32337,10.81045],[79.32606,10.8091],[79.32779,10.80853],[79.3299,10.80834],[79.33893,10.80949],[79.34738,10.81026],[79.35333,10.80968],[79.35602,10.80757],[79.35698,10.80642],[79.35852,10.80507],[79.36121,10.80507],[79.36466,10.80757],[79.36601,10.80814],[79.36793,10.80814],[79.36946,10.80814],[79.37311,10.80584],[79.37811,10.80219],[79.37818,10.80131],[79.37431,10.80037],[79.37102,10.79493],[79.36883,10.79504],[79.36512,10.79504],[79.36358,10.79362],[79.35921,10.79427],[79.35846,10.79249],[79.35575,10.79241],[79.34938,10.79416],[79.34883,10.7899],[79.35179,10.78899],[79.35177,10.78892],[79.35244,10.78892],[79.35014,10.78159],[79.34683,10.78193],[79.34474,10.78058],[79.34483,10.77529],[79.34507,10.7672],[79.34521,10.76716],[79.345,10.76509],[79.35325,10.76509],[79.35368,10.76498],[79.3602,10.76498],[79.3602,10.76271],[79.36223,10.7618],[79.36123,10.75864],[79.3614,10.75481],[79.36348,10.75219],[79.35473,10.74585],[79.35233,10.74727],[79.35085,10.74875],[79.35014,10.74878],[79.34963,10.7433],[79.34981,10.74192],[79.34828,10.74049],[79.34522,10.73907],[79.34129,10.73798],[79.33626,10.73809],[79.33607,10.73822],[79.32723,10.73832],[79.32391,10.73678],[79.32183,10.73645],[79.31943,10.73656],[79.31557,10.73889],[79.31351,10.73902],[79.3144,10.74017],[79.31494,10.74181],[79.31407,10.74366],[79.31232,10.74519],[79.3097,10.74563],[79.30882,10.74552],[79.30862,10.74522],[79.30464,10.74454],[79.30145,10.74069],[79.29977,10.73507],[79.3032,10.73074],[79.30616,10.72527],[79.30768,10.71646],[79.30625,10.70834],[79.31027,10.70106],[79.31346,10.69526],[79.31837,10.68637],[79.31872,10.67971],[79.31687,10.67387],[79.31662,10.66626],[79.3174,10.6601],[79.33077,10.65785],[79.34062,10.65722],[79.34749,10.65141],[79.35078,10.64595],[79.35669,10.64687],[79.35491,10.63882],[79.35389,10.63407],[79.3526,10.62818],[79.34474,10.62391],[79.34846,10.61917],[79.34976,10.61442],[79.35199,10.6093],[79.34746,10.60553],[79.34857,10.59573],[79.34687,10.58973],[79.3497,10.58501],[79.36264,10.57794],[79.36971,10.57797],[79.37637,10.57818],[79.38312,10.58108],[79.38901,10.58209],[79.39576,10.57961],[79.40259,10.57561],[79.39952,10.57164],[79.39845,10.56124],[79.39938,10.5554],[79.40779,10.5499],[79.41499,10.55067],[79.42053,10.54821],[79.42525,10.55493],[79.42705,10.55956],[79.43397,10.55579],[79.43983,10.55842],[79.44615,10.55585],[79.45083,10.5562],[79.45338,10.54941],[79.44806,10.54901],[79.44211,10.54632],[79.43774,10.54416],[79.4331,10.54385],[79.42677,10.5413],[79.42433,10.53449],[79.4346,10.53181],[79.43881,10.52715],[79.44209,10.52153],[79.44741,10.52004],[79.45287,10.52055],[79.45692,10.51851],[79.45887,10.5132],[79.46361,10.51263],[79.46897,10.50955],[79.46165,10.50338],[79.45499,10.49321],[79.46234,10.48749],[79.47141,10.49154],[79.47938,10.49131],[79.48369,10.48746],[79.48371,10.47794],[79.4804,10.46955],[79.47787,10.4634],[79.47046,10.45784],[79.47366,10.45087],[79.47485,10.44368],[79.4802,10.44161],[79.47172,10.43623],[79.4674,10.43481],[79.46033,10.43301],[79.45277,10.43406],[79.45679,10.42771],[79.45972,10.4183],[79.46616,10.41714],[79.46583,10.41215],[79.47466,10.4074],[79.47714,10.40306],[79.47991,10.39823],[79.46855,10.39059],[79.4709,10.38595],[79.46182,10.37451],[79.4717,10.3733],[79.47747,10.37233],[79.4859,10.38061],[79.49125,10.37319],[79.49731,10.37022],[79.50503,10.36876],[79.50797,10.36265],[79.50817,10.35344],[79.50765,10.35372],[79.50598,10.35489],[79.50501,10.35487],[79.50406,10.35398],[79.50376,10.3531],[79.5038,10.35208],[79.50384,10.35098],[79.50513,10.35015],[79.50522,10.34965],[79.50258,10.34694],[79.50146,10.34683],[79.49909,10.34807],[79.49538,10.34931],[79.49391,10.34931],[79.49155,10.34818],[79.49065,10.34728],[79.48378,10.34795],[79.4795,10.34863],[79.47759,10.34996],[79.47484,10.34459],[79.47352,10.33686],[79.47315,10.33074],[79.47341,10.31887],[79.46432,10.32084],[79.45308,10.32201],[79.4478,10.32372],[79.43866,10.32472],[79.42288,10.32467],[79.40162,10.32479],[79.39552,10.32369],[79.38794,10.3216],[79.38298,10.3188],[79.37747,10.31391],[79.37355,10.30709],[79.37355,10.30709],[79.37226,10.30453],[79.36778,10.29969],[79.36778,10.29968],[79.36778,10.29968],[79.36483,10.29807],[79.35911,10.29871],[79.35911,10.29871],[79.35911,10.29871],[79.35794,10.29883],[79.35334,10.30075],[79.35334,10.30075],[79.34902,10.30204],[79.35317,10.29035],[79.35317,10.29035],[79.34858,10.28998],[79.34591,10.28976],[79.34589,10.28977],[79.3426,10.28949],[79.32914,10.28609],[79.32779,10.2854],[79.32486,10.28261],[79.32398,10.28123],[79.32245,10.27692],[79.32245,10.27692],[79.32245,10.27692],[79.31751,10.27182],[79.31751,10.27182],[79.31573,10.27104],[79.31255,10.27044],[79.30958,10.26987],[79.30957,10.26987],[79.30548,10.268],[79.30458,10.26709],[79.30458,10.26709],[79.29901,10.26447],[79.29901,10.26447],[79.29879,10.2615],[79.29608,10.25694],[79.29608,10.25694],[79.29251,10.25302],[79.28155,10.24465],[79.27709,10.23996],[79.27709,10.23996],[79.27561,10.23821],[79.27283,10.23263],[79.2723,10.23112],[79.27195,10.22611],[79.27333,10.22544],[79.27401,10.22522],[79.27431,10.22426],[79.2745,10.22367],[79.27704,10.22212],[79.27704,10.22212],[79.27789,10.21985],[79.27799,10.21395],[79.27799,10.21395],[79.27611,10.21032],[79.27027,10.2043],[79.27027,10.2043],[79.26763,10.19971],[79.26154,10.19393],[79.26154,10.19393],[79.25884,10.19232],[79.25718,10.19197],[79.25407,10.19131],[79.25407,10.19131],[79.25407,10.19131],[79.25021,10.18898],[79.24866,10.18601],[79.24866,10.186],[79.24799,10.18518],[79.24796,10.18519],[79.2474,10.18495],[79.24241,10.17834],[79.24018,10.17472],[79.2385,10.16812],[79.2385,10.16812],[79.2385,10.16812],[79.23871,10.16202],[79.23871,10.16202],[79.23839,10.16086],[79.23346,10.15487],[79.23346,10.15487],[79.23172,10.14984],[79.22883,10.14504],[79.22886,10.14028],[79.21834,10.13883],[79.20562,10.13952],[79.20606,10.14249],[79.21018,10.14337],[79.20986,10.14514],[79.20618,10.14798],[79.20664,10.15261],[79.20435,10.15543],[79.20399,10.16007],[79.19989,10.16091],[79.19596,10.16003],[79.19666,10.16201],[79.19703,10.16305],[79.19298,10.16326],[79.18294,10.16084],[79.16613,10.16259],[79.16471,10.1594],[79.16018,10.15858],[79.15351,10.16184],[79.15241,10.16689],[79.15511,10.17047],[79.15976,10.173],[79.15775,10.17519],[79.15962,10.18101],[79.15785,10.18332],[79.15706,10.18601],[79.15343,10.18708],[79.1529,10.19709],[79.15639,10.19877],[79.15914,10.20161],[79.16378,10.20225],[79.16392,10.20494],[79.16987,10.20437],[79.17007,10.20105],[79.17475,10.20015],[79.17657,10.19728],[79.17736,10.20139],[79.18218,10.20197],[79.18493,10.19949],[79.18509,10.20395],[79.18835,10.20535],[79.18601,10.20892],[79.18208,10.20987],[79.18148,10.21788],[79.1753,10.21971],[79.17192,10.21683],[79.16495,10.22009],[79.15917,10.22037],[79.15661,10.2192],[79.15251,10.22049],[79.1482,10.21727],[79.14434,10.21908],[79.14856,10.22962],[79.14545,10.23074],[79.14574,10.23645],[79.14043,10.23753],[79.13457,10.23667],[79.13247,10.23417],[79.12807,10.23375],[79.12165,10.23455],[79.11722,10.23683],[79.11657,10.25136],[79.12803,10.25229],[79.1299,10.25456],[79.13008,10.25999],[79.13336,10.26437],[79.13101,10.26639],[79.13224,10.27273],[79.12739,10.27895],[79.12719,10.28296],[79.12173,10.28632],[79.12301,10.29266],[79.12117,10.29365],[79.12234,10.30051],[79.1198,10.30116],[79.12213,10.30703],[79.12751,10.30784],[79.12691,10.31105],[79.12881,10.31589],[79.13118,10.32079],[79.13521,10.32408],[79.1315,10.32914],[79.12812,10.32683],[79.12625,10.3269],[79.12442,10.32697],[79.12402,10.32595],[79.12329,10.32407],[79.11982,10.32415],[79.11924,10.32971],[79.12244,10.33111],[79.12171,10.33335],[79.12514,10.33538],[79.13106,10.3367],[79.13433,10.33375],[79.14225,10.339],[79.14123,10.34038],[79.14422,10.34396],[79.1497,10.34271],[79.14971,10.34877],[79.14844,10.35359],[79.15187,10.35556],[79.14868,10.36142],[79.14506,10.36334],[79.14446,10.36604],[79.14836,10.36875],[79.14573,10.37118],[79.149,10.37481],[79.14615,10.37827],[79.14579,10.38267],[79.14811,10.38866],[79.15355,10.39433],[79.15493,10.3989],[79.15054,10.40523],[79.1458,10.41151],[79.14024,10.41653],[79.13688,10.42177],[79.13206,10.42587],[79.12906,10.43271],[79.13048,10.43521],[79.13291,10.43485],[79.13803,10.43732],[79.14377,10.44344],[79.14095,10.44519],[79.14092,10.44816],[79.14649,10.44845],[79.15178,10.44612],[79.15511,10.44878],[79.1543,10.45013],[79.1521,10.45378],[79.15323,10.45623],[79.15001,10.4586],[79.153,10.46241],[79.1582,10.46133],[79.15767,10.4547],[79.15625,10.45203],[79.15775,10.45087],[79.15949,10.44611],[79.16802,10.44792],[79.17633,10.44607],[79.17602,10.4491],[79.16807,10.45221],[79.16879,10.45489],[79.17439,10.45369],[79.17478,10.45781],[79.179,10.45645],[79.17938,10.45897],[79.19211,10.45862],[79.1919,10.4608],[79.19539,10.46191],[79.19418,10.46753],[79.19186,10.46749],[79.18933,10.47009],[79.186,10.46715],[79.18501,10.46908],[79.18436,10.47036],[79.18248,10.46849],[79.17962,10.47127],[79.18156,10.47417],[79.17637,10.47622],[79.17267,10.47676],[79.17315,10.47861],[79.17375,10.48087],[79.17069,10.48044],[79.16878,10.47594],[79.16291,10.47405],[79.16103,10.47166],[79.15737,10.47536],[79.15359,10.47419],[79.14751,10.48477],[79.13974,10.4845],[79.13364,10.48764],[79.13029,10.49407],[79.14041,10.49793],[79.14221,10.50392],[79.14164,10.50942],[79.14253,10.51262],[79.14509,10.51345],[79.14624,10.51235],[79.15238,10.5183],[79.15425,10.52082],[79.15538,10.52234],[79.1536,10.5227],[79.15093,10.52324],[79.15156,10.52855],[79.15615,10.52937],[79.16011,10.53133],[79.17035,10.53056],[79.17056,10.5333],[79.17513,10.53309],[79.17927,10.53585],[79.18156,10.53869],[79.18542,10.53683],[79.18702,10.54007],[79.18478,10.54764],[79.18423,10.5552],[79.19001,10.55429],[79.18975,10.55818],[79.19135,10.5583],[79.19185,10.55833],[79.19216,10.56073],[79.18909,10.56568],[79.19253,10.56857],[79.19142,10.57773],[79.1884,10.57724],[79.18653,10.5756],[79.18357,10.57534],[79.18329,10.5702],[79.17947,10.5708],[79.17996,10.57812],[79.17894,10.58585],[79.17322,10.58156],[79.16901,10.58377],[79.16967,10.58605],[79.16452,10.58718],[79.1574,10.58702],[79.1549,10.5859],[79.14354,10.58594],[79.14322,10.59344],[79.13978,10.59656],[79.14556,10.6012],[79.1457,10.60343],[79.14271,10.60614],[79.14043,10.60977],[79.14206,10.61116],[79.14248,10.61152],[79.14175,10.61359],[79.13926,10.61327],[79.13808,10.61688],[79.12794,10.63333],[79.12676,10.63068],[79.12015,10.63028],[79.10527,10.6141],[79.10424,10.62184],[79.10234,10.62182],[79.10129,10.62181],[79.10154,10.62393],[79.09465,10.62462],[79.09278,10.62847],[79.0862,10.63059],[79.08226,10.63029],[79.08192,10.63201],[79.07771,10.6329],[79.0709,10.63617],[79.06818,10.64215],[79.06755,10.64931],[79.06969,10.65427],[79.06581,10.65401],[79.06815,10.66172],[79.0697,10.67229],[79.06381,10.66827],[79.05861,10.66951],[79.05403,10.66926],[79.05546,10.67313],[79.05015,10.6751],[79.042,10.67656],[79.01813,10.67448],[79.01797,10.67612],[79.01972,10.6773],[79.01977,10.68062],[79.01693,10.68056],[79.01583,10.68503],[79.01877,10.6881],[79.01816,10.6902],[79.02014,10.69066],[79.02052,10.69048],[79.02232,10.68963],[79.02424,10.69093],[79.03381,10.69355],[79.03298,10.69624],[79.01858,10.69807],[79.00959,10.69821],[79.0103,10.70196],[79.00825,10.70308],[79.00502,10.7064],[79.00797,10.70896],[79.01209,10.71122],[79.012,10.71278],[79.00689,10.71294],[79.00557,10.71652],[78.99994,10.7224],[78.99024,10.71835],[78.98766,10.71454],[78.98713,10.70898],[78.9892,10.70145],[78.98849,10.69911],[78.98197,10.69039],[78.98375,10.6827],[78.97903,10.68073],[78.97693,10.67874],[78.97067,10.67862],[78.96907,10.67468],[78.97181,10.67065],[78.97092,10.66853],[78.97088,10.66458],[78.96624,10.6527],[78.96202,10.65313],[78.96074,10.65853],[78.95771,10.66309],[78.94338,10.6675],[78.93728,10.67117],[78.93848,10.6754],[78.94207,10.67396],[78.94581,10.67247],[78.94681,10.67441],[78.94553,10.67598],[78.94206,10.68024],[78.94094,10.68403],[78.93818,10.68601],[78.93412,10.68535],[78.91816,10.67671],[78.91578,10.67014],[78.90848,10.67095],[78.90566,10.67917],[78.90195,10.67891],[78.89735,10.68227],[78.89369,10.68677],[78.89269,10.6924],[78.8832,10.69362],[78.87143,10.70593],[78.86833,10.71386],[78.86527,10.73418],[78.86859,10.7365],[78.86962,10.74074],[78.86985,10.74618],[78.86817,10.75852],[78.8733,10.76191],[78.87504,10.76838],[78.87516,10.77502],[78.88047,10.77831],[78.87881,10.78738],[78.87011,10.78561],[78.86853,10.79675],[78.86963,10.80212],[78.86405,10.80165],[78.86489,10.81082],[78.87113,10.81472],[78.86926,10.81818],[78.86764,10.82535],[78.86405,10.82607],[78.81544,10.82302],[78.80514,10.82436],[78.80055,10.82285],[78.79384,10.82405],[78.78725,10.8272],[78.77877,10.82549],[78.77825,10.83163],[78.78365,10.8325],[78.78947,10.83544],[78.79743,10.83698],[78.80849,10.83586],[78.81846,10.83601],[78.85541,10.84356],[78.8693,10.8481],[78.88199,10.85332],[78.8953,10.85677],[78.90921,10.86175],[78.91984,10.86436],[78.92764,10.86711],[78.93498,10.87157],[78.94102,10.87811],[78.93791,10.88095],[78.94395,10.88737],[78.96029,10.89205],[78.96483,10.88806],[78.9736,10.8897],[78.9999,10.89221],[79.00742,10.88937],[79.00753,10.88933],[79.02109,10.88586],[79.0278,10.88424],[79.03519,10.88297],[79.04318,10.88394],[79.05061,10.88519],[79.05709,10.88825],[79.06234,10.89349],[79.06551,10.89834],[79.06736,10.90462],[79.07049,10.91141],[79.0746,10.91659],[79.07916,10.91965],[79.08389,10.92303],[79.09028,10.92356],[79.09737,10.9227],[79.10226,10.92179],[79.10775,10.92169],[79.11502,10.92328],[79.12331,10.92635],[79.1319,10.93097],[79.1455,10.93846],[79.15219,10.94006],[79.15962,10.93994],[79.16919,10.93808],[79.18043,10.93786],[79.19321,10.9438],[79.20508,10.94581],[79.20822,10.93743],[79.21387,10.93847],[79.22166,10.94285],[79.23005,10.95026],[79.23908,10.9603],[79.24846,10.96656],[79.2595,10.97525],[79.26678,10.98128],[79.27495,10.98828],[79.28024,10.99695],[79.28402,11.0004],[79.28477,11.00491],[79.29473,11.01361],[79.29626,11.01403],[79.29727,11.01431],[79.30116,11.01419],[79.30904,11.01785],[79.31192,11.01689],[79.31345,11.01474],[79.32245,11.02087],[79.33573,11.02841],[79.34014,11.03407],[79.34424,11.03727],[79.353,11.0424],[79.35739,11.04607],[79.36283,11.04879],[79.3768,11.05333],[79.3948,11.06208],[79.40758,11.07314],[79.41338,11.07973],[79.42247,11.09404],[79.42519,11.10015],[79.42607,11.10518],[79.43152,11.11708],[79.43868,11.12619],[79.45965,11.14912],[79.46142,11.15434],[79.45989,11.14928],[79.46546,11.15308],[79.47275,11.15804],[79.48222,11.1618],[79.50153,11.17418],[79.51139,11.17662],[79.52516,11.18199],[79.52517,11.18198],[79.52349,11.18079],[79.52346,11.18078],[79.52348,11.18075],[79.52558,11.17887]],[[79.23617,10.49897],[79.23438,10.49574],[79.23206,10.497],[79.23063,10.49592],[79.2308,10.49413],[79.23009,10.49216],[79.22866,10.49234],[79.2274,10.49413],[79.22579,10.49485],[79.22418,10.49449],[79.224,10.49306],[79.21952,10.49273],[79.21845,10.4884],[79.22185,10.48823],[79.22221,10.48554],[79.22472,10.48429],[79.22472,10.48214],[79.22257,10.48196],[79.22257,10.47928],[79.23098,10.4791],[79.23528,10.47963],[79.23743,10.48286],[79.24065,10.48303],[79.24119,10.48626],[79.24298,10.49019],[79.24172,10.49342],[79.24101,10.49664],[79.23832,10.49825],[79.23617,10.49897]],[[79.20621,10.53172],[79.20747,10.52611],[79.20826,10.5226],[79.20529,10.5216],[79.20657,10.51695],[79.20872,10.51694],[79.21303,10.52479],[79.215,10.52511],[79.21544,10.5278],[79.21496,10.53107],[79.20621,10.53172]],[[79.21129,10.49342],[79.21237,10.49342],[79.2129,10.497],[79.21273,10.50022],[79.20662,10.50061],[79.20628,10.49735],[79.20879,10.49664],[79.20986,10.49592],[79.20986,10.49503],[79.21111,10.49395],[79.21129,10.49342]],[[79.21971,10.51955],[79.22078,10.51651],[79.22364,10.51669],[79.22561,10.51651],[79.22615,10.51669],[79.22597,10.5183],[79.22597,10.52098],[79.22382,10.52116],[79.22059,10.52116],[79.21971,10.51955]],[[79.21004,10.48339],[79.21022,10.48626],[79.20291,10.4861],[79.20324,10.48339],[79.21004,10.48339]],[[79.21738,10.51651],[79.21505,10.51758],[79.21469,10.51687],[79.21247,10.51673],[79.21183,10.51329],[79.21487,10.51293],[79.21774,10.51454],[79.21738,10.51651]]]}}]}