{"type":"FeatureCollection","features":[{"type":"Feature","properties":{"id":"theni","name":"Theni","stateId":"tamil-nadu","stateName":"Tamil Nadu","censuscode":624,"type":"district"},"geometry":{"type":"Polygon","coordinates":[[[77.71103,10.02023],[77.70688,10.01679],[77.70256,10.01591],[77.70179,10.01312],[77.69827,10.01289],[77.6991,10.00636],[77.69712,10.00032],[77.69671,9.99252],[77.69602,9.9836],[77.69415,9.97734],[77.69323,9.96774],[77.683,9.96892],[77.6757,9.96181],[77.67439,9.95946],[77.6746,9.95749],[77.67492,9.95463],[77.68068,9.93439],[77.67614,9.92482],[77.67552,9.92382],[77.6747,9.92249],[77.66805,9.9117],[77.66654,9.91508],[77.65745,9.91852],[77.65544,9.91454],[77.65427,9.90906],[77.65063,9.90506],[77.64952,9.90146],[77.6497,9.89071],[77.63673,9.87259],[77.62262,9.8634],[77.61959,9.85538],[77.61937,9.852],[77.61908,9.84742],[77.61845,9.83772],[77.62019,9.83605],[77.62558,9.83757],[77.62787,9.83591],[77.6263,9.83257],[77.62597,9.83039],[77.62476,9.82252],[77.62428,9.82132],[77.61861,9.80701],[77.61269,9.79948],[77.60737,9.79402],[77.60036,9.77672],[77.59578,9.77206],[77.5894,9.76556],[77.58507,9.76116],[77.58366,9.75973],[77.57978,9.75578],[77.56945,9.74782],[77.56219,9.73509],[77.55439,9.72142],[77.55329,9.71774],[77.54604,9.70419],[77.54723,9.69812],[77.54611,9.69479],[77.54408,9.69234],[77.5419,9.69329],[77.53679,9.67611],[77.5305,9.66983],[77.52597,9.66071],[77.52312,9.65896],[77.52112,9.65887],[77.51987,9.65881],[77.51152,9.65205],[77.50507,9.64943],[77.50359,9.64627],[77.50357,9.64269],[77.50571,9.63897],[77.50593,9.63638],[77.50348,9.63231],[77.49959,9.6277],[77.48768,9.61361],[77.48691,9.60635],[77.48019,9.59934],[77.47986,9.599],[77.47355,9.59242],[77.46957,9.58655],[77.46433,9.57884],[77.46932,9.57477],[77.47558,9.56965],[77.47841,9.56264],[77.47844,9.5626],[77.47777,9.55951],[77.47987,9.55393],[77.47963,9.55145],[77.47714,9.5492],[77.46376,9.54497],[77.45963,9.54107],[77.45741,9.53958],[77.44866,9.54512],[77.44632,9.54363],[77.442,9.54542],[77.42896,9.54614],[77.42409,9.53946],[77.41666,9.53526],[77.41282,9.53137],[77.4093,9.52898],[77.40311,9.52607],[77.38706,9.51797],[77.38257,9.52407],[77.37727,9.52544],[77.37095,9.53316],[77.36678,9.53553],[77.36674,9.5495],[77.36497,9.55544],[77.36272,9.5578],[77.35611,9.55833],[77.35417,9.55948],[77.35354,9.56407],[77.35198,9.56604],[77.35661,9.57329],[77.35981,9.57308],[77.36133,9.57651],[77.35698,9.58687],[77.35924,9.59405],[77.36085,9.59685],[77.36228,9.59706],[77.36528,9.59575],[77.36737,9.5973],[77.36711,9.59856],[77.3569,9.60429],[77.34453,9.58242],[77.34083,9.57238],[77.33704,9.57654],[77.32666,9.57951],[77.32571,9.58512],[77.32798,9.5873],[77.32673,9.59365],[77.33079,9.59778],[77.32965,9.5993],[77.32494,9.59798],[77.32021,9.60218],[77.30235,9.59639],[77.29541,9.58914],[77.29082,9.59001],[77.29116,9.58564],[77.27699,9.57569],[77.27371,9.57716],[77.27084,9.57399],[77.26637,9.57439],[77.26253,9.57763],[77.26057,9.57758],[77.25778,9.58051],[77.25466,9.58233],[77.24563,9.58486],[77.23854,9.58169],[77.23034,9.5877],[77.22477,9.59331],[77.22425,9.59772],[77.22098,9.60115],[77.21641,9.60127],[77.21216,9.60455],[77.21149,9.61304],[77.20149,9.61475],[77.1995,9.61125],[77.19465,9.61027],[77.19008,9.60595],[77.18275,9.60945],[77.17093,9.61025],[77.16729,9.61476],[77.1703,9.61713],[77.16998,9.6227],[77.17766,9.62858],[77.17603,9.63608],[77.17601,9.63901],[77.18125,9.64673],[77.18099,9.65702],[77.18422,9.66038],[77.18844,9.66066],[77.18787,9.66501],[77.19494,9.66921],[77.19751,9.67756],[77.20011,9.68033],[77.20122,9.68702],[77.20699,9.69505],[77.20428,9.70636],[77.20546,9.71502],[77.20517,9.72438],[77.21514,9.72619],[77.22349,9.73059],[77.22126,9.74641],[77.22657,9.75419],[77.2276,9.76433],[77.23379,9.76897],[77.22582,9.77533],[77.22493,9.78888],[77.23767,9.79075],[77.24184,9.79574],[77.24915,9.79753],[77.24716,9.8034],[77.24795,9.8063],[77.24218,9.8153],[77.23454,9.81781],[77.23403,9.82223],[77.22737,9.82189],[77.22392,9.82347],[77.23001,9.83984],[77.22834,9.84186],[77.22879,9.84751],[77.2387,9.85196],[77.23862,9.85799],[77.23324,9.86246],[77.22818,9.86095],[77.22409,9.86275],[77.21395,9.87491],[77.21629,9.87871],[77.21756,9.88369],[77.22137,9.88671],[77.21923,9.90328],[77.23168,9.91474],[77.23571,9.92675],[77.23667,9.93183],[77.24924,9.94715],[77.24945,9.95187],[77.25069,9.95242],[77.25135,9.95043],[77.25497,9.95212],[77.26469,9.95162],[77.27007,9.95928],[77.27377,9.96248],[77.27618,9.97283],[77.27427,9.97531],[77.26454,9.98185],[77.26346,9.98648],[77.26544,9.99049],[77.26142,9.99057],[77.2598,9.9953],[77.26251,10.00024],[77.26237,10.00024],[77.26232,10.00392],[77.25548,10.0092],[77.25529,10.01196],[77.25903,10.01683],[77.26351,10.0249],[77.26266,10.02933],[77.26011,10.0327],[77.25686,10.03522],[77.25159,10.04426],[77.24513,10.04856],[77.23894,10.05458],[77.23509,10.05963],[77.23254,10.06587],[77.2273,10.06745],[77.21875,10.07747],[77.21335,10.07963],[77.20947,10.0825],[77.20498,10.0901],[77.20403,10.0955],[77.2041,10.09992],[77.202,10.10145],[77.20234,10.1046],[77.20877,10.11522],[77.21208,10.11545],[77.21752,10.1126],[77.22022,10.11502],[77.22658,10.11778],[77.22965,10.1183],[77.23298,10.12031],[77.23548,10.1244],[77.23935,10.12749],[77.24476,10.12917],[77.2491,10.12571],[77.25421,10.12322],[77.26042,10.12144],[77.26763,10.12052],[77.27457,10.1169],[77.28351,10.116],[77.28418,10.12385],[77.28662,10.12461],[77.29035,10.12311],[77.29902,10.13231],[77.30416,10.13498],[77.31403,10.134],[77.32492,10.12509],[77.32533,10.12904],[77.33042,10.13836],[77.33469,10.13754],[77.34333,10.13223],[77.34928,10.13844],[77.35255,10.14366],[77.36187,10.14694],[77.366,10.14469],[77.37192,10.13638],[77.38332,10.14335],[77.38697,10.14673],[77.39254,10.15409],[77.39447,10.1587],[77.40786,10.15399],[77.40918,10.14634],[77.41102,10.14275],[77.41736,10.13839],[77.42402,10.1354],[77.43706,10.13047],[77.44187,10.1309],[77.44855,10.13273],[77.45282,10.13191],[77.46471,10.12751],[77.46944,10.13626],[77.46645,10.14033],[77.46812,10.14311],[77.47207,10.14115],[77.47433,10.14443],[77.48103,10.14695],[77.48103,10.14999],[77.48446,10.15097],[77.4863,10.14738],[77.48946,10.1456],[77.49529,10.15456],[77.49717,10.15602],[77.50042,10.16026],[77.50513,10.15828],[77.51314,10.15946],[77.52669,10.1727],[77.52359,10.17407],[77.53669,10.17872],[77.53782,10.18638],[77.54219,10.18177],[77.54604,10.18027],[77.54689,10.18278],[77.54666,10.18559],[77.54422,10.18845],[77.54428,10.19149],[77.5467,10.19127],[77.54899,10.18962],[77.55107,10.18941],[77.54981,10.19362],[77.54591,10.19817],[77.54768,10.20296],[77.55015,10.2028],[77.55125,10.19951],[77.55422,10.1975],[77.55773,10.19629],[77.5622,10.19684],[77.56371,10.19469],[77.56811,10.19129],[77.56685,10.18878],[77.56829,10.18566],[77.56852,10.17952],[77.5723,10.18031],[77.57487,10.18422],[77.58066,10.18796],[77.58449,10.18864],[77.58759,10.19042],[77.58833,10.1931],[77.5906,10.19306],[77.59284,10.18952],[77.59618,10.19221],[77.60192,10.19864],[77.59439,10.20108],[77.59535,10.20312],[77.60468,10.2037],[77.60936,10.2101],[77.61154,10.21184],[77.61615,10.21107],[77.62283,10.21519],[77.62418,10.21034],[77.63012,10.2088],[77.63104,10.20569],[77.63637,10.20611],[77.64034,10.2023],[77.64374,10.20419],[77.64551,10.20003],[77.64888,10.1979],[77.64971,10.19565],[77.65159,10.19435],[77.65402,10.19454],[77.65642,10.19243],[77.65696,10.19041],[77.65861,10.18912],[77.6614,10.18976],[77.66508,10.18866],[77.66765,10.18993],[77.67025,10.19573],[77.67784,10.19639],[77.67939,10.19837],[77.68215,10.19769],[77.68509,10.20045],[77.69172,10.19602],[77.69465,10.19769],[77.69802,10.2021],[77.69752,10.20601],[77.70179,10.20806],[77.70293,10.21377],[77.70951,10.20642],[77.70616,10.2039],[77.70541,10.20122],[77.70286,10.20041],[77.70534,10.19715],[77.70095,10.19493],[77.70092,10.19012],[77.70536,10.18011],[77.7095,10.17602],[77.71674,10.16688],[77.7222,10.16528],[77.7227,10.16103],[77.72815,10.15892],[77.72901,10.15552],[77.72469,10.15359],[77.72362,10.14856],[77.72379,10.13944],[77.72561,10.13539],[77.72947,10.13136],[77.72699,10.12894],[77.7214,10.133],[77.71682,10.12878],[77.71367,10.12763],[77.70906,10.12841],[77.70097,10.13515],[77.69613,10.13593],[77.69228,10.14013],[77.69115,10.14451],[77.6735,10.14421],[77.67317,10.13957],[77.67482,10.12577],[77.66988,10.12443],[77.66699,10.1215],[77.6751,10.11957],[77.67504,10.11642],[77.68909,10.11266],[77.6952,10.10893],[77.70058,10.10269],[77.70093,10.09672],[77.69945,10.08573],[77.70793,10.08121],[77.7096,10.07854],[77.70843,10.07455],[77.70805,10.06962],[77.70886,10.06066],[77.71016,10.05621],[77.70988,10.04738],[77.71336,10.04497],[77.7118,10.0423],[77.70666,10.03976],[77.70622,10.03443],[77.71217,10.03116],[77.71103,10.02023]]]}}]}