{"type":"FeatureCollection","features":[{"type":"Feature","properties":{"id":"thiruvarur","name":"Thiruvarur","stateId":"tamil-nadu","stateName":"Tamil Nadu","censuscode":619,"type":"district"},"geometry":{"type":"Polygon","coordinates":[[[79.70312,11.01327],[79.70713,11.01157],[79.71178,11.0078],[79.72217,11.00342],[79.72409,11.00036],[79.72719,10.99821],[79.7322,10.99705],[79.73457,10.99499],[79.74203,10.99482],[79.74674,10.99644],[79.74683,10.99668],[79.74683,10.99669],[79.74688,10.99659],[79.74867,10.99052],[79.74721,10.98626],[79.74949,10.98578],[79.75316,10.98502],[79.75524,10.98458],[79.75637,10.98184],[79.7564,10.98178],[79.75657,10.98137],[79.76087,10.9823],[79.75837,10.97854],[79.75619,10.97674],[79.7552,10.97389],[79.7552,10.97389],[79.757,10.97107],[79.76165,10.96976],[79.76283,10.96459],[79.76278,10.96311],[79.76278,10.96304],[79.76264,10.95865],[79.76226,10.95867],[79.7572,10.95894],[79.74974,10.95644],[79.74878,10.96343],[79.74377,10.9676],[79.73799,10.96584],[79.73253,10.96852],[79.72856,10.96748],[79.7276,10.96743],[79.72403,10.96723],[79.7207,10.96705],[79.72097,10.96281],[79.71993,10.96082],[79.72033,10.95349],[79.72143,10.9504],[79.72202,10.95044],[79.72203,10.95044],[79.72643,10.9508],[79.73192,10.94937],[79.73263,10.95353],[79.73627,10.95578],[79.73642,10.9554],[79.73643,10.95539],[79.73832,10.95056],[79.73734,10.94747],[79.73296,10.94575],[79.73013,10.94315],[79.7298,10.94306],[79.72745,10.94243],[79.72559,10.94194],[79.72479,10.93863],[79.72561,10.93639],[79.7215,10.93626],[79.72135,10.93409],[79.72254,10.93415],[79.72756,10.93437],[79.72752,10.93367],[79.72752,10.93359],[79.72748,10.93265],[79.72517,10.93033],[79.72637,10.92843],[79.72738,10.92822],[79.72968,10.92773],[79.73798,10.92597],[79.73735,10.92343],[79.73727,10.92314],[79.73676,10.92105],[79.73721,10.92089],[79.73837,10.92047],[79.74107,10.9233],[79.74259,10.92246],[79.7427,10.9224],[79.74308,10.92219],[79.74275,10.91887],[79.7448,10.91794],[79.74557,10.91759],[79.74557,10.91759],[79.74528,10.91666],[79.74406,10.91275],[79.74424,10.91277],[79.74236,10.90938],[79.73865,10.90916],[79.7369,10.90807],[79.73297,10.90676],[79.72992,10.90763],[79.72752,10.91025],[79.72599,10.91091],[79.7238,10.91222],[79.72119,10.91222],[79.71791,10.91222],[79.7118,10.91003],[79.70918,10.91069],[79.70765,10.91156],[79.70743,10.91396],[79.707,10.91855],[79.707,10.92291],[79.70547,10.9264],[79.7011,10.9275],[79.69783,10.93055],[79.69172,10.93099],[79.68888,10.92881],[79.68495,10.92619],[79.68277,10.92073],[79.67993,10.91833],[79.67819,10.91855],[79.67273,10.91549],[79.6712,10.91287],[79.6712,10.90807],[79.67076,10.90239],[79.66618,10.89912],[79.66378,10.89847],[79.66094,10.89694],[79.66007,10.89366],[79.65876,10.88995],[79.65701,10.88864],[79.6557,10.88362],[79.65636,10.87729],[79.65636,10.87249],[79.65418,10.86507],[79.6533,10.86267],[79.6509,10.86092],[79.64697,10.86005],[79.6461,10.85765],[79.64632,10.85547],[79.64981,10.85416],[79.6533,10.85285],[79.65614,10.84957],[79.65767,10.84695],[79.6616,10.84237],[79.6616,10.83997],[79.66007,10.8356],[79.65789,10.8356],[79.65549,10.83277],[79.65527,10.82818],[79.65439,10.82513],[79.64981,10.82316],[79.64152,10.82294],[79.63933,10.82098],[79.6389,10.8188],[79.63999,10.81356],[79.64195,10.81116],[79.64501,10.80897],[79.64776,10.8036],[79.64997,10.80146],[79.64928,10.79483],[79.65287,10.79442],[79.65612,10.79759],[79.65722,10.7958],[79.66254,10.79476],[79.67131,10.79435],[79.67345,10.79566],[79.67435,10.79925],[79.67324,10.80105],[79.6691,10.80091],[79.66779,10.80229],[79.66371,10.80215],[79.66371,10.8045],[79.65985,10.80443],[79.66047,10.81631],[79.67677,10.81679],[79.68084,10.81506],[79.68713,10.81548],[79.68761,10.82763],[79.69307,10.82964],[79.69562,10.82819],[79.69818,10.8304],[79.7055,10.82411],[79.70778,10.82418],[79.71137,10.82397],[79.71187,10.82753],[79.71383,10.82851],[79.72691,10.82818],[79.72953,10.82622],[79.72822,10.8223],[79.72888,10.8187],[79.7292,10.81739],[79.7292,10.81478],[79.72986,10.80987],[79.73345,10.80693],[79.73378,10.80431],[79.73051,10.7981],[79.72201,10.79319],[79.71547,10.7896],[79.71351,10.78698],[79.7086,10.78273],[79.70664,10.78011],[79.70664,10.77227],[79.70566,10.76965],[79.70239,10.76703],[79.70141,10.76376],[79.70599,10.76246],[79.70828,10.75951],[79.70828,10.75592],[79.70795,10.75232],[79.70664,10.75036],[79.70337,10.7497],[79.69945,10.74709],[79.69912,10.74513],[79.69487,10.74055],[79.69062,10.73728],[79.68931,10.7327],[79.68964,10.72845],[79.6952,10.72583],[79.69683,10.7242],[79.69356,10.71962],[79.69193,10.717],[79.68866,10.71635],[79.68473,10.717],[79.68244,10.71537],[79.67852,10.71275],[79.67558,10.71275],[79.67198,10.71471],[79.67165,10.71733],[79.66871,10.71831],[79.66544,10.71733],[79.6625,10.71471],[79.66021,10.7085],[79.66217,10.70621],[79.66806,10.70131],[79.67558,10.69509],[79.68114,10.69346],[79.6831,10.69019],[79.68539,10.68757],[79.68408,10.68267],[79.68114,10.68005],[79.68048,10.67515],[79.67688,10.67188],[79.67656,10.66828],[79.67623,10.66501],[79.67165,10.66338],[79.67133,10.66109],[79.67002,10.65716],[79.66838,10.65651],[79.66282,10.65716],[79.65923,10.65684],[79.65694,10.65259],[79.65628,10.64833],[79.65694,10.64539],[79.65955,10.64245],[79.66119,10.64147],[79.66609,10.63918],[79.66806,10.63656],[79.67165,10.63493],[79.67721,10.63362],[79.67754,10.63002],[79.67688,10.62414],[79.67525,10.61825],[79.67067,10.61792],[79.6674,10.61531],[79.66577,10.61106],[79.66609,10.60779],[79.66642,10.6055],[79.671,10.60321],[79.67329,10.60027],[79.67656,10.59961],[79.67721,10.59569],[79.67688,10.5934],[79.67917,10.5898],[79.68539,10.59078],[79.68898,10.59078],[79.6952,10.59046],[79.69879,10.58719],[79.69749,10.58555],[79.69454,10.58392],[79.69193,10.58228],[79.68898,10.57934],[79.68768,10.57868],[79.68702,10.57509],[79.68571,10.57313],[79.67917,10.5728],[79.67427,10.5728],[79.67198,10.57182],[79.67165,10.56953],[79.67263,10.56462],[79.67558,10.56364],[79.6831,10.56168],[79.68702,10.56005],[79.68996,10.56005],[79.69454,10.55645],[79.69716,10.55351],[79.70239,10.55252],[79.71122,10.55252],[79.71285,10.55351],[79.71743,10.55351],[79.72136,10.55122],[79.72397,10.54827],[79.72463,10.54566],[79.7279,10.54173],[79.7292,10.53846],[79.7292,10.53421],[79.72691,10.5316],[79.7243,10.52996],[79.72266,10.52767],[79.71972,10.52702],[79.71776,10.52473],[79.71776,10.52081],[79.7171,10.51786],[79.71416,10.51754],[79.71024,10.51459],[79.70697,10.51198],[79.70403,10.51198],[79.70076,10.51198],[79.69716,10.50903],[79.6965,10.50642],[79.69683,10.50184],[79.7001,10.50086],[79.70304,10.49824],[79.70337,10.49465],[79.7037,10.49203],[79.70402,10.48876],[79.70304,10.48614],[79.70043,10.48549],[79.6965,10.48647],[79.69225,10.48614],[79.69193,10.48353],[79.69062,10.48091],[79.68768,10.48124],[79.6831,10.48091],[79.68179,10.47699],[79.68375,10.47306],[79.68735,10.46881],[79.69095,10.46391],[79.69356,10.46162],[79.69912,10.45606],[79.69618,10.45214],[79.69029,10.45116],[79.68702,10.45181],[79.68441,10.45214],[79.67787,10.45279],[79.67623,10.45181],[79.6746,10.44887],[79.67263,10.44429],[79.66969,10.44331],[79.66773,10.44494],[79.66642,10.44789],[79.6638,10.45148],[79.66119,10.45214],[79.65923,10.4505],[79.65759,10.44723],[79.65432,10.44527],[79.65203,10.44429],[79.64647,10.44396],[79.64091,10.44462],[79.63405,10.44069],[79.63143,10.43546],[79.63176,10.43219],[79.63176,10.42369],[79.63176,10.41976],[79.63372,10.41617],[79.63339,10.41126],[79.63176,10.40799],[79.63078,10.40374],[79.63078,10.39949],[79.6298,10.39589],[79.63045,10.39164],[79.63307,10.38576],[79.63568,10.38151],[79.63568,10.37791],[79.63634,10.37235],[79.6383,10.36744],[79.63764,10.36352],[79.63764,10.35894],[79.63863,10.35469],[79.64255,10.34881],[79.65007,10.34684],[79.65563,10.34259],[79.65759,10.3403],[79.66479,10.33573],[79.67329,10.33017],[79.67674,10.32514],[79.67549,10.32556],[79.67544,10.32553],[79.67532,10.32558],[79.67089,10.32707],[79.66544,10.32888],[79.65937,10.33092],[79.65465,10.33251],[79.63789,10.33808],[79.63789,10.33808],[79.63596,10.33699],[79.6347,10.33607],[79.63288,10.33543],[79.63278,10.33539],[79.62903,10.33245],[79.62691,10.33078],[79.62663,10.33033],[79.62447,10.32687],[79.62312,10.32595],[79.62058,10.32523],[79.61629,10.32402],[79.61487,10.32321],[79.6122,10.32169],[79.61143,10.32078],[79.61157,10.31919],[79.6134,10.3183],[79.62195,10.31709],[79.62259,10.317],[79.62406,10.3168],[79.63234,10.31577],[79.645,10.31545],[79.64841,10.31615],[79.65894,10.31298],[79.65903,10.31295],[79.66265,10.31186],[79.66549,10.31159],[79.66568,10.31155],[79.67301,10.31082],[79.68097,10.30739],[79.68742,10.30305],[79.69149,10.30032],[79.69996,10.29517],[79.70545,10.29353],[79.70996,10.29246],[79.71501,10.29122],[79.72296,10.28928],[79.72362,10.28926],[79.72703,10.28883],[79.72772,10.28907],[79.73248,10.29163],[79.73287,10.29225],[79.73369,10.29351],[79.73471,10.29508],[79.73788,10.2977],[79.73805,10.29788],[79.74241,10.29914],[79.74753,10.30006],[79.74757,10.29994],[79.74836,10.29935],[79.75025,10.2915],[79.75093,10.29105],[79.75097,10.29065],[79.75104,10.29006],[79.75125,10.28875],[79.75368,10.28772],[79.75372,10.28771],[79.75733,10.28866],[79.76029,10.2887],[79.76394,10.28727],[79.76394,10.28727],[79.76395,10.28727],[79.7656,10.28655],[79.7667,10.28578],[79.76919,10.28406],[79.7703,10.28384],[79.77263,10.28206],[79.77265,10.28116],[79.7727,10.28112],[79.77274,10.28107],[79.7745,10.27983],[79.77491,10.27824],[79.77497,10.27802],[79.77515,10.27793],[79.77622,10.27654],[79.77615,10.2765],[79.77638,10.27511],[79.77426,10.27395],[79.76936,10.27288],[79.76465,10.27351],[79.76088,10.27398],[79.75238,10.27575],[79.74099,10.27742],[79.72844,10.27892],[79.72004,10.27985],[79.70622,10.2836],[79.69921,10.28409],[79.69916,10.28407],[79.69694,10.28424],[79.69269,10.2853],[79.68952,10.28599],[79.68776,10.28656],[79.68755,10.2867],[79.68668,10.28694],[79.68297,10.2881],[79.67989,10.28909],[79.67454,10.29041],[79.67431,10.29028],[79.67411,10.29017],[79.66714,10.29124],[79.66552,10.29145],[79.65683,10.28971],[79.65185,10.29003],[79.6455,10.29208],[79.63782,10.29449],[79.63765,10.29456],[79.63755,10.29456],[79.63547,10.29521],[79.63328,10.29645],[79.63268,10.29678],[79.63247,10.29679],[79.63159,10.29683],[79.6282,10.29835],[79.6277,10.29857],[79.62446,10.29972],[79.61665,10.3018],[79.61655,10.30183],[79.6114,10.30232],[79.59945,10.30428],[79.59444,10.30505],[79.59436,10.30505],[79.59328,10.3046],[79.58445,10.30528],[79.58122,10.30552],[79.57886,10.3057],[79.57387,10.30653],[79.57385,10.30658],[79.56417,10.30816],[79.55244,10.30799],[79.55224,10.30795],[79.55073,10.30773],[79.54767,10.30693],[79.54766,10.30693],[79.54541,10.30733],[79.54474,10.30864],[79.54566,10.31128],[79.54571,10.31138],[79.54572,10.3114],[79.5469,10.31393],[79.54993,10.31691],[79.55005,10.31707],[79.5526,10.321],[79.55435,10.32766],[79.55447,10.32772],[79.55629,10.32986],[79.56117,10.33119],[79.56139,10.33125],[79.56141,10.33126],[79.56547,10.33123],[79.56947,10.33043],[79.5697,10.33041],[79.57659,10.32904],[79.58403,10.32856],[79.59539,10.32775],[79.59565,10.32776],[79.59569,10.32775],[79.59794,10.32759],[79.60123,10.32809],[79.60133,10.32811],[79.60356,10.32845],[79.60678,10.32896],[79.60685,10.32895],[79.61116,10.3296],[79.61309,10.33076],[79.6148,10.33453],[79.61443,10.33544],[79.61418,10.33609],[79.61356,10.33765],[79.61307,10.33893],[79.61282,10.34007],[79.6098,10.34251],[79.60968,10.34256],[79.60025,10.34779],[79.60017,10.34776],[79.60012,10.34782],[79.59853,10.34756],[79.5955,10.34615],[79.59222,10.34462],[79.5919,10.34449],[79.58679,10.3428],[79.58595,10.34256],[79.58593,10.34256],[79.58191,10.3425],[79.57579,10.34377],[79.57576,10.34381],[79.56948,10.3451],[79.55511,10.3481],[79.54958,10.3493],[79.54931,10.3494],[79.54679,10.351],[79.53307,10.35567],[79.53283,10.35575],[79.53277,10.35577],[79.52698,10.35499],[79.52946,10.3509],[79.53062,10.34979],[79.53082,10.34917],[79.53176,10.34826],[79.53282,10.34708],[79.53459,10.3451],[79.53707,10.34232],[79.53787,10.34143],[79.53639,10.33964],[79.5364,10.33658],[79.53727,10.33316],[79.53733,10.33301],[79.53742,10.33276],[79.53761,10.33225],[79.53778,10.32822],[79.53784,10.32684],[79.53721,10.32626],[79.53582,10.32383],[79.52826,10.3178],[79.52793,10.31713],[79.52273,10.31386],[79.52242,10.31373],[79.5222,10.31364],[79.52122,10.31323],[79.52048,10.31292],[79.52028,10.31273],[79.51933,10.31178],[79.51795,10.31157],[79.51774,10.31159],[79.51773,10.31159],[79.51665,10.31169],[79.51431,10.3119],[79.51306,10.31212],[79.50985,10.31267],[79.50982,10.31268],[79.50948,10.31274],[79.50616,10.31332],[79.50315,10.31384],[79.50141,10.31419],[79.49344,10.31609],[79.48231,10.31697],[79.47341,10.31887],[79.47315,10.33074],[79.47352,10.33686],[79.47484,10.34459],[79.47759,10.34996],[79.4795,10.34863],[79.48378,10.34795],[79.49065,10.34728],[79.49155,10.34818],[79.49391,10.34931],[79.49538,10.34931],[79.49909,10.34807],[79.50146,10.34683],[79.50258,10.34694],[79.50522,10.34965],[79.50513,10.35015],[79.50384,10.35098],[79.5038,10.35208],[79.50376,10.3531],[79.50406,10.35398],[79.50501,10.35487],[79.50598,10.35489],[79.50765,10.35372],[79.50817,10.35344],[79.50797,10.36265],[79.50503,10.36876],[79.49731,10.37022],[79.49125,10.37319],[79.4859,10.38061],[79.47747,10.37233],[79.4717,10.3733],[79.46182,10.37451],[79.4709,10.38595],[79.46855,10.39059],[79.47991,10.39823],[79.47714,10.40306],[79.47466,10.4074],[79.46583,10.41215],[79.46616,10.41714],[79.45972,10.4183],[79.45679,10.42771],[79.45277,10.43406],[79.46033,10.43301],[79.4674,10.43481],[79.47172,10.43623],[79.4802,10.44161],[79.47485,10.44368],[79.47366,10.45087],[79.47046,10.45784],[79.47787,10.4634],[79.4804,10.46955],[79.48371,10.47794],[79.48369,10.48746],[79.47938,10.49131],[79.47141,10.49154],[79.46234,10.48749],[79.45499,10.49321],[79.46165,10.50338],[79.46897,10.50955],[79.46361,10.51263],[79.45887,10.5132],[79.45692,10.51851],[79.45287,10.52055],[79.44741,10.52004],[79.44209,10.52153],[79.43881,10.52715],[79.4346,10.53181],[79.42433,10.53449],[79.42677,10.5413],[79.4331,10.54385],[79.43774,10.54416],[79.44211,10.54632],[79.44806,10.54901],[79.45338,10.54941],[79.45083,10.5562],[79.44615,10.55585],[79.43983,10.55842],[79.43397,10.55579],[79.42705,10.55956],[79.42525,10.55493],[79.42053,10.54821],[79.41499,10.55067],[79.40779,10.5499],[79.39938,10.5554],[79.39845,10.56124],[79.39952,10.57164],[79.40259,10.57561],[79.39576,10.57961],[79.38901,10.58209],[79.38312,10.58108],[79.37637,10.57818],[79.36971,10.57797],[79.36264,10.57794],[79.3497,10.58501],[79.34687,10.58973],[79.34857,10.59573],[79.34746,10.60553],[79.35199,10.6093],[79.34976,10.61442],[79.34846,10.61917],[79.34474,10.62391],[79.3526,10.62818],[79.35389,10.63407],[79.35491,10.63882],[79.35669,10.64687],[79.35078,10.64595],[79.34749,10.65141],[79.34062,10.65722],[79.33077,10.65785],[79.3174,10.6601],[79.31662,10.66626],[79.31687,10.67387],[79.31872,10.67971],[79.31837,10.68637],[79.31346,10.69526],[79.31027,10.70106],[79.30625,10.70834],[79.30768,10.71646],[79.30616,10.72527],[79.3032,10.73074],[79.29977,10.73507],[79.30145,10.74069],[79.30464,10.74454],[79.30862,10.74522],[79.30882,10.74552],[79.3097,10.74563],[79.31232,10.74519],[79.31407,10.74366],[79.31494,10.74181],[79.3144,10.74017],[79.31351,10.73902],[79.31557,10.73889],[79.31943,10.73656],[79.32183,10.73645],[79.32391,10.73678],[79.32723,10.73832],[79.33607,10.73822],[79.33626,10.73809],[79.34129,10.73798],[79.34522,10.73907],[79.34828,10.74049],[79.34981,10.74192],[79.34963,10.7433],[79.35014,10.74878],[79.35085,10.74875],[79.35233,10.74727],[79.35473,10.74585],[79.36348,10.75219],[79.3614,10.75481],[79.36123,10.75864],[79.36223,10.7618],[79.3602,10.76271],[79.3602,10.76498],[79.35368,10.76498],[79.35325,10.76509],[79.345,10.76509],[79.34521,10.76716],[79.34507,10.7672],[79.34483,10.77529],[79.34474,10.78058],[79.34683,10.78193],[79.35014,10.78159],[79.35244,10.78892],[79.35177,10.78892],[79.35179,10.78899],[79.34883,10.7899],[79.34938,10.79416],[79.35575,10.79241],[79.35846,10.79249],[79.35921,10.79427],[79.36358,10.79362],[79.36512,10.79504],[79.36883,10.79504],[79.37102,10.79493],[79.37431,10.80037],[79.37818,10.80131],[79.37811,10.80219],[79.37311,10.80584],[79.36946,10.80814],[79.36793,10.80814],[79.36601,10.80814],[79.36466,10.80757],[79.36121,10.80507],[79.35852,10.80507],[79.35698,10.80642],[79.35602,10.80757],[79.35333,10.80968],[79.34738,10.81026],[79.33893,10.80949],[79.3299,10.80834],[79.32779,10.80853],[79.32606,10.8091],[79.32337,10.81045],[79.3203,10.81275],[79.31454,10.81487],[79.31108,10.81621],[79.30839,10.81813],[79.30743,10.81986],[79.30551,10.82331],[79.30417,10.82543],[79.30513,10.82792],[79.30667,10.82965],[79.30743,10.83196],[79.30551,10.83272],[79.30283,10.83272],[79.29764,10.83311],[79.29591,10.83349],[79.29438,10.83657],[79.29251,10.83904],[79.29503,10.84451],[79.29714,10.84998],[79.2963,10.85419],[79.29461,10.86103],[79.29524,10.86576],[79.29304,10.87144],[79.28609,10.87049],[79.27694,10.87081],[79.27442,10.87302],[79.27537,10.8768],[79.27789,10.87964],[79.28136,10.88185],[79.28294,10.88501],[79.28105,10.88658],[79.27568,10.88658],[79.2741,10.88974],[79.27379,10.89384],[79.27442,10.89668],[79.27978,10.89763],[79.2842,10.89921],[79.28515,10.90205],[79.28515,10.90836],[79.28641,10.91088],[79.29051,10.91183],[79.29556,10.91183],[79.29682,10.91467],[79.29619,10.91877],[79.29209,10.92003],[79.28925,10.92319],[79.28925,10.92445],[79.29114,10.92823],[79.29272,10.9295],[79.29777,10.93044],[79.30061,10.93455],[79.30408,10.93707],[79.30597,10.93644],[79.31071,10.93234],[79.31386,10.93234],[79.31828,10.93234],[79.31923,10.93044],[79.3227,10.92823],[79.32964,10.92855],[79.32953,10.92304],[79.32909,10.9204],[79.3329,10.91981],[79.33217,10.91849],[79.32967,10.91526],[79.33129,10.91394],[79.3354,10.91248],[79.3398,10.91116],[79.34274,10.90925],[79.34699,10.90925],[79.34978,10.90793],[79.35096,10.90499],[79.35448,10.9047],[79.35463,10.90162],[79.35683,10.90088],[79.35962,10.89912],[79.36094,10.89751],[79.36299,10.89663],[79.36431,10.89765],[79.36695,10.89824],[79.36783,10.89633],[79.36989,10.89604],[79.37136,10.89589],[79.3715,10.89252],[79.37326,10.89208],[79.37649,10.89164],[79.3784,10.89164],[79.38134,10.89237],[79.38398,10.89296],[79.39058,10.89457],[79.39396,10.89428],[79.39601,10.89252],[79.39895,10.8909],[79.40115,10.8909],[79.40409,10.89105],[79.40776,10.89002],[79.40981,10.88723],[79.41142,10.88474],[79.41289,10.88312],[79.41788,10.8821],[79.42155,10.88004],[79.42595,10.87769],[79.4283,10.87666],[79.43197,10.87666],[79.43447,10.87652],[79.43608,10.87534],[79.43916,10.8727],[79.44166,10.87197],[79.44724,10.87035],[79.45135,10.86874],[79.45457,10.86654],[79.45604,10.86243],[79.45651,10.86203],[79.45897,10.86483],[79.467,10.86191],[79.46842,10.8664],[79.47106,10.87071],[79.47261,10.87005],[79.47252,10.87141],[79.47495,10.87195],[79.47619,10.86867],[79.48093,10.86763],[79.4811,10.86773],[79.48115,10.86763],[79.48668,10.86885],[79.48682,10.87087],[79.48679,10.87088],[79.48423,10.87652],[79.48853,10.88265],[79.48952,10.88395],[79.48897,10.8861],[79.49154,10.88826],[79.4929,10.88736],[79.49695,10.88849],[79.50208,10.89167],[79.50797,10.89542],[79.50799,10.90121],[79.5016,10.9036],[79.4976,10.9008],[79.49592,10.90337],[79.49387,10.90318],[79.49401,10.90472],[79.49261,10.90538],[79.4943,10.90792],[79.49431,10.90797],[79.49424,10.90816],[79.49437,10.91482],[79.49171,10.91519],[79.49095,10.91732],[79.48525,10.918],[79.48866,10.92219],[79.49942,10.93065],[79.4996,10.93728],[79.51567,10.93883],[79.51861,10.94363],[79.51971,10.94381],[79.52066,10.95325],[79.51528,10.95342],[79.51492,10.9677],[79.5283,10.9691],[79.52868,10.96289],[79.52623,10.96136],[79.52733,10.95758],[79.53306,10.95976],[79.5325,10.96344],[79.53241,10.96407],[79.5396,10.96446],[79.54306,10.96366],[79.54433,10.96528],[79.55261,10.96549],[79.55396,10.96873],[79.55715,10.96784],[79.55868,10.97351],[79.56914,10.97471],[79.56934,10.96959],[79.57671,10.96943],[79.57515,10.975],[79.57824,10.97555],[79.57914,10.98094],[79.58987,10.98107],[79.59189,10.97532],[79.59608,10.97632],[79.59682,10.9711],[79.60329,10.97004],[79.60583,10.97221],[79.60847,10.9724],[79.60728,10.97536],[79.60409,10.97526],[79.60517,10.97787],[79.60781,10.97986],[79.6241,10.9817],[79.62721,10.97622],[79.63366,10.97741],[79.63137,10.98523],[79.63473,10.98757],[79.63429,10.98807],[79.6329,10.98964],[79.63672,10.99046],[79.63399,10.99261],[79.63603,10.99374],[79.63644,10.99396],[79.63543,10.99657],[79.64034,11.00045],[79.64096,11.00522],[79.64278,11.00765],[79.65233,11.0119],[79.6505,11.01306],[79.65433,11.01226],[79.66022,11.01307],[79.67142,11.01459],[79.67917,11.01565],[79.68793,11.0158],[79.6911,11.01586],[79.70174,11.01357],[79.70312,11.01327]]]}}]}