{"type":"FeatureCollection","features":[{"type":"Feature","properties":{"id":"tiruchirappalli","name":"Tiruchirappalli","stateId":"tamil-nadu","stateName":"Tamil Nadu","censuscode":614,"type":"district"},"geometry":{"type":"Polygon","coordinates":[[[78.66535,11.37201],[78.66538,11.37202],[78.66992,11.37476],[78.67167,11.37521],[78.67855,11.37696],[78.68253,11.37797],[78.68831,11.37943],[78.68916,11.37611],[78.68053,11.3718],[78.67772,11.36897],[78.67511,11.36634],[78.67436,11.35886],[78.66952,11.35864],[78.66442,11.35724],[78.6598,11.35377],[78.65783,11.34997],[78.65725,11.34429],[78.65115,11.34235],[78.65082,11.33847],[78.64556,11.33608],[78.63563,11.33418],[78.63282,11.33155],[78.63648,11.33068],[78.63724,11.32763],[78.63974,11.32459],[78.65427,11.33085],[78.66251,11.32822],[78.66076,11.32055],[78.66583,11.31565],[78.67315,11.32283],[78.6776,11.32503],[78.68346,11.32275],[78.6865,11.31926],[78.69114,11.32129],[78.70021,11.32196],[78.70919,11.32262],[78.71486,11.32114],[78.73284,11.32103],[78.73615,11.31809],[78.73811,11.31325],[78.7385,11.30091],[78.73634,11.29747],[78.73874,11.29389],[78.75142,11.28437],[78.74972,11.28066],[78.74645,11.2792],[78.7404,11.27266],[78.73048,11.27005],[78.72997,11.26546],[78.72548,11.25785],[78.72003,11.25582],[78.71523,11.25173],[78.71244,11.2481],[78.71281,11.23785],[78.71011,11.23341],[78.70387,11.22822],[78.70499,11.22481],[78.70919,11.22503],[78.71378,11.21184],[78.7085,11.21017],[78.70138,11.19238],[78.69876,11.18992],[78.68998,11.19263],[78.67904,11.19271],[78.67374,11.18438],[78.66957,11.18147],[78.66057,11.17022],[78.65313,11.167],[78.65371,11.16332],[78.6631,11.16251],[78.67257,11.16394],[78.67702,11.15607],[78.67702,11.14635],[78.67985,11.14529],[78.6805,11.13504],[78.68019,11.12865],[78.68485,11.12743],[78.68689,11.12403],[78.68717,11.11324],[78.6931,11.10331],[78.69512,11.09154],[78.69869,11.09031],[78.69951,11.08415],[78.70133,11.07063],[78.70483,11.06626],[78.70923,11.0636],[78.71242,11.05355],[78.71835,11.0519],[78.71742,11.06448],[78.72076,11.06703],[78.72052,11.07046],[78.72034,11.07305],[78.73683,11.0732],[78.7411,11.07441],[78.74531,11.08164],[78.74093,11.08304],[78.73889,11.0868],[78.73745,11.09462],[78.73405,11.09783],[78.73733,11.10748],[78.74188,11.10824],[78.75183,11.11661],[78.75783,11.11828],[78.76208,11.12156],[78.77761,11.11683],[78.77865,11.11279],[78.78229,11.11345],[78.78217,11.11615],[78.79147,11.11551],[78.79595,11.11438],[78.79906,11.11251],[78.80168,11.11461],[78.81082,11.1118],[78.81097,11.10434],[78.80743,11.09234],[78.8091,11.08876],[78.80703,11.08658],[78.81006,11.08301],[78.80882,11.07967],[78.81744,11.07918],[78.82489,11.07853],[78.82869,11.07794],[78.83271,11.07645],[78.84073,11.07588],[78.84494,11.0841],[78.84627,11.08825],[78.85684,11.08825],[78.86129,11.08981],[78.86733,11.08581],[78.87252,11.08594],[78.87337,11.08298],[78.87637,11.0839],[78.87338,11.09279],[78.87944,11.09787],[78.88355,11.09719],[78.88425,11.10088],[78.88925,11.10164],[78.89027,11.09967],[78.90633,11.09646],[78.9147,11.09743],[78.92706,11.08978],[78.93258,11.09459],[78.9437,11.09387],[78.95055,11.09113],[78.95235,11.09429],[78.96628,11.0943],[78.97513,11.09266],[78.98529,11.08643],[78.98746,11.07538],[78.99147,11.07541],[78.99386,11.073],[78.99696,11.07266],[79.00016,11.07106],[79.0019,11.06901],[79.00194,11.06406],[79.00507,11.05904],[79.009,11.05682],[79.00901,11.0427],[79.01194,11.04038],[79.01209,11.03023],[79.01215,11.02604],[79.0123,11.01547],[79.01481,11.00829],[79.00954,11.00726],[79.00275,11.00164],[78.99985,11],[78.99459,10.99673],[78.99159,10.99626],[78.98783,11.0001],[78.98687,10.9937],[78.98444,10.99018],[78.98615,10.98111],[78.986,10.97616],[78.97883,10.97341],[78.97789,10.96585],[78.97261,10.96546],[78.96595,10.9681],[78.95911,10.96931],[78.95283,10.96936],[78.94922,10.96546],[78.93896,10.96188],[78.93917,10.95829],[78.95023,10.95207],[78.95335,10.94859],[78.96009,10.94792],[78.96618,10.94832],[78.96952,10.94499],[78.97719,10.93734],[78.97976,10.93341],[78.9778,10.92827],[78.98104,10.92092],[78.98421,10.9222],[78.98646,10.92626],[78.99,10.92629],[78.99987,10.92015],[79.00395,10.90948],[79.00506,10.90251],[79.00595,10.89682],[79.00715,10.89123],[79.00742,10.88937],[78.9999,10.89221],[78.9736,10.8897],[78.96483,10.88806],[78.96029,10.89205],[78.94395,10.88737],[78.93791,10.88095],[78.94102,10.87811],[78.93498,10.87157],[78.92764,10.86711],[78.91984,10.86436],[78.90921,10.86175],[78.8953,10.85677],[78.88199,10.85332],[78.8693,10.8481],[78.85541,10.84356],[78.81846,10.83601],[78.80849,10.83586],[78.79743,10.83698],[78.78947,10.83544],[78.78365,10.8325],[78.77825,10.83163],[78.77877,10.82549],[78.78725,10.8272],[78.79384,10.82405],[78.80055,10.82285],[78.80514,10.82436],[78.81544,10.82302],[78.86405,10.82607],[78.86764,10.82535],[78.86926,10.81818],[78.87113,10.81472],[78.86489,10.81082],[78.86405,10.80165],[78.86963,10.80212],[78.86853,10.79675],[78.87011,10.78561],[78.87881,10.78738],[78.88047,10.77831],[78.87516,10.77502],[78.87504,10.76838],[78.8733,10.76191],[78.86817,10.75852],[78.86985,10.74618],[78.86962,10.74074],[78.86859,10.7365],[78.86527,10.73418],[78.86833,10.71386],[78.87143,10.70593],[78.8715,10.69475],[78.87289,10.68763],[78.86854,10.68686],[78.86437,10.6873],[78.86045,10.69002],[78.8488,10.68943],[78.84754,10.69168],[78.83781,10.69112],[78.82953,10.69302],[78.82084,10.69315],[78.82032,10.68668],[78.81736,10.68544],[78.81461,10.6826],[78.81294,10.67865],[78.81215,10.67408],[78.81015,10.67123],[78.8075,10.67245],[78.80374,10.67288],[78.80313,10.67541],[78.80586,10.67676],[78.80467,10.67906],[78.80043,10.67864],[78.79953,10.67521],[78.80117,10.67067],[78.79768,10.66336],[78.80039,10.66231],[78.80002,10.65875],[78.79856,10.65756],[78.79695,10.65322],[78.79367,10.649],[78.78982,10.64668],[78.77466,10.64881],[78.77289,10.65226],[78.76751,10.65265],[78.76112,10.65172],[78.75797,10.64802],[78.75705,10.6427],[78.74893,10.64087],[78.74468,10.6464],[78.7426,10.65301],[78.74191,10.66041],[78.73842,10.66514],[78.73673,10.6702],[78.73708,10.6757],[78.73844,10.67953],[78.74072,10.68243],[78.74502,10.68395],[78.74656,10.68669],[78.74641,10.6962],[78.74214,10.69772],[78.74364,10.70373],[78.74246,10.70793],[78.73693,10.71072],[78.72413,10.71271],[78.7205,10.71446],[78.71517,10.72035],[78.70966,10.72107],[78.7083,10.72957],[78.70593,10.73096],[78.69504,10.73219],[78.68907,10.73155],[78.68833,10.72663],[78.69154,10.71634],[78.69201,10.71147],[78.6914,10.70648],[78.6959,10.7041],[78.69662,10.70117],[78.69508,10.69654],[78.6881,10.68805],[78.68327,10.68568],[78.68248,10.68213],[78.68398,10.67398],[78.68306,10.66889],[78.679,10.6684],[78.66808,10.67215],[78.66652,10.65795],[78.66334,10.65367],[78.65964,10.65353],[78.65427,10.65592],[78.65367,10.65999],[78.65534,10.66502],[78.65616,10.67327],[78.65326,10.67966],[78.65594,10.68732],[78.65949,10.703],[78.64952,10.70227],[78.64506,10.70293],[78.63722,10.70677],[78.6296,10.70419],[78.62484,10.69563],[78.62392,10.69054],[78.62485,10.68491],[78.62448,10.6809],[78.62281,10.67559],[78.61985,10.67509],[78.61387,10.68075],[78.60991,10.67757],[78.60503,10.67164],[78.59564,10.65658],[78.59101,10.6565],[78.58125,10.66121],[78.57585,10.65982],[78.56739,10.65988],[78.56703,10.6655],[78.56762,10.67203],[78.56953,10.67884],[78.5581,10.68477],[78.55266,10.68578],[78.54972,10.68105],[78.54759,10.67475],[78.54486,10.67369],[78.54087,10.67532],[78.53548,10.67541],[78.53468,10.66946],[78.52918,10.6695],[78.52573,10.67319],[78.51888,10.66527],[78.5187,10.66373],[78.52164,10.66216],[78.52203,10.66015],[78.51935,10.65885],[78.51874,10.65501],[78.51934,10.65031],[78.52181,10.64777],[78.52753,10.64509],[78.52929,10.64187],[78.52956,10.63275],[78.52842,10.62726],[78.50962,10.6314],[78.49858,10.63492],[78.48412,10.63737],[78.48116,10.63642],[78.47712,10.63203],[78.47393,10.63051],[78.47186,10.62645],[78.46948,10.62555],[78.46507,10.61698],[78.45939,10.61657],[78.45791,10.61417],[78.45852,10.60987],[78.45658,10.60696],[78.45077,10.60499],[78.44964,10.60087],[78.45038,10.59966],[78.45282,10.5993],[78.45321,10.59792],[78.45193,10.59122],[78.45378,10.58989],[78.45656,10.58964],[78.45868,10.58728],[78.45749,10.58327],[78.45734,10.57892],[78.46465,10.57371],[78.46285,10.55922],[78.4647,10.55766],[78.46481,10.55032],[78.46639,10.54567],[78.46468,10.54213],[78.48284,10.53931],[78.49038,10.5259],[78.48671,10.51669],[78.48522,10.51097],[78.49706,10.50739],[78.49754,10.4883],[78.49843,10.48422],[78.50456,10.48258],[78.51057,10.48173],[78.52186,10.48188],[78.52954,10.48561],[78.52991,10.48842],[78.53395,10.49315],[78.5372,10.49473],[78.53752,10.49834],[78.54068,10.50135],[78.54327,10.50678],[78.54051,10.50898],[78.5402,10.51271],[78.53448,10.51366],[78.53439,10.51831],[78.53524,10.5226],[78.53702,10.52769],[78.53929,10.52922],[78.54304,10.5281],[78.54594,10.52866],[78.54884,10.52107],[78.55017,10.51493],[78.55387,10.51393],[78.56174,10.51329],[78.56882,10.51451],[78.56954,10.5172],[78.5737,10.51642],[78.57586,10.51881],[78.57911,10.51942],[78.58069,10.52158],[78.58237,10.52066],[78.58178,10.51246],[78.58045,10.5064],[78.57079,10.48743],[78.57873,10.48216],[78.58589,10.47873],[78.58644,10.47586],[78.58931,10.47349],[78.58947,10.46449],[78.58702,10.46238],[78.58812,10.45578],[78.58347,10.45364],[78.58315,10.44957],[78.58469,10.44033],[78.57551,10.44412],[78.57226,10.4422],[78.56525,10.44213],[78.56498,10.4372],[78.56214,10.43063],[78.56444,10.4289],[78.56407,10.42678],[78.55742,10.42746],[78.55642,10.42523],[78.55284,10.42577],[78.55301,10.43236],[78.54722,10.43343],[78.53408,10.43347],[78.52472,10.43595],[78.52131,10.42989],[78.51916,10.42171],[78.51776,10.4141],[78.51787,10.40578],[78.5248,10.40321],[78.52958,10.39986],[78.53028,10.39417],[78.52877,10.38702],[78.52681,10.38084],[78.52295,10.3756],[78.51755,10.37409],[78.51699,10.37042],[78.51352,10.37039],[78.50772,10.3749],[78.50752,10.38665],[78.4971,10.38621],[78.49133,10.38854],[78.49109,10.39422],[78.47296,10.40071],[78.46322,10.4056],[78.45761,10.40718],[78.44644,10.40697],[78.44404,10.40412],[78.44053,10.39228],[78.43968,10.38724],[78.43986,10.38242],[78.44077,10.37978],[78.44365,10.37804],[78.44822,10.37686],[78.44941,10.37416],[78.44747,10.37154],[78.43699,10.36255],[78.41551,10.36155],[78.41016,10.35964],[78.40921,10.35666],[78.40504,10.35646],[78.39894,10.35318],[78.39299,10.35402],[78.39208,10.35025],[78.39409,10.34823],[78.39802,10.34625],[78.40477,10.34431],[78.40104,10.33379],[78.39638,10.32356],[78.39377,10.32312],[78.3914,10.31574],[78.38543,10.31418],[78.38058,10.30905],[78.37166,10.3075],[78.37333,10.29884],[78.3684,10.29818],[78.36489,10.29287],[78.3341,10.2999],[78.33661,10.31117],[78.33772,10.32567],[78.33474,10.33079],[78.32968,10.3357],[78.32449,10.33808],[78.32181,10.34314],[78.31803,10.3481],[78.31157,10.3498],[78.30497,10.35042],[78.29629,10.35878],[78.29144,10.3603],[78.2864,10.3679],[78.28144,10.36983],[78.28044,10.37585],[78.27811,10.38091],[78.27966,10.38721],[78.2879,10.38905],[78.28874,10.40108],[78.29373,10.40168],[78.29941,10.40405],[78.30658,10.40847],[78.30893,10.41327],[78.3092,10.42502],[78.3141,10.43044],[78.31497,10.43829],[78.31214,10.44014],[78.30695,10.44189],[78.29681,10.44901],[78.28096,10.45192],[78.26612,10.45711],[78.25519,10.45838],[78.25047,10.46254],[78.23512,10.46831],[78.22425,10.46288],[78.21699,10.46888],[78.20793,10.47198],[78.20381,10.47837],[78.20024,10.48171],[78.20304,10.48364],[78.19896,10.48871],[78.19057,10.49644],[78.18081,10.50138],[78.17178,10.50183],[78.17742,10.51303],[78.18247,10.52091],[78.19216,10.54126],[78.198,10.54667],[78.19782,10.54686],[78.2015,10.54704],[78.22298,10.54924],[78.23953,10.55375],[78.24602,10.55752],[78.25368,10.5691],[78.25833,10.57419],[78.26107,10.58042],[78.26172,10.58689],[78.26081,10.59415],[78.25792,10.59987],[78.2564,10.60559],[78.25916,10.61012],[78.26427,10.61467],[78.26522,10.61872],[78.26557,10.6276],[78.26706,10.64082],[78.27007,10.65449],[78.27148,10.66407],[78.2736,10.67845],[78.27558,10.69185],[78.27625,10.69638],[78.2793,10.70674],[78.28188,10.73355],[78.28292,10.74434],[78.28573,10.74483],[78.28563,10.74271],[78.28551,10.74042],[78.28795,10.73452],[78.29406,10.73235],[78.29256,10.72891],[78.29227,10.72393],[78.29196,10.71867],[78.2898,10.71711],[78.29039,10.71326],[78.29416,10.70234],[78.30007,10.70187],[78.30551,10.7023],[78.31135,10.70093],[78.31715,10.70181],[78.31873,10.70587],[78.32444,10.70719],[78.3262,10.70443],[78.33002,10.7042],[78.33042,10.70897],[78.33551,10.70831],[78.34063,10.70585],[78.34277,10.70947],[78.34663,10.72048],[78.35925,10.72125],[78.36012,10.72432],[78.36603,10.72412],[78.37129,10.72552],[78.37774,10.72515],[78.37535,10.71937],[78.38048,10.71628],[78.38439,10.71597],[78.39178,10.705],[78.39935,10.69646],[78.40329,10.69202],[78.40356,10.68965],[78.40379,10.68771],[78.40187,10.68095],[78.40455,10.6773],[78.40966,10.67466],[78.41614,10.67249],[78.42122,10.67272],[78.42499,10.67672],[78.42745,10.67612],[78.43213,10.6874],[78.43262,10.69225],[78.44059,10.6919],[78.44735,10.69161],[78.45827,10.68912],[78.46043,10.69121],[78.46311,10.69582],[78.46513,10.70123],[78.47401,10.70384],[78.48172,10.70021],[78.48815,10.6986],[78.49599,10.69536],[78.5141,10.69223],[78.51514,10.697],[78.51712,10.69918],[78.5182,10.70835],[78.52629,10.70825],[78.53208,10.71038],[78.53532,10.71299],[78.53649,10.71393],[78.54183,10.71641],[78.54614,10.7214],[78.55312,10.72228],[78.55985,10.7307],[78.56456,10.73165],[78.56733,10.7367],[78.56798,10.74399],[78.56751,10.75075],[78.56769,10.75432],[78.56496,10.75528],[78.56402,10.76677],[78.56681,10.76959],[78.56975,10.77528],[78.56671,10.77893],[78.56188,10.78068],[78.55669,10.78117],[78.55735,10.78809],[78.55089,10.78821],[78.54696,10.79005],[78.54567,10.79202],[78.54598,10.79723],[78.55114,10.80568],[78.5541,10.81178],[78.5602,10.81131],[78.56759,10.80868],[78.57668,10.80824],[78.58163,10.81818],[78.58711,10.82919],[78.57891,10.8301],[78.57116,10.83308],[78.57423,10.84344],[78.57858,10.84493],[78.57734,10.85049],[78.57368,10.85252],[78.57055,10.85662],[78.56579,10.8599],[78.55876,10.86252],[78.55844,10.86702],[78.54907,10.87564],[78.54397,10.87685],[78.53296,10.87691],[78.51494,10.8819],[78.50528,10.88488],[78.50395,10.88533],[78.49456,10.89143],[78.49332,10.89223],[78.48904,10.89228],[78.48411,10.88566],[78.47939,10.88471],[78.47834,10.88138],[78.46929,10.88523],[78.4708,10.89721],[78.47596,10.89915],[78.4775,10.90798],[78.47101,10.91105],[78.4647,10.91404],[78.4663,10.91775],[78.45495,10.92362],[78.4497,10.92634],[78.4424,10.93098],[78.43669,10.93739],[78.42666,10.94663],[78.41496,10.95115],[78.40761,10.95413],[78.40207,10.9568],[78.39301,10.96118],[78.38232,10.96457],[78.37825,10.96263],[78.36916,10.96145],[78.36124,10.96153],[78.35232,10.96162],[78.34052,10.95896],[78.3287,10.95846],[78.32154,10.9593],[78.31958,10.95952],[78.31346,10.96143],[78.30783,10.96028],[78.299,10.96081],[78.29084,10.96292],[78.27978,10.96579],[78.26578,10.96704],[78.26124,10.96737],[78.24916,10.96601],[78.24597,10.96565],[78.23664,10.96221],[78.22812,10.95993],[78.21941,10.95759],[78.21391,10.95763],[78.20557,10.95769],[78.199,10.95904],[78.19066,10.96884],[78.1844,10.97585],[78.17421,10.99076],[78.16751,11.00028],[78.16674,11.00369],[78.16847,11.01091],[78.16847,11.01091],[78.16847,11.01091],[78.17395,11.01183],[78.18001,11.01492],[78.1834,11.01773],[78.18901,11.01867],[78.19534,11.02119],[78.19864,11.02693],[78.19681,11.0299],[78.19635,11.03611],[78.19803,11.03958],[78.19737,11.04351],[78.1885,11.04275],[78.18429,11.03938],[78.17414,11.04209],[78.16476,11.04319],[78.16579,11.04754],[78.17011,11.05326],[78.18287,11.06692],[78.19566,11.06123],[78.197,11.06396],[78.19989,11.06546],[78.20363,11.0717],[78.21443,11.06542],[78.22038,11.06347],[78.22223,11.06039],[78.2219,11.05586],[78.22793,11.05225],[78.22914,11.05698],[78.23102,11.06074],[78.23647,11.06558],[78.23294,11.0807],[78.22917,11.08668],[78.2297,11.09311],[78.24049,11.09227],[78.24825,11.09081],[78.26469,11.06701],[78.2659,11.06962],[78.26903,11.06934],[78.27509,11.07634],[78.28386,11.07624],[78.29231,11.07453],[78.2968,11.06967],[78.32401,11.05629],[78.32565,11.04857],[78.32704,11.04808],[78.32887,11.03013],[78.33064,11.02871],[78.34478,11.02448],[78.34917,11.0375],[78.35046,11.04637],[78.35972,11.0454],[78.36153,11.0511],[78.36262,11.06251],[78.35358,11.06607],[78.35063,11.06923],[78.34664,11.07585],[78.33995,11.07834],[78.33814,11.08084],[78.33956,11.08765],[78.33926,11.08984],[78.33685,11.09104],[78.32956,11.09272],[78.32693,11.09484],[78.326,11.09756],[78.32778,11.09942],[78.33581,11.10329],[78.33978,11.10672],[78.34324,11.11107],[78.34668,11.12065],[78.34505,11.13131],[78.34665,11.13634],[78.34936,11.13503],[78.36454,11.13577],[78.37,11.13538],[78.37593,11.13302],[78.37912,11.13871],[78.38231,11.13842],[78.38019,11.15959],[78.37761,11.17521],[78.38616,11.17539],[78.38139,11.18674],[78.38938,11.18774],[78.39465,11.18936],[78.4007,11.19309],[78.40924,11.19534],[78.41534,11.20627],[78.41702,11.20876],[78.42106,11.21034],[78.42124,11.21913],[78.42402,11.22126],[78.42953,11.23776],[78.43975,11.2564],[78.43899,11.26233],[78.4395,11.2668],[78.44593,11.2715],[78.45059,11.27733],[78.45168,11.28517],[78.45607,11.30043],[78.45906,11.30438],[78.46313,11.30437],[78.46474,11.30629],[78.46634,11.3108],[78.46489,11.31622],[78.46197,11.32127],[78.45657,11.32459],[78.45619,11.32868],[78.45198,11.32761],[78.44951,11.32926],[78.45044,11.33206],[78.44773,11.33597],[78.44774,11.34211],[78.4581,11.33748],[78.46053,11.339],[78.457,11.34385],[78.45593,11.34694],[78.4563,11.35016],[78.46065,11.3603],[78.46603,11.37683],[78.47062,11.38463],[78.47364,11.38373],[78.4769,11.38457],[78.48067,11.38609],[78.4828,11.38829],[78.48458,11.39152],[78.48582,11.39596],[78.48672,11.39981],[78.48641,11.4031],[78.48641,11.4031],[78.49481,11.4038],[78.49844,11.40259],[78.50443,11.39689],[78.50583,11.394],[78.50999,11.39242],[78.50909,11.38538],[78.50597,11.37826],[78.50804,11.37747],[78.51153,11.3801],[78.51646,11.38196],[78.51926,11.37673],[78.5249,11.371],[78.53157,11.36713],[78.53677,11.36583],[78.54155,11.36619],[78.54918,11.3611],[78.55213,11.35725],[78.55481,11.34646],[78.55384,11.33649],[78.55578,11.33173],[78.55612,11.32318],[78.55384,11.32],[78.55624,11.31478],[78.56111,11.314],[78.57827,11.31452],[78.58123,11.32469],[78.58458,11.32905],[78.59111,11.32466],[78.60125,11.33055],[78.60934,11.33648],[78.61335,11.33617],[78.61865,11.33412],[78.62244,11.33456],[78.62929,11.33649],[78.64332,11.34236],[78.64483,11.34543],[78.65037,11.35152],[78.65492,11.36004],[78.65816,11.36458],[78.66535,11.37201],[78.66535,11.37201]]]}}]}