{"type":"FeatureCollection","features":[{"type":"Feature","properties":{"id":"tirunelveli","name":"Tirunelveli","stateId":"tamil-nadu","stateName":"Tamil Nadu","censuscode":628,"type":"district"},"geometry":{"type":"Polygon","coordinates":[[[77.84817,9.24215],[77.84933,9.23793],[77.85294,9.23197],[77.85416,9.22159],[77.85239,9.2204],[77.85379,9.21486],[77.856,9.21445],[77.85777,9.21248],[77.86005,9.21161],[77.86123,9.19497],[77.85711,9.19326],[77.85484,9.1816],[77.85225,9.18131],[77.85156,9.18376],[77.84884,9.18387],[77.84802,9.18172],[77.84283,9.18379],[77.84247,9.16688],[77.83683,9.16594],[77.83294,9.16896],[77.82889,9.16944],[77.82719,9.17049],[77.81878,9.16961],[77.8175,9.17228],[77.81124,9.17535],[77.80632,9.17598],[77.8023,9.17514],[77.80074,9.17258],[77.80036,9.16906],[77.79125,9.16506],[77.78952,9.16295],[77.78707,9.16392],[77.74622,9.16061],[77.74457,9.16937],[77.74068,9.1706],[77.7382,9.18515],[77.73305,9.18543],[77.73324,9.18428],[77.72557,9.18399],[77.72446,9.18678],[77.70765,9.18621],[77.7061,9.17606],[77.70645,9.16865],[77.70394,9.16416],[77.69858,9.16162],[77.69509,9.15757],[77.69261,9.15705],[77.69198,9.15203],[77.6921,9.14686],[77.69474,9.14273],[77.70185,9.13554],[77.69672,9.13208],[77.68483,9.13157],[77.68387,9.13529],[77.67612,9.1355],[77.67586,9.12952],[77.67358,9.1255],[77.67556,9.1248],[77.67597,9.12245],[77.67717,9.12282],[77.67848,9.11607],[77.67786,9.10795],[77.67887,9.10487],[77.68091,9.10629],[77.6816,9.10378],[77.68462,9.10328],[77.68996,9.10036],[77.69581,9.09975],[77.70154,9.10167],[77.70505,9.09985],[77.70978,9.10283],[77.71551,9.10228],[77.72052,9.10332],[77.72147,9.10489],[77.72351,9.10615],[77.72706,9.10278],[77.74144,9.10341],[77.74321,9.08632],[77.74601,9.07632],[77.74308,9.07522],[77.74261,9.07296],[77.73971,9.07324],[77.7371,9.07013],[77.70919,9.07051],[77.70811,9.07244],[77.7057,9.07181],[77.70278,9.06116],[77.70935,9.0535],[77.71246,9.04719],[77.71301,9.0437],[77.70927,9.04108],[77.70466,9.03977],[77.70327,9.03381],[77.69964,9.03327],[77.69508,9.0312],[77.69369,9.02945],[77.69617,9.02663],[77.69733,9.02229],[77.69748,9.01683],[77.69475,9.01624],[77.69425,9.01439],[77.68996,9.01343],[77.68829,9.00781],[77.68989,9.00664],[77.69922,9.00109],[77.70287,9.00106],[77.70472,9.00147],[77.70986,9.00102],[77.71424,9.0015],[77.72374,9.00036],[77.72861,8.9935],[77.7297,8.98982],[77.72882,8.98477],[77.73182,8.98361],[77.73019,8.98069],[77.72459,8.97886],[77.72227,8.97513],[77.72486,8.97122],[77.72248,8.9683],[77.72143,8.96439],[77.70496,8.96798],[77.70491,8.97223],[77.69854,8.97839],[77.693,8.97926],[77.69178,8.97587],[77.6844,8.97388],[77.68358,8.96923],[77.68184,8.96602],[77.68402,8.96176],[77.69236,8.95572],[77.69261,8.94607],[77.69481,8.92855],[77.69758,8.927],[77.70189,8.92584],[77.70234,8.92234],[77.70516,8.92073],[77.71025,8.92456],[77.72027,8.92299],[77.72436,8.92149],[77.72603,8.92367],[77.72869,8.92436],[77.7322,8.92137],[77.73635,8.92394],[77.73839,8.92756],[77.74508,8.93047],[77.74733,8.93225],[77.74957,8.92748],[77.75706,8.92746],[77.76258,8.92303],[77.76365,8.91493],[77.76281,8.8876],[77.76907,8.88179],[77.77368,8.87971],[77.79017,8.88364],[77.79692,8.88237],[77.80186,8.8784],[77.80604,8.87247],[77.81117,8.87149],[77.81172,8.86333],[77.81338,8.85868],[77.81813,8.85114],[77.82157,8.84361],[77.82079,8.83719],[77.82965,8.83251],[77.83212,8.83027],[77.84049,8.81498],[77.84509,8.81313],[77.84865,8.80945],[77.85358,8.80134],[77.85257,8.79589],[77.84877,8.79705],[77.84721,8.79303],[77.84782,8.78637],[77.8413,8.78311],[77.83806,8.7795],[77.8327,8.77871],[77.82329,8.77316],[77.81787,8.77104],[77.81918,8.76627],[77.81916,8.76002],[77.82001,8.75502],[77.82612,8.74174],[77.82776,8.7318],[77.82485,8.72383],[77.82338,8.71545],[77.81977,8.70225],[77.8132,8.68464],[77.81261,8.68027],[77.82097,8.6802],[77.82563,8.67916],[77.82641,8.67163],[77.8177,8.67067],[77.81763,8.66419],[77.8093,8.65645],[77.80652,8.64991],[77.80812,8.64566],[77.81446,8.64789],[77.81999,8.64868],[77.81929,8.64386],[77.81994,8.63123],[77.81584,8.62882],[77.81421,8.62366],[77.81167,8.62056],[77.807,8.6196],[77.80605,8.61317],[77.80138,8.61209],[77.79609,8.61256],[77.79253,8.61457],[77.79237,8.61957],[77.78904,8.62267],[77.78597,8.61631],[77.78623,8.60793],[77.78482,8.60029],[77.78343,8.58169],[77.7992,8.57741],[77.80415,8.5751],[77.799,8.57075],[77.79736,8.56312],[77.80233,8.56672],[77.80614,8.56787],[77.80798,8.57039],[77.81304,8.56883],[77.81327,8.56584],[77.81613,8.5609],[77.81485,8.55723],[77.81529,8.55275],[77.82076,8.55055],[77.82136,8.54125],[77.82054,8.53758],[77.80804,8.53393],[77.80877,8.53088],[77.81275,8.52984],[77.81427,8.52198],[77.81824,8.51915],[77.82335,8.51748],[77.82489,8.51386],[77.82631,8.50587],[77.83072,8.49794],[77.8304,8.491],[77.8316,8.48772],[77.83648,8.48352],[77.84085,8.48316],[77.8399,8.47404],[77.84277,8.47013],[77.83745,8.46371],[77.83339,8.45419],[77.83596,8.45131],[77.84074,8.44969],[77.83425,8.43512],[77.8344,8.43087],[77.84083,8.42621],[77.85037,8.42074],[77.85506,8.41338],[77.85326,8.40976],[77.85399,8.40528],[77.85565,8.4012],[77.86083,8.39913],[77.86068,8.39098],[77.85899,8.38529],[77.84853,8.38618],[77.84477,8.38355],[77.84074,8.38367],[77.83608,8.38178],[77.83892,8.37855],[77.84751,8.37678],[77.85504,8.37446],[77.85641,8.37176],[77.85226,8.36884],[77.845,8.36679],[77.8432,8.36334],[77.85033,8.36252],[77.84905,8.35873],[77.84899,8.35373],[77.85394,8.35608],[77.8613,8.35606],[77.85889,8.3429],[77.86349,8.34042],[77.86742,8.3449],[77.87104,8.3446],[77.87233,8.35023],[77.87458,8.3508],[77.88636,8.34859],[77.88606,8.34485],[77.8898,8.34266],[77.89022,8.33249],[77.89238,8.32398],[77.89917,8.32529],[77.90474,8.32132],[77.91417,8.32189],[77.92801,8.32986],[77.9348,8.32805],[77.94998,8.33527],[77.95677,8.33551],[77.96581,8.33387],[77.96783,8.33427],[77.97004,8.33881],[77.97589,8.33533],[77.97444,8.33441],[77.96976,8.33008],[77.96246,8.32331],[77.95949,8.3196],[77.95836,8.31808],[77.95773,8.31786],[77.95753,8.31714],[77.9543,8.31269],[77.94784,8.30598],[77.93998,8.30127],[77.92218,8.29453],[77.91504,8.29221],[77.90954,8.29063],[77.90317,8.28549],[77.90284,8.28482],[77.90073,8.28272],[77.89978,8.28201],[77.89534,8.27578],[77.89431,8.27509],[77.89018,8.27069],[77.88481,8.26739],[77.86952,8.26072],[77.86294,8.25897],[77.83767,8.25185],[77.82215,8.24846],[77.81443,8.24616],[77.80983,8.24322],[77.79864,8.23374],[77.78689,8.22567],[77.78544,8.22348],[77.78549,8.22122],[77.78384,8.21893],[77.78385,8.21823],[77.78386,8.21777],[77.78478,8.21367],[77.78569,8.21325],[77.78737,8.20855],[77.78731,8.20627],[77.78727,8.2057],[77.78691,8.20308],[77.78548,8.20114],[77.78391,8.19997],[77.78091,8.19661],[77.77555,8.19331],[77.76577,8.19262],[77.75872,8.18819],[77.75708,8.18657],[77.75554,8.18266],[77.755,8.18221],[77.75378,8.18105],[77.75314,8.17853],[77.74238,8.1717],[77.73427,8.16768],[77.73291,8.16884],[77.7162,8.16545],[77.68702,8.15869],[77.67297,8.15634],[77.66295,8.15656],[77.65541,8.15913],[77.64643,8.15726],[77.64106,8.15497],[77.6349,8.15232],[77.61818,8.14856],[77.60626,8.14603],[77.5911,8.1418],[77.58991,8.14593],[77.58499,8.15196],[77.58362,8.15535],[77.57649,8.15438],[77.56223,8.15779],[77.55154,8.15826],[77.5404,8.16689],[77.53922,8.1759],[77.547,8.18324],[77.54425,8.18864],[77.55295,8.19293],[77.55181,8.19644],[77.54647,8.20098],[77.5489,8.20436],[77.54919,8.20809],[77.54437,8.20873],[77.54536,8.21413],[77.54727,8.21918],[77.54975,8.22307],[77.5429,8.22314],[77.54325,8.22578],[77.54706,8.22945],[77.54547,8.23399],[77.54606,8.24294],[77.55124,8.24535],[77.56091,8.24545],[77.56677,8.2463],[77.57362,8.24916],[77.57535,8.24681],[77.57759,8.24876],[77.57599,8.25301],[77.57165,8.26002],[77.56589,8.26181],[77.56291,8.26537],[77.56539,8.26852],[77.56437,8.27151],[77.55971,8.27301],[77.5561,8.27738],[77.558,8.28019],[77.56398,8.28012],[77.54994,8.30121],[77.5472,8.30701],[77.54117,8.31482],[77.53854,8.31678],[77.53238,8.3184],[77.53303,8.32259],[77.53631,8.32626],[77.53453,8.327],[77.53415,8.33596],[77.54123,8.33538],[77.54261,8.33819],[77.54015,8.3429],[77.54068,8.34795],[77.53712,8.35364],[77.53688,8.35888],[77.5364,8.36214],[77.53729,8.37373],[77.54226,8.37993],[77.53951,8.38762],[77.53521,8.39084],[77.53101,8.39142],[77.52155,8.38403],[77.51649,8.3838],[77.50843,8.38611],[77.49858,8.38026],[77.49277,8.38033],[77.48601,8.39233],[77.47825,8.39573],[77.47469,8.40027],[77.4735,8.40865],[77.47467,8.41365],[77.47139,8.41554],[77.46497,8.42824],[77.46597,8.43949],[77.46801,8.44655],[77.47181,8.45194],[77.47223,8.45602],[77.46666,8.46068],[77.46522,8.4628],[77.46793,8.4671],[77.4631,8.46809],[77.4474,8.47396],[77.4473,8.48108],[77.44905,8.48791],[77.44762,8.49314],[77.44757,8.49824],[77.44229,8.5037],[77.42492,8.51308],[77.40617,8.51625],[77.40082,8.52045],[77.39552,8.52097],[77.38971,8.52252],[77.38626,8.52063],[77.38085,8.52184],[77.37791,8.518],[77.3744,8.51995],[77.36727,8.53132],[77.36315,8.54149],[77.36033,8.54023],[77.35458,8.54172],[77.35361,8.54494],[77.34675,8.54644],[77.33934,8.5519],[77.3352,8.55328],[77.32283,8.55845],[77.31598,8.5596],[77.3089,8.56214],[77.29216,8.57018],[77.28737,8.56829],[77.27035,8.57938],[77.26161,8.58891],[77.25633,8.59678],[77.25081,8.60046],[77.24707,8.60614],[77.24651,8.61143],[77.24688,8.62125],[77.23726,8.6267],[77.23089,8.6371],[77.22674,8.63945],[77.2237,8.64359],[77.21691,8.64939],[77.21364,8.65697],[77.20869,8.66317],[77.20542,8.67058],[77.20878,8.67948],[77.20804,8.68568],[77.20598,8.69205],[77.2012,8.69831],[77.19747,8.7079],[77.19051,8.71152],[77.18516,8.71588],[77.17981,8.72341],[77.18103,8.72915],[77.1754,8.73943],[77.17333,8.7458],[77.17524,8.74902],[77.18076,8.74345],[77.189,8.74166],[77.19459,8.74333],[77.19915,8.74913],[77.20175,8.75648],[77.20147,8.7617],[77.19877,8.76589],[77.20101,8.76946],[77.20948,8.76675],[77.21587,8.76612],[77.22032,8.76928],[77.21739,8.77398],[77.21641,8.77789],[77.22333,8.77881],[77.22765,8.78214],[77.23273,8.7842],[77.23338,8.79511],[77.23536,8.8055],[77.24198,8.80682],[77.24539,8.80906],[77.2496,8.81561],[77.24886,8.82008],[77.24995,8.82198],[77.25417,8.82617],[77.26503,8.84046],[77.26084,8.84982],[77.2639,8.85166],[77.26355,8.85367],[77.25831,8.86005],[77.26109,8.86366],[77.26086,8.86785],[77.25938,8.87337],[77.25771,8.87664],[77.24987,8.87762],[77.24492,8.88038],[77.24095,8.88635],[77.24165,8.8937],[77.23918,8.89669],[77.23244,8.90065],[77.22934,8.90157],[77.22392,8.90169],[77.21967,8.91518],[77.22499,8.92242],[77.22234,8.92592],[77.21566,8.92782],[77.2114,8.9304],[77.2073,8.92805],[77.2043,8.92415],[77.20723,8.92104],[77.20233,8.91863],[77.19795,8.9242],[77.19814,8.9269],[77.1967,8.92943],[77.19936,8.9373],[77.19913,8.94103],[77.19712,8.94597],[77.19869,8.95044],[77.1976,8.9555],[77.1927,8.95929],[77.19213,8.96532],[77.18056,8.97078],[77.17574,8.98663],[77.16411,8.99536],[77.16123,9.00025],[77.16113,9.00025],[77.16037,9.00629],[77.15439,9.0066],[77.15138,9.00837],[77.15223,9.01386],[77.15037,9.01664],[77.14926,9.02024],[77.15359,9.02149],[77.15767,9.02384],[77.164,9.02999],[77.16242,9.03565],[77.16532,9.04143],[77.17084,9.04502],[77.18454,9.04703],[77.18727,9.04239],[77.19924,9.04505],[77.19733,9.05334],[77.19999,9.05565],[77.20148,9.05919],[77.20579,9.06505],[77.2086,9.07053],[77.20997,9.07361],[77.2077,9.07856],[77.20682,9.08377],[77.2129,9.09703],[77.2193,9.10001],[77.22189,9.10444],[77.2264,9.10622],[77.22877,9.11502],[77.2341,9.11677],[77.24278,9.12285],[77.24722,9.12353],[77.24963,9.12664],[77.25472,9.13872],[77.26244,9.14432],[77.2631,9.14802],[77.26884,9.15184],[77.26662,9.16484],[77.26929,9.17376],[77.26532,9.18458],[77.26023,9.18492],[77.25351,9.18797],[77.25645,9.19534],[77.2566,9.19874],[77.26395,9.19806],[77.26717,9.19906],[77.27021,9.20219],[77.27508,9.20892],[77.28371,9.2177],[77.27825,9.22584],[77.27633,9.23327],[77.28049,9.24073],[77.27928,9.24979],[77.28245,9.25257],[77.28269,9.26419],[77.28459,9.26677],[77.28437,9.2713],[77.29088,9.2721],[77.28383,9.29061],[77.2835,9.2998],[77.28677,9.30069],[77.29012,9.30313],[77.29438,9.30421],[77.30019,9.30987],[77.3009,9.31403],[77.30343,9.31708],[77.30349,9.31904],[77.30203,9.32458],[77.29892,9.32859],[77.30178,9.33021],[77.30076,9.33645],[77.30349,9.33589],[77.30718,9.33667],[77.31678,9.33397],[77.32371,9.33667],[77.32804,9.33695],[77.32632,9.3437],[77.33725,9.36018],[77.33664,9.3639],[77.33967,9.36766],[77.33614,9.37234],[77.33635,9.38523],[77.34236,9.38779],[77.34266,9.38958],[77.34144,9.39265],[77.34417,9.39893],[77.34396,9.40318],[77.33787,9.41091],[77.33818,9.41477],[77.34061,9.4173],[77.34669,9.41688],[77.34935,9.41418],[77.3503,9.41127],[77.35483,9.41029],[77.35782,9.41134],[77.36147,9.4104],[77.36324,9.40699],[77.36706,9.40473],[77.37132,9.40523],[77.37545,9.39947],[77.3802,9.39936],[77.38232,9.40004],[77.38294,9.3981],[77.38931,9.39078],[77.3952,9.39334],[77.40198,9.39299],[77.40588,9.39401],[77.41138,9.39425],[77.42083,9.39822],[77.42284,9.39603],[77.42314,9.39288],[77.42393,9.39175],[77.43131,9.39261],[77.43413,9.39107],[77.43461,9.38763],[77.43647,9.38463],[77.44011,9.38248],[77.44211,9.37609],[77.44583,9.37313],[77.44962,9.37432],[77.45209,9.36989],[77.4463,9.36544],[77.4428,9.36668],[77.4415,9.36538],[77.43865,9.36623],[77.43818,9.36185],[77.44271,9.36121],[77.44096,9.35421],[77.45467,9.34914],[77.45521,9.35099],[77.46579,9.34872],[77.46768,9.34704],[77.46503,9.34617],[77.45871,9.33268],[77.46012,9.33128],[77.46243,9.33168],[77.46571,9.32991],[77.47339,9.32792],[77.47645,9.34035],[77.48878,9.33732],[77.48898,9.33864],[77.49617,9.33778],[77.49695,9.33412],[77.50533,9.33432],[77.50939,9.33103],[77.51131,9.33367],[77.51916,9.33368],[77.52243,9.33497],[77.52469,9.33803],[77.52796,9.3504],[77.52038,9.35809],[77.52104,9.35937],[77.52678,9.35899],[77.53013,9.36149],[77.531,9.37582],[77.54655,9.37166],[77.55316,9.37089],[77.54903,9.36643],[77.56087,9.35291],[77.57505,9.35428],[77.57531,9.34624],[77.57322,9.34406],[77.57475,9.34278],[77.58167,9.34605],[77.58875,9.34743],[77.58992,9.34441],[77.59178,9.34382],[77.59368,9.31483],[77.58863,9.3131],[77.58824,9.30757],[77.60413,9.3057],[77.60449,9.29973],[77.60809,9.29965],[77.60898,9.30105],[77.61386,9.30001],[77.61436,9.29801],[77.61713,9.29848],[77.61744,9.29521],[77.62451,9.29435],[77.62545,9.29172],[77.63577,9.29283],[77.64567,9.28967],[77.64602,9.28692],[77.65303,9.28623],[77.65426,9.28321],[77.65688,9.28218],[77.66126,9.28285],[77.66111,9.2844],[77.6787,9.28649],[77.68268,9.28417],[77.68427,9.28783],[77.69444,9.28818],[77.69752,9.28745],[77.69882,9.28892],[77.71256,9.28947],[77.7129,9.28476],[77.71746,9.28533],[77.71885,9.2826],[77.72407,9.28169],[77.72533,9.28023],[77.73515,9.28017],[77.73958,9.27849],[77.74071,9.27473],[77.74164,9.27486],[77.74252,9.26655],[77.745,9.26401],[77.74616,9.26669],[77.74891,9.2675],[77.75636,9.26773],[77.7594,9.26619],[77.75906,9.26072],[77.76038,9.25903],[77.75913,9.25566],[77.76041,9.25265],[77.76508,9.24787],[77.76831,9.24317],[77.77095,9.24197],[77.77275,9.23626],[77.77544,9.23494],[77.7818,9.23739],[77.78385,9.241],[77.7852,9.24788],[77.78982,9.25075],[77.79066,9.25698],[77.78834,9.25704],[77.78936,9.26327],[77.786,9.26359],[77.78435,9.26493],[77.78055,9.26444],[77.77497,9.2707],[77.77448,9.27402],[77.77576,9.27675],[77.79741,9.27254],[77.7978,9.25559],[77.80471,9.25414],[77.80853,9.25141],[77.809,9.2459],[77.81731,9.24414],[77.81826,9.24301],[77.83096,9.24371],[77.83892,9.242],[77.84032,9.2441],[77.84817,9.24215]]]}}]}