{"type":"FeatureCollection","features":[{"type":"Feature","properties":{"id":"tiruppur","name":"Tiruppur","stateId":"tamil-nadu","stateName":"Tamil Nadu","censuscode":633,"type":"district"},"geometry":{"type":"Polygon","coordinates":[[[77.22728,11.34388],[77.2201,11.33689],[77.22101,11.33232],[77.23141,11.3327],[77.2341,11.32632],[77.23662,11.32529],[77.23579,11.31746],[77.23413,11.31352],[77.23148,11.31237],[77.22705,11.31285],[77.22024,11.31036],[77.21834,11.30354],[77.20709,11.30446],[77.20042,11.30668],[77.1999,11.30109],[77.20173,11.29689],[77.20838,11.29581],[77.21698,11.29593],[77.23173,11.29986],[77.24142,11.30114],[77.23927,11.3065],[77.23865,11.31148],[77.24105,11.32204],[77.24489,11.32207],[77.24789,11.32609],[77.2493,11.32543],[77.25045,11.32293],[77.25275,11.32183],[77.25071,11.31345],[77.25279,11.30804],[77.25982,11.31433],[77.2623,11.31283],[77.26389,11.31424],[77.26425,11.31683],[77.26668,11.3174],[77.2682,11.31984],[77.26839,11.32191],[77.27333,11.32465],[77.2791,11.33023],[77.28021,11.33278],[77.27897,11.33942],[77.28373,11.33975],[77.28327,11.33663],[77.28509,11.33322],[77.29218,11.32785],[77.28645,11.32074],[77.28447,11.31483],[77.28687,11.30839],[77.28768,11.30301],[77.28608,11.29573],[77.28547,11.28843],[77.2899,11.28536],[77.30614,11.28156],[77.31307,11.27831],[77.31082,11.27464],[77.30308,11.27185],[77.29682,11.2708],[77.30328,11.26524],[77.30968,11.26199],[77.33169,11.25474],[77.33726,11.26708],[77.3411,11.27003],[77.3471,11.28652],[77.34483,11.29532],[77.33356,11.30905],[77.33206,11.31419],[77.34423,11.31363],[77.35735,11.31465],[77.36093,11.31592],[77.36448,11.31559],[77.36436,11.31505],[77.3647,11.31526],[77.36504,11.32779],[77.36539,11.33336],[77.36539,11.33719],[77.36957,11.33998],[77.37514,11.33963],[77.37584,11.33754],[77.37619,11.33162],[77.37758,11.32988],[77.38037,11.32814],[77.38245,11.32466],[77.38315,11.32152],[77.38489,11.32152],[77.38733,11.31943],[77.39011,11.31769],[77.39325,11.31735],[77.39778,11.31386],[77.39952,11.31143],[77.40648,11.31421],[77.40822,11.31386],[77.40996,11.31143],[77.41101,11.30864],[77.41623,11.3076],[77.42041,11.31247],[77.42633,11.31282],[77.43225,11.31143],[77.43573,11.30899],[77.43747,11.3069],[77.44409,11.3069],[77.44861,11.30794],[77.45035,11.30829],[77.45418,11.3069],[77.45836,11.30411],[77.45941,11.2975],[77.45976,11.29436],[77.45767,11.29228],[77.45662,11.29019],[77.45697,11.28427],[77.46045,11.28044],[77.46324,11.2773],[77.46359,11.27417],[77.46568,11.27208],[77.46707,11.26964],[77.46602,11.26651],[77.46393,11.26337],[77.46324,11.2592],[77.46324,11.25328],[77.46324,11.24945],[77.46359,11.24596],[77.46776,11.24527],[77.46985,11.24596],[77.47542,11.24109],[77.47786,11.23761],[77.48309,11.23238],[77.48552,11.22786],[77.48866,11.22403],[77.49458,11.21915],[77.49492,11.21637],[77.49667,11.21184],[77.49806,11.20975],[77.4998,11.20731],[77.50015,11.20279],[77.50189,11.19965],[77.50885,11.19965],[77.51059,11.19756],[77.51025,11.18085],[77.49144,11.17981],[77.49144,11.17772],[77.48622,11.17389],[77.47995,11.17389],[77.47438,11.17946],[77.47229,11.17946],[77.47229,11.17737],[77.46916,11.17493],[77.46881,11.17319],[77.46881,11.16971],[77.46811,11.16309],[77.46637,11.16031],[77.46672,11.15752],[77.46846,11.15822],[77.47299,11.15961],[77.47508,11.15961],[77.47856,11.15856],[77.47856,11.13976],[77.47926,11.13802],[77.48796,11.13837],[77.489,11.14115],[77.4904,11.1429],[77.49353,11.1429],[77.49353,11.13837],[77.49318,11.13419],[77.49353,11.12792],[77.49667,11.12792],[77.49806,11.12583],[77.49841,11.12374],[77.4998,11.12131],[77.4998,11.11443],[77.50048,11.11435],[77.51845,11.1049],[77.56582,11.10962],[77.58348,11.11773],[77.60331,11.11416],[77.61119,11.11625],[77.63089,11.12048],[77.65471,11.11502],[77.67869,11.09978],[77.69259,11.0961],[77.72059,11.07703],[77.73241,11.07917],[77.76033,11.06399],[77.77845,11.05124],[77.77953,11.04969],[77.78065,11.03755],[77.79098,11.03016],[77.78653,11.01366],[77.78123,11.00029],[77.78097,11.00029],[77.77925,10.99425],[77.76142,10.98374],[77.75851,10.97732],[77.75084,10.97923],[77.74981,10.97461],[77.75063,10.96914],[77.75266,10.96302],[77.75961,10.96243],[77.76663,10.96276],[77.76915,10.95497],[77.7683,10.94701],[77.76448,10.92959],[77.76068,10.92203],[77.75957,10.90651],[77.76031,10.8995],[77.76331,10.89588],[77.76784,10.89339],[77.77162,10.88838],[77.77188,10.88035],[77.77227,10.87048],[77.77521,10.86635],[77.77927,10.86685],[77.78246,10.86971],[77.78503,10.87373],[77.78574,10.87779],[77.7875,10.8815],[77.78958,10.88134],[77.79234,10.87727],[77.79609,10.86688],[77.79832,10.86282],[77.80584,10.85849],[77.80658,10.85492],[77.81649,10.8549],[77.82051,10.84984],[77.82236,10.84373],[77.82581,10.8393],[77.82989,10.83446],[77.83437,10.83254],[77.83895,10.8324],[77.84429,10.83568],[77.8566,10.84572],[77.85924,10.84687],[77.86095,10.84575],[77.86888,10.83935],[77.87263,10.83239],[77.86925,10.83165],[77.86802,10.82772],[77.86871,10.8218],[77.87358,10.82176],[77.87451,10.80712],[77.86891,10.80252],[77.86714,10.79762],[77.87004,10.79235],[77.87534,10.78748],[77.88043,10.78704],[77.8845,10.78771],[77.88892,10.79124],[77.8906,10.78851],[77.89122,10.78179],[77.89054,10.7732],[77.88403,10.77258],[77.87029,10.77507],[77.86858,10.7708],[77.86233,10.77408],[77.85744,10.77893],[77.84794,10.78261],[77.83604,10.78444],[77.83351,10.78564],[77.83276,10.78857],[77.83048,10.79017],[77.82701,10.79092],[77.82541,10.79525],[77.81688,10.79427],[77.81353,10.79496],[77.81075,10.79811],[77.81143,10.80315],[77.80091,10.80483],[77.79926,10.80366],[77.79402,10.79303],[77.79306,10.78858],[77.77632,10.789],[77.77421,10.7848],[77.76861,10.76552],[77.78026,10.7649],[77.78249,10.75751],[77.78407,10.75553],[77.79397,10.75529],[77.79712,10.75035],[77.80165,10.75388],[77.80651,10.7558],[77.81202,10.75673],[77.81681,10.7552],[77.82453,10.7503],[77.82425,10.74479],[77.8207,10.73155],[77.82425,10.71485],[77.82278,10.71115],[77.81869,10.70589],[77.8128,10.7013],[77.80825,10.69376],[77.80918,10.679],[77.78907,10.68436],[77.78215,10.68363],[77.77712,10.68109],[77.76786,10.67862],[77.76705,10.6756],[77.76219,10.67007],[77.75832,10.67071],[77.75548,10.67025],[77.75304,10.66742],[77.75245,10.66348],[77.75584,10.64976],[77.74639,10.64093],[77.74336,10.63709],[77.72978,10.62988],[77.72382,10.62999],[77.71968,10.63185],[77.71877,10.63559],[77.7227,10.64114],[77.7147,10.64095],[77.70705,10.65239],[77.70136,10.65846],[77.69928,10.66492],[77.7017,10.66706],[77.70092,10.67166],[77.70169,10.67538],[77.70466,10.6763],[77.70884,10.6827],[77.70973,10.68699],[77.70691,10.6914],[77.70603,10.69606],[77.70583,10.70077],[77.70861,10.70737],[77.70656,10.71802],[77.7021,10.72998],[77.6978,10.73258],[77.68953,10.73343],[77.68871,10.72954],[77.68075,10.72579],[77.6709,10.71983],[77.66915,10.71636],[77.66454,10.71467],[77.66244,10.70782],[77.66256,10.70191],[77.65594,10.67358],[77.64001,10.66756],[77.63041,10.66848],[77.61236,10.67289],[77.59663,10.67466],[77.59256,10.67692],[77.58927,10.6807],[77.58519,10.68215],[77.58022,10.67697],[77.58325,10.67519],[77.57929,10.67096],[77.57507,10.66484],[77.57232,10.65726],[77.54854,10.63429],[77.54782,10.62661],[77.54561,10.62321],[77.54366,10.61189],[77.53992,10.60679],[77.53293,10.60503],[77.52702,10.60777],[77.52245,10.60527],[77.50971,10.60544],[77.50749,10.60715],[77.50815,10.61149],[77.51261,10.61193],[77.51665,10.61088],[77.51543,10.61423],[77.51334,10.61685],[77.50893,10.61974],[77.51024,10.62471],[77.50373,10.63308],[77.50338,10.639],[77.50146,10.64213],[77.49018,10.64617],[77.48561,10.64603],[77.48166,10.64897],[77.47765,10.64806],[77.47485,10.64375],[77.46943,10.64213],[77.46207,10.64191],[77.45519,10.63997],[77.45065,10.63529],[77.44723,10.62858],[77.44073,10.6279],[77.43274,10.63131],[77.42768,10.62761],[77.4175,10.62515],[77.41352,10.61633],[77.40988,10.61404],[77.40524,10.61349],[77.40178,10.6112],[77.39428,10.6033],[77.39555,10.59972],[77.39492,10.59715],[77.39103,10.59688],[77.38764,10.5951],[77.38502,10.59061],[77.38407,10.58656],[77.38426,10.58093],[77.3813,10.57748],[77.37983,10.57355],[77.37855,10.56629],[77.37459,10.55236],[77.36918,10.54775],[77.36776,10.5433],[77.36907,10.53588],[77.37179,10.53205],[77.37631,10.52944],[77.37808,10.52482],[77.3881,10.52442],[77.40508,10.52211],[77.40383,10.51066],[77.40065,10.49827],[77.39667,10.49914],[77.3927,10.49428],[77.39001,10.49593],[77.38321,10.4945],[77.38037,10.49094],[77.37977,10.48688],[77.38346,10.48268],[77.38465,10.47836],[77.38616,10.46244],[77.3837,10.46099],[77.385,10.44926],[77.37549,10.44892],[77.35969,10.44592],[77.35303,10.44564],[77.34729,10.44837],[77.34357,10.45412],[77.34072,10.45348],[77.33357,10.45521],[77.32785,10.4525],[77.32467,10.44963],[77.32413,10.44574],[77.32658,10.44352],[77.3245,10.44022],[77.32633,10.43887],[77.32496,10.43654],[77.32714,10.43576],[77.32716,10.43358],[77.32086,10.43409],[77.32321,10.42665],[77.32092,10.42118],[77.31705,10.4026],[77.31742,10.39738],[77.31507,10.38922],[77.31372,10.36205],[77.31498,10.35497],[77.33608,10.35334],[77.33463,10.34671],[77.32988,10.34025],[77.33042,10.33428],[77.33396,10.33209],[77.32729,10.32475],[77.3262,10.31915],[77.32918,10.31405],[77.32939,10.30923],[77.33928,10.30326],[77.34206,10.29942],[77.34161,10.29737],[77.34229,10.29328],[77.34501,10.29323],[77.3468,10.28942],[77.3483,10.28004],[77.35049,10.27581],[77.34782,10.26261],[77.34464,10.26284],[77.34304,10.26057],[77.33462,10.26536],[77.32553,10.27189],[77.32513,10.26593],[77.32565,10.26231],[77.30905,10.24395],[77.30347,10.24238],[77.30368,10.24421],[77.30217,10.24717],[77.29871,10.25096],[77.29698,10.25093],[77.28895,10.22973],[77.28406,10.23349],[77.28031,10.23424],[77.27283,10.233],[77.26962,10.23466],[77.26825,10.23244],[77.26526,10.23347],[77.26319,10.23115],[77.26057,10.22971],[77.25956,10.23535],[77.25978,10.24125],[77.2588,10.25429],[77.25926,10.25767],[77.26152,10.26067],[77.2645,10.26286],[77.26046,10.26665],[77.24577,10.2863],[77.23469,10.30507],[77.23097,10.30703],[77.22821,10.31482],[77.23203,10.33105],[77.23619,10.33758],[77.23582,10.34934],[77.22809,10.35039],[77.21304,10.35094],[77.2063,10.35237],[77.20253,10.35513],[77.19489,10.35211],[77.18663,10.35293],[77.18232,10.3549],[77.17643,10.35517],[77.16168,10.34291],[77.1475,10.33254],[77.14015,10.32905],[77.13273,10.3243],[77.12766,10.31933],[77.12171,10.31593],[77.11409,10.31319],[77.10559,10.31298],[77.10132,10.31047],[77.0952,10.3084],[77.08391,10.32835],[77.08363,10.34197],[77.07888,10.38082],[77.0545,10.41733],[77.06577,10.44288],[77.07126,10.46248],[77.06487,10.48573],[77.08197,10.51531],[77.07935,10.54643],[77.08083,10.56985],[77.10027,10.58194],[77.12189,10.58433],[77.15147,10.58297],[77.16482,10.60468],[77.17415,10.63021],[77.16395,10.64755],[77.14377,10.67054],[77.13714,10.70551],[77.13839,10.74064],[77.1497,10.76622],[77.15316,10.78969],[77.1648,10.79968],[77.16481,10.79997],[77.16889,10.79849],[77.17666,10.79864],[77.18375,10.7968],[77.18991,10.80054],[77.19519,10.8016],[77.19842,10.80034],[77.20095,10.80253],[77.20376,10.80082],[77.21493,10.8027],[77.20882,10.78881],[77.2115,10.78641],[77.21549,10.78531],[77.2244,10.7781],[77.22899,10.77578],[77.23396,10.7745],[77.24068,10.77455],[77.25484,10.7789],[77.26118,10.78005],[77.27282,10.78449],[77.28021,10.7873],[77.276,10.79184],[77.27739,10.80152],[77.28144,10.80471],[77.2843,10.80564],[77.28917,10.81244],[77.29389,10.81047],[77.29887,10.81348],[77.29592,10.82018],[77.2961,10.82356],[77.29078,10.82819],[77.29106,10.83415],[77.2895,10.83693],[77.28884,10.84887],[77.28006,10.84984],[77.27267,10.85102],[77.26468,10.85457],[77.25907,10.85842],[77.25404,10.86196],[77.25226,10.8664],[77.25226,10.87261],[77.25226,10.88119],[77.25256,10.89036],[77.24872,10.89597],[77.24162,10.89893],[77.23452,10.90071],[77.23068,10.90278],[77.22713,10.90455],[77.22447,10.90544],[77.21382,10.90544],[77.20406,10.90544],[77.20199,10.90721],[77.20199,10.90987],[77.19933,10.91313],[77.1943,10.91668],[77.19075,10.92022],[77.18809,10.92141],[77.17922,10.92141],[77.17863,10.92141],[77.17508,10.92348],[77.17419,10.92673],[77.17212,10.92969],[77.17035,10.93442],[77.16857,10.94122],[77.16916,10.94684],[77.17005,10.95068],[77.16975,10.95542],[77.16709,10.95749],[77.16443,10.95926],[77.16414,10.9637],[77.16414,10.96932],[77.16118,10.977],[77.15556,10.97967],[77.15349,10.98529],[77.15349,10.98854],[77.15645,10.99357],[77.15881,10.9983],[77.16118,11.00214],[77.16591,11.00658],[77.16828,11.00954],[77.16946,11.01722],[77.17064,11.02373],[77.17271,11.02669],[77.17419,11.02846],[77.17449,11.03172],[77.17449,11.03586],[77.17212,11.03733],[77.16887,11.04088],[77.16887,11.04384],[77.16916,11.04561],[77.1668,11.04798],[77.16295,11.05123],[77.1594,11.05478],[77.15881,11.0607],[77.16295,11.06543],[77.17123,11.06868],[77.17922,11.07134],[77.18602,11.0743],[77.19341,11.07815],[77.19903,11.08554],[77.20406,11.08672],[77.21293,11.08761],[77.215,11.08968],[77.22062,11.09382],[77.22949,11.09826],[77.23393,11.10121],[77.24162,11.10151],[77.24428,11.10269],[77.24635,11.10565],[77.25079,11.10654],[77.25493,11.10535],[77.2564,11.10506],[77.25818,11.10801],[77.25729,11.11215],[77.25256,11.11629],[77.24901,11.11984],[77.24457,11.12369],[77.24162,11.12635],[77.2425,11.13049],[77.24162,11.13315],[77.23807,11.1367],[77.23275,11.13522],[77.22831,11.1299],[77.22387,11.12517],[77.21914,11.12339],[77.21323,11.12458],[77.2079,11.1299],[77.20317,11.13522],[77.19696,11.14084],[77.19193,11.14232],[77.18986,11.14232],[77.18661,11.14587],[77.18218,11.14764],[77.18099,11.14469],[77.17981,11.13877],[77.17833,11.13611],[77.17389,11.137],[77.16946,11.1438],[77.16975,11.15415],[77.16975,11.15799],[77.16916,11.16125],[77.16266,11.16332],[77.15556,11.16243],[77.15319,11.16568],[77.15379,11.17101],[77.15556,11.17574],[77.15733,11.17781],[77.15793,11.18254],[77.15615,11.1849],[77.15231,11.192],[77.15112,11.19703],[77.1458,11.20028],[77.14225,11.20768],[77.14196,11.21389],[77.14373,11.21921],[77.14639,11.22128],[77.1529,11.23133],[77.15467,11.23429],[77.15822,11.24257],[77.16147,11.2473],[77.16325,11.24967],[77.16147,11.25233],[77.15822,11.26002],[77.15881,11.26594],[77.16443,11.26919],[77.16473,11.27185],[77.16029,11.27717],[77.15467,11.27658],[77.15024,11.27569],[77.14639,11.27688],[77.14462,11.27984],[77.14136,11.28072],[77.13604,11.28102],[77.1248,11.28161],[77.11859,11.28131],[77.11534,11.28545],[77.1109,11.29166],[77.1109,11.2958],[77.11416,11.29817],[77.11593,11.29906],[77.11889,11.30172],[77.12835,11.30231],[77.13989,11.30113],[77.14403,11.3029],[77.14403,11.3171],[77.14373,11.32567],[77.14449,11.33406],[77.14963,11.33279],[77.15975,11.32726],[77.16614,11.31343],[77.17609,11.31324],[77.18059,11.31247],[77.18294,11.31959],[77.17989,11.32073],[77.1801,11.32492],[77.17856,11.32897],[77.17425,11.32882],[77.17644,11.33869],[77.18728,11.33743],[77.19575,11.33312],[77.1966,11.33687],[77.19598,11.34162],[77.19838,11.34098],[77.20706,11.3457],[77.21805,11.34903],[77.22471,11.34986],[77.23079,11.34855],[77.22728,11.34388]]]}}]}