{"type":"FeatureCollection","features":[{"type":"Feature","properties":{"id":"bankura","name":"Bankura","stateId":"west-bengal","stateName":"West Bengal","censuscode":339,"type":"district"},"geometry":{"type":"Polygon","coordinates":[[[87.71411,23.01057],[87.70942,23.01473],[87.70511,23.02614],[87.70035,23.02479],[87.69054,23.02434],[87.68977,23.02338],[87.69215,23.01839],[87.70042,23.01852],[87.70189,23.01717],[87.69898,23.01199],[87.69879,23.00877],[87.69925,23.00441],[87.70164,23.00071],[87.6988,22.99596],[87.69649,22.99459],[87.68601,22.99274],[87.67954,22.99276],[87.67723,22.99185],[87.67609,22.98902],[87.66416,22.98728],[87.65864,22.98978],[87.65012,22.99027],[87.6457,22.98752],[87.64733,22.98325],[87.64819,22.97812],[87.64767,22.9682],[87.65223,22.96854],[87.65542,22.96588],[87.65642,22.9563],[87.65465,22.94243],[87.65221,22.93603],[87.64783,22.9312],[87.64811,22.92624],[87.6469,22.92216],[87.63557,22.92157],[87.63388,22.92077],[87.63087,22.91893],[87.62695,22.91249],[87.62554,22.90696],[87.62582,22.90351],[87.62749,22.90252],[87.63267,22.90331],[87.63395,22.90088],[87.63085,22.89611],[87.62268,22.89395],[87.61979,22.89188],[87.61799,22.89149],[87.60878,22.89289],[87.60724,22.894],[87.60391,22.89891],[87.59578,22.89473],[87.58847,22.89953],[87.58755,22.90178],[87.58897,22.90616],[87.58729,22.90829],[87.57916,22.91155],[87.5758,22.91185],[87.57507,22.91392],[87.56801,22.91867],[87.56464,22.91879],[87.56123,22.92076],[87.55794,22.92146],[87.55316,22.92153],[87.54857,22.92379],[87.54219,22.92433],[87.53409,22.93006],[87.52981,22.93082],[87.52483,22.93021],[87.52204,22.93114],[87.52067,22.93079],[87.52026,22.92607],[87.51577,22.92394],[87.51249,22.9273],[87.51068,22.92787],[87.50574,22.92731],[87.4989,22.92163],[87.49396,22.92077],[87.48724,22.91629],[87.47978,22.91268],[87.47366,22.91131],[87.46412,22.91173],[87.45753,22.9148],[87.45252,22.91994],[87.44953,22.92185],[87.44523,22.921],[87.42606,22.9242],[87.41988,22.93234],[87.41608,22.93327],[87.40139,22.93364],[87.39861,22.93842],[87.39514,22.93982],[87.39316,22.94149],[87.38931,22.94276],[87.37416,22.94279],[87.37075,22.94378],[87.36638,22.94707],[87.36497,22.95001],[87.3627,22.95179],[87.35992,22.95249],[87.34333,22.94837],[87.33595,22.94803],[87.3336,22.94625],[87.32078,22.94338],[87.31469,22.93118],[87.30594,22.92744],[87.29343,22.924],[87.28933,22.92095],[87.28715,22.91553],[87.28648,22.91098],[87.27842,22.90885],[87.27104,22.90374],[87.26849,22.90529],[87.25427,22.89845],[87.24606,22.89718],[87.23774,22.90134],[87.2224,22.90659],[87.21622,22.89737],[87.21161,22.89455],[87.20584,22.89565],[87.19638,22.89144],[87.18788,22.88955],[87.17956,22.89352],[87.17825,22.89139],[87.17334,22.89254],[87.17172,22.89047],[87.16791,22.88103],[87.16617,22.87907],[87.1582,22.87192],[87.14624,22.857],[87.1402,22.85089],[87.13324,22.84525],[87.12913,22.84341],[87.11982,22.84312],[87.10355,22.8445],[87.08697,22.84403],[87.07363,22.84691],[87.0668,22.84944],[87.06271,22.84909],[87.06102,22.84477],[87.06033,22.83498],[87.06075,22.83169],[87.05919,22.82784],[87.05676,22.82525],[87.05409,22.82375],[87.05736,22.81298],[87.062,22.80522],[87.06547,22.80101],[87.06422,22.79607],[87.06979,22.78928],[87.07698,22.78324],[87.07951,22.77852],[87.08117,22.76886],[87.08283,22.76438],[87.08404,22.74865],[87.08756,22.73812],[87.07743,22.72828],[87.07086,22.73243],[87.06317,22.7312],[87.05155,22.72695],[87.03795,22.71921],[87.03912,22.715],[87.03861,22.71297],[87.03681,22.71018],[87.03432,22.70912],[87.03109,22.70369],[87.02264,22.70233],[87.02028,22.69646],[87.01593,22.69417],[87.01908,22.68684],[87.02012,22.68042],[87.01937,22.67604],[87.02078,22.66762],[87.02009,22.66161],[87.01622,22.6506],[87.00474,22.65007],[87.0024,22.65669],[86.99998,22.65777],[86.9935,22.661],[86.98799,22.66985],[86.97621,22.67314],[86.97334,22.67051],[86.96995,22.67],[86.96705,22.67215],[86.96508,22.67545],[86.96129,22.6682],[86.95746,22.66751],[86.95092,22.66971],[86.95117,22.65861],[86.94911,22.652],[86.95285,22.64762],[86.95579,22.64248],[86.95668,22.63782],[86.94875,22.63379],[86.94525,22.63518],[86.94222,22.63462],[86.92717,22.62656],[86.92372,22.62836],[86.92011,22.62628],[86.91947,22.63065],[86.91369,22.63507],[86.90719,22.63399],[86.90632,22.64129],[86.89346,22.65233],[86.87437,22.6619],[86.86477,22.66493],[86.85564,22.67245],[86.84666,22.68471],[86.84322,22.68252],[86.84085,22.6871],[86.81845,22.69649],[86.80638,22.70817],[86.79782,22.7085],[86.78932,22.71096],[86.78259,22.71598],[86.77289,22.72009],[86.77439,22.72628],[86.76014,22.73142],[86.7499,22.73736],[86.74487,22.73786],[86.74135,22.74023],[86.73245,22.74412],[86.72627,22.74586],[86.71764,22.74543],[86.71184,22.75036],[86.70148,22.76315],[86.69643,22.76681],[86.68407,22.76702],[86.67604,22.76827],[86.67208,22.77016],[86.66585,22.78084],[86.66,22.78754],[86.65217,22.79098],[86.64482,22.79208],[86.64182,22.79611],[86.62736,22.79829],[86.61228,22.79891],[86.6103,22.80623],[86.61406,22.81125],[86.61545,22.81698],[86.61781,22.81973],[86.6181,22.82359],[86.62012,22.82564],[86.63602,22.82584],[86.64107,22.82835],[86.64553,22.83257],[86.64799,22.83664],[86.64861,22.84006],[86.65711,22.83761],[86.66205,22.84927],[86.67311,22.8555],[86.67698,22.8585],[86.6797,22.86206],[86.68865,22.86283],[86.69545,22.86802],[86.70458,22.87214],[86.70939,22.88754],[86.70475,22.89277],[86.70864,22.89439],[86.7075,22.89598],[86.7085,22.89853],[86.70814,22.901],[86.70219,22.90672],[86.70394,22.90992],[86.69827,22.91709],[86.69794,22.92175],[86.69528,22.9243],[86.69245,22.92967],[86.69344,22.93314],[86.69681,22.93642],[86.69645,22.93883],[86.69875,22.93944],[86.70123,22.9468],[86.70282,22.9481],[86.70314,22.95098],[86.70786,22.95169],[86.71113,22.95675],[86.71421,22.96527],[86.71274,22.96657],[86.71674,22.97362],[86.71979,22.98352],[86.71957,22.98702],[86.72125,22.99165],[86.72759,22.99542],[86.72793,23.00158],[86.72673,23.00693],[86.73335,23.02554],[86.72635,23.0291],[86.72307,23.03271],[86.72366,23.03718],[86.73457,23.04216],[86.73521,23.04485],[86.73357,23.04665],[86.72917,23.04759],[86.72765,23.0506],[86.72944,23.05683],[86.7354,23.06334],[86.73581,23.0685],[86.74136,23.07502],[86.74128,23.0791],[86.74469,23.08635],[86.74507,23.09439],[86.74343,23.09821],[86.7411,23.10112],[86.73678,23.10275],[86.72412,23.10428],[86.71912,23.11137],[86.71145,23.11966],[86.71209,23.12103],[86.71621,23.12148],[86.72517,23.13582],[86.72464,23.15101],[86.73539,23.16814],[86.73878,23.1686],[86.74177,23.16781],[86.7452,23.16493],[86.74793,23.16587],[86.74771,23.17236],[86.75271,23.17625],[86.75314,23.18188],[86.75116,23.18961],[86.75137,23.19358],[86.75376,23.19837],[86.75854,23.20111],[86.76485,23.20262],[86.77594,23.20157],[86.78458,23.20815],[86.78464,23.2108],[86.78124,23.21821],[86.77582,23.22584],[86.77636,23.22842],[86.77476,23.23091],[86.76371,23.24018],[86.76402,23.24322],[86.7672,23.24518],[86.77157,23.2423],[86.77397,23.24226],[86.77512,23.25029],[86.77471,23.25392],[86.77684,23.26141],[86.77549,23.26413],[86.77453,23.27151],[86.77553,23.27472],[86.77852,23.27944],[86.77261,23.29057],[86.77396,23.29601],[86.77843,23.29813],[86.78375,23.29924],[86.78363,23.3023],[86.77801,23.31027],[86.77875,23.31601],[86.77884,23.32026],[86.78104,23.3254],[86.77954,23.33295],[86.78057,23.33846],[86.78391,23.34174],[86.78929,23.34257],[86.7942,23.34186],[86.79757,23.34323],[86.80287,23.34372],[86.8063,23.36069],[86.80919,23.36294],[86.81765,23.36348],[86.82303,23.36109],[86.82714,23.36344],[86.82929,23.36645],[86.82864,23.3702],[86.82934,23.37421],[86.82787,23.37746],[86.82479,23.38061],[86.82937,23.38468],[86.83782,23.38171],[86.84209,23.38228],[86.84353,23.38605],[86.84343,23.39024],[86.847,23.39593],[86.84712,23.40134],[86.84046,23.40749],[86.8441,23.4099],[86.84488,23.41242],[86.84411,23.41961],[86.85161,23.42679],[86.85869,23.43506],[86.855,23.43904],[86.84933,23.44241],[86.84011,23.43774],[86.83256,23.43953],[86.82725,23.4364],[86.8201,23.43653],[86.81909,23.44188],[86.82003,23.44797],[86.81719,23.45123],[86.82034,23.46654],[86.82525,23.46542],[86.83898,23.4668],[86.84606,23.46644],[86.85105,23.46572],[86.85686,23.46304],[86.86092,23.46561],[86.86499,23.47405],[86.86311,23.47903],[86.86492,23.4832],[86.86435,23.48804],[86.86923,23.48899],[86.87491,23.49717],[86.89711,23.49293],[86.89765,23.49603],[86.89396,23.49931],[86.88648,23.51687],[86.88757,23.53019],[86.88671,23.53629],[86.88355,23.5386],[86.87837,23.53869],[86.87541,23.54225],[86.87704,23.54855],[86.87759,23.55647],[86.87396,23.55677],[86.8722,23.56077],[86.872,23.56578],[86.85682,23.56926],[86.86315,23.57255],[86.87085,23.57507],[86.87573,23.57084],[86.88232,23.57591],[86.88297,23.58064],[86.88039,23.58327],[86.87934,23.58663],[86.8832,23.59286],[86.88104,23.59989],[86.8838,23.60569],[86.88721,23.61981],[86.8875,23.62633],[86.8939,23.62934],[86.89949,23.64004],[86.90485,23.63362],[86.91655,23.6294],[86.92833,23.63207],[86.9548,23.63354],[86.96939,23.6279],[86.97507,23.62846],[86.98753,23.63186],[86.99527,23.63297],[86.99998,23.63305],[87.01043,23.63331],[87.01757,23.63433],[87.02289,23.63088],[87.03331,23.62173],[87.04238,23.61867],[87.06303,23.61379],[87.07517,23.60349],[87.08429,23.59943],[87.09156,23.59743],[87.10903,23.58486],[87.1248,23.57578],[87.1326,23.57545],[87.14372,23.57207],[87.15163,23.5712],[87.16171,23.5653],[87.16743,23.56447],[87.18741,23.56463],[87.19369,23.56379],[87.20693,23.55658],[87.21434,23.55561],[87.24165,23.53212],[87.25523,23.51592],[87.26165,23.51208],[87.26729,23.50999],[87.27229,23.50652],[87.27604,23.50306],[87.27968,23.49754],[87.30826,23.48024],[87.31641,23.47609],[87.3349,23.47045],[87.37536,23.44184],[87.38405,23.43647],[87.38881,23.43414],[87.40104,23.43124],[87.41071,23.4278],[87.42423,23.41786],[87.43863,23.41077],[87.44713,23.40539],[87.46121,23.39176],[87.47768,23.37308],[87.48959,23.36298],[87.50095,23.34823],[87.50563,23.34476],[87.51428,23.34093],[87.52906,23.33245],[87.53298,23.32858],[87.53583,23.32451],[87.54256,23.31887],[87.54671,23.31702],[87.56088,23.30946],[87.5634,23.3047],[87.56522,23.29897],[87.57029,23.29071],[87.58258,23.2821],[87.59436,23.2705],[87.6029,23.25815],[87.61002,23.25297],[87.6333,23.2403],[87.63725,23.23902],[87.65405,23.23888],[87.65628,23.23833],[87.65726,23.2279],[87.6613,23.22156],[87.65456,23.22059],[87.6521,23.21609],[87.65094,23.21111],[87.65042,23.19795],[87.65494,23.19338],[87.65818,23.18803],[87.66346,23.17539],[87.67022,23.16762],[87.66325,23.16769],[87.66673,23.1613],[87.67606,23.15848],[87.67921,23.15682],[87.68202,23.14871],[87.68523,23.1444],[87.69121,23.14492],[87.68888,23.13117],[87.68781,23.12796],[87.68488,23.12427],[87.68714,23.12239],[87.69018,23.12453],[87.69329,23.12844],[87.69766,23.126],[87.71949,23.11967],[87.72092,23.11659],[87.72796,23.1145],[87.72953,23.11832],[87.73416,23.11715],[87.73156,23.12341],[87.73189,23.12765],[87.74263,23.1144],[87.74901,23.10778],[87.74958,23.10495],[87.74639,23.10398],[87.74648,23.10225],[87.7505,23.10137],[87.75441,23.09796],[87.75833,23.0892],[87.75828,23.08086],[87.76423,23.0803],[87.76631,23.07571],[87.76572,23.07152],[87.76302,23.06968],[87.75903,23.06958],[87.75595,23.06757],[87.74588,23.0562],[87.74573,23.05206],[87.74669,23.0471],[87.74294,23.04291],[87.74418,23.0311],[87.73959,23.02871],[87.72952,23.02861],[87.72267,23.02777],[87.72363,23.02269],[87.72205,23.01898],[87.71411,23.01057]]]}}]}