{"type":"FeatureCollection","features":[{"type":"Feature","properties":{"id":"dakshin-dinajpur","name":"Dakshin Dinajpur","stateId":"west-bengal","stateName":"West Bengal","censuscode":331,"type":"district"},"geometry":{"type":"Polygon","coordinates":[[[88.18542,25.28589],[88.1869,25.28782],[88.19006,25.29907],[88.18951,25.30315],[88.19095,25.30675],[88.19577,25.31239],[88.20299,25.31753],[88.21211,25.327],[88.2174,25.33371],[88.21833,25.33551],[88.22196,25.34157],[88.22635,25.34686],[88.22939,25.35002],[88.23205,25.35356],[88.23222,25.35613],[88.23395,25.35788],[88.23797,25.36356],[88.23818,25.36686],[88.23925,25.37086],[88.24317,25.37507],[88.24792,25.3796],[88.24991,25.38539],[88.24984,25.39055],[88.24903,25.39685],[88.24599,25.39996],[88.24344,25.40452],[88.24525,25.40737],[88.24879,25.41197],[88.2505,25.41335],[88.26198,25.42158],[88.26669,25.42538],[88.2669,25.42868],[88.26619,25.43019],[88.26241,25.43444],[88.26338,25.43697],[88.26362,25.44064],[88.26146,25.44481],[88.26062,25.45074],[88.26169,25.45474],[88.26286,25.4602],[88.26324,25.46607],[88.26157,25.47169],[88.2562,25.47639],[88.25444,25.48054],[88.2555,25.48453],[88.25648,25.48706],[88.26024,25.4887],[88.26754,25.48868],[88.27836,25.49289],[88.28519,25.50431],[88.28769,25.51154],[88.29404,25.51562],[88.29956,25.51938],[88.30346,25.52322],[88.31298,25.52602],[88.31965,25.53487],[88.32053,25.53593],[88.32279,25.53949],[88.32739,25.54771],[88.33041,25.5505],[88.33814,25.55082],[88.34666,25.55073],[88.35095,25.55418],[88.35764,25.5634],[88.36355,25.56676],[88.37111,25.56451],[88.37735,25.56049],[88.38634,25.56148],[88.3907,25.56603],[88.39152,25.57225],[88.39207,25.58069],[88.40153,25.58865],[88.40653,25.59059],[88.41303,25.5906],[88.42298,25.58749],[88.42603,25.59063],[88.43105,25.58668],[88.43545,25.5857],[88.44284,25.59304],[88.44722,25.59169],[88.44578,25.58846],[88.44675,25.58472],[88.45042,25.58489],[88.45643,25.58972],[88.4615,25.59348],[88.46818,25.5905],[88.47041,25.58846],[88.47144,25.58553],[88.47243,25.58507],[88.47744,25.58375],[88.47893,25.58352],[88.48664,25.58494],[88.48986,25.5845],[88.49387,25.5836],[88.49788,25.58091],[88.49789,25.58001],[88.4984,25.57979],[88.49756,25.56996],[88.49858,25.56554],[88.4982,25.56531],[88.49771,25.56418],[88.49786,25.56078],[88.49848,25.55923],[88.49887,25.55888],[88.49955,25.55826],[88.50267,25.55617],[88.50459,25.55308],[88.50551,25.55246],[88.50626,25.55019],[88.50975,25.54842],[88.51031,25.54824],[88.52025,25.54463],[88.52325,25.54217],[88.52427,25.53739],[88.52505,25.53696],[88.52752,25.53651],[88.53021,25.5374],[88.53522,25.53791],[88.53596,25.53745],[88.53596,25.53701],[88.53673,25.53635],[88.53724,25.53635],[88.538,25.53477],[88.53851,25.53342],[88.53899,25.53319],[88.539,25.5325],[88.53947,25.53227],[88.53998,25.53207],[88.54053,25.53044],[88.5425,25.52485],[88.54264,25.51752],[88.54274,25.51288],[88.5428,25.51026],[88.54608,25.50951],[88.55032,25.51144],[88.55049,25.51158],[88.55097,25.51257],[88.55356,25.51602],[88.55575,25.51751],[88.55752,25.51705],[88.5595,25.51495],[88.55976,25.51406],[88.5625,25.51318],[88.56324,25.51341],[88.56728,25.51159],[88.5699,25.51059],[88.57543,25.50935],[88.59362,25.50674],[88.59641,25.50768],[88.59813,25.50927],[88.60062,25.51222],[88.60168,25.51345],[88.60735,25.51451],[88.60983,25.51247],[88.61233,25.50774],[88.61284,25.50752],[88.61284,25.50706],[88.62386,25.49898],[88.63508,25.49698],[88.64128,25.4979],[88.64229,25.49701],[88.64288,25.49547],[88.64336,25.49524],[88.64336,25.49435],[88.64491,25.4916],[88.64543,25.49137],[88.64756,25.48302],[88.65131,25.48122],[88.66005,25.48079],[88.66154,25.47944],[88.66155,25.47898],[88.66206,25.47786],[88.6633,25.47696],[88.6633,25.47651],[88.66928,25.47474],[88.67624,25.47477],[88.67773,25.47454],[88.67794,25.47459],[88.68047,25.47517],[88.6884,25.47589],[88.68896,25.47594],[88.69412,25.475],[88.70066,25.47327],[88.70389,25.47464],[88.70437,25.47421],[88.70488,25.47442],[88.70709,25.47693],[88.70757,25.48281],[88.70808,25.48371],[88.71194,25.48756],[88.7123,25.4905],[88.71218,25.49162],[88.71205,25.49209],[88.71129,25.49229],[88.71053,25.49275],[88.71055,25.49422],[88.71056,25.4959],[88.71233,25.4967],[88.71575,25.49729],[88.71674,25.49684],[88.72223,25.49665],[88.72622,25.49914],[88.72996,25.49962],[88.73518,25.49849],[88.73914,25.50098],[88.74114,25.50145],[88.74213,25.50123],[88.74414,25.49717],[88.74414,25.49535],[88.74287,25.4917],[88.74293,25.48969],[88.74416,25.48926],[88.74865,25.48861],[88.75067,25.49018],[88.75067,25.49064],[88.75241,25.49131],[88.75264,25.49111],[88.75787,25.49337],[88.76434,25.49409],[88.76857,25.49658],[88.76854,25.50313],[88.76704,25.50719],[88.76604,25.50765],[88.76528,25.50946],[88.76528,25.51013],[88.76279,25.51239],[88.76152,25.51668],[88.76163,25.51937],[88.76277,25.52096],[88.76896,25.5219],[88.77211,25.52069],[88.77674,25.51831],[88.77674,25.51786],[88.78547,25.51427],[88.7887,25.51475],[88.78892,25.51495],[88.79565,25.51994],[88.79688,25.5213],[88.79812,25.52176],[88.80186,25.52247],[88.8026,25.52177],[88.8026,25.52132],[88.80337,25.52065],[88.80412,25.52022],[88.80436,25.5191],[88.80509,25.51728],[88.8056,25.51705],[88.80611,25.51683],[88.8073,25.51393],[88.81288,25.4992],[88.81491,25.49061],[88.81539,25.49039],[88.81539,25.48993],[88.81987,25.48679],[88.82735,25.48569],[88.8336,25.483],[88.83586,25.48117],[88.83622,25.48004],[88.83675,25.47779],[88.83826,25.46491],[88.83664,25.46285],[88.83764,25.45608],[88.83656,25.4477],[88.83638,25.4476],[88.83527,25.44558],[88.82997,25.44293],[88.82936,25.43976],[88.82975,25.43795],[88.83522,25.43618],[88.83572,25.43571],[88.8372,25.43166],[88.83711,25.42848],[88.83575,25.42689],[88.83486,25.42645],[88.833,25.42555],[88.83153,25.41333],[88.83078,25.41289],[88.82782,25.41314],[88.82309,25.41239],[88.82173,25.41172],[88.81837,25.41035],[88.81824,25.40808],[88.81885,25.40695],[88.8236,25.40359],[88.82411,25.40269],[88.82909,25.40064],[88.84027,25.39796],[88.84326,25.39617],[88.84554,25.3937],[88.84616,25.391],[88.84591,25.38984],[88.84579,25.38848],[88.84331,25.38825],[88.84267,25.38809],[88.84093,25.38758],[88.84093,25.38645],[88.8426,25.3783],[88.8467,25.36589],[88.8472,25.36568],[88.8481,25.36409],[88.8481,25.36363],[88.85034,25.36183],[88.85131,25.36142],[88.85706,25.35914],[88.85756,25.35868],[88.85929,25.35438],[88.86354,25.35304],[88.86604,25.35282],[88.86655,25.35305],[88.86753,25.35282],[88.86903,25.3517],[88.86915,25.35145],[88.87177,25.34651],[88.87216,25.34107],[88.87278,25.33905],[88.88026,25.33452],[88.88075,25.3334],[88.88077,25.33328],[88.88127,25.33305],[88.88276,25.32867],[88.88425,25.32755],[88.88798,25.3262],[88.88948,25.32664],[88.89152,25.32984],[88.8932,25.33368],[88.89765,25.33707],[88.90214,25.33754],[88.90662,25.33483],[88.90811,25.33349],[88.91188,25.32217],[88.91264,25.32173],[88.91286,25.32081],[88.91337,25.32061],[88.91461,25.31948],[88.91684,25.3154],[88.92182,25.31452],[88.92867,25.31458],[88.93009,25.31369],[88.93084,25.31166],[88.93131,25.31047],[88.9375,25.30686],[88.96262,25.30374],[88.96287,25.30397],[88.96936,25.30398],[88.97154,25.30451],[88.97754,25.30603],[88.98376,25.30648],[88.98526,25.30583],[88.9855,25.30513],[88.98674,25.30424],[88.98798,25.30334],[88.98798,25.30289],[88.98872,25.30153],[88.99296,25.30035],[89.00514,25.3],[89.00863,25.29684],[89.0094,25.29344],[89.00839,25.2862],[89.00928,25.28207],[89.01076,25.27534],[89.01139,25.27467],[89.0124,25.27242],[89.0124,25.27215],[89.01251,25.2672],[89.01175,25.26611],[89.009,25.26529],[89.00293,25.26903],[89.00301,25.26983],[89.00248,25.27025],[88.99922,25.27192],[88.99797,25.27124],[88.99725,25.27171],[88.99301,25.27108],[88.99078,25.27056],[88.99078,25.27124],[88.99027,25.27057],[88.98803,25.27011],[88.98505,25.26739],[88.97811,25.26374],[88.97414,25.25696],[88.97161,25.25638],[88.96444,25.25467],[88.95823,25.25015],[88.95602,25.24562],[88.95602,25.24176],[88.95672,25.23815],[88.95752,25.23671],[88.95798,25.23276],[88.95918,25.22906],[88.96113,25.21986],[88.96152,25.21873],[88.96203,25.21873],[88.9624,25.21781],[88.96317,25.21735],[88.96352,25.21623],[88.964,25.2106],[88.95682,25.20626],[88.94563,25.20535],[88.94044,25.20352],[88.93943,25.20217],[88.93905,25.20081],[88.93944,25.19764],[88.94467,25.19471],[88.94517,25.19381],[88.94839,25.19108],[88.94935,25.18645],[88.94954,25.18114],[88.94916,25.18025],[88.94818,25.17911],[88.94682,25.17868],[88.9467,25.17822],[88.94619,25.17729],[88.9452,25.17686],[88.94172,25.17616],[88.93948,25.17639],[88.93824,25.17705],[88.93425,25.17819],[88.93127,25.17729],[88.93009,25.17646],[88.92893,25.17542],[88.92724,25.1742],[88.92486,25.16958],[88.92137,25.1664],[88.91963,25.16573],[88.91615,25.16728],[88.91615,25.16775],[88.91614,25.1682],[88.91365,25.17023],[88.91342,25.17114],[88.91266,25.1716],[88.90944,25.17675],[88.90294,25.18128],[88.9012,25.18149],[88.89502,25.18329],[88.89353,25.18306],[88.89265,25.18216],[88.89177,25.18149],[88.88956,25.1763],[88.88658,25.17557],[88.88209,25.17625],[88.88209,25.17668],[88.8791,25.17918],[88.87888,25.1801],[88.87837,25.18033],[88.87699,25.18823],[88.87636,25.18958],[88.87461,25.1907],[88.86742,25.18843],[88.86545,25.18955],[88.86481,25.19068],[88.86391,25.19993],[88.86191,25.20131],[88.85795,25.20038],[88.8552,25.20084],[88.85297,25.20195],[88.85297,25.20422],[88.85272,25.20647],[88.84972,25.20895],[88.84924,25.20986],[88.84848,25.2101],[88.84155,25.20961],[88.84104,25.20985],[88.84054,25.21007],[88.83519,25.20785],[88.83505,25.20778],[88.83332,25.2053],[88.8332,25.20394],[88.8337,25.20371],[88.83384,25.20304],[88.83349,25.19445],[88.83164,25.19217],[88.8246,25.18981],[88.82319,25.18787],[88.82124,25.1826],[88.81521,25.17656],[88.80897,25.17396],[88.79838,25.17444],[88.78758,25.17716],[88.78058,25.17817],[88.77868,25.18247],[88.77752,25.18816],[88.77241,25.18796],[88.76882,25.18537],[88.7658,25.18433],[88.76145,25.18362],[88.75861,25.18137],[88.75711,25.17827],[88.75256,25.18066],[88.74763,25.18685],[88.73721,25.18974],[88.73472,25.19627],[88.72695,25.2009],[88.71785,25.20345],[88.70794,25.20527],[88.69195,25.20866],[88.68922,25.20979],[88.68674,25.20999],[88.68089,25.20871],[88.67506,25.207],[88.67108,25.20407],[88.6696,25.20338],[88.65519,25.20421],[88.64874,25.20555],[88.64798,25.20531],[88.64675,25.20553],[88.64302,25.20529],[88.642,25.20508],[88.63633,25.2037],[88.63206,25.20428],[88.62485,25.2059],[88.6189,25.20519],[88.60951,25.20154],[88.60354,25.19788],[88.59585,25.19539],[88.59314,25.19333],[88.59239,25.19108],[88.5903,25.18448],[88.5892,25.18176],[88.5887,25.18132],[88.57953,25.17767],[88.56836,25.17465],[88.56564,25.1751],[88.56389,25.176],[88.56336,25.18256],[88.56434,25.18755],[88.5642,25.18822],[88.56235,25.19045],[88.55414,25.19336],[88.54867,25.192],[88.54273,25.18788],[88.54124,25.18741],[88.53776,25.18785],[88.53652,25.18854],[88.53575,25.19102],[88.536,25.19215],[88.53687,25.19305],[88.5392,25.19623],[88.53945,25.19736],[88.53745,25.19916],[88.53697,25.19939],[88.53472,25.19937],[88.5346,25.19933],[88.53001,25.19733],[88.52802,25.19755],[88.52602,25.19864],[88.5253,25.19995],[88.52482,25.20107],[88.52335,25.20173],[88.51757,25.20088],[88.5141,25.19881],[88.51213,25.19927],[88.50859,25.20117],[88.50835,25.20184],[88.50489,25.20355],[88.50437,25.20467],[88.50413,25.20556],[88.50188,25.20735],[88.49466,25.20915],[88.48719,25.21361],[88.48544,25.21337],[88.48049,25.21087],[88.47632,25.20181],[88.47562,25.20117],[88.47268,25.19835],[88.46714,25.19609],[88.45994,25.19695],[88.45794,25.19763],[88.45644,25.19851],[88.45495,25.2035],[88.4542,25.20392],[88.45319,25.20461],[88.45269,25.20731],[88.4517,25.20823],[88.44767,25.20977],[88.44422,25.20931],[88.44283,25.20842],[88.44276,25.20742],[88.44303,25.20117],[88.44414,25.19728],[88.44318,25.19739],[88.43775,25.19694],[88.44016,25.20327],[88.44006,25.20781],[88.44513,25.2117],[88.44651,25.21418],[88.44416,25.21565],[88.43998,25.21665],[88.44315,25.22161],[88.45012,25.22052],[88.45124,25.22156],[88.45065,25.22385],[88.45505,25.22774],[88.45101,25.22753],[88.45365,25.23582],[88.45789,25.24166],[88.4593,25.24666],[88.46292,25.25111],[88.46242,25.2584],[88.46441,25.26261],[88.46456,25.26715],[88.46612,25.26934],[88.46352,25.26972],[88.45818,25.26595],[88.45656,25.26318],[88.45855,25.26055],[88.45113,25.26244],[88.44972,25.26565],[88.44106,25.27851],[88.44502,25.28222],[88.44637,25.2859],[88.44943,25.2896],[88.44991,25.29282],[88.44931,25.29637],[88.45176,25.30524],[88.44849,25.31038],[88.4434,25.31321],[88.43643,25.31545],[88.43062,25.31437],[88.42732,25.31573],[88.42152,25.31373],[88.41912,25.31365],[88.41767,25.31243],[88.43167,25.30984],[88.43059,25.30329],[88.42529,25.30216],[88.42018,25.30005],[88.41173,25.29832],[88.41145,25.29295],[88.4093,25.29241],[88.40373,25.29265],[88.39911,25.30175],[88.39594,25.30149],[88.39321,25.2959],[88.38989,25.29294],[88.38967,25.28926],[88.38588,25.28762],[88.36754,25.28913],[88.36476,25.29623],[88.36063,25.29791],[88.35934,25.29458],[88.3479,25.30062],[88.3348,25.3028],[88.33541,25.2981],[88.32955,25.29546],[88.32649,25.2979],[88.31973,25.29865],[88.31355,25.29704],[88.30549,25.3011],[88.30316,25.30596],[88.30033,25.30501],[88.29891,25.30833],[88.29606,25.30836],[88.29566,25.31088],[88.29192,25.31177],[88.29299,25.31361],[88.29032,25.31479],[88.28596,25.31424],[88.28396,25.31146],[88.28219,25.31208],[88.27964,25.31475],[88.27737,25.31444],[88.27635,25.30777],[88.27485,25.30495],[88.27639,25.30226],[88.27126,25.29722],[88.26672,25.29614],[88.2659,25.29533],[88.2606,25.29471],[88.26087,25.29218],[88.25367,25.29137],[88.25484,25.28788],[88.2475,25.2893],[88.24229,25.29149],[88.2448,25.29398],[88.24118,25.29699],[88.2457,25.29899],[88.2417,25.3013],[88.22694,25.30643],[88.21991,25.30723],[88.21505,25.30324],[88.21501,25.30322],[88.20239,25.28541],[88.19906,25.28412],[88.1973,25.27533],[88.19218,25.27487],[88.18542,25.28589]]]}}]}