{"type":"FeatureCollection","features":[{"type":"Feature","properties":{"id":"haora","name":"Haora","stateId":"west-bengal","stateName":"West Bengal","censuscode":341,"type":"district"},"geometry":{"type":"MultiPolygon","coordinates":[[[[87.99513,22.773],[87.99747,22.76516],[87.99861,22.75506],[88.00001,22.75025],[88.00077,22.74997],[88.00135,22.74971],[88.00188,22.7494],[88.0024,22.74907],[88.00287,22.7487],[88.0033,22.7483],[88.00369,22.74788],[88.00401,22.74744],[88.0043,22.74699],[88.00454,22.74652],[88.00471,22.74604],[88.00483,22.74557],[88.00488,22.74509],[88.00489,22.7446],[88.00481,22.74412],[88.00469,22.74365],[88.00451,22.74319],[88.00428,22.74273],[88.00398,22.74229],[88.00364,22.74187],[88.00323,22.74147],[88.00279,22.7411],[88.0023,22.74076],[88.00177,22.74045],[88.00122,22.74018],[88.00062,22.73996],[88,22.73978],[87.99236,22.73275],[87.99304,22.72661],[87.99665,22.72159],[87.99914,22.7165],[87.99673,22.70517],[87.99728,22.7031],[88.00002,22.70106],[88.00972,22.69349],[88.01111,22.68843],[88.01466,22.68357],[88.01985,22.6863],[88.02442,22.68644],[88.028,22.68892],[88.03141,22.68563],[88.03523,22.68615],[88.04242,22.68424],[88.04702,22.68165],[88.05012,22.67738],[88.0511,22.68243],[88.05069,22.68648],[88.05234,22.69046],[88.05689,22.69684],[88.06288,22.69859],[88.06553,22.70146],[88.06401,22.70571],[88.06183,22.70897],[88.06516,22.71161],[88.06733,22.70837],[88.06761,22.7041],[88.06955,22.70031],[88.07472,22.69488],[88.06916,22.69263],[88.06747,22.68489],[88.07273,22.68461],[88.07484,22.68342],[88.07932,22.68897],[88.08354,22.68638],[88.0878,22.68641],[88.09848,22.69042],[88.10503,22.69143],[88.10752,22.69984],[88.10404,22.70319],[88.10495,22.7054],[88.10786,22.70488],[88.11096,22.70532],[88.11466,22.70699],[88.11499,22.70285],[88.11352,22.69925],[88.11649,22.70039],[88.11829,22.69805],[88.12231,22.6984],[88.12369,22.69536],[88.12559,22.68619],[88.1282,22.6841],[88.13854,22.68393],[88.14311,22.68488],[88.14696,22.68336],[88.14845,22.68034],[88.14922,22.67608],[88.15219,22.67501],[88.15366,22.6775],[88.15388,22.68388],[88.15492,22.6855],[88.15887,22.68806],[88.1606,22.68859],[88.16112,22.68508],[88.16274,22.68326],[88.16596,22.68207],[88.16861,22.6822],[88.17244,22.68372],[88.17652,22.68725],[88.179,22.68537],[88.1792,22.68227],[88.17607,22.67759],[88.17411,22.67107],[88.1771,22.66759],[88.17825,22.65999],[88.17776,22.65781],[88.17988,22.65511],[88.18335,22.65421],[88.18662,22.65555],[88.18165,22.66105],[88.18552,22.66797],[88.18545,22.67028],[88.18772,22.67116],[88.19628,22.66752],[88.19807,22.66758],[88.1982,22.66436],[88.20013,22.66304],[88.20358,22.66571],[88.20506,22.66871],[88.22032,22.67271],[88.22657,22.67204],[88.23368,22.67254],[88.23758,22.67359],[88.24245,22.67604],[88.243,22.678],[88.24634,22.67658],[88.24525,22.67259],[88.25435,22.66906],[88.26282,22.67026],[88.26763,22.66008],[88.27591,22.66403],[88.28493,22.66245],[88.29,22.66431],[88.3069,22.66352],[88.31185,22.66059],[88.31535,22.66673],[88.32333,22.66877],[88.32476,22.66532],[88.33479,22.66259],[88.34431,22.66459],[88.3479,22.66333],[88.34741,22.6601],[88.35219,22.65527],[88.35569,22.65026],[88.35832,22.64416],[88.36087,22.64043],[88.3632,22.63316],[88.36766,22.62409],[88.36904,22.61579],[88.36801,22.60839],[88.36331,22.60947],[88.35586,22.60021],[88.35162,22.59241],[88.34698,22.57702],[88.3324,22.55567],[88.32426,22.5504],[88.31173,22.54816],[88.28718,22.55161],[88.27425,22.55531],[88.26084,22.55896],[88.24723,22.56065],[88.23737,22.55489],[88.23654,22.5442],[88.24164,22.53706],[88.24459,22.52749],[88.23875,22.52134],[88.2282,22.51703],[88.21234,22.51478],[88.19557,22.50582],[88.195,22.50392],[88.17458,22.4846],[88.16645,22.47974],[88.12807,22.4743],[88.12106,22.46938],[88.11955,22.46378],[88.12494,22.44829],[88.14057,22.42151],[88.14236,22.4081],[88.09893,22.37554],[88.09446,22.36467],[88.09347,22.35666],[88.1005,22.34921],[88.09951,22.32967],[88.10004,22.31429],[88.09833,22.30234],[88.09519,22.30234],[88.09245,22.30234],[88.09016,22.30261],[88.08871,22.30313],[88.08861,22.3025],[88.0875,22.30056],[88.0875,22.3],[88.08722,22.29972],[88.08722,22.29917],[88.08695,22.29889],[88.08695,22.29861],[88.08667,22.29833],[88.08667,22.29806],[88.08639,22.29779],[88.08639,22.2975],[88.08611,22.29722],[88.08611,22.29667],[88.08556,22.29611],[88.08556,22.29583],[88.08444,22.29472],[88.08444,22.29445],[88.08361,22.29306],[88.08334,22.29278],[88.08334,22.2925],[88.08305,22.29222],[88.08305,22.29195],[88.08278,22.29167],[88.08278,22.29111],[88.08222,22.29056],[88.08222,22.29028],[88.08139,22.28944],[88.08139,22.28861],[88.08056,22.28778],[88.08056,22.2875],[88.07972,22.28667],[88.07972,22.28639],[88.07944,22.28611],[88.07945,22.28583],[88.07917,22.28555],[88.07917,22.28528],[88.07861,22.28417],[88.07861,22.28306],[88.07889,22.28279],[88.07889,22.28222],[88.07861,22.28194],[88.07861,22.28167],[88.07833,22.28139],[88.07833,22.28056],[88.07805,22.28028],[88.07776,22.27861],[88.07776,22.27833],[88.0775,22.27806],[88.0775,22.27722],[88.07723,22.27695],[88.07722,22.27639],[88.07667,22.27583],[88.07667,22.27528],[88.07694,22.275],[88.07667,22.27472],[88.07667,22.27361],[88.07639,22.27333],[88.07639,22.27222],[88.07611,22.27195],[88.07611,22.26944],[88.07584,22.26917],[88.07584,22.26889],[88.07611,22.26861],[88.07611,22.26806],[88.07584,22.26778],[88.07611,22.2675],[88.07611,22.265],[88.07584,22.26472],[88.07584,22.26334],[88.07611,22.26306],[88.07584,22.26278],[88.07584,22.2625],[88.07611,22.26222],[88.07584,22.26194],[88.07611,22.26167],[88.07611,22.26139],[88.07584,22.26111],[88.07584,22.26056],[88.07555,22.26028],[88.07555,22.25972],[88.07528,22.25944],[88.07528,22.25917],[88.07501,22.25889],[88.07501,22.25805],[88.07472,22.25778],[88.07472,22.25694],[88.07556,22.25611],[88.07555,22.25583],[88.07445,22.25472],[88.07445,22.25444],[88.07472,22.25417],[88.07501,22.25417],[88.07528,22.25389],[88.07528,22.25278],[88.07501,22.25249],[88.075,22.25222],[88.07472,22.25194],[88.07472,22.25167],[88.07445,22.25139],[88.07445,22.25111],[88.07416,22.25083],[88.07416,22.25056],[88.07389,22.25028],[88.07389,22.25],[88.07361,22.24972],[88.07361,22.24945],[88.07333,22.24917],[88.07333,22.24889],[88.07278,22.24833],[88.07278,22.24806],[88.07222,22.2475],[88.07222,22.24722],[88.07166,22.24667],[88.07166,22.24639],[88.07139,22.24611],[88.07139,22.24583],[88.07056,22.245],[88.07056,22.24472],[88.06917,22.24333],[88.06917,22.24306],[88.06888,22.24278],[88.06888,22.24222],[88.06834,22.24167],[88.06805,22.24167],[88.06722,22.24083],[88.06722,22.24056],[88.06667,22.24],[88.06667,22.23972],[88.06611,22.23917],[88.06582,22.23833],[88.06528,22.2375],[88.065,22.23722],[88.06472,22.23639],[88.06472,22.23611],[88.06361,22.235],[88.06333,22.235],[88.06276,22.23445],[88.06167,22.23278],[88.06139,22.23278],[88.06111,22.2325],[88.06084,22.23222],[88.06055,22.23222],[88.05778,22.22944],[88.05778,22.22917],[88.0525,22.22389],[88.05222,22.22389],[88.05139,22.22305],[88.05139,22.22278],[88.05111,22.22251],[88.05111,22.22222],[88.05055,22.22167],[88.04945,22.22028],[88.04916,22.22],[88.04861,22.22],[88.04833,22.21972],[88.04723,22.21972],[88.04694,22.22],[88.04642,22.22],[88.04611,22.22],[88.04583,22.22028],[88.045,22.22028],[88.04472,22.22056],[88.04444,22.22056],[88.04417,22.22083],[88.04389,22.22083],[88.04361,22.22111],[88.0425,22.22111],[88.04222,22.22139],[88.04083,22.22139],[88.04056,22.22167],[88.04028,22.22167],[88.04,22.22139],[88.03778,22.22139],[88.0375,22.22111],[88.03584,22.22111],[88.03555,22.22139],[88.03416,22.22139],[88.03389,22.22167],[88.03333,22.22167],[88.03306,22.22195],[88.03278,22.22195],[88.03264,22.22181],[88.0325,22.22167],[88.03056,22.22167],[88.03028,22.22195],[88.02778,22.22195],[88.0275,22.22222],[88.02694,22.22222],[88.02665,22.22251],[88.02611,22.2225],[88.02278,22.22583],[88.0225,22.22583],[88.02222,22.22611],[88.02194,22.22611],[88.02167,22.22639],[88.02139,22.22639],[88.02111,22.22667],[88.02028,22.22667],[88.02,22.22694],[88.01889,22.22694],[88.01861,22.22722],[88.01833,22.22722],[88.01806,22.2275],[88.0175,22.2275],[88.01722,22.22778],[88.01694,22.22778],[88.01667,22.22806],[88.01611,22.22806],[88.01583,22.22833],[88.01527,22.22832],[88.015,22.22861],[88.01471,22.22861],[88.01417,22.22917],[88.01389,22.22917],[88.01361,22.22944],[88.01305,22.22944],[88.01278,22.22972],[88.0125,22.22972],[88.01222,22.23],[88.01196,22.23],[88.01179,22.23017],[88.01095,22.23113],[88.00695,22.23837],[88,22.24163],[87.99789,22.24505],[87.99304,22.25291],[87.98234,22.25904],[87.97144,22.26384],[87.97139,22.26389],[87.97167,22.26417],[87.97092,22.26491],[87.97056,22.26528],[87.97044,22.26522],[87.97018,22.26567],[87.96993,22.26614],[87.96954,22.26644],[87.96919,22.26679],[87.96892,22.26721],[87.96871,22.26769],[87.9685,22.26814],[87.96819,22.26852],[87.96793,22.26899],[87.96755,22.26943],[87.96727,22.26993],[87.96695,22.27036],[87.96669,22.27079],[87.96641,22.27117],[87.9662,22.27157],[87.96599,22.27197],[87.96581,22.27243],[87.96556,22.27286],[87.96529,22.27331],[87.96501,22.27374],[87.96476,22.27415],[87.96451,22.2745],[87.96428,22.27489],[87.96403,22.27526],[87.96369,22.27562],[87.96339,22.27604],[87.96306,22.27639],[87.96273,22.2767],[87.96236,22.27695],[87.962,22.27727],[87.9617,22.27764],[87.96149,22.27808],[87.96132,22.27852],[87.96108,22.27887],[87.96083,22.2792],[87.96056,22.27953],[87.96028,22.27988],[87.96005,22.28022],[87.95994,22.28064],[87.95985,22.28108],[87.95972,22.28143],[87.95959,22.28177],[87.95947,22.28215],[87.95938,22.28259],[87.95921,22.28308],[87.95909,22.28365],[87.95889,22.28416],[87.95869,22.28467],[87.95862,22.2852],[87.95861,22.28571],[87.95865,22.28619],[87.95877,22.28659],[87.95881,22.28693],[87.95865,22.28729],[87.95865,22.28775],[87.95867,22.28829],[87.95888,22.28882],[87.9591,22.28937],[87.95933,22.28991],[87.95947,22.29049],[87.95963,22.29105],[87.95971,22.29169],[87.95977,22.29233],[87.95994,22.29295],[87.95988,22.29356],[87.95975,22.29412],[87.95975,22.29459],[87.9599,22.29491],[87.95998,22.29521],[87.96,22.29552],[87.96,22.29586],[87.96001,22.29627],[87.96005,22.29676],[87.9602,22.29724],[87.9601,22.2977],[87.96001,22.29817],[87.96,22.29864],[87.96,22.29911],[87.96002,22.29963],[87.96015,22.30016],[87.9603,22.3007],[87.96051,22.30119],[87.96056,22.30167],[87.96056,22.30213],[87.96056,22.30255],[87.96056,22.30295],[87.96056,22.30335],[87.96056,22.30376],[87.96056,22.30416],[87.96056,22.30456],[87.9605,22.30493],[87.9604,22.30528],[87.9603,22.30565],[87.96024,22.30609],[87.96008,22.30649],[87.96001,22.30697],[87.95995,22.30748],[87.95976,22.30794],[87.95966,22.30844],[87.95946,22.30888],[87.95928,22.30933],[87.95911,22.30977],[87.95889,22.31015],[87.95867,22.31053],[87.95857,22.311],[87.9584,22.31144],[87.95836,22.3119],[87.95826,22.31228],[87.95809,22.31265],[87.95805,22.31308],[87.95802,22.3135],[87.95786,22.31382],[87.95778,22.31412],[87.95776,22.31443],[87.95766,22.31472],[87.95753,22.31508],[87.95747,22.31556],[87.95731,22.31606],[87.95723,22.31663],[87.95722,22.31721],[87.95723,22.31776],[87.95731,22.31833],[87.95742,22.31894],[87.9575,22.31959],[87.95751,22.32024],[87.9575,22.32083],[87.95751,22.32134],[87.95753,22.32177],[87.95763,22.32216],[87.95773,22.32258],[87.95776,22.32302],[87.95771,22.32346],[87.95774,22.32384],[87.95775,22.32417],[87.95762,22.32446],[87.95752,22.32477],[87.9575,22.32515],[87.95744,22.32557],[87.95731,22.32602],[87.95746,22.32653],[87.95766,22.32708],[87.95763,22.32762],[87.95753,22.32809],[87.95746,22.32851],[87.9573,22.32884],[87.95723,22.3292],[87.95722,22.32957],[87.95722,22.32994],[87.95722,22.3303],[87.95722,22.33066],[87.95722,22.33104],[87.95722,22.33146],[87.95726,22.33191],[87.95744,22.33241],[87.9575,22.33299],[87.95751,22.33362],[87.95751,22.33424],[87.9575,22.33482],[87.9575,22.33536],[87.9575,22.33586],[87.95754,22.33635],[87.95773,22.33681],[87.95778,22.33734],[87.95778,22.3379],[87.95778,22.33847],[87.95778,22.33905],[87.95778,22.33966],[87.9578,22.34027],[87.95792,22.34084],[87.95803,22.3413],[87.95805,22.34173],[87.95806,22.34216],[87.95808,22.34262],[87.95819,22.34306],[87.95831,22.34353],[87.95834,22.34401],[87.95834,22.34446],[87.95834,22.34489],[87.95834,22.34529],[87.95832,22.34565],[87.95826,22.346],[87.95811,22.34632],[87.95806,22.34668],[87.95807,22.34709],[87.9582,22.3475],[87.95831,22.34791],[87.95834,22.34831],[87.95832,22.34869],[87.95825,22.34909],[87.95809,22.34951],[87.95806,22.34999],[87.95805,22.35047],[87.958,22.35092],[87.95783,22.35137],[87.95778,22.35181],[87.95776,22.35222],[87.95766,22.35259],[87.95757,22.35293],[87.95769,22.35325],[87.95776,22.35359],[87.95776,22.35391],[87.95768,22.35425],[87.95753,22.35463],[87.9575,22.35509],[87.9575,22.35558],[87.9575,22.35608],[87.95751,22.3566],[87.9575,22.35713],[87.95746,22.35767],[87.95731,22.35812],[87.95723,22.35858],[87.95718,22.35905],[87.95704,22.35949],[87.95699,22.35995],[87.95709,22.36044],[87.95714,22.36092],[87.95692,22.3614],[87.95666,22.36189],[87.95639,22.36235],[87.95615,22.36282],[87.9561,22.3634],[87.95601,22.36397],[87.95586,22.36449],[87.95583,22.36498],[87.95583,22.36541],[87.95583,22.36578],[87.95581,22.36609],[87.9557,22.36637],[87.95558,22.36664],[87.95556,22.36697],[87.95555,22.36735],[87.95556,22.36777],[87.95556,22.36824],[87.95556,22.36874],[87.95555,22.36926],[87.95551,22.36976],[87.95535,22.37025],[87.95526,22.37076],[87.95512,22.37127],[87.95496,22.37176],[87.95465,22.37213],[87.95427,22.37243],[87.95399,22.37287],[87.95386,22.37341],[87.95365,22.37393],[87.95359,22.37452],[87.9535,22.37508],[87.95332,22.37556],[87.95314,22.37597],[87.953,22.37628],[87.95282,22.37654],[87.95271,22.37684],[87.95253,22.37719],[87.95236,22.37758],[87.9522,22.37797],[87.95201,22.37833],[87.95181,22.37871],[87.95158,22.37919],[87.95137,22.37973],[87.95116,22.38028],[87.95107,22.38083],[87.95088,22.38132],[87.95074,22.38187],[87.95054,22.38235],[87.95033,22.38276],[87.95027,22.38321],[87.95023,22.3836],[87.95004,22.38391],[87.95,22.38426],[87.94998,22.38466],[87.9499,22.38509],[87.94975,22.38553],[87.94968,22.386],[87.94952,22.38635],[87.94942,22.38676],[87.94924,22.38719],[87.94917,22.38774],[87.94912,22.38834],[87.94894,22.38886],[87.94894,22.38937],[87.94917,22.38944],[87.94917,22.39028],[87.94861,22.39083],[87.94889,22.39111],[87.94889,22.39139],[87.94917,22.39167],[87.94917,22.39194],[87.94889,22.39222],[87.94889,22.395],[87.94862,22.39528],[87.94861,22.39556],[87.94889,22.39583],[87.94889,22.39639],[87.94917,22.39667],[87.94917,22.39945],[87.94861,22.4],[87.94806,22.4],[87.9475,22.40056],[87.9475,22.40083],[87.94722,22.40111],[87.94722,22.40195],[87.94695,22.40222],[87.94695,22.40333],[87.94666,22.40361],[87.94666,22.40389],[87.94695,22.40417],[87.94695,22.40472],[87.94666,22.405],[87.94666,22.40528],[87.94639,22.40556],[87.94639,22.40583],[87.9462,22.40602],[87.94611,22.40612],[87.94639,22.40611],[87.94556,22.40695],[87.94528,22.40667],[87.94512,22.40667],[87.94319,22.41149],[87.93897,22.4164],[87.92694,22.42155],[87.92694,22.42194],[87.92667,22.42222],[87.92667,22.42444],[87.92639,22.42472],[87.92639,22.42611],[87.92667,22.42639],[87.92667,22.4275],[87.92639,22.42778],[87.92639,22.42806],[87.92667,22.42833],[87.92667,22.42861],[87.92694,22.42889],[87.92694,22.42917],[87.92667,22.42945],[87.92667,22.42972],[87.92639,22.43],[87.92639,22.43029],[87.92611,22.43056],[87.92611,22.43083],[87.92583,22.43111],[87.92583,22.43167],[87.92555,22.43194],[87.92555,22.43222],[87.92528,22.4325],[87.92528,22.43278],[87.925,22.43306],[87.925,22.43333],[87.92333,22.435],[87.92306,22.43472],[87.92194,22.43528],[87.92139,22.43528],[87.92111,22.43556],[87.92028,22.43556],[87.92,22.43528],[87.91832,22.43528],[87.91805,22.435],[87.91583,22.435],[87.91555,22.43472],[87.91472,22.43472],[87.91445,22.435],[87.91411,22.435],[87.9137,22.435],[87.91331,22.43502],[87.91292,22.43513],[87.91253,22.43521],[87.91211,22.43504],[87.91164,22.435],[87.91113,22.435],[87.91063,22.435],[87.91015,22.435],[87.90972,22.435],[87.90936,22.435],[87.90907,22.435],[87.90878,22.435],[87.90848,22.43505],[87.90817,22.43522],[87.90777,22.43527],[87.90732,22.43528],[87.90688,22.43533],[87.90646,22.43551],[87.90598,22.43555],[87.90546,22.43556],[87.90495,22.43556],[87.90445,22.43551],[87.90406,22.43531],[87.90369,22.43521],[87.90339,22.43508],[87.90307,22.43501],[87.90268,22.435],[87.90222,22.435],[87.90172,22.43496],[87.90121,22.43479],[87.90061,22.43473],[87.89996,22.43472],[87.89928,22.43476],[87.89862,22.43492],[87.89796,22.43483],[87.89743,22.43466],[87.89696,22.43449],[87.89651,22.43442],[87.89613,22.43434],[87.89579,22.43441],[87.89545,22.43444],[87.8951,22.43449],[87.89477,22.43464],[87.89436,22.43471],[87.89393,22.43478],[87.89359,22.43497],[87.89323,22.43512],[87.89287,22.4353],[87.89252,22.43551],[87.89211,22.43569],[87.89172,22.4359],[87.89133,22.43616],[87.89092,22.43639],[87.89048,22.43658],[87.88999,22.4367],[87.88958,22.43694],[87.88918,22.43719],[87.88875,22.43738],[87.88835,22.43758],[87.888,22.43775],[87.88778,22.43778],[87.88549,22.43907],[87.88406,22.44038],[87.88341,22.44097],[87.88054,22.44358],[87.87761,22.44831],[87.87814,22.4584],[87.89028,22.47182],[87.9001,22.47508],[87.89871,22.47906],[87.89083,22.48431],[87.88672,22.48815],[87.88074,22.49768],[87.88107,22.5013],[87.88623,22.50926],[87.88625,22.50927],[87.89043,22.5137],[87.89258,22.51884],[87.88929,22.52566],[87.88665,22.52803],[87.88327,22.52971],[87.879,22.53129],[87.8759,22.53139],[87.86997,22.53306],[87.86458,22.53969],[87.85382,22.54793],[87.85062,22.5516],[87.84581,22.56117],[87.84954,22.56951],[87.84952,22.57459],[87.8525,22.58143],[87.85508,22.5866],[87.85876,22.58895],[87.85521,22.59753],[87.85932,22.60334],[87.8616,22.60805],[87.86539,22.60884],[87.88011,22.60578],[87.88226,22.60324],[87.884,22.60374],[87.88633,22.60828],[87.88821,22.6097],[87.8905,22.60993],[87.89246,22.60836],[87.89629,22.61215],[87.90252,22.61602],[87.90372,22.61769],[87.90241,22.62426],[87.90268,22.62691],[87.90389,22.62897],[87.90613,22.63045],[87.90929,22.63154],[87.9176,22.63051],[87.92306,22.63077],[87.92417,22.6364],[87.93027,22.63291],[87.94065,22.62992],[87.94223,22.6321],[87.94254,22.63813],[87.93365,22.64853],[87.93185,22.66205],[87.93154,22.67525],[87.92733,22.68859],[87.92932,22.69006],[87.9306,22.69303],[87.93299,22.69593],[87.93834,22.69817],[87.94121,22.70025],[87.94364,22.70738],[87.94853,22.73074],[87.95252,22.74031],[87.95128,22.74554],[87.95076,22.75713],[87.9507,22.76298],[87.95186,22.76739],[87.95363,22.771],[87.95614,22.77362],[87.96509,22.77446],[87.96904,22.77162],[87.97997,22.7785],[87.98886,22.7796],[87.99202,22.77823],[87.99513,22.773]]],[[[87.91167,22.42194],[87.91194,22.42167],[87.91251,22.42167],[87.91361,22.42056],[87.91389,22.42028],[87.91389,22.42],[87.91472,22.41917],[87.91472,22.41889],[87.915,22.41861],[87.915,22.41833],[87.91594,22.41739],[87.91599,22.41734],[87.91477,22.41602],[87.90817,22.41842],[87.9046,22.42167],[87.90806,22.42167],[87.90833,22.42194],[87.90916,22.42194],[87.90945,22.42222],[87.91,22.42222],[87.91028,22.42194],[87.91055,22.42194],[87.91084,22.42222],[87.91167,22.42194]]],[[[87.91194,22.43222],[87.91194,22.43194],[87.91278,22.43111],[87.91306,22.43139],[87.91306,22.43167],[87.91361,22.43222],[87.91389,22.43222],[87.91445,22.43167],[87.91528,22.43167],[87.91555,22.43139],[87.91611,22.43139],[87.91639,22.43111],[87.91666,22.43111],[87.91695,22.43083],[87.9175,22.43083],[87.91778,22.43056],[87.91805,22.43056],[87.91832,22.43029],[87.91832,22.43],[87.91778,22.42945],[87.91695,22.42945],[87.91667,22.42972],[87.91639,22.42945],[87.91583,22.42945],[87.91528,22.42889],[87.91444,22.42889],[87.91417,22.42861],[87.91389,22.42889],[87.91278,22.42889],[87.91251,22.42917],[87.91167,22.42917],[87.91139,22.42945],[87.91084,22.42945],[87.91055,22.42972],[87.91,22.42972],[87.90972,22.43],[87.90889,22.43],[87.90806,22.43083],[87.90806,22.43167],[87.90889,22.4325],[87.90916,22.43222],[87.90945,22.43222],[87.90972,22.4325],[87.91,22.4325],[87.91055,22.43306],[87.91111,22.43306],[87.91194,22.43222]]],[[[87.92568,22.42483],[87.92539,22.4247],[87.92396,22.42562],[87.92266,22.42657],[87.92194,22.42764],[87.92065,22.42831],[87.91979,22.42872],[87.91921,22.42911],[87.91936,22.42952],[87.91979,22.42979],[87.92077,22.42924],[87.92123,22.42898],[87.92223,22.42831],[87.92338,22.42791],[87.92396,22.42738],[87.92482,22.42684],[87.92539,22.42617],[87.92568,22.42483]]]]}}]}