{"type":"FeatureCollection","features":[{"type":"Feature","properties":{"id":"hugli","name":"Hugli","stateId":"west-bengal","stateName":"West Bengal","censuscode":338,"type":"district"},"geometry":{"type":"Polygon","coordinates":[[[88.41167,22.94525],[88.4131,22.93983],[88.41399,22.93186],[88.40962,22.92463],[88.40544,22.91439],[88.40837,22.90458],[88.41019,22.89407],[88.41071,22.88664],[88.41091,22.88385],[88.4077,22.87644],[88.39998,22.8707],[88.38572,22.86445],[88.38092,22.86233],[88.37494,22.85383],[88.37435,22.84436],[88.37945,22.83501],[88.37829,22.82871],[88.37199,22.82557],[88.36475,22.82498],[88.3608,22.82138],[88.35845,22.80018],[88.35629,22.79463],[88.34962,22.78993],[88.34746,22.78981],[88.34703,22.78933],[88.33462,22.77533],[88.33862,22.76749],[88.34632,22.76023],[88.35618,22.75431],[88.36394,22.74751],[88.36599,22.74065],[88.36375,22.72793],[88.36292,22.71765],[88.36456,22.70489],[88.36738,22.69225],[88.36784,22.68342],[88.3598,22.66485],[88.35569,22.65026],[88.35219,22.65527],[88.34741,22.6601],[88.3479,22.66333],[88.34431,22.66459],[88.33479,22.66259],[88.32476,22.66532],[88.32333,22.66877],[88.31535,22.66673],[88.31185,22.66059],[88.3069,22.66352],[88.29,22.66431],[88.28493,22.66245],[88.27591,22.66403],[88.26763,22.66008],[88.26282,22.67026],[88.25435,22.66906],[88.24525,22.67259],[88.24634,22.67658],[88.243,22.678],[88.24245,22.67604],[88.23758,22.67359],[88.23368,22.67254],[88.22657,22.67204],[88.22032,22.67271],[88.20506,22.66871],[88.20358,22.66571],[88.20013,22.66304],[88.1982,22.66436],[88.19807,22.66758],[88.19628,22.66752],[88.18772,22.67116],[88.18545,22.67028],[88.18552,22.66797],[88.18165,22.66105],[88.18662,22.65555],[88.18335,22.65421],[88.17988,22.65511],[88.17776,22.65781],[88.17825,22.65999],[88.1771,22.66759],[88.17411,22.67107],[88.17607,22.67759],[88.1792,22.68227],[88.179,22.68537],[88.17652,22.68725],[88.17244,22.68372],[88.16861,22.6822],[88.16596,22.68207],[88.16274,22.68326],[88.16112,22.68508],[88.1606,22.68859],[88.15887,22.68806],[88.15492,22.6855],[88.15388,22.68388],[88.15366,22.6775],[88.15219,22.67501],[88.14922,22.67608],[88.14845,22.68034],[88.14696,22.68336],[88.14311,22.68488],[88.13854,22.68393],[88.1282,22.6841],[88.12559,22.68619],[88.12369,22.69536],[88.12231,22.6984],[88.11829,22.69805],[88.11649,22.70039],[88.11352,22.69925],[88.11499,22.70285],[88.11466,22.70699],[88.11096,22.70532],[88.10786,22.70488],[88.10495,22.7054],[88.10404,22.70319],[88.10752,22.69984],[88.10503,22.69143],[88.09848,22.69042],[88.0878,22.68641],[88.08354,22.68638],[88.07932,22.68897],[88.07484,22.68342],[88.07273,22.68461],[88.06747,22.68489],[88.06916,22.69263],[88.07472,22.69488],[88.06955,22.70031],[88.06761,22.7041],[88.06733,22.70837],[88.06516,22.71161],[88.06183,22.70897],[88.06401,22.70571],[88.06553,22.70146],[88.06288,22.69859],[88.05689,22.69684],[88.05234,22.69046],[88.05069,22.68648],[88.0511,22.68243],[88.05012,22.67738],[88.04702,22.68165],[88.04242,22.68424],[88.03523,22.68615],[88.03141,22.68563],[88.028,22.68892],[88.02442,22.68644],[88.01985,22.6863],[88.01466,22.68357],[88.01111,22.68843],[88.00972,22.69349],[88.00002,22.70106],[87.99728,22.7031],[87.99673,22.70517],[87.99914,22.7165],[87.99665,22.72159],[87.99304,22.72661],[87.99236,22.73275],[88,22.73978],[88.00062,22.73996],[88.00122,22.74018],[88.00177,22.74045],[88.0023,22.74076],[88.00279,22.7411],[88.00323,22.74147],[88.00364,22.74187],[88.00398,22.74229],[88.00428,22.74273],[88.00451,22.74319],[88.00469,22.74365],[88.00481,22.74412],[88.00489,22.7446],[88.00488,22.74509],[88.00483,22.74557],[88.00471,22.74604],[88.00454,22.74652],[88.0043,22.74699],[88.00401,22.74744],[88.00369,22.74788],[88.0033,22.7483],[88.00287,22.7487],[88.0024,22.74907],[88.00188,22.7494],[88.00135,22.74971],[88.00077,22.74997],[88.00001,22.75025],[87.99861,22.75506],[87.99747,22.76516],[87.99513,22.773],[87.99202,22.77823],[87.98886,22.7796],[87.97997,22.7785],[87.96904,22.77162],[87.96509,22.77446],[87.95614,22.77362],[87.95363,22.771],[87.95186,22.76739],[87.9507,22.76298],[87.95076,22.75713],[87.95128,22.74554],[87.95252,22.74031],[87.94853,22.73074],[87.94364,22.70738],[87.94121,22.70025],[87.93834,22.69817],[87.93299,22.69593],[87.9306,22.69303],[87.92932,22.69006],[87.92733,22.68859],[87.93154,22.67525],[87.93185,22.66205],[87.93365,22.64853],[87.94254,22.63813],[87.94223,22.6321],[87.94065,22.62992],[87.93027,22.63291],[87.92417,22.6364],[87.92306,22.63077],[87.9176,22.63051],[87.90929,22.63154],[87.90613,22.63045],[87.90389,22.62897],[87.90268,22.62691],[87.90241,22.62426],[87.90372,22.61769],[87.90252,22.61602],[87.89629,22.61215],[87.89246,22.60836],[87.8905,22.60993],[87.88821,22.6097],[87.88633,22.60828],[87.884,22.60374],[87.88226,22.60324],[87.88011,22.60578],[87.86539,22.60884],[87.8616,22.60805],[87.85932,22.60334],[87.85521,22.59753],[87.85212,22.60115],[87.84934,22.6026],[87.83852,22.6049],[87.83056,22.6084],[87.82782,22.61498],[87.82485,22.61562],[87.82025,22.61484],[87.81649,22.61693],[87.81502,22.6333],[87.80542,22.63502],[87.80318,22.64126],[87.80123,22.65267],[87.799,22.65274],[87.79555,22.65552],[87.79139,22.6617],[87.78401,22.66865],[87.78297,22.67142],[87.77425,22.68229],[87.76665,22.6927],[87.7639,22.69766],[87.76336,22.70055],[87.76412,22.70256],[87.76719,22.70543],[87.76728,22.70865],[87.76366,22.72198],[87.75753,22.72979],[87.75505,22.73129],[87.75366,22.73585],[87.75206,22.73776],[87.74487,22.73888],[87.74658,22.74222],[87.74697,22.74481],[87.74431,22.7465],[87.74418,22.75335],[87.74582,22.75669],[87.747,22.76469],[87.74577,22.7731],[87.74355,22.77605],[87.73904,22.77757],[87.72933,22.77473],[87.7299,22.78413],[87.72869,22.78758],[87.72641,22.78892],[87.7228,22.78899],[87.70583,22.7852],[87.70457,22.78313],[87.70461,22.78025],[87.69903,22.78251],[87.69314,22.7813],[87.68803,22.78025],[87.68356,22.78004],[87.68017,22.78201],[87.68074,22.78598],[87.68679,22.79692],[87.68516,22.80256],[87.68268,22.80303],[87.68041,22.80604],[87.67205,22.80872],[87.66366,22.80881],[87.65687,22.80635],[87.6529,22.80729],[87.64986,22.80713],[87.64249,22.81015],[87.64009,22.8123],[87.6363,22.81242],[87.63242,22.8178],[87.63148,22.82454],[87.62965,22.82864],[87.62737,22.84063],[87.62542,22.84478],[87.61888,22.85091],[87.61347,22.85156],[87.60899,22.85077],[87.60195,22.84613],[87.59217,22.84345],[87.57204,22.85193],[87.56244,22.86492],[87.55276,22.86662],[87.54641,22.86537],[87.54095,22.86625],[87.53417,22.86597],[87.52956,22.86501],[87.51992,22.86647],[87.51957,22.86901],[87.52294,22.87062],[87.52911,22.87141],[87.53129,22.87233],[87.53183,22.87774],[87.53349,22.88252],[87.53027,22.88512],[87.52579,22.89165],[87.52575,22.8943],[87.52422,22.89666],[87.51782,22.89743],[87.51311,22.90078],[87.51264,22.90355],[87.51004,22.90373],[87.50752,22.91469],[87.50961,22.91866],[87.51547,22.91824],[87.52044,22.91685],[87.52387,22.9181],[87.52663,22.92138],[87.52659,22.92455],[87.52483,22.93021],[87.52981,22.93082],[87.53409,22.93006],[87.54219,22.92433],[87.54857,22.92379],[87.55316,22.92153],[87.55794,22.92146],[87.56123,22.92076],[87.56464,22.91879],[87.56801,22.91867],[87.57507,22.91392],[87.5758,22.91185],[87.57916,22.91155],[87.58729,22.90829],[87.58897,22.90616],[87.58755,22.90178],[87.58847,22.89953],[87.59578,22.89473],[87.60391,22.89891],[87.60724,22.894],[87.60878,22.89289],[87.61799,22.89149],[87.61979,22.89188],[87.62268,22.89395],[87.63085,22.89611],[87.63395,22.90088],[87.63267,22.90331],[87.62749,22.90252],[87.62582,22.90351],[87.62554,22.90696],[87.62695,22.91249],[87.63087,22.91893],[87.63388,22.92077],[87.63557,22.92157],[87.6469,22.92216],[87.64811,22.92624],[87.64783,22.9312],[87.65221,22.93603],[87.65465,22.94243],[87.65642,22.9563],[87.65542,22.96588],[87.65223,22.96854],[87.64767,22.9682],[87.64819,22.97812],[87.64733,22.98325],[87.6457,22.98752],[87.65012,22.99027],[87.65864,22.98978],[87.66416,22.98728],[87.67609,22.98902],[87.67723,22.99185],[87.67954,22.99276],[87.68601,22.99274],[87.69649,22.99459],[87.6988,22.99596],[87.70164,23.00071],[87.69925,23.00441],[87.69879,23.00877],[87.69898,23.01199],[87.70189,23.01717],[87.70042,23.01852],[87.69215,23.01839],[87.68977,23.02338],[87.69054,23.02434],[87.70035,23.02479],[87.70511,23.02614],[87.70942,23.01473],[87.71411,23.01057],[87.72069,23.00469],[87.72303,23.00344],[87.72282,23.00068],[87.72561,22.99588],[87.73546,22.98626],[87.73796,22.98262],[87.74217,22.96605],[87.74564,22.96361],[87.75209,22.96],[87.75492,22.95963],[87.7603,22.96127],[87.76371,22.96108],[87.76891,22.95851],[87.77055,22.95907],[87.77441,22.96661],[87.77607,22.96745],[87.77771,22.96554],[87.77738,22.96237],[87.77994,22.96109],[87.7805,22.95676],[87.77779,22.94882],[87.783,22.94647],[87.78402,22.94456],[87.78414,22.94226],[87.78063,22.93554],[87.78975,22.9353],[87.79407,22.94115],[87.80286,22.93986],[87.80563,22.94417],[87.80667,22.95034],[87.80967,22.95065],[87.81151,22.94602],[87.81386,22.94485],[87.81623,22.94477],[87.81909,22.94573],[87.82102,22.95223],[87.8221,22.95412],[87.82396,22.95463],[87.8293,22.95239],[87.83378,22.94692],[87.83468,22.94415],[87.83733,22.941],[87.84211,22.9368],[87.8446,22.93678],[87.84941,22.93956],[87.85781,22.9419],[87.86498,22.94126],[87.86783,22.94017],[87.87207,22.94239],[87.8741,22.94178],[87.87957,22.943],[87.88016,22.94542],[87.87959,22.95062],[87.88079,22.95356],[87.88561,22.95848],[87.88768,22.95939],[87.89343,22.95997],[87.89589,22.95759],[87.89873,22.95611],[87.8972,22.95191],[87.89526,22.95036],[87.89901,22.94803],[87.89484,22.94587],[87.8937,22.94288],[87.89314,22.93792],[87.89522,22.93399],[87.89701,22.93386],[87.89878,22.93731],[87.90957,22.93871],[87.92495,22.94428],[87.93216,22.94536],[87.94127,22.94328],[87.94444,22.94361],[87.94707,22.94479],[87.94833,22.94648],[87.95196,22.95568],[87.95309,22.95653],[87.95694,22.95568],[87.9604,22.95318],[87.96516,22.95209],[87.96753,22.95903],[87.97162,22.96462],[87.97517,22.9649],[87.97852,22.96351],[87.9815,22.9639],[87.98452,22.9679],[87.98831,22.96701],[87.99053,22.96555],[87.99137,22.96173],[87.99302,22.95877],[87.99507,22.95806],[88.00002,22.95836],[88.00383,22.95964],[88.00518,22.9611],[88.01291,22.96274],[88.01314,22.96556],[88.00691,22.97088],[88.00934,22.97891],[88.02132,22.97754],[88.02322,22.9797],[88.02227,22.98406],[88.02739,22.98658],[88.0294,22.98344],[88.03036,22.97904],[88.03433,22.97711],[88.03848,22.97897],[88.04014,22.98174],[88.03935,22.98816],[88.04433,22.98431],[88.04538,22.98517],[88.04512,22.98908],[88.04822,22.98937],[88.05237,22.98772],[88.05256,22.98991],[88.05143,22.99415],[88.04951,22.99651],[88.04919,23.00017],[88.04017,23.01],[88.04084,23.01428],[88.04967,23.01827],[88.05168,23.02196],[88.05212,23.0264],[88.05082,23.03063],[88.05271,23.03398],[88.05172,23.0389],[88.05367,23.04629],[88.05659,23.04714],[88.0586,23.04319],[88.06113,23.04531],[88.06498,23.04592],[88.06752,23.04892],[88.06796,23.04515],[88.07025,23.04502],[88.0723,23.04813],[88.07937,23.04693],[88.08178,23.0443],[88.08365,23.04631],[88.08862,23.04576],[88.09226,23.04388],[88.0962,23.04807],[88.09998,23.04694],[88.10179,23.04734],[88.10464,23.05381],[88.10726,23.05448],[88.12027,23.05322],[88.12449,23.06402],[88.12893,23.06515],[88.13277,23.06848],[88.13546,23.06921],[88.13548,23.07141],[88.13752,23.07517],[88.1425,23.07432],[88.15045,23.07733],[88.16069,23.10036],[88.16221,23.10754],[88.16281,23.11686],[88.16659,23.12587],[88.15655,23.12682],[88.15741,23.13087],[88.15951,23.13508],[88.16399,23.13933],[88.16622,23.14418],[88.17078,23.15035],[88.17057,23.15388],[88.17247,23.15688],[88.18076,23.15559],[88.18546,23.15817],[88.19035,23.16211],[88.19693,23.15888],[88.20809,23.16023],[88.21666,23.15699],[88.2191,23.15899],[88.22509,23.15356],[88.22631,23.15708],[88.22843,23.15753],[88.23195,23.16022],[88.23494,23.154],[88.2435,23.15619],[88.24975,23.1467],[88.25148,23.15085],[88.25317,23.15188],[88.25347,23.15032],[88.25615,23.15117],[88.25951,23.13915],[88.26135,23.13705],[88.27361,23.13041],[88.2814,23.13012],[88.28739,23.1311],[88.2895,23.12993],[88.29223,23.12956],[88.29712,23.1323],[88.30168,23.13272],[88.3044,23.13211],[88.3056,23.12736],[88.30754,23.1274],[88.31111,23.12904],[88.3139,23.12827],[88.31907,23.12834],[88.32042,23.1321],[88.32473,23.13269],[88.33048,23.12923],[88.33453,23.12925],[88.3441,23.1327],[88.34826,23.13208],[88.35282,23.11722],[88.35568,23.11708],[88.35901,23.11901],[88.36144,23.11859],[88.36538,23.12035],[88.36612,23.13523],[88.36378,23.1375],[88.36985,23.14017],[88.36825,23.14128],[88.36635,23.14425],[88.36832,23.1473],[88.36929,23.15522],[88.37482,23.15952],[88.37686,23.1635],[88.37175,23.1731],[88.37232,23.179],[88.37748,23.17808],[88.38299,23.17977],[88.38525,23.18143],[88.38962,23.19227],[88.39571,23.19668],[88.40926,23.19308],[88.41068,23.19636],[88.41472,23.20119],[88.41849,23.20792],[88.41978,23.21211],[88.42516,23.21388],[88.4417,23.22172],[88.45197,23.22562],[88.45984,23.22768],[88.46717,23.22582],[88.47268,23.22183],[88.4753,23.21584],[88.47598,23.2097],[88.46548,23.18733],[88.45995,23.16926],[88.45708,23.1624],[88.45308,23.14756],[88.45307,23.14015],[88.4552,23.13387],[88.45916,23.13123],[88.47017,23.13019],[88.49208,23.12998],[88.50261,23.12403],[88.50528,23.11607],[88.50631,23.10773],[88.50803,23.10134],[88.50786,23.09399],[88.50473,23.0862],[88.49951,23.08133],[88.49394,23.07884],[88.48667,23.07984],[88.4799,23.08257],[88.47511,23.08308],[88.46996,23.0804],[88.46411,23.07108],[88.4615,23.06173],[88.4594,23.04432],[88.45558,23.03671],[88.45012,23.03073],[88.44419,23.02742],[88.43648,23.0268],[88.43199,23.02568],[88.42538,23.02238],[88.41906,23.01565],[88.41628,23.01007],[88.41431,23.00086],[88.41004,22.99297],[88.40715,22.98557],[88.40686,22.97586],[88.41036,22.96529],[88.41157,22.95444],[88.41167,22.94525]]]}}]}