{"type":"FeatureCollection","features":[{"type":"Feature","properties":{"id":"jalpaiguri","name":"Jalpaiguri","stateId":"west-bengal","stateName":"West Bengal","censuscode":328,"type":"district"},"geometry":{"type":"Polygon","coordinates":[[[89.86232,26.70367],[89.86679,26.70024],[89.87678,26.68342],[89.87681,26.67911],[89.87481,26.6737],[89.87466,26.67084],[89.87585,26.66611],[89.87517,26.66256],[89.8736,26.66064],[89.87336,26.65651],[89.87805,26.65175],[89.88166,26.64939],[89.88112,26.64619],[89.87895,26.6434],[89.86657,26.63545],[89.86258,26.63198],[89.86231,26.6233],[89.86426,26.61711],[89.86709,26.61504],[89.87687,26.61485],[89.87688,26.61485],[89.88249,26.61294],[89.88185,26.60624],[89.88045,26.60106],[89.87776,26.59747],[89.87734,26.59461],[89.87942,26.58911],[89.88275,26.58413],[89.87506,26.57941],[89.86722,26.57778],[89.86673,26.57446],[89.87018,26.57018],[89.87066,26.56575],[89.86952,26.56068],[89.86979,26.5482],[89.86657,26.54309],[89.86743,26.5372],[89.86698,26.53037],[89.85958,26.52099],[89.85864,26.51714],[89.86073,26.50506],[89.86006,26.49422],[89.8578,26.4877],[89.86609,26.47469],[89.86743,26.46599],[89.8675,26.46599],[89.87216,26.46573],[89.87525,26.4639],[89.87566,26.45981],[89.87447,26.4572],[89.87453,26.44834],[89.86617,26.44035],[89.86272,26.43804],[89.86023,26.43398],[89.85802,26.42449],[89.85476,26.42218],[89.85281,26.42167],[89.85266,26.41975],[89.85481,26.41414],[89.84986,26.41015],[89.84986,26.41015],[89.84135,26.4112],[89.83837,26.41221],[89.83831,26.41223],[89.83884,26.41356],[89.83285,26.41658],[89.82998,26.42027],[89.84007,26.42918],[89.83868,26.43088],[89.82994,26.43106],[89.82853,26.43265],[89.83008,26.43952],[89.83512,26.43959],[89.83569,26.44636],[89.83771,26.44692],[89.85049,26.44431],[89.85973,26.44367],[89.86124,26.44569],[89.86049,26.44873],[89.86107,26.45537],[89.86293,26.45391],[89.865,26.45465],[89.86658,26.45696],[89.86606,26.46391],[89.85581,26.46749],[89.85167,26.46816],[89.83751,26.46844],[89.83085,26.46936],[89.82858,26.46781],[89.83316,26.46742],[89.83393,26.45821],[89.76715,26.46399],[89.76118,26.46257],[89.75612,26.46068],[89.75144,26.45786],[89.74902,26.45403],[89.75176,26.44894],[89.75201,26.4392],[89.74881,26.43665],[89.74112,26.44417],[89.73766,26.44215],[89.73095,26.44289],[89.72817,26.43557],[89.72466,26.43378],[89.71735,26.43337],[89.71343,26.43584],[89.71403,26.42913],[89.71122,26.42571],[89.70031,26.42088],[89.69832,26.42224],[89.69615,26.42598],[89.69375,26.42495],[89.69184,26.4288],[89.68997,26.42981],[89.68103,26.42887],[89.67944,26.43034],[89.68113,26.43284],[89.68043,26.43465],[89.67314,26.43604],[89.66963,26.43582],[89.66731,26.43485],[89.66143,26.43542],[89.66359,26.43097],[89.66216,26.4287],[89.6557,26.42244],[89.64824,26.418],[89.64035,26.41816],[89.63226,26.41658],[89.62806,26.41865],[89.62617,26.41644],[89.62969,26.41076],[89.62808,26.40297],[89.62443,26.39751],[89.62169,26.39537],[89.58655,26.42857],[89.57514,26.42479],[89.56843,26.42722],[89.56788,26.42255],[89.57222,26.42282],[89.57187,26.41833],[89.57379,26.41581],[89.57229,26.41331],[89.5671,26.41124],[89.56361,26.41109],[89.56064,26.41198],[89.56104,26.41292],[89.55737,26.41405],[89.55395,26.41651],[89.55843,26.41923],[89.55851,26.42121],[89.55517,26.42555],[89.56055,26.42738],[89.56121,26.42988],[89.55611,26.43142],[89.55412,26.43394],[89.55103,26.4465],[89.54477,26.44653],[89.54531,26.45085],[89.54357,26.45353],[89.54736,26.45777],[89.54697,26.45941],[89.53899,26.46435],[89.53466,26.46606],[89.5328,26.46853],[89.53663,26.47037],[89.54098,26.47354],[89.54215,26.47535],[89.5331,26.47685],[89.52092,26.47395],[89.51575,26.47368],[89.50881,26.47162],[89.503,26.4741],[89.4997,26.47237],[89.4975,26.47349],[89.49644,26.48061],[89.48824,26.48304],[89.48422,26.48277],[89.48288,26.48517],[89.47926,26.48659],[89.45935,26.49001],[89.45531,26.4838],[89.45424,26.4785],[89.44372,26.47196],[89.43924,26.46994],[89.43147,26.46875],[89.42629,26.4697],[89.42249,26.47171],[89.41816,26.47231],[89.41292,26.47146],[89.40376,26.4655],[89.39851,26.4643],[89.3945,26.4649],[89.38581,26.47165],[89.37582,26.48019],[89.36584,26.49289],[89.36146,26.49513],[89.34758,26.48772],[89.34324,26.48804],[89.33794,26.48945],[89.33046,26.4934],[89.32637,26.49079],[89.32214,26.48667],[89.31818,26.48447],[89.31035,26.48298],[89.28979,26.48726],[89.28565,26.48745],[89.2837,26.48635],[89.27774,26.48555],[89.26818,26.48821],[89.24579,26.49156],[89.23457,26.5032],[89.22092,26.50406],[89.19939,26.50886],[89.18706,26.49991],[89.17647,26.5063],[89.15159,26.51925],[89.14491,26.51729],[89.12441,26.52283],[89.1039,26.52205],[89.09788,26.52068],[89.09355,26.52672],[89.08759,26.52512],[89.08546,26.52654],[89.08392,26.53135],[89.08107,26.53481],[89.07804,26.53751],[89.07486,26.53859],[89.06936,26.53815],[89.06548,26.53561],[89.0575,26.5341],[89.05113,26.52633],[89.0501,26.52366],[89.0477,26.52097],[89.0405,26.51722],[89.03719,26.51639],[89.03012,26.51677],[89.02623,26.51818],[89.02121,26.52174],[89.00761,26.52612],[88.99999,26.53121],[88.98824,26.53404],[88.97562,26.54575],[88.97224,26.54042],[88.97431,26.53155],[88.97402,26.52848],[88.97022,26.52502],[88.96505,26.52283],[88.96086,26.51095],[88.95557,26.50622],[88.952,26.50447],[88.94375,26.50471],[88.94234,26.5006],[88.94711,26.49824],[88.94524,26.48964],[88.94707,26.48164],[88.95015,26.47697],[88.94659,26.47275],[88.94261,26.47021],[88.936,26.46337],[88.93135,26.46573],[88.92782,26.46914],[88.91772,26.47075],[88.90795,26.47485],[88.90941,26.47087],[88.91631,26.46317],[88.92045,26.46191],[88.9173,26.45612],[88.91727,26.45207],[88.91035,26.45062],[88.90929,26.4451],[88.90654,26.44034],[88.90215,26.43719],[88.89844,26.43677],[88.89122,26.43741],[88.89186,26.42494],[88.88767,26.42391],[88.88843,26.41497],[88.88532,26.40754],[88.88071,26.40127],[88.87515,26.399],[88.87124,26.39177],[88.8659,26.3915],[88.85859,26.39249],[88.85582,26.38837],[88.85387,26.3824],[88.84805,26.38118],[88.84281,26.38274],[88.83428,26.37733],[88.82812,26.37543],[88.81802,26.37605],[88.80992,26.37495],[88.80361,26.37323],[88.79676,26.38098],[88.7925,26.38916],[88.78544,26.39497],[88.77842,26.39532],[88.76878,26.38563],[88.76075,26.37408],[88.75838,26.36669],[88.75019,26.35559],[88.75032,26.34997],[88.75688,26.33809],[88.76205,26.33459],[88.7625,26.33033],[88.76052,26.32155],[88.76028,26.31662],[88.76076,26.31034],[88.76,26.31056],[88.75651,26.3101],[88.75376,26.30804],[88.75224,26.30467],[88.75104,26.29788],[88.74664,26.29357],[88.7455,26.2931],[88.74378,26.29016],[88.73978,26.29014],[88.73473,26.29218],[88.73322,26.29194],[88.72949,26.29011],[88.7285,26.28988],[88.72723,26.28604],[88.72675,26.28604],[88.72675,26.28558],[88.72075,26.28083],[88.71174,26.28033],[88.70772,26.27896],[88.69993,26.27891],[88.69932,26.2787],[88.6992,26.27825],[88.69945,26.27689],[88.69594,26.27618],[88.6953,26.27552],[88.69531,26.27371],[88.69659,26.27125],[88.69721,26.27079],[88.69746,26.27056],[88.69724,26.26806],[88.68771,26.26237],[88.68521,26.26282],[88.68521,26.26328],[88.68345,26.26417],[88.68294,26.2644],[88.68218,26.26417],[88.67568,26.26527],[88.67404,26.26687],[88.67415,26.2725],[88.67328,26.27362],[88.67073,26.28106],[88.66982,26.28537],[88.67071,26.28629],[88.67182,26.28742],[88.67357,26.29173],[88.67682,26.29399],[88.67694,26.29445],[88.68031,26.29531],[88.68249,26.29587],[88.7058,26.29024],[88.69461,26.29677],[88.69333,26.29949],[88.69213,26.30056],[88.69044,26.30187],[88.68914,26.30304],[88.68881,26.30332],[88.68753,26.30985],[88.68426,26.31258],[88.68427,26.31304],[88.68352,26.3137],[88.68174,26.31484],[88.6815,26.31504],[88.68037,26.31707],[88.67998,26.31977],[88.68336,26.32206],[88.68397,26.32296],[88.68774,26.32389],[88.68974,26.32684],[88.69325,26.32819],[88.69498,26.32842],[88.69626,26.32753],[88.69739,26.32255],[88.6974,26.32143],[88.69667,26.32053],[88.69578,26.31963],[88.69579,26.31646],[88.69755,26.3151],[88.70031,26.31422],[88.71163,26.31334],[88.71584,26.31545],[88.72012,26.31652],[88.72112,26.31586],[88.72113,26.3154],[88.72163,26.3145],[88.72589,26.31248],[88.72692,26.31271],[88.73218,26.31523],[88.73292,26.31599],[88.73515,26.31825],[88.73749,26.32003],[88.74278,26.32167],[88.74377,26.32259],[88.74943,26.32388],[88.74994,26.32432],[88.75179,26.32758],[88.7525,26.32883],[88.74793,26.3307],[88.7477,26.33069],[88.7466,26.33062],[88.74167,26.33037],[88.74462,26.3362],[88.74851,26.3406],[88.7493,26.34782],[88.74935,26.3483],[88.74922,26.34988],[88.74845,26.35034],[88.74784,26.35146],[88.74735,26.35259],[88.74482,26.3546],[88.74406,26.35483],[88.74092,26.35415],[88.73919,26.35233],[88.73907,26.35187],[88.7382,26.35141],[88.73769,26.35141],[88.73719,26.35021],[88.73506,26.34692],[88.73355,26.34476],[88.73305,26.34418],[88.72528,26.34323],[88.72477,26.34234],[88.71966,26.34073],[88.71879,26.34004],[88.71804,26.33868],[88.71577,26.33624],[88.71221,26.33444],[88.70633,26.33671],[88.70349,26.34897],[88.69974,26.35268],[88.69999,26.35604],[88.70225,26.36014],[88.70104,26.36243],[88.6965,26.36529],[88.69361,26.37367],[88.69286,26.37401],[88.6927,26.37434],[88.69295,26.37546],[88.69358,26.37592],[88.69368,26.37636],[88.69518,26.37726],[88.70033,26.37887],[88.70308,26.38092],[88.70507,26.38546],[88.70481,26.3886],[88.70378,26.38975],[88.7023,26.3904],[88.69654,26.38949],[88.69553,26.38902],[88.69425,26.38925],[88.69098,26.39016],[88.69075,26.39128],[88.69051,26.39217],[88.68975,26.39283],[88.68875,26.39306],[88.68748,26.39283],[88.68421,26.39351],[88.68405,26.39633],[88.68543,26.39868],[88.69209,26.40111],[88.69087,26.40568],[88.68725,26.40939],[88.68099,26.40889],[88.67202,26.41186],[88.66909,26.41521],[88.6668,26.41694],[88.66054,26.41604],[88.65954,26.41558],[88.65654,26.41601],[88.65477,26.41713],[88.65474,26.42369],[88.65346,26.42482],[88.65295,26.42502],[88.65247,26.42593],[88.65246,26.4264],[88.64896,26.42825],[88.64568,26.42954],[88.63286,26.43537],[88.63307,26.44056],[88.63338,26.44523],[88.63326,26.45547],[88.63313,26.45615],[88.63263,26.45639],[88.62909,26.46632],[88.62616,26.46994],[88.61737,26.47417],[88.60848,26.47161],[88.60468,26.46964],[88.60392,26.46987],[88.60307,26.46961],[88.60218,26.46892],[88.6018,26.46869],[88.59983,26.46372],[88.6001,26.4619],[88.60074,26.46055],[88.60261,26.45899],[88.60323,26.45764],[88.60288,26.45535],[88.60087,26.45398],[88.60039,26.45375],[88.59889,26.45331],[88.59614,26.45283],[88.59083,26.45327],[88.58153,26.4566],[88.57274,26.45795],[88.57229,26.45826],[88.57126,26.45869],[88.57108,26.45934],[88.56908,26.46076],[88.5667,26.46357],[88.5657,26.46423],[88.56136,26.47393],[88.55986,26.47484],[88.55937,26.4762],[88.5591,26.4771],[88.55706,26.47866],[88.55705,26.47912],[88.55705,26.47957],[88.55428,26.48205],[88.55303,26.48272],[88.54601,26.48179],[88.53923,26.48265],[88.53268,26.48625],[88.53267,26.48671],[88.53268,26.48717],[88.5319,26.48759],[88.53113,26.48803],[88.52937,26.4939],[88.52835,26.49435],[88.52582,26.50025],[88.52531,26.50046],[88.52481,26.5018],[88.52228,26.50407],[88.52227,26.50474],[88.52179,26.50497],[88.51846,26.51103],[88.51569,26.51352],[88.51419,26.51442],[88.50742,26.51325],[88.50712,26.51312],[88.50636,26.51242],[88.50391,26.51165],[88.49912,26.51479],[88.49862,26.51592],[88.49863,26.51638],[88.49644,26.5183],[88.49632,26.51841],[88.49644,26.52],[88.49554,26.52473],[88.49503,26.52698],[88.49272,26.53173],[88.49224,26.53194],[88.49224,26.53261],[88.49175,26.53284],[88.48946,26.536],[88.4892,26.5369],[88.48869,26.53712],[88.48869,26.53749],[88.48643,26.53917],[88.48366,26.54153],[88.48366,26.54185],[88.47661,26.54227],[88.47408,26.54316],[88.47384,26.54451],[88.47284,26.54655],[88.46979,26.54878],[88.46877,26.54901],[88.46664,26.5483],[88.46452,26.54559],[88.46355,26.54016],[88.46205,26.53871],[88.4591,26.53694],[88.45556,26.53729],[88.45378,26.53809],[88.453,26.5401],[88.45149,26.54169],[88.44818,26.54371],[88.44793,26.54437],[88.44167,26.54501],[88.43714,26.54726],[88.43714,26.54772],[88.43663,26.54771],[88.43624,26.54863],[88.43273,26.55824],[88.42947,26.56734],[88.42855,26.58275],[88.42835,26.58676],[88.4268,26.59377],[88.42412,26.62226],[88.42157,26.62743],[88.41828,26.62946],[88.41728,26.62991],[88.41656,26.63169],[88.41367,26.63817],[88.40716,26.64293],[88.40787,26.64848],[88.40683,26.65266],[88.40513,26.67299],[88.39771,26.67537],[88.39697,26.67996],[88.40363,26.68254],[88.4093,26.69057],[88.4178,26.69854],[88.42673,26.69502],[88.43156,26.69538],[88.43637,26.69376],[88.44176,26.69351],[88.44719,26.69485],[88.45049,26.69667],[88.45244,26.70005],[88.45086,26.70895],[88.44723,26.71152],[88.44098,26.71295],[88.43632,26.71523],[88.4324,26.71925],[88.42921,26.72437],[88.4308,26.73049],[88.42919,26.73857],[88.42971,26.74417],[88.43227,26.7463],[88.43173,26.74974],[88.4301,26.7527],[88.43062,26.75502],[88.43371,26.75599],[88.43585,26.75212],[88.43807,26.7533],[88.43849,26.75625],[88.43997,26.7589],[88.43939,26.76732],[88.4438,26.77465],[88.44111,26.77797],[88.44131,26.78215],[88.44611,26.78199],[88.44729,26.78393],[88.44464,26.78661],[88.4475,26.78911],[88.44532,26.79375],[88.44599,26.79795],[88.44044,26.79532],[88.43731,26.79615],[88.43813,26.80523],[88.4359,26.80963],[88.43572,26.81167],[88.44099,26.80796],[88.44331,26.80972],[88.43738,26.81663],[88.44097,26.81905],[88.4422,26.82592],[88.44834,26.83498],[88.45628,26.83804],[88.46453,26.83958],[88.47218,26.84438],[88.48087,26.84612],[88.48846,26.85097],[88.49459,26.85152],[88.49875,26.85332],[88.49706,26.85628],[88.4871,26.86686],[88.48416,26.87535],[88.48913,26.87397],[88.49641,26.8707],[88.51046,26.86257],[88.51412,26.86188],[88.53403,26.86781],[88.54076,26.87056],[88.54632,26.87401],[88.54954,26.8774],[88.55578,26.87725],[88.56165,26.87883],[88.57115,26.8836],[88.57736,26.88837],[88.61086,26.879],[88.61052,26.88478],[88.61698,26.8932],[88.62181,26.89591],[88.62312,26.90149],[88.63823,26.9036],[88.64105,26.91816],[88.64015,26.92657],[88.64244,26.93225],[88.64828,26.93677],[88.65361,26.94454],[88.65621,26.95159],[88.66095,26.957],[88.66548,26.96051],[88.67269,26.95272],[88.67585,26.94583],[88.67416,26.93994],[88.66809,26.93048],[88.66906,26.92613],[88.70116,26.92362],[88.7676,26.9243],[88.76285,26.95768],[88.76354,26.96393],[88.76711,26.96587],[88.77124,26.96589],[88.77648,26.97085],[88.78676,26.97361],[88.79125,26.97895],[88.79588,26.98705],[88.79836,26.98959],[88.80441,26.98834],[88.81348,26.99005],[88.81833,26.99005],[88.82482,26.98678],[88.82965,26.9834],[88.83522,26.98168],[88.84993,26.97468],[88.85513,26.971],[88.86177,26.96454],[88.86957,26.96332],[88.87558,26.96356],[88.87881,26.9645],[88.87935,26.95699],[88.87986,26.95677],[88.87997,26.95571],[88.88034,26.95479],[88.88161,26.9514],[88.88537,26.95074],[88.88589,26.95117],[88.88652,26.95299],[88.88791,26.95503],[88.8929,26.95801],[88.89503,26.95972],[88.8952,26.95981],[88.89581,26.96117],[88.89856,26.97181],[88.90045,26.977],[88.90853,26.98131],[88.9108,26.98336],[88.91281,26.98674],[88.91631,26.99015],[88.91797,26.99422],[88.92338,26.99535],[88.92389,26.99581],[88.92566,26.99605],[88.92567,26.99559],[88.9264,26.99535],[88.92641,26.99491],[88.92895,26.99312],[88.92933,26.99217],[88.92943,26.99199],[88.92969,26.99107],[88.93324,26.98905],[88.93323,26.98859],[88.93678,26.98384],[88.93678,26.98341],[88.9383,26.98296],[88.9436,26.98049],[88.94435,26.98071],[88.95313,26.97724],[88.95519,26.97598],[88.95622,26.97259],[88.95899,26.96992],[88.95924,26.9688],[88.96027,26.96806],[88.96228,26.96063],[88.96203,26.95406],[88.9575,26.95021],[88.95397,26.94952],[88.94775,26.94613],[88.94667,26.94477],[88.94642,26.94227],[88.94796,26.93844],[88.94971,26.93731],[88.94996,26.93663],[88.95047,26.93662],[88.9564,26.93259],[88.96889,26.92399],[88.9777,26.92038],[88.97795,26.92061],[88.97923,26.92016],[88.99106,26.92064],[89.00065,26.92382],[89.01198,26.92972],[89.01501,26.9315],[89.02206,26.93425],[89.02584,26.9372],[89.02622,26.93809],[89.02712,26.93878],[89.0314,26.94014],[89.03206,26.93966],[89.03299,26.93856],[89.03391,26.93787],[89.03771,26.92974],[89.04655,26.92456],[89.05234,26.92002],[89.05234,26.91959],[89.05285,26.91959],[89.05285,26.91866],[89.05472,26.91599],[89.05485,26.91485],[89.05484,26.91351],[89.05273,26.90466],[89.05286,26.90353],[89.05588,26.90241],[89.05841,26.90308],[89.06709,26.90393],[89.07281,26.90337],[89.07404,26.90312],[89.0788,26.90085],[89.09219,26.89723],[89.0967,26.89385],[89.0967,26.89342],[89.09721,26.89319],[89.09798,26.89114],[89.09824,26.88956],[89.09975,26.88844],[89.10149,26.88731],[89.10162,26.88596],[89.10162,26.88504],[89.10126,26.88299],[89.09782,26.87984],[89.09734,26.87984],[89.09639,26.87808],[89.09517,26.8764],[89.09414,26.87497],[89.09394,26.87192],[89.09442,26.87169],[89.09671,26.8701],[89.09671,26.86967],[89.10456,26.86749],[89.10478,26.86743],[89.10679,26.86585],[89.10807,26.86268],[89.10907,26.86201],[89.10956,26.86178],[89.11045,26.85973],[89.11006,26.85656],[89.10938,26.8559],[89.10799,26.85454],[89.10654,26.84909],[89.1083,26.83621],[89.11509,26.83261],[89.11711,26.82587],[89.11762,26.82565],[89.11887,26.82244],[89.12215,26.82108],[89.12366,26.82085],[89.12744,26.82221],[89.12946,26.82078],[89.13072,26.81883],[89.13123,26.81861],[89.133,26.8125],[89.13374,26.81204],[89.13422,26.81181],[89.13525,26.8091],[89.13727,26.80797],[89.13829,26.80774],[89.14006,26.80752],[89.14835,26.80911],[89.15491,26.81159],[89.16698,26.81817],[89.17372,26.82034],[89.1784,26.82143],[89.17909,26.82156],[89.18111,26.82133],[89.18512,26.81886],[89.18513,26.8184],[89.18539,26.81748],[89.18914,26.81411],[89.19141,26.80911],[89.19594,26.80842],[89.19792,26.80927],[89.20071,26.81036],[89.20629,26.81321],[89.21965,26.8177],[89.23976,26.82041],[89.24179,26.82064],[89.24209,26.82062],[89.24734,26.82018],[89.25816,26.81634],[89.2607,26.81654],[89.26169,26.81678],[89.27078,26.81994],[89.27531,26.82356],[89.27542,26.82403],[89.28421,26.82901],[89.28705,26.83059],[89.28851,26.83148],[89.29573,26.83417],[89.30306,26.83825],[89.30506,26.83983],[89.31034,26.84323],[89.31287,26.84435],[89.31654,26.84842],[89.31774,26.84938],[89.31775,26.84984],[89.31962,26.85073],[89.32128,26.85202],[89.32221,26.8527],[89.32497,26.85336],[89.32599,26.85316],[89.33026,26.8493],[89.33102,26.84418],[89.33441,26.84004],[89.33698,26.84289],[89.34001,26.84591],[89.34411,26.84862],[89.3441,26.84908],[89.35195,26.85337],[89.35331,26.85449],[89.35824,26.85855],[89.36582,26.86327],[89.37111,26.8652],[89.37792,26.86666],[89.38322,26.8662],[89.38993,26.86205],[89.3905,26.86168],[89.39177,26.8594],[89.39203,26.85849],[89.39254,26.85828],[89.39303,26.85804],[89.39419,26.85444],[89.39552,26.84176],[89.39703,26.84086],[89.39802,26.84063],[89.40005,26.84086],[89.4066,26.84062],[89.40886,26.84039],[89.41215,26.8413],[89.4154,26.84106],[89.42748,26.83857],[89.43313,26.83603],[89.43354,26.83585],[89.43681,26.83561],[89.43858,26.83604],[89.44411,26.83647],[89.4504,26.83581],[89.45393,26.83466],[89.45518,26.83377],[89.45519,26.8333],[89.45518,26.83284],[89.45719,26.83149],[89.45896,26.83013],[89.46031,26.82675],[89.46095,26.82606],[89.46081,26.8247],[89.45993,26.82405],[89.45893,26.8229],[89.45714,26.81431],[89.45789,26.81385],[89.4584,26.81364],[89.45939,26.81071],[89.46115,26.80934],[89.46167,26.80934],[89.46166,26.80888],[89.46166,26.80842],[89.46518,26.80617],[89.47096,26.80457],[89.48633,26.8025],[89.49615,26.80225],[89.50218,26.80292],[89.50596,26.80473],[89.50635,26.80542],[89.50951,26.8081],[89.51191,26.81374],[89.51635,26.81644],[89.51734,26.8169],[89.52287,26.81532],[89.5282,26.8178],[89.53424,26.8189],[89.53651,26.818],[89.54354,26.81324],[89.55185,26.81186],[89.56133,26.81496],[89.5622,26.81523],[89.5647,26.81546],[89.56772,26.81363],[89.56797,26.81273],[89.56848,26.8125],[89.57256,26.80163],[89.57646,26.79969],[89.58552,26.79799],[89.59985,26.79297],[89.61697,26.78931],[89.6234,26.78544],[89.62376,26.78521],[89.62501,26.78408],[89.626,26.78185],[89.62763,26.78046],[89.62749,26.77683],[89.63101,26.77593],[89.63175,26.77592],[89.63252,26.77613],[89.63314,26.77727],[89.63466,26.77885],[89.64025,26.78205],[89.64291,26.7828],[89.64562,26.78312],[89.65043,26.78085],[89.65118,26.77722],[89.65169,26.77699],[89.65168,26.77653],[89.65492,26.77519],[89.65918,26.77178],[89.66016,26.76341],[89.65511,26.76049],[89.65279,26.75258],[89.65205,26.75191],[89.65155,26.75191],[89.65041,26.751],[89.6495,26.74852],[89.64824,26.74738],[89.6475,26.74694],[89.64274,26.74576],[89.63818,26.7447],[89.63818,26.74426],[89.63361,26.74223],[89.6309,26.74028],[89.62992,26.73951],[89.6293,26.73838],[89.6215,26.73255],[89.62009,26.72984],[89.61995,26.72871],[89.61908,26.72803],[89.61895,26.72714],[89.61946,26.72691],[89.61994,26.72555],[89.62634,26.72353],[89.63781,26.71916],[89.63931,26.71893],[89.6407,26.71979],[89.64262,26.72107],[89.64462,26.72231],[89.64765,26.72275],[89.65566,26.71887],[89.66018,26.7175],[89.66422,26.71839],[89.66521,26.71907],[89.66802,26.722],[89.67006,26.72632],[89.67258,26.72833],[89.67513,26.73916],[89.67652,26.73961],[89.67942,26.74029],[89.68044,26.74005],[89.68598,26.73733],[89.69399,26.7357],[89.69613,26.73558],[89.70028,26.73613],[89.70886,26.73702],[89.71214,26.73496],[89.71214,26.7345],[89.71236,26.73361],[89.71364,26.73294],[89.72166,26.73087],[89.72368,26.73109],[89.72519,26.72995],[89.72768,26.72474],[89.72843,26.72427],[89.72842,26.72384],[89.73118,26.72247],[89.73194,26.72224],[89.73571,26.72358],[89.7389,26.72717],[89.73977,26.72763],[89.74179,26.72785],[89.74532,26.72692],[89.74606,26.72715],[89.74831,26.7276],[89.74908,26.72829],[89.75159,26.73255],[89.75174,26.7328],[89.75313,26.73392],[89.75821,26.73592],[89.76219,26.73636],[89.76446,26.73546],[89.76498,26.735],[89.76522,26.73307],[89.76391,26.72641],[89.76063,26.72054],[89.76077,26.71944],[89.76211,26.7167],[89.76211,26.71624],[89.76335,26.71557],[89.76361,26.71489],[89.77265,26.70808],[89.77264,26.70762],[89.77264,26.70716],[89.77539,26.70466],[89.77634,26.70126],[89.77986,26.69946],[89.78135,26.69899],[89.78239,26.69921],[89.78693,26.7026],[89.79271,26.70367],[89.79676,26.70593],[89.80058,26.71113],[89.80361,26.71314],[89.8073,26.71425],[89.81267,26.71491],[89.82628,26.71419],[89.83783,26.71142],[89.86041,26.70273],[89.86232,26.70367]]]}}]}