{"type":"FeatureCollection","features":[{"type":"Feature","properties":{"id":"koch-bihar","name":"Koch Bihar","stateId":"west-bengal","stateName":"West Bengal","censuscode":329,"type":"district"},"geometry":{"type":"MultiPolygon","coordinates":[[[[89.02623,26.51818],[89.03012,26.51677],[89.03719,26.51639],[89.0405,26.51722],[89.0477,26.52097],[89.0501,26.52366],[89.05113,26.52633],[89.0575,26.5341],[89.06548,26.53561],[89.06936,26.53815],[89.07486,26.53859],[89.07804,26.53751],[89.08107,26.53481],[89.08392,26.53135],[89.08546,26.52654],[89.08759,26.52512],[89.09355,26.52672],[89.09788,26.52068],[89.1039,26.52205],[89.12441,26.52283],[89.14491,26.51729],[89.15159,26.51925],[89.17647,26.5063],[89.18706,26.49991],[89.19939,26.50886],[89.22092,26.50406],[89.23457,26.5032],[89.24579,26.49156],[89.26818,26.48821],[89.27774,26.48555],[89.2837,26.48635],[89.28565,26.48745],[89.28979,26.48726],[89.31035,26.48298],[89.31818,26.48447],[89.32214,26.48667],[89.32637,26.49079],[89.33046,26.4934],[89.33794,26.48945],[89.34324,26.48804],[89.34758,26.48772],[89.36146,26.49513],[89.36584,26.49289],[89.37582,26.48019],[89.38581,26.47165],[89.3945,26.4649],[89.39851,26.4643],[89.40376,26.4655],[89.41292,26.47146],[89.41816,26.47231],[89.42249,26.47171],[89.42629,26.4697],[89.43147,26.46875],[89.43924,26.46994],[89.44372,26.47196],[89.45424,26.4785],[89.45531,26.4838],[89.45935,26.49001],[89.47926,26.48659],[89.48288,26.48517],[89.48422,26.48277],[89.48824,26.48304],[89.49644,26.48061],[89.4975,26.47349],[89.4997,26.47237],[89.503,26.4741],[89.50881,26.47162],[89.51575,26.47368],[89.52092,26.47395],[89.5331,26.47685],[89.54215,26.47535],[89.54098,26.47354],[89.53663,26.47037],[89.5328,26.46853],[89.53466,26.46606],[89.53899,26.46435],[89.54697,26.45941],[89.54736,26.45777],[89.54357,26.45353],[89.54531,26.45085],[89.54477,26.44653],[89.55103,26.4465],[89.55412,26.43394],[89.55611,26.43142],[89.56121,26.42988],[89.56055,26.42738],[89.55517,26.42555],[89.55851,26.42121],[89.55843,26.41923],[89.55395,26.41651],[89.55737,26.41405],[89.56104,26.41292],[89.56064,26.41198],[89.56361,26.41109],[89.5671,26.41124],[89.57229,26.41331],[89.57379,26.41581],[89.57187,26.41833],[89.57222,26.42282],[89.56788,26.42255],[89.56843,26.42722],[89.57514,26.42479],[89.58655,26.42857],[89.62169,26.39537],[89.62443,26.39751],[89.62808,26.40297],[89.62969,26.41076],[89.62617,26.41644],[89.62806,26.41865],[89.63226,26.41658],[89.64035,26.41816],[89.64824,26.418],[89.6557,26.42244],[89.66216,26.4287],[89.66359,26.43097],[89.66143,26.43542],[89.66731,26.43485],[89.66963,26.43582],[89.67314,26.43604],[89.68043,26.43465],[89.68113,26.43284],[89.67944,26.43034],[89.68103,26.42887],[89.68997,26.42981],[89.69184,26.4288],[89.69375,26.42495],[89.69615,26.42598],[89.69832,26.42224],[89.70031,26.42088],[89.71122,26.42571],[89.71403,26.42913],[89.71343,26.43584],[89.71735,26.43337],[89.72466,26.43378],[89.72817,26.43557],[89.73095,26.44289],[89.73766,26.44215],[89.74112,26.44417],[89.74881,26.43665],[89.75201,26.4392],[89.75176,26.44894],[89.74902,26.45403],[89.75144,26.45786],[89.75612,26.46068],[89.76118,26.46257],[89.76715,26.46399],[89.83393,26.45821],[89.83316,26.46742],[89.82858,26.46781],[89.83085,26.46936],[89.83751,26.46844],[89.85167,26.46816],[89.85581,26.46749],[89.86606,26.46391],[89.86658,26.45696],[89.865,26.45465],[89.86293,26.45391],[89.86107,26.45537],[89.86049,26.44873],[89.86124,26.44569],[89.85973,26.44367],[89.85049,26.44431],[89.83771,26.44692],[89.83569,26.44636],[89.83512,26.43959],[89.83008,26.43952],[89.82853,26.43265],[89.82994,26.43106],[89.83868,26.43088],[89.84007,26.42918],[89.82998,26.42027],[89.83285,26.41658],[89.83884,26.41356],[89.83831,26.41223],[89.83448,26.40321],[89.83229,26.3964],[89.83297,26.39342],[89.83559,26.39014],[89.83565,26.39014],[89.84537,26.39076],[89.84573,26.39108],[89.84947,26.39429],[89.85014,26.39575],[89.85105,26.39772],[89.8518,26.40268],[89.85402,26.39986],[89.85532,26.39822],[89.85815,26.39592],[89.86224,26.3844],[89.86223,26.38439],[89.86002,26.38197],[89.8563,26.38398],[89.85624,26.38398],[89.85623,26.38398],[89.85047,26.38397],[89.84591,26.37772],[89.83907,26.38119],[89.83902,26.38119],[89.83901,26.38119],[89.83598,26.38197],[89.83286,26.38107],[89.83058,26.37927],[89.8294,26.37684],[89.83238,26.36976],[89.83203,26.36661],[89.82602,26.35901],[89.82837,26.3552],[89.82614,26.35109],[89.82505,26.35034],[89.82059,26.35141],[89.81867,26.35311],[89.81651,26.35797],[89.81659,26.36065],[89.81771,26.36234],[89.81853,26.36301],[89.82002,26.36422],[89.82226,26.36604],[89.82547,26.37056],[89.82537,26.37051],[89.8254,26.37056],[89.81755,26.36695],[89.81483,26.36644],[89.80898,26.36229],[89.79531,26.35802],[89.787,26.35324],[89.78589,26.35213],[89.78404,26.34737],[89.78419,26.34316],[89.78601,26.3358],[89.78601,26.33562],[89.78584,26.33084],[89.78283,26.32783],[89.78271,26.32772],[89.7735,26.32376],[89.76694,26.31707],[89.75863,26.32177],[89.75663,26.32212],[89.75552,26.32143],[89.75585,26.30622],[89.76408,26.29257],[89.7636,26.28931],[89.76204,26.28851],[89.75384,26.28938],[89.75101,26.29074],[89.7473,26.29519],[89.73676,26.29288],[89.72843,26.29473],[89.72587,26.29627],[89.72478,26.29861],[89.72776,26.30752],[89.72524,26.30811],[89.72283,26.30568],[89.72067,26.30196],[89.72044,26.29701],[89.72203,26.29303],[89.72606,26.28816],[89.73416,26.28291],[89.74239,26.27109],[89.73861,26.26645],[89.73839,26.26248],[89.73721,26.26033],[89.73015,26.2584],[89.72228,26.25915],[89.71637,26.26327],[89.7158,26.26455],[89.71649,26.26957],[89.71391,26.27081],[89.70977,26.2699],[89.70563,26.26083],[89.70594,26.2592],[89.70858,26.25697],[89.71632,26.25802],[89.72032,26.25648],[89.72135,26.25525],[89.72145,26.25233],[89.71994,26.24896],[89.72063,26.24639],[89.72849,26.24354],[89.73368,26.2382],[89.72821,26.23293],[89.72309,26.23162],[89.71772,26.22897],[89.71662,26.22775],[89.71512,26.21914],[89.71046,26.21707],[89.70801,26.21732],[89.70448,26.21891],[89.70214,26.21724],[89.70245,26.21595],[89.70514,26.21377],[89.70797,26.21329],[89.72039,26.21478],[89.72925,26.21729],[89.73615,26.21491],[89.7369,26.21229],[89.73618,26.21077],[89.73052,26.20609],[89.72806,26.20534],[89.72548,26.20618],[89.72213,26.20562],[89.7191,26.20599],[89.7165,26.20321],[89.72042,26.20266],[89.72234,26.20013],[89.72296,26.19681],[89.72098,26.19134],[89.7189,26.18937],[89.7156,26.18858],[89.71307,26.18684],[89.71024,26.18808],[89.7067,26.18817],[89.70245,26.19087],[89.69972,26.18908],[89.70506,26.18485],[89.70739,26.17714],[89.70911,26.17456],[89.71136,26.17315],[89.71646,26.17352],[89.7219,26.17722],[89.72462,26.17796],[89.73507,26.17701],[89.73796,26.17588],[89.73899,26.175],[89.73859,26.17338],[89.73774,26.17297],[89.73188,26.17388],[89.72992,26.17162],[89.72991,26.16964],[89.72269,26.16555],[89.72244,26.16611],[89.72171,26.16653],[89.71911,26.16666],[89.71825,26.16646],[89.71773,26.16554],[89.71617,26.15696],[89.7139,26.1538],[89.71065,26.15335],[89.70965,26.15358],[89.70765,26.15494],[89.70766,26.1554],[89.70664,26.15607],[89.70455,26.16058],[89.7026,26.16189],[89.70052,26.16309],[89.69333,26.16529],[89.68866,26.16798],[89.68994,26.172],[89.69577,26.17301],[89.69988,26.17258],[89.69876,26.17754],[89.69216,26.18354],[89.68855,26.19346],[89.6848,26.19801],[89.67739,26.20226],[89.67902,26.20844],[89.68806,26.20986],[89.69424,26.2118],[89.69357,26.21428],[89.68753,26.21647],[89.6892,26.22002],[89.69606,26.22185],[89.68819,26.2258],[89.68343,26.23013],[89.67571,26.22829],[89.6757,26.22783],[89.66853,26.22344],[89.6644,26.22221],[89.66272,26.22259],[89.66123,26.22236],[89.65814,26.22292],[89.65702,26.22343],[89.65674,26.22362],[89.64875,26.22872],[89.64645,26.22858],[89.64441,26.22696],[89.64285,26.22545],[89.64285,26.22433],[89.64231,26.22239],[89.64137,26.21902],[89.64105,26.21551],[89.64175,26.21351],[89.643,26.21008],[89.64752,26.206],[89.64927,26.20191],[89.64974,26.20167],[89.65025,26.20148],[89.65189,26.19558],[89.65149,26.19446],[89.64923,26.19242],[89.64798,26.1922],[89.64571,26.19267],[89.63733,26.19664],[89.63506,26.19421],[89.63476,26.19219],[89.63569,26.18886],[89.64057,26.18613],[89.64143,26.18567],[89.64731,26.18607],[89.64843,26.18635],[89.65344,26.18405],[89.6557,26.18381],[89.65669,26.18404],[89.65871,26.1845],[89.65982,26.18336],[89.66018,26.17726],[89.65918,26.17604],[89.65808,26.17497],[89.65759,26.17432],[89.65637,26.16936],[89.65514,26.16823],[89.6539,26.168],[89.64984,26.16968],[89.64438,26.17278],[89.64118,26.17998],[89.63856,26.18072],[89.63662,26.18011],[89.63463,26.17892],[89.63463,26.17845],[89.63388,26.17779],[89.63239,26.17803],[89.62837,26.17997],[89.62487,26.18166],[89.62211,26.1812],[89.61915,26.1799],[89.61767,26.17715],[89.61774,26.17382],[89.61945,26.17106],[89.61908,26.16658],[89.61905,26.16628],[89.61866,26.16539],[89.61677,26.16245],[89.61526,26.1611],[89.61325,26.16022],[89.61201,26.16044],[89.60553,26.1643],[89.5985,26.1617],[89.59738,26.16081],[89.59724,26.15876],[89.599,26.15763],[89.60023,26.15661],[89.60058,26.15572],[89.60033,26.15549],[89.6012,26.15044],[89.60194,26.14986],[89.60249,26.1482],[89.60341,26.14304],[89.60492,26.13896],[89.60774,26.12564],[89.60833,26.12091],[89.61034,26.12044],[89.6111,26.12044],[89.61286,26.12089],[89.61561,26.12267],[89.61686,26.1229],[89.61812,26.12222],[89.61912,26.12103],[89.62011,26.1208],[89.6226,26.11949],[89.62411,26.12083],[89.625,26.12354],[89.62934,26.12838],[89.63067,26.12399],[89.63035,26.11924],[89.6286,26.1145],[89.62784,26.11382],[89.6186,26.11206],[89.61808,26.11214],[89.61006,26.11341],[89.60932,26.11318],[89.60469,26.11184],[89.60354,26.11141],[89.60315,26.10916],[89.60326,26.10668],[89.60252,26.10598],[89.60089,26.10576],[89.59914,26.10531],[89.59853,26.10462],[89.5984,26.10396],[89.59813,26.10124],[89.59825,26.10081],[89.60074,26.10034],[89.60123,26.10018],[89.60473,26.09829],[89.60625,26.0958],[89.6072,26.09424],[89.61323,26.08914],[89.61451,26.09438],[89.61456,26.09496],[89.61664,26.09504],[89.61909,26.09699],[89.6195,26.09735],[89.61989,26.09917],[89.62002,26.10165],[89.62092,26.1021],[89.6229,26.10233],[89.62705,26.10229],[89.62805,26.10321],[89.63005,26.10654],[89.63218,26.10746],[89.63561,26.10519],[89.63902,26.09549],[89.63886,26.08862],[89.63866,26.08573],[89.63915,26.07953],[89.64152,26.0769],[89.64915,26.07175],[89.65335,26.06829],[89.64779,26.06317],[89.63764,26.0632],[89.63169,26.06191],[89.62824,26.05835],[89.6256,26.05633],[89.62152,26.05836],[89.6197,26.06313],[89.61467,26.06291],[89.60994,26.06745],[89.60677,26.06603],[89.60715,26.06103],[89.61333,26.05576],[89.61475,26.04932],[89.61211,26.04755],[89.6046,26.04911],[89.60076,26.04709],[89.60008,26.04042],[89.59297,26.04402],[89.59084,26.04128],[89.5897,26.03431],[89.58281,26.02598],[89.58344,26.02098],[89.58566,26.01632],[89.58641,26.00297],[89.59048,25.99807],[89.58992,25.98949],[89.59048,25.98395],[89.59126,25.97953],[89.58533,25.97835],[89.58229,25.97646],[89.58146,25.96812],[89.57619,25.96765],[89.57224,25.97005],[89.57253,25.97529],[89.5683,25.97328],[89.56194,25.96625],[89.55403,25.96663],[89.54825,25.9707],[89.54774,25.97773],[89.54474,25.98501],[89.54741,25.99454],[89.5502,25.99882],[89.54771,26.0036],[89.54165,26.0079],[89.53664,26.00648],[89.53288,26.00381],[89.52286,26.00633],[89.51533,26.00527],[89.50913,26.00302],[89.50373,26.00542],[89.49436,26.0015],[89.48472,25.99758],[89.47726,25.99598],[89.45802,26.00281],[89.44592,26.0101],[89.43195,26.01524],[89.43625,26.02245],[89.42984,26.04046],[89.42576,26.04284],[89.41018,26.04084],[89.4049,26.0362],[89.40289,26.02786],[89.39577,26.02262],[89.39534,26.01034],[89.39296,26.00892],[89.38585,26.01012],[89.38189,26.01131],[89.37219,26.00995],[89.35769,26.01116],[89.34478,26.01677],[89.33754,26.02345],[89.32925,26.03526],[89.32562,26.03878],[89.31349,26.04212],[89.30163,26.05],[89.29491,26.05107],[89.28659,26.05013],[89.28237,26.05298],[89.28384,26.06229],[89.28147,26.06467],[89.27606,26.063],[89.27044,26.06151],[89.26279,26.06617],[89.25964,26.07462],[89.2644,26.0844],[89.26955,26.0881],[89.26837,26.09298],[89.25979,26.09453],[89.24977,26.10205],[89.24582,26.10694],[89.24344,26.11004],[89.2352,26.1176],[89.22425,26.12619],[89.2166,26.12618],[89.19033,26.13012],[89.17666,26.13136],[89.16148,26.13959],[89.15725,26.1496],[89.15436,26.15448],[89.15384,26.1695],[89.1471,26.17558],[89.14083,26.18541],[89.14069,26.19339],[89.151,26.20722],[89.15117,26.2141],[89.14844,26.22221],[89.14768,26.22264],[89.14617,26.22423],[89.1443,26.22808],[89.14379,26.22832],[89.14244,26.23691],[89.1404,26.2421],[89.13717,26.24368],[89.13717,26.24414],[89.13717,26.24459],[89.1349,26.24616],[89.1349,26.24662],[89.1304,26.24886],[89.13039,26.24932],[89.12965,26.24978],[89.12762,26.2543],[89.12614,26.26285],[89.12601,26.26356],[89.12487,26.26581],[89.12388,26.26673],[89.1234,26.26696],[89.12314,26.26785],[89.12143,26.26978],[89.11987,26.27103],[89.1161,26.27939],[89.11285,26.28232],[89.11182,26.28503],[89.10658,26.28932],[89.10645,26.28978],[89.10683,26.29295],[89.10921,26.2961],[89.10938,26.29764],[89.10959,26.29904],[89.10946,26.29971],[89.10709,26.30177],[89.10559,26.30267],[89.10655,26.30636],[89.10954,26.30781],[89.11226,26.30757],[89.11411,26.30674],[89.11412,26.30627],[89.11763,26.30312],[89.11786,26.30176],[89.11911,26.29932],[89.11962,26.29907],[89.12,26.29818],[89.12026,26.29792],[89.12112,26.29296],[89.12362,26.29204],[89.12439,26.29205],[89.12564,26.29251],[89.1264,26.2932],[89.12938,26.29885],[89.13136,26.29933],[89.13685,26.31686],[89.12917,26.31927],[89.12759,26.31931],[89.12609,26.31975],[89.12507,26.31952],[89.12136,26.32002],[89.12061,26.32025],[89.11988,26.32204],[89.11835,26.32392],[89.1176,26.32415],[89.10961,26.32302],[89.10808,26.32346],[89.10734,26.32481],[89.10657,26.32662],[89.10583,26.32708],[89.10426,26.32655],[89.10321,26.32591],[89.09979,26.32256],[89.0961,26.32145],[89.08891,26.32198],[89.09106,26.32595],[89.0973,26.32933],[89.0998,26.3316],[89.10143,26.33898],[89.10181,26.34065],[89.10194,26.34516],[89.10145,26.34539],[89.09943,26.35589],[89.09806,26.35965],[89.09428,26.36233],[89.09158,26.36201],[89.09,26.3619],[89.08575,26.36279],[89.08536,26.36371],[89.08536,26.36483],[89.08587,26.36573],[89.08776,26.36596],[89.09227,26.36801],[89.09275,26.36847],[89.09365,26.37161],[89.09301,26.37773],[89.09227,26.38043],[89.09257,26.38131],[89.09352,26.38381],[89.09466,26.3845],[89.09579,26.3854],[89.09816,26.39085],[89.09841,26.39243],[89.09841,26.39355],[89.09779,26.39491],[89.09728,26.39514],[89.09603,26.39491],[89.09229,26.39672],[89.09203,26.39739],[89.09127,26.39963],[89.09076,26.39987],[89.08951,26.3992],[89.08874,26.39942],[89.08673,26.39919],[89.07972,26.39784],[89.07419,26.3942],[89.07319,26.39397],[89.06641,26.39624],[89.06567,26.396],[89.06416,26.39578],[89.05511,26.39622],[89.04708,26.398],[89.0433,26.39711],[89.03933,26.39481],[89.03709,26.3958],[89.03647,26.40056],[89.03565,26.40606],[89.03179,26.40752],[89.02812,26.40697],[89.02405,26.40806],[89.02282,26.41191],[89.01916,26.4121],[89.01285,26.41062],[89.0096,26.41281],[89.00919,26.41997],[89.00512,26.41996],[89.00002,26.41848],[88.99677,26.41463],[88.99576,26.40803],[88.98985,26.40875],[88.98599,26.40727],[88.9811,26.40709],[88.9809,26.41222],[88.9822,26.41402],[88.98319,26.41556],[88.98456,26.41894],[88.98596,26.42009],[88.9848,26.4296],[88.98684,26.43594],[88.98745,26.43663],[88.98775,26.4389],[88.98805,26.44384],[88.9868,26.44635],[88.98452,26.44946],[88.97901,26.4515],[88.97058,26.45624],[88.97059,26.45667],[88.96772,26.45887],[88.96533,26.45798],[88.96409,26.45621],[88.96457,26.45238],[88.96396,26.45124],[88.95794,26.45034],[88.95391,26.44808],[88.95341,26.44717],[88.95349,26.44629],[88.95418,26.43993],[88.95292,26.43427],[88.95167,26.43268],[88.95004,26.43151],[88.93259,26.43159],[88.93262,26.41607],[88.93262,26.41298],[88.93113,26.41004],[88.92987,26.40892],[88.92057,26.40731],[88.91678,26.40629],[88.91534,26.40457],[88.91553,26.40215],[88.91731,26.40119],[88.91782,26.39983],[88.91783,26.39915],[88.91834,26.39895],[88.91885,26.39871],[88.91928,26.39693],[88.91961,26.39012],[88.91861,26.38854],[88.91651,26.38288],[88.91625,26.3813],[88.91633,26.3805],[88.91784,26.37937],[88.91877,26.36957],[88.92053,26.36888],[88.92091,26.36798],[88.92128,26.36774],[88.92115,26.36298],[88.92416,26.36163],[88.92541,26.36142],[88.92718,26.36189],[88.93056,26.36504],[88.9327,26.36551],[88.9332,26.36527],[88.93322,26.36484],[88.93824,26.36228],[88.94298,26.361],[88.94651,26.3617],[88.95305,26.36056],[88.95504,26.36215],[88.9559,26.3635],[88.95779,26.36417],[88.95979,26.36262],[88.96018,26.36147],[88.95986,26.35782],[88.95869,26.35731],[88.9565,26.35489],[88.9548,26.35176],[88.95418,26.34995],[88.95406,26.34747],[88.95732,26.34656],[88.95982,26.347],[88.96084,26.34611],[88.96097,26.3438],[88.96013,26.3427],[88.95874,26.33684],[88.95874,26.33526],[88.9592,26.33316],[88.96096,26.33268],[88.96287,26.33232],[88.9656,26.33411],[88.96786,26.34023],[88.96858,26.34839],[88.9696,26.35041],[88.97123,26.35087],[88.97175,26.34997],[88.97213,26.35021],[88.97689,26.34728],[88.97815,26.34705],[88.98188,26.35179],[88.98339,26.35224],[88.98566,26.3509],[88.98566,26.34998],[88.98617,26.34862],[88.98967,26.34707],[88.99066,26.34616],[88.99104,26.34526],[88.9922,26.34209],[88.99192,26.33885],[88.99169,26.33577],[88.99571,26.33419],[88.99672,26.33419],[88.99898,26.3333],[88.99898,26.33284],[89.00275,26.3299],[89.00413,26.3263],[89.00426,26.32516],[89.00376,26.32449],[89.00251,26.32391],[89.0011,26.32344],[89.00063,26.32276],[89.00062,26.32163],[89.00098,26.32051],[89.00149,26.32028],[89.00163,26.31723],[89.00163,26.31633],[89.00073,26.3152],[88.99999,26.31497],[88.99258,26.31902],[88.99057,26.31882],[88.9897,26.31836],[88.99048,26.30614],[88.99198,26.30478],[88.99198,26.30432],[88.99675,26.30118],[88.99826,26.29981],[88.99825,26.29937],[88.99826,26.29894],[89.00405,26.29509],[89.00503,26.29486],[89.00555,26.29532],[89.00615,26.29713],[89.00664,26.29826],[89.0085,26.29897],[89.01068,26.30076],[89.01329,26.30021],[89.01469,26.29374],[89.01508,26.29285],[89.01782,26.2915],[89.01831,26.2915],[89.02149,26.29727],[89.02395,26.30352],[89.02608,26.30897],[89.02852,26.30362],[89.02873,26.2976],[89.02839,26.29725],[89.02774,26.29578],[89.02684,26.29095],[89.02977,26.28663],[89.03611,26.28642],[89.04017,26.28621],[89.04449,26.28188],[89.05083,26.28093],[89.05286,26.28343],[89.05116,26.29297],[89.05392,26.2962],[89.05749,26.29576],[89.05969,26.29305],[89.06287,26.28873],[89.06328,26.28354],[89.06332,26.28308],[89.06246,26.28091],[89.06083,26.27979],[89.0592,26.27866],[89.05883,26.27662],[89.0592,26.27572],[89.06348,26.27325],[89.06446,26.27074],[89.06456,26.26872],[89.06497,26.2633],[89.06409,26.25469],[89.06372,26.25446],[89.06311,26.25356],[89.06184,26.2531],[89.06059,26.25355],[89.06034,26.25445],[89.05935,26.25514],[89.05896,26.25627],[89.0582,26.25673],[89.05583,26.25559],[89.0544,26.25218],[89.05206,26.24337],[89.05022,26.24112],[89.04919,26.24089],[89.04644,26.24158],[89.03666,26.24721],[89.03465,26.24764],[89.03151,26.24739],[89.0294,26.2472],[89.02064,26.24402],[89.01864,26.24378],[89.0141,26.24401],[89.01194,26.2444],[89.01176,26.24445],[89.01013,26.24474],[89.00333,26.2467],[88.99556,26.24578],[88.99358,26.24531],[88.99297,26.24506],[88.98805,26.2426],[88.98004,26.24133],[88.97828,26.24079],[88.97787,26.24083],[88.97202,26.24123],[88.96427,26.24597],[88.95644,26.25136],[88.9557,26.25271],[88.9557,26.25317],[88.95443,26.25409],[88.95442,26.25453],[88.94953,26.25955],[88.94892,26.26017],[88.94891,26.26063],[88.94792,26.26244],[88.94716,26.26287],[88.94715,26.26333],[88.94338,26.26649],[88.94138,26.27056],[88.94037,26.27122],[88.94036,26.27168],[88.93562,26.27574],[88.93562,26.27666],[88.93486,26.27711],[88.9346,26.27778],[88.93386,26.27801],[88.93386,26.27847],[88.93085,26.28064],[88.93059,26.28131],[88.92942,26.28237],[88.92694,26.28445],[88.92537,26.28541],[88.92506,26.28566],[88.91915,26.2874],[88.9179,26.2874],[88.91755,26.28749],[88.91754,26.28792],[88.91128,26.28724],[88.90699,26.28813],[88.89696,26.28584],[88.89447,26.28606],[88.87886,26.28582],[88.87773,26.28535],[88.87755,26.28533],[88.87717,26.28512],[88.87567,26.28353],[88.87469,26.28036],[88.87306,26.279],[88.87281,26.27718],[88.87255,26.27764],[88.87117,26.27629],[88.87105,26.2756],[88.87055,26.27559],[88.86938,26.27178],[88.86862,26.27043],[88.86819,26.26906],[88.8672,26.25569],[88.868,26.25326],[88.86925,26.25235],[88.87116,26.25074],[88.87199,26.25028],[88.872,26.24982],[88.872,26.24939],[88.8745,26.24803],[88.8755,26.24781],[88.87675,26.24691],[88.87853,26.24238],[88.88004,26.24171],[88.88075,26.24127],[88.88519,26.23687],[88.86926,26.23573],[88.86902,26.23573],[88.86722,26.23568],[88.85249,26.2327],[88.85197,26.23259],[88.84797,26.23304],[88.84168,26.23643],[88.84168,26.23711],[88.84093,26.23847],[88.83719,26.2407],[88.83693,26.2416],[88.83643,26.24183],[88.83692,26.24521],[88.83814,26.24633],[88.84043,26.25031],[88.8349,26.25083],[88.8324,26.25018],[88.82761,26.25086],[88.82611,26.25152],[88.82437,26.25648],[88.82184,26.25874],[88.82145,26.25967],[88.82345,26.26327],[88.82345,26.26506],[88.82294,26.26529],[88.82293,26.26687],[88.82226,26.27166],[88.82101,26.28111],[88.82101,26.28269],[88.82187,26.28363],[88.82402,26.29224],[88.82401,26.29447],[88.82324,26.29628],[88.81471,26.30327],[88.80592,26.30754],[88.80591,26.308],[88.80543,26.30821],[88.80092,26.30888],[88.79211,26.30614],[88.78486,26.30116],[88.77985,26.29909],[88.77281,26.30066],[88.7713,26.30134],[88.76804,26.30336],[88.76804,26.30382],[88.76804,26.30428],[88.76745,26.30478],[88.76696,26.30477],[88.76568,26.30631],[88.76418,26.3072],[88.76418,26.30766],[88.76152,26.30988],[88.76076,26.31034],[88.76028,26.31662],[88.76052,26.32155],[88.7625,26.33033],[88.76205,26.33459],[88.75688,26.33809],[88.75032,26.34997],[88.75019,26.35559],[88.75838,26.36669],[88.76075,26.37408],[88.76878,26.38563],[88.77842,26.39532],[88.78544,26.39497],[88.7925,26.38916],[88.79676,26.38098],[88.80361,26.37323],[88.80992,26.37495],[88.81802,26.37605],[88.82812,26.37543],[88.83428,26.37733],[88.84281,26.38274],[88.84805,26.38118],[88.85387,26.3824],[88.85582,26.38837],[88.85859,26.39249],[88.8659,26.3915],[88.87124,26.39177],[88.87515,26.399],[88.88071,26.40127],[88.88532,26.40754],[88.88843,26.41497],[88.88767,26.42391],[88.89186,26.42494],[88.89122,26.43741],[88.89844,26.43677],[88.90215,26.43719],[88.90654,26.44034],[88.90929,26.4451],[88.91035,26.45062],[88.91727,26.45207],[88.9173,26.45612],[88.92045,26.46191],[88.91631,26.46317],[88.90941,26.47087],[88.90795,26.47485],[88.91772,26.47075],[88.92782,26.46914],[88.93135,26.46573],[88.936,26.46337],[88.94261,26.47021],[88.94659,26.47275],[88.95015,26.47697],[88.94707,26.48164],[88.94524,26.48964],[88.94711,26.49824],[88.94234,26.5006],[88.94375,26.50471],[88.952,26.50447],[88.95557,26.50622],[88.96086,26.51095],[88.96505,26.52283],[88.97022,26.52502],[88.97402,26.52848],[88.97431,26.53155],[88.97224,26.54042],[88.97562,26.54575],[88.98824,26.53404],[88.99999,26.53121],[89.00761,26.52612],[89.02121,26.52174],[89.02623,26.51818]],[[89.73526,26.30903],[89.73397,26.30741],[89.73459,26.30543],[89.73703,26.3036],[89.7429,26.30222],[89.74323,26.30362],[89.7421,26.30765],[89.73876,26.311],[89.73754,26.311],[89.73526,26.30903]]],[[[88.79894,26.20667],[88.80018,26.20601],[88.80093,26.20601],[88.80355,26.20354],[88.80319,26.19623],[88.80223,26.19246],[88.80135,26.19176],[88.79985,26.18972],[88.79924,26.18859],[88.79848,26.18836],[88.79848,26.1879],[88.79596,26.18564],[88.79515,26.18368],[88.79173,26.17975],[88.78846,26.17452],[88.78834,26.17428],[88.78823,26.17409],[88.78798,26.17137],[88.78954,26.16278],[88.79226,26.15604],[88.79331,26.15354],[88.79336,26.15294],[88.79397,26.14449],[88.79336,26.14336],[88.78961,26.14061],[88.78924,26.13226],[88.78887,26.13067],[88.78737,26.13],[88.78238,26.13246],[88.78063,26.13179],[88.77885,26.13017],[88.77636,26.12994],[88.77111,26.13131],[88.76955,26.14237],[88.76453,26.14642],[88.76402,26.14642],[88.76401,26.14688],[88.76226,26.14823],[88.76225,26.14892],[88.76275,26.15186],[88.76852,26.15209],[88.76927,26.15232],[88.77023,26.15314],[88.77335,26.15598],[88.77589,26.15813],[88.77627,26.15845],[88.77803,26.15935],[88.77802,26.16],[88.77789,26.1627],[88.77539,26.16396],[88.77299,26.16342],[88.7715,26.16158],[88.76873,26.16137],[88.76524,26.16271],[88.76424,26.16317],[88.76335,26.16541],[88.76269,26.17196],[88.76345,26.17355],[88.76409,26.17401],[88.76871,26.17471],[88.77345,26.17427],[88.77622,26.17563],[88.77721,26.17653],[88.77632,26.18404],[88.77619,26.18558],[88.78019,26.19079],[88.78166,26.19464],[88.78126,26.19984],[88.78039,26.20139],[88.77417,26.20625],[88.7696,26.20908],[88.76921,26.21225],[88.76933,26.21338],[88.77009,26.21428],[88.77009,26.21609],[88.76581,26.21968],[88.76541,26.22149],[88.76527,26.22873],[88.76825,26.23416],[88.77003,26.23555],[88.77578,26.23782],[88.78028,26.2385],[88.7813,26.2383],[88.79612,26.22883],[88.79939,26.22567],[88.80265,26.21778],[88.80292,26.21325],[88.80167,26.21212],[88.79915,26.2112],[88.79867,26.2103],[88.79867,26.20984],[88.7988,26.20734],[88.79894,26.20667]]],[[[88.68978,26.24702],[88.69939,26.22534],[88.69989,26.22512],[88.69989,26.22466],[88.70566,26.22219],[88.70767,26.22176],[88.70993,26.22244],[88.71067,26.22267],[88.71141,26.22336],[88.71176,26.23074],[88.71226,26.23285],[88.71488,26.23468],[88.71664,26.23514],[88.71816,26.23535],[88.71916,26.23493],[88.7199,26.23446],[88.72191,26.23266],[88.72216,26.22994],[88.72167,26.22925],[88.72116,26.22926],[88.71918,26.2218],[88.71904,26.21721],[88.71915,26.21585],[88.71937,26.21162],[88.72299,26.2087],[88.72351,26.20688],[88.72264,26.19829],[88.72278,26.19786],[88.72403,26.19716],[88.72603,26.19695],[88.72855,26.19672],[88.73157,26.19448],[88.73208,26.18837],[88.73083,26.18612],[88.73051,26.18588],[88.72959,26.18519],[88.72244,26.18404],[88.7217,26.18427],[88.71944,26.18358],[88.7192,26.18043],[88.71958,26.17941],[88.71997,26.17839],[88.7196,26.17637],[88.71835,26.1759],[88.71761,26.17613],[88.71009,26.18017],[88.70983,26.18086],[88.70833,26.18174],[88.70842,26.18333],[88.70918,26.18446],[88.70929,26.1883],[88.70903,26.18951],[88.708,26.19392],[88.7085,26.1953],[88.71226,26.19849],[88.71172,26.20436],[88.71048,26.20548],[88.70247,26.20817],[88.69369,26.20928],[88.68815,26.21307],[88.68815,26.21354],[88.68711,26.21475],[88.68556,26.21791],[88.68031,26.23161],[88.67978,26.23703],[88.68067,26.23839],[88.68178,26.23995],[88.68203,26.24335],[88.68051,26.24493],[88.67902,26.24469],[88.67176,26.24582],[88.67112,26.2474],[88.67123,26.25057],[88.67184,26.25123],[88.67283,26.2535],[88.67898,26.25421],[88.68375,26.25307],[88.68375,26.25264],[88.68452,26.25241],[88.68452,26.25195],[88.68825,26.24905],[88.68876,26.24769],[88.68901,26.24747],[88.68978,26.24702]]],[[[89.60204,25.96067],[89.60392,25.95943],[89.60542,25.95988],[89.60565,25.95964],[89.60669,25.95948],[89.60767,25.95879],[89.60792,25.95654],[89.60756,25.95406],[89.6103,25.95449],[89.61081,25.95426],[89.61094,25.95332],[89.61555,25.95184],[89.61554,25.94975],[89.61265,25.94339],[89.61188,25.94296],[89.60789,25.94366],[89.60325,25.94298],[89.60238,25.94232],[89.60134,25.93846],[89.60086,25.93802],[89.59885,25.93578],[89.59811,25.93599],[89.59682,25.93619],[89.59303,25.93881],[89.58892,25.9353],[89.58695,25.93376],[89.5852,25.93399],[89.58396,25.93467],[89.58364,25.94337],[89.58452,25.94756],[89.5844,25.94801],[89.58228,25.94864],[89.57606,25.9513],[89.58291,25.95321],[89.58892,25.95544],[89.58968,25.95613],[89.59263,25.96088],[89.59296,25.96132],[89.59557,25.96312],[89.5967,25.96358],[89.59797,25.9638],[89.5987,25.96357],[89.59921,25.96334],[89.59971,25.96198],[89.60204,25.96067]]],[[[89.82701,26.32507],[89.8226,26.32005],[89.81473,26.32492],[89.81256,26.32785],[89.80335,26.33113],[89.8012,26.33587],[89.79856,26.33838],[89.79367,26.34048],[89.79317,26.34217],[89.79382,26.34321],[89.79881,26.34492],[89.80311,26.34897],[89.80486,26.34943],[89.81712,26.34585],[89.82089,26.34208],[89.82402,26.33721],[89.82494,26.33091],[89.8275,26.32827],[89.82701,26.32507]]],[[[88.66114,26.26498],[88.66014,26.26409],[88.65901,26.26251],[88.65841,26.26092],[88.6579,26.26047],[88.65278,26.2593],[88.65089,26.25522],[88.65016,26.25455],[88.64792,26.25274],[88.64591,26.25339],[88.64564,26.25498],[88.64319,26.25678],[88.64319,26.25724],[88.64061,26.25948],[88.64013,26.25948],[88.63974,26.26037],[88.63858,26.26331],[88.63858,26.264],[88.63896,26.26423],[88.63895,26.266],[88.6412,26.26532],[88.64208,26.26714],[88.64179,26.26825],[88.64419,26.27],[88.64106,26.28043],[88.6413,26.28458],[88.64637,26.28496],[88.64862,26.28081],[88.652,26.27525],[88.65936,26.27345],[88.66086,26.26995],[88.66138,26.26861],[88.66151,26.26769],[88.66114,26.26498]]]]}}]}