{"type":"FeatureCollection","features":[{"type":"Feature","properties":{"id":"kolkata","name":"Kolkata","stateId":"west-bengal","stateName":"West Bengal","censuscode":342,"type":"district"},"geometry":{"type":"Polygon","coordinates":[[[88.41075,22.55997],[88.40914,22.55744],[88.40246,22.55835],[88.40148,22.55731],[88.40198,22.55257],[88.39515,22.54407],[88.3907,22.54249],[88.39053,22.53741],[88.38321,22.52711],[88.37946,22.52491],[88.37506,22.52646],[88.37311,22.51888],[88.37313,22.51109],[88.37118,22.5041],[88.36792,22.49883],[88.36242,22.49853],[88.35594,22.49914],[88.3502,22.49855],[88.33968,22.50141],[88.33188,22.50727],[88.32786,22.50906],[88.3241,22.50835],[88.31569,22.50954],[88.30104,22.51439],[88.29745,22.51479],[88.29164,22.51766],[88.29148,22.52875],[88.29002,22.53619],[88.28517,22.54668],[88.27824,22.54718],[88.27551,22.54955],[88.27425,22.55531],[88.28718,22.55161],[88.31173,22.54816],[88.32426,22.5504],[88.3324,22.55567],[88.34698,22.57702],[88.35162,22.59241],[88.35586,22.60021],[88.36331,22.60947],[88.36801,22.60839],[88.36904,22.61579],[88.36766,22.62409],[88.3632,22.63316],[88.38409,22.63118],[88.39212,22.62977],[88.3941,22.62815],[88.39561,22.62186],[88.39653,22.60119],[88.39538,22.59425],[88.39781,22.58681],[88.40563,22.5732],[88.40719,22.56581],[88.41075,22.55997]]]}}]}