{"type":"FeatureCollection","features":[{"type":"Feature","properties":{"id":"murshidabad","name":"Murshidabad","stateId":"west-bengal","stateName":"West Bengal","censuscode":333,"type":"district"},"geometry":{"type":"Polygon","coordinates":[[[88.01346,24.6689],[88.01373,24.66445],[88.01501,24.66173],[88.01625,24.66082],[88.01749,24.65993],[88.01749,24.65948],[88.0175,24.65904],[88.01924,24.65793],[88.01972,24.65793],[88.02099,24.65681],[88.021,24.65635],[88.02099,24.6559],[88.02229,24.65508],[88.02276,24.65509],[88.03543,24.64698],[88.03591,24.64607],[88.04265,24.64069],[88.04341,24.63933],[88.04342,24.63889],[88.04441,24.63824],[88.04714,24.63578],[88.04714,24.63532],[88.04765,24.63532],[88.04788,24.63465],[88.04839,24.63443],[88.04864,24.63331],[88.0489,24.63239],[88.05163,24.6306],[88.05414,24.62564],[88.0549,24.6252],[88.05491,24.62474],[88.05763,24.62251],[88.05814,24.62137],[88.0599,24.6189],[88.06115,24.61712],[88.06165,24.61689],[88.06435,24.61046],[88.06486,24.61023],[88.06631,24.60794],[88.0671,24.60628],[88.06742,24.60609],[88.06844,24.60542],[88.06983,24.59885],[88.07047,24.5975],[88.07147,24.59708],[88.07323,24.59279],[88.07472,24.59122],[88.07548,24.59076],[88.07673,24.58784],[88.07699,24.58648],[88.07751,24.58625],[88.0785,24.58422],[88.08225,24.58018],[88.08576,24.57296],[88.08676,24.57206],[88.08727,24.57185],[88.08857,24.56779],[88.08929,24.56734],[88.09028,24.56668],[88.09157,24.5633],[88.09504,24.55971],[88.09579,24.55701],[88.09654,24.55656],[88.09804,24.55521],[88.09929,24.55228],[88.10177,24.55025],[88.10306,24.54666],[88.10405,24.54595],[88.10587,24.54355],[88.10772,24.54171],[88.11053,24.53925],[88.11053,24.53879],[88.11054,24.53832],[88.11153,24.53767],[88.11204,24.53654],[88.11404,24.53475],[88.11444,24.53445],[88.11469,24.53429],[88.11469,24.53386],[88.11549,24.53363],[88.11575,24.53345],[88.11576,24.53299],[88.12174,24.52915],[88.12323,24.52781],[88.12324,24.52735],[88.12324,24.52689],[88.12574,24.52511],[88.1265,24.52376],[88.12668,24.52342],[88.12713,24.52304],[88.1277,24.52203],[88.12919,24.52114],[88.13219,24.51862],[88.1322,24.51815],[88.13271,24.51816],[88.13319,24.51679],[88.1343,24.51599],[88.13481,24.516],[88.14665,24.50716],[88.16596,24.5001],[88.17094,24.49675],[88.17789,24.49067],[88.17789,24.49023],[88.18113,24.48686],[88.18163,24.48686],[88.18317,24.4837],[88.18389,24.48325],[88.18462,24.48279],[88.18514,24.48054],[88.18712,24.47854],[88.1896,24.47494],[88.19365,24.46682],[88.19465,24.46591],[88.1949,24.46479],[88.19511,24.46462],[88.20061,24.4603],[88.20061,24.45986],[88.2024,24.45895],[88.20372,24.45812],[88.20588,24.45701],[88.21548,24.45432],[88.2187,24.45388],[88.21917,24.45411],[88.22432,24.45384],[88.22769,24.45367],[88.23191,24.45324],[88.23287,24.45347],[88.23386,24.45343],[88.23974,24.45278],[88.24147,24.45213],[88.24341,24.45203],[88.24912,24.44913],[88.27015,24.44223],[88.27363,24.44001],[88.27363,24.43955],[88.27687,24.43663],[88.27713,24.43574],[88.27836,24.43347],[88.27934,24.43279],[88.2811,24.43057],[88.2811,24.43011],[88.28455,24.42742],[88.28456,24.42696],[88.28531,24.42653],[88.28557,24.42561],[88.28656,24.42403],[88.28992,24.42148],[88.28992,24.42105],[88.29329,24.41865],[88.2933,24.4182],[88.29454,24.41731],[88.29528,24.41595],[88.29527,24.4155],[88.29551,24.41529],[88.29656,24.41438],[88.30038,24.41098],[88.30063,24.41077],[88.30063,24.41031],[88.30242,24.40923],[88.3062,24.40607],[88.30621,24.40562],[88.30621,24.40516],[88.32194,24.39384],[88.32219,24.39366],[88.3222,24.3932],[88.323,24.39297],[88.33198,24.38632],[88.33223,24.38614],[88.33223,24.38568],[88.34319,24.37782],[88.35455,24.37267],[88.35607,24.37239],[88.35731,24.37259],[88.36593,24.3707],[88.36891,24.37048],[88.36989,24.37072],[88.37037,24.37119],[88.37036,24.37073],[88.37581,24.3703],[88.38077,24.37104],[88.38368,24.37099],[88.39184,24.372],[88.39478,24.37299],[88.40366,24.37591],[88.42027,24.37902],[88.42734,24.37966],[88.4372,24.37884],[88.44413,24.3769],[88.44586,24.37638],[88.45305,24.37305],[88.47319,24.36213],[88.47704,24.36003],[88.48524,24.35647],[88.49485,24.35378],[88.49634,24.35289],[88.49833,24.35111],[88.49907,24.34999],[88.49907,24.34953],[88.49967,24.34919],[88.50797,24.34462],[88.52134,24.344],[88.52181,24.34422],[88.52429,24.34378],[88.52507,24.34344],[88.52799,24.34201],[88.53147,24.33863],[88.53245,24.33658],[88.53266,24.33609],[88.5332,24.33477],[88.53591,24.33253],[88.53591,24.33208],[88.53692,24.33139],[88.53793,24.32957],[88.53816,24.32914],[88.53867,24.32823],[88.54287,24.32487],[88.54338,24.32331],[88.54343,24.3231],[88.54393,24.32288],[88.54465,24.32035],[88.54563,24.31944],[88.54611,24.31924],[88.54648,24.31831],[88.54654,24.31811],[88.54985,24.30751],[88.55138,24.30274],[88.55412,24.30026],[88.55412,24.29983],[88.55437,24.29892],[88.55561,24.29825],[88.56027,24.29782],[88.56125,24.29805],[88.56741,24.3035],[88.56819,24.30681],[88.56882,24.3076],[88.56931,24.30907],[88.57299,24.32253],[88.57506,24.3239],[88.57914,24.32484],[88.57987,24.32461],[88.58333,24.32483],[88.58383,24.32506],[88.58654,24.32281],[88.58808,24.31626],[88.59228,24.3129],[88.59228,24.31244],[88.5955,24.3111],[88.60585,24.30933],[88.60661,24.30956],[88.60736,24.31046],[88.60783,24.31093],[88.60891,24.31523],[88.61173,24.31637],[88.61938,24.31528],[88.6253,24.31623],[88.62706,24.31577],[88.62854,24.31486],[88.63004,24.30944],[88.63175,24.30833],[88.63572,24.30675],[88.64066,24.30632],[88.64977,24.30861],[88.65251,24.30791],[88.65497,24.30729],[88.65888,24.31049],[88.65988,24.3132],[88.66051,24.31343],[88.66358,24.31434],[88.66471,24.31444],[88.67539,24.31506],[88.67811,24.31484],[88.68697,24.31412],[88.69281,24.31334],[88.7038,24.31133],[88.71244,24.30798],[88.72507,24.29965],[88.7268,24.2983],[88.72701,24.29768],[88.72728,24.29694],[88.72751,24.29582],[88.72877,24.29491],[88.72953,24.29468],[88.73026,24.29378],[88.73049,24.29159],[88.73074,24.28926],[88.7315,24.2888],[88.73199,24.2886],[88.73251,24.28658],[88.73349,24.2859],[88.73349,24.28545],[88.73497,24.28454],[88.73596,24.28195],[88.73594,24.28071],[88.73646,24.28036],[88.7377,24.27708],[88.7382,24.27688],[88.7387,24.27665],[88.73952,24.27461],[88.74107,24.26917],[88.74157,24.26897],[88.74184,24.26173],[88.74097,24.26127],[88.74047,24.25968],[88.74,24.25086],[88.73688,24.23388],[88.73594,24.22413],[88.73625,24.20717],[88.73593,24.19889],[88.72841,24.19855],[88.72386,24.19923],[88.72123,24.2017],[88.72024,24.19049],[88.71498,24.1782],[88.70802,24.16872],[88.70349,24.16756],[88.70287,24.15599],[88.70931,24.14881],[88.7105,24.14631],[88.71152,24.14041],[88.71215,24.12615],[88.71412,24.12049],[88.70773,24.12116],[88.70157,24.11975],[88.69998,24.11885],[88.69863,24.11772],[88.69864,24.11498],[88.70209,24.10912],[88.70178,24.09873],[88.70241,24.09737],[88.70389,24.09648],[88.7078,24.09537],[88.69861,24.09203],[88.69227,24.09089],[88.68412,24.08773],[88.67186,24.08528],[88.671,24.08328],[88.67316,24.08237],[88.68426,24.08127],[88.68367,24.07788],[88.68033,24.07697],[88.67265,24.07731],[88.66869,24.0737],[88.65867,24.07305],[88.65532,24.07169],[88.65383,24.06941],[88.65085,24.06307],[88.64849,24.05171],[88.64354,24.04421],[88.63544,24.03539],[88.63296,24.02886],[88.63428,24.02457],[88.65034,24.01973],[88.6525,24.01681],[88.6529,24.01253],[88.65107,24.00738],[88.64322,24.0008],[88.63813,23.99048],[88.63099,23.98274],[88.62568,23.97991],[88.6206,23.97997],[88.61567,23.98228],[88.60051,23.99566],[88.5968,24.00083],[88.59292,24.00763],[88.59195,24.01104],[88.59196,24.01894],[88.58959,24.02372],[88.58482,24.02815],[88.56842,24.03615],[88.5651,24.0384],[88.55415,24.04065],[88.5509,24.03801],[88.55022,24.03612],[88.55224,24.02645],[88.55188,24.02006],[88.5471,24.00598],[88.54622,24.00086],[88.54261,23.99519],[88.5363,23.99097],[88.53252,23.98962],[88.51741,23.99198],[88.51309,23.9886],[88.51356,23.98321],[88.51974,23.97678],[88.52499,23.96583],[88.52479,23.95408],[88.52226,23.94768],[88.51897,23.95083],[88.51404,23.95408],[88.51074,23.9541],[88.51014,23.94994],[88.50819,23.947],[88.50518,23.94704],[88.49826,23.9489],[88.49528,23.93793],[88.49105,23.93425],[88.48516,23.93425],[88.4765,23.93817],[88.47056,23.93765],[88.46163,23.92979],[88.45962,23.92425],[88.46201,23.92029],[88.47122,23.9158],[88.48063,23.91281],[88.50393,23.90771],[88.50981,23.90181],[88.51178,23.89449],[88.51113,23.88743],[88.50663,23.88313],[88.50201,23.88381],[88.48737,23.90058],[88.4823,23.90005],[88.47002,23.89004],[88.46653,23.88607],[88.46735,23.8816],[88.47761,23.85712],[88.47773,23.84674],[88.47505,23.83368],[88.47807,23.82491],[88.47719,23.81929],[88.46373,23.81983],[88.45273,23.8167],[88.45214,23.81976],[88.45308,23.82456],[88.45856,23.83586],[88.45853,23.83882],[88.45538,23.84736],[88.45112,23.85192],[88.44818,23.85276],[88.44414,23.85048],[88.44036,23.84299],[88.43234,23.82273],[88.42643,23.81138],[88.41877,23.79981],[88.4144,23.80083],[88.41425,23.80437],[88.4119,23.80647],[88.41093,23.80944],[88.41237,23.8133],[88.41079,23.81784],[88.40497,23.81743],[88.39051,23.81866],[88.38853,23.81601],[88.38898,23.81109],[88.38296,23.81039],[88.37119,23.81513],[88.37051,23.82174],[88.36786,23.82072],[88.36484,23.82358],[88.36051,23.82299],[88.35566,23.82651],[88.35162,23.81826],[88.34533,23.8109],[88.34186,23.80954],[88.33995,23.80666],[88.33302,23.8077],[88.32101,23.80434],[88.31622,23.80704],[88.30911,23.80913],[88.30352,23.8079],[88.29953,23.80886],[88.29439,23.80329],[88.27907,23.80608],[88.27613,23.80605],[88.27186,23.80979],[88.26989,23.80772],[88.2629,23.80465],[88.25928,23.79964],[88.25553,23.80043],[88.24787,23.79962],[88.24054,23.79863],[88.23814,23.79709],[88.23766,23.79351],[88.23978,23.77628],[88.24404,23.76547],[88.2432,23.76207],[88.23971,23.75856],[88.22998,23.75614],[88.22241,23.75655],[88.21756,23.76002],[88.21267,23.76479],[88.20718,23.76635],[88.20342,23.76632],[88.19771,23.76477],[88.19423,23.76367],[88.19018,23.76602],[88.18672,23.76401],[88.18274,23.76028],[88.17843,23.75498],[88.1727,23.75311],[88.16675,23.75286],[88.15966,23.74418],[88.15712,23.73418],[88.15558,23.73124],[88.14492,23.72976],[88.14219,23.73255],[88.14002,23.73355],[88.13373,23.73023],[88.13432,23.7345],[88.13077,23.73563],[88.13073,23.73714],[88.13337,23.73949],[88.1299,23.74322],[88.12745,23.74901],[88.12439,23.74921],[88.11978,23.74652],[88.11491,23.74655],[88.10889,23.7522],[88.09993,23.75203],[88.09785,23.75059],[88.09422,23.75102],[88.09542,23.73875],[88.09385,23.73766],[88.09576,23.73453],[88.09474,23.73274],[88.09079,23.73201],[88.08286,23.7209],[88.0781,23.72035],[88.07192,23.72276],[88.06201,23.72045],[88.05423,23.72577],[88.05427,23.7371],[88.05029,23.73899],[88.04962,23.74263],[88.04232,23.74517],[88.04048,23.74918],[88.0399,23.75446],[88.03824,23.75766],[88.03669,23.75882],[88.03722,23.76289],[88.03926,23.76722],[88.04238,23.77103],[88.04601,23.77164],[88.05839,23.76991],[88.06026,23.77593],[88.05935,23.77883],[88.04909,23.77975],[88.04804,23.78722],[88.04038,23.7906],[88.03761,23.7941],[88.03136,23.79404],[88.03066,23.8027],[88.02971,23.80606],[88.02781,23.80779],[88.02754,23.81014],[88.03022,23.81476],[88.02956,23.8164],[88.02679,23.81767],[88.02558,23.81989],[88.02522,23.82453],[88.02038,23.82858],[88.01374,23.83883],[88.00972,23.84183],[88.00726,23.84522],[88.00304,23.84078],[88,23.83977],[87.99394,23.83886],[87.9865,23.83879],[87.9808,23.84087],[87.97491,23.83783],[87.97329,23.84361],[87.97155,23.84174],[87.96863,23.83685],[87.9695,23.83425],[87.97355,23.83038],[87.97195,23.82378],[87.96914,23.82097],[87.9688,23.80607],[87.96617,23.8033],[87.96483,23.80753],[87.96073,23.80905],[87.95684,23.80861],[87.94678,23.81727],[87.93492,23.82384],[87.93561,23.82687],[87.9351,23.83131],[87.92951,23.83597],[87.92672,23.84006],[87.9135,23.84176],[87.90836,23.84146],[87.90594,23.83926],[87.90428,23.83544],[87.90014,23.83495],[87.89529,23.83596],[87.89468,23.8423],[87.89216,23.8526],[87.89214,23.85726],[87.88876,23.85721],[87.88358,23.85524],[87.88207,23.85176],[87.87839,23.85218],[87.86993,23.86909],[87.86643,23.86898],[87.86409,23.87035],[87.86889,23.87211],[87.86857,23.87464],[87.86529,23.87902],[87.86122,23.87893],[87.85513,23.88635],[87.85345,23.8923],[87.85379,23.89569],[87.84828,23.90339],[87.84723,23.9068],[87.84794,23.9122],[87.85426,23.9123],[87.86507,23.91405],[87.8696,23.91713],[87.86643,23.93044],[87.87247,23.93326],[87.87267,23.93926],[87.86719,23.94278],[87.86713,23.95055],[87.87098,23.95495],[87.86639,23.96053],[87.86117,23.9645],[87.85791,23.96808],[87.85762,23.97203],[87.85959,23.97306],[87.86506,23.97155],[87.86721,23.97429],[87.86777,23.97647],[87.8671,23.97791],[87.87071,23.98328],[87.87005,23.98601],[87.86834,23.98752],[87.86823,23.99146],[87.86877,23.99779],[87.87002,24.00046],[87.87435,24.01209],[87.87584,24.01647],[87.87242,24.01896],[87.86563,24.02186],[87.86523,24.02619],[87.86635,24.03009],[87.87167,24.0342],[87.87523,24.03396],[87.87723,24.03738],[87.87899,24.0415],[87.88476,24.04537],[87.88964,24.04879],[87.89455,24.054],[87.89683,24.05799],[87.89714,24.06398],[87.89732,24.069],[87.8975,24.07442],[87.8981,24.07982],[87.90071,24.08491],[87.90329,24.09109],[87.90672,24.09449],[87.91025,24.0988],[87.91016,24.10313],[87.90843,24.10691],[87.90335,24.10615],[87.90069,24.10741],[87.89845,24.11104],[87.89758,24.1144],[87.90117,24.11843],[87.90438,24.12234],[87.90585,24.1267],[87.90782,24.13151],[87.91215,24.13546],[87.91567,24.13902],[87.91409,24.14102],[87.90925,24.1403],[87.90633,24.14048],[87.90386,24.14249],[87.9008,24.14572],[87.90036,24.14832],[87.90091,24.1508],[87.89862,24.15188],[87.89953,24.15353],[87.90291,24.15335],[87.90442,24.15747],[87.90474,24.16035],[87.90601,24.16408],[87.90823,24.16559],[87.91074,24.16347],[87.91366,24.16243],[87.9177,24.16455],[87.92009,24.16496],[87.92467,24.16244],[87.92535,24.16526],[87.92736,24.16845],[87.92933,24.16991],[87.9311,24.1708],[87.93147,24.17362],[87.93298,24.17619],[87.9348,24.17442],[87.93731,24.17737],[87.93703,24.18182],[87.93628,24.18495],[87.93547,24.18785],[87.93227,24.18751],[87.929,24.18648],[87.92621,24.18757],[87.92506,24.18973],[87.92652,24.19409],[87.92991,24.19685],[87.93502,24.19911],[87.93925,24.19799],[87.94357,24.19439],[87.94843,24.19304],[87.95669,24.19135],[87.96147,24.18862],[87.96778,24.18815],[87.97965,24.19368],[87.98018,24.19528],[87.98367,24.19451],[87.98665,24.19421],[87.98819,24.19689],[87.98871,24.20029],[87.98875,24.20434],[87.98975,24.20665],[87.98979,24.2082],[87.98942,24.20919],[87.98841,24.21111],[87.98969,24.21276],[87.99261,24.21257],[87.99431,24.21051],[87.99372,24.2088],[87.99389,24.20759],[87.99514,24.20779],[87.99879,24.21058],[87.99998,24.21097],[88.00706,24.21513],[88.00485,24.21748],[88.00846,24.21895],[88.00713,24.22426],[88.00002,24.22705],[87.99602,24.22699],[87.99587,24.23506],[87.9961,24.24268],[87.99998,24.24272],[88.00644,24.2435],[88.0238,24.24312],[88.02557,24.24413],[88.02685,24.24642],[88.02501,24.25143],[88.02767,24.26032],[88.02489,24.26167],[88.01897,24.27323],[88.01707,24.28145],[88.01718,24.2864],[88.02075,24.29144],[88.02083,24.29269],[88.0169,24.29907],[88.01807,24.30516],[88.01527,24.31406],[88.00942,24.31226],[87.99998,24.31159],[87.99654,24.31208],[87.99622,24.31491],[87.99905,24.31808],[87.99844,24.32333],[87.99636,24.32551],[87.99338,24.32874],[87.98667,24.33155],[87.98191,24.33424],[87.97538,24.33662],[87.97014,24.33759],[87.96548,24.33653],[87.96254,24.33953],[87.96082,24.3443],[87.96034,24.34864],[87.95871,24.35178],[87.95703,24.35493],[87.95704,24.35863],[87.95937,24.36198],[87.96152,24.36604],[87.9637,24.37159],[87.9674,24.37181],[87.9731,24.37163],[87.97449,24.3753],[87.97104,24.37773],[87.97144,24.38194],[87.97198,24.387],[87.97224,24.39323],[87.97094,24.39724],[87.97244,24.40246],[87.97386,24.40751],[87.9755,24.41123],[87.97854,24.41509],[87.97791,24.42162],[87.97645,24.42384],[87.97574,24.42813],[87.97483,24.43582],[87.97501,24.44153],[87.97435,24.44592],[87.97432,24.45003],[87.97514,24.45336],[87.97748,24.45781],[87.97641,24.46285],[87.97461,24.47004],[87.97097,24.47554],[87.96621,24.47898],[87.96586,24.48308],[87.96215,24.48575],[87.95934,24.48621],[87.94608,24.48849],[87.94455,24.49025],[87.94638,24.49338],[87.95046,24.4966],[87.94866,24.5009],[87.9484,24.50627],[87.94913,24.51116],[87.95086,24.51626],[87.94669,24.51761],[87.94294,24.51861],[87.94164,24.52481],[87.93824,24.53058],[87.93483,24.53573],[87.9286,24.53741],[87.92455,24.54159],[87.91979,24.54185],[87.91301,24.5417],[87.90841,24.54086],[87.90107,24.54049],[87.89262,24.5414],[87.89278,24.55224],[87.89239,24.5639],[87.89496,24.57308],[87.89533,24.5759],[87.89656,24.58079],[87.90116,24.58179],[87.90245,24.58361],[87.90448,24.58473],[87.90835,24.58356],[87.91051,24.58496],[87.9119,24.58851],[87.9138,24.59233],[87.91504,24.59502],[87.91422,24.59753],[87.91271,24.60055],[87.91282,24.60552],[87.9132,24.60932],[87.90799,24.60918],[87.90379,24.60921],[87.89858,24.60948],[87.8938,24.60935],[87.89312,24.60647],[87.89123,24.60628],[87.88632,24.60811],[87.8831,24.61059],[87.88108,24.60999],[87.88042,24.61104],[87.87864,24.61044],[87.87785,24.61185],[87.8786,24.6146],[87.87996,24.61665],[87.88211,24.61742],[87.88422,24.61588],[87.88727,24.61472],[87.89062,24.61293],[87.89337,24.61247],[87.89628,24.61334],[87.89893,24.61409],[87.90141,24.613],[87.90455,24.61254],[87.90671,24.61371],[87.90722,24.61763],[87.90648,24.62116],[87.90691,24.62369],[87.90736,24.62703],[87.90396,24.62686],[87.90049,24.62561],[87.89688,24.62481],[87.89226,24.62559],[87.88973,24.62777],[87.89193,24.63062],[87.89397,24.63254],[87.89738,24.63316],[87.90199,24.63152],[87.9051,24.63054],[87.90712,24.63055],[87.90939,24.63155],[87.91139,24.63376],[87.91279,24.63789],[87.91308,24.6432],[87.91294,24.64793],[87.91397,24.65241],[87.91524,24.65602],[87.91852,24.65965],[87.91671,24.66338],[87.9116,24.66544],[87.90833,24.66804],[87.90505,24.67041],[87.9002,24.66958],[87.89552,24.6714],[87.89177,24.67517],[87.89141,24.67916],[87.89456,24.68285],[87.89791,24.68682],[87.90172,24.69172],[87.90294,24.69602],[87.90417,24.70073],[87.90134,24.7035],[87.90267,24.70751],[87.904,24.71095],[87.90608,24.71154],[87.90808,24.71098],[87.90832,24.71295],[87.90849,24.71559],[87.90732,24.71954],[87.906,24.72263],[87.90082,24.72405],[87.89596,24.72363],[87.89238,24.72647],[87.89064,24.73031],[87.88941,24.73449],[87.88764,24.73729],[87.88299,24.74009],[87.88014,24.7361],[87.87607,24.73105],[87.8726,24.73042],[87.86624,24.73227],[87.85758,24.73596],[87.84496,24.7392],[87.83738,24.74659],[87.8306,24.75321],[87.82575,24.75307],[87.82135,24.75303],[87.81917,24.75435],[87.82131,24.7606],[87.82333,24.76696],[87.82737,24.76769],[87.83093,24.77029],[87.83312,24.7729],[87.83365,24.77768],[87.83529,24.78394],[87.83897,24.78883],[87.84281,24.78876],[87.84375,24.78568],[87.84428,24.78111],[87.84216,24.77832],[87.83927,24.77561],[87.83905,24.77065],[87.83904,24.76684],[87.84049,24.76421],[87.84412,24.76634],[87.84771,24.76385],[87.85202,24.76203],[87.85547,24.76226],[87.85981,24.7653],[87.86371,24.7688],[87.86524,24.77298],[87.87064,24.77531],[87.87174,24.77713],[87.8701,24.77953],[87.8718,24.78342],[87.87335,24.78806],[87.87531,24.79183],[87.8776,24.79289],[87.87818,24.79074],[87.88001,24.79076],[87.88191,24.79465],[87.88275,24.79896],[87.88287,24.80196],[87.8811,24.80407],[87.87812,24.8062],[87.87798,24.80852],[87.87738,24.8128],[87.87556,24.81618],[87.87341,24.81905],[87.87158,24.82169],[87.87295,24.82391],[87.87453,24.82434],[87.87999,24.82366],[87.88698,24.82133],[87.89181,24.8206],[87.89597,24.82381],[87.90143,24.82353],[87.90367,24.82546],[87.90116,24.8285],[87.89918,24.8301],[87.90022,24.83481],[87.90096,24.84051],[87.90252,24.84268],[87.90304,24.8437],[87.89993,24.84867],[87.89661,24.84908],[87.89426,24.85385],[87.90228,24.85526],[87.91079,24.83865],[87.91767,24.82812],[87.92373,24.82022],[87.93177,24.81337],[87.93717,24.80709],[87.94479,24.79828],[87.95369,24.78847],[87.96072,24.77835],[87.96632,24.7697],[87.96857,24.76302],[87.97057,24.75675],[87.97051,24.7481],[87.96993,24.74113],[87.96994,24.73565],[87.97038,24.72993],[87.96886,24.72303],[87.96784,24.71738],[87.96852,24.71101],[87.96619,24.70522],[87.96352,24.70065],[87.96039,24.69551],[87.96131,24.68863],[87.96543,24.68084],[87.97461,24.67258],[87.98406,24.66794],[87.99031,24.66595],[87.99526,24.66029],[87.9994,24.65766],[87.99998,24.6574],[88.00476,24.66101],[88.00971,24.66824],[88.01346,24.6689]]]}}]}