{"type":"FeatureCollection","features":[{"type":"Feature","properties":{"id":"nadia","name":"Nadia","stateId":"west-bengal","stateName":"West Bengal","censuscode":336,"type":"district"},"geometry":{"type":"MultiPolygon","coordinates":[[[[88.73406,24.06422],[88.73479,24.06404],[88.73947,24.06493],[88.74019,24.06426],[88.74074,24.06289],[88.74147,24.06105],[88.74119,24.05795],[88.74046,24.05725],[88.73528,24.05621],[88.73162,24.05543],[88.73006,24.05485],[88.72716,24.05414],[88.73043,24.05056],[88.73729,24.0498],[88.73927,24.0482],[88.74185,24.03984],[88.74302,24.03624],[88.7413,24.0249],[88.74155,24.01723],[88.74159,24.01541],[88.7389,24.01246],[88.73558,24.01063],[88.73326,24.00679],[88.73188,24.00175],[88.73101,23.99618],[88.7342,23.99639],[88.74119,23.99995],[88.74595,24.00247],[88.74618,24.003],[88.74878,24.00503],[88.74985,24.00554],[88.75262,24.00668],[88.76254,24.00984],[88.76622,24.00692],[88.76883,23.9972],[88.76946,23.99585],[88.77026,23.9952],[88.77245,23.99342],[88.77367,23.99246],[88.77508,23.9892],[88.77476,23.98647],[88.77267,23.98352],[88.77062,23.98404],[88.77045,23.98406],[88.76437,23.98597],[88.75891,23.98766],[88.75718,23.98788],[88.75186,23.98744],[88.74489,23.98626],[88.74417,23.98511],[88.73999,23.98193],[88.73877,23.97988],[88.73852,23.97919],[88.73906,23.96678],[88.73894,23.96609],[88.7382,23.96384],[88.73759,23.9634],[88.7376,23.96181],[88.7382,23.96046],[88.74277,23.95618],[88.74277,23.95572],[88.74425,23.9546],[88.74464,23.95074],[88.74415,23.95005],[88.74354,23.94915],[88.74356,23.94644],[88.74605,23.94034],[88.74606,23.93763],[88.7457,23.93581],[88.74457,23.93447],[88.74433,23.9347],[88.73966,23.93399],[88.73868,23.93354],[88.73808,23.93307],[88.73674,23.93148],[88.73625,23.92833],[88.7375,23.92335],[88.73704,23.91611],[88.73533,23.91475],[88.73482,23.91454],[88.73163,23.91518],[88.72713,23.91713],[88.72497,23.91721],[88.72474,23.91744],[88.71688,23.91579],[88.71472,23.91616],[88.71391,23.91625],[88.70826,23.91577],[88.70591,23.91465],[88.70482,23.9135],[88.70446,23.91145],[88.70616,23.90939],[88.70757,23.90806],[88.70829,23.90741],[88.7087,23.90565],[88.70938,23.90336],[88.70871,23.90182],[88.70756,23.90062],[88.70169,23.90241],[88.69588,23.90147],[88.69413,23.89937],[88.69118,23.89382],[88.69058,23.89358],[88.68917,23.89083],[88.68328,23.88832],[88.67725,23.88712],[88.67075,23.88578],[88.67013,23.88532],[88.6683,23.88258],[88.66857,23.87399],[88.66737,23.87173],[88.66245,23.86989],[88.659,23.87011],[88.64941,23.86995],[88.64525,23.86849],[88.64181,23.86507],[88.63765,23.86347],[88.63692,23.86321],[88.63323,23.86366],[88.63125,23.86456],[88.62977,23.86548],[88.62841,23.86839],[88.62794,23.86862],[88.62628,23.87539],[88.62505,23.87631],[88.62185,23.87741],[88.61609,23.87603],[88.61524,23.87534],[88.61132,23.86875],[88.60764,23.86626],[88.60641,23.86604],[88.60397,23.86669],[88.60396,23.86715],[88.59608,23.87231],[88.59509,23.87254],[88.59116,23.87161],[88.58869,23.86979],[88.58726,23.86595],[88.58505,23.86389],[88.58101,23.86254],[88.57989,23.86162],[88.57942,23.8562],[88.58485,23.85395],[88.59001,23.8533],[88.59077,23.85262],[88.59105,23.85137],[88.59153,23.85092],[88.592,23.84674],[88.59135,23.84012],[88.59144,23.83759],[88.59155,23.83632],[88.59528,23.82821],[88.60334,23.82369],[88.60558,23.81875],[88.59974,23.81573],[88.59344,23.81533],[88.59314,23.81531],[88.59058,23.81417],[88.59033,23.81325],[88.59119,23.81031],[88.59268,23.80896],[88.59268,23.80853],[88.59366,23.80807],[88.59588,23.80627],[88.59602,23.80266],[88.5959,23.80236],[88.59326,23.80159],[88.59229,23.80053],[88.59007,23.79983],[88.58982,23.80006],[88.58885,23.79982],[88.58783,23.79966],[88.58583,23.79808],[88.58467,23.79061],[88.58418,23.78994],[88.57902,23.78845],[88.57637,23.78825],[88.56746,23.78851],[88.56542,23.7879],[88.56344,23.78732],[88.56315,23.78608],[88.56356,23.78449],[88.56356,23.78373],[88.56406,23.7835],[88.56406,23.78307],[88.56407,23.78261],[88.56963,23.77888],[88.57255,23.77725],[88.57686,23.77474],[88.58007,23.77205],[88.58169,23.76798],[88.58267,23.7673],[88.58248,23.7587],[88.58189,23.75712],[88.57965,23.75485],[88.5785,23.75227],[88.57773,23.75055],[88.57761,23.74554],[88.57851,23.73833],[88.57664,23.73328],[88.57515,23.72657],[88.56952,23.7193],[88.56807,23.71681],[88.5684,23.71367],[88.56853,23.71196],[88.56966,23.70623],[88.57334,23.6933],[88.57457,23.69037],[88.57525,23.68481],[88.57773,23.67207],[88.57762,23.66981],[88.57712,23.66935],[88.57274,23.66796],[88.57174,23.66636],[88.57151,23.66454],[88.57216,23.66004],[88.57131,23.65912],[88.56723,23.65173],[88.56546,23.64781],[88.56548,23.64418],[88.56624,23.64215],[88.56893,23.64058],[88.57028,23.6402],[88.57051,23.64018],[88.57232,23.63966],[88.57974,23.6386],[88.58184,23.6384],[88.5935,23.63978],[88.59617,23.63867],[88.5968,23.63665],[88.59697,23.6285],[88.59476,23.62081],[88.59408,23.61694],[88.58847,23.61308],[88.58658,23.61036],[88.58555,23.60877],[88.58541,23.60475],[88.5846,23.60289],[88.59116,23.6021],[88.59611,23.60473],[88.59904,23.60518],[88.60273,23.60568],[88.60371,23.60545],[88.60443,23.60477],[88.60444,23.60321],[88.60444,23.60072],[88.60593,23.60027],[88.60911,23.6021],[88.6096,23.6021],[88.61082,23.60301],[88.61819,23.60421],[88.62405,23.60509],[88.62455,23.60486],[88.63017,23.60693],[88.63117,23.6076],[88.64074,23.60856],[88.64098,23.60834],[88.64146,23.6081],[88.64735,23.61061],[88.64858,23.61018],[88.64858,23.60972],[88.64909,23.60949],[88.64898,23.60522],[88.64861,23.6043],[88.64297,23.59929],[88.64239,23.59545],[88.64339,23.59456],[88.64523,23.59116],[88.64548,23.59025],[88.6472,23.58981],[88.64842,23.58961],[88.65162,23.58689],[88.65163,23.58646],[88.6521,23.58645],[88.65316,23.5832],[88.65471,23.57489],[88.65612,23.56767],[88.65909,23.55978],[88.65959,23.55956],[88.66034,23.55912],[88.66034,23.55867],[88.66106,23.5582],[88.66254,23.55573],[88.6628,23.55484],[88.66525,23.5528],[88.66525,23.55237],[88.66525,23.55191],[88.66817,23.55077],[88.67802,23.5481],[88.68082,23.54591],[88.68083,23.54545],[88.68787,23.54116],[88.68812,23.54023],[88.68873,23.53888],[88.68983,23.53753],[88.69036,23.53142],[88.696,23.52781],[88.69897,23.51969],[88.70218,23.51768],[88.70413,23.51723],[88.70904,23.51656],[88.71004,23.51679],[88.71223,23.51611],[88.71443,23.51455],[88.71493,23.51343],[88.71568,23.51208],[88.72,23.51012],[88.72207,23.5096],[88.7287,23.51144],[88.73089,23.51053],[88.73437,23.49901],[88.73971,23.49567],[88.74215,23.49407],[88.74246,23.49387],[88.74346,23.49295],[88.74643,23.48301],[88.74962,23.48167],[88.75159,23.48145],[88.75281,23.48168],[88.75306,23.48191],[88.75683,23.48082],[88.75844,23.48034],[88.75969,23.48127],[88.75989,23.4857],[88.76029,23.48759],[88.7631,23.48827],[88.76604,23.48715],[88.76857,23.4855],[88.77393,23.48201],[88.77549,23.48353],[88.77561,23.4865],[88.77413,23.49019],[88.77363,23.49147],[88.77374,23.49398],[88.77421,23.49488],[88.78291,23.49987],[88.78609,23.50034],[88.7874,23.49964],[88.7887,23.49881],[88.79027,23.49788],[88.79054,23.49792],[88.79175,23.4977],[88.79985,23.49858],[88.80058,23.49837],[88.80195,23.49709],[88.80281,23.49376],[88.80216,23.491],[88.79874,23.4875],[88.79823,23.48529],[88.79957,23.48508],[88.7995,23.4837],[88.80122,23.48302],[88.80219,23.48349],[88.80356,23.48276],[88.80307,23.47937],[88.80136,23.47755],[88.80059,23.47704],[88.80024,23.47684],[88.79403,23.47277],[88.79217,23.46847],[88.79184,23.46711],[88.79178,23.46113],[88.79286,23.45106],[88.79483,23.44722],[88.79484,23.4445],[88.79438,23.44361],[88.79338,23.44292],[88.78702,23.44198],[88.78567,23.44108],[88.78434,23.43856],[88.78361,23.43813],[88.78142,23.43814],[88.77858,23.44006],[88.77696,23.4415],[88.77695,23.44194],[88.77648,23.44194],[88.77647,23.4424],[88.7733,23.44579],[88.77231,23.44601],[88.76875,23.44508],[88.76788,23.44439],[88.76645,23.44009],[88.76381,23.42586],[88.76086,23.42131],[88.76186,23.41523],[88.76286,23.4125],[88.76336,23.41227],[88.76386,23.41204],[88.7635,23.40821],[88.76174,23.40417],[88.76165,23.4039],[88.76043,23.40344],[88.75787,23.4014],[88.75654,23.40004],[88.75605,23.39777],[88.75636,23.39191],[88.75692,23.38977],[88.76077,23.38443],[88.7616,23.38195],[88.7621,23.38173],[88.76297,23.37742],[88.76375,23.3736],[88.76422,23.37336],[88.76469,23.37314],[88.7662,23.36999],[88.76572,23.36411],[88.76279,23.36137],[88.76133,23.36069],[88.75911,23.36089],[88.75829,23.36119],[88.75642,23.3618],[88.75362,23.36044],[88.75312,23.36043],[88.75083,23.35295],[88.75034,23.3525],[88.7466,23.35186],[88.74586,23.35116],[88.74389,23.35162],[88.73907,23.35089],[88.73785,23.35065],[88.73699,23.34996],[88.73702,23.34546],[88.73762,23.34364],[88.74107,23.34095],[88.74119,23.34049],[88.74132,23.34002],[88.74147,23.33392],[88.74041,23.33168],[88.74001,23.33076],[88.74015,23.32874],[88.74221,23.3279],[88.74824,23.32356],[88.74972,23.32197],[88.75033,23.32039],[88.75071,23.31678],[88.74948,23.31223],[88.74705,23.30907],[88.74559,23.30861],[88.7434,23.30906],[88.73924,23.31085],[88.73923,23.31132],[88.73849,23.31175],[88.73804,23.3131],[88.73754,23.31333],[88.73578,23.31806],[88.73428,23.3192],[88.73185,23.31942],[88.73038,23.31919],[88.72953,23.31849],[88.72904,23.31714],[88.72868,23.31375],[88.72968,23.31307],[88.73115,23.31172],[88.73092,23.30878],[88.73007,23.30696],[88.72921,23.30606],[88.72885,23.30348],[88.72617,23.30147],[88.7245,23.3014],[88.72012,23.30244],[88.71987,23.30312],[88.71866,23.30289],[88.71791,23.30312],[88.71668,23.30472],[88.71553,23.30621],[88.71314,23.31107],[88.70726,23.3073],[88.70338,23.30393],[88.70083,23.29894],[88.70023,23.29532],[88.7006,23.2942],[88.70111,23.29398],[88.7011,23.29352],[88.70283,23.29215],[88.70698,23.2906],[88.70994,23.29127],[88.71166,23.29039],[88.71442,23.28428],[88.71492,23.28406],[88.71619,23.28114],[88.71745,23.27933],[88.71829,23.27775],[88.71879,23.27776],[88.7188,23.27729],[88.71927,23.27617],[88.72075,23.27502],[88.7259,23.27303],[88.72714,23.27211],[88.72717,23.26645],[88.723,23.26373],[88.72226,23.26237],[88.72227,23.25876],[88.72375,23.25516],[88.72425,23.25516],[88.72451,23.25447],[88.72866,23.25177],[88.73461,23.25019],[88.73477,23.2501],[88.73543,23.2499],[88.73757,23.24843],[88.75049,23.23988],[88.75297,23.23929],[88.75323,23.23781],[88.74883,23.23473],[88.73862,23.23497],[88.73427,23.24023],[88.72557,23.24085],[88.7235,23.23983],[88.72182,23.23562],[88.71638,23.23806],[88.71236,23.23544],[88.7112,23.22428],[88.70777,23.21899],[88.70791,23.21592],[88.71654,23.21443],[88.71806,23.21256],[88.71882,23.19605],[88.71991,23.18903],[88.72042,23.1863],[88.72288,23.18448],[88.72229,23.18235],[88.71806,23.18176],[88.71712,23.17696],[88.72142,23.17755],[88.72048,23.17281],[88.71575,23.1724],[88.71367,23.1704],[88.71237,23.17048],[88.71585,23.16581],[88.71328,23.16473],[88.7097,23.16715],[88.70814,23.16583],[88.70193,23.16666],[88.70015,23.1639],[88.70137,23.16197],[88.70097,23.15983],[88.70162,23.15722],[88.6976,23.15426],[88.70685,23.13603],[88.70306,23.13086],[88.70289,23.12803],[88.69887,23.12431],[88.69697,23.11709],[88.69738,23.11142],[88.68663,23.10962],[88.68406,23.10809],[88.68692,23.10453],[88.68322,23.09814],[88.68004,23.09679],[88.67826,23.09408],[88.6811,23.08983],[88.68212,23.08734],[88.68601,23.07784],[88.68588,23.07229],[88.69099,23.06638],[88.69432,23.0675],[88.6976,23.06729],[88.69878,23.0649],[88.69803,23.06289],[88.69472,23.06084],[88.68984,23.05545],[88.68463,23.05313],[88.68748,23.05032],[88.68631,23.04842],[88.6835,23.04822],[88.68848,23.02563],[88.68689,23.02124],[88.68343,23.01949],[88.68243,23.01562],[88.67631,23.015],[88.67718,23.0067],[88.68047,23.00446],[88.67948,23.00076],[88.67954,22.99844],[88.67397,22.99627],[88.66926,22.99301],[88.66424,22.98301],[88.66418,22.97048],[88.66562,22.95754],[88.66513,22.9513],[88.67257,22.94686],[88.68026,22.94432],[88.67642,22.93952],[88.6696,22.94142],[88.66476,22.93871],[88.65881,22.93703],[88.66378,22.92842],[88.65801,22.9212],[88.6579,22.9168],[88.66063,22.90652],[88.66732,22.90047],[88.66919,22.89429],[88.67217,22.88892],[88.66877,22.8839],[88.65942,22.87395],[88.65806,22.88031],[88.65371,22.88411],[88.64597,22.88261],[88.64517,22.88024],[88.63543,22.88],[88.62466,22.8808],[88.62199,22.88432],[88.62117,22.89535],[88.61572,22.90142],[88.6141,22.90459],[88.60641,22.90418],[88.60406,22.90816],[88.59142,22.91063],[88.58639,22.90854],[88.58193,22.91201],[88.57071,22.9139],[88.56723,22.92008],[88.56532,22.91707],[88.56128,22.92099],[88.55521,22.91965],[88.54727,22.92519],[88.5304,22.931],[88.5265,22.93064],[88.52408,22.93145],[88.52,22.93052],[88.51527,22.93404],[88.51538,22.94056],[88.51054,22.94292],[88.50887,22.94199],[88.49783,22.93683],[88.49108,22.93537],[88.47801,22.93437],[88.47012,22.94434],[88.46378,22.95005],[88.43811,22.95167],[88.42608,22.95592],[88.41778,22.95214],[88.41718,22.94451],[88.41167,22.94525],[88.41157,22.95444],[88.41036,22.96529],[88.40686,22.97586],[88.40715,22.98557],[88.41004,22.99297],[88.41431,23.00086],[88.41628,23.01007],[88.41906,23.01565],[88.42538,23.02238],[88.43199,23.02568],[88.43648,23.0268],[88.44419,23.02742],[88.45012,23.03073],[88.45558,23.03671],[88.4594,23.04432],[88.4615,23.06173],[88.46411,23.07108],[88.46996,23.0804],[88.47511,23.08308],[88.4799,23.08257],[88.48667,23.07984],[88.49394,23.07884],[88.49951,23.08133],[88.50473,23.0862],[88.50786,23.09399],[88.50803,23.10134],[88.50631,23.10773],[88.50528,23.11607],[88.50261,23.12403],[88.49208,23.12998],[88.47017,23.13019],[88.45916,23.13123],[88.4552,23.13387],[88.45307,23.14015],[88.45308,23.14756],[88.45708,23.1624],[88.45995,23.16926],[88.46548,23.18733],[88.47598,23.2097],[88.4753,23.21584],[88.47268,23.22183],[88.46717,23.22582],[88.45984,23.22768],[88.45197,23.22562],[88.4417,23.22172],[88.42516,23.21388],[88.41978,23.21211],[88.41248,23.21146],[88.40669,23.21209],[88.38714,23.21957],[88.37651,23.22742],[88.36382,23.23373],[88.35794,23.2376],[88.35629,23.24144],[88.35765,23.24542],[88.36518,23.25399],[88.36446,23.25642],[88.35784,23.26575],[88.35354,23.27661],[88.35321,23.28078],[88.34229,23.2795],[88.33557,23.28193],[88.33555,23.2854],[88.33768,23.29198],[88.34474,23.29192],[88.35045,23.28973],[88.35159,23.29117],[88.34607,23.29903],[88.34213,23.30306],[88.33075,23.31237],[88.32968,23.31562],[88.33124,23.32209],[88.33426,23.32415],[88.33789,23.32539],[88.33933,23.33077],[88.3337,23.32989],[88.33882,23.33975],[88.34549,23.33963],[88.34762,23.34638],[88.33516,23.35218],[88.33192,23.35828],[88.33294,23.36609],[88.34206,23.37655],[88.35237,23.38347],[88.35695,23.38933],[88.35958,23.39567],[88.35874,23.40443],[88.35533,23.41106],[88.34881,23.41407],[88.34235,23.41245],[88.33293,23.41219],[88.33223,23.41705],[88.33855,23.41833],[88.34362,23.42367],[88.35309,23.42788],[88.35234,23.43292],[88.34915,23.4326],[88.34604,23.43408],[88.34878,23.4432],[88.34806,23.44523],[88.34354,23.44915],[88.34242,23.45438],[88.3443,23.45529],[88.35524,23.45646],[88.35978,23.45452],[88.36413,23.45685],[88.37007,23.45778],[88.36858,23.45953],[88.36385,23.46049],[88.36077,23.46336],[88.36337,23.46746],[88.36803,23.46979],[88.36615,23.47444],[88.36568,23.47774],[88.38299,23.48859],[88.39153,23.49674],[88.39144,23.49998],[88.38968,23.50405],[88.38605,23.50825],[88.38136,23.51356],[88.37512,23.51877],[88.37121,23.52669],[88.36872,23.52763],[88.36545,23.53079],[88.36184,23.54298],[88.36016,23.54341],[88.35877,23.54244],[88.35469,23.54543],[88.35014,23.54732],[88.33294,23.54626],[88.32472,23.54945],[88.3212,23.54798],[88.32106,23.54635],[88.31794,23.54597],[88.31144,23.54042],[88.29883,23.54255],[88.29632,23.54118],[88.29559,23.53777],[88.28886,23.53904],[88.28301,23.53637],[88.27889,23.53693],[88.27704,23.54523],[88.27712,23.55171],[88.27939,23.55905],[88.2912,23.55878],[88.29626,23.55931],[88.30219,23.56262],[88.31065,23.56503],[88.32162,23.57293],[88.32502,23.57453],[88.3237,23.57923],[88.31959,23.58558],[88.31662,23.58844],[88.30467,23.58333],[88.28977,23.5757],[88.28697,23.57711],[88.28696,23.58198],[88.28913,23.5856],[88.28412,23.59011],[88.28493,23.60064],[88.28309,23.60459],[88.28109,23.60426],[88.27911,23.59513],[88.27134,23.59902],[88.26895,23.60905],[88.26558,23.61574],[88.26191,23.61751],[88.25946,23.61632],[88.2556,23.61797],[88.24431,23.6154],[88.23323,23.61444],[88.22834,23.60724],[88.22394,23.60479],[88.21818,23.60501],[88.21442,23.60949],[88.20636,23.61599],[88.1992,23.62004],[88.17774,23.6187],[88.1685,23.62033],[88.15693,23.62737],[88.15492,23.63167],[88.15324,23.63945],[88.14387,23.64595],[88.13836,23.65195],[88.13743,23.65908],[88.1419,23.6748],[88.14627,23.68508],[88.15389,23.6958],[88.16218,23.70541],[88.16812,23.71046],[88.17584,23.71237],[88.18593,23.71362],[88.18679,23.71188],[88.19028,23.71087],[88.20361,23.71047],[88.2279,23.7049],[88.2301,23.70615],[88.23387,23.70636],[88.23623,23.71056],[88.23632,23.71375],[88.2343,23.71742],[88.23027,23.72086],[88.21386,23.72597],[88.20881,23.72833],[88.20447,23.72634],[88.20167,23.72775],[88.19648,23.73381],[88.19581,23.73631],[88.20008,23.7427],[88.19577,23.74992],[88.19671,23.75623],[88.19771,23.76477],[88.20342,23.76632],[88.20718,23.76635],[88.21267,23.76479],[88.21756,23.76002],[88.22241,23.75655],[88.22998,23.75614],[88.23971,23.75856],[88.2432,23.76207],[88.24404,23.76547],[88.23978,23.77628],[88.23766,23.79351],[88.23814,23.79709],[88.24054,23.79863],[88.24787,23.79962],[88.25553,23.80043],[88.25928,23.79964],[88.2629,23.80465],[88.26989,23.80772],[88.27186,23.80979],[88.27613,23.80605],[88.27907,23.80608],[88.29439,23.80329],[88.29953,23.80886],[88.30352,23.8079],[88.30911,23.80913],[88.31622,23.80704],[88.32101,23.80434],[88.33302,23.8077],[88.33995,23.80666],[88.34186,23.80954],[88.34533,23.8109],[88.35162,23.81826],[88.35566,23.82651],[88.36051,23.82299],[88.36484,23.82358],[88.36786,23.82072],[88.37051,23.82174],[88.37119,23.81513],[88.38296,23.81039],[88.38898,23.81109],[88.38853,23.81601],[88.39051,23.81866],[88.40497,23.81743],[88.41079,23.81784],[88.41237,23.8133],[88.41093,23.80944],[88.4119,23.80647],[88.41425,23.80437],[88.4144,23.80083],[88.41877,23.79981],[88.42643,23.81138],[88.43234,23.82273],[88.44036,23.84299],[88.44414,23.85048],[88.44818,23.85276],[88.45112,23.85192],[88.45538,23.84736],[88.45853,23.83882],[88.45856,23.83586],[88.45308,23.82456],[88.45214,23.81976],[88.45273,23.8167],[88.46373,23.81983],[88.47719,23.81929],[88.47807,23.82491],[88.47505,23.83368],[88.47773,23.84674],[88.47761,23.85712],[88.46735,23.8816],[88.46653,23.88607],[88.47002,23.89004],[88.4823,23.90005],[88.48737,23.90058],[88.50201,23.88381],[88.50663,23.88313],[88.51113,23.88743],[88.51178,23.89449],[88.50981,23.90181],[88.50393,23.90771],[88.48063,23.91281],[88.47122,23.9158],[88.46201,23.92029],[88.45962,23.92425],[88.46163,23.92979],[88.47056,23.93765],[88.4765,23.93817],[88.48516,23.93425],[88.49105,23.93425],[88.49528,23.93793],[88.49826,23.9489],[88.50518,23.94704],[88.50819,23.947],[88.51014,23.94994],[88.51074,23.9541],[88.51404,23.95408],[88.51897,23.95083],[88.52226,23.94768],[88.52479,23.95408],[88.52499,23.96583],[88.51974,23.97678],[88.51356,23.98321],[88.51309,23.9886],[88.51741,23.99198],[88.53252,23.98962],[88.5363,23.99097],[88.54261,23.99519],[88.54622,24.00086],[88.5471,24.00598],[88.55188,24.02006],[88.55224,24.02645],[88.55022,24.03612],[88.5509,24.03801],[88.55415,24.04065],[88.5651,24.0384],[88.56842,24.03615],[88.58482,24.02815],[88.58959,24.02372],[88.59196,24.01894],[88.59195,24.01104],[88.59292,24.00763],[88.5968,24.00083],[88.60051,23.99566],[88.61567,23.98228],[88.6206,23.97997],[88.62568,23.97991],[88.63099,23.98274],[88.63813,23.99048],[88.64322,24.0008],[88.65107,24.00738],[88.6529,24.01253],[88.6525,24.01681],[88.65034,24.01973],[88.63428,24.02457],[88.63296,24.02886],[88.63544,24.03539],[88.64354,24.04421],[88.64849,24.05171],[88.65085,24.06307],[88.65383,24.06941],[88.65532,24.07169],[88.65867,24.07305],[88.66869,24.0737],[88.67265,24.07731],[88.68033,24.07697],[88.68367,24.07788],[88.68426,24.08127],[88.67316,24.08237],[88.671,24.08328],[88.67186,24.08528],[88.68412,24.08773],[88.69227,24.09089],[88.69861,24.09203],[88.7078,24.09537],[88.70855,24.0956],[88.71419,24.09967],[88.71764,24.1006],[88.72552,24.10109],[88.72948,24.09748],[88.72986,24.09613],[88.7285,24.09069],[88.72838,24.08502],[88.72826,24.07879],[88.72771,24.07506],[88.72612,24.07327],[88.72627,24.06738],[88.72664,24.06649],[88.72812,24.06558],[88.73406,24.06422]]],[[[88.72386,24.19923],[88.72841,24.19855],[88.73593,24.19889],[88.73579,24.19541],[88.73607,24.18728],[88.73552,24.18167],[88.73475,24.1798],[88.73424,24.1762],[88.734,24.17245],[88.73476,24.16942],[88.73539,24.16807],[88.7371,24.16671],[88.7376,24.16467],[88.73861,24.16378],[88.73861,24.16332],[88.74183,24.16062],[88.74357,24.157],[88.747,24.15318],[88.74926,24.14617],[88.74893,24.14029],[88.74856,24.13916],[88.74806,24.13849],[88.73834,24.13482],[88.73574,24.13271],[88.73267,24.12869],[88.73232,24.12778],[88.72604,24.1249],[88.72396,24.12413],[88.72003,24.12277],[88.71781,24.12096],[88.71706,24.12119],[88.71412,24.12049],[88.71215,24.12615],[88.71152,24.14041],[88.7105,24.14631],[88.70931,24.14881],[88.70287,24.15599],[88.70349,24.16756],[88.70802,24.16872],[88.71498,24.1782],[88.72024,24.19049],[88.72123,24.2017],[88.72386,24.19923]]]]}}]}