{"type":"FeatureCollection","features":[{"type":"Feature","properties":{"id":"purba-medinipur","name":"Purba Medinipur","stateId":"west-bengal","stateName":"West Bengal","censuscode":345,"type":"district"},"geometry":{"type":"MultiPolygon","coordinates":[[[[87.86696,22.51331],[87.88625,22.50927],[87.88623,22.50926],[87.88107,22.5013],[87.88074,22.49768],[87.88672,22.48815],[87.89083,22.48431],[87.89871,22.47906],[87.9001,22.47508],[87.89028,22.47182],[87.87814,22.4584],[87.87761,22.44831],[87.88054,22.44358],[87.88341,22.44097],[87.88333,22.44083],[87.88333,22.44056],[87.8825,22.43972],[87.8825,22.43944],[87.88139,22.43833],[87.88111,22.43833],[87.88084,22.43806],[87.88501,22.43434],[87.88529,22.43396],[87.88558,22.43357],[87.88587,22.43317],[87.88619,22.43284],[87.88649,22.43249],[87.88677,22.43211],[87.88707,22.43171],[87.88743,22.43135],[87.88777,22.43094],[87.88808,22.43049],[87.88837,22.43],[87.88866,22.42952],[87.88898,22.42907],[87.88931,22.42866],[87.88968,22.42834],[87.89111,22.42693],[87.89389,22.42417],[87.89417,22.42417],[87.89472,22.42361],[87.895,22.42361],[87.89555,22.42306],[87.89584,22.42306],[87.89639,22.4225],[87.89694,22.4225],[87.89722,22.42222],[87.89778,22.42222],[87.89806,22.42194],[87.89833,22.42194],[87.89861,22.42167],[87.89972,22.42167],[87.9,22.42139],[87.90305,22.42139],[87.90315,22.42149],[87.90334,22.42167],[87.9046,22.42167],[87.90817,22.41842],[87.91477,22.41602],[87.91599,22.41734],[87.91667,22.41667],[87.91666,22.41639],[87.91695,22.41611],[87.91695,22.41583],[87.9175,22.41528],[87.91778,22.41528],[87.91944,22.41361],[87.91972,22.41361],[87.92028,22.41306],[87.92056,22.41306],[87.92306,22.41055],[87.92306,22.41028],[87.92333,22.41],[87.92333,22.40972],[87.92361,22.40945],[87.92361,22.40917],[87.92472,22.40806],[87.92472,22.40778],[87.925,22.4075],[87.92555,22.40722],[87.92555,22.40695],[87.92583,22.40667],[87.92611,22.40667],[87.92722,22.40556],[87.92749,22.40556],[87.92834,22.40472],[87.92861,22.40472],[87.92973,22.40361],[87.92973,22.40306],[87.93,22.40278],[87.93,22.4025],[87.93028,22.40222],[87.93028,22.40139],[87.93055,22.40111],[87.93056,22.40056],[87.93083,22.40028],[87.93083,22.39999],[87.93111,22.39972],[87.93111,22.39861],[87.93139,22.39833],[87.93139,22.39778],[87.93166,22.3975],[87.93139,22.39722],[87.93139,22.39694],[87.93166,22.39667],[87.93166,22.39611],[87.93195,22.39583],[87.93195,22.395],[87.93222,22.39472],[87.93222,22.39389],[87.93305,22.3925],[87.93305,22.39222],[87.93333,22.39194],[87.93333,22.39139],[87.93362,22.39111],[87.93361,22.39028],[87.93389,22.39],[87.93389,22.38944],[87.93417,22.38917],[87.93417,22.38889],[87.93445,22.38861],[87.93445,22.38778],[87.93472,22.3875],[87.93472,22.38694],[87.93445,22.38667],[87.93445,22.38639],[87.93472,22.38611],[87.93472,22.38583],[87.935,22.38556],[87.93528,22.38556],[87.93611,22.38472],[87.93611,22.38389],[87.93639,22.38361],[87.93639,22.38333],[87.93667,22.38306],[87.93667,22.3825],[87.93694,22.38222],[87.93694,22.38167],[87.93723,22.38139],[87.93723,22.38083],[87.9375,22.38056],[87.9375,22.38],[87.93777,22.37972],[87.93777,22.37833],[87.93806,22.37806],[87.93806,22.3775],[87.93833,22.37722],[87.93833,22.37639],[87.93861,22.37611],[87.93861,22.37583],[87.93889,22.37556],[87.93889,22.37417],[87.93916,22.37389],[87.93916,22.37333],[87.93945,22.37306],[87.93945,22.3725],[87.93972,22.37222],[87.93972,22.37195],[87.94,22.37167],[87.94,22.37139],[87.94028,22.37111],[87.94028,22.37083],[87.94055,22.37056],[87.94055,22.37001],[87.94083,22.36972],[87.94084,22.36944],[87.94111,22.36917],[87.94111,22.36889],[87.94139,22.36861],[87.94139,22.36833],[87.94153,22.36819],[87.94167,22.36806],[87.94167,22.36773],[87.94167,22.3675],[87.94176,22.36741],[87.94195,22.36722],[87.94195,22.36667],[87.94222,22.36639],[87.94222,22.36582],[87.94222,22.36555],[87.94234,22.36544],[87.9425,22.36528],[87.9425,22.36489],[87.9425,22.36472],[87.94278,22.36444],[87.94278,22.36392],[87.94278,22.36278],[87.94305,22.3625],[87.94305,22.36194],[87.9425,22.36139],[87.94195,22.36139],[87.94167,22.36167],[87.94028,22.36167],[87.94,22.36194],[87.93945,22.36194],[87.93889,22.36139],[87.93889,22.36111],[87.94,22.36],[87.94028,22.36],[87.94139,22.35889],[87.94139,22.35861],[87.94167,22.35833],[87.94139,22.35806],[87.94139,22.3575],[87.94195,22.35695],[87.94222,22.35695],[87.94334,22.35807],[87.94361,22.35807],[87.94417,22.3575],[87.94417,22.35722],[87.94389,22.35695],[87.94389,22.35611],[87.94361,22.35583],[87.94361,22.355],[87.94222,22.35361],[87.94195,22.35389],[87.94139,22.35389],[87.94111,22.35417],[87.94055,22.35417],[87.94028,22.35445],[87.94,22.35445],[87.93972,22.35472],[87.93972,22.35528],[87.93945,22.35528],[87.93861,22.35611],[87.93861,22.35639],[87.93806,22.35695],[87.93723,22.35695],[87.93668,22.35639],[87.93668,22.35611],[87.93723,22.35556],[87.9375,22.35556],[87.93889,22.35417],[87.93889,22.35389],[87.93916,22.35361],[87.93945,22.35361],[87.93972,22.35333],[87.94,22.35333],[87.94028,22.35306],[87.94083,22.35306],[87.94111,22.35278],[87.94167,22.35278],[87.94195,22.3525],[87.94222,22.3525],[87.94249,22.35222],[87.94389,22.35222],[87.94405,22.35206],[87.94473,22.35139],[87.94473,22.35111],[87.94528,22.35056],[87.94583,22.35056],[87.94611,22.35028],[87.94639,22.35028],[87.94695,22.34972],[87.94611,22.34889],[87.94556,22.34888],[87.94527,22.34917],[87.945,22.34917],[87.94473,22.34888],[87.94444,22.34889],[87.94417,22.34861],[87.94389,22.34861],[87.94375,22.34847],[87.94361,22.34833],[87.94386,22.34809],[87.94444,22.3475],[87.94444,22.34667],[87.94527,22.34584],[87.94556,22.34611],[87.94639,22.34611],[87.94722,22.34695],[87.9475,22.34695],[87.94806,22.34639],[87.94722,22.34556],[87.94722,22.34528],[87.94583,22.34389],[87.94583,22.34361],[87.94611,22.34333],[87.94611,22.34222],[87.94583,22.34194],[87.94583,22.34167],[87.94611,22.34139],[87.94611,22.34111],[87.94639,22.34083],[87.94639,22.34056],[87.94666,22.34028],[87.94666,22.33861],[87.94695,22.33833],[87.94695,22.33805],[87.94666,22.33778],[87.94666,22.33722],[87.94695,22.33694],[87.94695,22.33667],[87.94666,22.33639],[87.94666,22.33528],[87.94639,22.335],[87.94695,22.33444],[87.94695,22.33389],[87.94722,22.33361],[87.94722,22.33306],[87.94695,22.33278],[87.94695,22.3325],[87.94666,22.33222],[87.94666,22.33167],[87.94639,22.33139],[87.94639,22.33111],[87.94611,22.33083],[87.94611,22.33],[87.94583,22.32972],[87.94583,22.32806],[87.94556,22.32777],[87.94556,22.3275],[87.94527,22.32722],[87.94528,22.32695],[87.945,22.32667],[87.945,22.32611],[87.94444,22.32556],[87.94444,22.32528],[87.94349,22.32433],[87.94306,22.32389],[87.94278,22.32389],[87.94194,22.32306],[87.94111,22.32222],[87.94111,22.32195],[87.93972,22.32055],[87.93945,22.32056],[87.93833,22.31945],[87.93833,22.31917],[87.93694,22.31778],[87.93694,22.31722],[87.93667,22.31694],[87.93639,22.31667],[87.93611,22.31694],[87.93584,22.31722],[87.93584,22.31778],[87.93555,22.31806],[87.93555,22.31833],[87.93584,22.31861],[87.93584,22.31917],[87.93611,22.31917],[87.9375,22.32056],[87.9375,22.32083],[87.93777,22.32111],[87.93777,22.32222],[87.93806,22.3225],[87.93806,22.32361],[87.93861,22.32417],[87.93861,22.32471],[87.93889,22.325],[87.93889,22.32639],[87.93916,22.32667],[87.93916,22.32806],[87.93945,22.32833],[87.93945,22.32917],[87.93972,22.32945],[87.93972,22.32972],[87.94,22.33],[87.93945,22.33056],[87.93916,22.33056],[87.93889,22.33028],[87.93861,22.33028],[87.93806,22.32972],[87.93723,22.33056],[87.93694,22.33056],[87.93639,22.33111],[87.93472,22.33111],[87.93361,22.33222],[87.93362,22.3325],[87.93528,22.33417],[87.93528,22.33444],[87.93472,22.335],[87.93459,22.33486],[87.93445,22.33472],[87.93389,22.33472],[87.93361,22.33444],[87.93278,22.33444],[87.9325,22.33417],[87.93222,22.33444],[87.93195,22.33444],[87.93083,22.33333],[87.93083,22.33306],[87.93389,22.33],[87.93389,22.32972],[87.93417,22.32945],[87.93417,22.32917],[87.93445,22.32889],[87.93445,22.32777],[87.93528,22.32695],[87.93555,22.32695],[87.93639,22.32611],[87.93639,22.32583],[87.93611,22.32556],[87.93611,22.325],[87.93584,22.32471],[87.93584,22.32333],[87.93611,22.32306],[87.93611,22.3225],[87.93584,22.32222],[87.93584,22.32139],[87.93555,22.32111],[87.93555,22.32083],[87.93528,22.32056],[87.93528,22.32],[87.935,22.31972],[87.935,22.31945],[87.93472,22.31917],[87.93472,22.31833],[87.93445,22.31806],[87.93445,22.31778],[87.93417,22.3175],[87.93417,22.31722],[87.93389,22.31694],[87.93389,22.31556],[87.93362,22.31528],[87.93362,22.31472],[87.93333,22.31444],[87.93333,22.31417],[87.93305,22.31389],[87.93305,22.31139],[87.93333,22.31111],[87.93305,22.31083],[87.93305,22.31028],[87.93278,22.31],[87.93362,22.30917],[87.93362,22.30861],[87.93389,22.30833],[87.93389,22.3075],[87.93417,22.30722],[87.93417,22.30694],[87.93445,22.30667],[87.93445,22.30583],[87.93472,22.30556],[87.93472,22.30445],[87.935,22.30417],[87.935,22.30305],[87.93528,22.30278],[87.93472,22.30222],[87.935,22.30195],[87.935,22.30167],[87.93528,22.30139],[87.93528,22.30111],[87.935,22.30083],[87.935,22.30056],[87.93528,22.30028],[87.93528,22.3],[87.93555,22.29972],[87.93555,22.29889],[87.93584,22.29861],[87.93584,22.29722],[87.93555,22.29694],[87.93555,22.29472],[87.93528,22.29445],[87.93528,22.29417],[87.93555,22.29389],[87.93555,22.29333],[87.93584,22.29306],[87.93584,22.29166],[87.93555,22.29139],[87.93555,22.29111],[87.93584,22.29083],[87.93584,22.28944],[87.93555,22.28917],[87.93555,22.28806],[87.93584,22.28778],[87.93584,22.28722],[87.93555,22.28695],[87.93555,22.28554],[87.93584,22.28528],[87.93584,22.285],[87.93555,22.28472],[87.93555,22.28444],[87.93584,22.28417],[87.93584,22.28333],[87.93555,22.28306],[87.93555,22.28222],[87.93528,22.28194],[87.93528,22.28167],[87.935,22.28139],[87.935,22.28111],[87.93584,22.28028],[87.93584,22.27972],[87.93611,22.27944],[87.93611,22.27889],[87.93584,22.27861],[87.93584,22.27833],[87.93611,22.27806],[87.93611,22.27583],[87.93639,22.27556],[87.93639,22.27472],[87.93611,22.27445],[87.93639,22.27445],[87.93639,22.27417],[87.93668,22.27389],[87.93667,22.27167],[87.93694,22.27139],[87.93694,22.27],[87.93668,22.26972],[87.93667,22.26889],[87.93694,22.26861],[87.93694,22.26695],[87.93723,22.26667],[87.93723,22.26611],[87.9375,22.26583],[87.9375,22.26472],[87.93833,22.26389],[87.93833,22.26361],[87.93861,22.26333],[87.93861,22.26306],[87.93889,22.26278],[87.93889,22.2625],[87.93945,22.26194],[87.93945,22.26167],[87.93972,22.26139],[87.93972,22.26111],[87.94,22.26083],[87.94,22.26028],[87.94111,22.25917],[87.94139,22.25917],[87.94222,22.25833],[87.9425,22.25833],[87.94389,22.25694],[87.94417,22.25694],[87.94583,22.25528],[87.94611,22.25528],[87.94666,22.25472],[87.94722,22.25472],[87.94833,22.25361],[87.94866,22.25338],[87.94891,22.25313],[87.94918,22.25287],[87.94948,22.25259],[87.94985,22.25236],[87.95016,22.25208],[87.95055,22.25186],[87.95097,22.25164],[87.95137,22.25139],[87.95176,22.25111],[87.95213,22.25081],[87.95247,22.25049],[87.95278,22.25015],[87.9531,22.24982],[87.9535,22.24955],[87.95389,22.24924],[87.95425,22.24891],[87.95463,22.24859],[87.95498,22.24824],[87.95532,22.24786],[87.95564,22.24752],[87.95596,22.24722],[87.95625,22.24694],[87.95647,22.24666],[87.95667,22.24635],[87.95689,22.24604],[87.95712,22.24567],[87.95745,22.24533],[87.95785,22.245],[87.95826,22.24469],[87.95863,22.24438],[87.95901,22.24415],[87.95937,22.24393],[87.95977,22.24382],[87.96016,22.24364],[87.96059,22.24357],[87.96094,22.24341],[87.96135,22.2433],[87.96172,22.2431],[87.96218,22.24302],[87.96261,22.24279],[87.96309,22.24261],[87.96362,22.24247],[87.9641,22.24222],[87.96455,22.24198],[87.965,22.24179],[87.96545,22.24162],[87.96584,22.24138],[87.96624,22.24111],[87.96666,22.24083],[87.96713,22.24056],[87.96759,22.24029],[87.96804,22.24003],[87.96841,22.23973],[87.96873,22.23944],[87.96902,22.23917],[87.96931,22.23891],[87.96966,22.23867],[87.97,22.23838],[87.97034,22.23803],[87.97067,22.23765],[87.97099,22.23726],[87.9713,22.23693],[87.97155,22.2366],[87.97169,22.23618],[87.97193,22.2358],[87.97212,22.23536],[87.97226,22.23491],[87.97246,22.23453],[87.97257,22.23413],[87.97274,22.23377],[87.97282,22.23336],[87.97301,22.23303],[87.97306,22.23262],[87.97311,22.23217],[87.9733,22.23171],[87.97343,22.23113],[87.97357,22.23052],[87.97357,22.22993],[87.97344,22.22942],[87.97336,22.22895],[87.9734,22.22848],[87.97362,22.22804],[87.97388,22.22759],[87.97415,22.22713],[87.97437,22.22661],[87.97454,22.22604],[87.97469,22.22545],[87.97481,22.22486],[87.97495,22.22433],[87.975,22.22378],[87.97505,22.22324],[87.97524,22.22272],[87.97539,22.22215],[87.97569,22.22169],[87.97609,22.22128],[87.97652,22.22086],[87.97697,22.22048],[87.97742,22.22019],[87.97777,22.21986],[87.97806,22.21952],[87.97833,22.21917],[87.97864,22.21886],[87.97893,22.21858],[87.97921,22.21827],[87.97946,22.21793],[87.97971,22.2176],[87.97997,22.21725],[87.98024,22.21698],[87.98051,22.21671],[87.98077,22.21645],[87.98106,22.21616],[87.98141,22.21585],[87.9819,22.21556],[87.98245,22.21527],[87.98296,22.21492],[87.98337,22.21453],[87.98371,22.21422],[87.98404,22.21399],[87.98427,22.21365],[87.98454,22.21331],[87.98484,22.21297],[87.98528,22.21271],[87.98573,22.21243],[87.98615,22.21206],[87.9866,22.21174],[87.98708,22.21152],[87.98754,22.21133],[87.98792,22.21111],[87.98832,22.21087],[87.98877,22.21065],[87.98918,22.21034],[87.98959,22.21002],[87.99002,22.20972],[87.99044,22.20946],[87.99088,22.20927],[87.99133,22.20916],[87.99143,22.20914],[87.99178,22.20905],[87.9922,22.20889],[87.99265,22.20874],[87.99313,22.20858],[87.99357,22.20839],[87.99407,22.20841],[87.99664,22.20746],[87.99764,22.20718],[88,22.20639],[88.00027,22.20611],[88.00083,22.20611],[88.00111,22.20583],[88.00139,22.20583],[88.00166,22.20555],[88.00195,22.20556],[88.00222,22.20528],[88.0025,22.20528],[88.00277,22.205],[88.00305,22.205],[88.00333,22.20472],[88.00361,22.20472],[88.00389,22.20444],[88.00417,22.20444],[88.00445,22.20417],[88.005,22.20417],[88.00694,22.20222],[88.00723,22.20222],[88.0075,22.20194],[88.00861,22.20139],[88.0089,22.20138],[88.00916,22.20167],[88.00935,22.20148],[88.00945,22.20138],[88.00972,22.20139],[88.01,22.20111],[88.0125,22.20111],[88.01305,22.20056],[88.01334,22.20083],[88.01361,22.20083],[88.01417,22.20028],[88.01471,22.20028],[88.015,22.20056],[88.01513,22.20042],[88.01527,22.20028],[88.01583,22.20028],[88.01611,22.2],[88.01639,22.20028],[88.01667,22.2],[88.01806,22.2],[88.01833,22.19972],[88.01864,22.19972],[88.01916,22.19972],[88.01945,22.19944],[88.01972,22.19972],[88.02,22.19972],[88.02028,22.19944],[88.02056,22.19944],[88.02074,22.19963],[88.02084,22.19972],[88.0225,22.19972],[88.02278,22.19944],[88.02306,22.19944],[88.02333,22.19972],[88.02361,22.19972],[88.02389,22.2],[88.02444,22.2],[88.02472,22.20028],[88.025,22.20028],[88.0252,22.20048],[88.02528,22.20056],[88.0254,22.20056],[88.02556,22.20056],[88.02566,22.20067],[88.02665,22.20167],[88.02695,22.20167],[88.02722,22.20194],[88.02778,22.20306],[88.02778,22.20361],[88.02805,22.20389],[88.02805,22.205],[88.02834,22.20528],[88.02834,22.20583],[88.02861,22.20611],[88.02861,22.20639],[88.02889,22.20667],[88.02889,22.20694],[88.02917,22.20722],[88.02917,22.2075],[88.03,22.20833],[88.03028,22.20833],[88.03056,22.20861],[88.03083,22.20861],[88.03111,22.20889],[88.03167,22.20889],[88.03194,22.20917],[88.0325,22.20917],[88.03278,22.20944],[88.03472,22.20944],[88.03555,22.20861],[88.03639,22.20861],[88.03694,22.20806],[88.03778,22.20806],[88.03806,22.20778],[88.03888,22.20778],[88.03917,22.20751],[88.04028,22.20751],[88.04056,22.20722],[88.04278,22.20722],[88.04305,22.20694],[88.04361,22.20694],[88.04389,22.20667],[88.04472,22.20667],[88.045,22.20639],[88.04556,22.20639],[88.04583,22.20611],[88.04639,22.20611],[88.04667,22.20583],[88.0475,22.20583],[88.04777,22.20555],[88.04807,22.20556],[88.04833,22.20528],[88.04861,22.20528],[88.04889,22.205],[88.05,22.205],[88.05222,22.20278],[88.05222,22.2025],[88.0525,22.20222],[88.0525,22.20194],[88.05278,22.20167],[88.05278,22.20138],[88.05306,22.20111],[88.05305,22.20083],[88.05361,22.20028],[88.05388,22.20028],[88.05666,22.1975],[88.05666,22.19722],[88.05917,22.19472],[88.05945,22.19472],[88.05972,22.19445],[88.06,22.19445],[88.06084,22.19361],[88.06111,22.19361],[88.06194,22.19278],[88.0625,22.19278],[88.06276,22.1925],[88.06307,22.1925],[88.06361,22.19194],[88.06361,22.19167],[88.06389,22.19139],[88.06389,22.19111],[88.06445,22.19056],[88.06472,22.19056],[88.06555,22.18972],[88.06583,22.18972],[88.06611,22.18944],[88.06639,22.18944],[88.06667,22.18917],[88.0675,22.18917],[88.06805,22.18861],[88.06917,22.18861],[88.06944,22.18833],[88.06973,22.18833],[88.07,22.18861],[88.07056,22.18806],[88.07111,22.18806],[88.07139,22.18778],[88.07166,22.18806],[88.07222,22.1875],[88.0725,22.18778],[88.07306,22.18722],[88.07416,22.18722],[88.07445,22.18695],[88.07501,22.18695],[88.07528,22.18667],[88.07555,22.18667],[88.07584,22.18695],[88.07667,22.18695],[88.07694,22.18722],[88.07723,22.18695],[88.07776,22.18695],[88.07805,22.18667],[88.07917,22.18667],[88.07944,22.18695],[88.08167,22.18695],[88.08195,22.18722],[88.08222,22.18722],[88.0825,22.18695],[88.08334,22.18695],[88.08361,22.18722],[88.08389,22.18695],[88.08556,22.18695],[88.08583,22.18667],[88.08611,22.18667],[88.08667,22.18611],[88.08694,22.18611],[88.08722,22.18583],[88.0875,22.18583],[88.08778,22.18556],[88.08833,22.18556],[88.08861,22.18583],[88.08889,22.18583],[88.08917,22.18611],[88.08945,22.18611],[88.08972,22.18583],[88.09,22.18583],[88.09028,22.18611],[88.09055,22.18611],[88.09111,22.18667],[88.09111,22.18695],[88.09139,22.18722],[88.09139,22.1875],[88.09167,22.18778],[88.09167,22.18806],[88.09194,22.18833],[88.09194,22.18861],[88.09306,22.18972],[88.09333,22.18972],[88.09361,22.19],[88.09389,22.19],[88.09417,22.19028],[88.09444,22.19028],[88.09472,22.19056],[88.09556,22.19056],[88.0957,22.19069],[88.09583,22.19083],[88.09666,22.19083],[88.09695,22.19111],[88.09778,22.19111],[88.09805,22.19139],[88.10028,22.19139],[88.10056,22.19111],[88.10083,22.19111],[88.10111,22.19083],[88.10139,22.19083],[88.10167,22.19111],[88.10139,22.19139],[88.10167,22.19167],[88.10195,22.19167],[88.10222,22.19195],[88.10278,22.19195],[88.10278,22.19167],[88.10306,22.19167],[88.10333,22.19139],[88.10499,22.19139],[88.10528,22.19167],[88.10611,22.19167],[88.10639,22.19139],[88.10722,22.19139],[88.1075,22.19111],[88.10806,22.19111],[88.10833,22.19083],[88.10917,22.19083],[88.10944,22.19056],[88.11028,22.19056],[88.11083,22.19],[88.11139,22.19],[88.11166,22.18972],[88.11333,22.18972],[88.11417,22.18889],[88.11444,22.18917],[88.11472,22.18889],[88.11528,22.18889],[88.11555,22.18861],[88.11667,22.18861],[88.11694,22.18833],[88.11916,22.18833],[88.11945,22.18861],[88.11972,22.18833],[88.12028,22.18833],[88.12055,22.18806],[88.12111,22.18806],[88.12139,22.18778],[88.12195,22.18778],[88.12222,22.1875],[88.12306,22.1875],[88.12334,22.18722],[88.12389,22.18722],[88.12417,22.18695],[88.12473,22.18695],[88.125,22.18667],[88.12583,22.18667],[88.1261,22.1864],[88.12778,22.1864],[88.12805,22.18611],[88.12889,22.18611],[88.12917,22.18583],[88.13056,22.18583],[88.13084,22.18556],[88.13389,22.18556],[88.13416,22.18528],[88.13445,22.18528],[88.13472,22.185],[88.135,22.185],[88.13529,22.18472],[88.13556,22.18472],[88.13861,22.18167],[88.13861,22.18139],[88.13889,22.18111],[88.13889,22.18083],[88.13917,22.18056],[88.13917,22.18027],[88.13944,22.18],[88.13972,22.18],[88.14027,22.17945],[88.14027,22.17917],[88.14167,22.17778],[88.14167,22.17721],[88.14195,22.17694],[88.14195,22.17667],[88.14222,22.17639],[88.14222,22.17611],[88.1425,22.17583],[88.1425,22.17528],[88.14278,22.175],[88.14278,22.17444],[88.14306,22.17417],[88.14306,22.17389],[88.14333,22.17361],[88.14333,22.17333],[88.14389,22.17278],[88.14389,22.1725],[88.14417,22.17222],[88.14417,22.17194],[88.14445,22.17167],[88.14445,22.1714],[88.14472,22.17111],[88.14472,22.17056],[88.14555,22.16972],[88.14555,22.16945],[88.14584,22.16917],[88.14584,22.16889],[88.14611,22.16861],[88.14611,22.16806],[88.14639,22.16778],[88.14639,22.1675],[88.14694,22.16695],[88.14694,22.16667],[88.14833,22.16527],[88.14833,22.165],[88.15195,22.16139],[88.15195,22.16111],[88.15222,22.16083],[88.15222,22.16056],[88.1525,22.16028],[88.1525,22.15972],[88.15278,22.15945],[88.15278,22.15917],[88.15304,22.15889],[88.15304,22.15861],[88.15778,22.15389],[88.15778,22.15361],[88.15833,22.15306],[88.15833,22.15278],[88.15889,22.15222],[88.15889,22.15194],[88.15972,22.15111],[88.15972,22.15083],[88.1625,22.14806],[88.16278,22.14806],[88.16722,22.14361],[88.1675,22.14361],[88.16805,22.14306],[88.16833,22.14306],[88.16861,22.14222],[88.16861,22.14195],[88.16889,22.14167],[88.16889,22.14139],[88.17,22.14028],[88.17,22.14],[88.17083,22.13917],[88.17083,22.13889],[88.17111,22.13861],[88.17111,22.13833],[88.17139,22.13806],[88.1714,22.13778],[88.17167,22.1375],[88.17167,22.13722],[88.17389,22.135],[88.17389,22.13472],[88.17416,22.13445],[88.17415,22.13417],[88.17446,22.13389],[88.17446,22.13361],[88.17722,22.13083],[88.17722,22.13056],[88.17889,22.12889],[88.17917,22.12889],[88.18083,22.12722],[88.18083,22.12694],[88.18334,22.12444],[88.18334,22.12417],[88.18361,22.12389],[88.18361,22.12361],[88.18417,22.12306],[88.18417,22.12278],[88.18555,22.12139],[88.18555,22.12111],[88.18611,22.12056],[88.18611,22.12029],[88.18806,22.11833],[88.18833,22.11833],[88.18889,22.11778],[88.18915,22.11778],[88.19111,22.11583],[88.19111,22.11556],[88.19167,22.115],[88.19167,22.11472],[88.19195,22.11445],[88.19195,22.11417],[88.19334,22.11278],[88.19334,22.11222],[88.19361,22.11195],[88.19361,22.11083],[88.19334,22.11056],[88.19334,22.10972],[88.19305,22.10944],[88.19305,22.10889],[88.1925,22.10833],[88.1925,22.10806],[88.19221,22.10778],[88.19221,22.1075],[88.19195,22.10722],[88.19195,22.10583],[88.19139,22.10528],[88.19139,22.10472],[88.19111,22.10445],[88.19111,22.10417],[88.19055,22.10361],[88.19055,22.10306],[88.19,22.1025],[88.19,22.10222],[88.18972,22.10194],[88.18972,22.10139],[88.18944,22.10111],[88.18944,22.10083],[88.18916,22.10056],[88.18915,22.1],[88.18889,22.09972],[88.18889,22.09917],[88.18806,22.09833],[88.18806,22.09805],[88.18778,22.09778],[88.18777,22.0975],[88.1875,22.09722],[88.1875,22.09694],[88.18723,22.09667],[88.18723,22.09639],[88.18639,22.09556],[88.1864,22.09528],[88.18417,22.09278],[88.18334,22.09167],[88.18166,22.08972],[88.18166,22.08945],[88.18027,22.08805],[88.18027,22.08778],[88.17861,22.08611],[88.17861,22.08583],[88.17778,22.085],[88.17778,22.08472],[88.17389,22.08083],[88.17389,22.08056],[88.17028,22.07694],[88.17028,22.07667],[88.16972,22.07611],[88.16944,22.07611],[88.16695,22.07361],[88.16666,22.07361],[88.1653,22.07225],[88.16444,22.07139],[88.16417,22.07139],[88.16278,22.07],[88.1625,22.07],[88.16139,22.06889],[88.16111,22.06889],[88.16028,22.06806],[88.16,22.06806],[88.15917,22.06722],[88.15889,22.06694],[88.15861,22.06667],[88.15833,22.06667],[88.15813,22.06646],[88.15805,22.06645],[88.15778,22.06639],[88.15617,22.06478],[88.1561,22.06475],[88.15603,22.06473],[88.15528,22.06444],[88.15473,22.06444],[88.15334,22.06306],[88.15304,22.06307],[88.1525,22.0625],[88.15222,22.0625],[88.15141,22.06169],[88.15111,22.06139],[88.15094,22.06139],[88.15083,22.06139],[88.15069,22.06124],[88.15056,22.06111],[88.15028,22.06111],[88.14972,22.06056],[88.14944,22.06056],[88.14861,22.05972],[88.14806,22.05972],[88.14778,22.05945],[88.14722,22.05945],[88.14694,22.05917],[88.14639,22.05917],[88.14611,22.05889],[88.14584,22.05889],[88.14555,22.05861],[88.14528,22.05861],[88.145,22.05833],[88.14445,22.05833],[88.14417,22.05806],[88.14389,22.05806],[88.14361,22.05778],[88.14333,22.05778],[88.14306,22.0575],[88.1425,22.0575],[88.14194,22.05695],[88.14139,22.05695],[88.1411,22.05667],[88.14056,22.05667],[88.14027,22.05639],[88.14,22.05639],[88.13972,22.05611],[88.13944,22.05611],[88.13917,22.05583],[88.13889,22.05583],[88.13861,22.05556],[88.13835,22.05556],[88.13804,22.05528],[88.1375,22.05528],[88.13722,22.055],[88.13667,22.055],[88.13611,22.05445],[88.13595,22.05445],[88.13556,22.05445],[88.13547,22.05436],[88.13528,22.05417],[88.135,22.05417],[88.13472,22.05388],[88.13445,22.05389],[88.13416,22.05361],[88.13389,22.05361],[88.13333,22.05306],[88.13306,22.05306],[88.13278,22.05278],[88.1325,22.05278],[88.13245,22.05272],[88.13223,22.0525],[88.13194,22.0525],[88.13139,22.05194],[88.13111,22.05195],[88.13084,22.05167],[88.13028,22.05167],[88.13,22.05139],[88.12972,22.05139],[88.12945,22.05111],[88.12889,22.05111],[88.12833,22.05056],[88.12805,22.05056],[88.12778,22.05028],[88.1275,22.05028],[88.12722,22.05],[88.12695,22.05],[88.12666,22.04972],[88.12639,22.04972],[88.12612,22.04945],[88.12556,22.04945],[88.125,22.04889],[88.12473,22.04889],[88.12417,22.04833],[88.12389,22.04834],[88.12334,22.04778],[88.12306,22.04778],[88.12278,22.0475],[88.1225,22.0475],[88.12167,22.04667],[88.12111,22.04667],[88.12074,22.0463],[88.12055,22.04611],[88.12028,22.04611],[88.11972,22.04555],[88.11945,22.04556],[88.11889,22.045],[88.11861,22.045],[88.11806,22.04445],[88.11778,22.04445],[88.11722,22.04389],[88.11667,22.04389],[88.11639,22.04361],[88.11611,22.04361],[88.11528,22.04278],[88.115,22.04278],[88.11472,22.0425],[88.11444,22.0425],[88.11416,22.04222],[88.11389,22.04222],[88.11361,22.04194],[88.11333,22.04194],[88.11139,22.04],[88.11111,22.04],[88.11083,22.03972],[88.11056,22.03972],[88.10973,22.03889],[88.10944,22.03889],[88.10917,22.03861],[88.10861,22.03861],[88.10833,22.03833],[88.10806,22.03833],[88.10584,22.03611],[88.10528,22.03611],[88.10445,22.03528],[88.10417,22.03556],[88.10389,22.03528],[88.10361,22.03528],[88.10222,22.03389],[88.10222,22.03333],[88.10167,22.03278],[88.10111,22.03278],[88.10083,22.03306],[88.10056,22.03306],[88.10019,22.03269],[88.1,22.0325],[88.09972,22.0325],[88.09834,22.03111],[88.09778,22.03111],[88.09722,22.03056],[88.09666,22.03056],[88.09612,22.03],[88.09583,22.03],[88.09528,22.02944],[88.095,22.02944],[88.09389,22.02833],[88.09361,22.02833],[88.09333,22.02806],[88.09305,22.02806],[88.09278,22.02778],[88.0925,22.02778],[88.09167,22.02694],[88.09139,22.02695],[88.09111,22.02667],[88.09084,22.02667],[88.09065,22.02649],[88.09055,22.02639],[88.09028,22.02639],[88.08999,22.02611],[88.08972,22.02611],[88.08945,22.02583],[88.08945,22.02556],[88.08833,22.02445],[88.08778,22.02445],[88.0875,22.02417],[88.08695,22.02417],[88.08611,22.02333],[88.08583,22.02333],[88.08556,22.02306],[88.08528,22.02306],[88.08472,22.0225],[88.08444,22.02222],[88.08417,22.02222],[88.08334,22.02139],[88.08222,22.02139],[88.08152,22.0211],[88.07944,22.02084],[88.07889,22.02056],[88.07861,22.02056],[88.07805,22.02],[88.07776,22.02],[88.0775,22.01972],[88.07723,22.01972],[88.07667,22.01917],[88.07639,22.01917],[88.07611,22.01889],[88.07528,22.01889],[88.07501,22.01861],[88.07445,22.01861],[88.07416,22.01833],[88.07361,22.01833],[88.07334,22.01805],[88.07278,22.01806],[88.07222,22.0175],[88.07139,22.01722],[88.07111,22.01694],[88.07111,22.01667],[88.06989,22.01544],[88.06973,22.01528],[88.06944,22.01528],[88.06917,22.015],[88.06888,22.015],[88.0675,22.015],[88.06722,22.01528],[88.06695,22.01528],[88.06667,22.015],[88.06639,22.015],[88.06611,22.01471],[88.06583,22.01472],[88.06555,22.01444],[88.06528,22.01444],[88.065,22.01417],[88.06361,22.01417],[88.06333,22.01389],[88.06307,22.01389],[88.06223,22.01306],[88.06139,22.01389],[88.06139,22.01417],[88.06111,22.01444],[88.06111,22.015],[88.06084,22.01528],[88.06055,22.01528],[88.06,22.01583],[88.05972,22.01583],[88.05917,22.01639],[88.05889,22.01639],[88.05861,22.01667],[88.05861,22.01694],[88.05722,22.01833],[88.05695,22.01861],[88.05666,22.01861],[88.05417,22.02111],[88.05389,22.02111],[88.05306,22.02194],[88.05278,22.02194],[88.0525,22.02222],[88.05194,22.02222],[88.05028,22.0239],[88.04972,22.0239],[88.04472,22.02889],[88.04444,22.02889],[88.04389,22.02944],[88.04361,22.02944],[88.04278,22.03028],[88.04112,22.03195],[88.04083,22.03195],[88.03944,22.03333],[88.03944,22.03361],[88.03888,22.03417],[88.03861,22.03417],[88.03778,22.035],[88.03778,22.03528],[88.03722,22.03583],[88.03722,22.03611],[88.03445,22.03889],[88.03416,22.03888],[88.03389,22.03917],[88.03389,22.03944],[88.03333,22.04],[88.03333,22.04028],[88.03222,22.04139],[88.03222,22.04167],[88.03194,22.04194],[88.03194,22.04222],[88.03111,22.04306],[88.03111,22.04333],[88.03,22.04444],[88.03,22.04472],[88.02971,22.045],[88.02972,22.04528],[88.02917,22.04583],[88.02889,22.04583],[88.02861,22.04611],[88.02834,22.04611],[88.02808,22.04637],[88.0275,22.04694],[88.0275,22.04722],[88.02694,22.04778],[88.02694,22.04861],[88.02722,22.04889],[88.02722,22.04948],[88.02722,22.04972],[88.0275,22.05],[88.0275,22.05028],[88.02778,22.05056],[88.02778,22.05111],[88.02805,22.05139],[88.02805,22.05195],[88.02834,22.05222],[88.02834,22.05306],[88.02861,22.05333],[88.02861,22.05361],[88.02917,22.05417],[88.02917,22.05445],[88.02971,22.055],[88.03,22.055],[88.03028,22.05528],[88.03056,22.05528],[88.03067,22.0554],[88.03083,22.05556],[88.03139,22.05556],[88.03167,22.05583],[88.03194,22.05583],[88.03361,22.0575],[88.03361,22.05833],[88.03389,22.05861],[88.03389,22.05945],[88.03361,22.05972],[88.03361,22.06083],[88.03333,22.06111],[88.03333,22.06139],[88.03278,22.06195],[88.03278,22.06222],[88.0325,22.0625],[88.0325,22.06278],[88.03222,22.06306],[88.03222,22.06333],[88.03194,22.06361],[88.03194,22.06389],[88.03,22.06582],[88.03,22.06611],[88.02944,22.06667],[88.02944,22.06694],[88.02805,22.06833],[88.02778,22.06833],[88.0275,22.06861],[88.02722,22.06861],[88.02694,22.06889],[88.02665,22.06889],[88.02528,22.07028],[88.025,22.07028],[88.02361,22.07167],[88.02361,22.07195],[88.02278,22.07278],[88.0225,22.07278],[88.02194,22.07333],[88.02167,22.07333],[88.02084,22.07417],[88.02028,22.07417],[88.0175,22.07695],[88.0175,22.07722],[88.01694,22.07778],[88.01667,22.07778],[88.01556,22.07889],[88.01527,22.07889],[88.015,22.07917],[88.01473,22.07917],[88.01389,22.08],[88.01361,22.08],[88.01334,22.08028],[88.01305,22.08028],[88.01278,22.08056],[88.0125,22.08056],[88.01167,22.08139],[88.01139,22.08139],[88.01028,22.0825],[88.01,22.0825],[88.0089,22.08361],[88.00861,22.08361],[88.00833,22.08389],[88.00806,22.08389],[88.00777,22.08418],[88.0075,22.08417],[88.00723,22.08444],[88.00667,22.08444],[88.00639,22.08472],[88.00611,22.08472],[88.00554,22.08528],[88.00528,22.08528],[88.00445,22.08611],[88.00417,22.08611],[88.00389,22.08639],[88.00361,22.08639],[88.00278,22.08722],[88.0025,22.08722],[88.00222,22.0875],[88.00195,22.0875],[88.00166,22.08778],[88.00139,22.08778],[88.00111,22.08806],[88.00083,22.08806],[88,22.08861],[87.99963,22.08884],[87.99929,22.08941],[87.99889,22.08947],[87.99843,22.08957],[87.99806,22.09],[87.99696,22.09111],[87.99695,22.09139],[87.99639,22.09194],[87.99639,22.09222],[87.99611,22.0925],[87.99611,22.09278],[87.99583,22.09305],[87.99583,22.09361],[87.99555,22.09389],[87.99555,22.09417],[87.99528,22.09444],[87.99528,22.09556],[87.995,22.09583],[87.995,22.09639],[87.99472,22.09667],[87.99472,22.09722],[87.99445,22.09861],[87.99445,22.09945],[87.99389,22.10056],[87.99194,22.1025],[87.99111,22.10306],[87.99,22.10361],[87.98917,22.10389],[87.98515,22.10474],[87.98448,22.10472],[87.98393,22.10467],[87.98354,22.1045],[87.98319,22.10445],[87.98289,22.10445],[87.98261,22.10442],[87.98216,22.10451],[87.98166,22.10448],[87.9812,22.10442],[87.98079,22.10444],[87.98035,22.10445],[87.97987,22.10449],[87.97939,22.10462],[87.97896,22.10485],[87.97856,22.10487],[87.97816,22.10477],[87.97776,22.10474],[87.97735,22.10473],[87.97693,22.10473],[87.97652,22.10474],[87.97615,22.10476],[87.97591,22.10473],[87.97583,22.10472],[87.975,22.10472],[87.97472,22.105],[87.97417,22.105],[87.97389,22.10472],[87.97334,22.10472],[87.97305,22.10445],[87.97139,22.10445],[87.97111,22.10417],[87.96639,22.10417],[87.96389,22.10361],[87.96375,22.10372],[87.96336,22.10348],[87.96306,22.1032],[87.96278,22.10289],[87.9625,22.10257],[87.96226,22.10223],[87.96209,22.10185],[87.96182,22.10152],[87.96154,22.10115],[87.9612,22.10083],[87.95945,22.09969],[87.95932,22.09784],[87.95961,22.09691],[87.96037,22.09555],[87.96069,22.09542],[87.9626,22.095],[87.96304,22.09494],[87.96346,22.09477],[87.96393,22.09471],[87.96442,22.0946],[87.96494,22.09444],[87.96705,22.0944],[87.96749,22.09444],[87.96789,22.09445],[87.96826,22.09445],[87.9687,22.09444],[87.96922,22.09439],[87.96983,22.09432],[87.97046,22.09446],[87.97108,22.0947],[87.9717,22.09493],[87.97231,22.0951],[87.97288,22.09523],[87.97344,22.0953],[87.974,22.09538],[87.97451,22.09552],[87.97502,22.09562],[87.97541,22.09583],[87.97581,22.09598],[87.97623,22.09615],[87.97667,22.09637],[87.97716,22.09658],[87.97768,22.09685],[87.97823,22.09717],[87.97873,22.09746],[87.97911,22.09777],[87.97955,22.09799],[87.97993,22.09827],[87.98035,22.0984],[87.98077,22.09855],[87.98115,22.09868],[87.98146,22.09881],[87.98174,22.09875],[87.98194,22.09851],[87.98211,22.09818],[87.98231,22.09787],[87.98254,22.09762],[87.98272,22.09736],[87.9825,22.09722],[87.98278,22.09694],[87.98278,22.09667],[87.98306,22.09639],[87.98306,22.09611],[87.98333,22.09583],[87.98333,22.09556],[87.98389,22.095],[87.98389,22.09472],[87.98444,22.09417],[87.98444,22.09389],[87.985,22.09333],[87.985,22.09306],[87.98639,22.09167],[87.98639,22.09139],[87.98861,22.08917],[87.98861,22.08889],[87.98972,22.08778],[87.99017,22.08734],[87.99062,22.08692],[87.99107,22.08666],[87.99151,22.08639],[87.99193,22.08608],[87.99226,22.08568],[87.99263,22.08532],[87.99301,22.08503],[87.99334,22.08471],[87.99365,22.08441],[87.99397,22.08409],[87.99431,22.08378],[87.99474,22.08348],[87.99522,22.08317],[87.99571,22.08282],[87.99622,22.08251],[87.99639,22.0825],[87.99973,22.07917],[88,22.07917],[88.00139,22.07778],[88.00166,22.07778],[88.00195,22.0775],[88.00222,22.0775],[88.00389,22.07583],[88.00417,22.07584],[88.00445,22.07556],[88.00472,22.07556],[88.005,22.07528],[88.00528,22.07528],[88.00554,22.07501],[88.00583,22.07501],[88.00611,22.07472],[88.00639,22.07472],[88.00694,22.07417],[88.00723,22.07417],[88.00777,22.07361],[88.00806,22.07361],[88.00861,22.07306],[88.00861,22.07278],[88.01019,22.0712],[88.01111,22.07028],[88.01196,22.06806],[88.01196,22.0675],[88.01222,22.06722],[88.01222,22.06694],[88.01278,22.06639],[88.01278,22.06611],[88.01305,22.06582],[88.01305,22.06556],[88.01334,22.06528],[88.01334,22.06472],[88.01361,22.06444],[88.01361,22.06167],[88.01389,22.06139],[88.01389,22.06056],[88.01417,22.06028],[88.01417,22.06001],[88.01444,22.0575],[88.01471,22.05722],[88.01473,22.05639],[88.015,22.05611],[88.015,22.05583],[88.01527,22.05556],[88.01527,22.055],[88.01556,22.05472],[88.01556,22.05333],[88.01583,22.05306],[88.01583,22.0525],[88.01722,22.05111],[88.01722,22.04944],[88.01694,22.04917],[88.01694,22.04889],[88.01667,22.04861],[88.01667,22.04833],[88.01639,22.04806],[88.01639,22.04684],[88.01639,22.04472],[88.01667,22.04444],[88.01667,22.04278],[88.01694,22.0425],[88.01694,22.04194],[88.01722,22.04167],[88.01722,22.04139],[88.0175,22.04111],[88.0175,22.04083],[88.01778,22.04056],[88.01777,22.04028],[88.01833,22.03972],[88.01861,22.03972],[88.01916,22.03917],[88.02084,22.0375],[88.02084,22.03722],[88.02167,22.03639],[88.02194,22.03639],[88.02278,22.03555],[88.02278,22.03528],[88.02472,22.03333],[88.02472,22.03278],[88.025,22.0325],[88.025,22.03222],[88.02528,22.03195],[88.02556,22.03195],[88.0325,22.025],[88.03278,22.025],[88.03361,22.02417],[88.03416,22.02417],[88.03445,22.0239],[88.03472,22.0239],[88.035,22.02361],[88.03555,22.02361],[88.03611,22.02306],[88.03639,22.02306],[88.03694,22.0225],[88.03722,22.0225],[88.03833,22.02139],[88.03888,22.02139],[88.03917,22.02111],[88.03944,22.02111],[88.03972,22.02084],[88.04028,22.02084],[88.04056,22.02056],[88.04111,22.02056],[88.04165,22.02],[88.04194,22.02],[88.0425,22.01944],[88.04278,22.01944],[88.04305,22.01917],[88.04334,22.01917],[88.04361,22.01889],[88.04389,22.01889],[88.04417,22.01861],[88.04472,22.01861],[88.045,22.01833],[88.04555,22.01833],[88.04583,22.01805],[88.04611,22.01806],[88.04639,22.01777],[88.04667,22.01778],[88.04695,22.0175],[88.04723,22.0175],[88.0475,22.01722],[88.04777,22.01722],[88.04833,22.01667],[88.04861,22.01667],[88.04916,22.01611],[88.04972,22.01611],[88.05,22.01583],[88.05055,22.01583],[88.05084,22.01556],[88.05111,22.01556],[88.05167,22.015],[88.05194,22.015],[88.05222,22.01471],[88.05222,22.01444],[88.0525,22.01417],[88.0525,22.01361],[88.05278,22.01333],[88.05278,22.01111],[88.05305,22.01083],[88.05306,22.01028],[88.05278,22.01],[88.05278,22.00945],[88.0525,22.00917],[88.0525,22.00861],[88.05222,22.00833],[88.05222,22.0075],[88.05194,22.00722],[88.05194,22.00695],[88.05111,22.00611],[88.05111,22.00583],[88.05084,22.00583],[88.04862,22.00361],[88.04861,22.00333],[88.0475,22.00222],[88.0475,22.00194],[88.04723,22.00167],[88.04723,22.00139],[88.0461,22.00027],[88.04583,22],[88.04556,21.99945],[88.04556,21.99889],[88.04528,21.99861],[88.04528,21.99833],[88.045,21.99806],[88.045,21.99778],[88.04472,21.9975],[88.04472,21.99694],[88.04444,21.99667],[88.04444,21.99611],[88.04417,21.99583],[88.04417,21.99556],[88.04389,21.99528],[88.04389,21.995],[88.04361,21.99472],[88.04361,21.99444],[88.04334,21.99417],[88.04334,21.99389],[88.04278,21.99333],[88.04278,21.99278],[88.0425,21.9925],[88.0425,21.99195],[88.04165,21.99111],[88.04166,21.99055],[88.04112,21.99],[88.04111,21.98972],[88.04083,21.98944],[88.04083,21.98917],[88.04056,21.98889],[88.04056,21.98861],[88.04028,21.98833],[88.04028,21.98806],[88.04,21.98806],[88.03944,21.9875],[88.03917,21.98722],[88.03917,21.98639],[88.03888,21.98611],[88.03888,21.98583],[88.03833,21.98528],[88.03833,21.985],[88.03778,21.98444],[88.03778,21.98417],[88.0375,21.98417],[88.0375,21.98389],[88.03694,21.98333],[88.03694,21.98306],[88.03667,21.98278],[88.03667,21.9825],[88.03639,21.98222],[88.03639,21.98195],[88.03584,21.98139],[88.03584,21.98083],[88.03611,21.98056],[88.03611,21.98028],[88.03584,21.98],[88.03584,21.97945],[88.03555,21.97917],[88.0353,21.97876],[88.03514,21.97847],[88.03501,21.97821],[88.0349,21.9779],[88.03482,21.97755],[88.03487,21.97708],[88.03488,21.97661],[88.03469,21.9763],[88.0344,21.97606],[88.03416,21.97585],[88.03393,21.97559],[88.03386,21.97527],[88.03371,21.97495],[88.03361,21.97454],[88.03351,21.97404],[88.0334,21.97348],[88.03317,21.97293],[88.03285,21.97244],[88.03257,21.97193],[88.03241,21.97132],[88.03224,21.97075],[88.0321,21.97018],[88.03191,21.96966],[88.03165,21.96919],[88.03139,21.96875],[88.03111,21.96837],[88.03111,21.96778],[88.03,21.96666],[88.03,21.96611],[88.02971,21.96611],[88.02971,21.96583],[88.02944,21.96555],[88.02944,21.96528],[88.02917,21.965],[88.02917,21.96472],[88.02889,21.96444],[88.02889,21.96417],[88.02917,21.96389],[88.02805,21.96278],[88.02805,21.96222],[88.02722,21.96139],[88.02722,21.96111],[88.02694,21.96083],[88.02695,21.96028],[88.02665,21.96],[88.02665,21.95972],[88.02695,21.95944],[88.02695,21.95917],[88.02611,21.95833],[88.02583,21.95833],[88.02556,21.95806],[88.02556,21.95778],[88.025,21.95722],[88.025,21.95667],[88.02472,21.95639],[88.02472,21.95583],[88.02445,21.95556],[88.02444,21.95528],[88.02417,21.955],[88.02444,21.95472],[88.02445,21.95389],[88.02306,21.9525],[88.02306,21.95222],[88.0225,21.95167],[88.0225,21.95139],[88.02222,21.95111],[88.02222,21.95083],[88.02194,21.95056],[88.02194,21.95028],[88.02139,21.94972],[88.02138,21.94861],[88.02111,21.94833],[88.02111,21.94778],[88.02028,21.94695],[88.02028,21.94639],[88.02,21.94611],[88.02,21.94583],[88.02028,21.94556],[88.02028,21.945],[88.02,21.94472],[88.02,21.94417],[88.01917,21.94333],[88.01916,21.94278],[88.01889,21.94249],[88.01889,21.94222],[88.01861,21.94195],[88.01861,21.94167],[88.01777,21.94083],[88.01778,21.94056],[88.0175,21.94028],[88.0175,21.94],[88.01722,21.93972],[88.01722,21.93917],[88.01694,21.93889],[88.01694,21.93861],[88.01667,21.93833],[88.01667,21.93805],[88.01639,21.93778],[88.01639,21.9375],[88.0161,21.93707],[88.01584,21.9367],[88.0156,21.9363],[88.01543,21.93582],[88.01534,21.93528],[88.01537,21.93465],[88.01537,21.93403],[88.01511,21.93357],[88.01484,21.93315],[88.01469,21.93271],[88.01465,21.93219],[88.01442,21.9317],[88.01407,21.93126],[88.01379,21.93083],[88.01359,21.93038],[88.01344,21.92993],[88.01325,21.92953],[88.01302,21.92919],[88.01279,21.92884],[88.01259,21.92845],[88.01247,21.92802],[88.01229,21.92762],[88.01217,21.92718],[88.01202,21.92675],[88.0119,21.92626],[88.01174,21.92574],[88.01167,21.92556],[88.01167,21.925],[88.01141,21.92423],[88.01139,21.92361],[88.01139,21.92333],[88.01083,21.92278],[88.01083,21.92194],[88.01056,21.92167],[88.01056,21.92121],[88.01056,21.92056],[88.01083,21.92028],[88.01083,21.91972],[88.01056,21.91945],[88.01056,21.91861],[88.01028,21.91833],[88.01028,21.91806],[88.01,21.91778],[88.01,21.9175],[88.00972,21.91722],[88.00972,21.91695],[88.00889,21.91611],[88.00861,21.91611],[88.00838,21.91583],[88.00833,21.915],[88.00806,21.91472],[88.00806,21.91445],[88.00778,21.91417],[88.00777,21.91306],[88.0075,21.91278],[88.0075,21.91139],[88.00639,21.91028],[88.00639,21.91],[88.00611,21.90972],[88.00611,21.90944],[88.00583,21.90917],[88.00583,21.90889],[88.00472,21.90778],[88.00472,21.9075],[88.00445,21.90722],[88.00417,21.90722],[88.00377,21.90683],[88.00361,21.90667],[88.00361,21.90583],[88.00333,21.90556],[88.00333,21.90472],[88.00361,21.90444],[88.00361,21.90389],[88.00195,21.90222],[88.00195,21.90167],[88.00099,21.90034],[88.00042,21.89923],[88.00035,21.89909],[88.00027,21.89902],[88,21.89861],[87.99917,21.89778],[87.99917,21.89751],[87.99889,21.89722],[87.99889,21.89694],[87.99861,21.89667],[87.99861,21.89611],[87.99805,21.89556],[87.99805,21.89528],[87.99778,21.895],[87.99778,21.89472],[87.99722,21.89417],[87.99722,21.89389],[87.99667,21.89333],[87.99667,21.89306],[87.99601,21.8924],[87.99584,21.89222],[87.99568,21.89179],[87.99547,21.89137],[87.99527,21.89093],[87.99507,21.89049],[87.99492,21.89003],[87.99476,21.88967],[87.99463,21.88939],[87.99447,21.88911],[87.99431,21.88877],[87.99415,21.88831],[87.99393,21.88779],[87.99371,21.8872],[87.99333,21.88667],[87.9925,21.88583],[87.9925,21.88555],[87.99194,21.885],[87.99194,21.88472],[87.99167,21.88444],[87.99167,21.88417],[87.99139,21.88389],[87.99139,21.88333],[87.99111,21.88305],[87.99084,21.88278],[87.99083,21.88221],[87.99028,21.88167],[87.99028,21.88139],[87.99005,21.88078],[87.98988,21.88024],[87.98973,21.87979],[87.98944,21.87944],[87.98917,21.87944],[87.98889,21.87917],[87.98889,21.87889],[87.98828,21.87805],[87.98805,21.8775],[87.98805,21.87667],[87.98779,21.8764],[87.98779,21.87611],[87.9875,21.87583],[87.98745,21.87554],[87.98723,21.87516],[87.98699,21.87477],[87.98671,21.87436],[87.98646,21.87386],[87.98629,21.87336],[87.98608,21.87299],[87.98592,21.87273],[87.98582,21.87251],[87.98576,21.87223],[87.98564,21.87186],[87.98544,21.87137],[87.98527,21.87082],[87.985,21.87027],[87.9847,21.8697],[87.98439,21.86912],[87.98417,21.86861],[87.98417,21.86833],[87.98361,21.86778],[87.98361,21.8675],[87.98293,21.86639],[87.98286,21.86604],[87.98273,21.86577],[87.98264,21.86555],[87.9825,21.86445],[87.98209,21.86375],[87.98196,21.86306],[87.98194,21.86278],[87.98194,21.8625],[87.98139,21.86194],[87.98139,21.86167],[87.98111,21.8614],[87.98111,21.86111],[87.98084,21.86083],[87.98084,21.85972],[87.98055,21.85944],[87.98055,21.85917],[87.98028,21.85889],[87.98055,21.85861],[87.98055,21.85833],[87.98048,21.85826],[87.98028,21.85805],[87.98028,21.85778],[87.97916,21.85667],[87.97916,21.85611],[87.97861,21.85556],[87.97833,21.85556],[87.9775,21.85472],[87.9775,21.85417],[87.97722,21.85389],[87.97722,21.85361],[87.97694,21.85333],[87.97694,21.85278],[87.97639,21.85221],[87.97639,21.85194],[87.97611,21.85167],[87.97611,21.85111],[87.97528,21.85028],[87.9752,21.85028],[87.9752,21.85021],[87.9752,21.8502],[87.9752,21.85013],[87.9752,21.85006],[87.9752,21.85001],[87.9752,21.84992],[87.97521,21.84982],[87.97516,21.84962],[87.97515,21.84946],[87.97522,21.84933],[87.97521,21.84916],[87.9752,21.84911],[87.97518,21.84891],[87.9752,21.84872],[87.9752,21.8486],[87.97519,21.84857],[87.97516,21.8484],[87.97521,21.84823],[87.9752,21.8481],[87.97535,21.84789],[87.97532,21.84767],[87.97548,21.84741],[87.97537,21.84723],[87.97537,21.84694],[87.97546,21.84682],[87.97543,21.84668],[87.97538,21.84648],[87.97543,21.84627],[87.97542,21.84611],[87.97544,21.84606],[87.97546,21.846],[87.97548,21.84596],[87.97554,21.84583],[87.97551,21.84541],[87.97554,21.84513],[87.97557,21.84503],[87.9756,21.84496],[87.97219,21.84027],[87.96426,21.83172],[87.96093,21.82607],[87.95178,21.81777],[87.94078,21.80662],[87.92626,21.79485],[87.91556,21.78943],[87.91195,21.78685],[87.91027,21.78548],[87.9045,21.78405],[87.89822,21.78291],[87.89665,21.78198],[87.89707,21.77667],[87.89657,21.77416],[87.8942,21.77108],[87.89268,21.77027],[87.8894,21.76784],[87.8865,21.76536],[87.87509,21.75438],[87.87463,21.75437],[87.87161,21.74885],[87.86975,21.74596],[87.86816,21.74505],[87.86791,21.74484],[87.86791,21.74438],[87.86446,21.74161],[87.86317,21.73974],[87.86063,21.73705],[87.86046,21.73696],[87.85997,21.73695],[87.85974,21.73633],[87.85546,21.73337],[87.85497,21.73337],[87.85497,21.73292],[87.852,21.72972],[87.84428,21.72446],[87.84397,21.72377],[87.84083,21.72082],[87.84034,21.72082],[87.84034,21.72036],[87.83662,21.71623],[87.83517,21.71553],[87.83519,21.71508],[87.82956,21.71156],[87.82839,21.71077],[87.8278,21.7104],[87.82222,21.7057],[87.81452,21.70087],[87.78702,21.68805],[87.78683,21.68793],[87.78489,21.68747],[87.78489,21.68702],[87.7796,21.68538],[87.77813,21.68557],[87.77499,21.68418],[87.77403,21.68441],[87.76472,21.68128],[87.76366,21.68115],[87.76174,21.6818],[87.76124,21.68337],[87.75929,21.68405],[87.75471,21.68219],[87.75471,21.68173],[87.75434,21.68149],[87.75385,21.68149],[87.75379,21.67855],[87.75236,21.67648],[87.74837,21.67233],[87.74421,21.66803],[87.73077,21.6584],[87.70674,21.64458],[87.69589,21.64062],[87.68009,21.63589],[87.67659,21.63496],[87.66743,21.63242],[87.65512,21.63183],[87.65487,21.63206],[87.63291,21.62683],[87.6306,21.6269],[87.61095,21.62412],[87.60465,21.62246],[87.59764,21.62329],[87.59703,21.62307],[87.59669,21.62237],[87.5955,21.6217],[87.59515,21.62167],[87.58509,21.62044],[87.57399,21.61713],[87.57039,21.61709],[87.57013,21.61822],[87.57012,21.61891],[87.56841,21.62002],[87.56406,21.62066],[87.55995,21.61903],[87.55879,21.61471],[87.55809,21.61402],[87.55061,21.61122],[87.54389,21.61004],[87.53416,21.60757],[87.5281,21.60679],[87.52118,21.60616],[87.51668,21.60564],[87.50879,21.60449],[87.503,21.60406],[87.50155,21.60428],[87.49897,21.60409],[87.49796,21.60387],[87.4902,21.60265],[87.4879,21.60927],[87.48598,21.61457],[87.48594,21.61894],[87.48689,21.62313],[87.48631,21.63096],[87.48279,21.63303],[87.48176,21.63684],[87.47497,21.64812],[87.47201,21.6507],[87.46516,21.6495],[87.4629,21.65],[87.46468,21.66217],[87.46913,21.66358],[87.46774,21.67379],[87.46932,21.67612],[87.46946,21.68014],[87.47251,21.68227],[87.47264,21.68877],[87.47397,21.69657],[87.47178,21.70063],[87.47355,21.70342],[87.47508,21.71213],[87.46691,21.722],[87.46507,21.72543],[87.46658,21.72718],[87.46999,21.7285],[87.47033,21.73011],[87.46943,21.73128],[87.46703,21.73132],[87.45848,21.73435],[87.44721,21.73396],[87.4487,21.73739],[87.45565,21.73732],[87.45539,21.74032],[87.44991,21.74283],[87.4476,21.74701],[87.44674,21.7602],[87.44796,21.76576],[87.4436,21.76922],[87.44357,21.76922],[87.44358,21.76926],[87.44374,21.7722],[87.44133,21.7749],[87.44138,21.78973],[87.43912,21.7916],[87.43287,21.79108],[87.42828,21.79536],[87.43538,21.8022],[87.44088,21.80358],[87.44049,21.81052],[87.44359,21.81829],[87.44679,21.81896],[87.44881,21.82154],[87.44758,21.82768],[87.44426,21.83356],[87.44434,21.83669],[87.44903,21.83722],[87.45304,21.83875],[87.45938,21.84599],[87.45797,21.85602],[87.46,21.86034],[87.46023,21.86448],[87.45778,21.86967],[87.4567,21.87369],[87.45175,21.87688],[87.45238,21.88284],[87.45067,21.88919],[87.46143,21.89087],[87.46171,21.89409],[87.4637,21.89602],[87.47265,21.89705],[87.47779,21.89891],[87.48088,21.90116],[87.48047,21.90606],[87.48119,21.9099],[87.48349,21.91393],[87.48761,21.91861],[87.48656,21.92438],[87.48257,21.93426],[87.4857,21.93705],[87.48932,21.93826],[87.49737,21.93721],[87.5,21.94178],[87.50211,21.94767],[87.51254,21.94687],[87.51554,21.95096],[87.50968,21.9555],[87.50373,21.95699],[87.49051,21.95562],[87.4881,21.95675],[87.48488,21.97646],[87.48147,21.97736],[87.48157,21.98086],[87.48522,21.98077],[87.48628,21.98376],[87.48544,21.9897],[87.48268,21.98993],[87.48192,22.00085],[87.47954,22.0041],[87.4637,22.00728],[87.4674,22.02885],[87.47042,22.02972],[87.47204,22.03213],[87.48135,22.03941],[87.48495,22.03665],[87.48705,22.0336],[87.4891,22.03654],[87.49038,22.03998],[87.49096,22.04659],[87.48429,22.04765],[87.48184,22.04971],[87.48312,22.05997],[87.4895,22.06445],[87.48279,22.06644],[87.47848,22.06887],[87.4771,22.07235],[87.47757,22.07546],[87.47996,22.07921],[87.48401,22.08251],[87.48854,22.08395],[87.49304,22.08824],[87.49712,22.09044],[87.51091,22.09092],[87.52514,22.09089],[87.53452,22.08876],[87.539,22.0842],[87.54855,22.08852],[87.55345,22.0866],[87.55722,22.08449],[87.55888,22.0892],[87.562,22.09366],[87.56774,22.09706],[87.57436,22.09866],[87.57725,22.09723],[87.58268,22.09714],[87.58455,22.09345],[87.5844,22.08921],[87.58683,22.08504],[87.58743,22.08676],[87.59139,22.09034],[87.59721,22.09337],[87.60365,22.09359],[87.6076,22.09183],[87.60999,22.09706],[87.61574,22.09557],[87.62032,22.09617],[87.62054,22.09993],[87.62278,22.10268],[87.62838,22.10378],[87.63526,22.10288],[87.64358,22.10403],[87.65096,22.10505],[87.65553,22.10533],[87.66282,22.10554],[87.66832,22.10693],[87.67226,22.10792],[87.67864,22.11211],[87.68059,22.11383],[87.68213,22.11519],[87.69387,22.12554],[87.70365,22.12863],[87.70461,22.14665],[87.70588,22.1547],[87.70868,22.16535],[87.71202,22.17163],[87.70826,22.17837],[87.7105,22.18277],[87.71524,22.18096],[87.71698,22.19037],[87.71834,22.18652],[87.72376,22.18597],[87.73016,22.1921],[87.73068,22.19419],[87.73036,22.19687],[87.72972,22.20484],[87.72755,22.20671],[87.72444,22.2076],[87.71544,22.20788],[87.71254,22.21411],[87.70925,22.21704],[87.70575,22.21824],[87.70122,22.22879],[87.70205,22.23272],[87.7016,22.23523],[87.70502,22.24727],[87.70757,22.25927],[87.70544,22.27357],[87.70621,22.28322],[87.71603,22.30033],[87.72385,22.32197],[87.71899,22.32526],[87.7114,22.32776],[87.70843,22.33105],[87.70501,22.33187],[87.69794,22.32974],[87.68481,22.32718],[87.68458,22.32716],[87.67983,22.32679],[87.66968,22.32776],[87.6661,22.32592],[87.66633,22.33328],[87.66391,22.33248],[87.66237,22.3333],[87.65881,22.33339],[87.65666,22.3323],[87.65422,22.3279],[87.65126,22.32805],[87.65184,22.33466],[87.6478,22.3333],[87.64967,22.33818],[87.64826,22.3412],[87.64894,22.36299],[87.65459,22.37989],[87.6584,22.39417],[87.65932,22.40238],[87.66,22.41047],[87.65972,22.41679],[87.65878,22.41932],[87.65543,22.42143],[87.65439,22.42563],[87.64828,22.43138],[87.64971,22.43721],[87.65187,22.44199],[87.65539,22.45472],[87.65836,22.4613],[87.66553,22.46177],[87.67386,22.46337],[87.67579,22.46927],[87.67503,22.47484],[87.67636,22.48045],[87.67834,22.48389],[87.6876,22.4877],[87.68932,22.48841],[87.69172,22.49548],[87.693,22.50472],[87.6942,22.509],[87.69684,22.50997],[87.69932,22.50819],[87.71159,22.49253],[87.73777,22.49046],[87.74083,22.48855],[87.74519,22.48169],[87.74908,22.47872],[87.76056,22.47648],[87.77019,22.47995],[87.77428,22.48038],[87.77917,22.48244],[87.78687,22.4885],[87.78877,22.48702],[87.79102,22.48321],[87.79502,22.48199],[87.79896,22.48483],[87.8051,22.49134],[87.81441,22.49593],[87.81758,22.49909],[87.82127,22.5012],[87.82536,22.50145],[87.83408,22.50616],[87.83742,22.50715],[87.84191,22.50926],[87.84374,22.51175],[87.84895,22.51416],[87.85765,22.5133],[87.86079,22.51299],[87.86696,22.51331]]],[[[88.14139,22.02639],[88.1425,22.02528],[88.14278,22.02528],[88.14333,22.02472],[88.14361,22.02472],[88.14445,22.02389],[88.14472,22.0239],[88.14445,22.02361],[88.14445,22.02333],[88.14417,22.02306],[88.14417,22.02278],[88.14389,22.0225],[88.14389,22.02194],[88.14361,22.02167],[88.14361,22.02111],[88.14333,22.02084],[88.14333,22.02056],[88.14167,22.01889],[88.14167,22.01861],[88.13889,22.01583],[88.13889,22.01556],[88.13722,22.01389],[88.13722,22.01361],[88.13695,22.01333],[88.13695,22.01306],[88.13529,22.01139],[88.13529,22.01111],[88.13425,22.01008],[88.13416,22.01],[88.13416,22.00972],[88.13361,22.00917],[88.13361,22.0089],[88.13194,22.00722],[88.13194,22.00695],[88.13139,22.00639],[88.13139,22.00611],[88.13028,22.005],[88.13028,22.00444],[88.13,22.00417],[88.13,22.00389],[88.12945,22.00333],[88.12945,22.00306],[88.12861,22.00222],[88.12861,22.00167],[88.12833,22.00139],[88.12833,22.00111],[88.12805,22.00083],[88.12805,22.00056],[88.12778,22.00028],[88.12722,22],[88.12729,21.99896],[88.12722,21.99861],[88.12701,21.9984],[88.12695,21.99806],[88.12692,21.99799],[88.12666,21.9975],[88.12638,21.99736],[88.12617,21.99715],[88.12603,21.99687],[88.1261,21.99651],[88.12589,21.99618],[88.12569,21.99583],[88.12547,21.99576],[88.12532,21.99521],[88.09144,21.9719],[88.08174,21.96522],[88.07103,21.94217],[88.0664,21.92829],[88.06714,21.92],[88.06695,21.92],[88.06667,21.91972],[88.06583,21.91972],[88.06416,21.91806],[88.06333,21.91806],[88.06307,21.91778],[88.06307,21.91722],[88.0625,21.91722],[88.06139,21.91611],[88.06111,21.91611],[88.06084,21.91583],[88.06055,21.91583],[88.05972,21.915],[88.05945,21.915],[88.05917,21.91472],[88.05889,21.91472],[88.05861,21.91445],[88.05833,21.91445],[88.0575,21.91361],[88.05722,21.91361],[88.05666,21.91306],[88.05611,21.91306],[88.05583,21.91278],[88.05527,21.91278],[88.055,21.91251],[88.05444,21.91251],[88.05422,21.91227],[88.05334,21.91222],[88.05306,21.91194],[88.05278,21.91195],[88.0525,21.91167],[88.05082,21.91167],[88.05055,21.91139],[88.04861,21.91139],[88.04838,21.91116],[88.04807,21.91111],[88.0475,21.91167],[88.04723,21.91167],[88.04723,21.91194],[88.04667,21.91222],[88.04667,21.91251],[88.04611,21.91306],[88.04611,21.91528],[88.04583,21.91556],[88.04665,21.9197],[88.04723,21.92307],[88.04723,21.92611],[88.04787,21.92807],[88.04789,21.92932],[88.04746,21.93127],[88.04768,21.93289],[88.04939,21.93557],[88.04918,21.93746],[88.04918,21.9386],[88.05003,21.94041],[88.05084,21.94306],[88.05082,21.94339],[88.05183,21.94501],[88.05197,21.94756],[88.05304,21.94978],[88.05347,21.95092],[88.05389,21.95306],[88.05389,21.95333],[88.05477,21.95489],[88.05576,21.95832],[88.0564,21.96047],[88.05727,21.96235],[88.05841,21.96397],[88.05877,21.96639],[88.05956,21.96767],[88.05972,21.96889],[88.06001,21.96917],[88.06007,21.96935],[88.06158,21.97251],[88.06301,21.97513],[88.06333,21.97611],[88.06333,21.97694],[88.06389,21.9775],[88.06427,21.9788],[88.06556,21.98142],[88.06684,21.98358],[88.06821,21.98526],[88.06936,21.98714],[88.07,21.98889],[88.07,21.99],[88.07027,21.99028],[88.07027,21.99083],[88.07083,21.99139],[88.07133,21.99222],[88.0725,21.99389],[88.0725,21.99417],[88.07333,21.995],[88.07333,21.99528],[88.07555,21.9975],[88.07555,21.99778],[88.07694,21.99917],[88.07694,21.99945],[88.0775,22],[88.08,22.00028],[88.08019,22.00046],[88.08056,22.00083],[88.08083,22.00083],[88.08111,22.00111],[88.08139,22.00111],[88.08167,22.00139],[88.08195,22.00139],[88.08278,22.00222],[88.08278,22.0025],[88.08389,22.00361],[88.08472,22.00361],[88.08667,22.00556],[88.08667,22.00611],[88.0875,22.00695],[88.08778,22.00695],[88.08806,22.00722],[88.08833,22.00722],[88.09028,22.00917],[88.09055,22.0089],[88.09084,22.0089],[88.09222,22.01028],[88.09278,22.01028],[88.09389,22.01139],[88.09472,22.01139],[88.095,22.01167],[88.09556,22.01167],[88.09583,22.01194],[88.09611,22.01194],[88.09639,22.01222],[88.09778,22.01222],[88.09805,22.0125],[88.09889,22.0125],[88.09918,22.01278],[88.1,22.01278],[88.10028,22.01306],[88.10111,22.01306],[88.10125,22.0132],[88.10139,22.01333],[88.10193,22.01333],[88.10222,22.01361],[88.1025,22.01361],[88.10278,22.01389],[88.10333,22.01389],[88.10361,22.01417],[88.10417,22.01417],[88.10445,22.01444],[88.105,22.01444],[88.10528,22.01472],[88.10583,22.01471],[88.10611,22.015],[88.10694,22.015],[88.10722,22.01528],[88.10806,22.01528],[88.10833,22.01556],[88.10917,22.01556],[88.10944,22.01583],[88.11,22.01583],[88.11028,22.01611],[88.11083,22.01611],[88.11112,22.01639],[88.1125,22.01639],[88.11278,22.01667],[88.11305,22.01667],[88.11333,22.01694],[88.11389,22.01694],[88.11417,22.01667],[88.11472,22.01667],[88.115,22.01639],[88.11528,22.01639],[88.11555,22.01667],[88.11584,22.01667],[88.11611,22.01694],[88.11723,22.01694],[88.11741,22.01713],[88.1175,22.01722],[88.11806,22.01722],[88.11833,22.0175],[88.11972,22.0175],[88.12195,22.01833],[88.12222,22.01833],[88.1225,22.01861],[88.12335,22.01861],[88.12361,22.01889],[88.12444,22.01889],[88.12454,22.01899],[88.12473,22.01917],[88.12556,22.01917],[88.12612,22.01972],[88.12666,22.01972],[88.12695,22.02],[88.1275,22.02],[88.12778,22.02028],[88.12805,22.02028],[88.12861,22.02084],[88.12916,22.02084],[88.12945,22.02111],[88.13,22.02111],[88.13028,22.02139],[88.13056,22.02139],[88.13111,22.02194],[88.13139,22.02194],[88.13176,22.02231],[88.13194,22.0225],[88.1325,22.0225],[88.13277,22.02278],[88.13306,22.02278],[88.13333,22.02306],[88.13361,22.02306],[88.13389,22.02333],[88.13416,22.02333],[88.13424,22.02341],[88.13472,22.0239],[88.13529,22.0239],[88.13542,22.02403],[88.13556,22.02417],[88.13611,22.02417],[88.13667,22.02472],[88.13722,22.02472],[88.1375,22.025],[88.13917,22.025],[88.13944,22.02528],[88.14,22.02528],[88.14027,22.02556],[88.14056,22.02555],[88.14139,22.02639]]],[[[87.94051,21.74297],[87.93732,21.74299],[87.93441,21.74362],[87.9348,21.74706],[87.93631,21.74974],[87.94044,21.75512],[87.94152,21.75663],[87.94483,21.75974],[87.94764,21.76393],[87.9518,21.76704],[87.95222,21.7682],[87.95739,21.77052],[87.95957,21.77067],[87.9602,21.77014],[87.96057,21.76525],[87.96116,21.75926],[87.96036,21.75836],[87.9598,21.75573],[87.95399,21.75101],[87.94681,21.7461],[87.9452,21.74506],[87.94051,21.74297]]],[[[88.00695,22.23837],[88.01095,22.23113],[88.01179,22.23017],[88.01167,22.23028],[88.01111,22.23028],[88.01083,22.23056],[88.01056,22.23056],[88.01028,22.23083],[88.00972,22.23083],[88.00916,22.23139],[88.0089,22.23139],[88.00861,22.23168],[88.00806,22.23168],[88.00777,22.23195],[88.0075,22.23194],[88.00723,22.23222],[88.00694,22.23222],[88.00667,22.2325],[88.00639,22.2325],[88.00611,22.23278],[88.00583,22.23278],[88.00554,22.23306],[88.00528,22.23305],[88.00445,22.23333],[88.00389,22.23389],[88.00361,22.23389],[88.00333,22.23417],[88.00305,22.23417],[88.00277,22.23445],[88.00222,22.23445],[88.00166,22.235],[88.00111,22.235],[88.00083,22.23528],[88,22.23556],[87.99927,22.23571],[87.99622,22.23748],[87.99584,22.23771],[87.99388,22.23879],[87.99357,22.23909],[87.99327,22.23935],[87.99291,22.2396],[87.99255,22.23988],[87.9921,22.24006],[87.99172,22.24029],[87.99137,22.24055],[87.99106,22.24081],[87.99076,22.24104],[87.99044,22.24123],[87.99009,22.24144],[87.98976,22.24172],[87.98945,22.24206],[87.98913,22.24242],[87.98879,22.24273],[87.98843,22.24297],[87.98805,22.24321],[87.98766,22.24345],[87.98728,22.2437],[87.98695,22.24399],[87.98665,22.24432],[87.9863,22.24466],[87.98585,22.24498],[87.98534,22.24532],[87.98486,22.2457],[87.98444,22.2461],[87.98405,22.24646],[87.98378,22.24687],[87.98351,22.24723],[87.98327,22.24757],[87.98302,22.24793],[87.9827,22.24829],[87.98222,22.24861],[87.9825,22.24889],[87.98028,22.25111],[87.98028,22.25139],[87.97945,22.25222],[87.97943,22.25235],[87.9791,22.25273],[87.97874,22.25309],[87.97843,22.25349],[87.97818,22.25389],[87.97793,22.25426],[87.97764,22.2545],[87.97742,22.25483],[87.97724,22.25522],[87.97698,22.25555],[87.97685,22.25573],[87.97674,22.25591],[87.97656,22.25632],[87.97634,22.25666],[87.97611,22.25698],[87.97584,22.25733],[87.97559,22.25777],[87.97532,22.25828],[87.97498,22.2588],[87.97466,22.25935],[87.97417,22.25972],[87.97389,22.26],[87.97417,22.26028],[87.97417,22.26056],[87.97389,22.26083],[87.97389,22.26111],[87.9725,22.2625],[87.9725,22.26278],[87.97144,22.26384],[87.98234,22.25904],[87.99304,22.25291],[87.99789,22.24505],[88,22.24163],[88.00695,22.23837]]],[[[87.88405,21.7445],[87.88066,21.74402],[87.87896,21.74446],[87.8789,21.74876],[87.88295,21.75673],[87.88558,21.75905],[87.89265,21.76546],[87.89829,21.77013],[87.90075,21.77214],[87.90419,21.77153],[87.90353,21.76793],[87.89935,21.76071],[87.89559,21.75753],[87.8948,21.75683],[87.89323,21.75452],[87.89291,21.75408],[87.8923,21.75385],[87.89002,21.75021],[87.88692,21.74702],[87.88405,21.7445]]],[[[87.92694,22.42155],[87.93897,22.4164],[87.94319,22.41149],[87.94512,22.40667],[87.945,22.40667],[87.94444,22.40611],[87.94361,22.40695],[87.94249,22.40694],[87.94195,22.4075],[87.94195,22.40778],[87.94167,22.40806],[87.94167,22.40861],[87.94139,22.40889],[87.94111,22.40889],[87.94083,22.40918],[87.94028,22.40917],[87.94,22.40945],[87.93972,22.40945],[87.93945,22.40972],[87.93945,22.41],[87.93723,22.41222],[87.93611,22.41333],[87.93584,22.41306],[87.935,22.41306],[87.93445,22.41361],[87.93445,22.41389],[87.93361,22.41472],[87.93333,22.41472],[87.93305,22.415],[87.93278,22.41499],[87.93139,22.41639],[87.93139,22.41667],[87.93055,22.4175],[87.93026,22.4175],[87.92749,22.42028],[87.9275,22.42056],[87.92722,22.42083],[87.92722,22.42112],[87.92694,22.42139],[87.92694,22.42155]]],[[[87.98972,22.2175],[87.99028,22.21694],[87.99055,22.21694],[87.99084,22.21667],[87.99139,22.21667],[87.99167,22.21638],[87.99194,22.21639],[87.99223,22.21611],[87.99277,22.21611],[87.99306,22.21583],[87.99333,22.21583],[87.99362,22.21556],[87.99389,22.21556],[87.995,22.21445],[87.99528,22.21445],[87.99667,22.21305],[87.99667,22.21278],[87.99555,22.21167],[87.99528,22.21195],[87.99362,22.21195],[87.99333,22.21222],[87.99277,22.21222],[87.99223,22.21278],[87.99194,22.21278],[87.99111,22.21361],[87.99084,22.21361],[87.98943,22.21501],[87.98805,22.21638],[87.98805,22.21667],[87.98778,22.21694],[87.98779,22.2175],[87.98805,22.21778],[87.98805,22.21806],[87.98833,22.21833],[87.98833,22.21861],[87.98889,22.21861],[87.98924,22.21827],[87.98972,22.21778],[87.98972,22.2175]]],[[[87.93806,22.39667],[87.93777,22.39667],[87.9375,22.39695],[87.9375,22.3975],[87.93723,22.39778],[87.93723,22.39833],[87.93694,22.39861],[87.93694,22.39889],[87.93667,22.39917],[87.93667,22.39945],[87.93639,22.39972],[87.93639,22.39999],[87.93611,22.40028],[87.93611,22.40083],[87.93584,22.40111],[87.93584,22.4025],[87.93555,22.40278],[87.93555,22.40361],[87.93528,22.40389],[87.93528,22.405],[87.935,22.40528],[87.935,22.40583],[87.93472,22.40612],[87.93472,22.40639],[87.93445,22.40667],[87.93445,22.40694],[87.93389,22.4075],[87.93389,22.40778],[87.93278,22.40889],[87.93278,22.40917],[87.93333,22.40972],[87.935,22.40806],[87.935,22.40778],[87.93584,22.40694],[87.93584,22.40667],[87.93611,22.40639],[87.93611,22.40583],[87.93639,22.40556],[87.93639,22.405],[87.93668,22.40472],[87.93667,22.40444],[87.93694,22.40417],[87.93694,22.40389],[87.93723,22.40361],[87.93723,22.40306],[87.9375,22.40278],[87.9375,22.40195],[87.93777,22.40167],[87.93777,22.40055],[87.93806,22.40028],[87.93806,22.39972],[87.93833,22.39945],[87.93833,22.39806],[87.93861,22.39778],[87.93861,22.39722],[87.93806,22.39667]]],[[[88.03139,22.05944],[88.03111,22.05917],[88.03083,22.05917],[88.03056,22.05889],[88.02917,22.05889],[88.02889,22.05917],[88.02861,22.05917],[88.02834,22.05945],[88.02805,22.05944],[88.0275,22.06001],[88.0275,22.06056],[88.02778,22.06083],[88.02778,22.06111],[88.0275,22.06139],[88.0275,22.06195],[88.02778,22.06222],[88.02805,22.06222],[88.02834,22.0625],[88.02944,22.0625],[88.03139,22.06056],[88.03139,22.05944]]],[[[87.88406,22.44038],[87.88549,22.43907],[87.88472,22.43951],[87.88412,22.44018],[87.88406,22.44038]]]]}}]}