{"type":"FeatureCollection","features":[{"type":"Feature","properties":{"id":"uttar-dinajpur","name":"Uttar Dinajpur","stateId":"west-bengal","stateName":"West Bengal","censuscode":330,"type":"district"},"geometry":{"type":"Polygon","coordinates":[[[88.34004,26.48699],[88.33995,26.48508],[88.33998,26.48478],[88.34033,26.47774],[88.34238,26.47322],[88.34287,26.47302],[88.34571,26.46805],[88.354,26.46337],[88.35502,26.46245],[88.35629,26.45748],[88.35633,26.4507],[88.35685,26.44911],[88.35761,26.44889],[88.36015,26.44755],[88.36312,26.44915],[88.36414,26.45006],[88.36449,26.45096],[88.36433,26.45865],[88.36779,26.46501],[88.36803,26.46749],[88.36674,26.47314],[88.36598,26.47359],[88.36446,26.47517],[88.36443,26.47967],[88.36531,26.48195],[88.36716,26.48355],[88.36818,26.48401],[88.36818,26.48445],[88.36817,26.48491],[88.37519,26.48494],[88.37772,26.4845],[88.38958,26.47736],[88.39839,26.47626],[88.39964,26.47673],[88.4035,26.48035],[88.40371,26.48126],[88.40815,26.4822],[88.4094,26.48197],[88.41014,26.48132],[88.4104,26.4804],[88.4114,26.47882],[88.41315,26.47772],[88.41341,26.47681],[88.41354,26.47648],[88.41406,26.47626],[88.41853,26.46599],[88.42154,26.46486],[88.42306,26.46464],[88.42507,26.46511],[88.42618,26.46716],[88.42891,26.47035],[88.42963,26.47081],[88.43095,26.47192],[88.43204,26.47238],[88.43607,26.47287],[88.43883,26.47152],[88.43958,26.47061],[88.44114,26.46497],[88.44844,26.4616],[88.45017,26.46118],[88.4517,26.46163],[88.45646,26.46427],[88.46374,26.46601],[88.46729,26.4649],[88.47993,26.4637],[88.48716,26.45987],[88.48436,26.45312],[88.48396,26.44748],[88.48887,26.44457],[88.49403,26.44428],[88.49526,26.43965],[88.49516,26.42519],[88.49862,26.41995],[88.50156,26.41773],[88.50304,26.41578],[88.50042,26.41104],[88.50043,26.40717],[88.50499,26.40492],[88.51024,26.40406],[88.51101,26.4036],[88.51253,26.40248],[88.51279,26.4009],[88.51231,26.39984],[88.51104,26.39772],[88.51119,26.39391],[88.51183,26.39256],[88.51711,26.38918],[88.51937,26.38874],[88.52019,26.38915],[88.52563,26.39196],[88.52421,26.38729],[88.52315,26.3831],[88.52178,26.38192],[88.5211,26.38114],[88.5196,26.37959],[88.51612,26.3728],[88.51974,26.37284],[88.52273,26.37223],[88.52446,26.37275],[88.52799,26.3738],[88.53309,26.37346],[88.53034,26.3689],[88.52701,26.36571],[88.52678,26.36564],[88.52465,26.36471],[88.52438,26.36397],[88.5231,26.36314],[88.52302,26.36116],[88.52528,26.36051],[88.52654,26.36028],[88.52779,26.35937],[88.52793,26.35733],[88.52682,26.35574],[88.52505,26.35506],[88.52279,26.35416],[88.5228,26.35369],[88.51898,26.35036],[88.51241,26.34705],[88.51273,26.35254],[88.51376,26.35705],[88.51375,26.35886],[88.51297,26.36091],[88.51146,26.36156],[88.51098,26.36177],[88.50748,26.36131],[88.50573,26.36087],[88.50548,26.36018],[88.50395,26.35879],[88.50072,26.35924],[88.49657,26.35855],[88.49546,26.35788],[88.49469,26.35696],[88.49533,26.35085],[88.49473,26.34993],[88.49422,26.34972],[88.48819,26.35104],[88.48694,26.35173],[88.48643,26.35307],[88.48619,26.35398],[88.48517,26.35487],[88.48208,26.35521],[88.47838,26.35506],[88.47407,26.35707],[88.46883,26.36043],[88.46669,26.36961],[88.46352,26.37328],[88.45933,26.36839],[88.45827,26.36604],[88.45377,26.36198],[88.45251,26.36011],[88.4495,26.35295],[88.44796,26.34924],[88.44188,26.33789],[88.43736,26.33538],[88.43044,26.33353],[88.4296,26.33331],[88.42435,26.33375],[88.41821,26.33303],[88.41682,26.33233],[88.41633,26.33166],[88.41622,26.33007],[88.41662,26.32644],[88.42086,26.32491],[88.42112,26.32422],[88.4227,26.3229],[88.42306,26.31917],[88.42152,26.31735],[88.41668,26.31653],[88.40915,26.31873],[88.40467,26.31878],[88.39835,26.31775],[88.39836,26.31731],[88.39613,26.31594],[88.39536,26.31572],[88.39537,26.31525],[88.39485,26.31524],[88.3945,26.31458],[88.39415,26.30982],[88.39339,26.3089],[88.39265,26.30846],[88.38787,26.30839],[88.38612,26.30768],[88.37886,26.30613],[88.37686,26.30428],[88.37661,26.30407],[88.37626,26.30317],[88.3754,26.30135],[88.37487,26.30095],[88.36602,26.29429],[88.36414,26.29338],[88.36265,26.29156],[88.36192,26.28951],[88.36078,26.28838],[88.35892,26.28588],[88.35834,26.28467],[88.35422,26.27568],[88.35079,26.26366],[88.35082,26.25778],[88.35391,26.24944],[88.35742,26.24583],[88.35768,26.24448],[88.35834,26.24267],[88.35885,26.24246],[88.35923,26.24154],[88.3594,26.23503],[88.35631,26.22933],[88.35483,26.22231],[88.35409,26.22164],[88.34036,26.21591],[88.33461,26.21178],[88.3304,26.20541],[88.32916,26.20452],[88.32781,26.2048],[88.3262,26.20459],[88.31889,26.20673],[88.31862,26.20739],[88.31811,26.20851],[88.31734,26.20896],[88.31259,26.20824],[88.31097,26.20734],[88.31058,26.20622],[88.30859,26.20372],[88.30735,26.20279],[88.30585,26.20255],[88.3056,26.20188],[88.30511,26.20232],[88.30487,26.20211],[88.29907,26.20412],[88.2921,26.2018],[88.29059,26.20112],[88.28556,26.19645],[88.28287,26.19449],[88.27737,26.19281],[88.27689,26.19237],[88.27439,26.19173],[88.27114,26.19194],[88.26158,26.1939],[88.25283,26.19251],[88.24034,26.1847],[88.23839,26.17995],[88.23763,26.1795],[88.22713,26.17586],[88.22464,26.17532],[88.22288,26.17494],[88.21814,26.17302],[88.21766,26.17189],[88.21368,26.16736],[88.21396,26.16327],[88.21297,26.16237],[88.21097,26.16169],[88.20671,26.16368],[88.2067,26.16413],[88.20294,26.16345],[88.19646,26.15978],[88.19374,26.15567],[88.18635,26.15067],[88.18279,26.14745],[88.17874,26.13568],[88.17713,26.13273],[88.17719,26.12593],[88.17603,26.11779],[88.17144,26.11302],[88.17031,26.11233],[88.16808,26.10824],[88.16317,26.10503],[88.16261,26.10411],[88.16161,26.10208],[88.16191,26.09733],[88.16394,26.09328],[88.16397,26.08967],[88.16276,26.08669],[88.16252,26.08468],[88.16282,26.07948],[88.16433,26.0788],[88.17375,26.07644],[88.17688,26.07573],[88.17738,26.07437],[88.17738,26.07394],[88.18392,26.07082],[88.18392,26.07036],[88.18518,26.06947],[88.18618,26.067],[88.18624,26.06315],[88.18488,26.06177],[88.1768,26.05491],[88.17428,26.05152],[88.17406,26.03434],[88.1742,26.03389],[88.17721,26.03233],[88.17848,26.03189],[88.17974,26.03077],[88.18023,26.02964],[88.18049,26.02873],[88.18098,26.0285],[88.18174,26.02804],[88.1819,26.02534],[88.18127,26.02375],[88.17955,26.0224],[88.16532,26.01959],[88.15483,26.01519],[88.14559,26.01399],[88.14398,26.01286],[88.14374,26.00991],[88.14439,26.00833],[88.14615,26.00722],[88.14835,25.99977],[88.14885,25.99954],[88.14924,25.99707],[88.14751,25.99365],[88.14676,25.99298],[88.14179,25.99113],[88.13832,25.9877],[88.13706,25.98455],[88.13642,25.97705],[88.12999,25.97142],[88.12849,25.97058],[88.12761,25.97005],[88.12641,25.96873],[88.12521,25.9684],[88.12552,25.96275],[88.12706,25.95823],[88.1246,25.95141],[88.12588,25.94577],[88.12619,25.94306],[88.12493,25.94193],[88.1187,25.9394],[88.11735,25.93826],[88.11712,25.9344],[88.11652,25.93328],[88.11104,25.93098],[88.10331,25.9291],[88.09957,25.92636],[88.0962,25.91946],[88.09551,25.91733],[88.0954,25.91704],[88.09543,25.9148],[88.09742,25.90723],[88.09766,25.90395],[88.09703,25.90213],[88.09381,25.8985],[88.09384,25.89532],[88.09436,25.89397],[88.09536,25.89354],[88.09837,25.89155],[88.10065,25.88951],[88.10066,25.88906],[88.10168,25.88838],[88.10168,25.88792],[88.10176,25.8876],[88.10294,25.88593],[88.10344,25.88432],[88.10308,25.88207],[88.10222,25.88092],[88.10101,25.87774],[88.10099,25.87733],[88.09947,25.87156],[88.10056,25.8689],[88.10818,25.8668],[88.11091,25.86598],[88.11314,25.86471],[88.11505,25.86285],[88.11629,25.86079],[88.11819,25.85812],[88.11925,25.85511],[88.11885,25.85187],[88.11721,25.84997],[88.11599,25.84859],[88.11323,25.84668],[88.10877,25.8452],[88.1057,25.84508],[88.10491,25.8444],[88.10456,25.84311],[88.10459,25.84181],[88.10631,25.83984],[88.10643,25.83752],[88.10656,25.83735],[88.10723,25.83647],[88.10772,25.83537],[88.1082,25.83488],[88.10789,25.83326],[88.10628,25.83167],[88.10468,25.82984],[88.10507,25.82486],[88.10559,25.8235],[88.10647,25.82192],[88.10748,25.82127],[88.10926,25.81926],[88.10927,25.81837],[88.10856,25.81519],[88.10768,25.81449],[88.10743,25.81337],[88.10833,25.81178],[88.11382,25.81068],[88.11443,25.81002],[88.11646,25.80868],[88.11622,25.80574],[88.11613,25.80484],[88.1157,25.80456],[88.11447,25.80335],[88.11314,25.80165],[88.11369,25.79643],[88.11595,25.79579],[88.12194,25.79537],[88.12293,25.79561],[88.13121,25.79544],[88.13168,25.79567],[88.14145,25.79168],[88.14371,25.79147],[88.14487,25.78641],[88.14485,25.77383],[88.14859,25.77274],[88.15009,25.77252],[88.15481,25.77616],[88.15812,25.78276],[88.16799,25.7851],[88.17196,25.78421],[88.17297,25.78445],[88.17967,25.78948],[88.18141,25.79266],[88.18512,25.79449],[88.19242,25.79565],[88.19261,25.79566],[88.19412,25.79546],[88.19562,25.79417],[88.19765,25.79186],[88.1979,25.79164],[88.19816,25.79072],[88.20768,25.78629],[88.21069,25.78564],[88.21166,25.78631],[88.21227,25.79062],[88.2115,25.79107],[88.21221,25.79399],[88.21272,25.794],[88.21446,25.79584],[88.21582,25.79652],[88.22081,25.79722],[88.2308,25.79574],[88.23427,25.79824],[88.2355,25.80118],[88.23686,25.80255],[88.24099,25.80325],[88.24371,25.80551],[88.24437,25.80556],[88.24611,25.80627],[88.2522,25.80626],[88.25794,25.80878],[88.26068,25.80926],[88.26177,25.80922],[88.2674,25.80838],[88.26944,25.80885],[88.27116,25.80843],[88.27491,25.80598],[88.27659,25.80213],[88.2771,25.8019],[88.27737,25.79919],[88.27751,25.79354],[88.27826,25.79197],[88.27815,25.78879],[88.27742,25.78858],[88.27658,25.78632],[88.27605,25.78552],[88.2731,25.78244],[88.27198,25.78038],[88.27164,25.77859],[88.27363,25.77725],[88.27421,25.77696],[88.28215,25.77301],[88.28568,25.77234],[88.28692,25.77258],[88.28889,25.77282],[88.29015,25.77191],[88.29015,25.77148],[88.29367,25.76899],[88.29418,25.76427],[88.29719,25.76227],[88.29719,25.7618],[88.29753,25.76121],[88.30012,25.75974],[88.30074,25.75889],[88.3135,25.75421],[88.31725,25.75106],[88.32005,25.74203],[88.32086,25.73661],[88.32136,25.73641],[88.32136,25.73595],[88.32585,25.73506],[88.32641,25.73518],[88.32783,25.73553],[88.32932,25.73667],[88.32957,25.73759],[88.32994,25.73895],[88.33056,25.73938],[88.33287,25.73958],[88.33674,25.73811],[88.34217,25.73385],[88.34363,25.73018],[88.34392,25.73002],[88.3464,25.73004],[88.34768,25.72892],[88.34809,25.72826],[88.35103,25.72759],[88.35152,25.72668],[88.35412,25.72544],[88.36179,25.72327],[88.3629,25.72024],[88.36325,25.71935],[88.36491,25.71834],[88.37615,25.71388],[88.3779,25.71234],[88.37788,25.70836],[88.37768,25.70733],[88.37487,25.70356],[88.37497,25.69968],[88.37838,25.69828],[88.38172,25.69766],[88.38671,25.6988],[88.38722,25.69743],[88.38825,25.69677],[88.38875,25.69677],[88.38975,25.69566],[88.39076,25.69251],[88.39053,25.68753],[88.39154,25.68707],[88.39204,25.68616],[88.39832,25.68304],[88.39955,25.68283],[88.40305,25.68397],[88.40379,25.68328],[88.40405,25.68239],[88.40456,25.68239],[88.40781,25.6797],[88.40884,25.67431],[88.41061,25.66887],[88.4111,25.66864],[88.41161,25.66842],[88.41161,25.66796],[88.41161,25.66752],[88.41764,25.66392],[88.41988,25.66304],[88.42099,25.66291],[88.42734,25.66444],[88.43282,25.66764],[88.4353,25.66788],[88.44955,25.66321],[88.45305,25.66277],[88.45352,25.663],[88.45502,25.66346],[88.45627,25.66258],[88.4578,25.65918],[88.45857,25.65872],[88.45956,25.65805],[88.45797,25.6525],[88.45798,25.65025],[88.45812,25.64967],[88.45888,25.64809],[88.46019,25.64033],[88.46018,25.63863],[88.45923,25.63167],[88.45934,25.63048],[88.4595,25.62873],[88.45826,25.62528],[88.45775,25.62458],[88.45727,25.62458],[88.45591,25.62342],[88.45529,25.62168],[88.45479,25.62027],[88.45532,25.61551],[88.45606,25.61506],[88.45692,25.61417],[88.45693,25.61258],[88.45633,25.61077],[88.45162,25.60667],[88.45027,25.60237],[88.45041,25.60125],[88.4509,25.60102],[88.4509,25.60056],[88.45166,25.60057],[88.45739,25.59835],[88.45991,25.59634],[88.46018,25.59521],[88.46066,25.59386],[88.4615,25.59348],[88.45643,25.58972],[88.45042,25.58489],[88.44675,25.58472],[88.44578,25.58846],[88.44722,25.59169],[88.44284,25.59304],[88.43545,25.5857],[88.43105,25.58668],[88.42603,25.59063],[88.42298,25.58749],[88.41303,25.5906],[88.40653,25.59059],[88.40153,25.58865],[88.39207,25.58069],[88.39152,25.57225],[88.3907,25.56603],[88.38634,25.56148],[88.37735,25.56049],[88.37111,25.56451],[88.36355,25.56676],[88.35764,25.5634],[88.35095,25.55418],[88.34666,25.55073],[88.33814,25.55082],[88.33041,25.5505],[88.32739,25.54771],[88.32279,25.53949],[88.32053,25.53593],[88.31965,25.53487],[88.31298,25.52602],[88.30346,25.52322],[88.29956,25.51938],[88.29404,25.51562],[88.28769,25.51154],[88.28519,25.50431],[88.27836,25.49289],[88.26754,25.48868],[88.26024,25.4887],[88.25648,25.48706],[88.2555,25.48453],[88.25444,25.48054],[88.2562,25.47639],[88.26157,25.47169],[88.26324,25.46607],[88.26286,25.4602],[88.26169,25.45474],[88.26062,25.45074],[88.26146,25.44481],[88.26362,25.44064],[88.26338,25.43697],[88.26241,25.43444],[88.26619,25.43019],[88.2669,25.42868],[88.26669,25.42538],[88.26198,25.42158],[88.2505,25.41335],[88.24879,25.41197],[88.24525,25.40737],[88.24344,25.40452],[88.24599,25.39996],[88.24903,25.39685],[88.24984,25.39055],[88.24991,25.38539],[88.24792,25.3796],[88.24317,25.37507],[88.23925,25.37086],[88.23818,25.36686],[88.23797,25.36356],[88.23395,25.35788],[88.23222,25.35613],[88.23205,25.35356],[88.22939,25.35002],[88.22635,25.34686],[88.22196,25.34157],[88.21833,25.33551],[88.2174,25.33371],[88.21211,25.327],[88.20299,25.31753],[88.19577,25.31239],[88.19095,25.30675],[88.18951,25.30315],[88.19006,25.29907],[88.1869,25.28782],[88.18542,25.28589],[88.18315,25.28958],[88.17338,25.29288],[88.16613,25.29802],[88.15935,25.29238],[88.15541,25.29544],[88.1534,25.29387],[88.15056,25.29367],[88.1511,25.28858],[88.14598,25.28015],[88.14673,25.27373],[88.15136,25.27325],[88.15631,25.27061],[88.15218,25.26603],[88.14938,25.25969],[88.14822,25.25417],[88.14241,25.25406],[88.13618,25.24963],[88.1332,25.24375],[88.13067,25.24315],[88.13046,25.24607],[88.13207,25.25131],[88.12971,25.25341],[88.12938,25.25542],[88.13186,25.25969],[88.13114,25.26336],[88.12759,25.26412],[88.12628,25.26961],[88.11945,25.27109],[88.10792,25.27235],[88.114,25.27925],[88.11499,25.28218],[88.11395,25.28526],[88.11046,25.28706],[88.11226,25.29058],[88.11877,25.29191],[88.13174,25.29142],[88.13195,25.29549],[88.12945,25.30052],[88.12852,25.30636],[88.12422,25.30648],[88.12192,25.30961],[88.11849,25.31124],[88.11404,25.32301],[88.1147,25.32591],[88.11508,25.32761],[88.11815,25.33194],[88.1197,25.33568],[88.12397,25.33928],[88.12156,25.3415],[88.12153,25.34505],[88.12428,25.3487],[88.1269,25.3544],[88.1279,25.36336],[88.12317,25.36273],[88.12198,25.36937],[88.10642,25.37913],[88.10682,25.38333],[88.10857,25.38615],[88.11397,25.38971],[88.11307,25.39797],[88.11804,25.40095],[88.11976,25.40482],[88.10842,25.4008],[88.10552,25.40422],[88.10648,25.4082],[88.11117,25.41193],[88.11409,25.41553],[88.10855,25.41629],[88.10329,25.41589],[88.09964,25.41962],[88.10173,25.42433],[88.11451,25.43055],[88.11724,25.43352],[88.11346,25.43327],[88.10378,25.42951],[88.10252,25.44125],[88.0986,25.4446],[88.09213,25.44348],[88.088,25.44566],[88.09008,25.44709],[88.08313,25.45327],[88.08207,25.45786],[88.08467,25.45894],[88.08391,25.46405],[88.0799,25.46332],[88.07618,25.47474],[88.07608,25.48092],[88.07382,25.49026],[88.07379,25.49721],[88.0755,25.50228],[88.07852,25.5043],[88.07695,25.50529],[88.07212,25.50545],[88.06953,25.50657],[88.07059,25.50892],[88.07454,25.51345],[88.07258,25.51682],[88.06319,25.52605],[88.06383,25.5291],[88.06171,25.53031],[88.05646,25.53091],[88.05457,25.53371],[88.05178,25.53472],[88.0482,25.53244],[88.04483,25.53357],[88.04145,25.53711],[88.04362,25.54655],[88.03558,25.55076],[88.03281,25.55363],[88.0362,25.55791],[88.03538,25.55984],[88.03921,25.56181],[88.04126,25.56075],[88.04401,25.56424],[88.03969,25.56626],[88.03396,25.56667],[88.03104,25.56944],[88.03581,25.57469],[88.02776,25.58327],[88.02684,25.58727],[88.0323,25.58624],[88.03719,25.58784],[88.03703,25.59134],[88.0444,25.59538],[88.04563,25.5977],[88.04145,25.59731],[88.03711,25.59859],[88.0355,25.60036],[88.04187,25.60273],[88.04721,25.60584],[88.04513,25.60882],[88.04623,25.61079],[88.04306,25.6159],[88.04087,25.61737],[88.04276,25.62232],[88.04525,25.62762],[88.0496,25.62854],[88.05331,25.62794],[88.06012,25.63317],[88.04931,25.63238],[88.04665,25.63643],[88.04139,25.63713],[88.04166,25.64129],[88.046,25.64221],[88.04878,25.6393],[88.05022,25.63997],[88.05034,25.64319],[88.05198,25.64471],[88.05315,25.64333],[88.05437,25.64421],[88.05121,25.64841],[88.04982,25.65288],[88.05462,25.65573],[88.05473,25.65827],[88.05124,25.66009],[88.04902,25.67418],[88.05055,25.67725],[88.05497,25.68175],[88.0567,25.68607],[88.05451,25.69084],[88.05107,25.69027],[88.04921,25.69496],[88.04575,25.6984],[88.04065,25.6943],[88.03811,25.69674],[88.03609,25.69907],[88.03269,25.69919],[88.0283,25.69178],[88.02208,25.69198],[88.02024,25.69461],[88.02023,25.69774],[88.02345,25.70276],[88.02259,25.70497],[88.0127,25.70677],[88.00792,25.70935],[88.00312,25.71216],[87.99853,25.71938],[87.99367,25.72026],[87.99376,25.72391],[87.98781,25.72194],[87.98563,25.7187],[87.97764,25.7203],[87.96699,25.72491],[87.968,25.72992],[87.96647,25.73235],[87.96266,25.73567],[87.95706,25.73884],[87.95018,25.74403],[87.94989,25.74835],[87.94466,25.74875],[87.94806,25.75344],[87.94768,25.75616],[87.94356,25.75852],[87.94341,25.76814],[87.93846,25.77152],[87.93527,25.77228],[87.93468,25.76805],[87.92474,25.77422],[87.91105,25.77215],[87.90732,25.76943],[87.90457,25.76995],[87.90384,25.772],[87.90704,25.7805],[87.90412,25.79944],[87.9053,25.80042],[87.90772,25.80067],[87.90917,25.80204],[87.90802,25.80416],[87.90518,25.80566],[87.90116,25.80486],[87.90286,25.81122],[87.90542,25.81175],[87.90733,25.81087],[87.90817,25.81118],[87.90815,25.8133],[87.90927,25.81429],[87.91372,25.80956],[87.91562,25.81086],[87.91664,25.81496],[87.91059,25.81907],[87.90489,25.82029],[87.90001,25.82521],[87.90412,25.8278],[87.90261,25.82924],[87.89996,25.8293],[87.89711,25.82666],[87.89051,25.82746],[87.88956,25.82876],[87.89382,25.83301],[87.89552,25.83294],[87.89879,25.83522],[87.90149,25.83332],[87.90357,25.83467],[87.90351,25.83974],[87.91708,25.85189],[87.91101,25.85323],[87.90756,25.85637],[87.90564,25.85997],[87.89102,25.86478],[87.88741,25.85854],[87.88495,25.85859],[87.87844,25.85978],[87.87691,25.86612],[87.87386,25.86458],[87.87149,25.86767],[87.86211,25.86484],[87.85666,25.86719],[87.8494,25.86882],[87.84079,25.86884],[87.82909,25.87157],[87.82614,25.88108],[87.82455,25.88158],[87.82334,25.88344],[87.82179,25.88563],[87.82182,25.88805],[87.82424,25.88854],[87.82655,25.89385],[87.82523,25.89724],[87.82088,25.89893],[87.81995,25.90004],[87.8231,25.90495],[87.82357,25.90926],[87.82277,25.91278],[87.81818,25.91326],[87.81698,25.91408],[87.81411,25.90906],[87.81007,25.91222],[87.80988,25.91402],[87.81379,25.9159],[87.81378,25.91834],[87.80991,25.92078],[87.81207,25.9285],[87.8133,25.92999],[87.82415,25.93307],[87.8242,25.93309],[87.82984,25.93142],[87.83313,25.93192],[87.83625,25.93551],[87.83343,25.93784],[87.83464,25.94117],[87.83114,25.94373],[87.83023,25.9465],[87.83291,25.95009],[87.83339,25.95363],[87.83173,25.95877],[87.83731,25.96228],[87.8376,25.96415],[87.83624,25.97192],[87.83256,25.98372],[87.83242,25.98834],[87.83359,25.99237],[87.83715,25.99218],[87.83971,26.00111],[87.84702,26.01978],[87.84533,26.02288],[87.84806,26.0323],[87.84768,26.04121],[87.84853,26.04448],[87.85558,26.04498],[87.86968,26.0561],[87.88161,26.05558],[87.88409,26.05791],[87.88248,26.06618],[87.89113,26.07151],[87.89469,26.07194],[87.89571,26.07509],[87.89896,26.08035],[87.90216,26.07986],[87.91935,26.09097],[87.9239,26.088],[87.92292,26.0797],[87.92825,26.07687],[87.92893,26.07181],[87.93751,26.06896],[87.94106,26.07054],[87.94459,26.07676],[87.94331,26.07975],[87.94425,26.08448],[87.9494,26.08469],[87.95689,26.08305],[87.96623,26.08404],[87.97036,26.08326],[87.97449,26.08137],[87.97853,26.08486],[87.9766,26.08735],[87.97585,26.09166],[87.97208,26.09192],[87.96911,26.09472],[87.96405,26.09709],[87.96452,26.10085],[87.9608,26.10279],[87.96134,26.10568],[87.96464,26.10883],[87.97572,26.1093],[87.98202,26.12162],[87.97381,26.12536],[87.96509,26.12569],[87.96355,26.12884],[87.97425,26.13181],[87.97737,26.13712],[87.97518,26.13932],[87.97513,26.14785],[87.96976,26.14886],[87.97051,26.15194],[87.97597,26.15438],[87.98121,26.15283],[87.98853,26.15915],[87.99481,26.14859],[88.00243,26.14178],[88.0055,26.14038],[88.01319,26.14328],[88.01945,26.14086],[88.02146,26.1429],[88.01719,26.14928],[88.01815,26.15478],[88.02393,26.15554],[88.03303,26.16278],[88.03493,26.16726],[88.04002,26.17026],[88.03873,26.1735],[88.04383,26.17767],[88.04687,26.17678],[88.05257,26.17785],[88.05475,26.17463],[88.05872,26.17165],[88.06503,26.17374],[88.06982,26.17665],[88.07348,26.17761],[88.0762,26.1757],[88.07779,26.17878],[88.08119,26.18126],[88.07935,26.18537],[88.08801,26.19233],[88.09361,26.19441],[88.09398,26.19794],[88.09606,26.2032],[88.09997,26.20651],[88.10357,26.20641],[88.10884,26.21223],[88.11212,26.21636],[88.11477,26.21702],[88.1224,26.22295],[88.1203,26.22395],[88.11826,26.22617],[88.12635,26.22792],[88.13199,26.22786],[88.1325,26.22688],[88.13743,26.22678],[88.14219,26.22819],[88.14518,26.23079],[88.1423,26.23712],[88.14379,26.24372],[88.14702,26.24569],[88.14704,26.2496],[88.15085,26.25276],[88.16521,26.25687],[88.1695,26.2575],[88.17344,26.25717],[88.18326,26.2617],[88.18975,26.27463],[88.19574,26.27506],[88.20085,26.27409],[88.21048,26.27955],[88.21752,26.27997],[88.22063,26.28165],[88.22135,26.2849],[88.22537,26.28563],[88.22738,26.28818],[88.23096,26.28937],[88.23315,26.29661],[88.23329,26.30392],[88.23815,26.31031],[88.24053,26.30663],[88.24283,26.30535],[88.24551,26.31315],[88.25109,26.31624],[88.25459,26.32649],[88.26008,26.3277],[88.26269,26.33007],[88.26439,26.33419],[88.26752,26.3378],[88.27166,26.33644],[88.27496,26.33696],[88.27614,26.33264],[88.27883,26.33049],[88.28264,26.33244],[88.28592,26.33548],[88.28808,26.33975],[88.28573,26.34629],[88.28974,26.34925],[88.29551,26.35108],[88.2983,26.35385],[88.29628,26.35685],[88.2883,26.36006],[88.2804,26.37721],[88.27637,26.37881],[88.27402,26.38109],[88.26807,26.37996],[88.26133,26.3744],[88.25771,26.37579],[88.25156,26.37592],[88.24957,26.37401],[88.24406,26.3753],[88.23819,26.38481],[88.23572,26.38977],[88.23693,26.39387],[88.24229,26.39609],[88.26186,26.41578],[88.26963,26.41491],[88.27483,26.41782],[88.2744,26.42166],[88.27208,26.42329],[88.26925,26.42799],[88.26614,26.43057],[88.2587,26.43369],[88.25487,26.4387],[88.24992,26.44919],[88.24318,26.4492],[88.24316,26.45266],[88.2518,26.45887],[88.25577,26.46554],[88.26356,26.47083],[88.26516,26.48084],[88.27126,26.48574],[88.27913,26.48451],[88.28264,26.4827],[88.28557,26.47775],[88.28783,26.47711],[88.29184,26.47896],[88.29359,26.48141],[88.29474,26.48493],[88.29837,26.4897],[88.30903,26.48769],[88.3111,26.48927],[88.3131,26.49277],[88.31666,26.49666],[88.33792,26.49567],[88.34509,26.49736],[88.34126,26.49085],[88.34004,26.48699]]]}}]}