{"type":"FeatureCollection","features":[{"type":"Feature","properties":{"id":"amritsar","name":"Amritsar","stateId":"punjab","stateName":"Punjab","censuscode":49,"type":"district"},"geometry":{"type":"Polygon","coordinates":[[[74.89363,32.05326],[74.91162,32.05075],[74.91235,32.05097],[74.91291,32.05064],[74.92079,32.0452],[74.92405,32.04145],[74.93017,32.027],[74.93136,32.01984],[74.93463,32.01775],[74.93643,32.01532],[74.93656,32.01323],[74.93308,32.01234],[74.93162,32.00977],[74.9377,32.00851],[74.93544,32.00492],[74.93231,32.00557],[74.92788,32.00022],[74.91806,31.98605],[74.91531,31.97727],[74.92496,31.97358],[74.93012,31.96754],[74.93787,31.96353],[74.94957,31.96512],[74.94813,31.97173],[74.96141,31.97336],[74.97417,31.97681],[74.97258,31.96826],[74.97333,31.96171],[74.95843,31.95483],[74.93901,31.94781],[74.94067,31.94324],[74.93319,31.94207],[74.92945,31.94075],[74.92132,31.94424],[74.90996,31.93999],[74.90163,31.93387],[74.89544,31.93594],[74.88859,31.93293],[74.9053,31.90485],[74.90617,31.89717],[74.91134,31.89534],[74.91971,31.89454],[74.91781,31.88233],[74.92691,31.87777],[74.93801,31.86952],[74.94209,31.87302],[74.94652,31.87186],[74.9451,31.8657],[74.94532,31.86121],[74.95358,31.85921],[74.96369,31.85469],[74.96738,31.84619],[74.9672,31.84137],[74.96881,31.83427],[74.98349,31.8338],[74.99387,31.82799],[74.99854,31.82686],[75.00896,31.82467],[75.01255,31.81769],[75.02582,31.82317],[75.027,31.81762],[75.02564,31.81389],[75.03025,31.81052],[75.03449,31.8109],[75.03888,31.80417],[75.04573,31.80295],[75.05557,31.80805],[75.07684,31.80609],[75.0807,31.80084],[75.08334,31.795],[75.08687,31.79087],[75.09445,31.79023],[75.10299,31.78336],[75.11304,31.77999],[75.11428,31.77428],[75.11034,31.7686],[75.10616,31.76625],[75.1002,31.76732],[75.09854,31.76047],[75.10569,31.75578],[75.11117,31.75431],[75.11753,31.75036],[75.11993,31.75779],[75.12655,31.75343],[75.13385,31.75305],[75.13748,31.75418],[75.1414,31.75739],[75.1449,31.75823],[75.14641,31.75419],[75.15139,31.74858],[75.16472,31.74546],[75.16923,31.74768],[75.1758,31.74798],[75.18105,31.74046],[75.18603,31.74234],[75.19072,31.74122],[75.18893,31.73587],[75.19315,31.7347],[75.20294,31.72785],[75.20303,31.72208],[75.19884,31.71819],[75.19354,31.71723],[75.19376,31.71228],[75.20299,31.70756],[75.21255,31.70544],[75.21708,31.70092],[75.21408,31.6954],[75.22459,31.6927],[75.2268,31.68549],[75.23613,31.68653],[75.24066,31.68311],[75.24246,31.68984],[75.24827,31.68745],[75.25148,31.69314],[75.2602,31.69435],[75.26536,31.69352],[75.27449,31.69519],[75.28211,31.69907],[75.28544,31.69766],[75.28642,31.69501],[75.28449,31.68155],[75.28781,31.67704],[75.29147,31.68134],[75.29856,31.67956],[75.30033,31.67593],[75.30844,31.67646],[75.31259,31.6686],[75.30897,31.6616],[75.30373,31.65915],[75.30091,31.65179],[75.30926,31.64853],[75.32158,31.64103],[75.32836,31.63518],[75.33376,31.63969],[75.3378,31.64076],[75.34326,31.63635],[75.34786,31.63477],[75.35071,31.6313],[75.36178,31.62628],[75.37033,31.62358],[75.37489,31.62384],[75.37813,31.61876],[75.38525,31.61399],[75.3912,31.6063],[75.39335,31.60197],[75.4049,31.59443],[75.40101,31.58876],[75.39872,31.58194],[75.39465,31.58134],[75.3885,31.58216],[75.38082,31.58135],[75.37569,31.5797],[75.34511,31.55672],[75.34176,31.55727],[75.33607,31.55193],[75.31909,31.53941],[75.32028,31.53476],[75.31862,31.53245],[75.31946,31.52894],[75.29836,31.50314],[75.28568,31.48311],[75.28388,31.48246],[75.28381,31.48247],[75.27973,31.48306],[75.27973,31.48306],[75.27201,31.48896],[75.26374,31.49419],[75.25806,31.49472],[75.25589,31.49804],[75.25191,31.50192],[75.23584,31.49286],[75.22953,31.49096],[75.2107,31.49673],[75.20827,31.49825],[75.20575,31.50343],[75.19912,31.49985],[75.18637,31.50578],[75.18445,31.50979],[75.18786,31.51],[75.19229,31.51944],[75.18751,31.52222],[75.18142,31.52873],[75.1698,31.52367],[75.16951,31.51934],[75.16299,31.51179],[75.15336,31.50709],[75.14643,31.50587],[75.13928,31.50614],[75.13482,31.50513],[75.13007,31.50001],[75.12379,31.49499],[75.11338,31.5108],[75.10783,31.52216],[75.08524,31.519],[75.07493,31.52556],[75.07632,31.53173],[75.07011,31.53152],[75.06508,31.53835],[75.057,31.54297],[75.04798,31.54359],[75.04299,31.54154],[75.04054,31.53448],[75.03557,31.53007],[75.03342,31.52623],[75.02722,31.52494],[75.02713,31.52665],[75.02323,31.52726],[75.02151,31.52632],[75.02228,31.52409],[75.0179,31.52221],[75.0137,31.5261],[75.00815,31.52616],[75.00631,31.52315],[75.00711,31.5191],[74.99853,31.51864],[74.99562,31.51446],[74.99731,31.51101],[74.99184,31.50865],[74.98769,31.51173],[74.9881,31.51633],[74.98748,31.52028],[74.99023,31.52332],[74.98623,31.52531],[74.98794,31.52796],[74.98101,31.52923],[74.97863,31.52287],[74.97826,31.51514],[74.96393,31.51646],[74.96167,31.51176],[74.96031,31.50565],[74.95197,31.49815],[74.94985,31.5033],[74.94246,31.50687],[74.94011,31.51384],[74.94127,31.52219],[74.93011,31.52664],[74.92059,31.52851],[74.91286,31.52716],[74.90407,31.52449],[74.89802,31.52881],[74.89785,31.53654],[74.90136,31.54135],[74.89588,31.54701],[74.89574,31.5537],[74.88806,31.55234],[74.88136,31.5455],[74.87964,31.53813],[74.87416,31.5378],[74.86774,31.54033],[74.86398,31.53442],[74.8443,31.53017],[74.84279,31.53443],[74.83677,31.53691],[74.83228,31.53999],[74.82493,31.5361],[74.82232,31.54102],[74.8161,31.54945],[74.81704,31.55865],[74.80587,31.55756],[74.7992,31.56466],[74.79887,31.57014],[74.79276,31.57036],[74.7843,31.5624],[74.77754,31.5644],[74.77324,31.55825],[74.76452,31.56148],[74.75461,31.56405],[74.74908,31.55955],[74.73895,31.56501],[74.73902,31.56512],[74.73536,31.56485],[74.73159,31.56364],[74.72663,31.56036],[74.72083,31.5555],[74.71483,31.54688],[74.71414,31.54186],[74.7118,31.53695],[74.70848,31.53388],[74.70432,31.53312],[74.69946,31.53187],[74.69736,31.52977],[74.69081,31.52551],[74.68723,31.52414],[74.67846,31.52464],[74.67498,31.52499],[74.67217,31.52678],[74.67026,31.5289],[74.66966,31.53013],[74.66647,31.53205],[74.662,31.5344],[74.65727,31.53425],[74.65146,31.53375],[74.64834,31.53022],[74.64474,31.5251],[74.64043,31.51966],[74.6355,31.51575],[74.6307,31.5131],[74.62771,31.51082],[74.6237,31.50663],[74.61608,31.50185],[74.61316,31.49801],[74.61309,31.49791],[74.61028,31.49943],[74.61,31.50007],[74.60805,31.50157],[74.60596,31.50133],[74.60305,31.49975],[74.60123,31.49998],[74.59909,31.50021],[74.59542,31.49975],[74.59254,31.49704],[74.58804,31.49796],[74.5791,31.50225],[74.57869,31.50315],[74.57882,31.50429],[74.58057,31.50459],[74.58147,31.50473],[74.58463,31.50675],[74.5854,31.50721],[74.58634,31.5106],[74.5862,31.51127],[74.5854,31.51173],[74.58433,31.51286],[74.58432,31.51735],[74.58592,31.52098],[74.58763,31.5221],[74.58776,31.52257],[74.59233,31.52523],[74.59539,31.52619],[74.60119,31.52659],[74.60644,31.52689],[74.61198,31.52891],[74.61406,31.53095],[74.61569,31.53463],[74.61684,31.53547],[74.61734,31.53726],[74.61779,31.54156],[74.61867,31.54314],[74.61878,31.54628],[74.6188,31.54697],[74.61813,31.54766],[74.6176,31.5479],[74.61773,31.54879],[74.61794,31.5517],[74.62004,31.55543],[74.62034,31.55811],[74.61706,31.55965],[74.61333,31.56119],[74.61317,31.56426],[74.61884,31.56502],[74.62047,31.56656],[74.61898,31.57053],[74.61599,31.5713],[74.61227,31.57091],[74.60615,31.5741],[74.60113,31.57631],[74.59716,31.57724],[74.59348,31.57906],[74.59107,31.58514],[74.5897,31.58634],[74.58791,31.58702],[74.58504,31.58792],[74.58477,31.58858],[74.58319,31.58899],[74.58265,31.58966],[74.57998,31.59824],[74.58075,31.60412],[74.58025,31.60435],[74.57974,31.60504],[74.57761,31.60662],[74.56339,31.60887],[74.55781,31.61159],[74.55676,31.61295],[74.5541,31.61833],[74.55383,31.62081],[74.55394,31.63009],[74.55354,31.63101],[74.55153,31.63257],[74.54881,31.63553],[74.54856,31.63762],[74.54789,31.64313],[74.54789,31.64313],[74.54786,31.64342],[74.54718,31.64546],[74.54247,31.64791],[74.54207,31.64883],[74.54245,31.65698],[74.54164,31.65946],[74.54111,31.65969],[74.5411,31.66036],[74.54056,31.66059],[74.53423,31.6651],[74.53356,31.66646],[74.53317,31.67075],[74.5362,31.67435],[74.53683,31.67594],[74.53672,31.67956],[74.53608,31.68092],[74.53315,31.68273],[74.53301,31.68339],[74.53223,31.68385],[74.53223,31.68452],[74.53104,31.68652],[74.52924,31.68803],[74.52817,31.689],[74.52685,31.68967],[74.52098,31.69107],[74.51728,31.69311],[74.517,31.69445],[74.51437,31.69625],[74.50882,31.69806],[74.50718,31.69916],[74.50567,31.70439],[74.50276,31.70664],[74.50276,31.70754],[74.49698,31.71235],[74.49427,31.71452],[74.48978,31.71702],[74.48825,31.71806],[74.48604,31.72243],[74.48897,31.72361],[74.49266,31.72674],[74.50072,31.72926],[74.50134,31.72946],[74.50295,31.73035],[74.50348,31.73104],[74.50544,31.73898],[74.50667,31.74163],[74.5086,31.74247],[74.51187,31.74301],[74.51796,31.74099],[74.51877,31.74131],[74.52036,31.742],[74.52155,31.74249],[74.52493,31.74439],[74.54225,31.75162],[74.54987,31.753],[74.55545,31.75256],[74.55885,31.75232],[74.5644,31.75436],[74.56521,31.75503],[74.56561,31.75615],[74.56546,31.75932],[74.56283,31.76114],[74.56095,31.7652],[74.55831,31.76724],[74.55749,31.7783],[74.55775,31.77968],[74.56064,31.7862],[74.56803,31.79208],[74.56843,31.79343],[74.56829,31.79637],[74.56698,31.79727],[74.56302,31.79841],[74.56289,31.80022],[74.563,31.80091],[74.57116,31.80971],[74.57378,31.81717],[74.57316,31.82059],[74.56982,31.82348],[74.56942,31.8244],[74.56931,31.82958],[74.56995,31.83073],[74.57826,31.83434],[74.58617,31.8436],[74.59408,31.84541],[74.59428,31.84666],[74.59481,31.84711],[74.59595,31.85694],[74.59696,31.85875],[74.59921,31.8607],[74.60966,31.86665],[74.61,31.86936],[74.60964,31.87906],[74.61015,31.88111],[74.61175,31.8854],[74.61283,31.88699],[74.61401,31.88791],[74.61623,31.88836],[74.61755,31.88722],[74.6181,31.88587],[74.62551,31.88313],[74.62895,31.88272],[74.63634,31.88316],[74.64031,31.88474],[74.64353,31.88724],[74.64466,31.88885],[74.64745,31.89151],[74.6493,31.89626],[74.65167,31.89851],[74.65271,31.89874],[74.65804,31.89874],[74.66094,31.89762],[74.66225,31.89805],[74.66462,31.89986],[74.66542,31.90257],[74.66515,31.90642],[74.6654,31.91095],[74.66581,31.91164],[74.67019,31.9132],[74.67282,31.91524],[74.67373,31.92],[74.67572,31.92043],[74.68047,31.91862],[74.68179,31.91838],[74.68312,31.91862],[74.68402,31.91974],[74.68443,31.92043],[74.6879,31.92269],[74.69002,31.92336],[74.69859,31.92481],[74.70112,31.9246],[74.70348,31.92425],[74.70692,31.92267],[74.70824,31.92177],[74.70905,31.92042],[74.70986,31.91906],[74.7109,31.91861],[74.71488,31.91791],[74.72307,31.92107],[74.72361,31.92154],[74.72321,31.92652],[74.72079,31.92929],[74.72023,31.93063],[74.72017,31.93395],[74.72146,31.93712],[74.72265,31.93801],[74.72675,31.93939],[74.73124,31.93985],[74.73391,31.93961],[74.73522,31.93961],[74.73888,31.94455],[74.74325,31.94233],[74.74778,31.93834],[74.75359,31.94012],[74.75975,31.94317],[74.75975,31.94724],[74.75916,31.95081],[74.75995,31.95335],[74.76174,31.95386],[74.76412,31.95166],[74.76571,31.94911],[74.76909,31.94859],[74.77347,31.94774],[74.77695,31.94979],[74.77861,31.95124],[74.7792,31.95174],[74.77996,31.95222],[74.78259,31.95335],[74.79767,31.95695],[74.80233,31.95872],[74.80768,31.96082],[74.81543,31.96324],[74.81675,31.96212],[74.81701,31.95895],[74.82035,31.95686],[74.82076,31.95537],[74.82319,31.95656],[74.82444,31.95759],[74.82624,31.96359],[74.82917,31.97317],[74.83397,31.97791],[74.83399,31.97955],[74.83425,31.98581],[74.83186,31.99531],[74.8325,31.99891],[74.8332,31.99937],[74.83425,31.99937],[74.83463,32.00162],[74.83556,32.00229],[74.84194,32.00657],[74.85258,32.00839],[74.85835,32.00972],[74.85915,32.01017],[74.85993,32.01063],[74.86034,32.01221],[74.85967,32.01469],[74.8549,32.01879],[74.8544,32.01969],[74.85454,32.0217],[74.86656,32.02329],[74.86923,32.02461],[74.87069,32.02732],[74.87373,32.02801],[74.87481,32.02754],[74.87531,32.02732],[74.87583,32.02619],[74.87849,32.02506],[74.8793,32.02528],[74.88176,32.03254],[74.88194,32.03476],[74.88157,32.03589],[74.87904,32.03839],[74.87639,32.04471],[74.87625,32.04607],[74.87653,32.04653],[74.88301,32.04922],[74.88673,32.05193],[74.89363,32.05326]]]}}]}