{"type":"FeatureCollection","features":[{"type":"Feature","properties":{"id":"bathinda","name":"Bathinda","stateId":"punjab","stateName":"Punjab","censuscode":46,"type":"district"},"geometry":{"type":"Polygon","coordinates":[[[75.29278,30.50969],[75.28225,30.49851],[75.28142,30.49275],[75.27393,30.48241],[75.26708,30.47673],[75.26168,30.47078],[75.25774,30.46501],[75.25843,30.46046],[75.26979,30.44825],[75.26966,30.44635],[75.26604,30.44432],[75.26726,30.43639],[75.27341,30.43744],[75.28026,30.4399],[75.2869,30.43646],[75.29419,30.42844],[75.30135,30.42369],[75.3057,30.41162],[75.3029,30.40199],[75.30797,30.38947],[75.30819,30.3844],[75.3096,30.37888],[75.32316,30.37646],[75.32842,30.37999],[75.33213,30.37805],[75.33583,30.37778],[75.33374,30.37012],[75.32505,30.34981],[75.32749,30.34729],[75.33603,30.34548],[75.33795,30.34439],[75.34482,30.34339],[75.34694,30.34086],[75.34616,30.33699],[75.34393,30.33359],[75.34116,30.33261],[75.33178,30.33464],[75.32188,30.33282],[75.32083,30.33155],[75.32005,30.32826],[75.32245,30.32216],[75.32439,30.31371],[75.32204,30.30886],[75.3214,30.30403],[75.32285,30.30283],[75.3276,30.30584],[75.33142,30.3066],[75.34668,30.30379],[75.3476,30.30309],[75.34876,30.29441],[75.34462,30.28938],[75.35005,30.28422],[75.35545,30.28735],[75.35763,30.2873],[75.36438,30.28353],[75.36491,30.27864],[75.36329,30.27207],[75.3643,30.26885],[75.37368,30.26388],[75.37362,30.26249],[75.37211,30.26076],[75.36887,30.25913],[75.36956,30.25281],[75.37069,30.25137],[75.37057,30.247],[75.36906,30.24705],[75.36675,30.24589],[75.36531,30.24318],[75.36637,30.24042],[75.37219,30.23751],[75.37568,30.2374],[75.37826,30.23465],[75.37776,30.22509],[75.37259,30.21604],[75.373,30.21286],[75.37143,30.21073],[75.36405,30.20932],[75.36228,30.20719],[75.36255,30.20396],[75.36585,30.20242],[75.37032,30.20445],[75.37232,30.20049],[75.36425,30.19018],[75.35965,30.18717],[75.35907,30.18371],[75.36159,30.17992],[75.36522,30.17677],[75.36648,30.17344],[75.36085,30.16754],[75.35086,30.16036],[75.34863,30.15673],[75.34954,30.14313],[75.35746,30.14047],[75.34589,30.1297],[75.34385,30.1309],[75.33879,30.12886],[75.33472,30.12388],[75.32914,30.12114],[75.32604,30.12193],[75.31691,30.11273],[75.31223,30.11172],[75.30376,30.10835],[75.30139,30.10821],[75.29814,30.1128],[75.29294,30.11387],[75.29342,30.1149],[75.2861,30.11036],[75.28216,30.10689],[75.2765,30.10681],[75.27102,30.10927],[75.26426,30.10609],[75.2608,30.09888],[75.26192,30.08415],[75.26327,30.07864],[75.26145,30.05906],[75.26259,30.05602],[75.2651,30.05465],[75.26818,30.05437],[75.27211,30.059],[75.27599,30.06011],[75.27798,30.05765],[75.27597,30.05131],[75.27256,30.04899],[75.25975,30.04391],[75.25443,30.04009],[75.25385,30.03605],[75.25844,30.02789],[75.26066,30.01643],[75.26422,30.01477],[75.27488,30.01488],[75.28034,30.01398],[75.28435,30.01458],[75.28771,30.01673],[75.29037,30.02227],[75.2948,30.01866],[75.30294,30.02141],[75.30317,30.01444],[75.29857,30.01333],[75.29391,30.00984],[75.29156,30.00695],[75.27934,30.00021],[75.27668,29.98944],[75.28127,29.98221],[75.28056,29.97715],[75.27437,29.96996],[75.26066,29.97483],[75.25338,29.97986],[75.25116,29.97859],[75.24814,29.96908],[75.23462,29.9568],[75.22194,29.96601],[75.21251,29.96337],[75.20938,29.96882],[75.20547,29.97027],[75.20505,29.97596],[75.19735,29.97631],[75.19472,29.97301],[75.19187,29.97743],[75.18413,29.96844],[75.181,29.94852],[75.18254,29.94598],[75.1779,29.94244],[75.17923,29.93666],[75.16951,29.92416],[75.18109,29.91049],[75.18495,29.88329],[75.19954,29.88711],[75.21298,29.87886],[75.21577,29.86349],[75.21567,29.85732],[75.1953,29.85062],[75.18701,29.84542],[75.18662,29.84155],[75.18875,29.83497],[75.18619,29.83314],[75.18533,29.82758],[75.17714,29.82303],[75.17008,29.82173],[75.16554,29.81791],[75.16138,29.79992],[75.15901,29.79421],[75.15957,29.78972],[75.16492,29.78717],[75.16924,29.78229],[75.16409,29.77908],[75.15174,29.77509],[75.14549,29.77848],[75.14145,29.78298],[75.13499,29.80376],[75.11233,29.80074],[75.10556,29.80255],[75.10021,29.80487],[75.09908,29.81106],[75.10339,29.81753],[75.11721,29.82473],[75.11418,29.83622],[75.10906,29.83965],[75.09585,29.84306],[75.09134,29.84765],[75.0911,29.85242],[75.09483,29.85686],[75.11075,29.86614],[75.11439,29.87144],[75.11328,29.87503],[75.11289,29.8953],[75.10498,29.90337],[75.10002,29.91003],[75.09503,29.91345],[75.08795,29.91065],[75.08018,29.89169],[75.07563,29.87737],[75.07053,29.87446],[75.06188,29.87322],[75.04762,29.88017],[75.03357,29.87128],[75.02418,29.86305],[75.01572,29.86602],[75.00414,29.86167],[74.99994,29.85492],[74.97952,29.87921],[74.97996,29.88846],[74.96793,29.89631],[74.95322,29.90116],[74.94575,29.91406],[74.942,29.92144],[74.93871,29.92783],[74.93422,29.94022],[74.92585,29.94788],[74.90446,29.9382],[74.89531,29.93789],[74.89968,29.94379],[74.90319,29.94603],[74.90446,29.95171],[74.89988,29.95781],[74.89554,29.96113],[74.89161,29.96717],[74.88751,29.96139],[74.88206,29.95795],[74.87575,29.95773],[74.86946,29.96003],[74.8597,29.95801],[74.84666,29.96307],[74.83907,29.96839],[74.83145,29.97201],[74.82976,29.97843],[74.82677,29.9835],[74.81912,29.98947],[74.81125,29.99159],[74.80447,29.98864],[74.79425,29.97947],[74.78602,29.97345],[74.77738,29.97179],[74.76869,29.97273],[74.76071,29.97034],[74.74722,29.96819],[74.73394,29.96103],[74.71608,29.96809],[74.7073,29.97039],[74.70925,29.97548],[74.70601,29.98208],[74.70446,29.98726],[74.70903,29.99242],[74.71272,30.00141],[74.71355,30.00266],[74.71725,30.01428],[74.70976,30.02145],[74.70668,30.02563],[74.69622,30.03333],[74.69818,30.03761],[74.69427,30.04506],[74.70542,30.06505],[74.70016,30.06835],[74.69202,30.07208],[74.68401,30.07241],[74.67634,30.08783],[74.68347,30.10186],[74.68494,30.10715],[74.68373,30.11137],[74.67887,30.11133],[74.67548,30.10867],[74.67127,30.10706],[74.65736,30.10903],[74.64984,30.11134],[74.64619,30.11362],[74.63204,30.12728],[74.6322,30.12974],[74.637,30.13822],[74.64094,30.14097],[74.64213,30.14777],[74.64931,30.15635],[74.65828,30.16328],[74.66931,30.16488],[74.67295,30.16393],[74.67494,30.16589],[74.68805,30.16622],[74.69323,30.1599],[74.69998,30.1592],[74.7049,30.16033],[74.7199,30.16715],[74.72611,30.17088],[74.73398,30.17808],[74.7369,30.1808],[74.73799,30.18484],[74.73737,30.18864],[74.73039,30.19657],[74.72527,30.19705],[74.72048,30.19609],[74.71479,30.19681],[74.71844,30.21777],[74.72193,30.22118],[74.72142,30.22612],[74.72711,30.22993],[74.72684,30.23119],[74.72346,30.23381],[74.72181,30.23844],[74.72079,30.25189],[74.72295,30.2578],[74.73315,30.26854],[74.73764,30.27473],[74.73729,30.27749],[74.73795,30.27919],[74.74567,30.27922],[74.74833,30.28115],[74.75221,30.28581],[74.74419,30.29245],[74.74076,30.29713],[74.73456,30.30342],[74.72875,30.30462],[74.72571,30.30791],[74.74248,30.31612],[74.74666,30.32111],[74.76148,30.3194],[74.77042,30.32335],[74.78524,30.33521],[74.78408,30.336],[74.78032,30.33592],[74.74883,30.34314],[74.73407,30.34789],[74.72411,30.3497],[74.71585,30.35217],[74.70898,30.35367],[74.70219,30.35385],[74.70221,30.35573],[74.71204,30.35754],[74.71609,30.35955],[74.72405,30.36531],[74.73972,30.35668],[74.75472,30.35107],[74.76317,30.34654],[74.78072,30.33889],[74.78272,30.33947],[74.78641,30.3392],[74.8077,30.36948],[74.81695,30.38695],[74.82224,30.39312],[74.82226,30.39311],[74.83056,30.38936],[74.83807,30.38731],[74.84768,30.38185],[74.85426,30.37667],[74.87472,30.38953],[74.89419,30.38178],[74.91156,30.37621],[74.91871,30.37247],[74.91753,30.36947],[74.92307,30.3665],[74.93208,30.36818],[74.9456,30.38416],[74.95082,30.38168],[74.9573,30.38452],[74.96387,30.38574],[74.96708,30.39026],[74.973,30.39516],[74.97602,30.39289],[74.98403,30.39028],[74.98781,30.39246],[74.9952,30.39271],[74.99982,30.38844],[75.00288,30.38742],[75.01923,30.38121],[75.02638,30.37942],[75.02974,30.38047],[75.04231,30.37732],[75.04672,30.37901],[75.05611,30.38837],[75.05391,30.39091],[75.05221,30.39793],[75.05374,30.40515],[75.05266,30.40883],[75.04952,30.41291],[75.04188,30.4187],[75.02412,30.42625],[75.02737,30.43191],[75.02794,30.43607],[75.02078,30.43907],[75.02225,30.44472],[75.02831,30.44805],[75.03321,30.45682],[75.03961,30.45894],[75.04849,30.45417],[75.0547,30.45283],[75.05309,30.45858],[75.04917,30.45941],[75.04406,30.46449],[75.04611,30.47273],[75.03225,30.47199],[75.02582,30.48356],[75.0083,30.48811],[75.00814,30.48815],[75.02062,30.49008],[75.0304,30.49742],[75.03532,30.50385],[75.04273,30.50208],[75.04534,30.49909],[75.05387,30.49905],[75.06091,30.50251],[75.07125,30.51297],[75.07987,30.52436],[75.08461,30.52837],[75.09355,30.52617],[75.10953,30.52023],[75.12116,30.52225],[75.12989,30.52235],[75.13189,30.53106],[75.12893,30.53933],[75.12137,30.55271],[75.12297,30.56193],[75.1402,30.57889],[75.14576,30.58082],[75.14959,30.58102],[75.16279,30.577],[75.16817,30.57168],[75.17464,30.56261],[75.1788,30.55377],[75.18247,30.53743],[75.18244,30.51775],[75.18402,30.50865],[75.18727,30.50643],[75.19302,30.50737],[75.19691,30.51045],[75.205,30.50663],[75.21005,30.51553],[75.22172,30.5085],[75.23421,30.51063],[75.2463,30.51465],[75.25092,30.51491],[75.25852,30.51748],[75.26049,30.52037],[75.26685,30.51913],[75.27018,30.51534],[75.28231,30.50751],[75.28563,30.50735],[75.29278,30.50969]]]}}]}