{"type":"FeatureCollection","features":[{"type":"Feature","properties":{"id":"faridkot","name":"Faridkot","stateId":"punjab","stateName":"Punjab","censuscode":45,"type":"district"},"geometry":{"type":"Polygon","coordinates":[[[74.91117,30.73578],[74.91118,30.73575],[74.91312,30.72494],[74.90627,30.70662],[74.90594,30.70168],[74.90935,30.69602],[74.915,30.68002],[74.91764,30.68001],[74.92268,30.68602],[74.92386,30.68304],[74.92389,30.67728],[74.93836,30.67535],[74.94436,30.6759],[74.94872,30.6754],[74.95164,30.67384],[74.95543,30.67432],[74.95784,30.65694],[74.95655,30.65232],[74.95142,30.64348],[74.95402,30.63433],[74.95147,30.62437],[74.94916,30.6189],[74.94899,30.61729],[74.94856,30.61072],[74.94859,30.60453],[74.94928,30.6016],[74.94949,30.60072],[74.95255,30.59569],[74.95458,30.59368],[74.95542,30.59286],[74.95397,30.58961],[74.94102,30.58855],[74.93577,30.58795],[74.91654,30.58488],[74.91165,30.58034],[74.90534,30.56441],[74.90355,30.54917],[74.91289,30.54585],[74.91496,30.54501],[74.92721,30.5393],[74.93258,30.54478],[74.92735,30.54855],[74.93061,30.55395],[74.94581,30.56979],[74.9576,30.56055],[74.96116,30.56139],[74.96379,30.55919],[74.9642,30.55426],[74.97926,30.54275],[74.99181,30.54323],[74.99413,30.53827],[74.99705,30.53406],[74.99183,30.52475],[74.99102,30.51897],[74.99282,30.51363],[74.99172,30.49676],[74.99434,30.49209],[74.99979,30.48796],[75.00812,30.48812],[75.0083,30.48811],[75.02582,30.48356],[75.03225,30.47199],[75.04611,30.47273],[75.04406,30.46449],[75.04917,30.45941],[75.05309,30.45858],[75.0547,30.45283],[75.04849,30.45417],[75.03961,30.45894],[75.03321,30.45682],[75.02831,30.44805],[75.02225,30.44472],[75.02078,30.43907],[75.02794,30.43607],[75.02737,30.43191],[75.02412,30.42625],[75.04188,30.4187],[75.04952,30.41291],[75.05266,30.40883],[75.05374,30.40515],[75.05221,30.39793],[75.05391,30.39091],[75.05611,30.38837],[75.04672,30.37901],[75.04231,30.37732],[75.02974,30.38047],[75.02638,30.37942],[75.01923,30.38121],[75.00288,30.38742],[74.99982,30.38844],[74.9952,30.39271],[74.98781,30.39246],[74.98403,30.39028],[74.97602,30.39289],[74.973,30.39516],[74.96708,30.39026],[74.96387,30.38574],[74.9573,30.38452],[74.95082,30.38168],[74.9456,30.38416],[74.93208,30.36818],[74.92307,30.3665],[74.91753,30.36947],[74.91871,30.37247],[74.91156,30.37621],[74.89419,30.38178],[74.87472,30.38953],[74.85426,30.37667],[74.84768,30.38185],[74.83807,30.38731],[74.83056,30.38936],[74.82226,30.39311],[74.82226,30.39312],[74.816,30.3964],[74.81149,30.40064],[74.80863,30.39836],[74.80077,30.39948],[74.79584,30.39895],[74.78791,30.39669],[74.77303,30.39667],[74.75774,30.39151],[74.75342,30.39384],[74.75501,30.39846],[74.75469,30.40358],[74.75803,30.41915],[74.75763,30.42352],[74.75325,30.42713],[74.75563,30.43325],[74.73637,30.44662],[74.7326,30.45309],[74.73233,30.45948],[74.73413,30.4642],[74.74281,30.47354],[74.74818,30.47381],[74.75827,30.47989],[74.763,30.48544],[74.76201,30.49108],[74.75947,30.4963],[74.75063,30.49044],[74.74756,30.49309],[74.737,30.49311],[74.72792,30.50032],[74.72402,30.50266],[74.72028,30.50364],[74.71941,30.5091],[74.70732,30.51501],[74.69901,30.51657],[74.69022,30.5194],[74.68762,30.52096],[74.68648,30.52522],[74.68727,30.5289],[74.69571,30.53412],[74.70059,30.53867],[74.70427,30.54382],[74.70746,30.54593],[74.71044,30.55755],[74.70474,30.55984],[74.70078,30.56327],[74.69572,30.5654],[74.69018,30.56659],[74.6851,30.56907],[74.67984,30.57329],[74.6683,30.57858],[74.6661,30.58308],[74.659,30.59062],[74.6525,30.59187],[74.64734,30.59381],[74.63472,30.60665],[74.63531,30.61253],[74.62795,30.61393],[74.62573,30.6187],[74.62428,30.62334],[74.62056,30.63527],[74.61887,30.63759],[74.61288,30.63666],[74.6093,30.64111],[74.60475,30.64361],[74.60025,30.64493],[74.59911,30.64681],[74.59771,30.648],[74.59053,30.65411],[74.58336,30.65616],[74.57764,30.65871],[74.56094,30.66319],[74.55039,30.66475],[74.54611,30.66361],[74.53869,30.66391],[74.5327,30.66535],[74.52096,30.66532],[74.50437,30.66755],[74.50212,30.66744],[74.50259,30.66778],[74.4966,30.67013],[74.48277,30.67351],[74.47839,30.68021],[74.47726,30.68808],[74.47432,30.69756],[74.47363,30.71367],[74.47001,30.74297],[74.4751,30.74943],[74.50687,30.76186],[74.51673,30.76482],[74.5245,30.76857],[74.52472,30.77074],[74.53225,30.78022],[74.54558,30.78847],[74.56495,30.79563],[74.56893,30.79879],[74.57844,30.80323],[74.58927,30.80362],[74.59607,30.80453],[74.59857,30.80549],[74.61251,30.82401],[74.61901,30.82566],[74.62521,30.83104],[74.64668,30.81481],[74.65309,30.81738],[74.65713,30.82693],[74.65968,30.82932],[74.66486,30.82958],[74.6833,30.8216],[74.68638,30.82579],[74.69298,30.8264],[74.69893,30.82295],[74.70839,30.82405],[74.71271,30.8226],[74.71898,30.82178],[74.72856,30.81834],[74.74041,30.82112],[74.74547,30.81982],[74.74992,30.81676],[74.75562,30.81081],[74.76637,30.81098],[74.77146,30.81213],[74.77138,30.80876],[74.77433,30.80963],[74.77864,30.80647],[74.78153,30.80266],[74.78451,30.79189],[74.79867,30.78824],[74.80704,30.78529],[74.80953,30.772],[74.81259,30.76768],[74.81719,30.76499],[74.82283,30.76352],[74.82736,30.76659],[74.83158,30.76783],[74.83543,30.76757],[74.83961,30.7657],[74.8416,30.76215],[74.84799,30.75483],[74.85673,30.75066],[74.85625,30.74694],[74.85742,30.74433],[74.86038,30.74228],[74.87495,30.74441],[74.88045,30.74426],[74.88409,30.74117],[74.88801,30.73913],[74.8974,30.73844],[74.90185,30.73892],[74.91117,30.73577],[74.91117,30.73578]]]}}]}