{"type":"FeatureCollection","features":[{"type":"Feature","properties":{"id":"gurdaspur","name":"Gurdaspur","stateId":"punjab","stateName":"Punjab","censuscode":35,"type":"district"},"geometry":{"type":"Polygon","coordinates":[[[75.88469,32.48841],[75.90303,32.47169],[75.91131,32.46149],[75.93137,32.44827],[75.9403,32.43852],[75.94726,32.43029],[75.95046,32.42426],[75.94798,32.41631],[75.94173,32.41128],[75.93123,32.40978],[75.9269,32.40871],[75.88768,32.39803],[75.88204,32.39415],[75.85956,32.37892],[75.85308,32.37264],[75.83449,32.35467],[75.82952,32.3502],[75.81485,32.33702],[75.80928,32.33202],[75.80103,32.32343],[75.79867,32.32186],[75.77883,32.30182],[75.77733,32.29578],[75.77011,32.28575],[75.76726,32.28384],[75.7518,32.27344],[75.72025,32.26699],[75.70024,32.26481],[75.69117,32.26382],[75.67019,32.25568],[75.66774,32.25528],[75.6562,32.24724],[75.64935,32.2446],[75.63778,32.23455],[75.63699,32.22989],[75.63532,32.22007],[75.63349,32.19685],[75.63461,32.18967],[75.63535,32.18498],[75.66473,32.17943],[75.6713,32.17634],[75.67695,32.16436],[75.67057,32.14574],[75.66292,32.13735],[75.6462,32.11919],[75.62553,32.09932],[75.59364,32.08144],[75.58768,32.0786],[75.57758,32.07371],[75.57138,32.05995],[75.56857,32.05039],[75.56194,32.03613],[75.5583,32.0337],[75.54813,32.03353],[75.53959,32.03489],[75.53612,32.03165],[75.53932,32.02256],[75.5436,32.02188],[75.54652,32.01701],[75.54734,32.01245],[75.55062,32.00727],[75.55728,32.00514],[75.55922,32.00047],[75.55824,31.9961],[75.54754,31.98471],[75.54185,31.98255],[75.5431,31.97829],[75.53964,31.96896],[75.53557,31.96515],[75.53303,31.95644],[75.53288,31.95033],[75.53046,31.94359],[75.53577,31.94292],[75.5384,31.94018],[75.53796,31.92872],[75.54026,31.92655],[75.55239,31.92034],[75.55482,31.90032],[75.55278,31.89282],[75.55364,31.88631],[75.55735,31.88421],[75.5604,31.881],[75.56515,31.87354],[75.57071,31.86326],[75.57278,31.85549],[75.5708,31.85071],[75.5647,31.84175],[75.56467,31.83824],[75.56576,31.83496],[75.56527,31.82856],[75.56697,31.8258],[75.5708,31.82387],[75.56897,31.80774],[75.56633,31.80294],[75.56582,31.79936],[75.57039,31.79547],[75.57353,31.7891],[75.57489,31.78536],[75.57352,31.78092],[75.57361,31.77845],[75.56887,31.7756],[75.54943,31.77497],[75.53807,31.77241],[75.53984,31.75987],[75.53889,31.75237],[75.53973,31.74731],[75.53673,31.73739],[75.53307,31.735],[75.52649,31.72891],[75.51885,31.72092],[75.51675,31.71653],[75.50685,31.70777],[75.4976,31.70161],[75.49633,31.69999],[75.49327,31.69023],[75.49195,31.68003],[75.48322,31.67496],[75.48111,31.67264],[75.48479,31.671],[75.4817,31.66551],[75.4762,31.65896],[75.47492,31.65146],[75.4757,31.65143],[75.47042,31.64609],[75.46798,31.63461],[75.43347,31.6274],[75.42977,31.62991],[75.42545,31.62712],[75.42128,31.62306],[75.41839,31.61744],[75.41957,31.61222],[75.41642,31.61231],[75.41541,31.60551],[75.41346,31.59944],[75.40815,31.59578],[75.4049,31.59443],[75.39335,31.60197],[75.3912,31.6063],[75.38525,31.61399],[75.37813,31.61876],[75.37489,31.62384],[75.37033,31.62358],[75.36178,31.62628],[75.35071,31.6313],[75.34786,31.63477],[75.34326,31.63635],[75.3378,31.64076],[75.33376,31.63969],[75.32836,31.63518],[75.32158,31.64103],[75.30926,31.64853],[75.30091,31.65179],[75.30373,31.65915],[75.30897,31.6616],[75.31259,31.6686],[75.30844,31.67646],[75.30033,31.67593],[75.29856,31.67956],[75.29147,31.68134],[75.28781,31.67704],[75.28449,31.68155],[75.28642,31.69501],[75.28544,31.69766],[75.28211,31.69907],[75.27449,31.69519],[75.26536,31.69352],[75.2602,31.69435],[75.25148,31.69314],[75.24827,31.68745],[75.24246,31.68984],[75.24066,31.68311],[75.23613,31.68653],[75.2268,31.68549],[75.22459,31.6927],[75.21408,31.6954],[75.21708,31.70092],[75.21255,31.70544],[75.20299,31.70756],[75.19376,31.71228],[75.19354,31.71723],[75.19884,31.71819],[75.20303,31.72208],[75.20294,31.72785],[75.19315,31.7347],[75.18893,31.73587],[75.19072,31.74122],[75.18603,31.74234],[75.18105,31.74046],[75.1758,31.74798],[75.16923,31.74768],[75.16472,31.74546],[75.15139,31.74858],[75.14641,31.75419],[75.1449,31.75823],[75.1414,31.75739],[75.13748,31.75418],[75.13385,31.75305],[75.12655,31.75343],[75.11993,31.75779],[75.11753,31.75036],[75.11117,31.75431],[75.10569,31.75578],[75.09854,31.76047],[75.1002,31.76732],[75.10616,31.76625],[75.11034,31.7686],[75.11428,31.77428],[75.11304,31.77999],[75.10299,31.78336],[75.09445,31.79023],[75.08687,31.79087],[75.08334,31.795],[75.0807,31.80084],[75.07684,31.80609],[75.05557,31.80805],[75.04573,31.80295],[75.03888,31.80417],[75.03449,31.8109],[75.03025,31.81052],[75.02564,31.81389],[75.027,31.81762],[75.02582,31.82317],[75.01255,31.81769],[75.00896,31.82467],[74.99854,31.82686],[74.99387,31.82799],[74.98349,31.8338],[74.96881,31.83427],[74.9672,31.84137],[74.96738,31.84619],[74.96369,31.85469],[74.95358,31.85921],[74.94532,31.86121],[74.9451,31.8657],[74.94652,31.87186],[74.94209,31.87302],[74.93801,31.86952],[74.92691,31.87777],[74.91781,31.88233],[74.91971,31.89454],[74.91134,31.89534],[74.90617,31.89717],[74.9053,31.90485],[74.88859,31.93293],[74.89544,31.93594],[74.90163,31.93387],[74.90996,31.93999],[74.92132,31.94424],[74.92945,31.94075],[74.93319,31.94207],[74.94067,31.94324],[74.93901,31.94781],[74.95843,31.95483],[74.97333,31.96171],[74.97258,31.96826],[74.97417,31.97681],[74.96141,31.97336],[74.94813,31.97173],[74.94957,31.96512],[74.93787,31.96353],[74.93012,31.96754],[74.92496,31.97358],[74.91531,31.97727],[74.91806,31.98605],[74.92788,32.00022],[74.93231,32.00557],[74.93544,32.00492],[74.9377,32.00851],[74.93162,32.00977],[74.93308,32.01234],[74.93656,32.01323],[74.93643,32.01532],[74.93463,32.01775],[74.93136,32.01984],[74.93017,32.027],[74.92405,32.04145],[74.92079,32.0452],[74.91291,32.05064],[74.91235,32.05097],[74.91325,32.0512],[74.91402,32.05164],[74.91745,32.05843],[74.91853,32.05912],[74.91964,32.06168],[74.9212,32.06384],[74.92772,32.06624],[74.92861,32.06653],[74.94029,32.06694],[74.95351,32.0631],[74.96238,32.05828],[74.96571,32.05695],[74.97612,32.05389],[74.97857,32.05317],[74.9805,32.05218],[74.98104,32.04854],[74.98049,32.04818],[74.97839,32.04607],[74.97798,32.04518],[74.97812,32.04428],[74.98261,32.04315],[74.98473,32.04291],[74.98507,32.04332],[74.98659,32.04334],[74.98767,32.04311],[75.00026,32.0442],[75.00328,32.04443],[75.00436,32.04419],[75.00514,32.04396],[75.00672,32.04442],[75.0075,32.04395],[75.00751,32.0426],[75.0081,32.0422],[75.00937,32.03832],[75.01095,32.03742],[75.01247,32.03685],[75.01342,32.035],[75.0162,32.03792],[75.01713,32.0389],[75.01891,32.0419],[75.02169,32.04394],[75.02369,32.0454],[75.02447,32.04638],[75.03668,32.04998],[75.03853,32.0502],[75.03919,32.04845],[75.03959,32.04455],[75.04303,32.04339],[75.04435,32.04389],[75.0498,32.04904],[75.05126,32.04993],[75.05423,32.05098],[75.06184,32.0526],[75.06509,32.05567],[75.0723,32.06317],[75.07402,32.06159],[75.07617,32.06183],[75.07697,32.06137],[75.07805,32.06025],[75.08253,32.05888],[75.08334,32.05933],[75.08707,32.06049],[75.08892,32.06068],[75.0897,32.06137],[75.0919,32.06207],[75.09315,32.06247],[75.09367,32.06292],[75.10032,32.06377],[75.10072,32.06295],[75.10454,32.06082],[75.10664,32.06035],[75.10876,32.06172],[75.1093,32.06218],[75.10986,32.06737],[75.11197,32.07119],[75.11317,32.07208],[75.12257,32.0757],[75.12393,32.07684],[75.12501,32.07748],[75.12806,32.08204],[75.13082,32.08363],[75.1324,32.08386],[75.13456,32.08399],[75.13776,32.08285],[75.14438,32.08147],[75.14597,32.08215],[75.15284,32.08371],[75.15638,32.08406],[75.15896,32.08366],[75.16649,32.0812],[75.16728,32.07984],[75.16795,32.07956],[75.16875,32.07666],[75.16936,32.07621],[75.17161,32.07301],[75.17213,32.07277],[75.17291,32.06917],[75.17741,32.06846],[75.179,32.06865],[75.18127,32.07094],[75.18273,32.07206],[75.18621,32.07972],[75.1894,32.08197],[75.19552,32.08285],[75.19605,32.08264],[75.19818,32.08329],[75.19897,32.08373],[75.19974,32.08441],[75.20012,32.08783],[75.19981,32.09594],[75.20233,32.09999],[75.20381,32.10088],[75.20622,32.10133],[75.20779,32.10086],[75.20834,32.10132],[75.20787,32.11532],[75.20801,32.11599],[75.21001,32.11733],[75.2137,32.118],[75.21927,32.11665],[75.22005,32.11596],[75.22371,32.10373],[75.2245,32.10329],[75.22636,32.10259],[75.22855,32.10327],[75.22741,32.10192],[75.23105,32.10298],[75.2336,32.10162],[75.23466,32.09348],[75.23966,32.09094],[75.24726,32.09662],[75.24834,32.09888],[75.25013,32.09984],[75.25242,32.10121],[75.25366,32.1018],[75.25868,32.10247],[75.26139,32.10201],[75.26248,32.10268],[75.26548,32.1002],[75.26652,32.10759],[75.26794,32.10834],[75.27471,32.11428],[75.27652,32.11595],[75.27677,32.11636],[75.2829,32.11949],[75.28317,32.12381],[75.28426,32.12537],[75.28718,32.12786],[75.28747,32.13192],[75.28511,32.13372],[75.28431,32.13373],[75.28141,32.13598],[75.28143,32.13962],[75.28304,32.14278],[75.28525,32.14439],[75.2901,32.14884],[75.29106,32.14928],[75.29144,32.14997],[75.29451,32.15131],[75.30166,32.15216],[75.30247,32.15261],[75.30326,32.15327],[75.30562,32.16139],[75.30865,32.16797],[75.30974,32.16975],[75.31532,32.17422],[75.3185,32.17467],[75.31928,32.17444],[75.32063,32.1742],[75.32168,32.17465],[75.32225,32.17963],[75.32185,32.18098],[75.32132,32.18122],[75.32052,32.18325],[75.31995,32.19163],[75.31914,32.19229],[75.31715,32.19191],[75.31606,32.19162],[75.3137,32.19233],[75.31386,32.19593],[75.31598,32.19932],[75.31692,32.2],[75.32771,32.21411],[75.32917,32.21546],[75.32991,32.21623],[75.33127,32.21762],[75.33271,32.21867],[75.33819,32.21942],[75.34504,32.21927],[75.3484,32.21962],[75.35514,32.21809],[75.35832,32.21899],[75.35937,32.21876],[75.36123,32.21851],[75.36469,32.22006],[75.36763,32.22321],[75.37296,32.22635],[75.37431,32.2275],[75.37551,32.23222],[75.37632,32.23267],[75.37781,32.23424],[75.3782,32.23514],[75.37873,32.23874],[75.3786,32.23966],[75.37756,32.24033],[75.37678,32.2408],[75.37546,32.24463],[75.37441,32.24533],[75.37336,32.24625],[75.37204,32.24943],[75.37206,32.25234],[75.37372,32.2591],[75.37465,32.26002],[75.37824,32.26228],[75.38011,32.26293],[75.38107,32.26451],[75.38131,32.26551],[75.38212,32.26925],[75.37928,32.27231],[75.3762,32.27491],[75.3762,32.27538],[75.37145,32.27902],[75.36718,32.27859],[75.35762,32.27594],[75.35576,32.27617],[75.34913,32.278],[75.3521,32.2868],[75.35105,32.28772],[75.34206,32.29161],[75.33223,32.2937],[75.328,32.29597],[75.32737,32.29733],[75.32725,32.30013],[75.32804,32.30162],[75.33178,32.30477],[75.33457,32.31076],[75.33528,32.31157],[75.339,32.31467],[75.33941,32.3158],[75.34047,32.31804],[75.34142,32.31872],[75.34154,32.32007],[75.34117,32.32077],[75.33772,32.32326],[75.33746,32.32417],[75.33725,32.32478],[75.33629,32.32534],[75.33483,32.32645],[75.33384,32.32781],[75.33281,32.32816],[75.33963,32.34238],[75.33963,32.34238],[75.34053,32.34355],[75.34702,32.34539],[75.35924,32.34087],[75.36051,32.33981],[75.37443,32.33554],[75.38872,32.33114],[75.39377,32.32937],[75.40122,32.32823],[75.4127,32.32678],[75.43025,32.32474],[75.44635,32.32693],[75.44786,32.32712],[75.4639,32.33172],[75.46708,32.33216],[75.47165,32.33391],[75.48195,32.33922],[75.48758,32.34041],[75.48886,32.33956],[75.48886,32.33956],[75.48305,32.3179],[75.48305,32.3179],[75.4867,32.31498],[75.49522,32.31065],[75.50003,32.31058],[75.50551,32.31049],[75.50585,32.30917],[75.5064,32.30698],[75.5074,32.30306],[75.50526,32.28823],[75.50526,32.28822],[75.50995,32.27713],[75.51419,32.27554],[75.51647,32.27625],[75.51974,32.27973],[75.52085,32.28154],[75.53111,32.29819],[75.53965,32.34029],[75.54461,32.34913],[75.56058,32.36106],[75.57278,32.36717],[75.58248,32.37202],[75.60816,32.38186],[75.65252,32.38745],[75.66362,32.38885],[75.67832,32.39352],[75.70058,32.4006],[75.71387,32.40949],[75.7272,32.41811],[75.73105,32.42378],[75.73545,32.43027],[75.74086,32.43826],[75.74545,32.44501],[75.75109,32.45463],[75.75955,32.46906],[75.76087,32.47422],[75.76174,32.47631],[75.76876,32.47519],[75.78831,32.475],[75.79471,32.47493],[75.80599,32.47866],[75.82023,32.48691],[75.83161,32.49906],[75.8395,32.50749],[75.84096,32.50906],[75.84488,32.51982],[75.84652,32.52436],[75.85384,32.53747],[75.8726,32.55827],[75.88785,32.57514],[75.88864,32.57603],[75.89153,32.57069],[75.88636,32.55859],[75.87238,32.53751],[75.86736,32.52111],[75.86691,32.50766],[75.87121,32.49934],[75.88469,32.48841]]]}}]}