{"type":"FeatureCollection","features":[{"type":"Feature","properties":{"id":"hoshiarpur","name":"Hoshiarpur","stateId":"punjab","stateName":"Punjab","censuscode":38,"type":"district"},"geometry":{"type":"Polygon","coordinates":[[[75.95898,31.85623],[75.96444,31.84679],[75.96827,31.83862],[75.97044,31.83103],[75.98231,31.82214],[75.9856,31.81782],[75.98614,31.81316],[75.98163,31.81349],[75.97498,31.81711],[75.96757,31.82262],[75.96344,31.8218],[75.95071,31.81694],[75.94788,31.81371],[75.94396,31.81393],[75.94139,31.81514],[75.93645,31.81589],[75.94183,31.80383],[75.9476,31.79577],[75.95039,31.7884],[75.95104,31.78299],[75.95963,31.7799],[75.96644,31.7616],[75.97405,31.74809],[75.97426,31.74285],[75.97204,31.73903],[75.97551,31.7353],[75.98052,31.73197],[75.98384,31.71817],[75.98705,31.71363],[75.99182,31.70346],[75.99023,31.69378],[76.00003,31.68381],[76.00509,31.68315],[76.00541,31.68416],[76.00658,31.68293],[76.00911,31.67996],[76.01183,31.67439],[76.01175,31.66726],[76.01912,31.66139],[76.0183,31.65525],[76.02062,31.64977],[76.01709,31.64492],[76.03192,31.61995],[76.03749,31.61373],[76.04571,31.60771],[76.051,31.60504],[76.05429,31.6067],[76.05835,31.60125],[76.05697,31.5941],[76.05743,31.59017],[76.06577,31.57996],[76.07913,31.55992],[76.08026,31.55864],[76.08582,31.55226],[76.09102,31.54405],[76.09821,31.53525],[76.10315,31.52569],[76.10479,31.51702],[76.1087,31.51222],[76.11827,31.5003],[76.12229,31.49308],[76.12206,31.48017],[76.12882,31.47147],[76.12962,31.46337],[76.13536,31.45889],[76.13667,31.45163],[76.14229,31.44164],[76.14913,31.43537],[76.15752,31.43013],[76.16115,31.42343],[76.16109,31.41667],[76.16753,31.41181],[76.17075,31.40229],[76.16701,31.39504],[76.1611,31.38968],[76.15259,31.38466],[76.14804,31.38045],[76.14893,31.35954],[76.1535,31.35088],[76.16162,31.3459],[76.17196,31.34466],[76.1802,31.33916],[76.17995,31.32386],[76.1823,31.3118],[76.18666,31.30439],[76.19952,31.30229],[76.22024,31.30285],[76.22882,31.30522],[76.23706,31.31064],[76.25804,31.31125],[76.26951,31.31247],[76.27507,31.30334],[76.28231,31.30409],[76.29127,31.30741],[76.29191,31.29984],[76.29445,31.29558],[76.29913,31.29277],[76.30838,31.29283],[76.30991,31.28943],[76.31076,31.27867],[76.3131,31.27504],[76.31893,31.27049],[76.32688,31.26698],[76.33197,31.2633],[76.33697,31.25132],[76.3403,31.24718],[76.35173,31.23826],[76.3473,31.23244],[76.33906,31.23018],[76.33551,31.22673],[76.33871,31.22576],[76.3357,31.22544],[76.33137,31.22496],[76.30871,31.21204],[76.30132,31.21646],[76.29194,31.22207],[76.2832,31.23346],[76.27411,31.23873],[76.25691,31.23862],[76.24681,31.24551],[76.23878,31.23835],[76.22777,31.21327],[76.22306,31.20171],[76.21078,31.19511],[76.19763,31.18787],[76.19784,31.18431],[76.20777,31.16583],[76.19994,31.15487],[76.20752,31.14665],[76.20864,31.1412],[76.20684,31.13778],[76.19321,31.13027],[76.19477,31.13314],[76.18682,31.13374],[76.18256,31.13547],[76.1731,31.13567],[76.1702,31.14056],[76.15763,31.14426],[76.15822,31.15076],[76.15548,31.15398],[76.14879,31.15401],[76.1418,31.1486],[76.13892,31.15175],[76.13341,31.16779],[76.12583,31.16714],[76.11986,31.16782],[76.11212,31.17247],[76.10794,31.17631],[76.10311,31.17831],[76.0995,31.18406],[76.09516,31.19653],[76.08863,31.19921],[76.09142,31.20652],[76.09085,31.21399],[76.08957,31.21778],[76.08933,31.22456],[76.08263,31.22602],[76.07758,31.22887],[76.06567,31.22553],[76.06671,31.21836],[76.06161,31.21632],[76.05351,31.21671],[76.04976,31.21446],[76.04634,31.21757],[76.05075,31.22304],[76.05383,31.22456],[76.0534,31.22741],[76.04811,31.23232],[76.03104,31.24095],[76.02851,31.24646],[76.02894,31.25385],[76.02567,31.25898],[76.02115,31.25674],[76.00973,31.24443],[76.00384,31.24452],[76.00001,31.24811],[75.99411,31.25577],[75.99506,31.25977],[75.97213,31.25389],[75.96903,31.25731],[75.96254,31.25571],[75.95411,31.25596],[75.95497,31.25935],[75.95404,31.26415],[75.94911,31.26593],[75.94491,31.27308],[75.93882,31.27388],[75.93442,31.27161],[75.93121,31.26896],[75.92752,31.27149],[75.92538,31.27534],[75.92001,31.27849],[75.91295,31.27813],[75.9014,31.28097],[75.892,31.27575],[75.88855,31.27649],[75.8872,31.28432],[75.88509,31.28685],[75.88485,31.29134],[75.88014,31.29213],[75.87761,31.28636],[75.86689,31.28247],[75.86571,31.29013],[75.85995,31.29027],[75.85591,31.29216],[75.85424,31.29572],[75.85664,31.29959],[75.8632,31.3056],[75.86831,31.31236],[75.86688,31.31857],[75.87678,31.3281],[75.87793,31.32673],[75.87735,31.32402],[75.87903,31.32207],[75.8809,31.32213],[75.88251,31.32865],[75.88521,31.3313],[75.88609,31.33516],[75.88914,31.3369],[75.89408,31.33785],[75.90623,31.33765],[75.90831,31.34578],[75.90422,31.34462],[75.89653,31.34026],[75.89136,31.34152],[75.88953,31.34745],[75.87859,31.35612],[75.875,31.35477],[75.87102,31.35527],[75.8583,31.35132],[75.85708,31.3541],[75.85528,31.36495],[75.85172,31.36902],[75.84588,31.37248],[75.83862,31.37169],[75.8325,31.37198],[75.83341,31.36645],[75.83125,31.36152],[75.82315,31.35907],[75.81699,31.36149],[75.81165,31.3707],[75.80765,31.37035],[75.80442,31.37407],[75.80047,31.37405],[75.79454,31.37065],[75.78838,31.37004],[75.78478,31.37606],[75.78333,31.38178],[75.78395,31.38385],[75.8055,31.39231],[75.81051,31.40142],[75.82026,31.40425],[75.82296,31.40573],[75.82241,31.40908],[75.81892,31.41355],[75.81584,31.42233],[75.82063,31.4254],[75.81888,31.4287],[75.81094,31.43529],[75.80627,31.44064],[75.80348,31.44711],[75.80145,31.45491],[75.79831,31.45552],[75.79461,31.45008],[75.79013,31.45019],[75.78201,31.46755],[75.77873,31.47289],[75.77325,31.47398],[75.77044,31.47383],[75.76761,31.47778],[75.76198,31.4772],[75.76009,31.47602],[75.75225,31.48548],[75.74917,31.48534],[75.74262,31.49295],[75.74063,31.49337],[75.7364,31.49761],[75.73896,31.50393],[75.7354,31.50725],[75.73393,31.51297],[75.73065,31.51783],[75.72742,31.517],[75.72585,31.51979],[75.7219,31.52028],[75.71744,31.52206],[75.71607,31.52541],[75.71192,31.53064],[75.70452,31.52869],[75.70064,31.53892],[75.70515,31.54147],[75.70624,31.54681],[75.70508,31.55092],[75.703,31.55566],[75.69415,31.55569],[75.69427,31.55948],[75.68851,31.57043],[75.6842,31.57329],[75.68159,31.57959],[75.68424,31.58199],[75.68294,31.58505],[75.68215,31.59239],[75.67578,31.59401],[75.67008,31.59738],[75.67278,31.6028],[75.67096,31.60746],[75.66735,31.60744],[75.66181,31.60568],[75.65078,31.60626],[75.64781,31.60953],[75.64597,31.61447],[75.64409,31.61601],[75.64094,31.61698],[75.63881,31.61639],[75.64051,31.6118],[75.63696,31.61241],[75.63388,31.61423],[75.62903,31.60822],[75.62364,31.60469],[75.61816,31.60551],[75.60943,31.61094],[75.60347,31.61252],[75.59921,31.61128],[75.59505,31.60484],[75.57635,31.60954],[75.57475,31.61754],[75.57275,31.61695],[75.57147,31.61043],[75.56871,31.61133],[75.56842,31.61634],[75.57019,31.62062],[75.57,31.62781],[75.57301,31.63629],[75.57073,31.63819],[75.56329,31.64004],[75.55673,31.64058],[75.55629,31.63804],[75.55156,31.63474],[75.5482,31.63667],[75.54838,31.64082],[75.54517,31.64869],[75.54188,31.65103],[75.53313,31.64994],[75.53161,31.64722],[75.53197,31.64342],[75.53087,31.6395],[75.53216,31.6364],[75.53083,31.63547],[75.52556,31.63475],[75.52613,31.63694],[75.52492,31.63935],[75.52249,31.64146],[75.51493,31.6413],[75.51123,31.64381],[75.50222,31.64324],[75.49827,31.64206],[75.48839,31.64868],[75.48329,31.65106],[75.4757,31.65143],[75.47492,31.65146],[75.4762,31.65896],[75.4817,31.66551],[75.48479,31.671],[75.48111,31.67264],[75.48322,31.67496],[75.49195,31.68003],[75.49327,31.69023],[75.49633,31.69999],[75.4976,31.70161],[75.50685,31.70777],[75.51675,31.71653],[75.51885,31.72092],[75.52649,31.72891],[75.53307,31.735],[75.53673,31.73739],[75.53973,31.74731],[75.53889,31.75237],[75.53984,31.75987],[75.53807,31.77241],[75.54943,31.77497],[75.56887,31.7756],[75.57361,31.77845],[75.57352,31.78092],[75.57489,31.78536],[75.57353,31.7891],[75.57039,31.79547],[75.56582,31.79936],[75.56633,31.80294],[75.56897,31.80774],[75.5708,31.82387],[75.56697,31.8258],[75.56527,31.82856],[75.56576,31.83496],[75.56467,31.83824],[75.5647,31.84175],[75.5708,31.85071],[75.57278,31.85549],[75.57071,31.86326],[75.56515,31.87354],[75.5604,31.881],[75.55735,31.88421],[75.55364,31.88631],[75.55278,31.89282],[75.55482,31.90032],[75.55239,31.92034],[75.54026,31.92655],[75.53796,31.92872],[75.5384,31.94018],[75.53577,31.94292],[75.53046,31.94359],[75.53288,31.95033],[75.53303,31.95644],[75.53557,31.96515],[75.53964,31.96896],[75.5431,31.97829],[75.54185,31.98255],[75.54754,31.98471],[75.55824,31.9961],[75.55922,32.00047],[75.55728,32.00514],[75.55062,32.00727],[75.54734,32.01245],[75.54652,32.01701],[75.5436,32.02188],[75.53932,32.02256],[75.53612,32.03165],[75.53959,32.03489],[75.54813,32.03353],[75.5583,32.0337],[75.56194,32.03613],[75.56857,32.05039],[75.57138,32.05995],[75.57758,32.07371],[75.58768,32.0786],[75.59364,32.08144],[75.61341,32.0657],[75.62446,32.06914],[75.64023,32.07231],[75.65499,32.07636],[75.6643,32.07677],[75.68804,32.06645],[75.70476,32.06102],[75.70722,32.05893],[75.71532,32.04303],[75.7254,32.03543],[75.73815,32.03556],[75.74889,32.0367],[75.75292,32.03516],[75.75495,32.03383],[75.76328,32.02649],[75.76871,32.01918],[75.77644,32.01318],[75.78134,32.00691],[75.78919,32.00002],[75.79916,31.99353],[75.81,31.98776],[75.82048,31.98417],[75.82891,31.98253],[75.85125,31.98073],[75.8565,31.97268],[75.86618,31.97157],[75.87166,31.96848],[75.88106,31.96783],[75.88343,31.96591],[75.88461,31.96496],[75.89261,31.96095],[75.90942,31.94873],[75.91081,31.93916],[75.91759,31.9268],[75.9275,31.91543],[75.94095,31.88857],[75.94619,31.88261],[75.95313,31.86663],[75.95898,31.85623]]]}}]}