{"type":"FeatureCollection","features":[{"type":"Feature","properties":{"id":"ludhiana","name":"Ludhiana","stateId":"punjab","stateName":"Punjab","censuscode":41,"type":"district"},"geometry":{"type":"Polygon","coordinates":[[[75.93378,31.01057],[75.94205,31.00812],[75.95362,31.01185],[75.95716,31.01912],[75.95842,31.01877],[75.97014,31.01563],[75.98269,31.01136],[75.99146,31.01015],[75.99282,31.00474],[75.99082,31.00024],[75.99517,30.99487],[76.00001,30.98896],[76.00717,30.99579],[76.01565,30.99476],[76.03758,30.99613],[76.04799,30.99573],[76.05634,30.99727],[76.07706,30.99543],[76.08701,30.99364],[76.09547,30.99065],[76.09913,30.98804],[76.10271,30.98711],[76.11413,30.98766],[76.13476,30.98637],[76.14105,30.98727],[76.14979,30.99066],[76.16583,30.99323],[76.17559,30.9968],[76.1803,30.99366],[76.18555,30.9927],[76.1875,30.99639],[76.18377,31.00057],[76.19343,31.00256],[76.20719,31.00601],[76.21363,31.00645],[76.21812,31.00066],[76.21828,30.99893],[76.23084,30.99802],[76.24171,30.99823],[76.25053,30.9945],[76.25358,30.99494],[76.2574,30.99178],[76.26685,30.98397],[76.27177,30.97989],[76.27184,30.97983],[76.27187,30.97983],[76.2897,30.97988],[76.29008,30.97988],[76.29008,30.9799],[76.29234,30.98705],[76.2924,30.98724],[76.29244,30.98726],[76.30838,30.99162],[76.31268,30.98677],[76.316,30.98307],[76.31682,30.97264],[76.31689,30.97184],[76.31642,30.97135],[76.31698,30.97116],[76.31784,30.96031],[76.31855,30.95134],[76.32275,30.9399],[76.32429,30.93082],[76.32189,30.92821],[76.31595,30.9252],[76.31705,30.91982],[76.32073,30.91519],[76.32097,30.9035],[76.32148,30.8782],[76.32809,30.87901],[76.32774,30.88576],[76.33298,30.89686],[76.33642,30.89875],[76.33925,30.90684],[76.3488,30.91232],[76.36078,30.90822],[76.36522,30.90491],[76.36937,30.89918],[76.37283,30.89],[76.37488,30.87796],[76.37428,30.87526],[76.37014,30.8724],[76.35932,30.86909],[76.35726,30.86619],[76.34969,30.86454],[76.34396,30.8595],[76.33709,30.85871],[76.3282,30.85996],[76.32285,30.86451],[76.31564,30.86884],[76.31265,30.87111],[76.31115,30.87251],[76.30657,30.87241],[76.30432,30.87092],[76.29825,30.87204],[76.2959,30.87397],[76.29128,30.87512],[76.28499,30.87641],[76.28377,30.87513],[76.28239,30.8745],[76.25459,30.83619],[76.26224,30.82138],[76.25233,30.79959],[76.26482,30.76515],[76.26942,30.73664],[76.27124,30.73268],[76.27483,30.72806],[76.28226,30.72032],[76.29108,30.71295],[76.29725,30.71521],[76.30181,30.71939],[76.31341,30.72553],[76.31826,30.72082],[76.32714,30.70855],[76.33076,30.71218],[76.33352,30.71345],[76.34005,30.71431],[76.34435,30.71366],[76.34721,30.71142],[76.35017,30.70536],[76.34853,30.70188],[76.35001,30.6932],[76.34931,30.69235],[76.34565,30.68482],[76.34484,30.67941],[76.34048,30.6758],[76.33686,30.67436],[76.33,30.6663],[76.32392,30.6626],[76.32391,30.6626],[76.32385,30.6626],[76.31754,30.66237],[76.30642,30.6671],[76.30632,30.66714],[76.30242,30.6745],[76.3029,30.67708],[76.30134,30.67787],[76.30081,30.67813],[76.29934,30.67887],[76.29851,30.67929],[76.28176,30.68081],[76.27821,30.67758],[76.27271,30.67519],[76.26552,30.67468],[76.25933,30.67652],[76.25465,30.67983],[76.24738,30.67887],[76.24132,30.68019],[76.23743,30.68366],[76.23575,30.6879],[76.23464,30.68878],[76.22561,30.68859],[76.21925,30.68421],[76.21649,30.67774],[76.21433,30.67639],[76.20831,30.67452],[76.20119,30.67378],[76.19814,30.67413],[76.18552,30.66626],[76.18179,30.67094],[76.18229,30.67717],[76.17943,30.67929],[76.17388,30.67794],[76.17119,30.67413],[76.17166,30.66921],[76.17109,30.6653],[76.1673,30.66012],[76.16191,30.65668],[76.15361,30.654],[76.15252,30.65304],[76.15196,30.63943],[76.15127,30.63794],[76.13607,30.63295],[76.12956,30.63],[76.12531,30.6246],[76.12604,30.62182],[76.11501,30.61355],[76.12211,30.6037],[76.11989,30.5996],[76.12392,30.59642],[76.11998,30.59265],[76.11308,30.58961],[76.11155,30.5845],[76.11301,30.57898],[76.1113,30.57697],[76.10762,30.57521],[76.10716,30.56224],[76.10102,30.55998],[76.09577,30.56184],[76.09186,30.56667],[76.08876,30.56715],[76.08359,30.56179],[76.07669,30.56424],[76.0715,30.56379],[76.06877,30.56592],[76.06587,30.56955],[76.06785,30.57992],[76.06511,30.58207],[76.06248,30.58014],[76.05921,30.579],[76.04566,30.58641],[76.0378,30.58718],[76.03553,30.58924],[76.0323,30.59973],[76.03294,30.60418],[76.03209,30.60746],[76.03028,30.60905],[76.03025,30.61337],[76.02804,30.61486],[76.01092,30.61232],[76.00707,30.61094],[76.00363,30.60223],[76.00003,30.6005],[75.99213,30.59803],[75.9873,30.59815],[75.98365,30.59688],[75.97497,30.59181],[75.96271,30.58765],[75.96039,30.58523],[75.95752,30.57612],[75.95055,30.57186],[75.94247,30.56944],[75.9377,30.56898],[75.92872,30.5759],[75.92703,30.58633],[75.92352,30.58863],[75.92518,30.5914],[75.93095,30.59571],[75.92582,30.60551],[75.91873,30.60909],[75.91204,30.60857],[75.90548,30.60437],[75.89581,30.60559],[75.89033,30.61008],[75.89015,30.62033],[75.8807,30.62529],[75.87587,30.63002],[75.8764,30.63825],[75.89663,30.64643],[75.89757,30.65404],[75.89493,30.66003],[75.88634,30.66378],[75.88422,30.66792],[75.88409,30.67172],[75.88079,30.67501],[75.87237,30.6765],[75.85932,30.67017],[75.85355,30.67057],[75.84303,30.6863],[75.83622,30.6878],[75.83442,30.68526],[75.82566,30.67892],[75.82321,30.66935],[75.8175,30.66428],[75.80763,30.6648],[75.79782,30.6626],[75.79126,30.65966],[75.78568,30.65925],[75.78709,30.66409],[75.78477,30.67129],[75.77775,30.67209],[75.77033,30.67221],[75.76568,30.66558],[75.76568,30.65607],[75.77568,30.65769],[75.77919,30.64623],[75.78117,30.64312],[75.80017,30.63144],[75.79685,30.62897],[75.78949,30.6232],[75.78599,30.6236],[75.78149,30.62924],[75.76613,30.63494],[75.76276,30.63775],[75.76017,30.63464],[75.75208,30.6306],[75.74042,30.62881],[75.7385,30.62668],[75.734,30.61804],[75.73128,30.61578],[75.72738,30.61814],[75.72307,30.62559],[75.72241,30.62672],[75.71089,30.64047],[75.70293,30.63706],[75.69632,30.63694],[75.69473,30.63803],[75.68982,30.64615],[75.68749,30.64995],[75.67029,30.64985],[75.65579,30.6353],[75.65505,30.63446],[75.64691,30.63427],[75.64525,30.63318],[75.64393,30.6311],[75.64413,30.62863],[75.64308,30.62494],[75.64122,30.62281],[75.63499,30.62015],[75.63295,30.61617],[75.62639,30.61368],[75.62117,30.61984],[75.61956,30.62076],[75.61321,30.62196],[75.60897,30.62114],[75.60116,30.61744],[75.59527,30.61634],[75.585,30.62438],[75.57811,30.62241],[75.57281,30.62545],[75.56929,30.62884],[75.56055,30.63147],[75.55763,30.63319],[75.55094,30.63329],[75.54783,30.6289],[75.54566,30.62234],[75.54561,30.61669],[75.55123,30.61739],[75.55639,30.61902],[75.55839,30.61269],[75.55397,30.60295],[75.54696,30.59574],[75.53995,30.59394],[75.53464,30.60008],[75.53364,30.60613],[75.53165,30.61114],[75.52867,30.61245],[75.52026,30.60661],[75.51816,30.59854],[75.51128,30.59824],[75.50167,30.6008],[75.49525,30.59825],[75.48691,30.59967],[75.47869,30.60235],[75.47002,30.60348],[75.4677,30.60526],[75.46518,30.60392],[75.46393,30.60058],[75.46208,30.5992],[75.45592,30.60091],[75.45281,30.59871],[75.45011,30.59461],[75.4476,30.59254],[75.4435,30.59292],[75.4415,30.59401],[75.43867,30.59147],[75.43126,30.58902],[75.43087,30.58482],[75.42757,30.58348],[75.42452,30.58462],[75.41929,30.58484],[75.40799,30.5824],[75.39942,30.59104],[75.40104,30.59888],[75.40446,30.60633],[75.40437,30.61283],[75.40164,30.61685],[75.39639,30.62121],[75.39499,30.62616],[75.38129,30.62236],[75.37785,30.62275],[75.3773,30.62678],[75.3792,30.63474],[75.37352,30.64893],[75.37945,30.65731],[75.38148,30.66359],[75.37966,30.67487],[75.37719,30.67802],[75.37261,30.68192],[75.37133,30.68889],[75.37308,30.69736],[75.37114,30.70587],[75.37258,30.70911],[75.38067,30.70901],[75.38325,30.71023],[75.38562,30.71312],[75.38662,30.71589],[75.38719,30.72194],[75.38227,30.72313],[75.37722,30.73025],[75.37699,30.73498],[75.38063,30.73838],[75.37789,30.74834],[75.38111,30.75249],[75.38394,30.75964],[75.38405,30.7688],[75.38873,30.77578],[75.39229,30.78323],[75.39319,30.79215],[75.39713,30.80386],[75.39671,30.80893],[75.39252,30.81145],[75.38607,30.81373],[75.37782,30.82084],[75.37138,30.83958],[75.37262,30.84667],[75.37446,30.85076],[75.37399,30.85658],[75.38626,30.86075],[75.38839,30.86329],[75.39829,30.87087],[75.40043,30.87951],[75.40256,30.88412],[75.40701,30.88885],[75.40715,30.89386],[75.4004,30.89816],[75.39456,30.90828],[75.39336,30.90908],[75.37812,30.91186],[75.38163,30.9208],[75.38136,30.9253],[75.37968,30.92944],[75.37593,30.92956],[75.37403,30.9277],[75.37124,30.92914],[75.3702,30.93994],[75.36583,30.94073],[75.36523,30.95272],[75.36259,30.9569],[75.36333,30.9612],[75.36674,30.96731],[75.36575,30.97318],[75.35543,30.9889],[75.37176,30.98879],[75.39079,30.98581],[75.40972,30.97947],[75.42118,30.9866],[75.42824,30.98149],[75.44138,30.98232],[75.45289,30.98004],[75.46514,30.97909],[75.47532,30.97688],[75.49439,30.97057],[75.51028,30.97401],[75.51868,30.97216],[75.53912,30.97277],[75.54915,30.97486],[75.56228,30.97621],[75.56367,30.97846],[75.57454,30.97777],[75.58133,30.97381],[75.58387,30.97131],[75.59132,30.97219],[75.59623,30.96917],[75.60261,30.96893],[75.61077,30.97097],[75.61439,30.97392],[75.63215,30.97628],[75.64388,30.98134],[75.65295,30.98223],[75.65814,30.98271],[75.6634,30.98452],[75.67405,30.98569],[75.68069,30.99029],[75.69127,30.9934],[75.7,30.99509],[75.70233,30.99496],[75.70708,30.99896],[75.71857,31.00088],[75.71832,31.00506],[75.73073,31.00427],[75.73602,31.00579],[75.73805,31.01127],[75.75987,31.01499],[75.76189,31.01068],[75.77133,31.01038],[75.7711,31.00388],[75.77714,31.00451],[75.77874,31.00287],[75.78204,31.00079],[75.78536,30.99727],[75.79263,30.99504],[75.79923,30.99396],[75.80655,30.99459],[75.82569,31.0007],[75.8275,31.00443],[75.84578,31.01036],[75.85964,31.00589],[75.86739,31.00678],[75.87117,31.01047],[75.88345,31.00954],[75.88685,31.00742],[75.89311,31.00796],[75.89586,31.00578],[75.89851,31.00688],[75.89809,31.01224],[75.90062,31.01576],[75.90897,31.01862],[75.91735,31.01921],[75.93378,31.01057]]]}}]}