{"type":"FeatureCollection","features":[{"type":"Feature","properties":{"id":"moga","name":"Moga","stateId":"punjab","stateName":"Punjab","censuscode":42,"type":"district"},"geometry":{"type":"Polygon","coordinates":[[[75.13239,31.09186],[75.13601,31.08895],[75.14239,31.08929],[75.14859,31.08785],[75.15398,31.08196],[75.1646,31.08897],[75.16741,31.09401],[75.17093,31.09375],[75.17173,31.08725],[75.17848,31.08449],[75.17764,31.08178],[75.1732,31.08174],[75.17475,31.07905],[75.18006,31.0806],[75.18407,31.07832],[75.18906,31.07826],[75.19456,31.07935],[75.19841,31.07564],[75.19884,31.0715],[75.20198,31.07141],[75.21124,31.06879],[75.21327,31.06691],[75.21564,31.06751],[75.21701,31.06464],[75.2295,31.06567],[75.23263,31.05816],[75.23624,31.05716],[75.23834,31.05389],[75.23906,31.04884],[75.24115,31.04615],[75.24902,31.04334],[75.2494,31.04524],[75.25739,31.04525],[75.26917,31.04351],[75.27281,31.03934],[75.27747,31.03898],[75.28302,31.04219],[75.29515,31.03406],[75.29441,31.02387],[75.29731,31.01462],[75.3046,31.01606],[75.30919,31.01535],[75.30613,31.00358],[75.3069,31.00072],[75.35543,30.9889],[75.36575,30.97318],[75.36674,30.96731],[75.36333,30.9612],[75.36259,30.9569],[75.36523,30.95272],[75.36583,30.94073],[75.3702,30.93994],[75.37124,30.92914],[75.37403,30.9277],[75.37593,30.92956],[75.37968,30.92944],[75.38136,30.9253],[75.38163,30.9208],[75.37812,30.91186],[75.39336,30.90908],[75.39456,30.90828],[75.4004,30.89816],[75.40715,30.89386],[75.40701,30.88885],[75.40256,30.88412],[75.40043,30.87951],[75.39829,30.87087],[75.38839,30.86329],[75.38626,30.86075],[75.37399,30.85658],[75.37446,30.85076],[75.37262,30.84667],[75.37138,30.83958],[75.37782,30.82084],[75.38607,30.81373],[75.39252,30.81145],[75.39671,30.80893],[75.39713,30.80386],[75.39319,30.79215],[75.39229,30.78323],[75.38873,30.77578],[75.38405,30.7688],[75.38394,30.75964],[75.38111,30.75249],[75.37789,30.74834],[75.38063,30.73838],[75.37699,30.73498],[75.37722,30.73025],[75.38227,30.72313],[75.38719,30.72194],[75.38662,30.71589],[75.38562,30.71312],[75.38325,30.71023],[75.38067,30.70901],[75.37258,30.70911],[75.37114,30.70587],[75.37308,30.69736],[75.37133,30.68889],[75.37261,30.68192],[75.37719,30.67802],[75.37966,30.67487],[75.38148,30.66359],[75.37945,30.65731],[75.37352,30.64893],[75.3792,30.63474],[75.3773,30.62678],[75.37785,30.62275],[75.38129,30.62236],[75.39499,30.62616],[75.39639,30.62121],[75.40164,30.61685],[75.40437,30.61283],[75.40446,30.60633],[75.40104,30.59888],[75.39942,30.59104],[75.40799,30.5824],[75.40762,30.56868],[75.41009,30.56362],[75.41003,30.5601],[75.41534,30.5565],[75.41998,30.5545],[75.42144,30.55093],[75.41862,30.54505],[75.41518,30.54095],[75.40476,30.5317],[75.40046,30.52915],[75.39187,30.527],[75.37914,30.52033],[75.3642,30.51446],[75.3517,30.51551],[75.34866,30.51486],[75.33972,30.51626],[75.3342,30.52333],[75.33173,30.53108],[75.32874,30.53528],[75.32085,30.53548],[75.31471,30.53459],[75.31037,30.52772],[75.30574,30.52568],[75.29501,30.51642],[75.29417,30.51117],[75.29417,30.50956],[75.29278,30.50969],[75.28563,30.50735],[75.28231,30.50751],[75.27018,30.51534],[75.26685,30.51913],[75.26049,30.52037],[75.25852,30.51748],[75.25092,30.51491],[75.2463,30.51465],[75.23421,30.51063],[75.22172,30.5085],[75.21005,30.51553],[75.205,30.50663],[75.19691,30.51045],[75.19302,30.50737],[75.18727,30.50643],[75.18402,30.50865],[75.18244,30.51775],[75.18247,30.53743],[75.1788,30.55377],[75.17464,30.56261],[75.16817,30.57168],[75.16279,30.577],[75.14959,30.58102],[75.14576,30.58082],[75.1402,30.57889],[75.12297,30.56193],[75.12137,30.55271],[75.12893,30.53933],[75.13189,30.53106],[75.12989,30.52235],[75.12116,30.52225],[75.10953,30.52023],[75.09355,30.52617],[75.08461,30.52837],[75.07987,30.52436],[75.07125,30.51297],[75.06091,30.50251],[75.05387,30.49905],[75.04534,30.49909],[75.04273,30.50208],[75.03532,30.50385],[75.0304,30.49742],[75.02062,30.49008],[75.00814,30.48815],[75.0083,30.48811],[75.00812,30.48812],[74.99979,30.48796],[74.99434,30.49209],[74.99172,30.49676],[74.99282,30.51363],[74.99102,30.51897],[74.99183,30.52475],[74.99705,30.53406],[74.99413,30.53827],[74.99181,30.54323],[74.97926,30.54275],[74.9642,30.55426],[74.96379,30.55919],[74.96116,30.56139],[74.9576,30.56055],[74.94581,30.56979],[74.93061,30.55395],[74.92735,30.54855],[74.93258,30.54478],[74.92721,30.5393],[74.91496,30.54501],[74.91289,30.54585],[74.90355,30.54917],[74.90534,30.56441],[74.91165,30.58034],[74.91654,30.58488],[74.93577,30.58795],[74.94102,30.58855],[74.95397,30.58961],[74.95542,30.59286],[74.95458,30.59368],[74.95255,30.59569],[74.94949,30.60072],[74.94928,30.6016],[74.94859,30.60453],[74.94856,30.61072],[74.94899,30.61729],[74.94916,30.6189],[74.95147,30.62437],[74.95402,30.63433],[74.95142,30.64348],[74.95655,30.65232],[74.95784,30.65694],[74.95543,30.67432],[74.95164,30.67384],[74.94872,30.6754],[74.94436,30.6759],[74.93836,30.67535],[74.92389,30.67728],[74.92386,30.68304],[74.92268,30.68602],[74.91764,30.68001],[74.915,30.68002],[74.90935,30.69602],[74.90594,30.70168],[74.90627,30.70662],[74.91312,30.72494],[74.91118,30.73575],[74.91117,30.73578],[74.91345,30.73981],[74.91417,30.74307],[74.91283,30.74691],[74.9156,30.74721],[74.9118,30.75179],[74.90981,30.75565],[74.91134,30.76105],[74.91463,30.76669],[74.91259,30.77149],[74.91659,30.77325],[74.91717,30.77895],[74.92368,30.7842],[74.92615,30.78311],[74.93014,30.78764],[74.92851,30.79207],[74.92993,30.80262],[74.94039,30.81609],[74.94755,30.82353],[74.9496,30.82941],[74.94603,30.83574],[74.9477,30.84635],[74.95079,30.85531],[74.94792,30.86112],[74.94613,30.86762],[74.94531,30.87703],[74.95213,30.88433],[74.95517,30.89125],[74.95608,30.89111],[74.97253,30.89842],[74.98599,30.90984],[74.99253,30.92005],[75.00036,30.92729],[75.02557,30.93506],[75.04595,30.94769],[75.05937,30.9601],[75.06259,30.99521],[75.05502,31.00999],[75.0399,31.01053],[75.02561,31.0191],[75.03072,31.03626],[75.04108,31.03858],[75.0518,31.0319],[75.06076,31.04017],[75.06247,31.05523],[75.07528,31.05462],[75.08388,31.04287],[75.0884,31.04601],[75.09004,31.06306],[75.10356,31.07347],[75.11228,31.08773],[75.11393,31.09225],[75.11708,31.09274],[75.12494,31.09637],[75.13265,31.097],[75.13239,31.09186]]]}}]}