{"type":"FeatureCollection","features":[{"type":"Feature","properties":{"id":"muktsar","name":"Muktsar","stateId":"punjab","stateName":"Punjab","censuscode":44,"type":"district"},"geometry":{"type":"Polygon","coordinates":[[[74.82226,30.39311],[74.82224,30.39312],[74.81695,30.38695],[74.8077,30.36948],[74.78641,30.3392],[74.78272,30.33947],[74.78072,30.33889],[74.76317,30.34654],[74.75472,30.35107],[74.73972,30.35668],[74.72405,30.36531],[74.71609,30.35955],[74.71204,30.35754],[74.70221,30.35573],[74.70219,30.35385],[74.70898,30.35367],[74.71585,30.35217],[74.72411,30.3497],[74.73407,30.34789],[74.74883,30.34314],[74.78032,30.33592],[74.78408,30.336],[74.78524,30.33521],[74.77042,30.32335],[74.76148,30.3194],[74.74666,30.32111],[74.74248,30.31612],[74.72571,30.30791],[74.72875,30.30462],[74.73456,30.30342],[74.74076,30.29713],[74.74419,30.29245],[74.75221,30.28581],[74.74833,30.28115],[74.74567,30.27922],[74.73795,30.27919],[74.73729,30.27749],[74.73764,30.27473],[74.73315,30.26854],[74.72295,30.2578],[74.72079,30.25189],[74.72181,30.23844],[74.72346,30.23381],[74.72684,30.23119],[74.72711,30.22993],[74.72142,30.22612],[74.72193,30.22118],[74.71844,30.21777],[74.71479,30.19681],[74.72048,30.19609],[74.72527,30.19705],[74.73039,30.19657],[74.73737,30.18864],[74.73799,30.18484],[74.7369,30.1808],[74.73398,30.17808],[74.72611,30.17088],[74.7199,30.16715],[74.7049,30.16033],[74.69998,30.1592],[74.69323,30.1599],[74.68805,30.16622],[74.67494,30.16589],[74.67295,30.16393],[74.66931,30.16488],[74.65828,30.16328],[74.64931,30.15635],[74.64213,30.14777],[74.64094,30.14097],[74.637,30.13822],[74.6322,30.12974],[74.63204,30.12728],[74.64619,30.11362],[74.64984,30.11134],[74.65736,30.10903],[74.67127,30.10706],[74.67548,30.10867],[74.67887,30.11133],[74.68373,30.11137],[74.68494,30.10715],[74.68347,30.10186],[74.67634,30.08783],[74.68401,30.07241],[74.69202,30.07208],[74.70016,30.06835],[74.70542,30.06505],[74.69427,30.04506],[74.69818,30.03761],[74.69622,30.03333],[74.70668,30.02563],[74.70976,30.02145],[74.71725,30.01428],[74.71355,30.00266],[74.71272,30.00141],[74.70903,29.99242],[74.70446,29.98726],[74.70601,29.98208],[74.70925,29.97548],[74.7073,29.97039],[74.70543,29.97077],[74.70071,29.96852],[74.69309,29.96033],[74.69083,29.94845],[74.67554,29.94097],[74.65874,29.93024],[74.64964,29.92182],[74.64862,29.91377],[74.6567,29.90396],[74.64936,29.90326],[74.64236,29.90499],[74.63612,29.90535],[74.63175,29.90713],[74.59549,29.91421],[74.59056,29.91776],[74.58264,29.92537],[74.57155,29.92883],[74.56169,29.92877],[74.55872,29.93271],[74.53994,29.94458],[74.53435,29.95119],[74.52875,29.94299],[74.47624,29.94445],[74.45364,29.94655],[74.45158,29.94692],[74.42646,29.99705],[74.45548,30.00087],[74.46452,30.00292],[74.4591,30.00972],[74.4565,30.01496],[74.45492,30.02135],[74.45026,30.02726],[74.42667,30.02306],[74.41738,30.02331],[74.40839,30.02642],[74.41063,30.03735],[74.40295,30.04326],[74.3916,30.05699],[74.38868,30.06223],[74.38817,30.06752],[74.38898,30.07295],[74.36697,30.085],[74.36893,30.09177],[74.37132,30.09585],[74.37292,30.10183],[74.37339,30.10749],[74.3774,30.10895],[74.38387,30.11005],[74.39496,30.10555],[74.40597,30.09749],[74.40956,30.09328],[74.41508,30.09532],[74.4055,30.10432],[74.40239,30.10881],[74.40076,30.11286],[74.39597,30.11539],[74.38189,30.12781],[74.38108,30.13253],[74.37742,30.13846],[74.37556,30.14367],[74.37437,30.15058],[74.3557,30.15331],[74.3466,30.1561],[74.33679,30.16154],[74.34611,30.18299],[74.34723,30.18978],[74.34531,30.19671],[74.35147,30.21233],[74.35702,30.23961],[74.3251,30.24202],[74.31585,30.24131],[74.30361,30.23799],[74.29414,30.23316],[74.28697,30.23143],[74.26158,30.24627],[74.26869,30.25844],[74.27622,30.26601],[74.27736,30.26638],[74.28294,30.27297],[74.2984,30.26338],[74.29895,30.2695],[74.29837,30.27502],[74.30076,30.27915],[74.30261,30.28972],[74.30563,30.29997],[74.30434,30.30568],[74.31158,30.31601],[74.31748,30.32195],[74.3215,30.32885],[74.32162,30.34456],[74.31896,30.35431],[74.3119,30.35786],[74.30895,30.36871],[74.31177,30.37714],[74.31691,30.38746],[74.33732,30.3844],[74.35493,30.38089],[74.35841,30.39067],[74.35756,30.39768],[74.35429,30.40212],[74.34442,30.40454],[74.31028,30.40946],[74.29122,30.41328],[74.28489,30.41688],[74.27569,30.41973],[74.2621,30.42004],[74.25181,30.42371],[74.2559,30.42539],[74.2699,30.42749],[74.27554,30.43011],[74.2795,30.42985],[74.28453,30.43203],[74.30193,30.44194],[74.30931,30.44499],[74.31646,30.44545],[74.32113,30.44494],[74.3287,30.44609],[74.33714,30.45111],[74.34621,30.46546],[74.34815,30.47488],[74.34682,30.483],[74.35452,30.48086],[74.35933,30.4804],[74.36535,30.48067],[74.37583,30.48358],[74.38095,30.49831],[74.37597,30.50789],[74.37358,30.51454],[74.3799,30.52081],[74.38868,30.52737],[74.39893,30.52754],[74.40023,30.53054],[74.40073,30.53632],[74.40186,30.54019],[74.40365,30.55714],[74.4129,30.56047],[74.41994,30.55272],[74.42866,30.54919],[74.43582,30.57001],[74.44328,30.57149],[74.44337,30.59403],[74.44954,30.59634],[74.45295,30.59885],[74.45862,30.60496],[74.46044,30.60904],[74.46164,30.61481],[74.461,30.62377],[74.46339,30.62721],[74.47078,30.63179],[74.48644,30.63606],[74.49289,30.63865],[74.49009,30.64147],[74.48078,30.64686],[74.47872,30.65334],[74.47937,30.65819],[74.48849,30.66595],[74.49402,30.66524],[74.49959,30.66562],[74.50212,30.66744],[74.50437,30.66755],[74.52096,30.66532],[74.5327,30.66535],[74.53869,30.66391],[74.54611,30.66361],[74.55039,30.66475],[74.56094,30.66319],[74.57764,30.65871],[74.58336,30.65616],[74.59053,30.65411],[74.59771,30.648],[74.59911,30.64681],[74.60025,30.64493],[74.60475,30.64361],[74.6093,30.64111],[74.61288,30.63666],[74.61887,30.63759],[74.62056,30.63527],[74.62428,30.62334],[74.62573,30.6187],[74.62795,30.61393],[74.63531,30.61253],[74.63472,30.60665],[74.64734,30.59381],[74.6525,30.59187],[74.659,30.59062],[74.6661,30.58308],[74.6683,30.57858],[74.67984,30.57329],[74.6851,30.56907],[74.69018,30.56659],[74.69572,30.5654],[74.70078,30.56327],[74.70474,30.55984],[74.71044,30.55755],[74.70746,30.54593],[74.70427,30.54382],[74.70059,30.53867],[74.69571,30.53412],[74.68727,30.5289],[74.68648,30.52522],[74.68762,30.52096],[74.69022,30.5194],[74.69901,30.51657],[74.70732,30.51501],[74.71941,30.5091],[74.72028,30.50364],[74.72402,30.50266],[74.72792,30.50032],[74.737,30.49311],[74.74756,30.49309],[74.75063,30.49044],[74.75947,30.4963],[74.76201,30.49108],[74.763,30.48544],[74.75827,30.47989],[74.74818,30.47381],[74.74281,30.47354],[74.73413,30.4642],[74.73233,30.45948],[74.7326,30.45309],[74.73637,30.44662],[74.75563,30.43325],[74.75325,30.42713],[74.75763,30.42352],[74.75803,30.41915],[74.75469,30.40358],[74.75501,30.39846],[74.75342,30.39384],[74.75774,30.39151],[74.77303,30.39667],[74.78791,30.39669],[74.79584,30.39895],[74.80077,30.39948],[74.80863,30.39836],[74.81149,30.40064],[74.816,30.3964],[74.82226,30.39312],[74.82226,30.39311]]]}}]}