{"type":"FeatureCollection","features":[{"type":"Feature","properties":{"id":"rupnagar","name":"Rupnagar","stateId":"punjab","stateName":"Punjab","censuscode":51,"type":"district"},"geometry":{"type":"Polygon","coordinates":[[[76.41025,30.75847],[76.41025,30.75847],[76.40816,30.77109],[76.40941,30.77314],[76.41691,30.77946],[76.41577,30.79068],[76.4201,30.79804],[76.4085,30.80806],[76.39513,30.80767],[76.39263,30.80848],[76.39061,30.81227],[76.39244,30.82024],[76.39227,30.83069],[76.39004,30.83194],[76.37985,30.83351],[76.37214,30.82662],[76.3662,30.83014],[76.3563,30.83032],[76.34845,30.83006],[76.34695,30.83356],[76.34299,30.83709],[76.33534,30.83901],[76.33497,30.84018],[76.33602,30.84206],[76.33508,30.84404],[76.32852,30.84952],[76.33057,30.85151],[76.33344,30.85659],[76.33709,30.85871],[76.34396,30.8595],[76.34969,30.86454],[76.35726,30.86619],[76.35932,30.86909],[76.37014,30.8724],[76.37428,30.87526],[76.37488,30.87796],[76.37283,30.89],[76.36937,30.89918],[76.36522,30.90491],[76.36078,30.90822],[76.3488,30.91232],[76.33925,30.90684],[76.33642,30.89875],[76.33298,30.89686],[76.32774,30.88576],[76.32809,30.87901],[76.32148,30.8782],[76.32097,30.9035],[76.32073,30.91519],[76.31705,30.91982],[76.31595,30.9252],[76.32189,30.92821],[76.32429,30.93082],[76.32275,30.9399],[76.31855,30.95134],[76.31784,30.96031],[76.31698,30.97116],[76.31642,30.97135],[76.31689,30.97184],[76.31682,30.97264],[76.316,30.98307],[76.31268,30.98677],[76.30838,30.99162],[76.3164,30.99576],[76.31652,30.99583],[76.31705,30.9957],[76.32731,30.99324],[76.32735,30.99274],[76.32856,30.98002],[76.32863,30.98001],[76.34515,30.97802],[76.34521,30.97799],[76.36244,30.97064],[76.36832,30.97251],[76.36842,30.97253],[76.38559,30.97627],[76.40565,30.97552],[76.40567,30.97552],[76.41543,30.97401],[76.41543,30.97401],[76.41545,30.974],[76.4488,30.97253],[76.47478,30.97858],[76.47481,30.97858],[76.49222,30.97695],[76.50155,30.97832],[76.51185,30.97983],[76.51385,30.98156],[76.51433,30.98199],[76.51434,30.98201],[76.52,30.99506],[76.52,30.99508],[76.51997,30.9951],[76.50247,31.00803],[76.49054,31.01684],[76.49028,31.01704],[76.49015,31.01716],[76.46648,31.03987],[76.46621,31.04013],[76.46322,31.04821],[76.4546,31.05639],[76.45449,31.0565],[76.44139,31.0739],[76.43649,31.0804],[76.42892,31.09716],[76.42889,31.09722],[76.4289,31.09737],[76.42953,31.11513],[76.42952,31.11516],[76.42668,31.12451],[76.40146,31.13887],[76.40129,31.13897],[76.38745,31.14881],[76.38743,31.14886],[76.37598,31.17254],[76.3758,31.17292],[76.36602,31.18962],[76.36593,31.18978],[76.35708,31.20574],[76.34222,31.21581],[76.34212,31.21612],[76.33935,31.22403],[76.33939,31.22402],[76.33871,31.22576],[76.33551,31.22673],[76.33906,31.23018],[76.3473,31.23244],[76.35173,31.23826],[76.3403,31.24718],[76.33697,31.25132],[76.33197,31.2633],[76.32688,31.26698],[76.31893,31.27049],[76.3131,31.27504],[76.31076,31.27867],[76.30991,31.28943],[76.30838,31.29283],[76.29913,31.29277],[76.29445,31.29558],[76.29191,31.29984],[76.29127,31.30741],[76.2983,31.31102],[76.30433,31.31309],[76.31004,31.31667],[76.31622,31.32381],[76.30996,31.33971],[76.31392,31.34132],[76.32982,31.34496],[76.33184,31.34968],[76.33846,31.34456],[76.34409,31.34272],[76.35069,31.35044],[76.34534,31.35654],[76.34408,31.36518],[76.34365,31.37698],[76.33232,31.37859],[76.33287,31.38568],[76.32995,31.3999],[76.34364,31.39864],[76.34874,31.40123],[76.36103,31.40319],[76.36729,31.40993],[76.37334,31.4131],[76.37096,31.42709],[76.37737,31.43884],[76.38337,31.4256],[76.38946,31.4196],[76.38721,31.41109],[76.39582,31.40805],[76.40454,31.39473],[76.39339,31.38857],[76.40517,31.37601],[76.41337,31.36282],[76.42292,31.35107],[76.42692,31.34497],[76.43225,31.3346],[76.44206,31.32244],[76.45149,31.31466],[76.4623,31.30319],[76.4596,31.29761],[76.4498,31.29186],[76.44247,31.28645],[76.44513,31.28006],[76.45976,31.2869],[76.46502,31.2934],[76.47612,31.304],[76.48075,31.30738],[76.48651,31.30387],[76.48909,31.29615],[76.48967,31.28935],[76.49374,31.28624],[76.49721,31.2814],[76.50259,31.27051],[76.51224,31.27038],[76.51741,31.27498],[76.52494,31.2797],[76.5283,31.28016],[76.53062,31.27446],[76.52828,31.26156],[76.53209,31.25937],[76.5419,31.26701],[76.54526,31.2806],[76.55121,31.281],[76.54882,31.26937],[76.54665,31.26355],[76.54893,31.25238],[76.55993,31.25288],[76.56627,31.26186],[76.58457,31.27714],[76.61564,31.24783],[76.6067,31.24308],[76.5987,31.23658],[76.59651,31.22788],[76.58993,31.22272],[76.59331,31.21741],[76.59456,31.21326],[76.60072,31.21296],[76.63026,31.22632],[76.63995,31.22395],[76.63851,31.2179],[76.64813,31.21218],[76.6494,31.20982],[76.63408,31.20351],[76.63265,31.20075],[76.62615,31.1995],[76.6197,31.19398],[76.61458,31.1879],[76.61221,31.18334],[76.60429,31.17973],[76.60635,31.16915],[76.6033,31.16161],[76.60534,31.15717],[76.60393,31.15412],[76.60851,31.14817],[76.61259,31.148],[76.60776,31.13332],[76.60311,31.12452],[76.61124,31.123],[76.62109,31.11642],[76.62938,31.11835],[76.6375,31.11477],[76.63952,31.10698],[76.6256,31.09314],[76.62155,31.08025],[76.61861,31.07513],[76.62321,31.05739],[76.61263,31.05028],[76.61516,31.04028],[76.61882,31.03022],[76.62721,31.01867],[76.62364,31.00091],[76.62599,30.99872],[76.63453,30.99495],[76.63949,30.98914],[76.64692,30.98734],[76.66663,30.9784],[76.67618,30.96769],[76.68175,30.96643],[76.70781,30.96901],[76.70973,30.96831],[76.71195,30.9654],[76.71865,30.9598],[76.72617,30.9599],[76.73768,30.94705],[76.73875,30.94063],[76.73903,30.93897],[76.73903,30.93897],[76.73128,30.93479],[76.7312,30.93478],[76.73115,30.93474],[76.72827,30.93369],[76.71451,30.92869],[76.70326,30.93095],[76.69914,30.93074],[76.69327,30.92637],[76.69304,30.92613],[76.69059,30.92362],[76.68556,30.91846],[76.68407,30.91577],[76.6797,30.91431],[76.67573,30.9143],[76.66772,30.91427],[76.6485,30.90865],[76.64844,30.9086],[76.64833,30.90861],[76.6471,30.90825],[76.64238,30.90431],[76.62903,30.89864],[76.61657,30.89163],[76.60896,30.88884],[76.6076,30.88553],[76.60826,30.88136],[76.6016,30.87873],[76.60167,30.87688],[76.59707,30.87622],[76.59655,30.86839],[76.59411,30.86705],[76.58925,30.86438],[76.58567,30.86748],[76.58556,30.86758],[76.58126,30.86876],[76.56883,30.86877],[76.56783,30.86838],[76.5676,30.8683],[76.55982,30.86527],[76.5582,30.86254],[76.55504,30.85273],[76.55145,30.85079],[76.53696,30.85039],[76.53694,30.85036],[76.53685,30.85039],[76.53435,30.85032],[76.53366,30.84745],[76.53414,30.84517],[76.53426,30.84458],[76.5354,30.83917],[76.5354,30.83916],[76.5352,30.83681],[76.5375,30.83687],[76.53879,30.83691],[76.54374,30.83115],[76.54579,30.82781],[76.54593,30.82758],[76.55045,30.82023],[76.54729,30.81903],[76.54887,30.81011],[76.55614,30.80627],[76.55789,30.80633],[76.55841,30.80635],[76.5594,30.80638],[76.56147,30.80028],[76.56144,30.80025],[76.559,30.79797],[76.55835,30.7965],[76.55828,30.79636],[76.55772,30.79511],[76.55967,30.78704],[76.55818,30.78431],[76.55505,30.78149],[76.55148,30.78012],[76.54614,30.78139],[76.54318,30.78029],[76.53634,30.77374],[76.53335,30.76508],[76.53335,30.76508],[76.52707,30.76087],[76.52691,30.76077],[76.50757,30.7495],[76.49503,30.74565],[76.49133,30.7463],[76.48295,30.75032],[76.47105,30.74572],[76.46485,30.75368],[76.46341,30.75429],[76.46143,30.7523],[76.45996,30.75234],[76.44596,30.75953],[76.44265,30.76028],[76.43023,30.75792],[76.4218,30.76056],[76.41916,30.76073],[76.41348,30.75755],[76.41025,30.75847]]]}}]}