{"type":"FeatureCollection","features":[{"type":"Feature","properties":{"id":"haryana","name":"Haryana","type":"state"},"geometry":{"type":"Polygon","coordinates":[[[76.85065,30.87512],[76.86594,30.86691],[76.8753,30.86977],[76.88317,30.87437],[76.89213,30.88219],[76.90011,30.88449],[76.91575,30.89342],[76.92064,30.88717],[76.92938,30.86547],[76.94013,30.85057],[76.9413,30.84426],[76.941,30.83345],[76.94719,30.82805],[76.95632,30.82528],[76.96114,30.81924],[76.96722,30.80726],[76.97528,30.80503],[76.98211,30.80399],[76.99254,30.79481],[76.9961,30.80031],[76.99825,30.80648],[77.00002,30.80926],[77.00194,30.81101],[77.00617,30.81431],[77.00934,30.81271],[77.01146,30.81029],[77.01202,30.80573],[77.01323,30.80088],[77.01382,30.79361],[77.01318,30.78996],[77.01348,30.78499],[77.00831,30.78104],[77.00439,30.77664],[77.00204,30.77305],[77.00464,30.76942],[77.00867,30.76701],[77.01224,30.76511],[77.01582,30.76392],[77.01788,30.76231],[77.01922,30.75769],[77.01806,30.75329],[77.01809,30.74844],[77.01984,30.74545],[77.02276,30.74164],[77.02647,30.73814],[77.03144,30.73637],[77.03742,30.73753],[77.04169,30.73935],[77.04377,30.74225],[77.04373,30.74767],[77.04712,30.75133],[77.05142,30.74903],[77.06048,30.74455],[77.06839,30.74262],[77.07512,30.742],[77.08314,30.74284],[77.09026,30.74061],[77.09971,30.73578],[77.10455,30.73204],[77.10955,30.73045],[77.11399,30.7282],[77.11577,30.72659],[77.11363,30.7222],[77.11332,30.71809],[77.11657,30.71625],[77.123,30.71846],[77.13087,30.7137],[77.13564,30.70793],[77.1385,30.70286],[77.14722,30.69792],[77.15376,30.69331],[77.16082,30.68922],[77.16512,30.68623],[77.16689,30.68444],[77.16357,30.68027],[77.16405,30.67692],[77.16723,30.67265],[77.16854,30.66376],[77.16596,30.65446],[77.16604,30.64989],[77.16951,30.6436],[77.17375,30.63807],[77.17567,30.63433],[77.17315,30.62715],[77.17188,30.60947],[77.17172,30.60312],[77.17187,30.59879],[77.17071,30.5952],[77.16731,30.59196],[77.16443,30.58849],[77.16012,30.58461],[77.15305,30.57886],[77.14585,30.57412],[77.13904,30.56936],[77.137,30.56839],[77.13695,30.56836],[77.13373,30.56686],[77.12829,30.56552],[77.12601,30.56392],[77.12515,30.56333],[77.12462,30.56297],[77.12683,30.55811],[77.12962,30.5531],[77.13545,30.54387],[77.14418,30.53714],[77.15068,30.53421],[77.15865,30.53342],[77.16515,30.53251],[77.1768,30.52971],[77.18265,30.52846],[77.18765,30.5261],[77.19846,30.52144],[77.20394,30.51488],[77.20898,30.50732],[77.21276,30.50213],[77.21268,30.49603],[77.21266,30.49467],[77.21337,30.48457],[77.21208,30.48006],[77.21565,30.47585],[77.22496,30.47738],[77.23191,30.48149],[77.23983,30.48411],[77.24654,30.48296],[77.25496,30.48084],[77.26488,30.47988],[77.26968,30.47688],[77.27391,30.47157],[77.27499,30.46649],[77.27664,30.46211],[77.28762,30.45947],[77.29551,30.45734],[77.30681,30.45453],[77.31377,30.452],[77.32322,30.44917],[77.32376,30.449],[77.32985,30.453],[77.33548,30.45751],[77.33935,30.45856],[77.34578,30.4596],[77.35248,30.45897],[77.35917,30.45725],[77.3628,30.45263],[77.36657,30.44391],[77.36988,30.43739],[77.38273,30.44116],[77.3893,30.44157],[77.39349,30.44145],[77.39495,30.43458],[77.40719,30.42957],[77.40989,30.42576],[77.40853,30.41623],[77.41366,30.41403],[77.42072,30.42316],[77.43035,30.42912],[77.43932,30.43639],[77.44874,30.44628],[77.45888,30.46095],[77.46373,30.46049],[77.46946,30.45344],[77.46994,30.44679],[77.46745,30.44131],[77.46649,30.4356],[77.45517,30.42514],[77.45282,30.41965],[77.43879,30.41526],[77.43401,30.41208],[77.42896,30.40808],[77.4295,30.40364],[77.44347,30.40272],[77.44802,30.39892],[77.45609,30.39983],[77.46619,30.40002],[77.47406,30.40059],[77.48106,30.407],[77.49063,30.40856],[77.49568,30.41041],[77.49996,30.40781],[77.50447,30.41255],[77.50432,30.42018],[77.50608,30.42825],[77.51433,30.43888],[77.51852,30.44356],[77.52304,30.44402],[77.52753,30.43461],[77.53121,30.42606],[77.53892,30.4123],[77.5424,30.40866],[77.54877,30.40421],[77.55187,30.39705],[77.55601,30.39236],[77.56559,30.38849],[77.57104,30.38548],[77.57845,30.37999],[77.58801,30.37962],[77.59755,30.37645],[77.60326,30.37234],[77.60511,30.36594],[77.59587,30.35352],[77.58769,30.34204],[77.58292,30.33217],[77.58312,30.32662],[77.58804,30.32113],[77.58688,30.31397],[77.58334,30.30629],[77.57653,30.30115],[77.56874,30.29764],[77.55827,30.28921],[77.55336,30.28604],[77.54511,30.28194],[77.53968,30.27738],[77.5376,30.27305],[77.53539,30.26127],[77.53271,30.2552],[77.51834,30.23731],[77.5088,30.2287],[77.50652,30.22253],[77.5013,30.21381],[77.49667,30.20514],[77.4927,30.19723],[77.4895,30.19007],[77.48599,30.18366],[77.47291,30.17887],[77.46867,30.17604],[77.46422,30.16871],[77.45952,30.16368],[77.453,30.16431],[77.44783,30.16504],[77.44325,30.16152],[77.43619,30.16358],[77.42793,30.15179],[77.42403,30.14479],[77.42344,30.14098],[77.4275,30.13857],[77.43044,30.13627],[77.42811,30.12858],[77.42518,30.12281],[77.42122,30.11829],[77.41581,30.11615],[77.41054,30.11382],[77.41315,30.10835],[77.41859,30.10639],[77.42264,30.10617],[77.42674,30.10618],[77.42696,30.1022],[77.4211,30.09762],[77.40925,30.09084],[77.40495,30.08949],[77.39283,30.08813],[77.38591,30.08812],[77.38097,30.08666],[77.36945,30.07926],[77.36086,30.07181],[77.34958,30.06336],[77.34415,30.05958],[77.33721,30.05692],[77.32531,30.05567],[77.31529,30.05572],[77.30998,30.05548],[77.30422,30.05364],[77.29848,30.05264],[77.29277,30.04767],[77.28858,30.04564],[77.28275,30.04351],[77.28221,30.03939],[77.2841,30.03507],[77.28544,30.0292],[77.282,30.02262],[77.27989,30.01727],[77.27772,30.01318],[77.27662,30.00821],[77.27419,30.00247],[77.27379,30.00077],[77.27541,29.99729],[77.26738,29.99112],[77.267,29.98831],[77.26269,29.9836],[77.24767,29.97633],[77.24529,29.96879],[77.24413,29.96148],[77.24174,29.95706],[77.23706,29.95375],[77.23589,29.9499],[77.22323,29.93586],[77.21467,29.92625],[77.20765,29.92244],[77.2012,29.91721],[77.19895,29.91266],[77.19796,29.90821],[77.1922,29.90139],[77.19158,29.89744],[77.19687,29.89004],[77.19699,29.88547],[77.19429,29.87674],[77.19445,29.86843],[77.19203,29.86429],[77.19008,29.85731],[77.17952,29.84154],[77.17896,29.83886],[77.18094,29.82472],[77.17715,29.81963],[77.16752,29.81193],[77.16583,29.80892],[77.16395,29.8028],[77.16356,29.79861],[77.16585,29.79282],[77.16421,29.78841],[77.15404,29.78271],[77.14924,29.77733],[77.14378,29.77414],[77.13528,29.773],[77.13007,29.77071],[77.12879,29.76606],[77.13063,29.75937],[77.12961,29.75557],[77.12594,29.74944],[77.12467,29.74375],[77.12687,29.7401],[77.13429,29.73795],[77.13426,29.73117],[77.1519,29.71237],[77.155,29.70106],[77.15426,29.69673],[77.15154,29.69533],[77.14384,29.69458],[77.13718,29.69202],[77.13273,29.68667],[77.13079,29.68095],[77.13159,29.67536],[77.14274,29.66143],[77.1429,29.65808],[77.141,29.65367],[77.13336,29.64862],[77.12124,29.64233],[77.11937,29.63505],[77.11643,29.63067],[77.1126,29.62818],[77.1131,29.62001],[77.11197,29.61737],[77.10604,29.61286],[77.10536,29.60806],[77.10367,29.60377],[77.09708,29.5959],[77.09827,29.59156],[77.10133,29.58551],[77.10521,29.58229],[77.11341,29.57207],[77.11817,29.56142],[77.12111,29.54804],[77.11581,29.54396],[77.10666,29.5427],[77.10077,29.53975],[77.09757,29.53457],[77.09624,29.52865],[77.09782,29.52331],[77.10893,29.50705],[77.11474,29.50458],[77.12584,29.49818],[77.1312,29.49234],[77.13462,29.48107],[77.13167,29.47507],[77.12671,29.4704],[77.12528,29.46529],[77.12554,29.45686],[77.12907,29.45146],[77.13464,29.44833],[77.13536,29.44793],[77.14322,29.44547],[77.14898,29.44155],[77.15062,29.43707],[77.14968,29.43182],[77.14698,29.42718],[77.13605,29.41714],[77.13704,29.4056],[77.14025,29.39745],[77.14461,29.39339],[77.15122,29.38967],[77.15712,29.38742],[77.15794,29.38472],[77.14979,29.37885],[77.14218,29.37565],[77.13158,29.37372],[77.12804,29.37163],[77.1278,29.36754],[77.12992,29.35692],[77.12859,29.3521],[77.1311,29.34474],[77.13475,29.33992],[77.13865,29.33929],[77.15752,29.33998],[77.16293,29.3342],[77.16502,29.33039],[77.16107,29.3266],[77.16209,29.32042],[77.16464,29.31716],[77.16524,29.31182],[77.15331,29.29641],[77.15536,29.2911],[77.14859,29.28237],[77.14044,29.26769],[77.14593,29.26138],[77.15339,29.24648],[77.15493,29.23821],[77.1537,29.23266],[77.13808,29.22302],[77.13609,29.21975],[77.13857,29.2133],[77.14348,29.20799],[77.147,29.20232],[77.14898,29.19592],[77.15079,29.17693],[77.1432,29.16665],[77.13812,29.15778],[77.13737,29.14887],[77.14931,29.12961],[77.14692,29.12268],[77.13509,29.1083],[77.13272,29.1006],[77.13505,29.09632],[77.14242,29.08948],[77.15225,29.08163],[77.15995,29.07805],[77.16785,29.07233],[77.17296,29.06016],[77.17225,29.04723],[77.17325,29.04335],[77.18712,29.03124],[77.20219,29.01604],[77.21438,29.01147],[77.22174,29.0061],[77.22463,29.00141],[77.22479,29.00068],[77.21847,28.98579],[77.21426,28.97702],[77.20146,28.95639],[77.20063,28.95039],[77.20126,28.94158],[77.21488,28.93469],[77.21583,28.93117],[77.20721,28.91564],[77.21248,28.91026],[77.22648,28.90612],[77.23193,28.90281],[77.23162,28.89881],[77.22728,28.89503],[77.2157,28.8893],[77.20949,28.88737],[77.19215,28.88451],[77.18841,28.88028],[77.18865,28.87475],[77.19355,28.86648],[77.19721,28.86152],[77.19399,28.857],[77.17491,28.85535],[77.1699,28.85215],[77.16093,28.84317],[77.15265,28.8372],[77.14946,28.8364],[77.14407,28.83945],[77.14586,28.84743],[77.14536,28.85323],[77.13884,28.86013],[77.11998,28.86089],[77.11741,28.86322],[77.10973,28.86722],[77.09361,28.8694],[77.08612,28.87932],[77.08041,28.8748],[77.07592,28.8678],[77.05999,28.868],[77.04786,28.8476],[77.04171,28.83161],[77.03484,28.8311],[77.02895,28.83189],[77.01677,28.83011],[76.99987,28.83402],[76.99364,28.83396],[76.98968,28.83157],[76.9838,28.82071],[76.98066,28.81998],[76.97093,28.82656],[76.96811,28.82522],[76.96585,28.81491],[76.95829,28.81255],[76.95237,28.81557],[76.9474,28.80405],[76.94751,28.79839],[76.95312,28.79],[76.95234,28.78264],[76.95397,28.77341],[76.95658,28.76891],[76.94817,28.7545],[76.9574,28.746],[76.96027,28.74151],[76.95915,28.73636],[76.96061,28.73132],[76.95117,28.71189],[76.96086,28.70461],[76.9645,28.70021],[76.96409,28.69537],[76.96372,28.69481],[76.95988,28.68898],[76.95824,28.68283],[76.9558,28.67833],[76.9571,28.67201],[76.95239,28.66996],[76.95208,28.66994],[76.93955,28.66928],[76.93292,28.66408],[76.92728,28.65213],[76.92798,28.64813],[76.94367,28.63249],[76.93572,28.6241],[76.93341,28.6235],[76.9201,28.63269],[76.91375,28.63281],[76.90701,28.62767],[76.90341,28.62762],[76.88766,28.63253],[76.87056,28.59741],[76.86445,28.58725],[76.85986,28.58502],[76.84464,28.58632],[76.84251,28.57742],[76.84717,28.5519],[76.86631,28.5427],[76.86877,28.5368],[76.88586,28.52326],[76.88899,28.51885],[76.88333,28.50925],[76.88889,28.50391],[76.89634,28.50608],[76.90327,28.51099],[76.907,28.51261],[76.91802,28.50974],[76.93223,28.51408],[76.9428,28.51085],[76.95422,28.50843],[76.9781,28.52235],[76.98617,28.51858],[76.99991,28.51454],[77.01519,28.50919],[77.02059,28.51277],[77.02105,28.51885],[77.01466,28.52348],[77.00787,28.5269],[77.00562,28.53166],[77.00989,28.53676],[77.01578,28.53752],[77.02534,28.52807],[77.02931,28.52801],[77.04284,28.52307],[77.05134,28.51368],[77.05845,28.50995],[77.06664,28.50857],[77.07717,28.51534],[77.08219,28.51497],[77.09568,28.50554],[77.10002,28.50012],[77.11321,28.49212],[77.11738,28.48852],[77.11505,28.48279],[77.11302,28.47777],[77.1112,28.47113],[77.11241,28.4651],[77.1157,28.46054],[77.11839,28.452],[77.12215,28.44488],[77.12793,28.43706],[77.13371,28.43386],[77.14103,28.43333],[77.15205,28.43033],[77.1615,28.42292],[77.16398,28.4159],[77.17538,28.40305],[77.18913,28.40696],[77.20487,28.4071],[77.21556,28.40796],[77.22498,28.4103],[77.23243,28.41352],[77.25034,28.4234],[77.25291,28.42822],[77.25403,28.43621],[77.25303,28.44204],[77.24962,28.44816],[77.24286,28.45401],[77.23618,28.45482],[77.2355,28.45857],[77.23738,28.46431],[77.24218,28.47035],[77.24652,28.47424],[77.25244,28.47915],[77.26379,28.48009],[77.26991,28.48297],[77.28096,28.49156],[77.2879,28.49268],[77.29564,28.4908],[77.30612,28.48567],[77.3108,28.48463],[77.31673,28.48519],[77.32475,28.48907],[77.33159,28.49388],[77.33657,28.49796],[77.3389,28.50282],[77.34437,28.50558],[77.34765,28.50346],[77.3531,28.49809],[77.37039,28.49233],[77.37388,28.48737],[77.37402,28.48012],[77.37926,28.47515],[77.38309,28.47254],[77.38591,28.47062],[77.39807,28.46727],[77.4078,28.46561],[77.40993,28.46114],[77.40474,28.45723],[77.40769,28.45307],[77.41818,28.45003],[77.42805,28.45022],[77.4281,28.45021],[77.4357,28.44896],[77.43819,28.43847],[77.44587,28.42602],[77.45388,28.42337],[77.46135,28.41926],[77.46597,28.41538],[77.47859,28.41192],[77.48443,28.40789],[77.48373,28.39818],[77.47668,28.39406],[77.4794,28.38868],[77.49573,28.37406],[77.50187,28.36388],[77.50404,28.35263],[77.49497,28.34458],[77.47619,28.33558],[77.4735,28.33238],[77.47567,28.32832],[77.48332,28.32225],[77.49161,28.31798],[77.50553,28.30139],[77.5039,28.29461],[77.50449,28.28697],[77.50243,28.27498],[77.49777,28.27347],[77.48192,28.27557],[77.47449,28.2718],[77.47695,28.26408],[77.49675,28.2561],[77.51173,28.25218],[77.52029,28.24923],[77.52127,28.24889],[77.52193,28.24866],[77.53471,28.24775],[77.54848,28.24873],[77.55089,28.24205],[77.54529,28.23484],[77.52522,28.22409],[77.52667,28.21572],[77.53122,28.21171],[77.53291,28.20149],[77.52873,28.19611],[77.52242,28.19601],[77.52017,28.20066],[77.50719,28.20735],[77.49872,28.20633],[77.50019,28.1874],[77.50168,28.17943],[77.51109,28.18152],[77.51525,28.1898],[77.53041,28.18606],[77.53978,28.18727],[77.54755,28.1852],[77.55198,28.17597],[77.54134,28.16457],[77.52125,28.15924],[77.52114,28.15921],[77.50844,28.15734],[77.50589,28.1542],[77.50478,28.14014],[77.49935,28.13872],[77.49673,28.13576],[77.49744,28.13311],[77.50796,28.13001],[77.50914,28.12169],[77.50887,28.11692],[77.50084,28.10704],[77.5027,28.1025],[77.50318,28.0966],[77.50174,28.09234],[77.49957,28.08961],[77.49545,28.09172],[77.49223,28.10219],[77.48766,28.10231],[77.48422,28.09863],[77.4825,28.09806],[77.47828,28.08034],[77.47942,28.07807],[77.48112,28.07309],[77.48622,28.06765],[77.49227,28.05504],[77.49222,28.05198],[77.48699,28.04343],[77.48846,28.03848],[77.49906,28.03364],[77.50452,28.02862],[77.5068,28.02496],[77.51111,28.0217],[77.51585,28.01666],[77.5187,28.01203],[77.52121,28.00456],[77.52945,28.00085],[77.54454,27.98762],[77.54145,27.98315],[77.53597,27.97832],[77.52271,27.97175],[77.51886,27.96763],[77.51987,27.96251],[77.52429,27.95979],[77.53828,27.96055],[77.54521,27.95984],[77.5466,27.95206],[77.54539,27.94359],[77.54059,27.93611],[77.52842,27.92618],[77.52299,27.93064],[77.52038,27.93172],[77.51508,27.93044],[77.50699,27.92572],[77.50459,27.92507],[77.50147,27.92611],[77.49979,27.92826],[77.49716,27.93577],[77.49396,27.93823],[77.48685,27.93453],[77.47792,27.92724],[77.47763,27.92621],[77.47978,27.92222],[77.48003,27.91493],[77.4816,27.91352],[77.48378,27.90638],[77.48163,27.89553],[77.47895,27.88905],[77.46758,27.87963],[77.45494,27.87275],[77.45127,27.87282],[77.43942,27.88319],[77.43129,27.88883],[77.42331,27.89087],[77.42137,27.89051],[77.42012,27.88938],[77.41618,27.8835],[77.41316,27.88096],[77.41059,27.87626],[77.41357,27.87018],[77.41418,27.8661],[77.41534,27.86402],[77.42273,27.85695],[77.42345,27.85504],[77.42142,27.85342],[77.41279,27.8526],[77.40184,27.85331],[77.39109,27.85747],[77.38289,27.85807],[77.37901,27.85751],[77.37381,27.85497],[77.36163,27.85083],[77.35303,27.85339],[77.34829,27.85398],[77.34163,27.84928],[77.34016,27.84708],[77.3382,27.84639],[77.333,27.83527],[77.33626,27.83212],[77.33103,27.82912],[77.3261,27.82765],[77.32184,27.82446],[77.31521,27.82642],[77.31371,27.82564],[77.30805,27.82579],[77.29777,27.82357],[77.29951,27.81413],[77.29855,27.81225],[77.29233,27.81035],[77.28818,27.80641],[77.28592,27.80117],[77.28461,27.80099],[77.27632,27.80641],[77.27134,27.81055],[77.26688,27.80374],[77.26581,27.79969],[77.26165,27.79209],[77.25673,27.7882],[77.24966,27.78481],[77.24332,27.78026],[77.2405,27.78025],[77.23601,27.78312],[77.23747,27.78756],[77.23562,27.79056],[77.23092,27.79212],[77.22559,27.78997],[77.21553,27.79553],[77.21449,27.79996],[77.21088,27.80705],[77.20553,27.81392],[77.20263,27.81642],[77.19624,27.80953],[77.19536,27.80497],[77.19769,27.79291],[77.18427,27.78171],[77.17741,27.7794],[77.17271,27.78141],[77.17088,27.7851],[77.1753,27.79042],[77.17798,27.79506],[77.18688,27.79701],[77.18918,27.79892],[77.18942,27.80315],[77.18462,27.80894],[77.18113,27.81082],[77.16982,27.8077],[77.1654,27.80811],[77.16084,27.81028],[77.15936,27.81007],[77.15844,27.80694],[77.16225,27.79694],[77.162,27.79236],[77.16013,27.78632],[77.15596,27.78117],[77.15012,27.78074],[77.14402,27.77847],[77.13519,27.77099],[77.13385,27.77146],[77.13334,27.77936],[77.13078,27.78283],[77.12863,27.784],[77.12608,27.78472],[77.12345,27.78442],[77.11612,27.7812],[77.11128,27.77972],[77.1098,27.78003],[77.10227,27.78425],[77.08886,27.79495],[77.0853,27.79603],[77.08292,27.79891],[77.08106,27.80409],[77.07713,27.80614],[77.07394,27.80715],[77.06487,27.80603],[77.06046,27.80975],[77.05546,27.81268],[77.05377,27.81156],[77.04691,27.81463],[77.04368,27.81126],[77.044,27.80869],[77.0432,27.8071],[77.039,27.80602],[77.03259,27.79277],[77.03162,27.78178],[77.02831,27.77492],[77.02921,27.77271],[77.03133,27.77255],[77.03266,27.77162],[77.03531,27.77251],[77.03697,27.77489],[77.04801,27.76949],[77.05548,27.76256],[77.05866,27.75561],[77.06279,27.75647],[77.06458,27.75895],[77.07039,27.76025],[77.07593,27.75832],[77.07927,27.7534],[77.07975,27.74648],[77.08109,27.74366],[77.08698,27.73743],[77.088,27.73473],[77.08777,27.73295],[77.08652,27.73189],[77.07969,27.7303],[77.07428,27.72697],[77.06797,27.72592],[77.06173,27.72243],[77.05916,27.72268],[77.05278,27.72681],[77.05126,27.73048],[77.0488,27.73294],[77.04785,27.73617],[77.04502,27.7392],[77.04049,27.743],[77.03748,27.74396],[77.03336,27.74172],[77.02531,27.74235],[77.01992,27.74112],[77.0135,27.73375],[77.01186,27.73315],[77.00948,27.73313],[77.00287,27.73666],[77.00202,27.73631],[76.99984,27.73105],[76.99758,27.72839],[76.9959,27.72389],[76.99122,27.71312],[76.98752,27.70078],[76.98448,27.68748],[76.98151,27.67504],[76.98064,27.66749],[76.97868,27.66008],[76.97884,27.65176],[76.96856,27.65706],[76.95987,27.66089],[76.95311,27.66521],[76.94677,27.66832],[76.94253,27.66974],[76.9386,27.66636],[76.93513,27.66009],[76.93214,27.65538],[76.92729,27.65614],[76.92212,27.65427],[76.91775,27.65147],[76.91364,27.65064],[76.9109,27.65319],[76.9088,27.65812],[76.90838,27.66271],[76.90545,27.6671],[76.90152,27.67156],[76.89993,27.67459],[76.90231,27.67801],[76.90505,27.68064],[76.90303,27.68435],[76.89693,27.68752],[76.89141,27.6902],[76.88922,27.69406],[76.89114,27.69806],[76.89633,27.69636],[76.90182,27.69294],[76.90864,27.68931],[76.91434,27.69052],[76.91869,27.69131],[76.92291,27.69548],[76.92055,27.70077],[76.91665,27.70676],[76.91114,27.71112],[76.90373,27.71319],[76.89689,27.71424],[76.8917,27.71912],[76.89243,27.7256],[76.89624,27.7319],[76.89899,27.73671],[76.89981,27.75588],[76.90075,27.76672],[76.90208,27.77395],[76.90405,27.78083],[76.90711,27.78578],[76.91238,27.78958],[76.91128,27.79597],[76.91509,27.80235],[76.91373,27.80725],[76.90888,27.81585],[76.90958,27.82012],[76.91231,27.82735],[76.91641,27.83061],[76.92352,27.8293],[76.93048,27.82651],[76.93519,27.82889],[76.93666,27.83865],[76.93848,27.8499],[76.93689,27.86181],[76.93339,27.87147],[76.93474,27.88305],[76.93471,27.8891],[76.94683,27.89067],[76.94541,27.90222],[76.94751,27.91371],[76.93861,27.91605],[76.92996,27.91575],[76.92778,27.91955],[76.92778,27.93552],[76.92825,27.94753],[76.93151,27.96047],[76.93368,27.97305],[76.93109,27.98052],[76.92742,27.99231],[76.93044,28.0004],[76.93539,28.00721],[76.93959,28.0252],[76.94072,28.03673],[76.94252,28.04284],[76.94692,28.05431],[76.95144,28.06151],[76.95548,28.06603],[76.957,28.07336],[76.96002,28.09079],[76.96448,28.10645],[76.96484,28.11841],[76.9708,28.13871],[76.96558,28.14072],[76.95077,28.14341],[76.94957,28.14563],[76.95061,28.14987],[76.94684,28.15007],[76.93657,28.15363],[76.93008,28.15698],[76.92109,28.1666],[76.90818,28.17408],[76.89913,28.1826],[76.89309,28.18643],[76.89292,28.1895],[76.89478,28.1915],[76.90892,28.19953],[76.90575,28.20239],[76.89575,28.20527],[76.88833,28.20516],[76.87523,28.20631],[76.87487,28.21276],[76.8727,28.21943],[76.8668,28.21797],[76.86341,28.22005],[76.85956,28.22148],[76.84247,28.21966],[76.83626,28.21232],[76.83285,28.20953],[76.82797,28.20952],[76.82222,28.21116],[76.81481,28.21073],[76.81038,28.20645],[76.81146,28.19948],[76.81458,28.19522],[76.81159,28.19091],[76.80685,28.18923],[76.80281,28.1944],[76.79919,28.18862],[76.80117,28.17778],[76.80122,28.17051],[76.80507,28.16532],[76.80039,28.15208],[76.79195,28.15053],[76.78181,28.14628],[76.77103,28.14489],[76.76393,28.14149],[76.74794,28.12393],[76.74177,28.12346],[76.7404,28.12334],[76.72884,28.12643],[76.71874,28.12727],[76.71778,28.12629],[76.7142,28.12264],[76.7075,28.11062],[76.69899,28.10972],[76.69824,28.10842],[76.69438,28.10181],[76.69088,28.0927],[76.6866,28.09274],[76.67262,28.09279],[76.66668,28.09402],[76.65989,28.09171],[76.65652,28.08716],[76.65561,28.08007],[76.65668,28.07404],[76.65654,28.06262],[76.65755,28.05666],[76.66025,28.05042],[76.65958,28.0394],[76.662,28.03486],[76.66821,28.02861],[76.67004,28.02424],[76.67099,28.01786],[76.66864,28.01398],[76.66311,28.01051],[76.65524,28.00755],[76.6454,28.00562],[76.63384,28.00543],[76.62448,28.00627],[76.61241,28.00577],[76.60745,28.00482],[76.60371,28.00114],[76.60021,27.99866],[76.59228,27.99531],[76.58572,27.98987],[76.58225,27.98403],[76.57591,27.97859],[76.56818,27.9768],[76.56182,27.97005],[76.55498,27.9664],[76.54655,27.96558],[76.54186,27.96877],[76.53941,27.97438],[76.54033,27.98075],[76.54394,27.9881],[76.54483,27.99977],[76.54687,28.00041],[76.54615,28.00255],[76.54705,28.0071],[76.54699,28.01173],[76.54397,28.02077],[76.54699,28.03416],[76.53971,28.03817],[76.53434,28.04052],[76.52704,28.03403],[76.51984,28.03043],[76.51366,28.03012],[76.50793,28.03145],[76.50691,28.03528],[76.50448,28.03873],[76.50065,28.0422],[76.4915,28.04144],[76.48413,28.03918],[76.47009,28.0397],[76.46414,28.04162],[76.46213,28.04481],[76.46242,28.05021],[76.4664,28.05711],[76.47973,28.05623],[76.49226,28.05339],[76.49802,28.05435],[76.503,28.05617],[76.50612,28.05983],[76.50385,28.06274],[76.49436,28.07023],[76.47836,28.08145],[76.47209,28.07921],[76.46726,28.08014],[76.46189,28.08294],[76.45704,28.08833],[76.45968,28.09281],[76.46239,28.10104],[76.46537,28.10554],[76.46944,28.10705],[76.47474,28.10812],[76.48106,28.10785],[76.4858,28.10112],[76.49726,28.09985],[76.50633,28.10173],[76.50583,28.11109],[76.50663,28.11766],[76.49544,28.11793],[76.4943,28.12325],[76.4983,28.12881],[76.49365,28.13003],[76.49185,28.12998],[76.48579,28.12981],[76.48174,28.13088],[76.47851,28.13365],[76.48091,28.14475],[76.47957,28.14989],[76.47376,28.15076],[76.46965,28.14753],[76.46461,28.1466],[76.44566,28.14734],[76.43989,28.14276],[76.43582,28.14113],[76.42076,28.14269],[76.40553,28.14301],[76.4015,28.13627],[76.39698,28.13476],[76.39249,28.1351],[76.38523,28.13331],[76.36828,28.13864],[76.36585,28.14312],[76.36444,28.15506],[76.36172,28.16146],[76.35108,28.16922],[76.34439,28.17264],[76.33442,28.17274],[76.31717,28.17869],[76.31635,28.1788],[76.31341,28.17919],[76.30647,28.17821],[76.2973,28.17802],[76.28748,28.17408],[76.2852,28.16813],[76.28658,28.16393],[76.30142,28.16062],[76.30694,28.15789],[76.30688,28.15479],[76.30348,28.15239],[76.3043,28.15001],[76.30997,28.14633],[76.31662,28.1462],[76.31953,28.14998],[76.32574,28.14838],[76.33115,28.14453],[76.33942,28.13427],[76.346,28.13014],[76.35164,28.12805],[76.35777,28.12743],[76.36402,28.12371],[76.35189,28.10849],[76.34794,28.10498],[76.34026,28.10201],[76.32252,28.10744],[76.31637,28.10659],[76.30965,28.10152],[76.30572,28.09637],[76.3155,28.09176],[76.32177,28.08997],[76.32887,28.0896],[76.3332,28.08744],[76.33712,28.08304],[76.33958,28.07692],[76.34046,28.07207],[76.34567,28.06833],[76.35268,28.06914],[76.35882,28.07103],[76.36294,28.06945],[76.36161,28.06082],[76.3542,28.04105],[76.34952,28.03131],[76.34504,28.02492],[76.33818,28.02014],[76.3319,28.01912],[76.32481,28.01627],[76.30535,28.02126],[76.29831,28.02521],[76.29632,28.03736],[76.29832,28.04442],[76.29025,28.05426],[76.28002,28.06173],[76.27315,28.06409],[76.25932,28.06629],[76.25177,28.06431],[76.24155,28.0518],[76.23411,28.05058],[76.21649,28.05096],[76.21179,28.05494],[76.20806,28.05617],[76.20099,28.05524],[76.18547,28.05471],[76.18357,28.04971],[76.18499,28.0444],[76.19128,28.03846],[76.20152,28.03064],[76.20627,28.03037],[76.21229,28.03766],[76.22168,28.03558],[76.22193,28.02709],[76.21156,28.02576],[76.20848,28.02108],[76.20396,28.01715],[76.19876,28.01684],[76.19197,28.01897],[76.18762,28.01872],[76.18232,28.01735],[76.17743,28.0123],[76.16672,28],[76.16294,27.99445],[76.16186,27.98799],[76.17047,27.98375],[76.16894,27.97554],[76.17501,27.97458],[76.18221,27.97063],[76.18745,27.96826],[76.18615,27.96288],[76.18425,27.95647],[76.18488,27.95048],[76.18432,27.94372],[76.1827,27.93667],[76.17828,27.9287],[76.17557,27.92377],[76.17396,27.91641],[76.17434,27.91048],[76.17762,27.90516],[76.18304,27.90251],[76.1905,27.90047],[76.19884,27.89808],[76.20653,27.89437],[76.208,27.88768],[76.20763,27.88348],[76.20229,27.87932],[76.19817,27.87696],[76.19685,27.87175],[76.19917,27.8648],[76.20094,27.85929],[76.20678,27.85503],[76.21289,27.85088],[76.21376,27.84335],[76.21845,27.84017],[76.2311,27.83627],[76.22162,27.82793],[76.21552,27.82383],[76.20833,27.82426],[76.20191,27.82658],[76.19818,27.82212],[76.19398,27.81442],[76.18815,27.80777],[76.18065,27.80284],[76.17505,27.80452],[76.17056,27.81024],[76.16091,27.8167],[76.15039,27.82325],[76.13547,27.82865],[76.13593,27.83328],[76.1362,27.84236],[76.12987,27.84985],[76.12032,27.85404],[76.11108,27.85785],[76.1035,27.86028],[76.09579,27.86395],[76.09336,27.86071],[76.09245,27.85188],[76.08777,27.84657],[76.0677,27.85271],[76.06244,27.84735],[76.05727,27.8434],[76.05132,27.84439],[76.04603,27.84805],[76.04146,27.84973],[76.03724,27.84945],[76.0284,27.85309],[76.01694,27.85819],[76.01285,27.85303],[76.00421,27.85577],[76.00208,27.85652],[75.99187,27.85849],[75.98302,27.86025],[75.97065,27.86037],[75.97183,27.86715],[75.98106,27.87308],[75.98042,27.88102],[75.98281,27.88873],[75.9749,27.89496],[75.98506,27.9049],[75.97519,27.91102],[75.96354,27.91522],[75.9494,27.91477],[75.93644,27.9125],[75.9364,27.92218],[75.93124,27.9288],[75.93623,27.93746],[75.9462,27.94679],[75.94938,27.94204],[75.95227,27.93578],[75.96163,27.93512],[75.97085,27.93262],[75.98095,27.95366],[75.97605,27.95797],[75.98159,27.9656],[75.9896,27.97396],[75.99425,27.97676],[75.9947,27.98028],[75.98987,27.98264],[75.98094,27.97964],[75.97342,27.98224],[75.96322,27.98434],[75.96305,27.98987],[75.96418,27.99671],[75.9683,27.99779],[75.9723,27.99835],[75.97466,27.99791],[75.98007,27.99702],[75.9877,27.99712],[75.99692,27.99998],[75.99837,28.00582],[75.99365,28.01042],[75.98698,28.01113],[75.9805,28.01383],[75.97867,28.01943],[75.97783,28.02664],[75.98221,28.03261],[75.98838,28.03438],[75.99893,28.03557],[76.01797,28.03235],[76.0188,28.04268],[76.01787,28.04556],[76.01329,28.05018],[76.0246,28.05175],[76.03024,28.05794],[76.04111,28.06427],[76.04361,28.0696],[76.0422,28.07557],[76.03921,28.07952],[76.02364,28.0845],[76.02282,28.07673],[76.0204,28.072],[76.00985,28.05639],[76.00554,28.05313],[75.99897,28.05211],[75.99243,28.04641],[75.98529,28.04788],[75.98248,28.05274],[75.99555,28.06626],[75.99,28.07591],[75.985,28.07988],[75.96688,28.07978],[75.94399,28.08928],[75.95043,28.10138],[75.95534,28.10543],[75.96546,28.11128],[75.9756,28.11511],[75.98508,28.12292],[75.99914,28.12387],[76.00232,28.1268],[76.00375,28.13101],[76.00274,28.1463],[76.00785,28.15213],[76.01412,28.15224],[76.01929,28.15335],[76.0243,28.15675],[76.03588,28.16838],[76.06889,28.1656],[76.07453,28.16339],[76.07356,28.15126],[76.07182,28.1455],[76.07319,28.14007],[76.08305,28.13754],[76.09134,28.13783],[76.0961,28.13912],[76.09996,28.142],[76.10105,28.14719],[76.10108,28.1508],[76.08862,28.1637],[76.083,28.16804],[76.07977,28.17484],[76.07752,28.18987],[76.07383,28.19458],[76.06488,28.19686],[76.05328,28.19857],[76.05203,28.20114],[76.05797,28.20548],[76.06051,28.21008],[76.06125,28.21988],[76.04459,28.22278],[76.03402,28.23161],[76.01942,28.23746],[76.01565,28.24888],[76.02686,28.27632],[76.02701,28.27668],[76.01662,28.28208],[76.0067,28.28723],[75.99954,28.29094],[75.99668,28.29138],[75.99486,28.29165],[75.99484,28.29169],[75.99474,28.29183],[75.98762,28.30211],[75.98303,28.31164],[75.97632,28.31945],[75.97595,28.31989],[75.96973,28.31724],[75.96297,28.31435],[75.96297,28.31439],[75.96296,28.3152],[75.96281,28.32453],[75.95974,28.32931],[75.96294,28.3306],[75.96493,28.3314],[75.96465,28.33419],[75.94615,28.33852],[75.93571,28.34096],[75.9366,28.35042],[75.93674,28.35187],[75.93674,28.35188],[75.93664,28.35212],[75.93332,28.36056],[75.93072,28.3648],[75.93063,28.36483],[75.913,28.37196],[75.90558,28.37593],[75.90546,28.37599],[75.90522,28.38592],[75.90505,28.386],[75.89757,28.38959],[75.89757,28.38959],[75.89752,28.38957],[75.89188,28.38792],[75.89149,28.38264],[75.88045,28.3868],[75.84951,28.39327],[75.84337,28.39371],[75.83654,28.40508],[75.82642,28.40192],[75.825,28.40753],[75.81089,28.41028],[75.80232,28.40595],[75.79583,28.40051],[75.79081,28.40332],[75.77857,28.40373],[75.77371,28.41689],[75.78512,28.42657],[75.79343,28.4353],[75.79348,28.44684],[75.78656,28.45372],[75.75546,28.46554],[75.74331,28.46882],[75.74488,28.48339],[75.73228,28.4875],[75.709,28.49158],[75.69839,28.49536],[75.67943,28.51323],[75.67225,28.51717],[75.67382,28.5296],[75.67166,28.53243],[75.66191,28.53691],[75.65185,28.53926],[75.64498,28.54388],[75.63741,28.54236],[75.63359,28.5549],[75.62743,28.58515],[75.62843,28.59564],[75.62645,28.59863],[75.61773,28.60232],[75.59332,28.60285],[75.5854,28.61317],[75.56408,28.61112],[75.55739,28.63967],[75.54797,28.64544],[75.54912,28.65185],[75.54635,28.65787],[75.54824,28.6726],[75.54508,28.67876],[75.54394,28.68499],[75.54,28.71391],[75.53947,28.72946],[75.53458,28.73956],[75.53748,28.74693],[75.53052,28.75281],[75.52467,28.76891],[75.51362,28.77949],[75.50712,28.78437],[75.51253,28.79345],[75.51175,28.806],[75.51744,28.81201],[75.52205,28.83331],[75.51919,28.84014],[75.51138,28.84272],[75.50785,28.84711],[75.50643,28.85294],[75.4967,28.85642],[75.4972,28.89511],[75.4934,28.89847],[75.47588,28.9231],[75.47771,28.93484],[75.50643,28.93829],[75.51243,28.94862],[75.51184,28.95829],[75.51784,28.96254],[75.52546,28.97219],[75.52493,28.97896],[75.52422,28.98785],[75.52013,29.00014],[75.52005,29.00096],[75.52009,29.00766],[75.51412,29.01199],[75.49261,29.01573],[75.48242,29.01709],[75.46762,29.01707],[75.44368,29.0135],[75.44158,29.01903],[75.44954,29.03848],[75.44648,29.04745],[75.43875,29.05317],[75.43927,29.06172],[75.39923,29.06531],[75.38961,29.06741],[75.39117,29.08069],[75.3904,29.08678],[75.39218,29.09247],[75.39032,29.09968],[75.38975,29.10784],[75.40041,29.11642],[75.4053,29.12554],[75.39419,29.13129],[75.38291,29.13421],[75.37022,29.1398],[75.37673,29.14758],[75.37809,29.16714],[75.38761,29.16867],[75.39772,29.16785],[75.40356,29.17141],[75.40984,29.18603],[75.40908,29.19863],[75.40569,29.21058],[75.40155,29.21524],[75.39536,29.21842],[75.39656,29.22623],[75.40295,29.23142],[75.40867,29.23744],[75.40899,29.24397],[75.40801,29.25217],[75.40504,29.25912],[75.3973,29.26157],[75.38886,29.26116],[75.38177,29.25728],[75.36725,29.25187],[75.35942,29.24463],[75.35642,29.22738],[75.35452,29.22341],[75.34375,29.22611],[75.32413,29.23329],[75.33241,29.24907],[75.33465,29.27564],[75.33354,29.28753],[75.32859,29.2908],[75.31785,29.28629],[75.30896,29.27936],[75.29894,29.2751],[75.2886,29.27424],[75.2862,29.27121],[75.28593,29.27087],[75.28091,29.25178],[75.25864,29.25392],[75.24437,29.24942],[75.23255,29.23244],[75.22104,29.23205],[75.2044,29.24177],[75.19762,29.25621],[75.18909,29.26622],[75.17312,29.26201],[75.16988,29.25138],[75.15651,29.24349],[75.13368,29.24266],[75.12274,29.2406],[75.11713,29.22448],[75.10146,29.22685],[75.08701,29.23021],[75.07164,29.23673],[75.07425,29.24441],[75.06957,29.25113],[75.0599,29.26156],[75.05964,29.26673],[75.05946,29.27026],[75.04891,29.28504],[75.03283,29.28945],[75.01481,29.28176],[74.99993,29.26973],[74.99182,29.27626],[74.98582,29.27913],[74.97694,29.28046],[74.96884,29.27819],[74.96198,29.28],[74.95642,29.28623],[74.95147,29.29326],[74.94902,29.30292],[74.95479,29.30913],[74.9595,29.3166],[74.95992,29.32418],[74.95507,29.33093],[74.94488,29.33607],[74.93616,29.36282],[74.93098,29.36422],[74.91922,29.36937],[74.90807,29.37646],[74.90432,29.38237],[74.89749,29.38496],[74.87957,29.38343],[74.87554,29.3868],[74.87293,29.39468],[74.86619,29.39773],[74.85851,29.40116],[74.85011,29.40247],[74.84409,29.39988],[74.81849,29.39694],[74.80769,29.38312],[74.79462,29.36902],[74.78475,29.35864],[74.76543,29.3545],[74.74047,29.35238],[74.73132,29.35947],[74.72567,29.36499],[74.72001,29.36756],[74.69742,29.36386],[74.68475,29.36689],[74.66723,29.36875],[74.65888,29.37116],[74.65238,29.35319],[74.65276,29.33412],[74.65042,29.32997],[74.6146,29.32643],[74.60434,29.32719],[74.60864,29.35321],[74.60534,29.36109],[74.59917,29.36959],[74.58842,29.37768],[74.58154,29.38543],[74.57778,29.39629],[74.57871,29.40516],[74.57307,29.40979],[74.5665,29.41767],[74.56086,29.42144],[74.54981,29.42223],[74.53998,29.42409],[74.53826,29.43411],[74.53782,29.44868],[74.53948,29.45669],[74.54338,29.46416],[74.55158,29.46569],[74.55914,29.46357],[74.56823,29.46344],[74.5805,29.46134],[74.5877,29.45765],[74.58923,29.46253],[74.59434,29.468],[74.6004,29.47887],[74.59916,29.48515],[74.60152,29.49114],[74.60966,29.50257],[74.61344,29.50946],[74.62063,29.51901],[74.62336,29.52612],[74.6204,29.53052],[74.60845,29.53592],[74.60014,29.54249],[74.59076,29.54678],[74.58072,29.5547],[74.57551,29.56264],[74.5796,29.56768],[74.57931,29.58509],[74.58376,29.6136],[74.58611,29.62],[74.58447,29.62651],[74.59043,29.62972],[74.59518,29.63443],[74.5912,29.64326],[74.58771,29.65396],[74.59436,29.67424],[74.6001,29.68192],[74.60314,29.69063],[74.60216,29.69993],[74.60833,29.70541],[74.6097,29.71232],[74.61281,29.72064],[74.61098,29.7399],[74.61538,29.74588],[74.61479,29.75211],[74.60689,29.75724],[74.60198,29.766],[74.59605,29.7678],[74.58756,29.76628],[74.58076,29.75257],[74.57338,29.75395],[74.55867,29.75417],[74.54712,29.75326],[74.54117,29.74876],[74.53512,29.74078],[74.52084,29.74013],[74.50607,29.74131],[74.49245,29.74355],[74.48124,29.74358],[74.47838,29.75781],[74.47458,29.78716],[74.47991,29.8016],[74.48999,29.81485],[74.5011,29.82609],[74.51533,29.83212],[74.54203,29.83878],[74.55702,29.85639],[74.56313,29.86511],[74.56139,29.873],[74.55481,29.88023],[74.55306,29.88824],[74.54332,29.90218],[74.53512,29.90214],[74.5205,29.90391],[74.51464,29.90739],[74.52244,29.92967],[74.52875,29.94299],[74.53435,29.95119],[74.53994,29.94458],[74.55872,29.93271],[74.56169,29.92877],[74.57155,29.92883],[74.58264,29.92537],[74.59056,29.91776],[74.59549,29.91421],[74.63175,29.90713],[74.63612,29.90535],[74.64236,29.90499],[74.64936,29.90326],[74.6567,29.90396],[74.64862,29.91377],[74.64964,29.92182],[74.65874,29.93024],[74.67554,29.94097],[74.69083,29.94845],[74.69309,29.96033],[74.70071,29.96852],[74.70543,29.97077],[74.7073,29.97039],[74.71608,29.96809],[74.73394,29.96103],[74.74722,29.96819],[74.76071,29.97034],[74.76869,29.97273],[74.77738,29.97179],[74.78602,29.97345],[74.79425,29.97947],[74.80447,29.98864],[74.81125,29.99159],[74.81912,29.98947],[74.82677,29.9835],[74.82976,29.97843],[74.83145,29.97201],[74.83907,29.96839],[74.84666,29.96307],[74.8597,29.95801],[74.86946,29.96003],[74.87575,29.95773],[74.88206,29.95795],[74.88751,29.96139],[74.89161,29.96717],[74.89554,29.96113],[74.89988,29.95781],[74.90446,29.95171],[74.90319,29.94603],[74.89968,29.94379],[74.89531,29.93789],[74.90446,29.9382],[74.92585,29.94788],[74.93422,29.94022],[74.93871,29.92783],[74.942,29.92144],[74.94575,29.91406],[74.95322,29.90116],[74.96793,29.89631],[74.97996,29.88846],[74.97952,29.87921],[74.99994,29.85492],[75.00414,29.86167],[75.01572,29.86602],[75.02418,29.86305],[75.03357,29.87128],[75.04762,29.88017],[75.06188,29.87322],[75.07053,29.87446],[75.07563,29.87737],[75.08018,29.89169],[75.08795,29.91065],[75.09503,29.91345],[75.10002,29.91003],[75.10498,29.90337],[75.11289,29.8953],[75.11328,29.87503],[75.11439,29.87144],[75.11075,29.86614],[75.09483,29.85686],[75.0911,29.85242],[75.09134,29.84765],[75.09585,29.84306],[75.10906,29.83965],[75.11418,29.83622],[75.11721,29.82473],[75.10339,29.81753],[75.09908,29.81106],[75.10021,29.80487],[75.10556,29.80255],[75.11233,29.80074],[75.13499,29.80376],[75.14145,29.78298],[75.14549,29.77848],[75.15174,29.77509],[75.16409,29.77908],[75.16924,29.78229],[75.16492,29.78717],[75.15957,29.78972],[75.15901,29.79421],[75.16138,29.79992],[75.16554,29.81791],[75.17008,29.82173],[75.17714,29.82303],[75.18533,29.82758],[75.18619,29.83314],[75.18875,29.83497],[75.19253,29.83676],[75.1988,29.83262],[75.21109,29.82801],[75.21269,29.81935],[75.20795,29.81144],[75.20658,29.8031],[75.20807,29.79421],[75.21547,29.78797],[75.2225,29.78447],[75.22628,29.77784],[75.22683,29.76944],[75.23335,29.76144],[75.23741,29.75401],[75.24105,29.74996],[75.2314,29.73095],[75.22663,29.72788],[75.22068,29.7288],[75.21618,29.73317],[75.2081,29.72873],[75.20367,29.72313],[75.1972,29.70986],[75.19834,29.70166],[75.20236,29.69745],[75.2076,29.69437],[75.2052,29.68566],[75.19878,29.67874],[75.18972,29.67623],[75.18519,29.67598],[75.17771,29.67121],[75.16876,29.66732],[75.16767,29.66066],[75.17257,29.65597],[75.17836,29.65215],[75.18312,29.64739],[75.18224,29.63653],[75.18313,29.62797],[75.1945,29.6204],[75.20916,29.62053],[75.23102,29.60433],[75.23298,29.59666],[75.22912,29.59027],[75.2209,29.58018],[75.22761,29.57622],[75.2315,29.56803],[75.23788,29.55629],[75.23402,29.54776],[75.23316,29.54388],[75.24777,29.54925],[75.26425,29.55185],[75.27723,29.55694],[75.28479,29.55876],[75.30042,29.55937],[75.30586,29.56569],[75.31287,29.57666],[75.3147,29.58121],[75.31434,29.58609],[75.31187,29.5896],[75.30346,29.5953],[75.29019,29.60092],[75.29043,29.60779],[75.29774,29.61744],[75.31098,29.62473],[75.31745,29.6302],[75.32166,29.6464],[75.32621,29.65846],[75.32773,29.66835],[75.33262,29.67005],[75.34018,29.66991],[75.3515,29.65973],[75.35681,29.65647],[75.35851,29.65665],[75.36048,29.65686],[75.35935,29.66323],[75.35607,29.66901],[75.34389,29.68568],[75.34542,29.69149],[75.35129,29.69286],[75.36279,29.7021],[75.36867,29.70336],[75.37207,29.71048],[75.38016,29.71064],[75.38891,29.70887],[75.39376,29.71788],[75.39237,29.72464],[75.39392,29.73159],[75.40108,29.73617],[75.40702,29.74623],[75.40748,29.75859],[75.42028,29.77288],[75.43007,29.77193],[75.43753,29.77547],[75.44496,29.7778],[75.45414,29.78369],[75.4535,29.79168],[75.44584,29.79638],[75.45466,29.80537],[75.50876,29.77516],[75.51671,29.77144],[75.52207,29.75741],[75.53437,29.76458],[75.54061,29.77005],[75.5546,29.76908],[75.56683,29.76312],[75.57348,29.74149],[75.57918,29.73986],[75.60317,29.74635],[75.61092,29.74459],[75.62366,29.74363],[75.63308,29.75078],[75.634,29.76406],[75.63586,29.77039],[75.6514,29.76825],[75.6602,29.77169],[75.66694,29.77318],[75.67672,29.7698],[75.68883,29.75413],[75.69794,29.74882],[75.70799,29.75224],[75.71656,29.80569],[75.72054,29.80931],[75.73666,29.80854],[75.7434,29.80827],[75.75909,29.80911],[75.77132,29.81563],[75.77414,29.81893],[75.78236,29.82235],[75.79393,29.81225],[75.80677,29.80403],[75.83072,29.81225],[75.83979,29.80918],[75.84003,29.79755],[75.84412,29.7875],[75.85197,29.77765],[75.85433,29.77276],[75.8653,29.76644],[75.87446,29.74908],[75.88271,29.74685],[75.88996,29.74379],[75.90141,29.74993],[75.90797,29.75223],[75.91384,29.74296],[75.92466,29.73543],[75.93386,29.73155],[75.94472,29.72916],[75.9494,29.73013],[75.95307,29.73091],[75.96082,29.73051],[75.96822,29.72871],[75.97559,29.72795],[75.98329,29.72893],[75.99076,29.73274],[76.00006,29.73886],[76.01464,29.74746],[76.02209,29.74935],[76.02841,29.75259],[76.03508,29.75211],[76.04255,29.74739],[76.04648,29.74315],[76.05232,29.74525],[76.06933,29.76961],[76.07411,29.77392],[76.08081,29.77247],[76.08527,29.77769],[76.08637,29.78435],[76.08654,29.79351],[76.08864,29.80224],[76.09705,29.80635],[76.10155,29.80727],[76.10536,29.808],[76.11421,29.80483],[76.12126,29.79973],[76.12738,29.7928],[76.13241,29.79587],[76.1382,29.80181],[76.14314,29.80843],[76.15031,29.81313],[76.16418,29.81262],[76.17773,29.81466],[76.19694,29.82755],[76.20051,29.83679],[76.20533,29.84128],[76.21338,29.8416],[76.21923,29.83957],[76.2208,29.83903],[76.22226,29.83952],[76.22082,29.84646],[76.22294,29.84945],[76.22701,29.85098],[76.23409,29.85187],[76.2397,29.8508],[76.24306,29.85263],[76.24643,29.85608],[76.24916,29.86172],[76.25325,29.86529],[76.24992,29.87217],[76.2437,29.87761],[76.23654,29.88136],[76.22819,29.88017],[76.21935,29.88283],[76.20861,29.88036],[76.19585,29.88494],[76.19394,29.89025],[76.19486,29.9121],[76.19328,29.91963],[76.18275,29.91963],[76.17754,29.92508],[76.18092,29.93299],[76.19023,29.94268],[76.19613,29.94269],[76.20219,29.94086],[76.2152,29.94049],[76.21641,29.94388],[76.21481,29.94845],[76.2061,29.96208],[76.21038,29.96958],[76.20889,29.97623],[76.20854,29.98152],[76.20718,29.98692],[76.20445,29.99305],[76.2008,30.00063],[76.20106,30.00276],[76.20126,30.00482],[76.20143,30.0069],[76.20165,30.00894],[76.20196,30.01094],[76.20238,30.01286],[76.20303,30.01466],[76.20493,30.01583],[76.20727,30.0165],[76.20951,30.01696],[76.21181,30.01728],[76.21411,30.01764],[76.21637,30.01809],[76.2187,30.01855],[76.22094,30.01916],[76.22289,30.02015],[76.22504,30.02173],[76.22694,30.02355],[76.22763,30.0251],[76.22663,30.02606],[76.22481,30.02677],[76.22248,30.02736],[76.21989,30.02788],[76.21729,30.02846],[76.21494,30.02917],[76.21261,30.03011],[76.2104,30.03127],[76.20943,30.0327],[76.20989,30.03438],[76.21112,30.03623],[76.21262,30.03808],[76.21403,30.03976],[76.21555,30.04128],[76.21717,30.04274],[76.21875,30.04423],[76.22016,30.04582],[76.2214,30.04751],[76.22256,30.04926],[76.22369,30.05103],[76.22484,30.05278],[76.22602,30.05452],[76.2272,30.05625],[76.22837,30.05799],[76.22955,30.05973],[76.23072,30.06147],[76.23191,30.06319],[76.2331,30.06493],[76.2343,30.06665],[76.23551,30.06838],[76.23671,30.0701],[76.2379,30.07183],[76.23909,30.07357],[76.24029,30.07529],[76.24152,30.07701],[76.24277,30.0787],[76.24406,30.08037],[76.2454,30.08201],[76.24678,30.08364],[76.24822,30.08527],[76.2497,30.08689],[76.25125,30.08846],[76.25283,30.08996],[76.25447,30.09133],[76.25618,30.09257],[76.25838,30.09281],[76.26087,30.09244],[76.26257,30.09348],[76.26401,30.0951],[76.26524,30.09695],[76.26624,30.09881],[76.26666,30.101],[76.26544,30.10244],[76.2634,30.10312],[76.26115,30.10364],[76.25876,30.10405],[76.25635,30.10437],[76.25404,30.10463],[76.25171,30.10472],[76.24937,30.10468],[76.24703,30.10462],[76.24472,30.10467],[76.24248,30.10498],[76.24035,30.10579],[76.23834,30.10687],[76.23653,30.10811],[76.23481,30.10948],[76.23288,30.1106],[76.23085,30.1116],[76.2288,30.11259],[76.22684,30.11366],[76.2251,30.11494],[76.22359,30.11645],[76.22225,30.1181],[76.22095,30.1198],[76.21958,30.12144],[76.21807,30.123],[76.21637,30.12437],[76.21429,30.12517],[76.21206,30.12581],[76.21002,30.12678],[76.208,30.1278],[76.20603,30.12888],[76.20416,30.13005],[76.20227,30.1315],[76.20128,30.13322],[76.20222,30.13517],[76.20397,30.13699],[76.20578,30.13731],[76.20758,30.13652],[76.20945,30.13522],[76.21137,30.13373],[76.21331,30.13234],[76.21532,30.13124],[76.21746,30.13028],[76.21962,30.12966],[76.22176,30.13012],[76.22362,30.13157],[76.22434,30.13334],[76.22324,30.13497],[76.22171,30.13659],[76.22021,30.13824],[76.21912,30.14],[76.21875,30.14202],[76.21803,30.14393],[76.2168,30.14576],[76.21546,30.14756],[76.2143,30.14934],[76.21365,30.1511],[76.21406,30.15324],[76.21559,30.15543],[76.21731,30.15589],[76.21893,30.15504],[76.22057,30.15392],[76.22226,30.1526],[76.22396,30.15112],[76.22567,30.14955],[76.22736,30.1479],[76.22904,30.14627],[76.23069,30.14467],[76.23229,30.14317],[76.23373,30.14159],[76.23507,30.13993],[76.23644,30.1383],[76.23798,30.1368],[76.23975,30.13552],[76.24168,30.13438],[76.24362,30.13326],[76.24547,30.13204],[76.2471,30.13062],[76.2485,30.12902],[76.24986,30.12737],[76.25265,30.12512],[76.25469,30.12393],[76.25626,30.11831],[76.26284,30.11544],[76.27719,30.1141],[76.28372,30.11075],[76.29156,30.11003],[76.29807,30.1132],[76.30479,30.115],[76.32446,30.10485],[76.33462,30.10454],[76.34012,30.10583],[76.34966,30.11216],[76.36069,30.12396],[76.36009,30.12796],[76.34749,30.13558],[76.3405,30.14111],[76.33767,30.14559],[76.35489,30.14977],[76.36017,30.14684],[76.36996,30.12959],[76.37555,30.12382],[76.38651,30.11999],[76.39619,30.12008],[76.40183,30.12378],[76.40028,30.13022],[76.40015,30.13458],[76.3964,30.14207],[76.398,30.1445],[76.40438,30.14652],[76.41139,30.15142],[76.41351,30.15398],[76.40053,30.17038],[76.39494,30.17532],[76.39291,30.17954],[76.39865,30.18328],[76.40294,30.18854],[76.4108,30.19528],[76.42217,30.19856],[76.43197,30.19413],[76.44053,30.17602],[76.44093,30.16921],[76.43834,30.1638],[76.43434,30.1598],[76.43415,30.15492],[76.43676,30.15084],[76.43794,30.14377],[76.44322,30.1369],[76.44819,30.13322],[76.45291,30.13214],[76.45834,30.13329],[76.45806,30.12513],[76.45633,30.11905],[76.45847,30.10738],[76.46092,30.10094],[76.46389,30.09685],[76.46651,30.09637],[76.4734,30.09513],[76.49533,30.09565],[76.50265,30.09323],[76.50701,30.08846],[76.50684,30.08315],[76.50896,30.07762],[76.51294,30.07268],[76.52076,30.07557],[76.53739,30.07687],[76.54549,30.07879],[76.56675,30.09476],[76.59216,30.11489],[76.60121,30.11942],[76.6076,30.12489],[76.6195,30.13682],[76.62734,30.14167],[76.63532,30.14535],[76.63968,30.15106],[76.63482,30.16626],[76.65137,30.18116],[76.65384,30.18521],[76.65411,30.18964],[76.6493,30.19292],[76.65107,30.20191],[76.64496,30.20599],[76.62889,30.20706],[76.62155,30.20878],[76.6164,30.21119],[76.61842,30.21603],[76.62403,30.22164],[76.62417,30.227],[76.6215,30.23092],[76.61162,30.23638],[76.6081,30.23999],[76.60252,30.25018],[76.5962,30.2526],[76.58807,30.25195],[76.58123,30.24743],[76.5598,30.23055],[76.55648,30.22697],[76.54463,30.22325],[76.54503,30.22821],[76.55434,30.2325],[76.55812,30.23966],[76.5591,30.24565],[76.558,30.25476],[76.55983,30.26105],[76.57012,30.26038],[76.59316,30.26596],[76.61673,30.26832],[76.62207,30.26666],[76.62663,30.27133],[76.63199,30.28391],[76.63512,30.28743],[76.63858,30.27998],[76.66361,30.29536],[76.67477,30.29556],[76.68544,30.30877],[76.68326,30.31519],[76.68703,30.32196],[76.69188,30.31738],[76.70087,30.32198],[76.71008,30.32084],[76.71268,30.32583],[76.71718,30.32767],[76.72339,30.32584],[76.72761,30.32888],[76.72759,30.33587],[76.73639,30.34033],[76.74147,30.34439],[76.74712,30.34989],[76.75102,30.35561],[76.74754,30.36089],[76.7429,30.36341],[76.72385,30.36113],[76.72143,30.36417],[76.7306,30.3731],[76.72825,30.37626],[76.7174,30.37684],[76.7142,30.38085],[76.71267,30.38963],[76.72544,30.39426],[76.73912,30.40101],[76.73777,30.41643],[76.75048,30.42088],[76.7615,30.42263],[76.76702,30.4288],[76.7699,30.43381],[76.77052,30.43487],[76.77599,30.43572],[76.77941,30.43198],[76.77696,30.42098],[76.78344,30.41426],[76.7933,30.41097],[76.80993,30.41104],[76.82111,30.40777],[76.83581,30.41845],[76.84061,30.42623],[76.84515,30.42977],[76.85241,30.41662],[76.85995,30.41077],[76.87742,30.40462],[76.88023,30.39735],[76.87889,30.39066],[76.88707,30.38709],[76.89288,30.38203],[76.89308,30.3788],[76.88833,30.36534],[76.88904,30.35914],[76.89283,30.35549],[76.89983,30.35416],[76.90488,30.35545],[76.91038,30.35837],[76.91612,30.36327],[76.92967,30.37852],[76.93347,30.38053],[76.93999,30.38439],[76.94297,30.38834],[76.94412,30.39282],[76.94177,30.39565],[76.93851,30.39735],[76.93218,30.3988],[76.92196,30.39905],[76.91789,30.40048],[76.91655,30.4025],[76.91663,30.40574],[76.91796,30.40899],[76.91643,30.41403],[76.91645,30.42068],[76.91443,30.42414],[76.90268,30.43252],[76.9016,30.43694],[76.90349,30.4469],[76.90798,30.45141],[76.91085,30.46362],[76.90947,30.47123],[76.90268,30.47518],[76.90175,30.48046],[76.90671,30.48551],[76.91399,30.48471],[76.92068,30.48664],[76.92523,30.48951],[76.92879,30.49527],[76.93018,30.49981],[76.93118,30.50307],[76.93324,30.51388],[76.93299,30.52053],[76.93299,30.52056],[76.92722,30.5224],[76.92018,30.52578],[76.91114,30.53058],[76.9007,30.53406],[76.89797,30.53633],[76.90513,30.54035],[76.91519,30.54695],[76.91891,30.55429],[76.91683,30.55763],[76.91187,30.55995],[76.91187,30.56264],[76.9169,30.57109],[76.91754,30.57648],[76.9116,30.58435],[76.92025,30.58734],[76.92649,30.59563],[76.92368,30.60177],[76.91459,30.60435],[76.91269,30.61599],[76.90762,30.6193],[76.89669,30.62308],[76.89373,30.62906],[76.89019,30.63302],[76.88575,30.63603],[76.88105,30.63766],[76.87505,30.63629],[76.87166,30.63665],[76.87208,30.64759],[76.875,30.65575],[76.87627,30.66755],[76.87539,30.67533],[76.86856,30.66925],[76.86298,30.66092],[76.85297,30.65285],[76.84788,30.65189],[76.84813,30.66018],[76.84317,30.66101],[76.84005,30.65941],[76.8372,30.65614],[76.83191,30.65668],[76.83148,30.66906],[76.83295,30.68195],[76.83084,30.68674],[76.83427,30.69289],[76.84147,30.70207],[76.84952,30.71038],[76.84759,30.72053],[76.83805,30.72696],[76.83599,30.73623],[76.84147,30.75996],[76.84411,30.76409],[76.86016,30.78869],[76.85471,30.79526],[76.84688,30.80077],[76.84674,30.81209],[76.84549,30.82164],[76.84117,30.82879],[76.83238,30.83333],[76.81996,30.83651],[76.81463,30.83878],[76.79839,30.85758],[76.78679,30.86748],[76.78249,30.87286],[76.77602,30.88977],[76.78337,30.90276],[76.81234,30.92098],[76.82377,30.92671],[76.82697,30.92364],[76.82794,30.91765],[76.82333,30.90311],[76.82927,30.89231],[76.83617,30.88438],[76.85065,30.87512]],[[77.11494,29.99079],[77.13122,29.98258],[77.11778,29.98936],[77.11494,29.99079]],[[76.49371,29.51599],[76.49282,29.51465],[76.50086,29.52665],[76.49371,29.51599]]]}}]}