{"type":"FeatureCollection","features":[{"type":"Feature","properties":{"id":"himachal-pradesh","name":"Himachal Pradesh","type":"state"},"geometry":{"type":"Polygon","coordinates":[[[76.79634,33.2549],[76.80351,33.25275],[76.81499,33.24034],[76.82081,33.23577],[76.82435,33.23533],[76.82723,33.24341],[76.83203,33.24655],[76.83537,33.2476],[76.84001,33.24746],[76.84643,33.24548],[76.84676,33.243],[76.84695,33.24163],[76.84126,33.23647],[76.83592,33.23022],[76.83107,33.2218],[76.82908,33.21453],[76.82908,33.21453],[76.82908,33.21453],[76.83517,33.21128],[76.83659,33.20462],[76.82127,33.1929],[76.82127,33.1929],[76.82171,33.19168],[76.82454,33.18376],[76.82313,33.18128],[76.81834,33.17682],[76.81605,33.17232],[76.81605,33.17232],[76.81717,33.16847],[76.81717,33.16847],[76.81717,33.16847],[76.81991,33.16504],[76.81933,33.16054],[76.81933,33.16054],[76.81933,33.16054],[76.82135,33.15468],[76.82738,33.14752],[76.83285,33.14513],[76.83512,33.14095],[76.84084,33.14023],[76.84705,33.13664],[76.84593,33.13059],[76.84593,33.13059],[76.85523,33.12528],[76.85194,33.11945],[76.85194,33.11944],[76.85194,33.11944],[76.857,33.11418],[76.86227,33.11115],[76.87039,33.11039],[76.87826,33.11521],[76.88655,33.11905],[76.89506,33.11305],[76.89506,33.11301],[76.89525,33.10602],[76.89525,33.10602],[76.89525,33.10602],[76.90259,33.09621],[76.91213,33.0939],[76.91281,33.09017],[76.90874,33.08335],[76.90855,33.0795],[76.90855,33.0795],[76.90855,33.0795],[76.91415,33.07453],[76.91428,33.07343],[76.91472,33.0697],[76.91472,33.0697],[76.91787,33.06283],[76.91787,33.06283],[76.92798,33.04887],[76.93105,33.04286],[76.93233,33.03746],[76.93233,33.03745],[76.93233,33.03745],[76.93522,33.03231],[76.93522,33.03231],[76.94185,33.02758],[76.95038,33.02705],[76.96604,33.01705],[76.97448,33.01527],[76.97982,33.01246],[76.97988,33.01232],[76.9814,33.00857],[76.98421,33.00572],[76.99851,32.99994],[77.00461,32.99437],[77.00914,32.99131],[77.0117,32.99074],[77.01614,32.98801],[77.02894,32.99167],[77.03762,32.99017],[77.04213,32.99537],[77.05304,32.99808],[77.07009,32.98926],[77.07618,32.98443],[77.08362,32.98387],[77.08937,32.97455],[77.09259,32.97165],[77.10188,32.97196],[77.11483,32.97586],[77.12089,32.98548],[77.13011,32.98239],[77.13781,32.98097],[77.14525,32.98209],[77.15413,32.97868],[77.15359,32.97267],[77.15201,32.9677],[77.15201,32.9677],[77.15326,32.96289],[77.15298,32.95914],[77.15298,32.95914],[77.15408,32.95595],[77.16383,32.95458],[77.16378,32.94092],[77.16378,32.94092],[77.16644,32.93953],[77.16623,32.93606],[77.16461,32.93253],[77.16461,32.93253],[77.16461,32.93253],[77.16688,32.92392],[77.16836,32.91835],[77.16381,32.91214],[77.16381,32.91214],[77.16381,32.91214],[77.17506,32.91134],[77.17806,32.91418],[77.1792,32.91922],[77.18137,32.92322],[77.18424,32.92617],[77.19152,32.92924],[77.19943,32.91353],[77.20659,32.90812],[77.22219,32.90439],[77.2356,32.89531],[77.23826,32.89485],[77.2459,32.89355],[77.24692,32.88477],[77.24507,32.88189],[77.24167,32.88067],[77.24167,32.88067],[77.24241,32.87799],[77.24541,32.87493],[77.25385,32.87024],[77.25562,32.86695],[77.25601,32.8651],[77.25644,32.86309],[77.25644,32.86309],[77.26515,32.86284],[77.27593,32.87428],[77.28769,32.86428],[77.29192,32.85764],[77.29885,32.85351],[77.30632,32.85047],[77.31552,32.85184],[77.32274,32.85187],[77.33006,32.84411],[77.32842,32.83546],[77.32842,32.83546],[77.32842,32.83546],[77.33406,32.82753],[77.33821,32.82587],[77.33855,32.8238],[77.33916,32.82015],[77.33916,32.82015],[77.33916,32.82015],[77.34541,32.81762],[77.3535,32.81665],[77.35799,32.81827],[77.36595,32.81892],[77.37405,32.82298],[77.37713,32.83589],[77.37946,32.84034],[77.38027,32.84434],[77.38027,32.84434],[77.37743,32.84936],[77.37635,32.85416],[77.37731,32.85734],[77.38071,32.86129],[77.38889,32.86517],[77.39708,32.8786],[77.40518,32.88328],[77.41315,32.88508],[77.41505,32.88474],[77.41688,32.88167],[77.42083,32.87919],[77.42784,32.87594],[77.43546,32.87692],[77.44343,32.88138],[77.44893,32.87351],[77.44951,32.87037],[77.44993,32.86813],[77.45387,32.86356],[77.46604,32.85933],[77.47291,32.85938],[77.49092,32.87643],[77.50232,32.88417],[77.5121,32.87913],[77.52401,32.88068],[77.52906,32.88304],[77.53736,32.88499],[77.5448,32.88987],[77.55314,32.89989],[77.56257,32.90934],[77.56735,32.91096],[77.5717,32.9107],[77.58754,32.91923],[77.59759,32.92927],[77.59889,32.93209],[77.59946,32.93682],[77.60185,32.94139],[77.60431,32.93748],[77.61136,32.93913],[77.62411,32.93998],[77.62866,32.93987],[77.6309,32.93897],[77.63521,32.94156],[77.64134,32.94209],[77.6565,32.9537],[77.66135,32.95539],[77.66789,32.95583],[77.67131,32.95694],[77.6744,32.9635],[77.67802,32.9665],[77.68113,32.97347],[77.68328,32.98359],[77.68895,32.98383],[77.69607,32.97826],[77.69755,32.97532],[77.70895,32.97694],[77.71309,32.97533],[77.71477,32.97085],[77.71795,32.96654],[77.72175,32.96361],[77.72638,32.96481],[77.73057,32.96929],[77.74121,32.96183],[77.7454,32.95499],[77.75447,32.9453],[77.76284,32.94329],[77.7652,32.93962],[77.76547,32.93797],[77.76566,32.93682],[77.77757,32.92479],[77.77757,32.92479],[77.79602,32.91312],[77.79973,32.90736],[77.80814,32.90274],[77.81047,32.89538],[77.80492,32.88899],[77.79069,32.88822],[77.78389,32.8776],[77.7793,32.86212],[77.7793,32.86212],[77.7793,32.86212],[77.78559,32.85575],[77.79366,32.85196],[77.79876,32.85136],[77.80561,32.84701],[77.80975,32.84651],[77.81687,32.84307],[77.82606,32.83323],[77.83218,32.83338],[77.83669,32.83572],[77.84296,32.83706],[77.84925,32.83222],[77.86546,32.82557],[77.8704,32.82233],[77.87282,32.81833],[77.87911,32.81329],[77.88166,32.80857],[77.88237,32.80362],[77.88237,32.80362],[77.88681,32.79747],[77.88477,32.78737],[77.88477,32.78737],[77.89004,32.78332],[77.89407,32.77708],[77.89866,32.77246],[77.90526,32.77231],[77.90865,32.77155],[77.91729,32.77236],[77.92127,32.76993],[77.9267,32.76913],[77.93006,32.76418],[77.93291,32.76308],[77.93466,32.75974],[77.93541,32.75549],[77.93569,32.75391],[77.93491,32.74886],[77.93212,32.74153],[77.93212,32.74153],[77.93203,32.73876],[77.92955,32.73348],[77.92955,32.73348],[77.92955,32.73348],[77.93333,32.73067],[77.93616,32.72776],[77.92973,32.72272],[77.92712,32.71835],[77.92614,32.71335],[77.92392,32.7093],[77.92392,32.7093],[77.92332,32.70053],[77.92002,32.69535],[77.92086,32.69002],[77.92086,32.69002],[77.92086,32.69002],[77.92858,32.68509],[77.93782,32.67641],[77.94379,32.66369],[77.94472,32.65948],[77.94472,32.65948],[77.94985,32.65306],[77.95647,32.64487],[77.96402,32.63955],[77.97019,32.63722],[77.97262,32.63163],[77.97176,32.62276],[77.97176,32.62276],[77.97698,32.61753],[77.97707,32.6173],[77.97973,32.61057],[77.98534,32.60474],[77.99243,32.59311],[77.99416,32.58868],[78.00001,32.58325],[78.0045,32.58492],[78.03491,32.58373],[78.04492,32.58533],[78.05328,32.58864],[78.05913,32.59593],[78.05913,32.59593],[78.059,32.602],[78.059,32.602],[78.059,32.602],[78.05429,32.60757],[78.05197,32.61236],[78.05001,32.62512],[78.05001,32.62512],[78.05031,32.63049],[78.05147,32.63235],[78.06167,32.62555],[78.07659,32.62129],[78.0829,32.62098],[78.08503,32.62231],[78.09057,32.64111],[78.09662,32.6495],[78.10617,32.65655],[78.11104,32.65886],[78.11693,32.65668],[78.12465,32.64643],[78.1338,32.63909],[78.13914,32.63901],[78.14431,32.64577],[78.14833,32.65674],[78.15372,32.66701],[78.16217,32.67329],[78.17026,32.67571],[78.17616,32.6758],[78.18823,32.67388],[78.19725,32.66706],[78.20167,32.6605],[78.21272,32.66396],[78.21937,32.66182],[78.23069,32.66581],[78.24273,32.67218],[78.25105,32.68032],[78.25439,32.6913],[78.27693,32.69955],[78.29058,32.69954],[78.30274,32.70339],[78.31361,32.70942],[78.31646,32.71635],[78.31646,32.71635],[78.31601,32.72144],[78.31601,32.72144],[78.31255,32.72824],[78.30558,32.73447],[78.33191,32.74562],[78.36275,32.76005],[78.3823,32.75959],[78.38936,32.75844],[78.3908,32.75675],[78.38872,32.74243],[78.38872,32.74243],[78.38876,32.74121],[78.38918,32.73027],[78.38918,32.73027],[78.38973,32.72863],[78.39288,32.71921],[78.39575,32.71586],[78.38547,32.69605],[78.38154,32.68205],[78.38154,32.68205],[78.38098,32.6685],[78.38871,32.63461],[78.38871,32.63461],[78.39366,32.62605],[78.40657,32.61966],[78.40657,32.61966],[78.39479,32.61131],[78.35829,32.58949],[78.3494,32.5813],[78.33561,32.57664],[78.31998,32.57514],[78.31423,32.57395],[78.3167,32.52566],[78.31255,32.51884],[78.29598,32.50432],[78.29598,32.50432],[78.29598,32.50432],[78.32366,32.47407],[78.32782,32.47225],[78.37388,32.50899],[78.39423,32.52237],[78.39998,32.52597],[78.39998,32.52597],[78.41194,32.52485],[78.41547,32.52338],[78.41661,32.52268],[78.4178,32.51999],[78.41895,32.51446],[78.4228,32.51141],[78.42276,32.51052],[78.42647,32.50901],[78.4267,32.50831],[78.43251,32.50728],[78.4432,32.50831],[78.44925,32.50655],[78.45315,32.50401],[78.45391,32.50332],[78.45594,32.50161],[78.45753,32.49945],[78.45818,32.49679],[78.46105,32.49555],[78.46256,32.49415],[78.46515,32.48865],[78.46624,32.48638],[78.4662,32.48546],[78.46585,32.48343],[78.46547,32.48259],[78.46326,32.47831],[78.45908,32.47392],[78.4548,32.46728],[78.45325,32.46228],[78.45289,32.45878],[78.45406,32.45557],[78.45458,32.45533],[78.45454,32.45421],[78.45558,32.45326],[78.45555,32.45259],[78.45894,32.45091],[78.4606,32.45051],[78.46344,32.44971],[78.47218,32.44673],[78.47943,32.44417],[78.48356,32.44133],[78.48425,32.43927],[78.48506,32.43902],[78.48559,32.439],[78.48557,32.43854],[78.48611,32.43829],[78.48828,32.4335],[78.48879,32.43328],[78.48932,32.43303],[78.49042,32.42907],[78.491,32.42869],[78.49228,32.42729],[78.49251,32.42637],[78.49406,32.42519],[78.49398,32.42362],[78.4953,32.42288],[78.49553,32.42199],[78.50107,32.42115],[78.50474,32.4214],[78.52002,32.42234],[78.52893,32.41982],[78.53186,32.41805],[78.53617,32.41461],[78.53462,32.40925],[78.53406,32.4086],[78.52236,32.39903],[78.52124,32.39793],[78.51946,32.39661],[78.51908,32.39616],[78.51499,32.39134],[78.51321,32.38687],[78.5113,32.37339],[78.50902,32.36937],[78.50233,32.36377],[78.50133,32.36293],[78.50021,32.36195],[78.48525,32.35407],[78.48186,32.34923],[78.48131,32.3483],[78.48012,32.34564],[78.47853,32.33902],[78.47791,32.33328],[78.47845,32.33306],[78.48184,32.31668],[78.4825,32.30833],[78.48412,32.2879],[78.48328,32.28002],[78.48142,32.27378],[78.47982,32.27212],[78.47623,32.2667],[78.47552,32.26514],[78.47357,32.26384],[78.47105,32.26006],[78.46998,32.25964],[78.46791,32.25788],[78.46759,32.25741],[78.46541,32.25422],[78.46424,32.25311],[78.4625,32.25174],[78.46208,32.25134],[78.45872,32.24782],[78.45794,32.24761],[78.45645,32.24426],[78.45625,32.24245],[78.46377,32.24178],[78.46495,32.24166],[78.47611,32.24141],[78.47718,32.24115],[78.48117,32.24192],[78.4999,32.23907],[78.5186,32.24166],[78.52295,32.24377],[78.53097,32.24536],[78.53731,32.24606],[78.53784,32.24611],[78.54083,32.24638],[78.55278,32.24574],[78.5565,32.24589],[78.56015,32.24465],[78.57931,32.23321],[78.59099,32.2272],[78.60996,32.21452],[78.61046,32.21359],[78.61135,32.21298],[78.61214,32.21253],[78.6122,32.21161],[78.61216,32.20732],[78.60815,32.19978],[78.6075,32.19346],[78.60827,32.19321],[78.61119,32.1843],[78.61068,32.17823],[78.60924,32.17577],[78.60647,32.16976],[78.60572,32.16731],[78.60227,32.16475],[78.60106,32.16429],[78.59495,32.16133],[78.5948,32.16088],[78.59423,32.16087],[78.5915,32.15735],[78.59124,32.15443],[78.5916,32.15352],[78.59265,32.15349],[78.59314,32.15235],[78.59662,32.15027],[78.60521,32.14315],[78.60569,32.14178],[78.60645,32.14132],[78.60685,32.13814],[78.60813,32.13695],[78.60939,32.13579],[78.6111,32.13144],[78.61137,32.12765],[78.61321,32.11916],[78.61401,32.1187],[78.6142,32.11778],[78.61615,32.11665],[78.61635,32.1161],[78.62306,32.11323],[78.62701,32.11353],[78.63279,32.11154],[78.63331,32.11175],[78.63397,32.11195],[78.64548,32.11067],[78.65647,32.10784],[78.66474,32.10284],[78.66525,32.10214],[78.66585,32.101],[78.66651,32.09441],[78.66791,32.08905],[78.66924,32.08394],[78.67354,32.07951],[78.67422,32.077],[78.67479,32.07656],[78.67658,32.07515],[78.67665,32.07468],[78.67761,32.07395],[78.6912,32.06494],[78.69758,32.0595],[78.69811,32.05907],[78.69884,32.05788],[78.69935,32.05653],[78.70161,32.05421],[78.70289,32.05327],[78.7044,32.049],[78.70493,32.04876],[78.70561,32.04821],[78.70618,32.0466],[78.70686,32.04136],[78.7102,32.03877],[78.71072,32.03832],[78.71068,32.03741],[78.71225,32.03692],[78.71269,32.03553],[78.71374,32.03483],[78.71423,32.03436],[78.72195,32.02931],[78.72217,32.02868],[78.72868,32.02486],[78.73365,32.02084],[78.73388,32.02019],[78.73932,32.016],[78.73957,32.01535],[78.74221,32.0131],[78.74267,32.01185],[78.74361,32.00878],[78.74438,32.00853],[78.74566,32.0076],[78.74589,32.00667],[78.74641,32.00645],[78.74689,32.00508],[78.74686,32.00439],[78.74788,32.0039],[78.74813,32.00322],[78.75378,31.99964],[78.75619,32.00001],[78.76726,31.99919],[78.76985,31.99858],[78.77727,31.99677],[78.7851,31.99543],[78.78667,31.99493],[78.78775,31.99535],[78.78772,31.99195],[78.7873,31.99048],[78.78709,31.99004],[78.78588,31.98685],[78.7777,31.9593],[78.77412,31.95017],[78.76918,31.93507],[78.76685,31.93014],[78.76196,31.92052],[78.75682,31.91546],[78.75608,31.91528],[78.75404,31.91287],[78.75251,31.91153],[78.75175,31.91133],[78.75145,31.91061],[78.75108,31.91025],[78.74928,31.9085],[78.74887,31.90511],[78.74779,31.90437],[78.74668,31.90363],[78.74596,31.90206],[78.74579,31.90118],[78.74756,31.89977],[78.7479,31.89839],[78.7481,31.89364],[78.74486,31.88548],[78.74414,31.88494],[78.74368,31.8841],[78.74124,31.88046],[78.74082,31.87942],[78.74057,31.87873],[78.74022,31.87696],[78.74048,31.87061],[78.73979,31.8424],[78.73831,31.83341],[78.73817,31.83275],[78.7369,31.83075],[78.73608,31.83034],[78.73473,31.82967],[78.72016,31.82225],[78.71839,31.82118],[78.71785,31.8212],[78.7177,31.82075],[78.71731,31.81988],[78.71677,31.8199],[78.711,31.8126],[78.7093,31.80972],[78.70875,31.80805],[78.70712,31.80213],[78.70762,31.78875],[78.70949,31.78192],[78.71012,31.78132],[78.71056,31.77913],[78.71252,31.77415],[78.71709,31.76992],[78.7181,31.769],[78.71956,31.76578],[78.73181,31.76226],[78.73807,31.76042],[78.74091,31.7592],[78.74026,31.75539],[78.73312,31.74909],[78.73136,31.74567],[78.73038,31.74458],[78.72796,31.7402],[78.72753,31.73659],[78.72806,31.73637],[78.72858,31.73612],[78.72878,31.7343],[78.72953,31.73384],[78.73029,31.73336],[78.7305,31.73198],[78.73464,31.72982],[78.73626,31.72729],[78.73679,31.72727],[78.73763,31.72565],[78.74183,31.7131],[78.74473,31.69765],[78.74807,31.693],[78.74936,31.69125],[78.7505,31.68727],[78.75126,31.68681],[78.75139,31.68622],[78.75218,31.68574],[78.75607,31.68332],[78.76363,31.68036],[78.76454,31.68042],[78.766,31.67999],[78.76972,31.68032],[78.77075,31.68006],[78.78092,31.68143],[78.78751,31.68313],[78.78928,31.68367],[78.79578,31.68511],[78.79634,31.68282],[78.79686,31.6679],[78.80031,31.65649],[78.80212,31.65506],[78.80259,31.65368],[78.8028,31.65278],[78.80358,31.6523],[78.80533,31.64999],[78.80841,31.64743],[78.80914,31.64635],[78.81065,31.64554],[78.81063,31.64509],[78.81141,31.64437],[78.82497,31.63511],[78.83274,31.63168],[78.83592,31.62898],[78.8401,31.62558],[78.84087,31.62454],[78.84292,31.62317],[78.84326,31.62249],[78.84367,31.62176],[78.84363,31.62087],[78.84435,31.62025],[78.84666,31.61563],[78.8472,31.61505],[78.8471,31.61042],[78.84356,31.60239],[78.84046,31.59797],[78.83978,31.59756],[78.83879,31.59578],[78.8349,31.5927],[78.83394,31.59137],[78.83098,31.58881],[78.82992,31.58842],[78.82893,31.58732],[78.82821,31.58599],[78.82694,31.58422],[78.82623,31.58355],[78.82543,31.58335],[78.82513,31.58262],[78.82107,31.5784],[78.8132,31.57131],[78.80728,31.56881],[78.80067,31.56655],[78.78401,31.5609],[78.78398,31.56021],[78.77963,31.55731],[78.77707,31.55266],[78.77346,31.54871],[78.76587,31.54399],[78.76243,31.54288],[78.74592,31.53942],[78.73707,31.53611],[78.73497,31.53191],[78.73296,31.52562],[78.73224,31.52509],[78.73144,31.52491],[78.73113,31.52424],[78.72449,31.51913],[78.72254,31.51625],[78.72243,31.51355],[78.72384,31.5101],[78.73091,31.50287],[78.73182,31.49901],[78.73177,31.48229],[78.73231,31.48],[78.7349,31.47924],[78.73947,31.48115],[78.75991,31.48544],[78.76254,31.48558],[78.7639,31.486],[78.76469,31.48574],[78.76723,31.48405],[78.77031,31.47582],[78.77619,31.47157],[78.77694,31.47085],[78.7769,31.46996],[78.78129,31.46752],[78.78184,31.46722],[78.78207,31.46653],[78.78389,31.46603],[78.78719,31.46422],[78.78875,31.46259],[78.78989,31.46129],[78.79481,31.45808],[78.79589,31.45704],[78.80817,31.45042],[78.81118,31.44782],[78.81263,31.44414],[78.81296,31.43963],[78.81168,31.43469],[78.81129,31.42568],[78.8081,31.41289],[78.80536,31.4105],[78.7992,31.40799],[78.79744,31.40693],[78.79728,31.40602],[78.79675,31.40557],[78.79208,31.40169],[78.79163,31.39741],[78.79202,31.39626],[78.79343,31.39646],[78.79761,31.3954],[78.81009,31.39156],[78.81732,31.38885],[78.82356,31.38731],[78.82689,31.38582],[78.83231,31.38341],[78.83662,31.37918],[78.83659,31.37829],[78.84226,31.37605],[78.8428,31.37627],[78.8457,31.37052],[78.84979,31.36745],[78.85034,31.36614],[78.85031,31.36545],[78.85134,31.36437],[78.85312,31.35941],[78.85362,31.35919],[78.85583,31.34941],[78.85567,31.34556],[78.85328,31.33999],[78.84724,31.33388],[78.8442,31.32741],[78.8445,31.32516],[78.84894,31.32407],[78.85053,31.32424],[78.85336,31.32371],[78.85417,31.32335],[78.85558,31.32265],[78.86104,31.31911],[78.86386,31.31728],[78.86484,31.31589],[78.86611,31.31495],[78.86607,31.31404],[78.86711,31.31334],[78.8676,31.31286],[78.86887,31.31192],[78.86883,31.311],[78.86936,31.31099],[78.8737,31.3079],[78.87628,31.3032],[78.87681,31.30318],[78.87689,31.30258],[78.87967,31.30024],[78.88008,31.29924],[78.88014,31.29864],[78.88291,31.2963],[78.88548,31.28627],[78.88601,31.28602],[78.88645,31.28442],[78.88697,31.28417],[78.89374,31.26777],[78.89427,31.26752],[78.89495,31.26561],[78.90035,31.26168],[78.90082,31.26134],[78.90495,31.26005],[78.92227,31.25406],[78.92123,31.24505],[78.92526,31.22875],[78.93099,31.22001],[78.93495,31.21792],[78.95048,31.21719],[78.9504,31.21402],[78.94856,31.20938],[78.95116,31.20051],[78.95699,31.19561],[78.96016,31.19175],[78.96149,31.18837],[78.96813,31.18461],[78.9762,31.18123],[78.98145,31.18079],[78.98372,31.17826],[78.98716,31.17716],[78.98993,31.17289],[78.99274,31.16494],[78.99292,31.1496],[78.99102,31.14548],[78.9933,31.14043],[79.00002,31.1357],[79.00228,31.13536],[79.0044,31.13211],[79.00597,31.12563],[79.01187,31.11233],[79.01189,31.11092],[79.01176,31.11008],[79.00597,31.11183],[79.00002,31.11121],[78.9808,31.11012],[78.97097,31.10564],[78.96759,31.10316],[78.95725,31.09978],[78.95266,31.10009],[78.9477,31.10173],[78.93559,31.10235],[78.9278,31.11095],[78.92294,31.11109],[78.91891,31.11023],[78.91571,31.10683],[78.91454,31.10236],[78.91191,31.1004],[78.90586,31.10085],[78.89928,31.099],[78.89515,31.09861],[78.88649,31.10209],[78.87735,31.10719],[78.86714,31.121],[78.85945,31.12285],[78.85291,31.12549],[78.84411,31.13117],[78.83987,31.13837],[78.83388,31.14204],[78.83103,31.14876],[78.82538,31.1587],[78.8269,31.16426],[78.81569,31.17312],[78.81278,31.17737],[78.81325,31.18381],[78.81636,31.18877],[78.81841,31.1941],[78.81541,31.19725],[78.81027,31.19992],[78.80406,31.19933],[78.7861,31.19218],[78.77981,31.19079],[78.77278,31.18957],[78.76465,31.18924],[78.73556,31.19192],[78.72821,31.19157],[78.72265,31.18987],[78.71588,31.1913],[78.71074,31.1912],[78.69127,31.19811],[78.68093,31.1974],[78.67501,31.19818],[78.66584,31.19279],[78.66285,31.18961],[78.66066,31.19747],[78.65317,31.20334],[78.6512,31.21454],[78.64964,31.21686],[78.6435,31.21689],[78.6323,31.22022],[78.62848,31.22241],[78.62526,31.22603],[78.61581,31.23084],[78.61056,31.23138],[78.59911,31.2293],[78.59459,31.23],[78.58176,31.22875],[78.57707,31.22461],[78.5715,31.22239],[78.5654,31.2135],[78.55223,31.20171],[78.52925,31.19893],[78.50166,31.1992],[78.49207,31.20013],[78.48518,31.19879],[78.48232,31.20689],[78.48168,31.216],[78.47234,31.22287],[78.45928,31.23928],[78.44684,31.24469],[78.44221,31.25108],[78.43461,31.25498],[78.42952,31.24601],[78.4202,31.24377],[78.41265,31.2429],[78.40647,31.2481],[78.40823,31.2574],[78.40135,31.26476],[78.39843,31.26945],[78.39654,31.27662],[78.38864,31.27436],[78.38443,31.28306],[78.37853,31.28526],[78.37147,31.28604],[78.36264,31.2853],[78.35126,31.28267],[78.3418,31.28343],[78.33207,31.28027],[78.32147,31.28144],[78.31351,31.28343],[78.31195,31.27967],[78.31063,31.26805],[78.30852,31.26122],[78.30355,31.25937],[78.29325,31.26185],[78.28412,31.26657],[78.27321,31.25557],[78.27001,31.25181],[78.26829,31.24808],[78.26478,31.24576],[78.26325,31.24186],[78.25767,31.23857],[78.25253,31.23915],[78.25267,31.235],[78.24761,31.23022],[78.23346,31.23394],[78.22712,31.23377],[78.22183,31.23245],[78.21898,31.22931],[78.21525,31.22094],[78.20781,31.21813],[78.20253,31.21744],[78.19988,31.21856],[78.19145,31.22527],[78.1864,31.22705],[78.18079,31.22631],[78.1754,31.22717],[78.17038,31.22555],[78.16279,31.22684],[78.16079,31.22214],[78.15856,31.21934],[78.15207,31.21768],[78.14983,31.21137],[78.13407,31.20931],[78.12869,31.20151],[78.12474,31.20093],[78.12176,31.19776],[78.11566,31.19506],[78.10722,31.1881],[78.10259,31.18608],[78.09492,31.18599],[78.09034,31.18818],[78.07399,31.18766],[78.06866,31.18822],[78.0545,31.18282],[78.05358,31.18245],[78.04475,31.18061],[78.04169,31.17549],[78.03099,31.16682],[78.03005,31.16145],[78.03129,31.1538],[78.02899,31.15023],[78.02247,31.15239],[78.00732,31.16235],[77.99998,31.16334],[77.99372,31.16177],[77.98411,31.16049],[77.96951,31.17414],[77.96077,31.17153],[77.95598,31.16653],[77.95395,31.16266],[77.94915,31.16266],[77.92939,31.15196],[77.9241,31.15088],[77.91688,31.15421],[77.90747,31.15266],[77.90217,31.15009],[77.90436,31.14436],[77.9004,31.13846],[77.89505,31.13282],[77.89369,31.12697],[77.89332,31.12004],[77.88739,31.11859],[77.87246,31.11163],[77.86611,31.10636],[77.86471,31.09958],[77.86493,31.09055],[77.85736,31.07667],[77.85197,31.07288],[77.84553,31.07241],[77.83921,31.06981],[77.83402,31.06029],[77.82917,31.05629],[77.82393,31.05511],[77.82409,31.05675],[77.82136,31.05772],[77.81507,31.05748],[77.81936,31.05416],[77.81948,31.04947],[77.82511,31.03896],[77.82953,31.02929],[77.83322,31.02766],[77.83601,31.02527],[77.83545,31.01642],[77.83324,31.01113],[77.83709,31.00713],[77.8397,31.00346],[77.83908,31.00052],[77.82441,31.00055],[77.82464,30.99747],[77.82795,30.99425],[77.82525,30.99071],[77.82188,30.98917],[77.82053,30.98339],[77.82079,30.98036],[77.82054,30.97881],[77.81955,30.97697],[77.81751,30.97504],[77.81303,30.97144],[77.81158,30.96829],[77.81071,30.96514],[77.81169,30.96308],[77.81587,30.95888],[77.8189,30.95629],[77.82753,30.95776],[77.83069,30.95729],[77.8332,30.95539],[77.8336,30.95213],[77.83142,30.94887],[77.82687,30.94809],[77.8218,30.94901],[77.81653,30.9504],[77.81086,30.95374],[77.8019,30.96105],[77.79266,30.96766],[77.78522,30.971],[77.77816,30.97235],[77.7682,30.9722],[77.75622,30.96301],[77.75058,30.95895],[77.7488,30.95495],[77.74749,30.94487],[77.74908,30.93937],[77.75087,30.93495],[77.75344,30.93202],[77.75778,30.93057],[77.76069,30.92931],[77.76155,30.92404],[77.75977,30.91763],[77.76637,30.91629],[77.77243,30.91569],[77.77736,30.91546],[77.78144,30.91579],[77.78579,30.91951],[77.78869,30.92064],[77.79606,30.92153],[77.80295,30.92157],[77.80523,30.92142],[77.80757,30.92127],[77.80982,30.91909],[77.80917,30.91571],[77.81161,30.91204],[77.81504,30.90801],[77.81313,30.90407],[77.80879,30.89876],[77.80504,30.89595],[77.80056,30.89132],[77.79958,30.88864],[77.79858,30.88365],[77.79826,30.87742],[77.79775,30.87392],[77.79761,30.86733],[77.80116,30.86337],[77.80302,30.86021],[77.80347,30.85379],[77.79262,30.85526],[77.78768,30.8563],[77.78307,30.85821],[77.77925,30.86045],[77.77688,30.86344],[77.77589,30.87038],[77.77437,30.87313],[77.77232,30.87577],[77.76864,30.87773],[77.76515,30.87802],[77.76186,30.87757],[77.75863,30.87649],[77.75587,30.87358],[77.75495,30.86962],[77.75509,30.86521],[77.75576,30.85949],[77.75365,30.85548],[77.74977,30.85234],[77.74741,30.84948],[77.7455,30.84605],[77.74742,30.84278],[77.75492,30.83542],[77.75808,30.83152],[77.75842,30.8251],[77.7544,30.82293],[77.75144,30.82157],[77.74803,30.81934],[77.74488,30.81466],[77.74054,30.80968],[77.73804,30.80631],[77.73337,30.80357],[77.732,30.80037],[77.73103,30.79476],[77.72932,30.78949],[77.72256,30.77977],[77.71842,30.77427],[77.71231,30.76868],[77.70653,30.76668],[77.70217,30.76394],[77.70533,30.75552],[77.70685,30.75311],[77.7056,30.7503],[77.70423,30.74658],[77.70542,30.74354],[77.70779,30.74142],[77.71153,30.74021],[77.71456,30.74021],[77.71817,30.74094],[77.72107,30.74076],[77.72311,30.73938],[77.72548,30.73731],[77.72673,30.73467],[77.72917,30.73347],[77.73146,30.73409],[77.73416,30.73345],[77.73554,30.73156],[77.73633,30.72857],[77.73601,30.72583],[77.73903,30.72256],[77.74449,30.71967],[77.74608,30.71589],[77.74812,30.71188],[77.75108,30.70866],[77.75489,30.70584],[77.75418,30.70229],[77.75069,30.70019],[77.74952,30.69675],[77.74735,30.69263],[77.74715,30.68867],[77.74717,30.68101],[77.75032,30.67802],[77.7565,30.67571],[77.76162,30.67329],[77.76793,30.67121],[77.77253,30.66753],[77.77668,30.66357],[77.77963,30.66041],[77.78325,30.65931],[77.78594,30.66051],[77.78797,30.66079],[77.7908,30.66072],[77.79277,30.65888],[77.78864,30.65356],[77.78397,30.65026],[77.782,30.6466],[77.78585,30.64008],[77.78867,30.63623],[77.78914,30.63257],[77.786,30.62748],[77.78495,30.62358],[77.79013,30.62122],[77.79329,30.61777],[77.79565,30.61444],[77.7923,30.61297],[77.78588,30.61292],[77.78075,30.61328],[77.77497,30.61456],[77.77025,30.61542],[77.76926,30.6113],[77.77085,30.5999],[77.76803,30.59584],[77.76331,30.59647],[77.75608,30.60228],[77.75194,30.60321],[77.7484,30.60327],[77.74571,30.60225],[77.74519,30.5999],[77.74486,30.59663],[77.7431,30.59349],[77.74552,30.5913],[77.75222,30.58797],[77.75721,30.58486],[77.75978,30.57952],[77.76306,30.57505],[77.76543,30.56966],[77.76708,30.5653],[77.77082,30.56065],[77.77541,30.55806],[77.78007,30.55857],[77.78446,30.55746],[77.78815,30.55395],[77.79181,30.55241],[77.79995,30.55645],[77.80415,30.55529],[77.80874,30.55619],[77.81182,30.55916],[77.81681,30.55881],[77.81944,30.55577],[77.82043,30.54928],[77.82036,30.54436],[77.8235,30.53902],[77.82573,30.53305],[77.82417,30.52818],[77.81853,30.51978],[77.81762,30.51537],[77.81545,30.51038],[77.81405,30.50816],[77.81266,30.50639],[77.80735,30.5036],[77.80165,30.5011],[77.78107,30.49938],[77.77687,30.49527],[77.76848,30.49335],[77.76095,30.48907],[77.75,30.48229],[77.74267,30.47738],[77.73481,30.47281],[77.72459,30.47232],[77.71803,30.46844],[77.71253,30.46375],[77.70342,30.45799],[77.69551,30.45274],[77.69238,30.44679],[77.67489,30.44384],[77.6665,30.44461],[77.65994,30.44755],[77.65352,30.44744],[77.6511,30.44458],[77.64895,30.43943],[77.6466,30.43485],[77.64379,30.43124],[77.62996,30.43133],[77.62525,30.43351],[77.61699,30.43255],[77.60364,30.4289],[77.59428,30.42542],[77.58781,30.42165],[77.58107,30.41685],[77.57604,30.41221],[77.5754,30.40517],[77.5762,30.39961],[77.581,30.39388],[77.58606,30.3882],[77.58928,30.38499],[77.58801,30.37962],[77.57845,30.37999],[77.57104,30.38548],[77.56559,30.38849],[77.55601,30.39236],[77.55187,30.39705],[77.54877,30.40421],[77.5424,30.40866],[77.53892,30.4123],[77.53121,30.42606],[77.52753,30.43461],[77.52304,30.44402],[77.51852,30.44356],[77.51433,30.43888],[77.50608,30.42825],[77.50432,30.42018],[77.50447,30.41255],[77.49996,30.40781],[77.49568,30.41041],[77.49063,30.40856],[77.48106,30.407],[77.47406,30.40059],[77.46619,30.40002],[77.45609,30.39983],[77.44802,30.39892],[77.44347,30.40272],[77.4295,30.40364],[77.42896,30.40808],[77.43401,30.41208],[77.43879,30.41526],[77.45282,30.41965],[77.45517,30.42514],[77.46649,30.4356],[77.46745,30.44131],[77.46994,30.44679],[77.46946,30.45344],[77.46373,30.46049],[77.45888,30.46095],[77.44874,30.44628],[77.43932,30.43639],[77.43035,30.42912],[77.42072,30.42316],[77.41366,30.41403],[77.40853,30.41623],[77.40989,30.42576],[77.40719,30.42957],[77.39495,30.43458],[77.39349,30.44145],[77.3893,30.44157],[77.38273,30.44116],[77.36988,30.43739],[77.36657,30.44391],[77.3628,30.45263],[77.35917,30.45725],[77.35248,30.45897],[77.34578,30.4596],[77.33935,30.45856],[77.33548,30.45751],[77.32985,30.453],[77.32376,30.449],[77.32322,30.44917],[77.31377,30.452],[77.30681,30.45453],[77.29551,30.45734],[77.28762,30.45947],[77.27664,30.46211],[77.27499,30.46649],[77.27391,30.47157],[77.26968,30.47688],[77.26488,30.47988],[77.25496,30.48084],[77.24654,30.48296],[77.23983,30.48411],[77.23191,30.48149],[77.22496,30.47738],[77.21565,30.47585],[77.21208,30.48006],[77.21337,30.48457],[77.21266,30.49467],[77.21276,30.50213],[77.20898,30.50732],[77.20394,30.51488],[77.19846,30.52144],[77.18765,30.5261],[77.18265,30.52846],[77.1768,30.52971],[77.16515,30.53251],[77.15865,30.53342],[77.15068,30.53421],[77.14418,30.53714],[77.13545,30.54387],[77.12962,30.5531],[77.12683,30.55811],[77.12462,30.56297],[77.12601,30.56392],[77.12829,30.56552],[77.13373,30.56686],[77.13695,30.56836],[77.137,30.56839],[77.13904,30.56936],[77.14585,30.57412],[77.15305,30.57886],[77.16012,30.58461],[77.16443,30.58849],[77.16731,30.59196],[77.17071,30.5952],[77.17187,30.59879],[77.17172,30.60312],[77.17188,30.60947],[77.17315,30.62715],[77.17567,30.63433],[77.17375,30.63807],[77.16951,30.6436],[77.16604,30.64989],[77.16596,30.65446],[77.16854,30.66376],[77.16723,30.67265],[77.16405,30.67692],[77.16357,30.68027],[77.16689,30.68444],[77.16512,30.68623],[77.16082,30.68922],[77.15376,30.69331],[77.14722,30.69792],[77.1385,30.70286],[77.13564,30.70793],[77.13087,30.7137],[77.123,30.71846],[77.11657,30.71625],[77.11332,30.71809],[77.11363,30.7222],[77.11577,30.72659],[77.11399,30.7282],[77.10955,30.73045],[77.10455,30.73204],[77.09971,30.73578],[77.09026,30.74061],[77.08314,30.74284],[77.07512,30.742],[77.06839,30.74262],[77.06048,30.74455],[77.05142,30.74903],[77.04712,30.75133],[77.04373,30.74767],[77.04377,30.74225],[77.04169,30.73935],[77.03742,30.73753],[77.03144,30.73637],[77.02647,30.73814],[77.02276,30.74164],[77.01984,30.74545],[77.01809,30.74844],[77.01806,30.75329],[77.01922,30.75769],[77.01788,30.76231],[77.01582,30.76392],[77.01224,30.76511],[77.00867,30.76701],[77.00464,30.76942],[77.00204,30.77305],[77.00439,30.77664],[77.00831,30.78104],[77.01348,30.78499],[77.01318,30.78996],[77.01382,30.79361],[77.01323,30.80088],[77.01202,30.80573],[77.01146,30.81029],[77.00934,30.81271],[77.00617,30.81431],[77.00194,30.81101],[77.00002,30.80926],[76.99825,30.80648],[76.9961,30.80031],[76.99254,30.79481],[76.98211,30.80399],[76.97528,30.80503],[76.96722,30.80726],[76.96114,30.81924],[76.95632,30.82528],[76.94719,30.82805],[76.941,30.83345],[76.9413,30.84426],[76.94013,30.85057],[76.92938,30.86547],[76.92064,30.88717],[76.91575,30.89342],[76.90011,30.88449],[76.89213,30.88219],[76.88317,30.87437],[76.8753,30.86977],[76.86594,30.86691],[76.85065,30.87512],[76.83617,30.88438],[76.82927,30.89231],[76.82333,30.90311],[76.82794,30.91765],[76.82697,30.92364],[76.82377,30.92671],[76.81234,30.92098],[76.78337,30.90276],[76.76736,30.91421],[76.76764,30.91935],[76.76221,30.92021],[76.76216,30.92557],[76.75736,30.92546],[76.75192,30.92649],[76.73956,30.93578],[76.73903,30.93897],[76.73875,30.94063],[76.73768,30.94705],[76.72617,30.9599],[76.71865,30.9598],[76.71195,30.9654],[76.70973,30.96831],[76.70781,30.96901],[76.68175,30.96643],[76.67618,30.96769],[76.66663,30.9784],[76.64692,30.98734],[76.63949,30.98914],[76.63453,30.99495],[76.62599,30.99872],[76.62364,31.00091],[76.62721,31.01867],[76.61882,31.03022],[76.61516,31.04028],[76.61263,31.05028],[76.62321,31.05739],[76.61861,31.07513],[76.62155,31.08025],[76.6256,31.09314],[76.63952,31.10699],[76.6375,31.11477],[76.62938,31.11835],[76.62109,31.11642],[76.61124,31.123],[76.60311,31.12452],[76.60776,31.13332],[76.61259,31.148],[76.60851,31.14817],[76.60393,31.15412],[76.60534,31.15717],[76.6033,31.16161],[76.60635,31.16915],[76.60429,31.17973],[76.61221,31.18334],[76.61458,31.1879],[76.6197,31.19398],[76.62615,31.1995],[76.63265,31.20075],[76.63408,31.20351],[76.6494,31.20982],[76.64813,31.21218],[76.63851,31.2179],[76.63995,31.22395],[76.63026,31.22632],[76.60072,31.21296],[76.59456,31.21326],[76.59331,31.21741],[76.58993,31.22272],[76.59651,31.22788],[76.5987,31.23658],[76.6067,31.24308],[76.61564,31.24783],[76.58457,31.27714],[76.56627,31.26186],[76.55993,31.25288],[76.54893,31.25238],[76.54665,31.26355],[76.54882,31.26937],[76.55121,31.281],[76.54526,31.2806],[76.5419,31.26701],[76.53209,31.25937],[76.52828,31.26156],[76.53062,31.27446],[76.5283,31.28016],[76.52494,31.2797],[76.51741,31.27498],[76.51224,31.27038],[76.50259,31.27051],[76.49721,31.2814],[76.49374,31.28624],[76.48967,31.28935],[76.48909,31.29615],[76.48651,31.30387],[76.48075,31.30738],[76.47612,31.304],[76.46502,31.2934],[76.45976,31.2869],[76.44513,31.28006],[76.44247,31.28645],[76.4498,31.29186],[76.4596,31.29761],[76.4623,31.30319],[76.45149,31.31466],[76.44206,31.32244],[76.43225,31.3346],[76.42692,31.34497],[76.42292,31.35107],[76.41337,31.36282],[76.40517,31.37601],[76.39339,31.38857],[76.40454,31.39473],[76.39582,31.40805],[76.38721,31.41109],[76.38946,31.4196],[76.38337,31.4256],[76.37737,31.43884],[76.37096,31.42709],[76.37334,31.4131],[76.36729,31.40993],[76.36103,31.40319],[76.34874,31.40123],[76.34364,31.39864],[76.32995,31.3999],[76.33287,31.38568],[76.33232,31.37859],[76.34365,31.37698],[76.34408,31.36518],[76.34534,31.35654],[76.35069,31.35044],[76.34409,31.34272],[76.33846,31.34456],[76.33184,31.34968],[76.32982,31.34496],[76.31392,31.34132],[76.30996,31.33971],[76.31622,31.32381],[76.31004,31.31667],[76.30433,31.31309],[76.2983,31.31102],[76.29127,31.30741],[76.28231,31.30409],[76.27507,31.30334],[76.26951,31.31247],[76.25804,31.31125],[76.23706,31.31064],[76.22882,31.30522],[76.22024,31.30285],[76.19952,31.30229],[76.18666,31.30439],[76.1823,31.3118],[76.17995,31.32386],[76.1802,31.33916],[76.17196,31.34466],[76.16162,31.3459],[76.1535,31.35088],[76.14893,31.35954],[76.14804,31.38045],[76.15259,31.38466],[76.1611,31.38968],[76.16701,31.39504],[76.17075,31.40229],[76.16753,31.41181],[76.16109,31.41667],[76.16115,31.42343],[76.15752,31.43013],[76.14913,31.43537],[76.14229,31.44164],[76.13667,31.45163],[76.13536,31.45889],[76.12962,31.46337],[76.12882,31.47147],[76.12206,31.48017],[76.12229,31.49308],[76.11827,31.5003],[76.1087,31.51222],[76.10479,31.51702],[76.10315,31.52569],[76.09821,31.53525],[76.09102,31.54405],[76.08582,31.55226],[76.08026,31.55864],[76.07913,31.55992],[76.06577,31.57996],[76.05743,31.59017],[76.05697,31.5941],[76.05835,31.60125],[76.05429,31.6067],[76.051,31.60504],[76.04571,31.60771],[76.03749,31.61373],[76.03192,31.61995],[76.01709,31.64492],[76.02062,31.64977],[76.0183,31.65525],[76.01912,31.66139],[76.01175,31.66726],[76.01183,31.67439],[76.00911,31.67996],[76.00658,31.68293],[76.00541,31.68416],[76.00509,31.68315],[76.00003,31.68381],[75.99023,31.69378],[75.99182,31.70346],[75.98705,31.71363],[75.98384,31.71817],[75.98052,31.73197],[75.97551,31.7353],[75.97204,31.73903],[75.97426,31.74285],[75.97405,31.74809],[75.96644,31.7616],[75.95963,31.7799],[75.95104,31.78299],[75.95039,31.7884],[75.9476,31.79577],[75.94183,31.80383],[75.93645,31.81589],[75.94139,31.81514],[75.94396,31.81393],[75.94788,31.81371],[75.95071,31.81694],[75.96344,31.8218],[75.96757,31.82262],[75.97498,31.81711],[75.98163,31.81349],[75.98614,31.81316],[75.9856,31.81782],[75.98231,31.82214],[75.97044,31.83103],[75.96827,31.83862],[75.96444,31.84679],[75.95898,31.85623],[75.95313,31.86663],[75.94619,31.88261],[75.94095,31.88857],[75.9275,31.91543],[75.91759,31.9268],[75.91081,31.93916],[75.90942,31.94873],[75.89261,31.96095],[75.88461,31.96496],[75.88343,31.96591],[75.88106,31.96783],[75.87166,31.96848],[75.86618,31.97157],[75.8565,31.97268],[75.85125,31.98073],[75.82891,31.98253],[75.82048,31.98417],[75.81,31.98776],[75.79916,31.99353],[75.78919,32.00002],[75.78134,32.00691],[75.77644,32.01318],[75.76871,32.01918],[75.76328,32.02649],[75.75495,32.03383],[75.75292,32.03516],[75.74889,32.0367],[75.73815,32.03556],[75.7254,32.03543],[75.71532,32.04303],[75.70722,32.05893],[75.70476,32.06102],[75.68804,32.06645],[75.6643,32.07677],[75.65499,32.07636],[75.64023,32.07231],[75.62446,32.06914],[75.61341,32.0657],[75.59364,32.08144],[75.62553,32.09932],[75.6462,32.11919],[75.66292,32.13735],[75.67057,32.14574],[75.67695,32.16436],[75.6713,32.17634],[75.66473,32.17943],[75.63535,32.18498],[75.63461,32.18967],[75.63349,32.19685],[75.63532,32.22007],[75.63699,32.22989],[75.63778,32.23455],[75.64935,32.2446],[75.6562,32.24724],[75.66774,32.25528],[75.67019,32.25568],[75.69117,32.26382],[75.70024,32.26481],[75.72025,32.26699],[75.7518,32.27344],[75.76726,32.28384],[75.77011,32.28575],[75.77733,32.29578],[75.77883,32.30182],[75.79867,32.32186],[75.80103,32.32343],[75.80928,32.33202],[75.81485,32.33702],[75.82952,32.3502],[75.83449,32.35467],[75.85308,32.37264],[75.85956,32.37892],[75.88204,32.39415],[75.88768,32.39803],[75.9269,32.40871],[75.93123,32.40978],[75.94173,32.41128],[75.94798,32.41631],[75.95046,32.42426],[75.94726,32.43029],[75.9403,32.43852],[75.93137,32.44827],[75.91131,32.46149],[75.90303,32.47169],[75.88469,32.48841],[75.87121,32.49934],[75.86691,32.50766],[75.86736,32.52111],[75.87238,32.53751],[75.88636,32.55859],[75.89153,32.57069],[75.88864,32.57603],[75.90243,32.59176],[75.92078,32.61506],[75.92397,32.61898],[75.93988,32.64353],[75.94173,32.65412],[75.94173,32.65412],[75.94036,32.65807],[75.93107,32.66581],[75.92172,32.67217],[75.91519,32.68057],[75.91519,32.68057],[75.91417,32.68529],[75.91292,32.69102],[75.91292,32.69102],[75.91542,32.70023],[75.92125,32.70933],[75.92625,32.72093],[75.93052,32.74202],[75.93052,32.74202],[75.92895,32.75714],[75.92895,32.75714],[75.91658,32.76993],[75.91658,32.76993],[75.90224,32.79562],[75.90224,32.79562],[75.89588,32.8054],[75.89036,32.8139],[75.87183,32.82639],[75.85398,32.83708],[75.84415,32.84071],[75.83765,32.84311],[75.83239,32.84744],[75.82493,32.8536],[75.82487,32.85366],[75.82473,32.85381],[75.82214,32.85655],[75.81128,32.87065],[75.81128,32.87065],[75.80647,32.88189],[75.80613,32.88363],[75.80584,32.88511],[75.80409,32.89383],[75.80655,32.89449],[75.81051,32.89781],[75.8167,32.90442],[75.81848,32.91077],[75.81599,32.91742],[75.81504,32.91995],[75.82009,32.92406],[75.82471,32.93031],[75.83822,32.93396],[75.85067,32.93508],[75.86688,32.93159],[75.88393,32.93061],[75.89771,32.92512],[75.91691,32.916],[75.93037,32.90647],[75.94001,32.89831],[75.95055,32.88449],[75.95631,32.8844],[75.96254,32.8853],[76.00003,32.9005],[76.00425,32.90068],[76.01438,32.90946],[76.02149,32.91409],[76.03039,32.91601],[76.03408,32.9177],[76.03808,32.9245],[76.04057,32.93165],[76.045,32.93751],[76.05955,32.94028],[76.06736,32.94431],[76.07145,32.951],[76.08288,32.95801],[76.08701,32.96225],[76.09539,32.96608],[76.09923,32.96881],[76.10271,32.97502],[76.10831,32.99278],[76.11166,33.00036],[76.1112,33.00278],[76.11109,33.00335],[76.11079,33.00487],[76.12445,33.00792],[76.13311,33.00859],[76.13764,33.01042],[76.14536,33.01007],[76.16107,33.01644],[76.16943,33.02285],[76.20552,33.02747],[76.23341,33.02841],[76.24674,33.03007],[76.24704,33.03065],[76.25455,33.0324],[76.27256,33.05208],[76.2849,33.08594],[76.28865,33.09619],[76.29327,33.09787],[76.29431,33.10046],[76.29244,33.10383],[76.29244,33.10383],[76.30546,33.11299],[76.30942,33.12005],[76.32443,33.12704],[76.33306,33.13],[76.35316,33.14607],[76.36972,33.15462],[76.37338,33.15437],[76.37646,33.15727],[76.37842,33.16252],[76.38378,33.16781],[76.39116,33.17323],[76.3975,33.17622],[76.40223,33.18264],[76.40938,33.18644],[76.41835,33.1863],[76.42539,33.18815],[76.43947,33.1815],[76.44748,33.18249],[76.45952,33.18012],[76.46791,33.18256],[76.47327,33.18295],[76.48385,33.17948],[76.48678,33.17951],[76.50654,33.18974],[76.51375,33.1956],[76.5166,33.19626],[76.52354,33.19534],[76.53803,33.19995],[76.55198,33.19886],[76.55978,33.20628],[76.56531,33.20903],[76.57371,33.20634],[76.58079,33.20566],[76.58546,33.2065],[76.59458,33.20525],[76.59974,33.20632],[76.60404,33.20365],[76.60404,33.20365],[76.60404,33.20365],[76.60254,33.19898],[76.60185,33.19248],[76.60581,33.18941],[76.61037,33.19002],[76.61514,33.18742],[76.61668,33.18329],[76.61668,33.18329],[76.61627,33.17587],[76.61738,33.17312],[76.63036,33.16529],[76.64478,33.16178],[76.65854,33.16396],[76.66893,33.1711],[76.67729,33.17036],[76.68731,33.17255],[76.70312,33.17325],[76.71152,33.17681],[76.71459,33.18068],[76.72634,33.18048],[76.73207,33.17661],[76.74775,33.17858],[76.74852,33.18444],[76.75226,33.19229],[76.76005,33.19664],[76.76354,33.20351],[76.76853,33.20929],[76.77403,33.21899],[76.77788,33.22384],[76.78039,33.23873],[76.7756,33.24233],[76.77324,33.24662],[76.77324,33.24662],[76.7734,33.2487],[76.7734,33.2487],[76.77492,33.24975],[76.77803,33.25219],[76.78162,33.25354],[76.79598,33.25486],[76.79598,33.25486],[76.79634,33.2549]]]}}]}