{"type":"FeatureCollection","features":[{"type":"Feature","properties":{"id":"manipur","name":"Manipur","type":"state"},"geometry":{"type":"Polygon","coordinates":[[[94.57602,25.64221],[94.57487,25.63858],[94.58572,25.64044],[94.59394,25.63768],[94.59332,25.63648],[94.58926,25.63411],[94.58253,25.62834],[94.57726,25.62009],[94.57568,25.61422],[94.57155,25.60517],[94.56737,25.60165],[94.56565,25.59796],[94.56389,25.59646],[94.5583,25.58798],[94.55444,25.57968],[94.56025,25.5722],[94.5591,25.56183],[94.56335,25.56177],[94.56006,25.55434],[94.56156,25.54334],[94.55853,25.53954],[94.56213,25.53349],[94.55693,25.5287],[94.55991,25.5245],[94.55763,25.51815],[94.55604,25.50657],[94.56679,25.50036],[94.57319,25.49899],[94.58356,25.49059],[94.58577,25.48616],[94.58938,25.48346],[94.59343,25.48184],[94.59589,25.47994],[94.60602,25.47609],[94.62384,25.46269],[94.63144,25.45924],[94.64668,25.45516],[94.6549,25.45211],[94.65717,25.45055],[94.66439,25.44888],[94.66818,25.44883],[94.68085,25.45317],[94.68045,25.44393],[94.67805,25.43583],[94.67749,25.42636],[94.6765,25.41995],[94.67462,25.41402],[94.67216,25.40962],[94.66932,25.40596],[94.65464,25.40236],[94.64756,25.39983],[94.64281,25.3951],[94.63869,25.38567],[94.63562,25.37387],[94.63603,25.36827],[94.63582,25.36105],[94.6343,25.35258],[94.63205,25.34899],[94.6294,25.34415],[94.62656,25.34021],[94.62247,25.33312],[94.61993,25.32955],[94.61728,25.32542],[94.61351,25.3187],[94.61147,25.31547],[94.60787,25.30702],[94.6002,25.29222],[94.59697,25.28259],[94.59715,25.27464],[94.59635,25.26815],[94.59752,25.26036],[94.5954,25.25045],[94.59176,25.23966],[94.59014,25.23092],[94.58695,25.22337],[94.5848,25.21852],[94.58357,25.20924],[94.59026,25.19894],[94.59574,25.19346],[94.59983,25.18862],[94.60701,25.18446],[94.61126,25.18287],[94.61553,25.18318],[94.62082,25.18465],[94.62903,25.18373],[94.63196,25.18054],[94.63624,25.17488],[94.64162,25.16985],[94.64585,25.16771],[94.65575,25.16569],[94.66501,25.16142],[94.67547,25.15821],[94.67918,25.15446],[94.68519,25.15104],[94.69166,25.15267],[94.69664,25.15378],[94.70148,25.15291],[94.70615,25.14697],[94.71155,25.14301],[94.72683,25.13676],[94.73376,25.13586],[94.73985,25.13243],[94.74357,25.12959],[94.74312,25.11983],[94.74359,25.1117],[94.74316,25.10421],[94.74341,25.09463],[94.74599,25.08285],[94.74762,25.07289],[94.74883,25.06837],[94.74845,25.06358],[94.74855,25.05645],[94.74707,25.05087],[94.74554,25.04221],[94.74348,25.03736],[94.74281,25.03241],[94.74077,25.02304],[94.74,25.01817],[94.73724,25.01342],[94.73296,25.00562],[94.72386,24.99427],[94.71096,24.98667],[94.70357,24.97656],[94.7009,24.97127],[94.69966,24.96143],[94.70156,24.95653],[94.70348,24.95262],[94.70689,24.94879],[94.7113,24.94592],[94.71487,24.93938],[94.71678,24.93538],[94.71238,24.93246],[94.70358,24.92724],[94.69922,24.92052],[94.69069,24.90086],[94.68978,24.89283],[94.68663,24.88799],[94.6774,24.87989],[94.6697,24.8752],[94.65933,24.87046],[94.65453,24.86664],[94.65561,24.86021],[94.65377,24.85589],[94.64583,24.84813],[94.6389,24.84181],[94.63554,24.83544],[94.63247,24.82238],[94.63307,24.81614],[94.63245,24.80784],[94.63011,24.80399],[94.62497,24.79736],[94.62247,24.7889],[94.623,24.77788],[94.62724,24.77033],[94.63063,24.76586],[94.63091,24.758],[94.62264,24.74707],[94.61881,24.74243],[94.61526,24.73714],[94.60997,24.72664],[94.60892,24.72268],[94.60842,24.71519],[94.59694,24.70838],[94.58857,24.70405],[94.58211,24.70801],[94.5841,24.71548],[94.58341,24.72318],[94.57928,24.72449],[94.57522,24.72336],[94.57219,24.7188],[94.57104,24.71519],[94.57297,24.71174],[94.57416,24.70522],[94.56822,24.70475],[94.56499,24.70714],[94.56011,24.71154],[94.5543,24.71242],[94.54863,24.70977],[94.54424,24.7007],[94.54838,24.6928],[94.55055,24.686],[94.54832,24.66814],[94.54474,24.65968],[94.53816,24.64224],[94.52904,24.62563],[94.51835,24.61005],[94.5051,24.59484],[94.49998,24.58967],[94.49579,24.58611],[94.48745,24.58249],[94.4829,24.57559],[94.47584,24.57242],[94.47011,24.57131],[94.46306,24.56896],[94.45712,24.56017],[94.4534,24.54874],[94.44771,24.53616],[94.44301,24.52492],[94.43803,24.51386],[94.43413,24.50939],[94.43267,24.50453],[94.42992,24.49769],[94.42711,24.4868],[94.41908,24.48399],[94.40654,24.48313],[94.40099,24.4813],[94.40903,24.46314],[94.40069,24.45854],[94.39798,24.45559],[94.40547,24.44728],[94.40642,24.43761],[94.40498,24.4247],[94.40139,24.41463],[94.39666,24.40664],[94.38912,24.4032],[94.3809,24.40112],[94.37189,24.39833],[94.36429,24.39814],[94.36286,24.39327],[94.37381,24.38638],[94.38357,24.37814],[94.38084,24.37294],[94.37501,24.3646],[94.3668,24.35547],[94.35321,24.34007],[94.34921,24.33561],[94.34454,24.33304],[94.33231,24.33226],[94.32384,24.33262],[94.3227,24.32784],[94.32433,24.32431],[94.32536,24.31264],[94.32569,24.29972],[94.32543,24.28608],[94.31921,24.26961],[94.31221,24.25342],[94.31066,24.24775],[94.3012,24.23918],[94.29256,24.23357],[94.28902,24.2168],[94.28506,24.207],[94.28246,24.19636],[94.28184,24.18535],[94.28111,24.17361],[94.27712,24.16967],[94.26389,24.16602],[94.2601,24.16153],[94.25749,24.14955],[94.25537,24.13674],[94.25642,24.12543],[94.25658,24.1136],[94.25406,24.10044],[94.25567,24.09536],[94.25738,24.09001],[94.257,24.08333],[94.25136,24.07146],[94.24753,24.06427],[94.24449,24.05635],[94.23725,24.05977],[94.23037,24.06073],[94.23254,24.05249],[94.24087,24.04175],[94.2426,24.03803],[94.22887,24.01531],[94.22288,24.00796],[94.21757,23.99988],[94.21266,23.99134],[94.20759,23.98625],[94.19858,23.97187],[94.19175,23.95893],[94.19081,23.94511],[94.19407,23.93795],[94.19321,23.93163],[94.18767,23.92799],[94.17906,23.93177],[94.17416,23.93281],[94.16803,23.92907],[94.16678,23.92267],[94.16546,23.88311],[94.16224,23.85884],[94.15867,23.84676],[94.15267,23.84547],[94.14438,23.85015],[94.13652,23.84995],[94.13238,23.84014],[94.12607,23.83686],[94.11988,23.83682],[94.11203,23.84656],[94.11139,23.86075],[94.10889,23.86501],[94.10148,23.87132],[94.09828,23.88319],[94.09341,23.88775],[94.08793,23.8887],[94.0828,23.88739],[94.07308,23.88729],[94.06584,23.88988],[94.05829,23.89158],[94.05397,23.89189],[94.0485,23.89474],[94.04671,23.9017],[94.04431,23.90769],[94.04063,23.91233],[94.03535,23.9149],[94.03153,23.91647],[94.02518,23.92041],[94.01895,23.92589],[94.01514,23.92836],[94.01082,23.92894],[94.0055,23.92763],[93.999,23.92561],[93.99291,23.92601],[93.98712,23.92651],[93.97908,23.92775],[93.97389,23.92978],[93.9669,23.92848],[93.95976,23.9317],[93.95933,23.93795],[93.9575,23.94148],[93.95133,23.94478],[93.93918,23.94741],[93.93338,23.948],[93.92396,23.95006],[93.91857,23.95145],[93.91151,23.95214],[93.90463,23.95183],[93.8997,23.95033],[93.8937,23.94957],[93.88865,23.94653],[93.88469,23.94223],[93.87918,23.94191],[93.87466,23.94167],[93.8708,23.93872],[93.86388,23.93272],[93.84629,23.93294],[93.83524,23.92696],[93.82589,23.92631],[93.8137,23.92477],[93.80577,23.92808],[93.80344,23.93234],[93.80304,23.94219],[93.8013,23.94609],[93.79888,23.95054],[93.79496,23.95164],[93.79205,23.95781],[93.79131,23.96252],[93.78337,23.96447],[93.77715,23.97291],[93.77129,23.97747],[93.7681,23.98508],[93.76442,23.99206],[93.76005,23.99922],[93.75479,24.00459],[93.74447,24.00367],[93.74224,23.99637],[93.7378,23.99432],[93.73065,23.99698],[93.72467,23.99901],[93.71809,24.00077],[93.71061,24.00046],[93.70404,24.00167],[93.69491,24.00273],[93.68441,24.00496],[93.67547,24.00638],[93.6724,24.00341],[93.6655,24.00074],[93.66077,24.00005],[93.65676,24.0026],[93.65295,24.00534],[93.65042,24.00888],[93.64295,24.00946],[93.63331,24.00879],[93.62566,24.01065],[93.61867,24.00969],[93.61431,24.0062],[93.61466,23.99843],[93.61807,23.99497],[93.61874,23.99072],[93.6189,23.98666],[93.61393,23.97693],[93.61026,23.97261],[93.60728,23.96892],[93.60146,23.96507],[93.59515,23.96276],[93.59064,23.96351],[93.58189,23.96401],[93.57807,23.96584],[93.57518,23.97344],[93.57049,23.9788],[93.5669,23.98424],[93.56159,23.98517],[93.5593,23.98121],[93.55533,23.97526],[93.55557,23.96569],[93.55298,23.96082],[93.54442,23.95888],[93.53754,23.95892],[93.52858,23.95644],[93.52226,23.95042],[93.51751,23.94574],[93.51317,23.94288],[93.50679,23.94462],[93.50064,23.95152],[93.49407,23.95291],[93.48751,23.95728],[93.48391,23.96335],[93.47616,23.96529],[93.47036,23.96649],[93.46704,23.96976],[93.46432,23.97501],[93.46487,23.98341],[93.46557,23.98784],[93.46523,23.99506],[93.46132,23.99942],[93.45702,24.0055],[93.45558,24.01092],[93.45149,24.01871],[93.44228,24.02364],[93.43937,24.0306],[93.43823,24.03946],[93.43115,24.05756],[93.42305,24.06763],[93.41854,24.07198],[93.41374,24.07517],[93.40884,24.07763],[93.40256,24.08028],[93.38949,24.08422],[93.38174,24.08534],[93.36886,24.08828],[93.36704,24.08862],[93.36483,24.08902],[93.35994,24.09627],[93.35517,24.10515],[93.34987,24.10851],[93.34535,24.10907],[93.34747,24.1012],[93.34933,24.09768],[93.35226,24.09377],[93.34525,24.08838],[93.34201,24.09047],[93.33777,24.08932],[93.33245,24.08627],[93.33439,24.08111],[93.33603,24.07505],[93.33729,24.06845],[93.34041,24.06355],[93.33576,24.05707],[93.33475,24.05283],[93.33578,24.04953],[93.31097,24.05032],[93.29671,24.04781],[93.28665,24.04779],[93.28383,24.04277],[93.27524,24.03648],[93.27241,24.0302],[93.25375,24.02011],[93.25087,24.03015],[93.26082,24.05403],[93.2651,24.05655],[93.26223,24.06409],[93.26222,24.06911],[93.24656,24.08167],[93.24088,24.08292],[93.23518,24.0804],[93.22525,24.08291],[93.22098,24.07788],[93.22382,24.07034],[93.22098,24.06406],[93.21954,24.05777],[93.21528,24.04646],[93.20723,24.04755],[93.19683,24.04896],[93.19257,24.05273],[93.17412,24.0502],[93.16844,24.05145],[93.16561,24.05774],[93.16849,24.0678],[93.15997,24.07407],[93.15712,24.08035],[93.14657,24.08464],[93.14087,24.08335],[93.13375,24.07579],[93.13374,24.0695],[93.12804,24.06067],[93.1195,24.05687],[93.11808,24.05309],[93.11098,24.05182],[93.10955,24.04679],[93.0996,24.04173],[93.09818,24.0455],[93.10246,24.04929],[93.09961,24.05305],[93.10103,24.05934],[93.09962,24.06311],[93.10105,24.07066],[93.09394,24.07695],[93.08825,24.08073],[93.08398,24.08704],[93.07826,24.09967],[93.07254,24.0972],[93.06396,24.09101],[93.05248,24.08745],[93.03651,24.09197],[93.03353,24.09604],[93.02912,24.09764],[93.02614,24.10045],[93.02033,24.09827],[93.01296,24.10137],[93.00853,24.1068],[92.99956,24.11206],[92.98818,24.11323],[92.98367,24.11174],[92.97528,24.11175],[92.97377,24.11394],[92.97252,24.12081],[92.97646,24.1233],[92.98498,24.12578],[92.99179,24.13727],[92.98982,24.14375],[92.99005,24.14721],[92.99201,24.15006],[92.99957,24.1536],[93.00435,24.15746],[93.00224,24.17091],[93.00982,24.17905],[93.00203,24.19117],[93.00198,24.19438],[93.01131,24.19436],[93.01555,24.19686],[93.01694,24.20438],[93.02121,24.20687],[93.02263,24.21438],[93.01837,24.22191],[93.01837,24.22567],[93.02554,24.22943],[93.01699,24.23319],[93.0057,24.25081],[93.00575,24.25963],[93.01293,24.2685],[93.00724,24.27732],[93.01011,24.28491],[93.01724,24.28998],[93.02294,24.29755],[93.03426,24.31518],[93.04241,24.34016],[93.03082,24.34128],[93.02064,24.34364],[93.0184,24.35567],[93.01919,24.36279],[93.0212,24.37103],[93.01619,24.37678],[93.02345,24.38727],[92.99965,24.40013],[93.0056,24.40877],[93.00805,24.40221],[93.01512,24.39935],[93.01512,24.39935],[93.02833,24.40313],[93.03827,24.4079],[93.03827,24.4079],[93.03827,24.4079],[93.03846,24.41435],[93.03129,24.42565],[93.03588,24.44073],[93.03707,24.45793],[93.04741,24.46072],[93.04741,24.46072],[93.04768,24.47224],[93.04489,24.47858],[93.03496,24.49374],[93.04353,24.50257],[93.03923,24.50759],[93.04064,24.51136],[93.05205,24.5164],[93.05203,24.52142],[93.0477,24.52768],[93.05052,24.53395],[93.05191,24.54148],[93.06045,24.55151],[93.06477,24.544],[93.06477,24.544],[93.06477,24.544],[93.07192,24.5578],[93.06038,24.57158],[93.07046,24.57286],[93.07769,24.57162],[93.08636,24.56787],[93.08636,24.56787],[93.08636,24.56787],[93.09544,24.57689],[93.09649,24.57921],[93.10368,24.57923],[93.10577,24.58004],[93.10619,24.58021],[93.10619,24.58021],[93.10594,24.58061],[93.10367,24.58425],[93.09789,24.588],[93.08779,24.58672],[93.07908,24.5892],[93.07469,24.59295],[93.07465,24.59672],[93.07605,24.60048],[93.08603,24.60802],[93.086,24.61053],[93.08162,24.61428],[93.07869,24.61803],[93.07863,24.62304],[93.08149,24.6243],[93.08866,24.62431],[93.08866,24.62431],[93.08866,24.62431],[93.08859,24.63058],[93.08415,24.64437],[93.08556,24.64813],[93.08842,24.64939],[93.09557,24.6494],[93.09557,24.6494],[93.09557,24.6494],[93.09555,24.65317],[93.09696,24.65568],[93.09694,24.65944],[93.09834,24.66321],[93.10262,24.66823],[93.10403,24.672],[93.10401,24.67577],[93.10114,24.67702],[93.10114,24.67702],[93.10081,24.67682],[93.09686,24.6745],[93.09257,24.67324],[93.09113,24.6745],[93.09112,24.67701],[93.09253,24.68077],[93.09252,24.68454],[93.08963,24.68956],[93.08389,24.69457],[93.08244,24.69834],[93.07957,24.70085],[93.07524,24.70712],[93.07808,24.71089],[93.08814,24.70588],[93.08814,24.70588],[93.08814,24.70588],[93.0924,24.71217],[93.09381,24.71719],[93.09338,24.71831],[93.09237,24.72096],[93.0938,24.72096],[93.0938,24.72096],[93.0938,24.72096],[93.09665,24.72473],[93.09664,24.7285],[93.10378,24.73354],[93.10662,24.73857],[93.10518,24.74233],[93.10303,24.74326],[93.10231,24.74358],[93.10231,24.74358],[93.10231,24.74358],[93.10233,24.73982],[93.10089,24.73856],[93.09802,24.74106],[93.10087,24.74609],[93.09944,24.74735],[93.09942,24.75112],[93.10368,24.75992],[93.10509,24.7662],[93.10221,24.76996],[93.10076,24.77499],[93.10647,24.78002],[93.10504,24.78127],[93.10501,24.78505],[93.10788,24.78756],[93.11214,24.79887],[93.10924,24.80641],[93.11066,24.80893],[93.11925,24.81396],[93.11957,24.81424],[93.1221,24.81648],[93.12212,24.81145],[93.11928,24.80768],[93.12072,24.80517],[93.12645,24.80518],[93.13076,24.80266],[93.13076,24.80266],[93.13076,24.80266],[93.13648,24.8077],[93.13936,24.80142],[93.14224,24.79766],[93.14369,24.7964],[93.14799,24.79515],[93.15087,24.79264],[93.15231,24.79013],[93.15233,24.78637],[93.15233,24.78637],[93.15661,24.78888],[93.1609,24.79391],[93.16519,24.79517],[93.16519,24.79517],[93.16519,24.79517],[93.16805,24.79768],[93.17378,24.80021],[93.17523,24.79392],[93.17667,24.79266],[93.17811,24.79267],[93.17811,24.79267],[93.17811,24.79267],[93.17953,24.79518],[93.17952,24.79895],[93.18095,24.80147],[93.18525,24.80147],[93.18954,24.80273],[93.19242,24.80273],[93.19242,24.80273],[93.19242,24.80273],[93.19384,24.80525],[93.1967,24.80776],[93.19814,24.81154],[93.19526,24.81279],[93.19095,24.81907],[93.19237,24.82283],[93.19666,24.83038],[93.1947,24.83038],[93.19235,24.83038],[93.19235,24.83289],[93.19378,24.83415],[93.19521,24.83414],[93.19808,24.83289],[93.19808,24.83289],[93.19808,24.83289],[93.20094,24.83667],[93.19951,24.83792],[93.19951,24.83792],[93.19951,24.83792],[93.19807,24.83666],[93.19663,24.83666],[93.19375,24.84043],[93.19519,24.84295],[93.20093,24.84043],[93.20093,24.84043],[93.20093,24.84043],[93.20092,24.84671],[93.19804,24.84923],[93.1966,24.853],[93.19947,24.85425],[93.20522,24.85175],[93.20522,24.85175],[93.20808,24.85301],[93.20808,24.85301],[93.20808,24.85301],[93.20952,24.85552],[93.21211,24.85733],[93.21367,24.85841],[93.21367,24.85841],[93.21559,24.86116],[93.21846,24.86619],[93.22132,24.86745],[93.22418,24.87123],[93.22849,24.87375],[93.22563,24.87752],[93.22848,24.88129],[93.23278,24.88129],[93.23278,24.88129],[93.23278,24.88129],[93.2342,24.88633],[93.2299,24.89135],[93.23277,24.89135],[93.23277,24.89135],[93.23277,24.89135],[93.23277,24.89513],[93.23561,24.89889],[93.24134,24.89765],[93.24134,24.89765],[93.24134,24.89765],[93.24277,24.90015],[93.24275,24.90392],[93.24129,24.9077],[93.23841,24.91146],[93.23983,24.91272],[93.24127,24.91147],[93.24986,24.91147],[93.24986,24.91147],[93.24986,24.91147],[93.25268,24.91523],[93.2521,24.91739],[93.24963,24.92651],[93.24392,24.92651],[93.24247,24.92776],[93.24662,24.93277],[93.24793,24.93653],[93.2465,24.93652],[93.2465,24.93652],[93.24499,24.93585],[93.24088,24.93403],[93.23947,24.93402],[93.23943,24.93528],[93.24077,24.93778],[93.24352,24.94028],[93.24637,24.94027],[93.24926,24.93903],[93.25355,24.93903],[93.25355,24.93903],[93.25355,24.93903],[93.25053,24.94277],[93.25036,24.94652],[93.24881,24.94901],[93.24869,24.95151],[93.25299,24.95151],[93.25893,24.94777],[93.26182,24.94777],[93.26182,24.94777],[93.26182,24.94777],[93.26026,24.95027],[93.26003,24.95527],[93.26277,24.96028],[93.2627,24.96278],[93.25817,24.96906],[93.25237,24.96905],[93.25235,24.97158],[93.25381,24.97534],[93.251,24.97785],[93.2525,24.97909],[93.25274,24.98279],[93.2515,24.98524],[93.25474,24.98883],[93.25644,24.99244],[93.25654,24.99489],[93.25512,24.99614],[93.25517,24.99863],[93.2566,24.99736],[93.26091,24.99733],[93.2628,25.00066],[93.26195,25.00244],[93.25939,25.00286],[93.25748,25.00062],[93.25717,24.99992],[93.2566,24.99961],[93.25596,24.99953],[93.25532,24.99969],[93.25482,25.00006],[93.25471,25.00064],[93.25297,25.0028],[93.25132,25.00061],[93.2507,24.9999],[93.25014,24.99959],[93.24951,24.99939],[93.24886,24.99931],[93.2482,24.99933],[93.24757,24.99948],[93.24697,24.99972],[93.24645,25.00007],[93.2462,25.00061],[93.24868,25.0096],[93.25122,25.01245],[93.24836,25.01524],[93.25335,25.01778],[93.2573,25.01816],[93.25789,25.02163],[93.25514,25.02511],[93.25937,25.02849],[93.26334,25.03234],[93.26343,25.03533],[93.26245,25.03826],[93.26789,25.04051],[93.26899,25.04299],[93.26734,25.04522],[93.2677,25.04609],[93.28401,25.04792],[93.28638,25.04317],[93.29141,25.04345],[93.29649,25.04402],[93.29884,25.04681],[93.29958,25.04895],[93.30191,25.04828],[93.30194,25.04453],[93.30409,25.04433],[93.30374,25.05238],[93.30843,25.05485],[93.3056,25.06075],[93.3083,25.06694],[93.31029,25.06897],[93.31224,25.07429],[93.32186,25.08469],[93.32314,25.08799],[93.32902,25.09081],[93.33529,25.09214],[93.3387,25.1027],[93.33999,25.11072],[93.34387,25.11243],[93.34388,25.11761],[93.34597,25.12137],[93.34874,25.12168],[93.34658,25.12373],[93.34561,25.12614],[93.34844,25.13107],[93.34641,25.13398],[93.35054,25.14081],[93.34812,25.14978],[93.3484,25.15346],[93.34694,25.16018],[93.34873,25.16302],[93.35266,25.17808],[93.36041,25.18824],[93.36182,25.19188],[93.36813,25.19631],[93.37016,25.19985],[93.36918,25.20432],[93.37771,25.21235],[93.37911,25.21703],[93.38158,25.22011],[93.3844,25.22197],[93.38512,25.2248],[93.38723,25.22827],[93.38674,25.23863],[93.38834,25.24216],[93.39421,25.24653],[93.4032,25.25929],[93.40596,25.26028],[93.41169,25.25965],[93.42034,25.26244],[93.42293,25.26834],[93.42294,25.2741],[93.42605,25.27724],[93.43826,25.2827],[93.44444,25.28845],[93.45158,25.29088],[93.45958,25.29084],[93.4652,25.29515],[93.47363,25.30537],[93.47473,25.29577],[93.47423,25.28851],[93.47216,25.28152],[93.47631,25.27511],[93.48293,25.2727],[93.4871,25.27198],[93.49443,25.27476],[93.5039,25.27179],[93.51031,25.27162],[93.50367,25.2494],[93.50464,25.24013],[93.50791,25.23971],[93.51589,25.24075],[93.52007,25.24476],[93.52882,25.24432],[93.54067,25.24131],[93.54662,25.24442],[93.55415,25.24644],[93.56255,25.24248],[93.5695,25.23148],[93.57015,25.22832],[93.57423,25.2234],[93.57758,25.22154],[93.58103,25.22185],[93.58522,25.21814],[93.58741,25.21799],[93.58964,25.21577],[93.59133,25.20973],[93.59418,25.20694],[93.5922,25.20248],[93.59236,25.19972],[93.59644,25.2001],[93.60035,25.19818],[93.60361,25.20011],[93.60733,25.19783],[93.6119,25.20196],[93.62048,25.22067],[93.62825,25.2315],[93.63121,25.23866],[93.63744,25.24614],[93.64246,25.25573],[93.64291,25.26161],[93.64925,25.26483],[93.65072,25.26938],[93.65098,25.27474],[93.66498,25.29413],[93.66412,25.29994],[93.66548,25.30399],[93.67231,25.3072],[93.67334,25.31296],[93.67148,25.32441],[93.68331,25.32531],[93.6865,25.32688],[93.69085,25.34309],[93.69219,25.35727],[93.69939,25.35507],[93.71098,25.35372],[93.71744,25.35722],[93.71838,25.36598],[93.7225,25.3712],[93.73039,25.37597],[93.73918,25.38001],[93.74072,25.38503],[93.73948,25.39077],[93.7414,25.3955],[93.74608,25.4013],[93.75975,25.40968],[93.76382,25.41369],[93.78047,25.42024],[93.77993,25.42502],[93.78387,25.42746],[93.7875,25.4314],[93.7896,25.4389],[93.79315,25.44417],[93.79777,25.44943],[93.80184,25.45591],[93.80465,25.45892],[93.80842,25.46108],[93.81332,25.48022],[93.80707,25.49106],[93.80351,25.49455],[93.79674,25.49992],[93.78795,25.50204],[93.77289,25.49342],[93.76886,25.49235],[93.76531,25.4955],[93.76382,25.51109],[93.76885,25.51331],[93.76771,25.5209],[93.7685,25.52632],[93.77053,25.53163],[93.77019,25.53589],[93.77138,25.53641],[93.77904,25.53364],[93.80737,25.54006],[93.81544,25.54097],[93.81923,25.5399],[93.82286,25.54367],[93.82457,25.55151],[93.83277,25.55191],[93.83299,25.55686],[93.83601,25.55855],[93.84371,25.55716],[93.8518,25.5541],[93.86172,25.55296],[93.87783,25.55738],[93.89141,25.5638],[93.89549,25.56394],[93.89967,25.56408],[93.90429,25.56278],[93.91035,25.56287],[93.91653,25.56204],[93.91875,25.55935],[93.92953,25.56068],[93.94291,25.55869],[93.94311,25.5586],[93.95676,25.55198],[93.96458,25.55179],[93.972,25.55638],[93.97721,25.56135],[93.97983,25.56643],[93.99995,25.56903],[94.00677,25.56498],[94.00974,25.56643],[94.01093,25.56788],[94.01161,25.57042],[94.01109,25.57422],[94.00718,25.58267],[94.00701,25.58608],[94.00975,25.59055],[94.01409,25.59126],[94.02485,25.58849],[94.02659,25.58309],[94.03273,25.57978],[94.0342,25.57657],[94.03722,25.577],[94.03848,25.5781],[94.03831,25.57493],[94.04293,25.57253],[94.0453,25.57601],[94.05341,25.5718],[94.06395,25.56137],[94.06866,25.55397],[94.07928,25.55655],[94.08517,25.55468],[94.09415,25.54136],[94.09537,25.53664],[94.09171,25.53289],[94.09129,25.52764],[94.10523,25.52379],[94.12764,25.52071],[94.13785,25.51851],[94.14435,25.52244],[94.14731,25.52648],[94.15095,25.53664],[94.15201,25.54264],[94.15926,25.55003],[94.16264,25.54469],[94.16702,25.54177],[94.17866,25.54492],[94.18188,25.54798],[94.19094,25.54565],[94.19396,25.54712],[94.19299,25.53689],[94.18921,25.52933],[94.18979,25.52547],[94.19829,25.51744],[94.20591,25.5086],[94.20591,25.50629],[94.21194,25.5028],[94.21182,25.49744],[94.21385,25.49485],[94.21886,25.49423],[94.22196,25.49136],[94.22811,25.49058],[94.2307,25.49289],[94.25102,25.4936],[94.2562,25.49793],[94.26589,25.49693],[94.27309,25.49747],[94.27878,25.49991],[94.28568,25.50616],[94.28967,25.50397],[94.29791,25.49514],[94.30152,25.48904],[94.30786,25.48819],[94.31241,25.48884],[94.31956,25.49365],[94.3279,25.50271],[94.36353,25.51577],[94.38738,25.53081],[94.40333,25.5351],[94.40972,25.53772],[94.41562,25.53612],[94.4191,25.53682],[94.42442,25.54708],[94.42522,25.55561],[94.42396,25.56718],[94.42124,25.57018],[94.42452,25.57566],[94.42889,25.5869],[94.43662,25.59003],[94.44314,25.59016],[94.44668,25.59218],[94.44814,25.59523],[94.47291,25.61574],[94.49002,25.61386],[94.48995,25.61272],[94.49227,25.60838],[94.49813,25.61054],[94.49876,25.61285],[94.50066,25.61406],[94.5042,25.61101],[94.50662,25.61297],[94.5075,25.62093],[94.50972,25.62392],[94.51334,25.6245],[94.52304,25.63742],[94.52702,25.63829],[94.5295,25.63657],[94.53039,25.64412],[94.53837,25.64505],[94.54357,25.65151],[94.55061,25.65641],[94.55106,25.66137],[94.56393,25.67476],[94.56685,25.68616],[94.57187,25.69158],[94.57745,25.68992],[94.58183,25.6871],[94.58587,25.68579],[94.59444,25.68515],[94.59576,25.68078],[94.58878,25.67513],[94.58694,25.67114],[94.58415,25.66873],[94.58618,25.66567],[94.5844,25.66388],[94.58224,25.6591],[94.58401,25.65565],[94.58084,25.65449],[94.58015,25.65127],[94.57558,25.64671],[94.57602,25.64221]]]}}]}