{"type":"FeatureCollection","features":[{"type":"Feature","properties":{"id":"nagaland","name":"Nagaland","type":"state"},"geometry":{"type":"Polygon","coordinates":[[[95.21458,26.93095],[95.21719,26.92818],[95.22569,26.92839],[95.22944,26.92458],[95.23196,26.92007],[95.23405,26.91452],[95.23404,26.91268],[95.23204,26.91181],[95.23216,26.90875],[95.23417,26.90355],[95.23384,26.8998],[95.23138,26.89224],[95.23389,26.88473],[95.22997,26.87955],[95.21789,26.88078],[95.21289,26.87952],[95.21141,26.87565],[95.20647,26.87179],[95.18455,26.85877],[95.1858,26.85357],[95.19306,26.84508],[95.19561,26.84351],[95.19733,26.84328],[95.19772,26.84542],[95.20423,26.84282],[95.20859,26.84459],[95.2064,26.84015],[95.2005,26.83676],[95.19902,26.83381],[95.20053,26.82676],[95.20255,26.8226],[95.20349,26.81515],[95.20677,26.8055],[95.21503,26.79216],[95.22146,26.78729],[95.22733,26.78608],[95.23486,26.783],[95.24011,26.78287],[95.24157,26.78062],[95.24476,26.78102],[95.24238,26.77819],[95.23451,26.77405],[95.23149,26.7714],[95.23313,26.76741],[95.23301,26.76562],[95.22902,26.76217],[95.22389,26.75542],[95.21991,26.75352],[95.21907,26.74925],[95.22117,26.74521],[95.22076,26.74111],[95.21665,26.73499],[95.21593,26.72899],[95.22795,26.71748],[95.22938,26.71049],[95.23582,26.7058],[95.23339,26.69068],[95.23566,26.68507],[95.23565,26.68178],[95.2373,26.67984],[95.23417,26.67662],[95.23134,26.67116],[95.22772,26.66662],[95.22439,26.66107],[95.21913,26.65421],[95.21449,26.64924],[95.20948,26.64508],[95.20581,26.6427],[95.19664,26.64095],[95.19092,26.64132],[95.18169,26.63687],[95.17395,26.62779],[95.17106,26.62369],[95.15797,26.61686],[95.15437,26.61313],[95.15336,26.60321],[95.1521,26.59547],[95.15181,26.59123],[95.15263,26.58724],[95.15581,26.58041],[95.15408,26.57439],[95.14833,26.56817],[95.14407,26.56147],[95.14397,26.55659],[95.13811,26.55407],[95.13342,26.55596],[95.12639,26.55598],[95.12427,26.55023],[95.12089,26.54658],[95.11437,26.54163],[95.11861,26.53326],[95.12031,26.52808],[95.12031,26.52339],[95.11266,26.51231],[95.10638,26.50908],[95.10302,26.50651],[95.10414,26.5027],[95.10192,26.49678],[95.0955,26.49209],[95.09051,26.48821],[95.08742,26.48428],[95.08352,26.47956],[95.07992,26.47537],[95.07552,26.47128],[95.07494,26.46697],[95.07145,26.46304],[95.06828,26.4603],[95.06668,26.45518],[95.06578,26.4504],[95.06586,26.44399],[95.07118,26.44399],[95.07452,26.44601],[95.08106,26.44681],[95.08645,26.44556],[95.08997,26.4408],[95.09624,26.43293],[95.09937,26.42955],[95.10091,26.42617],[95.10557,26.42348],[95.10805,26.41722],[95.10705,26.41227],[95.10518,26.4085],[95.10479,26.40453],[95.1043,26.39993],[95.1041,26.3947],[95.12097,26.39144],[95.12433,26.38887],[95.13014,26.38399],[95.13501,26.38119],[95.13522,26.37658],[95.13385,26.36902],[95.13117,26.36004],[95.12898,26.35537],[95.12752,26.34799],[95.13087,26.33982],[95.13268,26.3359],[95.12675,26.32922],[95.12724,26.32398],[95.12793,26.31864],[95.12856,26.31493],[95.12907,26.3105],[95.13038,26.30063],[95.13068,26.29584],[95.12997,26.2898],[95.13028,26.28574],[95.1289,26.28196],[95.12622,26.27822],[95.1204,26.27262],[95.11981,26.26811],[95.12179,26.26194],[95.124,26.25748],[95.12782,26.25344],[95.12874,26.24936],[95.12738,26.24577],[95.12484,26.23904],[95.12197,26.23575],[95.12028,26.23189],[95.12218,26.22617],[95.12741,26.22265],[95.13224,26.21878],[95.1396,26.21126],[95.14152,26.20735],[95.13722,26.20236],[95.13319,26.2008],[95.12729,26.19628],[95.12366,26.18975],[95.12671,26.18708],[95.12477,26.17583],[95.12194,26.16946],[95.11916,26.16535],[95.117,26.16205],[95.11578,26.15611],[95.11942,26.14819],[95.1227,26.14218],[95.12677,26.13002],[95.12425,26.12436],[95.12208,26.1207],[95.11976,26.11505],[95.11942,26.10277],[95.12211,26.09722],[95.12555,26.094],[95.13033,26.09329],[95.13688,26.09553],[95.14305,26.0939],[95.14678,26.09086],[95.15043,26.08782],[95.15625,26.08907],[95.16471,26.09191],[95.16976,26.08967],[95.17576,26.08514],[95.17891,26.08265],[95.18411,26.07751],[95.18443,26.07317],[95.1823,26.06733],[95.17904,26.06414],[95.17626,26.06039],[95.17175,26.05459],[95.16677,26.05061],[95.16429,26.04623],[95.1639,26.03739],[95.16369,26.0317],[95.16341,26.02782],[95.16134,26.02424],[95.1476,26.01165],[95.14134,26.00371],[95.13936,25.99932],[95.13531,25.99703],[95.13023,25.99296],[95.12665,25.98814],[95.1162,25.98063],[95.10878,25.96856],[95.10513,25.96103],[95.09201,25.95439],[95.08714,25.95049],[95.07762,25.94378],[95.0721,25.94197],[95.06418,25.94065],[95.05608,25.93997],[95.05174,25.9375],[95.04864,25.93222],[95.04357,25.92779],[95.03538,25.9281],[95.03451,25.9245],[95.03503,25.92006],[95.03178,25.9174],[95.0267,25.91288],[95.02053,25.90303],[95.01999,25.90173],[95.01875,25.89873],[95.01796,25.89405],[95.01893,25.88754],[95.02079,25.88058],[95.0208,25.88055],[95.01766,25.8778],[95.01419,25.87369],[95.01402,25.86503],[95.01684,25.86083],[95.02001,25.85483],[95.02294,25.85144],[95.02611,25.84443],[95.0318,25.83946],[95.03276,25.82681],[95.03332,25.81975],[95.03599,25.81312],[95.03882,25.80991],[95.04234,25.80589],[95.04787,25.80291],[95.05027,25.798],[95.04995,25.79195],[95.04605,25.78055],[95.04396,25.77561],[95.04408,25.77145],[95.05095,25.75545],[95.0428,25.7461],[95.0391,25.74037],[95.03211,25.73425],[95.02561,25.73345],[95.0173,25.73132],[95.00783,25.73137],[95.00083,25.72552],[94.99773,25.71951],[94.99715,25.71456],[94.99162,25.70715],[94.98744,25.70197],[94.98207,25.69718],[94.97834,25.6948],[94.97471,25.69241],[94.97157,25.68966],[94.9522,25.6764],[94.94128,25.66826],[94.93599,25.66202],[94.93351,25.65754],[94.93255,25.65402],[94.93104,25.64701],[94.92822,25.63964],[94.92502,25.63354],[94.92387,25.62534],[94.92065,25.61745],[94.91928,25.6078],[94.91802,25.60412],[94.91557,25.60063],[94.90982,25.59629],[94.9018,25.59406],[94.89409,25.59101],[94.88732,25.58614],[94.88604,25.58065],[94.89022,25.57507],[94.89541,25.5704],[94.90248,25.56415],[94.9033,25.56008],[94.88614,25.55843],[94.85584,25.55643],[94.85137,25.5564],[94.84178,25.54886],[94.83521,25.54362],[94.83227,25.53987],[94.82815,25.53152],[94.82795,25.52612],[94.82718,25.52124],[94.82366,25.51407],[94.82042,25.51032],[94.81857,25.50683],[94.81696,25.49998],[94.81386,25.49307],[94.8108,25.48851],[94.80419,25.48652],[94.79544,25.48691],[94.78815,25.4844],[94.78285,25.48339],[94.77728,25.4775],[94.77107,25.47452],[94.76541,25.47568],[94.76288,25.47869],[94.76069,25.48477],[94.75503,25.4853],[94.75377,25.48116],[94.7499,25.4758],[94.74486,25.47243],[94.73757,25.4701],[94.72928,25.46803],[94.72019,25.46581],[94.71301,25.46437],[94.70083,25.462],[94.69406,25.46154],[94.68706,25.45893],[94.68085,25.45317],[94.66818,25.44883],[94.66439,25.44888],[94.65717,25.45055],[94.6549,25.45211],[94.64668,25.45516],[94.63144,25.45924],[94.62384,25.46269],[94.60602,25.47609],[94.59589,25.47994],[94.59343,25.48184],[94.58938,25.48346],[94.58577,25.48616],[94.58356,25.49059],[94.57319,25.49899],[94.56679,25.50036],[94.55604,25.50657],[94.55763,25.51815],[94.55991,25.5245],[94.55693,25.5287],[94.56213,25.53349],[94.55853,25.53954],[94.56156,25.54334],[94.56006,25.55434],[94.56335,25.56177],[94.5591,25.56183],[94.56025,25.5722],[94.55444,25.57968],[94.5583,25.58798],[94.56389,25.59646],[94.56565,25.59796],[94.56737,25.60165],[94.57155,25.60517],[94.57568,25.61422],[94.57726,25.62009],[94.58253,25.62834],[94.58926,25.63411],[94.59332,25.63648],[94.59394,25.63768],[94.58572,25.64044],[94.57487,25.63858],[94.57602,25.64221],[94.57558,25.64671],[94.58015,25.65127],[94.58084,25.65449],[94.58401,25.65565],[94.58224,25.6591],[94.5844,25.66388],[94.58618,25.66567],[94.58415,25.66873],[94.58694,25.67114],[94.58878,25.67513],[94.59576,25.68078],[94.59444,25.68515],[94.58587,25.68579],[94.58183,25.6871],[94.57745,25.68992],[94.57187,25.69158],[94.56685,25.68616],[94.56393,25.67476],[94.55106,25.66137],[94.55061,25.65641],[94.54357,25.65151],[94.53837,25.64505],[94.53039,25.64412],[94.5295,25.63657],[94.52702,25.63829],[94.52304,25.63742],[94.51334,25.6245],[94.50972,25.62392],[94.5075,25.62093],[94.50662,25.61297],[94.5042,25.61101],[94.50066,25.61406],[94.49876,25.61285],[94.49813,25.61054],[94.49227,25.60838],[94.48995,25.61272],[94.49002,25.61386],[94.47291,25.61574],[94.44814,25.59523],[94.44668,25.59218],[94.44314,25.59016],[94.43662,25.59003],[94.42889,25.5869],[94.42452,25.57566],[94.42124,25.57018],[94.42396,25.56718],[94.42522,25.55561],[94.42442,25.54708],[94.4191,25.53682],[94.41562,25.53612],[94.40972,25.53772],[94.40333,25.5351],[94.38738,25.53081],[94.36353,25.51577],[94.3279,25.50271],[94.31956,25.49365],[94.31241,25.48884],[94.30786,25.48819],[94.30152,25.48904],[94.29791,25.49514],[94.28967,25.50397],[94.28568,25.50616],[94.27878,25.49991],[94.27309,25.49747],[94.26589,25.49693],[94.2562,25.49793],[94.25102,25.4936],[94.2307,25.49289],[94.22811,25.49058],[94.22196,25.49136],[94.21886,25.49423],[94.21385,25.49485],[94.21182,25.49744],[94.21194,25.5028],[94.20591,25.50629],[94.20591,25.5086],[94.19829,25.51744],[94.18979,25.52547],[94.18921,25.52933],[94.19299,25.53689],[94.19396,25.54712],[94.19094,25.54565],[94.18188,25.54798],[94.17866,25.54492],[94.16702,25.54177],[94.16264,25.54469],[94.15926,25.55003],[94.15201,25.54264],[94.15095,25.53664],[94.14731,25.52648],[94.14435,25.52244],[94.13785,25.51851],[94.12764,25.52071],[94.10523,25.52379],[94.09129,25.52764],[94.09171,25.53289],[94.09537,25.53664],[94.09415,25.54136],[94.08517,25.55468],[94.07928,25.55655],[94.06866,25.55397],[94.06395,25.56137],[94.05341,25.5718],[94.0453,25.57601],[94.04293,25.57253],[94.03831,25.57493],[94.03848,25.5781],[94.03722,25.577],[94.0342,25.57657],[94.03273,25.57978],[94.02659,25.58309],[94.02485,25.58849],[94.01409,25.59126],[94.00975,25.59055],[94.00701,25.58608],[94.00718,25.58267],[94.01109,25.57422],[94.01161,25.57042],[94.01093,25.56788],[94.00974,25.56643],[94.00677,25.56498],[93.99995,25.56903],[93.97983,25.56643],[93.97721,25.56135],[93.972,25.55638],[93.96458,25.55179],[93.95676,25.55198],[93.94311,25.5586],[93.94291,25.55869],[93.92953,25.56068],[93.91875,25.55935],[93.91653,25.56204],[93.91035,25.56287],[93.90429,25.56278],[93.89967,25.56408],[93.89549,25.56394],[93.89141,25.5638],[93.87783,25.55738],[93.86172,25.55296],[93.8518,25.5541],[93.84371,25.55716],[93.83601,25.55855],[93.83299,25.55686],[93.83277,25.55191],[93.82457,25.55151],[93.82286,25.54367],[93.81923,25.5399],[93.81544,25.54097],[93.80737,25.54006],[93.77904,25.53364],[93.77138,25.53641],[93.77019,25.53589],[93.77053,25.53163],[93.7685,25.52632],[93.76771,25.5209],[93.76885,25.51331],[93.76382,25.51109],[93.76531,25.4955],[93.76886,25.49235],[93.77289,25.49342],[93.78795,25.50204],[93.79674,25.49992],[93.80351,25.49455],[93.80707,25.49106],[93.81332,25.48022],[93.80842,25.46108],[93.80465,25.45892],[93.80184,25.45591],[93.79777,25.44943],[93.79315,25.44417],[93.7896,25.4389],[93.7875,25.4314],[93.78387,25.42746],[93.77993,25.42502],[93.78047,25.42024],[93.76382,25.41369],[93.75975,25.40968],[93.74608,25.4013],[93.7414,25.3955],[93.73948,25.39077],[93.74072,25.38503],[93.73918,25.38001],[93.73039,25.37597],[93.7225,25.3712],[93.71838,25.36598],[93.71744,25.35722],[93.71098,25.35372],[93.69939,25.35507],[93.69219,25.35727],[93.69085,25.34309],[93.6865,25.32688],[93.68331,25.32531],[93.67148,25.32441],[93.67334,25.31296],[93.67231,25.3072],[93.66548,25.30399],[93.66412,25.29994],[93.66498,25.29413],[93.65098,25.27474],[93.65072,25.26938],[93.64925,25.26483],[93.64291,25.26161],[93.64246,25.25573],[93.63744,25.24614],[93.63121,25.23866],[93.62825,25.2315],[93.62048,25.22067],[93.6119,25.20196],[93.60733,25.19783],[93.60361,25.20011],[93.60035,25.19818],[93.59644,25.2001],[93.59236,25.19972],[93.5922,25.20248],[93.59418,25.20694],[93.59133,25.20973],[93.58964,25.21577],[93.58741,25.21799],[93.58522,25.21814],[93.58103,25.22185],[93.57758,25.22154],[93.57423,25.2234],[93.57015,25.22832],[93.5695,25.23148],[93.56255,25.24248],[93.55415,25.24644],[93.54662,25.24442],[93.54067,25.24131],[93.52882,25.24432],[93.52007,25.24476],[93.51589,25.24075],[93.50791,25.23971],[93.50464,25.24013],[93.50367,25.2494],[93.51031,25.27162],[93.5039,25.27179],[93.49443,25.27476],[93.4871,25.27198],[93.48293,25.2727],[93.47631,25.27511],[93.47216,25.28152],[93.47423,25.28851],[93.47473,25.29577],[93.47363,25.30537],[93.4676,25.30992],[93.46276,25.31598],[93.45635,25.32139],[93.45762,25.32619],[93.46159,25.33272],[93.45758,25.33706],[93.45156,25.34035],[93.45342,25.34427],[93.46201,25.355],[93.46594,25.35786],[93.47792,25.37599],[93.47699,25.38213],[93.47364,25.38924],[93.46693,25.39921],[93.46301,25.40712],[93.46516,25.41203],[93.4649,25.41956],[93.46165,25.43088],[93.45667,25.43814],[93.44341,25.44683],[93.4348,25.45101],[93.42735,25.45151],[93.42188,25.45106],[93.41698,25.44905],[93.4028,25.45548],[93.39581,25.46043],[93.39035,25.46549],[93.39181,25.47052],[93.39095,25.47437],[93.39123,25.47777],[93.39043,25.48196],[93.38704,25.48665],[93.38631,25.4897],[93.38299,25.49392],[93.37179,25.49751],[93.37113,25.50153],[93.36687,25.50425],[93.36502,25.50653],[93.36682,25.50926],[93.3647,25.51257],[93.36006,25.51673],[93.35759,25.52408],[93.35421,25.52761],[93.3502,25.53011],[93.35237,25.53398],[93.34926,25.53476],[93.34463,25.53252],[93.34045,25.53374],[93.33582,25.54187],[93.33183,25.54328],[93.33345,25.54549],[93.34133,25.55132],[93.34555,25.55757],[93.34838,25.55968],[93.35446,25.56164],[93.36077,25.55686],[93.36423,25.55707],[93.36603,25.55967],[93.36522,25.56618],[93.36949,25.56667],[93.37348,25.56556],[93.37604,25.56744],[93.3769,25.57014],[93.37655,25.57371],[93.38275,25.57256],[93.3848,25.57431],[93.38509,25.57759],[93.38317,25.57919],[93.38246,25.58114],[93.39068,25.58548],[93.39012,25.59111],[93.40026,25.59265],[93.40689,25.59283],[93.4093,25.59676],[93.40971,25.60045],[93.40728,25.60285],[93.4077,25.60579],[93.40912,25.60805],[93.41232,25.61004],[93.41685,25.61123],[93.41494,25.613],[93.41837,25.6174],[93.42252,25.61859],[93.4276,25.6278],[93.4311,25.62552],[93.43424,25.62619],[93.43915,25.62865],[93.43925,25.63072],[93.44159,25.63109],[93.44446,25.63434],[93.44685,25.63511],[93.44997,25.63122],[93.45204,25.63378],[93.45939,25.62941],[93.46199,25.62966],[93.46126,25.63283],[93.45865,25.6347],[93.45719,25.63688],[93.46076,25.63783],[93.46561,25.64046],[93.46857,25.64003],[93.47482,25.64054],[93.47598,25.64424],[93.48339,25.642],[93.48364,25.64799],[93.48725,25.6467],[93.49076,25.64967],[93.49024,25.6522],[93.49396,25.65148],[93.49996,25.65274],[93.50211,25.65823],[93.50832,25.66301],[93.51023,25.66722],[93.52034,25.67986],[93.51943,25.68216],[93.5169,25.68426],[93.52278,25.68939],[93.526,25.69586],[93.52859,25.68995],[93.53061,25.68888],[93.53803,25.69936],[93.5436,25.69786],[93.54389,25.69928],[93.54445,25.70206],[93.54599,25.70634],[93.54886,25.71086],[93.54983,25.71512],[93.54627,25.71768],[93.54557,25.72046],[93.54489,25.72313],[93.54678,25.73064],[93.54996,25.72859],[93.55698,25.73389],[93.55637,25.73809],[93.56201,25.73709],[93.56554,25.73747],[93.57013,25.74788],[93.56934,25.75115],[93.5735,25.75274],[93.57391,25.75579],[93.57333,25.75693],[93.58385,25.75386],[93.58724,25.75555],[93.58719,25.76166],[93.5883,25.76426],[93.59275,25.76234],[93.59377,25.76039],[93.59841,25.76445],[93.60281,25.76692],[93.60562,25.76354],[93.60577,25.76871],[93.60813,25.77294],[93.61148,25.77256],[93.62239,25.77588],[93.62362,25.77997],[93.6212,25.78128],[93.62388,25.78648],[93.62702,25.78766],[93.6276,25.79468],[93.62987,25.79603],[93.62908,25.80045],[93.63342,25.80129],[93.63414,25.80602],[93.6362,25.80973],[93.64037,25.80946],[93.64109,25.81396],[93.64443,25.8156],[93.64857,25.82],[93.65243,25.81883],[93.65683,25.82237],[93.66089,25.82039],[93.66867,25.82062],[93.66958,25.82477],[93.67262,25.82411],[93.67811,25.82484],[93.68293,25.83173],[93.68258,25.83668],[93.69209,25.84009],[93.69061,25.84352],[93.69384,25.84321],[93.69791,25.84727],[93.70365,25.84944],[93.70368,25.84564],[93.70244,25.84293],[93.70553,25.84456],[93.70649,25.84922],[93.69104,25.88526],[93.68599,25.90094],[93.68784,25.90545],[93.69784,25.91307],[93.70522,25.91727],[93.71267,25.91865],[93.71666,25.91769],[93.72908,25.92434],[93.73658,25.92647],[93.7502,25.93319],[93.75199,25.93228],[93.75216,25.93551],[93.74954,25.93797],[93.75899,25.94459],[93.76293,25.95083],[93.76855,25.95093],[93.7704,25.94939],[93.76968,25.95388],[93.77316,25.9619],[93.77894,25.95912],[93.78042,25.95648],[93.78531,25.95416],[93.78673,25.95008],[93.78953,25.94843],[93.7893,25.94486],[93.78671,25.94329],[93.7895,25.94187],[93.79078,25.94003],[93.79151,25.93589],[93.79336,25.93257],[93.7887,25.9288],[93.79328,25.92681],[93.79369,25.92186],[93.79232,25.91834],[93.79634,25.91399],[93.79836,25.90549],[93.79813,25.90209],[93.79576,25.89701],[93.79515,25.89384],[93.79188,25.89071],[93.79148,25.88586],[93.78745,25.87473],[93.78828,25.87152],[93.79065,25.86957],[93.79181,25.86549],[93.78576,25.86269],[93.78527,25.85906],[93.78145,25.85506],[93.78357,25.84972],[93.78296,25.84718],[93.78378,25.84575],[93.77977,25.8421],[93.78105,25.84043],[93.78254,25.834],[93.78446,25.83154],[93.78729,25.82372],[93.7887,25.82178],[93.79063,25.81655],[93.79124,25.81178],[93.79567,25.81009],[93.80747,25.81206],[93.81149,25.81698],[93.81873,25.82193],[93.82127,25.82809],[93.8242,25.84279],[93.83268,25.85194],[93.84225,25.85829],[93.85161,25.85863],[93.8686,25.85102],[93.8735,25.84651],[93.88257,25.8415],[93.88841,25.84804],[93.89148,25.85422],[93.89327,25.86038],[93.89847,25.85932],[93.90171,25.8666],[93.91371,25.87732],[93.91577,25.88321],[93.92372,25.88532],[93.93448,25.88694],[93.94005,25.89647],[93.9482,25.89669],[93.95969,25.90073],[93.96808,25.90627],[93.96902,25.90688],[93.97184,25.913],[93.97923,25.91512],[93.98253,25.92172],[93.97099,25.94034],[93.97076,25.94875],[93.96913,25.95633],[93.95596,25.96973],[93.95801,25.97711],[93.96058,25.99255],[93.95897,25.99801],[93.95598,26.00013],[93.95489,26.0029],[93.95838,26.00745],[93.96268,26.01772],[93.96315,26.02892],[93.96592,26.03797],[93.97267,26.04052],[93.97454,26.04772],[93.98086,26.05418],[93.99117,26.06818],[93.98945,26.06967],[93.98609,26.07914],[93.98651,26.08386],[93.99107,26.08505],[93.99258,26.08834],[93.99227,26.09339],[93.99423,26.10166],[93.99967,26.10403],[94.00227,26.10694],[94.00224,26.11042],[93.99996,26.11148],[93.99508,26.11127],[93.99137,26.1137],[93.99294,26.11585],[93.9966,26.11795],[93.99674,26.12372],[93.99846,26.12494],[93.99846,26.12656],[93.99339,26.1284],[93.9909,26.12947],[93.99335,26.13298],[93.9964,26.133],[93.99981,26.13208],[94.00324,26.1346],[94.00537,26.13744],[94.00651,26.14282],[94.00308,26.14693],[93.99983,26.15384],[94.00453,26.15967],[94.00409,26.16498],[94.005,26.16888],[94.00897,26.17614],[94.01321,26.18188],[94.02214,26.18706],[94.02682,26.19274],[94.0313,26.19497],[94.03593,26.19876],[94.03704,26.2053],[94.03678,26.2133],[94.04069,26.21909],[94.03843,26.22511],[94.04203,26.22948],[94.04448,26.23556],[94.0494,26.2458],[94.05311,26.25137],[94.0649,26.25734],[94.07071,26.25559],[94.07628,26.26479],[94.07809,26.27091],[94.0771,26.28077],[94.08035,26.28438],[94.08474,26.28415],[94.0875,26.28597],[94.09057,26.29268],[94.09836,26.29848],[94.10297,26.30423],[94.10479,26.31758],[94.10835,26.32194],[94.11159,26.32159],[94.11871,26.31824],[94.129,26.31875],[94.11967,26.32602],[94.11968,26.32923],[94.12428,26.33143],[94.13596,26.33373],[94.13907,26.33705],[94.14295,26.33762],[94.14413,26.33569],[94.14253,26.33153],[94.14699,26.3309],[94.1496,26.33456],[94.15481,26.33544],[94.1648,26.33478],[94.17242,26.33984],[94.17578,26.33965],[94.17956,26.34626],[94.18028,26.34955],[94.17562,26.35057],[94.16966,26.34951],[94.16795,26.34877],[94.16478,26.35559],[94.17389,26.36304],[94.17592,26.36721],[94.17581,26.36992],[94.17436,26.37329],[94.17942,26.38419],[94.17729,26.39504],[94.1772,26.40891],[94.17441,26.4164],[94.17691,26.42359],[94.17616,26.42732],[94.18699,26.45604],[94.20155,26.4654],[94.20982,26.47923],[94.21195,26.48536],[94.22408,26.49607],[94.22939,26.49875],[94.24035,26.50691],[94.2453,26.51239],[94.25252,26.5232],[94.2538,26.528],[94.26306,26.53942],[94.27724,26.5543],[94.28278,26.55899],[94.29029,26.55955],[94.28939,26.55534],[94.28579,26.55368],[94.28532,26.55079],[94.28609,26.54199],[94.2854,26.53571],[94.28607,26.5295],[94.2895,26.52057],[94.28922,26.51371],[94.28749,26.51035],[94.28763,26.5039],[94.29062,26.49134],[94.2928,26.48538],[94.29428,26.47608],[94.30363,26.46257],[94.31129,26.46135],[94.31378,26.46028],[94.3168,26.4582],[94.32459,26.46597],[94.32508,26.46747],[94.32421,26.47466],[94.32963,26.47911],[94.33292,26.4803],[94.33726,26.48007],[94.34374,26.48529],[94.34994,26.48808],[94.35239,26.49099],[94.35214,26.49444],[94.35388,26.4974],[94.35585,26.49869],[94.35404,26.50006],[94.35144,26.50387],[94.35493,26.50554],[94.35907,26.50439],[94.36479,26.50556],[94.36957,26.50521],[94.37794,26.50833],[94.37839,26.51237],[94.37723,26.51839],[94.37861,26.52048],[94.39174,26.52803],[94.39443,26.52783],[94.39688,26.52493],[94.39978,26.52751],[94.39924,26.52974],[94.40281,26.53399],[94.40167,26.53928],[94.40303,26.54206],[94.40708,26.54344],[94.40827,26.54489],[94.40798,26.54759],[94.40514,26.55043],[94.40645,26.55258],[94.40932,26.55233],[94.4123,26.55364],[94.41094,26.55581],[94.40812,26.55663],[94.40967,26.5642],[94.41223,26.5686],[94.41523,26.57849],[94.40644,26.59719],[94.40902,26.60505],[94.40831,26.6096],[94.41033,26.6117],[94.43494,26.6206],[94.45497,26.63422],[94.45724,26.63183],[94.46292,26.63064],[94.46523,26.63389],[94.4649,26.63555],[94.46212,26.63903],[94.46187,26.64329],[94.45903,26.65056],[94.46231,26.65838],[94.465,26.66273],[94.46841,26.66502],[94.48622,26.66888],[94.49325,26.66741],[94.49872,26.66886],[94.50345,26.67283],[94.5076,26.67813],[94.51039,26.67857],[94.51596,26.68243],[94.52015,26.68974],[94.52057,26.69659],[94.52321,26.69951],[94.52821,26.6964],[94.54133,26.70474],[94.54552,26.706],[94.55083,26.70527],[94.55511,26.70353],[94.56156,26.7032],[94.56386,26.70243],[94.56516,26.70106],[94.56275,26.68889],[94.56336,26.68568],[94.56649,26.68496],[94.57128,26.68508],[94.57509,26.68604],[94.57191,26.69125],[94.58321,26.7006],[94.58579,26.69832],[94.58938,26.69744],[94.59281,26.69772],[94.59533,26.70155],[94.59544,26.70737],[94.59659,26.71319],[94.59874,26.71494],[94.60414,26.71116],[94.60508,26.7122],[94.60505,26.71485],[94.6036,26.7188],[94.60091,26.72027],[94.59376,26.72116],[94.59562,26.72492],[94.60038,26.73276],[94.60458,26.7343],[94.6105,26.73512],[94.61086,26.73087],[94.61238,26.72765],[94.61782,26.72553],[94.62054,26.72171],[94.6215,26.71613],[94.62311,26.71449],[94.62867,26.71357],[94.63236,26.71459],[94.64067,26.7189],[94.64659,26.71942],[94.65375,26.71853],[94.6589,26.71968],[94.6655,26.72264],[94.68695,26.72743],[94.69183,26.7306],[94.69721,26.73452],[94.71175,26.74763],[94.72005,26.75285],[94.73224,26.7588],[94.73686,26.76219],[94.73808,26.76363],[94.74203,26.76835],[94.74273,26.77343],[94.74616,26.77692],[94.75109,26.77444],[94.75446,26.76907],[94.75671,26.76702],[94.7597,26.76889],[94.76038,26.77137],[94.7627,26.77468],[94.76867,26.77813],[94.76942,26.78586],[94.77346,26.7897],[94.786,26.7933],[94.79114,26.79616],[94.79532,26.79844],[94.80257,26.80076],[94.8057,26.8069],[94.80199,26.80852],[94.79702,26.81325],[94.80708,26.81594],[94.80955,26.81799],[94.81343,26.81947],[94.81543,26.82472],[94.81581,26.83152],[94.8171,26.83619],[94.82148,26.83959],[94.82213,26.84403],[94.82151,26.84919],[94.8267,26.85403],[94.83267,26.85743],[94.83689,26.86317],[94.8392,26.86872],[94.84626,26.8715],[94.85197,26.87605],[94.85378,26.88004],[94.85946,26.88799],[94.86579,26.90163],[94.86908,26.9046],[94.87012,26.90973],[94.88202,26.92142],[94.8867,26.92716],[94.89496,26.93202],[94.90177,26.93502],[94.90929,26.93694],[94.91434,26.93723],[94.91847,26.93979],[94.92425,26.94498],[94.92864,26.94675],[94.93405,26.93316],[94.93898,26.93257],[94.94165,26.93387],[94.94753,26.93479],[94.95772,26.93812],[94.96458,26.93519],[94.96717,26.93072],[94.96835,26.92602],[94.97105,26.92288],[94.97464,26.92211],[94.98003,26.91912],[94.98602,26.91272],[94.98979,26.9123],[94.9924,26.91285],[94.99154,26.91738],[94.99343,26.92062],[94.99983,26.91873],[95.00614,26.91931],[95.0169,26.91877],[95.02168,26.9198],[95.02888,26.92691],[95.03838,26.93287],[95.05497,26.93524],[95.06566,26.94253],[95.08717,26.94705],[95.11037,26.96118],[95.11354,26.96659],[95.11383,26.97186],[95.11727,26.97796],[95.1267,26.98118],[95.13731,26.98783],[95.1431,26.99256],[95.1498,26.99407],[95.15483,27.00028],[95.19587,27.03716],[95.19613,27.02669],[95.19816,27.014],[95.19793,27.00985],[95.20037,27.00037],[95.20009,26.99348],[95.19654,26.99195],[95.19545,26.98411],[95.20067,26.97966],[95.208,26.97879],[95.21018,26.97671],[95.20545,26.97626],[95.20677,26.97291],[95.20899,26.96915],[95.21525,26.96442],[95.21387,26.96217],[95.20904,26.95941],[95.20695,26.95664],[95.20871,26.95479],[95.2136,26.95282],[95.20942,26.9507],[95.21234,26.93736],[95.21458,26.93095]]]}}]}