{"type":"FeatureCollection","features":[{"type":"Feature","properties":{"id":"odisha","name":"Odisha","type":"state"},"geometry":{"type":"MultiPolygon","coordinates":[[[[86.38937,19.96351],[86.3884,19.9631],[86.38603,19.96366],[86.3828,19.96607],[86.38051,19.96797],[86.37945,19.9714],[86.38058,19.97349],[86.38435,19.97865],[86.38746,19.98077],[86.38772,19.98138],[86.3885,19.98158],[86.39217,19.9844],[86.39893,19.9888],[86.4082,19.99487],[86.40867,19.99555],[86.41333,19.99894],[86.41835,20.00452],[86.41876,20.00563],[86.41953,20.00647],[86.42368,20.00996],[86.42634,20.01042],[86.42748,20.00946],[86.42745,20.00879],[86.42792,20.00854],[86.42823,20.00535],[86.42666,20.00204],[86.42579,20.00162],[86.4244,20.00053],[86.42184,19.99679],[86.41612,19.99239],[86.41099,19.98775],[86.41037,19.98686],[86.40826,19.98549],[86.4054,19.98366],[86.39711,19.97996],[86.39497,19.978],[86.3936,19.97693],[86.39148,19.97226],[86.3903,19.9655],[86.38937,19.96351]]],[[[86.43225,20.02324],[86.42753,20.02054],[86.42517,20.02109],[86.42401,20.02184],[86.42398,20.02363],[86.42418,20.02521],[86.42554,20.02975],[86.42604,20.03108],[86.4304,20.03785],[86.43174,20.03825],[86.43342,20.03839],[86.43428,20.03385],[86.43474,20.03134],[86.43434,20.02867],[86.43372,20.02457],[86.43271,20.02349],[86.43225,20.02324]]],[[[86.79068,20.35865],[86.78946,20.35827],[86.78783,20.35924],[86.78782,20.36128],[86.7889,20.36687],[86.79118,20.37086],[86.79489,20.37341],[86.79611,20.37359],[86.79704,20.37309],[86.79802,20.37123],[86.79722,20.36556],[86.79592,20.3631],[86.79068,20.35865]]],[[[86.80741,20.36946],[86.80667,20.36926],[86.80411,20.37029],[86.80396,20.37686],[86.80217,20.38321],[86.8008,20.39035],[86.80089,20.39216],[86.80183,20.39375],[86.80232,20.3944],[86.80406,20.39563],[86.80646,20.3978],[86.80814,20.39796],[86.80927,20.39678],[86.8096,20.39608],[86.81118,20.38359],[86.81156,20.38059],[86.8111,20.37382],[86.80865,20.37032],[86.80741,20.36946]]],[[[86.7951,20.39626],[86.79335,20.39498],[86.79009,20.39648],[86.78879,20.40024],[86.78788,20.40518],[86.78814,20.41512],[86.79059,20.42543],[86.79563,20.43539],[86.7977,20.43755],[86.8001,20.44352],[86.79986,20.44748],[86.79956,20.46012],[86.80059,20.46592],[86.80069,20.46864],[86.80002,20.46913],[86.79982,20.47003],[86.79525,20.47479],[86.7941,20.48003],[86.79441,20.48612],[86.79467,20.4868],[86.7955,20.48926],[86.79869,20.49069],[86.80016,20.49109],[86.80224,20.48918],[86.80578,20.48336],[86.80626,20.48311],[86.80993,20.47074],[86.81194,20.45391],[86.81161,20.4454],[86.81105,20.44232],[86.80834,20.4363],[86.80528,20.43134],[86.80185,20.42063],[86.79765,20.40157],[86.79676,20.39867],[86.7951,20.39626]]],[[[87.05815,20.73336],[87.05608,20.73308],[87.0526,20.73341],[87.05172,20.73457],[87.05187,20.73751],[87.05306,20.73971],[87.05603,20.74097],[87.05713,20.7411],[87.06085,20.73868],[87.06016,20.73484],[87.05815,20.73336]]],[[[87.07583,20.74702],[87.07723,20.74607],[87.07806,20.74626],[87.07941,20.74438],[87.08085,20.73979],[87.08068,20.738],[87.08022,20.73439],[87.07952,20.73261],[87.07876,20.73174],[87.07677,20.73068],[87.07533,20.73052],[87.07249,20.73134],[87.07201,20.73384],[87.07202,20.73458],[87.07219,20.73855],[87.07233,20.74222],[87.07424,20.74641],[87.07451,20.74686],[87.07583,20.74702]]],[[[87.09504,20.75745],[87.09134,20.75581],[87.08825,20.75664],[87.0873,20.75715],[87.08727,20.76022],[87.08734,20.7619],[87.08785,20.76277],[87.09202,20.76416],[87.09218,20.76462],[87.09424,20.76496],[87.09469,20.76451],[87.09538,20.76153],[87.09523,20.75972],[87.09504,20.75745]]],[[[86.99276,20.77875],[86.99052,20.77652],[86.98678,20.77935],[86.98591,20.78305],[86.9916,20.78346],[86.9929,20.7814],[86.99276,20.77875]]],[[[86.88968,20.78672],[86.89228,20.78614],[86.89352,20.78632],[86.90466,20.78361],[86.90747,20.78351],[86.91112,20.78259],[86.91357,20.78337],[86.91722,20.78364],[86.91954,20.78381],[86.92048,20.78358],[86.92138,20.78389],[86.9217,20.78399],[86.92313,20.7837],[86.92705,20.78388],[86.92828,20.78397],[86.9292,20.78377],[86.93958,20.78425],[86.94579,20.78328],[86.94853,20.78219],[86.9521,20.78078],[86.95288,20.78047],[86.95324,20.78008],[86.95334,20.78002],[86.95359,20.77979],[86.95493,20.77856],[86.95498,20.7772],[86.95406,20.77543],[86.95258,20.77482],[86.94804,20.77549],[86.9297,20.77427],[86.91724,20.77626],[86.91632,20.77641],[86.9156,20.77622],[86.91442,20.7765],[86.91008,20.77629],[86.90908,20.77587],[86.89976,20.77721],[86.89515,20.77649],[86.88502,20.77902],[86.88069,20.78031],[86.87993,20.78171],[86.88,20.78285],[86.88091,20.78504],[86.88968,20.78672]]],[[[87.076,20.77486],[87.07474,20.77423],[87.0738,20.7745],[87.07123,20.77577],[87.07106,20.77713],[87.07089,20.77849],[87.07031,20.77918],[87.06983,20.77941],[87.06934,20.78125],[87.06928,20.78457],[87.07012,20.78667],[87.0697,20.78804],[87.0716,20.7918],[87.07213,20.79269],[87.07384,20.79372],[87.07629,20.79429],[87.07697,20.79358],[87.07922,20.78579],[87.0791,20.78402],[87.07871,20.78083],[87.07674,20.77549],[87.076,20.77486]]],[[[86.99928,20.79509],[86.99594,20.79224],[86.99051,20.79649],[86.99048,20.80247],[86.99568,20.80723],[87.00158,20.80497],[86.99984,20.79905],[86.99928,20.79509]]],[[[86.99538,20.84756],[86.99389,20.84671],[86.99059,20.84823],[86.9904,20.84914],[86.98899,20.85215],[86.98852,20.8524],[86.98797,20.85548],[86.98751,20.85787],[86.98815,20.86124],[86.98891,20.86234],[86.99411,20.86481],[86.99506,20.8643],[86.99603,20.86222],[86.99649,20.86174],[86.99752,20.85572],[86.99756,20.85265],[86.99538,20.84756]]],[[[86.08409,22.53374],[86.09727,22.51253],[86.09921,22.51159],[86.10384,22.49902],[86.10708,22.49356],[86.11303,22.48832],[86.11759,22.48634],[86.1256,22.48898],[86.1519,22.48258],[86.15081,22.47859],[86.1612,22.48253],[86.17166,22.4802],[86.17935,22.47988],[86.20231,22.47122],[86.20801,22.47376],[86.21475,22.46633],[86.22213,22.46854],[86.22318,22.47174],[86.22379,22.4717],[86.22254,22.46752],[86.21711,22.46321],[86.22598,22.4526],[86.22662,22.45411],[86.23408,22.4531],[86.24814,22.44807],[86.26513,22.44482],[86.27074,22.44309],[86.27692,22.44638],[86.28535,22.44907],[86.29349,22.42894],[86.29844,22.42373],[86.30617,22.41893],[86.30775,22.40881],[86.3153,22.40089],[86.3232,22.39423],[86.32535,22.38402],[86.33083,22.37675],[86.34479,22.36975],[86.35282,22.3627],[86.35812,22.35526],[86.35819,22.34915],[86.36847,22.34335],[86.38097,22.34087],[86.39602,22.32905],[86.40672,22.3232],[86.41677,22.31935],[86.42708,22.3177],[86.43008,22.31302],[86.42978,22.31008],[86.43873,22.30536],[86.4447,22.30962],[86.44557,22.31522],[86.44417,22.32026],[86.44377,22.32717],[86.44719,22.32913],[86.45492,22.32686],[86.4636,22.32591],[86.46561,22.33022],[86.46931,22.3308],[86.47237,22.3327],[86.47377,22.33606],[86.47992,22.33801],[86.48388,22.33825],[86.48706,22.3458],[86.48905,22.3482],[86.50529,22.34474],[86.50659,22.33526],[86.51331,22.32784],[86.5249,22.3244],[86.52895,22.3224],[86.53038,22.31621],[86.52613,22.31533],[86.52849,22.31169],[86.52984,22.3067],[86.53767,22.30205],[86.54516,22.30759],[86.55102,22.3028],[86.55734,22.29917],[86.56646,22.30088],[86.57296,22.30088],[86.57595,22.29684],[86.57958,22.29782],[86.58046,22.3002],[86.58371,22.3017],[86.58654,22.2988],[86.58743,22.29491],[86.59084,22.29478],[86.59086,22.29053],[86.59516,22.28605],[86.59617,22.27875],[86.60367,22.2783],[86.60786,22.28235],[86.61373,22.28268],[86.62126,22.27992],[86.63233,22.27078],[86.63544,22.27297],[86.63983,22.27309],[86.64248,22.27014],[86.6428,22.26704],[86.64655,22.26814],[86.64745,22.26579],[86.65074,22.26533],[86.65108,22.26124],[86.6535,22.25719],[86.65246,22.25366],[86.65336,22.23969],[86.65631,22.2372],[86.66551,22.23822],[86.66785,22.24148],[86.6703,22.24255],[86.67504,22.24084],[86.67511,22.23411],[86.67916,22.22899],[86.68731,22.22354],[86.69693,22.22145],[86.71659,22.22177],[86.72606,22.22088],[86.72789,22.2193],[86.72506,22.21424],[86.72276,22.202],[86.72117,22.19788],[86.72232,22.18966],[86.71845,22.18545],[86.71788,22.18239],[86.72043,22.17852],[86.72199,22.16788],[86.72029,22.16285],[86.72053,22.14765],[86.7279,22.1469],[86.73743,22.14907],[86.74459,22.14924],[86.75728,22.14813],[86.76177,22.14935],[86.77657,22.15096],[86.78197,22.15318],[86.78787,22.15431],[86.79183,22.15788],[86.79534,22.15811],[86.80545,22.15008],[86.80427,22.14328],[86.80549,22.13465],[86.80484,22.13269],[86.8021,22.13034],[86.80286,22.12949],[86.80896,22.13033],[86.81163,22.12957],[86.81296,22.12803],[86.80938,22.12129],[86.81122,22.11839],[86.81716,22.1179],[86.81984,22.11668],[86.82581,22.11786],[86.8283,22.11715],[86.83035,22.11287],[86.8363,22.10495],[86.83697,22.09937],[86.84666,22.09607],[86.85098,22.09941],[86.85284,22.10261],[86.91365,22.09067],[86.92714,22.09006],[86.93389,22.08883],[86.93689,22.09015],[86.94914,22.08629],[86.95681,22.08565],[86.96209,22.08768],[86.9719,22.08206],[86.9753,22.07831],[86.97674,22.07061],[86.99236,22.05943],[86.9953,22.05375],[86.99997,22.05017],[87.00575,22.04938],[87.00951,22.04717],[87.0142,22.04586],[87.0224,22.04566],[87.02948,22.03709],[87.03083,22.03315],[87.02828,22.02543],[87.02703,22.0165],[87.02978,22.00839],[87.03274,22.00287],[87.03669,22.00013],[87.03906,21.99365],[87.03699,21.99057],[87.0356,21.98332],[87.02508,21.97286],[87.01966,21.95779],[87.01033,21.94519],[87.00884,21.93997],[87.00729,21.92694],[87.00416,21.92272],[87.00538,21.91897],[87.00272,21.9121],[87.00602,21.91043],[87.00961,21.90015],[87.01955,21.89431],[87.02154,21.89186],[87.02472,21.89039],[87.02986,21.87501],[87.03497,21.86998],[87.05848,21.86562],[87.06679,21.86488],[87.08243,21.86447],[87.09929,21.86503],[87.0976,21.87886],[87.10092,21.88675],[87.10079,21.89089],[87.09783,21.89451],[87.0941,21.89703],[87.09322,21.8997],[87.09345,21.90274],[87.09569,21.90386],[87.09821,21.91251],[87.10424,21.91558],[87.10648,21.92067],[87.10934,21.92241],[87.11253,21.92202],[87.11501,21.92261],[87.11722,21.92574],[87.1189,21.92676],[87.12084,21.92523],[87.12817,21.92484],[87.13555,21.9226],[87.14141,21.92256],[87.14575,21.92429],[87.15245,21.93052],[87.15633,21.93258],[87.16103,21.93349],[87.16291,21.93513],[87.16452,21.9385],[87.16438,21.95363],[87.1659,21.95844],[87.16516,21.96697],[87.16982,21.97203],[87.17204,21.97792],[87.17546,21.97712],[87.17958,21.97073],[87.19296,21.96155],[87.19969,21.95811],[87.20748,21.96098],[87.21414,21.96191],[87.22575,21.95776],[87.22779,21.95778],[87.22896,21.95857],[87.23018,21.96166],[87.2333,21.96063],[87.23939,21.95893],[87.23955,21.95754],[87.23686,21.95103],[87.23677,21.94493],[87.23996,21.93832],[87.25659,21.92557],[87.2569,21.92241],[87.25507,21.91978],[87.2439,21.91145],[87.24106,21.90735],[87.23934,21.90024],[87.25185,21.8764],[87.25349,21.8712],[87.25351,21.86849],[87.24925,21.86108],[87.25214,21.85293],[87.25977,21.84861],[87.26165,21.8461],[87.26339,21.83975],[87.26619,21.83803],[87.26675,21.83458],[87.26806,21.83196],[87.26796,21.82978],[87.27203,21.82627],[87.27231,21.82448],[87.26775,21.82081],[87.26691,21.81863],[87.26991,21.81766],[87.27596,21.81786],[87.27827,21.8165],[87.27762,21.81059],[87.27612,21.80952],[87.27603,21.80819],[87.27783,21.8084],[87.27798,21.80683],[87.28508,21.80396],[87.29144,21.80864],[87.29727,21.81027],[87.29926,21.80869],[87.29892,21.80323],[87.30103,21.80014],[87.30316,21.79925],[87.31049,21.79867],[87.31201,21.79749],[87.3136,21.79373],[87.32238,21.79536],[87.32129,21.79337],[87.32174,21.79054],[87.32728,21.7908],[87.32869,21.7902],[87.3306,21.79046],[87.33452,21.79252],[87.33711,21.79203],[87.33974,21.78847],[87.34013,21.78604],[87.33943,21.78496],[87.34108,21.78402],[87.34363,21.78564],[87.34487,21.78878],[87.3489,21.79079],[87.35648,21.79056],[87.35944,21.78411],[87.36174,21.78207],[87.37216,21.77948],[87.37481,21.77287],[87.37311,21.7675],[87.37448,21.76494],[87.37603,21.76526],[87.37742,21.7669],[87.37786,21.77127],[87.3798,21.77285],[87.38767,21.77571],[87.39531,21.77529],[87.39675,21.77383],[87.39425,21.7714],[87.3975,21.771],[87.39813,21.76863],[87.39958,21.76728],[87.40427,21.76743],[87.40535,21.76972],[87.40715,21.77038],[87.41642,21.76861],[87.42914,21.77052],[87.43571,21.76926],[87.44357,21.76922],[87.4436,21.76922],[87.44796,21.76576],[87.44674,21.7602],[87.4476,21.74701],[87.44991,21.74283],[87.45539,21.74032],[87.45565,21.73732],[87.4487,21.73739],[87.44721,21.73396],[87.45848,21.73435],[87.46703,21.73132],[87.46943,21.73128],[87.47033,21.73011],[87.46999,21.7285],[87.46658,21.72718],[87.46507,21.72543],[87.46691,21.722],[87.47508,21.71213],[87.47355,21.70342],[87.47178,21.70063],[87.47397,21.69657],[87.47264,21.68877],[87.47251,21.68227],[87.46946,21.68014],[87.46932,21.67612],[87.46774,21.67379],[87.46913,21.66358],[87.46468,21.66217],[87.4629,21.65],[87.46516,21.6495],[87.47201,21.6507],[87.47497,21.64812],[87.48176,21.63684],[87.48279,21.63303],[87.48631,21.63096],[87.48689,21.62313],[87.48594,21.61894],[87.48598,21.61457],[87.4879,21.60927],[87.4902,21.60265],[87.4883,21.60261],[87.48537,21.60137],[87.4744,21.59988],[87.46873,21.5979],[87.4608,21.59344],[87.45747,21.59144],[87.44756,21.58717],[87.43763,21.58064],[87.43749,21.58018],[87.43443,21.57741],[87.43344,21.57745],[87.43304,21.57672],[87.43301,21.57626],[87.43229,21.57607],[87.43227,21.57561],[87.43126,21.57487],[87.42861,21.5727],[87.42745,21.57184],[87.42203,21.56071],[87.41751,21.55198],[87.41659,21.54885],[87.41558,21.54798],[87.41509,21.54801],[87.41307,21.54652],[87.41253,21.54565],[87.41008,21.54487],[87.40854,21.54508],[87.40278,21.54792],[87.39975,21.5544],[87.39928,21.55465],[87.39879,21.55491],[87.39841,21.55674],[87.39629,21.56183],[87.39517,21.56324],[87.39475,21.56462],[87.39402,21.56486],[87.39405,21.56532],[87.39335,21.56604],[87.39037,21.5689],[87.38448,21.57289],[87.38334,21.57238],[87.38023,21.57299],[87.37384,21.57555],[87.3651,21.5751],[87.36336,21.57539],[87.35716,21.57636],[87.34727,21.58046],[87.34588,21.58025],[87.34075,21.57799],[87.33848,21.57633],[87.33846,21.5724],[87.34373,21.56955],[87.34634,21.56874],[87.35702,21.56758],[87.35801,21.56774],[87.35937,21.56788],[87.36285,21.56624],[87.37311,21.56272],[87.37356,21.56246],[87.37375,21.56133],[87.37465,21.55947],[87.37604,21.55621],[87.37818,21.55502],[87.38088,21.55441],[87.38132,21.55349],[87.3822,21.5521],[87.38823,21.54741],[87.39089,21.54529],[87.39086,21.54483],[87.39543,21.5422],[87.39633,21.54124],[87.3963,21.54078],[87.39672,21.53983],[87.39743,21.53937],[87.39814,21.5389],[87.39848,21.53436],[87.39806,21.53302],[87.39656,21.53217],[87.39409,21.53159],[87.39337,21.53186],[87.38772,21.5322],[87.38093,21.53441],[87.37939,21.53504],[87.37389,21.53756],[87.37151,21.53813],[87.37107,21.53905],[87.36143,21.54114],[87.35469,21.54053],[87.34942,21.54124],[87.34527,21.54075],[87.32879,21.54011],[87.32615,21.5403],[87.32206,21.54048],[87.3199,21.54104],[87.30507,21.53949],[87.29658,21.53921],[87.2942,21.53978],[87.28153,21.53866],[87.2797,21.53884],[87.27546,21.53819],[87.26731,21.53926],[87.25445,21.53803],[87.25301,21.53833],[87.24884,21.5383],[87.24733,21.53814],[87.23796,21.53749],[87.22354,21.53499],[87.22306,21.53524],[87.20466,21.53045],[87.20069,21.52827],[87.19029,21.52365],[87.18672,21.52233],[87.16956,21.5158],[87.16552,21.51427],[87.16078,21.51244],[87.15024,21.50788],[87.13493,21.49834],[87.12859,21.49482],[87.12727,21.49392],[87.12168,21.48954],[87.12067,21.48866],[87.11266,21.48361],[87.10395,21.47452],[87.09716,21.46502],[87.09134,21.46039],[87.08836,21.45894],[87.08137,21.45949],[87.07356,21.46234],[87.07016,21.46206],[87.06928,21.46118],[87.06844,21.45464],[87.06783,21.44564],[87.06538,21.44077],[87.06475,21.44068],[87.06473,21.44022],[87.06256,21.43815],[87.055,21.43177],[87.05265,21.42871],[87.04153,21.41971],[87.04102,21.41926],[87.03793,21.41785],[87.03524,21.41592],[87.02278,21.40877],[87.01409,21.40377],[86.99671,21.39507],[86.98658,21.3888],[86.98572,21.38812],[86.98193,21.38487],[86.97171,21.37674],[86.96681,21.37335],[86.96091,21.36705],[86.95739,21.36449],[86.95553,21.36095],[86.95417,21.35977],[86.95148,21.35775],[86.94798,21.35244],[86.94735,21.35201],[86.93941,21.33832],[86.9377,21.33433],[86.93557,21.33107],[86.93123,21.32274],[86.93023,21.32007],[86.92975,21.31986],[86.92842,21.31647],[86.92345,21.30698],[86.91399,21.29276],[86.91185,21.28892],[86.90927,21.28543],[86.90153,21.26978],[86.89924,21.26651],[86.89504,21.25784],[86.89373,21.25585],[86.89305,21.25451],[86.89017,21.25139],[86.88977,21.25052],[86.88828,21.24861],[86.88744,21.24803],[86.884,21.24563],[86.87713,21.23847],[86.86564,21.22179],[86.86272,21.21242],[86.86121,21.20886],[86.86121,21.20886],[86.86086,21.20831],[86.85908,21.20601],[86.85527,21.19946],[86.85396,21.19665],[86.8537,21.19629],[86.85261,21.19478],[86.85031,21.18941],[86.84935,21.18723],[86.84547,21.17312],[86.84359,21.16151],[86.84318,21.15694],[86.84333,21.15651],[86.84361,21.1558],[86.84432,21.15101],[86.84495,21.13537],[86.84539,21.13443],[86.84701,21.12456],[86.8485,21.11847],[86.85339,21.10288],[86.85424,21.09583],[86.85468,21.09557],[86.85484,21.09375],[86.85894,21.08881],[86.85891,21.08835],[86.85962,21.08786],[86.86044,21.08104],[86.86397,21.0698],[86.86533,21.06815],[86.86578,21.0679],[86.86729,21.06444],[86.86748,21.0633],[86.8686,21.06189],[86.86908,21.06166],[86.87204,21.05399],[86.87305,21.05077],[86.87376,21.04989],[86.87494,21.04487],[86.87515,21.04373],[86.87562,21.04348],[86.87579,21.04258],[86.87835,21.04042],[86.87852,21.03926],[86.87868,21.03812],[86.88053,21.03625],[86.88116,21.03464],[86.88246,21.03186],[86.88477,21.02974],[86.88494,21.02858],[86.88588,21.02788],[86.88586,21.02742],[86.88862,21.02503],[86.88941,21.02137],[86.89146,21.01946],[86.8925,21.01647],[86.89458,21.01456],[86.89628,21.01044],[86.89837,21.00873],[86.90157,21.00068],[86.90204,21.00043],[86.90354,20.99719],[86.90434,20.9966],[86.90515,20.99576],[86.90558,20.99445],[86.90717,20.99031],[86.91006,20.9823],[86.91148,20.97828],[86.91217,20.97779],[86.91236,20.97689],[86.91438,20.97408],[86.91528,20.97315],[86.91932,20.96213],[86.92021,20.96115],[86.92157,20.9595],[86.92478,20.95191],[86.92595,20.95116],[86.92749,20.94696],[86.92796,20.94671],[86.93,20.94124],[86.93071,20.94074],[86.9326,20.93762],[86.93344,20.93669],[86.93462,20.93517],[86.93485,20.93393],[86.93501,20.93313],[86.93572,20.93081],[86.93665,20.92985],[86.9371,20.92961],[86.93812,20.92616],[86.93953,20.92522],[86.93994,20.92385],[86.94032,20.92247],[86.94808,20.91373],[86.95027,20.90798],[86.95117,20.9068],[86.95371,20.8974],[86.95737,20.89383],[86.95828,20.89221],[86.95892,20.89087],[86.96371,20.88633],[86.96519,20.8824],[86.96954,20.87793],[86.97235,20.87192],[86.97283,20.87166],[86.9733,20.87142],[86.97534,20.86454],[86.97854,20.8612],[86.97873,20.86029],[86.97918,20.86004],[86.98101,20.8534],[86.98125,20.8491],[86.98083,20.83936],[86.98009,20.82244],[86.97808,20.81205],[86.97773,20.81006],[86.97533,20.80024],[86.97509,20.79845],[86.97422,20.79307],[86.97051,20.79089],[86.96803,20.79195],[86.96613,20.79111],[86.96494,20.78958],[86.95876,20.78722],[86.95545,20.78849],[86.95283,20.78831],[86.94964,20.78873],[86.94193,20.79204],[86.92834,20.7904],[86.92581,20.79098],[86.91504,20.79325],[86.90878,20.79308],[86.90342,20.79196],[86.89683,20.7921],[86.89215,20.79249],[86.88524,20.79414],[86.88336,20.79514],[86.88392,20.79647],[86.88302,20.80122],[86.88236,20.80806],[86.88191,20.80854],[86.87996,20.80817],[86.87595,20.8054],[86.87506,20.7971],[86.87178,20.79361],[86.87004,20.79279],[86.86634,20.79165],[86.86126,20.7907],[86.85683,20.78883],[86.84991,20.78304],[86.84927,20.78195],[86.8323,20.77526],[86.82524,20.77104],[86.8231,20.76932],[86.82047,20.76468],[86.82004,20.75656],[86.81864,20.75299],[86.81764,20.75214],[86.81717,20.75192],[86.81538,20.75158],[86.80674,20.75487],[86.80458,20.7552],[86.8023,20.75495],[86.79851,20.75455],[86.79588,20.75241],[86.79511,20.75121],[86.79456,20.74987],[86.79444,20.74524],[86.79583,20.74427],[86.79632,20.74426],[86.79651,20.74358],[86.79634,20.74266],[86.79681,20.74242],[86.79751,20.73921],[86.79798,20.73896],[86.79803,20.73853],[86.79815,20.7376],[86.80205,20.73448],[86.81124,20.73069],[86.81319,20.72966],[86.8137,20.73008],[86.81991,20.7312],[86.82064,20.73094],[86.82185,20.73135],[86.82311,20.73242],[86.82533,20.74057],[86.82563,20.74162],[86.8265,20.7425],[86.82675,20.74497],[86.82894,20.75184],[86.8293,20.75246],[86.83077,20.75496],[86.83232,20.75605],[86.83247,20.75614],[86.83347,20.75702],[86.83651,20.75973],[86.84583,20.76695],[86.84931,20.76905],[86.85071,20.76973],[86.8572,20.77266],[86.86324,20.77394],[86.87115,20.7741],[86.88127,20.77305],[86.88552,20.77174],[86.88593,20.77013],[86.8908,20.76651],[86.89148,20.76604],[86.89144,20.76535],[86.89535,20.76375],[86.89759,20.76305],[86.90473,20.76181],[86.92178,20.76601],[86.93146,20.76672],[86.93794,20.76542],[86.93883,20.76524],[86.94124,20.76559],[86.94165,20.76627],[86.94274,20.76644],[86.94295,20.76576],[86.95122,20.76289],[86.95588,20.76449],[86.97172,20.76869],[86.97928,20.7712],[86.98515,20.77221],[86.98706,20.77188],[86.99364,20.76911],[86.99933,20.76296],[87.00027,20.75623],[87.00048,20.74594],[87.00099,20.74435],[87.00166,20.7434],[87.00554,20.73893],[87.0058,20.73784],[87.00648,20.73735],[87.00972,20.72743],[87.01007,20.71995],[87.0081,20.71438],[87.0076,20.71393],[87.00658,20.71308],[87.00018,20.71044],[86.99797,20.70987],[86.98504,20.71067],[86.98129,20.71242],[86.9808,20.71222],[86.97621,20.71281],[86.97356,20.71208],[86.9719,20.71261],[86.97028,20.71337],[86.96978,20.71317],[86.96809,20.71301],[86.96696,20.71327],[86.96339,20.71428],[86.95268,20.71606],[86.94885,20.71616],[86.94402,20.71728],[86.93411,20.71637],[86.92849,20.71412],[86.92729,20.71397],[86.92489,20.71453],[86.91462,20.7149],[86.91193,20.71466],[86.90773,20.71283],[86.90711,20.71261],[86.90671,20.71195],[86.90365,20.71096],[86.90321,20.70962],[86.90956,20.70637],[86.92527,20.70341],[86.92911,20.70301],[86.94029,20.70568],[86.95075,20.70578],[86.95168,20.70578],[86.95262,20.70551],[86.96894,20.70597],[86.97035,20.70547],[86.97337,20.70329],[86.97337,20.70146],[86.97218,20.69927],[86.96539,20.69594],[86.96229,20.69178],[86.96227,20.68931],[86.96582,20.68845],[86.97333,20.69409],[86.97529,20.69529],[86.97704,20.6965],[86.97783,20.69696],[86.97952,20.69712],[86.98164,20.69657],[86.98528,20.69706],[86.98622,20.69679],[86.98673,20.69723],[86.99523,20.69844],[86.99788,20.69877],[87.00144,20.69771],[87.00704,20.69452],[87.01206,20.69382],[87.01472,20.6944],[87.02287,20.6983],[87.03319,20.70452],[87.0425,20.71009],[87.04498,20.71118],[87.05436,20.71525],[87.05707,20.7153],[87.05614,20.71074],[87.03925,20.7018],[87.03748,20.70089],[87.03081,20.69592],[87.02935,20.6937],[87.0281,20.69263],[87.02746,20.69257],[87.02688,20.69175],[87.02481,20.69009],[87.01912,20.68608],[87.01511,20.68329],[86.98657,20.66625],[86.97507,20.65794],[86.97328,20.6569],[86.95371,20.64511],[86.94646,20.63955],[86.94511,20.63893],[86.94496,20.63847],[86.94301,20.63812],[86.94255,20.63838],[86.94182,20.63818],[86.93892,20.63599],[86.93211,20.63183],[86.9188,20.62089],[86.91412,20.61828],[86.90906,20.6134],[86.90855,20.61298],[86.90706,20.61213],[86.90566,20.61083],[86.90174,20.60694],[86.89183,20.60081],[86.88668,20.59683],[86.88155,20.59279],[86.88093,20.5927],[86.88043,20.59229],[86.8804,20.59183],[86.87983,20.59119],[86.87926,20.59052],[86.87379,20.5867],[86.87328,20.58625],[86.85561,20.57392],[86.82275,20.55639],[86.80991,20.54542],[86.80832,20.5448],[86.80029,20.53867],[86.79933,20.53795],[86.79659,20.53583],[86.7964,20.53448],[86.79589,20.53403],[86.79316,20.5328],[86.79195,20.53242],[86.7887,20.52991],[86.7872,20.52877],[86.78439,20.52576],[86.78324,20.52425],[86.78262,20.52404],[86.78225,20.52365],[86.77804,20.51852],[86.76968,20.5053],[86.76895,20.5049],[86.76728,20.5052],[86.76283,20.50721],[86.76207,20.51116],[86.76138,20.51142],[86.76102,20.51451],[86.7601,20.51502],[86.75896,20.51621],[86.7583,20.5176],[86.75738,20.5181],[86.75454,20.5171],[86.75398,20.51507],[86.75582,20.50566],[86.75678,20.50206],[86.75866,20.50059],[86.76002,20.49527],[86.76019,20.49351],[86.76004,20.49285],[86.75654,20.48779],[86.7515,20.47355],[86.75023,20.47223],[86.74974,20.47201],[86.74878,20.47185],[86.74571,20.47289],[86.74212,20.47515],[86.73987,20.47654],[86.73971,20.47768],[86.73954,20.47858],[86.73838,20.47978],[86.73535,20.4817],[86.72746,20.48184],[86.72565,20.47944],[86.72614,20.47675],[86.72731,20.47461],[86.73059,20.47309],[86.73582,20.46743],[86.73621,20.46652],[86.73692,20.46556],[86.7374,20.46534],[86.73858,20.46029],[86.73621,20.45111],[86.73521,20.44909],[86.73279,20.44064],[86.73248,20.43453],[86.73362,20.42386],[86.73326,20.41278],[86.73319,20.41053],[86.72962,20.40116],[86.72824,20.40032],[86.72483,20.39709],[86.72286,20.39626],[86.72145,20.39678],[86.71798,20.39898],[86.71685,20.39988],[86.71589,20.40063],[86.71397,20.40029],[86.71324,20.40031],[86.71208,20.39901],[86.71205,20.39538],[86.71247,20.39469],[86.71342,20.39419],[86.71435,20.39369],[86.71456,20.39301],[86.71521,20.39186],[86.71923,20.39053],[86.72198,20.38793],[86.7238,20.38109],[86.72711,20.37733],[86.7301,20.37982],[86.73171,20.38116],[86.7324,20.38271],[86.7328,20.38684],[86.73305,20.3888],[86.73406,20.38965],[86.73538,20.39412],[86.73866,20.39626],[86.74068,20.39571],[86.74591,20.39164],[86.74612,20.39096],[86.74704,20.39023],[86.74717,20.38621],[86.74501,20.38011],[86.7462,20.37797],[86.75127,20.37949],[86.75603,20.38226],[86.76467,20.38806],[86.76593,20.38894],[86.77369,20.39039],[86.77652,20.3894],[86.78084,20.38488],[86.78101,20.38081],[86.77827,20.37686],[86.7738,20.37389],[86.77273,20.37191],[86.77266,20.37056],[86.77276,20.37009],[86.77416,20.36934],[86.78066,20.37156],[86.78162,20.37172],[86.78208,20.37127],[86.7828,20.36896],[86.78249,20.36537],[86.77977,20.35893],[86.77969,20.35487],[86.78004,20.35296],[86.78156,20.34708],[86.77781,20.34384],[86.77784,20.34381],[86.78284,20.33774],[86.78367,20.33204],[86.78577,20.3306],[86.78567,20.32878],[86.78385,20.32594],[86.77,20.31616],[86.76367,20.31205],[86.75701,20.30795],[86.75226,20.3056],[86.74903,20.30349],[86.73865,20.2976],[86.7144,20.2853],[86.70851,20.28261],[86.70479,20.27983],[86.6999,20.27747],[86.69266,20.27415],[86.68857,20.27311],[86.68848,20.27294],[86.67868,20.27031],[86.67299,20.26807],[86.67225,20.26505],[86.67503,20.26189],[86.67367,20.25835],[86.66644,20.25451],[86.65594,20.24988],[86.65363,20.24864],[86.64577,20.24574],[86.63952,20.24196],[86.6332,20.23879],[86.63151,20.23854],[86.62489,20.23572],[86.62433,20.23538],[86.62158,20.23382],[86.61869,20.23206],[86.61802,20.23174],[86.6082,20.22722],[86.59702,20.21975],[86.58633,20.21455],[86.58253,20.21041],[86.58188,20.20908],[86.57512,20.20599],[86.57348,20.20379],[86.56777,20.19996],[86.55853,20.19431],[86.5563,20.19303],[86.55492,20.19214],[86.54267,20.18367],[86.54227,20.18299],[86.54161,20.18252],[86.53936,20.18059],[86.53825,20.17995],[86.53662,20.17797],[86.53549,20.17735],[86.53266,20.17414],[86.53176,20.17259],[86.53109,20.17242],[86.5296,20.17002],[86.5271,20.16753],[86.5233,20.16099],[86.52265,20.16045],[86.52189,20.15848],[86.51807,20.15411],[86.51271,20.14452],[86.51061,20.14153],[86.50999,20.1411],[86.50869,20.1389],[86.50366,20.12913],[86.49805,20.12171],[86.49006,20.10719],[86.48982,20.10679],[86.48803,20.10516],[86.48644,20.10328],[86.486,20.10194],[86.47982,20.09167],[86.47393,20.0863],[86.47325,20.0861],[86.47299,20.08543],[86.4708,20.08347],[86.46661,20.08094],[86.46611,20.08049],[86.46537,20.07984],[86.46271,20.07765],[86.4617,20.0768],[86.46024,20.07532],[86.45668,20.07126],[86.45523,20.06872],[86.45144,20.06483],[86.45103,20.06398],[86.45019,20.06378],[86.44697,20.05594],[86.44296,20.05249],[86.44198,20.05231],[86.44004,20.0515],[86.43839,20.05199],[86.43876,20.0547],[86.43858,20.0557],[86.43841,20.05697],[86.43714,20.05746],[86.43317,20.05597],[86.42901,20.05281],[86.42809,20.05146],[86.42729,20.04998],[86.42563,20.04529],[86.41713,20.03144],[86.41524,20.0283],[86.41062,20.01718],[86.40876,20.01017],[86.40721,20.006],[86.40365,20.00197],[86.40091,19.99948],[86.39968,19.99861],[86.39876,19.99935],[86.39164,20.001],[86.39168,20.00189],[86.3889,20.00362],[86.38343,20.00203],[86.38208,20.00119],[86.37966,19.99538],[86.3791,19.98593],[86.37855,19.9823],[86.37404,19.97798],[86.37054,19.9768],[86.37042,19.97671],[86.36823,19.97492],[86.3707,19.95864],[86.37655,19.95637],[86.37766,19.95524],[86.37633,19.95332],[86.37519,19.95166],[86.36661,19.9477],[86.36369,19.94734],[86.35071,19.94565],[86.34849,19.94501],[86.34709,19.94462],[86.34342,19.94303],[86.34224,19.9433],[86.33859,19.94245],[86.33714,19.94193],[86.33667,19.94218],[86.33276,19.94183],[86.32341,19.94002],[86.29875,19.93446],[86.29038,19.93119],[86.28663,19.93015],[86.28123,19.92802],[86.27026,19.92362],[86.26359,19.91939],[86.25972,19.91497],[86.25879,19.91391],[86.25632,19.91199],[86.24585,19.90834],[86.24275,19.90869],[86.24159,19.90941],[86.24149,19.90988],[86.24155,19.91123],[86.24544,19.91717],[86.24629,19.92258],[86.24536,19.92331],[86.23248,19.9332],[86.231,19.93339],[86.22812,19.93284],[86.22554,19.93134],[86.22272,19.92513],[86.22205,19.91536],[86.22112,19.90866],[86.22237,19.90725],[86.22282,19.90703],[86.22278,19.90611],[86.23055,19.90237],[86.23145,19.90192],[86.23283,19.90073],[86.23247,19.89826],[86.23219,19.89758],[86.2287,19.89455],[86.21296,19.8885],[86.21158,19.88796],[86.20174,19.88546],[86.19662,19.88339],[86.16674,19.87827],[86.15068,19.87355],[86.14635,19.87227],[86.14176,19.87089],[86.13079,19.8666],[86.11589,19.86274],[86.1131,19.86165],[86.10495,19.86085],[86.09529,19.85514],[86.09243,19.85388],[86.08328,19.85221],[86.07881,19.85297],[86.07613,19.8534],[86.06846,19.85235],[86.06428,19.85012],[86.05961,19.84681],[86.05826,19.84583],[86.04547,19.84149],[86.02767,19.83879],[86.02385,19.83851],[86.00946,19.83751],[86.00231,19.83706],[85.99355,19.83518],[85.97455,19.83332],[85.97386,19.83323],[85.95406,19.82902],[85.95308,19.8292],[85.9333,19.82461],[85.928,19.82346],[85.92519,19.82307],[85.91217,19.82036],[85.90873,19.81987],[85.90702,19.81904],[85.90462,19.81867],[85.89781,19.81696],[85.88631,19.81062],[85.86621,19.80416],[85.8596,19.8023],[85.85856,19.80204],[85.85407,19.80083],[85.84962,19.79958],[85.8461,19.79858],[85.83881,19.79549],[85.8207,19.79142],[85.80523,19.78636],[85.79715,19.78409],[85.79605,19.7837],[85.7913,19.78216],[85.78048,19.77831],[85.77051,19.77525],[85.75834,19.77005],[85.7472,19.76684],[85.74096,19.76616],[85.73898,19.76543],[85.73258,19.76326],[85.71426,19.75608],[85.7027,19.75328],[85.69637,19.75134],[85.69153,19.74872],[85.68216,19.74304],[85.67218,19.73868],[85.66656,19.73592],[85.65172,19.7265],[85.64384,19.7242],[85.62958,19.71418],[85.5698,19.68817],[85.56347,19.68241],[85.55135,19.67724],[85.54502,19.67455],[85.54231,19.67385],[85.5399,19.67272],[85.53659,19.67132],[85.53094,19.66836],[85.53015,19.66802],[85.52817,19.66661],[85.52751,19.66644],[85.52117,19.6646],[85.51557,19.66186],[85.50344,19.65667],[85.49857,19.65492],[85.4944,19.65339],[85.48879,19.65155],[85.48745,19.65107],[85.48593,19.65051],[85.47953,19.64745],[85.46763,19.64073],[85.44484,19.6324],[85.42627,19.62211],[85.41584,19.61731],[85.41302,19.61605],[85.39622,19.6074],[85.3957,19.60709],[85.39543,19.60641],[85.37794,19.59623],[85.36837,19.59188],[85.36579,19.59039],[85.35092,19.58386],[85.33677,19.57518],[85.33513,19.57416],[85.33453,19.57379],[85.33011,19.57055],[85.30295,19.55259],[85.29194,19.54591],[85.27843,19.53673],[85.25511,19.52182],[85.24935,19.51729],[85.24886,19.5169],[85.24723,19.51554],[85.24113,19.51236],[85.23742,19.50932],[85.23695,19.50887],[85.22863,19.50379],[85.22817,19.50313],[85.21415,19.49406],[85.20487,19.48672],[85.20438,19.48673],[85.20414,19.48612],[85.20021,19.48307],[85.19945,19.48286],[85.19917,19.48221],[85.18586,19.47172],[85.17797,19.46377],[85.17742,19.4632],[85.17311,19.46018],[85.16299,19.45317],[85.13414,19.4319],[85.12708,19.42714],[85.09967,19.4034],[85.09659,19.39785],[85.09578,19.39539],[85.09525,19.38793],[85.09353,19.38314],[85.09231,19.37966],[85.09007,19.37748],[85.08507,19.37425],[85.08494,19.3738],[85.08088,19.37348],[85.07892,19.37226],[85.07619,19.3712],[85.0665,19.36537],[85.0633,19.36299],[85.05897,19.36179],[85.04842,19.35444],[85.03858,19.34934],[85.03416,19.34589],[85.03378,19.34521],[85.02718,19.34136],[85.02375,19.3383],[85.01986,19.33664],[85.01213,19.33101],[84.99707,19.32086],[84.9733,19.30749],[84.96714,19.30401],[84.96613,19.30313],[84.96517,19.30249],[84.96369,19.30139],[84.95539,19.29579],[84.95489,19.29534],[84.95316,19.29404],[84.95026,19.29257],[84.94192,19.2865],[84.93824,19.28414],[84.93254,19.27879],[84.93159,19.27782],[84.92818,19.27588],[84.9272,19.27479],[84.91503,19.2657],[84.9112,19.26171],[84.89089,19.24405],[84.89002,19.24364],[84.88646,19.23856],[84.88202,19.23487],[84.88063,19.23286],[84.87337,19.22678],[84.87151,19.22441],[84.87117,19.22368],[84.86997,19.22227],[84.86942,19.22166],[84.86647,19.21905],[84.86217,19.21536],[84.84952,19.20249],[84.84804,19.2005],[84.83924,19.19122],[84.83545,19.18546],[84.83311,19.18394],[84.82513,19.17465],[84.82482,19.17426],[84.82288,19.17138],[84.81596,19.16119],[84.80875,19.15328],[84.79963,19.13819],[84.79491,19.12657],[84.7939,19.12161],[84.79306,19.12049],[84.79039,19.11436],[84.78843,19.11119],[84.78245,19.09868],[84.78134,19.09736],[84.7802,19.09604],[84.77992,19.09551],[84.77633,19.08801],[84.76858,19.08002],[84.71892,19.10892],[84.70464,19.11767],[84.70541,19.11917],[84.70484,19.12448],[84.7009,19.12836],[84.701,19.13038],[84.70442,19.13396],[84.71355,19.15236],[84.71229,19.15779],[84.70914,19.15993],[84.70463,19.15907],[84.6992,19.16046],[84.68849,19.15852],[84.68514,19.16222],[84.68042,19.16563],[84.67638,19.16443],[84.6721,19.16547],[84.67037,19.15624],[84.67249,19.15346],[84.67299,19.14405],[84.6716,19.13695],[84.66828,19.13066],[84.66442,19.1302],[84.66054,19.13171],[84.65441,19.12917],[84.64881,19.13357],[84.6475,19.13103],[84.63646,19.12949],[84.63267,19.12706],[84.61653,19.12622],[84.60179,19.1323],[84.599,19.13259],[84.59883,19.12988],[84.60293,19.12398],[84.61009,19.10538],[84.61271,19.10145],[84.61679,19.09971],[84.62156,19.10115],[84.62393,19.09884],[84.62372,19.09405],[84.62697,19.08538],[84.63158,19.0833],[84.63859,19.0815],[84.64076,19.08352],[84.64188,19.08756],[84.65175,19.09332],[84.65585,19.09309],[84.66129,19.0899],[84.66673,19.07984],[84.67171,19.07522],[84.67033,19.07338],[84.66614,19.07257],[84.66165,19.06126],[84.65486,19.06502],[84.64398,19.06607],[84.64152,19.06446],[84.6372,19.05852],[84.63324,19.05922],[84.63257,19.0617],[84.63045,19.06459],[84.61988,19.06374],[84.61868,19.06264],[84.61952,19.05866],[84.62135,19.05565],[84.61663,19.05566],[84.61475,19.05433],[84.60767,19.04187],[84.60418,19.02871],[84.59731,19.02236],[84.59488,19.02196],[84.58532,19.02786],[84.58252,19.03612],[84.58086,19.04403],[84.5823,19.04646],[84.5853,19.07099],[84.58363,19.07342],[84.57779,19.06927],[84.57572,19.0695],[84.57515,19.07233],[84.57332,19.07389],[84.56692,19.06841],[84.56081,19.05629],[84.55492,19.05497],[84.54202,19.05422],[84.53869,19.05301],[84.53436,19.04759],[84.51715,19.04633],[84.51436,19.04431],[84.51034,19.03813],[84.50502,19.03375],[84.49666,19.02983],[84.48933,19.0188],[84.48511,19.01678],[84.4828,19.00495],[84.48297,19.00067],[84.48034,18.99159],[84.47894,18.99017],[84.47013,18.99222],[84.45948,18.99725],[84.45545,19.00066],[84.45136,19.00345],[84.44469,19.00634],[84.44028,19.01073],[84.43711,19.01004],[84.42949,19.01737],[84.42734,19.02136],[84.42244,19.02269],[84.42196,19.02119],[84.42273,19.01697],[84.42535,19.01385],[84.42735,19.0097],[84.43257,19.00421],[84.43341,19.00065],[84.43286,18.99804],[84.43373,18.99287],[84.43525,18.99157],[84.43528,18.99154],[84.44203,18.98575],[84.44796,18.97588],[84.44505,18.97466],[84.44187,18.97211],[84.42763,18.95832],[84.42294,18.94703],[84.42448,18.9423],[84.42731,18.93872],[84.43673,18.92273],[84.42769,18.91394],[84.42533,18.90973],[84.41692,18.91715],[84.41352,18.91518],[84.41506,18.91018],[84.41808,18.90734],[84.41945,18.90302],[84.41718,18.89971],[84.4052,18.8952],[84.40135,18.89495],[84.39425,18.89893],[84.38584,18.90229],[84.38146,18.90307],[84.37715,18.90484],[84.37271,18.90529],[84.3723,18.90226],[84.37507,18.89838],[84.38161,18.89791],[84.38643,18.89454],[84.39349,18.89211],[84.39502,18.88676],[84.3936,18.88081],[84.39061,18.87838],[84.38547,18.88319],[84.38148,18.88559],[84.37875,18.88452],[84.36215,18.89198],[84.35885,18.89225],[84.35925,18.88685],[84.36126,18.88413],[84.36704,18.88098],[84.36873,18.88176],[84.37365,18.88079],[84.37898,18.87632],[84.37886,18.87248],[84.37675,18.86808],[84.36983,18.86019],[84.36575,18.86046],[84.36264,18.86176],[84.36153,18.86062],[84.35888,18.86002],[84.3544,18.86906],[84.3518,18.87184],[84.34722,18.87499],[84.34344,18.87578],[84.34184,18.87293],[84.34156,18.86707],[84.34158,18.86066],[84.34341,18.85054],[84.3455,18.84536],[84.35177,18.84187],[84.35261,18.83593],[84.3517,18.83186],[84.34988,18.83068],[84.34821,18.82743],[84.35154,18.82113],[84.33676,18.81819],[84.33699,18.81372],[84.34105,18.80427],[84.33968,18.80124],[84.33442,18.79889],[84.32319,18.79539],[84.32042,18.79141],[84.31996,18.78842],[84.31633,18.78766],[84.31465,18.79088],[84.31181,18.78994],[84.30786,18.79095],[84.2914,18.8],[84.28605,18.79885],[84.28282,18.79636],[84.28071,18.79167],[84.27569,18.78949],[84.27172,18.7897],[84.26641,18.78402],[84.25971,18.78167],[84.25353,18.78259],[84.23867,18.78927],[84.23821,18.79478],[84.23451,18.79631],[84.23182,18.79341],[84.22897,18.79561],[84.22423,18.7964],[84.21137,18.79176],[84.19789,18.78587],[84.19408,18.78871],[84.18906,18.78663],[84.18738,18.7781],[84.17459,18.77926],[84.17019,18.77769],[84.16575,18.7783],[84.16785,18.78143],[84.16691,18.78414],[84.16249,18.7851],[84.15894,18.78485],[84.15569,18.78086],[84.148,18.77679],[84.14258,18.77587],[84.13895,18.7739],[84.13554,18.77037],[84.13709,18.76198],[84.13054,18.75739],[84.12652,18.76213],[84.12169,18.76424],[84.1152,18.76389],[84.10833,18.76177],[84.09927,18.75434],[84.09641,18.7562],[84.0932,18.75428],[84.0894,18.75373],[84.08696,18.75519],[84.0855,18.75795],[84.07753,18.75883],[84.07341,18.76076],[84.06809,18.7717],[84.06624,18.7771],[84.06119,18.77738],[84.05683,18.77966],[84.05569,18.7834],[84.05735,18.7863],[84.05522,18.78885],[84.05557,18.79246],[84.04635,18.79639],[84.04193,18.79906],[84.0384,18.80437],[84.03834,18.80919],[84.03469,18.81112],[84.03136,18.81006],[84.02995,18.80755],[84.02728,18.80654],[84.02353,18.81031],[84.02014,18.80954],[84.01502,18.81309],[84.00761,18.81368],[83.99917,18.81354],[83.98998,18.80889],[83.97704,18.81269],[83.97169,18.81296],[83.96328,18.81191],[83.95887,18.80889],[83.95669,18.80589],[83.95137,18.80513],[83.94746,18.80544],[83.94427,18.80803],[83.94339,18.81196],[83.94126,18.81567],[83.93407,18.81536],[83.93032,18.81733],[83.92828,18.82036],[83.91544,18.82516],[83.90967,18.82569],[83.90623,18.82519],[83.90317,18.82364],[83.89834,18.81564],[83.89458,18.81418],[83.89306,18.8188],[83.89234,18.82657],[83.89093,18.82843],[83.88161,18.8265],[83.87789,18.82716],[83.87457,18.83217],[83.87204,18.84772],[83.86677,18.85168],[83.85567,18.85627],[83.85136,18.86003],[83.84479,18.87331],[83.8437,18.8777],[83.84438,18.8813],[83.84999,18.8968],[83.84931,18.90617],[83.84795,18.91258],[83.84539,18.91711],[83.84258,18.9178],[83.83074,18.91396],[83.82613,18.91561],[83.82461,18.91789],[83.82883,18.93043],[83.82657,18.93455],[83.82256,18.93848],[83.82108,18.94201],[83.82373,18.95706],[83.82244,18.96157],[83.81831,18.9732],[83.81573,18.97676],[83.81019,18.99014],[83.79882,19.00065],[83.79661,19.00661],[83.79596,19.01607],[83.79469,19.01662],[83.79363,19.01704],[83.79252,19.01734],[83.79141,19.01758],[83.79029,19.01782],[83.78915,19.01804],[83.78802,19.01819],[83.78654,19.01825],[83.78539,19.01813],[83.7843,19.01776],[83.7833,19.0172],[83.7824,19.01649],[83.78159,19.0157],[83.78087,19.01484],[83.78025,19.0139],[83.77971,19.01292],[83.77923,19.01191],[83.77878,19.01089],[83.77832,19.00987],[83.77786,19.00884],[83.77709,19.00803],[83.77615,19.00733],[83.77515,19.00668],[83.77406,19.00621],[83.7729,19.00586],[83.77173,19.00557],[83.77056,19.0053],[83.7694,19.00503],[83.76824,19.00472],[83.76712,19.00431],[83.76612,19.00372],[83.76545,19.00281],[83.76462,19.00216],[83.7635,19.00186],[83.76237,19.00162],[83.76122,19.00141],[83.76009,19.00158],[83.75895,19.00153],[83.75829,19.00067],[83.75692,18.99892],[83.74876,18.99213],[83.74725,18.98671],[83.74941,18.97535],[83.75366,18.97153],[83.7567,18.96676],[83.75605,18.9597],[83.75806,18.95272],[83.7629,18.95039],[83.76917,18.95296],[83.77295,18.94479],[83.77758,18.94136],[83.78484,18.9275],[83.78777,18.91619],[83.7851,18.91285],[83.77899,18.90976],[83.7782,18.91004],[83.77522,18.91081],[83.77055,18.91498],[83.76387,18.9251],[83.75353,18.92657],[83.74986,18.93152],[83.74912,18.93865],[83.74764,18.94242],[83.7442,18.94731],[83.73774,18.96846],[83.73515,18.97436],[83.73398,18.98382],[83.72459,18.99077],[83.71909,18.99318],[83.71647,18.99203],[83.71342,18.99346],[83.71254,19.00021],[83.7124,19.00068],[83.71206,19.0035],[83.7127,19.00765],[83.7171,19.01014],[83.72247,19.01033],[83.72754,19.01249],[83.73091,19.02008],[83.72896,19.0216],[83.72451,19.02262],[83.70752,19.02319],[83.70472,19.02462],[83.70185,19.02927],[83.69207,19.05201],[83.68406,19.0605],[83.67441,19.07247],[83.67029,19.0745],[83.66737,19.07774],[83.66453,19.08293],[83.66578,19.09008],[83.66515,19.09572],[83.65793,19.10802],[83.6556,19.11017],[83.65546,19.11385],[83.65355,19.11663],[83.65239,19.12119],[83.65395,19.12239],[83.65742,19.12272],[83.65839,19.12629],[83.6571,19.12976],[83.65322,19.13098],[83.64097,19.13229],[83.63751,19.13484],[83.6361,19.13934],[83.63785,19.1526],[83.63617,19.15755],[83.63093,19.16142],[83.62882,19.1597],[83.6279,19.15643],[83.63039,19.1525],[83.62679,19.14969],[83.62176,19.14164],[83.61828,19.13876],[83.61289,19.13885],[83.6082,19.13552],[83.60199,19.12816],[83.60135,19.12333],[83.60199,19.11843],[83.60446,19.11306],[83.61209,19.10076],[83.61212,19.09609],[83.60755,19.0927],[83.60091,19.09278],[83.59533,19.09096],[83.59214,19.08763],[83.5899,19.08355],[83.58951,19.0707],[83.58851,19.0631],[83.5865,19.05775],[83.57508,19.0602],[83.56878,19.05832],[83.56538,19.05931],[83.56416,19.06376],[83.56484,19.0679],[83.5681,19.07186],[83.56841,19.07412],[83.56269,19.086],[83.55921,19.08572],[83.55416,19.08171],[83.55258,19.07728],[83.55259,19.06996],[83.55922,19.0583],[83.56003,19.05513],[83.55546,19.0529],[83.55051,19.04479],[83.54353,19.0383],[83.54257,19.03657],[83.54084,19.02735],[83.54086,19.02044],[83.53915,19.01342],[83.52307,19.01289],[83.51236,19.01804],[83.50317,19.01904],[83.5007,19.02596],[83.50039,19.0319],[83.50132,19.03472],[83.50706,19.035],[83.51169,19.03413],[83.51594,19.02991],[83.52143,19.03271],[83.52098,19.03824],[83.51784,19.04408],[83.51756,19.04799],[83.51849,19.05589],[83.51623,19.05779],[83.51392,19.06218],[83.51314,19.07262],[83.51063,19.07251],[83.50811,19.06991],[83.50408,19.06336],[83.50139,19.06095],[83.50026,19.0628],[83.48818,19.07429],[83.48593,19.07804],[83.48474,19.08311],[83.481,19.08555],[83.47978,19.08054],[83.47804,19.07812],[83.47523,19.07767],[83.4716,19.07918],[83.46716,19.07746],[83.46602,19.07493],[83.4669,19.07129],[83.46512,19.06761],[83.46446,19.06392],[83.47104,19.06044],[83.47056,19.05179],[83.47322,19.04405],[83.48513,19.03342],[83.48574,19.02909],[83.48289,19.01945],[83.48443,19.01201],[83.48237,19.00826],[83.47962,19.00693],[83.4753,19.00686],[83.46626,19.01003],[83.46107,19.01038],[83.45796,19.0098],[83.4563,19.00755],[83.456,19.00387],[83.45688,19.00055],[83.45802,18.99038],[83.46551,18.99047],[83.46808,18.98876],[83.46611,18.98046],[83.46674,18.97844],[83.46928,18.97592],[83.47005,18.9716],[83.47008,18.96724],[83.46329,18.95363],[83.45903,18.9525],[83.45466,18.95367],[83.45048,18.95576],[83.44781,18.95823],[83.44429,18.96587],[83.44074,18.96938],[83.42264,18.9858],[83.41659,18.98781],[83.41923,18.99663],[83.41839,19.0005],[83.41665,19.00407],[83.41472,19.00297],[83.41245,19.00108],[83.41013,19.00304],[83.40921,19.00425],[83.40385,19.0037],[83.40077,19.007],[83.39658,19.00787],[83.39253,19.00513],[83.38503,19.00257],[83.37531,19.00147],[83.37015,19.00257],[83.36583,19.01395],[83.3628,19.01719],[83.35417,19.01768],[83.34874,19.01694],[83.34844,19.01682],[83.3428,19.0145],[83.34055,19.00764],[83.3385,19.00622],[83.33793,19.00476],[83.3386,19.00037],[83.33905,18.99788],[83.33702,18.99599],[83.33322,18.99662],[83.32427,18.9982],[83.31568,18.99874],[83.31313,18.99746],[83.31218,18.99478],[83.31559,18.99105],[83.31698,18.98816],[83.31746,18.98464],[83.32119,18.97447],[83.32767,18.96919],[83.33342,18.96684],[83.33477,18.96521],[83.3335,18.96081],[83.33386,18.95805],[83.3349,18.95579],[83.33675,18.95472],[83.3389,18.95371],[83.34031,18.95127],[83.34088,18.94724],[83.33899,18.94556],[83.32906,18.94395],[83.32637,18.94153],[83.32674,18.93636],[83.32778,18.93375],[83.32989,18.93119],[83.33688,18.92487],[83.34241,18.92379],[83.34693,18.92417],[83.34922,18.92637],[83.34744,18.93415],[83.34738,18.93984],[83.3477,18.94115],[83.35113,18.9431],[83.35265,18.95317],[83.35286,18.96419],[83.35361,18.96499],[83.36225,18.96236],[83.36672,18.96263],[83.36892,18.96132],[83.36869,18.95604],[83.37175,18.94588],[83.37528,18.94146],[83.38809,18.93129],[83.38751,18.92952],[83.38419,18.92579],[83.3817,18.9248],[83.37886,18.92509],[83.37193,18.93078],[83.37062,18.93804],[83.36309,18.94099],[83.35688,18.94179],[83.35577,18.94009],[83.35446,18.93482],[83.35554,18.92896],[83.35804,18.92391],[83.36438,18.91283],[83.3684,18.9092],[83.37502,18.90839],[83.38471,18.91051],[83.38885,18.90987],[83.39176,18.90775],[83.39111,18.90529],[83.38232,18.9],[83.38035,18.8979],[83.38176,18.89398],[83.38678,18.88837],[83.39355,18.8836],[83.39326,18.88137],[83.39569,18.87914],[83.40214,18.87633],[83.40965,18.87521],[83.41372,18.87348],[83.4192,18.86751],[83.4186,18.86495],[83.41663,18.86263],[83.41469,18.86186],[83.40774,18.86181],[83.40574,18.86076],[83.40482,18.85739],[83.40661,18.84174],[83.4042,18.83891],[83.39439,18.83398],[83.39102,18.83427],[83.38424,18.83015],[83.38073,18.82941],[83.37017,18.84027],[83.36679,18.84017],[83.36139,18.83567],[83.35802,18.82981],[83.35149,18.82597],[83.33615,18.8189],[83.33296,18.81603],[83.33121,18.81278],[83.33048,18.80975],[83.33096,18.80647],[83.3262,18.80404],[83.32198,18.80399],[83.31216,18.80704],[83.30829,18.80608],[83.30005,18.80071],[83.28745,18.79777],[83.28321,18.79354],[83.27788,18.78347],[83.27712,18.77895],[83.27922,18.77552],[83.27968,18.77139],[83.27787,18.76803],[83.27407,18.76522],[83.26733,18.76581],[83.26338,18.76702],[83.25307,18.76628],[83.24753,18.76695],[83.23728,18.7723],[83.23069,18.77408],[83.22738,18.77396],[83.22504,18.7717],[83.22531,18.7671],[83.22987,18.76019],[83.23069,18.7568],[83.23099,18.75616],[83.23034,18.75324],[83.22834,18.75024],[83.22246,18.7454],[83.22055,18.74268],[83.21479,18.72572],[83.21307,18.72409],[83.21133,18.7278],[83.20858,18.72725],[83.20684,18.72762],[83.20574,18.73275],[83.20395,18.7333],[83.19998,18.73078],[83.19722,18.73123],[83.19461,18.73346],[83.19202,18.73367],[83.17479,18.72421],[83.17185,18.72185],[83.17473,18.71508],[83.17566,18.70995],[83.17529,18.70657],[83.17319,18.70092],[83.16459,18.70457],[83.15817,18.70273],[83.15494,18.70089],[83.15028,18.67502],[83.14704,18.66905],[83.14042,18.66927],[83.13106,18.66202],[83.12506,18.65977],[83.11489,18.66327],[83.10592,18.66107],[83.09644,18.66524],[83.09214,18.664],[83.08869,18.66008],[83.08673,18.65513],[83.08665,18.64784],[83.08809,18.64098],[83.09414,18.63021],[83.0933,18.62712],[83.08767,18.61613],[83.08387,18.61178],[83.07902,18.6102],[83.07735,18.6139],[83.07759,18.61699],[83.07489,18.62112],[83.07222,18.62265],[83.06116,18.62346],[83.05776,18.62215],[83.05252,18.61472],[83.05027,18.61039],[83.04921,18.60502],[83.05701,18.60355],[83.06022,18.60137],[83.06207,18.59479],[83.05924,18.59139],[83.05288,18.5865],[83.05016,18.58563],[83.04464,18.58589],[83.04188,18.58404],[83.03927,18.58012],[83.03499,18.57629],[83.03359,18.57264],[83.04184,18.56664],[83.04062,18.55627],[83.04837,18.55328],[83.05326,18.54774],[83.05932,18.54334],[83.06551,18.54312],[83.07961,18.55092],[83.09518,18.54951],[83.09746,18.54638],[83.09664,18.54123],[83.09046,18.53564],[83.08131,18.52322],[83.07697,18.51055],[83.07328,18.50608],[83.06853,18.50294],[83.06336,18.49665],[83.05997,18.48603],[83.05205,18.48065],[83.04521,18.47169],[83.04234,18.46933],[83.03492,18.46549],[83.03275,18.46226],[83.02464,18.45624],[83.02362,18.45299],[83.02626,18.44898],[83.03304,18.44526],[83.04055,18.44479],[83.04551,18.44345],[83.04722,18.44066],[83.0464,18.43534],[83.04152,18.43197],[83.04375,18.42872],[83.04566,18.42759],[83.05082,18.42694],[83.05677,18.4335],[83.06647,18.43771],[83.06803,18.43728],[83.07029,18.42955],[83.06883,18.42791],[83.06866,18.42217],[83.06351,18.4168],[83.06405,18.41306],[83.06726,18.40773],[83.07195,18.40443],[83.07406,18.40189],[83.07472,18.401],[83.07405,18.39814],[83.06444,18.38601],[83.06163,18.38405],[83.04775,18.37883],[83.04521,18.37858],[83.04012,18.38199],[83.032,18.38517],[83.02829,18.39218],[83.02542,18.3932],[83.01985,18.38691],[83.01172,18.38561],[83.00538,18.38355],[83.00112,18.38351],[83.0002,18.38368],[82.99587,18.37819],[82.99437,18.3746],[82.98945,18.37451],[82.98667,18.36969],[82.98471,18.36362],[82.97705,18.36627],[82.96806,18.36592],[82.96031,18.36303],[82.95377,18.35914],[82.94098,18.36003],[82.93586,18.36963],[82.92833,18.36837],[82.92341,18.36503],[82.91994,18.366],[82.91666,18.36805],[82.91104,18.36452],[82.9068,18.36791],[82.90013,18.37546],[82.89318,18.38717],[82.8992,18.40075],[82.89904,18.40711],[82.89661,18.41474],[82.89287,18.42123],[82.88761,18.42311],[82.88533,18.4203],[82.87826,18.41467],[82.87122,18.41638],[82.86423,18.41925],[82.85689,18.42345],[82.85317,18.4182],[82.84804,18.42019],[82.84524,18.42269],[82.84401,18.43263],[82.8384,18.4345],[82.827,18.44172],[82.8266,18.44687],[82.80742,18.44772],[82.80023,18.44146],[82.79537,18.43507],[82.78448,18.42802],[82.78447,18.42386],[82.78672,18.41784],[82.78988,18.41262],[82.78945,18.40783],[82.79566,18.40821],[82.80157,18.40338],[82.79576,18.39861],[82.79504,18.393],[82.79591,18.38659],[82.78926,18.38095],[82.78622,18.37935],[82.79251,18.36262],[82.77975,18.34817],[82.77538,18.33958],[82.77017,18.33631],[82.76682,18.33568],[82.76277,18.33831],[82.75936,18.33682],[82.75898,18.33179],[82.75474,18.32834],[82.74614,18.32839],[82.74112,18.32639],[82.74266,18.32175],[82.73365,18.32006],[82.72559,18.32328],[82.71925,18.32129],[82.71088,18.31693],[82.70884,18.30827],[82.70644,18.30476],[82.70208,18.30581],[82.69868,18.30555],[82.69013,18.30125],[82.68094,18.30066],[82.67329,18.29908],[82.66719,18.29506],[82.66485,18.28726],[82.6606,18.28063],[82.65748,18.27233],[82.65323,18.26558],[82.65596,18.25325],[82.65369,18.24898],[82.64556,18.24347],[82.64005,18.23708],[82.63528,18.23728],[82.62878,18.24488],[82.6218,18.24793],[82.61942,18.25233],[82.6202,18.25499],[82.61787,18.25772],[82.60916,18.26048],[82.60665,18.26292],[82.59758,18.26516],[82.59705,18.27054],[82.59562,18.27419],[82.59156,18.27496],[82.58912,18.2785],[82.59265,18.28161],[82.59683,18.28344],[82.59677,18.28673],[82.59397,18.28934],[82.59594,18.29315],[82.59869,18.29615],[82.5993,18.30031],[82.5962,18.31038],[82.59106,18.30914],[82.58814,18.30938],[82.58479,18.31512],[82.58641,18.31766],[82.59161,18.31972],[82.5943,18.32421],[82.59802,18.32778],[82.60404,18.32422],[82.61049,18.32558],[82.61217,18.32869],[82.60866,18.33906],[82.60592,18.34191],[82.60484,18.34914],[82.60747,18.35069],[82.6162,18.34995],[82.61961,18.35473],[82.61698,18.35949],[82.614,18.36106],[82.60689,18.36225],[82.60594,18.36446],[82.60762,18.3682],[82.60601,18.37081],[82.60918,18.37427],[82.60882,18.37693],[82.60733,18.37983],[82.60195,18.3787],[82.59748,18.38531],[82.58912,18.38702],[82.58565,18.38549],[82.58387,18.38804],[82.5789,18.39234],[82.57352,18.39213],[82.56433,18.39663],[82.56003,18.3952],[82.55775,18.39163],[82.55065,18.39715],[82.54347,18.39765],[82.54061,18.40154],[82.54091,18.40489],[82.54863,18.40994],[82.54886,18.4115],[82.54528,18.41227],[82.54421,18.41638],[82.54798,18.42492],[82.55342,18.4253],[82.55433,18.43217],[82.55851,18.43453],[82.55935,18.44192],[82.56205,18.44567],[82.5584,18.4469],[82.55602,18.4498],[82.55249,18.4493],[82.54663,18.45117],[82.54728,18.44609],[82.54388,18.44465],[82.54137,18.44206],[82.53844,18.4423],[82.53706,18.44833],[82.53766,18.45093],[82.53498,18.45528],[82.53145,18.45373],[82.52948,18.45507],[82.5287,18.45848],[82.53145,18.46073],[82.5244,18.46382],[82.52602,18.46722],[82.53003,18.4697],[82.53577,18.47614],[82.53397,18.47846],[82.52926,18.48028],[82.53578,18.48563],[82.53273,18.49073],[82.52778,18.4904],[82.52831,18.49514],[82.53274,18.49766],[82.53029,18.50485],[82.53215,18.50715],[82.53138,18.51178],[82.52576,18.51348],[82.52252,18.51147],[82.51565,18.5159],[82.51242,18.51331],[82.51026,18.50956],[82.5074,18.50958],[82.50644,18.51386],[82.4897,18.52284],[82.48397,18.53714],[82.48606,18.53927],[82.49354,18.54144],[82.48984,18.5462],[82.48224,18.54455],[82.46166,18.52476],[82.45819,18.51916],[82.44539,18.50505],[82.4374,18.4929],[82.43736,18.49279],[82.43513,18.48477],[82.42861,18.47768],[82.42047,18.47245],[82.40564,18.4594],[82.39057,18.43951],[82.38896,18.43425],[82.38591,18.42981],[82.38005,18.42799],[82.37533,18.42501],[82.37431,18.42084],[82.3696,18.41774],[82.3743,18.41119],[82.38081,18.40596],[82.38321,18.40069],[82.38356,18.39097],[82.38673,18.38604],[82.39276,18.38035],[82.39276,18.37706],[82.38941,18.37463],[82.38714,18.36961],[82.38803,18.36539],[82.38469,18.36124],[82.37782,18.35832],[82.36849,18.35166],[82.3649,18.34155],[82.35857,18.33689],[82.35379,18.3298],[82.34477,18.3281],[82.3428,18.32511],[82.34937,18.31866],[82.35127,18.31536],[82.35713,18.31418],[82.36292,18.31704],[82.36633,18.31627],[82.37361,18.32446],[82.37757,18.32577],[82.38347,18.32603],[82.38885,18.32734],[82.39273,18.32674],[82.39679,18.31927],[82.40138,18.31451],[82.39571,18.3087],[82.39379,18.29719],[82.39062,18.2924],[82.38028,18.28222],[82.37544,18.27906],[82.35203,18.27974],[82.34528,18.27432],[82.34229,18.2604],[82.3402,18.25491],[82.34044,18.24827],[82.33941,18.2415],[82.33864,18.23949],[82.33093,18.23628],[82.32973,18.23061],[82.33516,18.22441],[82.34125,18.22397],[82.32816,18.20923],[82.31453,18.20385],[82.31787,18.19759],[82.31667,18.1895],[82.31874,18.18284],[82.32776,18.17968],[82.33324,18.17469],[82.34148,18.17171],[82.35007,18.17173],[82.35719,18.17014],[82.36743,18.15749],[82.37363,18.14805],[82.37278,18.14325],[82.37025,18.13759],[82.36605,18.13351],[82.35335,18.14298],[82.34674,18.14631],[82.34185,18.15072],[82.34383,18.13562],[82.33878,18.12737],[82.34097,18.11545],[82.34066,18.10255],[82.34317,18.09833],[82.34905,18.09553],[82.35166,18.09095],[82.35213,18.08348],[82.35045,18.07979],[82.35171,18.07632],[82.34546,18.05762],[82.34487,18.05579],[82.3383,18.04894],[82.33344,18.05121],[82.33471,18.05503],[82.33035,18.05868],[82.32817,18.05708],[82.32583,18.05703],[82.32427,18.05519],[82.32154,18.05369],[82.3255,18.04454],[82.32175,18.04329],[82.31816,18.04694],[82.31408,18.04632],[82.31294,18.04812],[82.31487,18.05348],[82.30957,18.05252],[82.30502,18.05462],[82.30133,18.06279],[82.30492,18.06602],[82.30642,18.0704],[82.29628,18.06899],[82.29359,18.06784],[82.29154,18.06422],[82.28746,18.06337],[82.27547,18.05671],[82.27364,18.0515],[82.27314,18.04746],[82.27074,18.04475],[82.2667,18.04332],[82.27476,18.03417],[82.27748,18.02843],[82.27935,18.01918],[82.27908,18.00628],[82.27742,18.00055],[82.27583,17.995],[82.26965,17.99096],[82.26177,17.98874],[82.25028,17.9883],[82.24689,17.99243],[82.24553,18.00051],[82.23936,18.0022],[82.23154,18.00136],[82.22673,18.00265],[82.21632,18.00916],[82.20548,18.01711],[82.19958,18.01736],[82.19364,18.01575],[82.18597,18.01896],[82.1828,18.02388],[82.18548,18.02926],[82.18169,18.03394],[82.17228,18.04993],[82.16887,18.05191],[82.15583,18.04871],[82.15082,18.05184],[82.14091,18.0439],[82.13894,18.04916],[82.13775,18.05692],[82.13561,18.05924],[82.12783,18.05943],[82.12178,18.06604],[82.1191,18.06587],[82.11649,18.06224],[82.10087,18.06095],[82.09767,18.06559],[82.08857,18.06862],[82.08072,18.07378],[82.07839,18.06859],[82.07291,18.06652],[82.06748,18.06658],[82.06951,18.06213],[82.07398,18.05946],[82.07416,18.05708],[82.06824,18.05328],[82.05939,18.05262],[82.05369,18.05373],[82.04115,18.05983],[82.03838,18.06463],[82.03316,18.06597],[82.02529,18.06321],[82.01515,18.05728],[82.0101,18.05289],[82.01325,18.04243],[82.01064,18.03636],[82.01019,18.03179],[82.00001,18.02993],[81.9974,18.02845],[81.99441,18.0224],[81.98899,18.01941],[81.9816,18.01379],[81.97259,18.00798],[81.96567,18.00519],[81.96031,18.00022],[81.94464,17.9922],[81.93324,17.98899],[81.92224,17.98798],[81.91311,17.98157],[81.90782,17.97666],[81.89363,17.97392],[81.88269,17.96792],[81.85537,17.95885],[81.84826,17.95812],[81.84189,17.95907],[81.82834,17.95349],[81.80959,17.9441],[81.80259,17.93768],[81.79788,17.92942],[81.79457,17.92166],[81.791,17.91779],[81.78432,17.91282],[81.7708,17.90464],[81.76686,17.90141],[81.7349,17.88214],[81.71175,17.86917],[81.70785,17.87775],[81.70646,17.88354],[81.69685,17.89277],[81.6918,17.88745],[81.68632,17.88555],[81.67662,17.88637],[81.67162,17.88487],[81.66551,17.88077],[81.66127,17.87615],[81.65763,17.87043],[81.65458,17.86424],[81.65472,17.85485],[81.65136,17.84728],[81.64514,17.84427],[81.64004,17.83843],[81.63257,17.83242],[81.62429,17.83],[81.61973,17.82335],[81.60832,17.82342],[81.60253,17.82708],[81.58344,17.83527],[81.57732,17.83579],[81.57317,17.8336],[81.56251,17.82428],[81.5343,17.81876],[81.51988,17.81443],[81.50489,17.81433],[81.49441,17.81045],[81.48974,17.81068],[81.48727,17.81254],[81.48314,17.81782],[81.48127,17.82569],[81.47865,17.83096],[81.47539,17.8327],[81.46799,17.83247],[81.44611,17.82304],[81.44241,17.8235],[81.43446,17.82901],[81.42795,17.82831],[81.42288,17.82415],[81.42299,17.81784],[81.41779,17.81257],[81.4113,17.81304],[81.40284,17.81582],[81.39351,17.81429],[81.39162,17.82182],[81.3915,17.82824],[81.39295,17.83345],[81.40184,17.84347],[81.40587,17.85128],[81.40656,17.85441],[81.39837,17.86703],[81.39802,17.8697],[81.39898,17.88186],[81.4023,17.89269],[81.40433,17.89511],[81.4075,17.89604],[81.41223,17.89615],[81.42016,17.89297],[81.43162,17.88503],[81.43869,17.88231],[81.44301,17.88254],[81.44575,17.88358],[81.44875,17.88677],[81.45124,17.89279],[81.45217,17.90084],[81.45675,17.91061],[81.45656,17.91473],[81.4547,17.91786],[81.45441,17.92475],[81.45293,17.92966],[81.4537,17.93372],[81.46326,17.95409],[81.47541,17.96242],[81.4817,17.97283],[81.48488,17.97515],[81.48576,17.97751],[81.48512,17.9814],[81.4815,17.99077],[81.48294,17.99616],[81.48612,18.00098],[81.48735,18.01115],[81.48591,18.0274],[81.48229,18.0359],[81.48988,18.05728],[81.50305,18.06536],[81.50355,18.07603],[81.50524,18.08005],[81.51702,18.09972],[81.5191,18.11118],[81.52023,18.13648],[81.52415,18.14717],[81.53008,18.15553],[81.53095,18.16447],[81.52319,18.17934],[81.51724,18.18123],[81.51357,18.18495],[81.51309,18.19094],[81.51711,18.19962],[81.51946,18.20905],[81.53117,18.23445],[81.53406,18.24359],[81.53196,18.2557],[81.53624,18.2661],[81.54775,18.26913],[81.55635,18.26917],[81.57588,18.28026],[81.58229,18.28822],[81.59452,18.2992],[81.59877,18.30037],[81.60166,18.3083],[81.60514,18.30914],[81.61439,18.30647],[81.62414,18.30789],[81.62967,18.31078],[81.6359,18.31194],[81.64041,18.31508],[81.65504,18.31858],[81.66694,18.3182],[81.66865,18.32285],[81.66072,18.33186],[81.65743,18.33805],[81.66107,18.34372],[81.66636,18.34633],[81.68904,18.34811],[81.70749,18.35066],[81.72578,18.35032],[81.74535,18.35136],[81.7532,18.3525],[81.75503,18.36263],[81.76382,18.39333],[81.76862,18.40689],[81.77034,18.41835],[81.77564,18.42182],[81.8058,18.4468],[81.83715,18.47597],[81.85253,18.48856],[81.85782,18.49606],[81.85716,18.5076],[81.86124,18.51431],[81.86615,18.52003],[81.87115,18.52424],[81.879,18.52457],[81.88358,18.52839],[81.88687,18.53326],[81.89079,18.53616],[81.90502,18.53539],[81.90848,18.53951],[81.90614,18.54472],[81.90583,18.54968],[81.90793,18.556],[81.90898,18.56412],[81.91678,18.57118],[81.92457,18.56598],[81.92838,18.56427],[81.93803,18.56498],[81.94444,18.56469],[81.95171,18.56243],[81.9551,18.56614],[81.95176,18.57314],[81.95395,18.58188],[81.96271,18.59367],[81.95705,18.59648],[81.94665,18.59872],[81.93789,18.6033],[81.93438,18.61012],[81.92118,18.61978],[81.90808,18.62643],[81.89653,18.6278],[81.89543,18.63119],[81.89635,18.64415],[81.89815,18.65023],[81.8935,18.65707],[81.9013,18.66063],[81.90296,18.65871],[81.91302,18.65317],[81.91727,18.64778],[81.92368,18.64263],[81.94371,18.63975],[81.95559,18.63569],[81.95648,18.63965],[81.95422,18.64733],[81.95405,18.65321],[81.95552,18.66253],[81.95977,18.66779],[81.96877,18.67453],[81.96322,18.68701],[81.96529,18.69018],[81.96905,18.69265],[81.97199,18.69458],[81.9758,18.69738],[81.98416,18.70192],[82,18.70448],[82.00585,18.70724],[82.01811,18.71738],[82.02372,18.72032],[82.04185,18.7256],[82.04761,18.72386],[82.05755,18.72441],[82.05989,18.71868],[82.06612,18.71935],[82.06723,18.72462],[82.0694,18.72484],[82.07551,18.72395],[82.0821,18.71995],[82.08671,18.71896],[82.08861,18.72959],[82.09292,18.73929],[82.09302,18.73953],[82.09485,18.75374],[82.0895,18.76266],[82.0928,18.76519],[82.09939,18.76299],[82.11382,18.76526],[82.12202,18.7675],[82.13717,18.7645],[82.13626,18.77115],[82.13877,18.77692],[82.1471,18.77638],[82.15356,18.78012],[82.1581,18.78554],[82.15978,18.79063],[82.16731,18.79494],[82.16923,18.79777],[82.16701,18.80188],[82.16239,18.80311],[82.16418,18.80674],[82.16909,18.81037],[82.16993,18.81176],[82.16674,18.81599],[82.16638,18.81825],[82.17301,18.83696],[82.16982,18.8446],[82.17047,18.85182],[82.16608,18.85867],[82.16931,18.86444],[82.17085,18.87218],[82.16624,18.87612],[82.17115,18.87859],[82.17846,18.88424],[82.1788,18.89824],[82.18077,18.90193],[82.1852,18.90354],[82.19342,18.90362],[82.20677,18.9122],[82.2218,18.91879],[82.2329,18.91592],[82.23572,18.91338],[82.23926,18.91191],[82.24232,18.91196],[82.24758,18.91715],[82.23465,19.00049],[82.23303,19.02105],[82.23045,19.02757],[82.20205,19.06657],[82.20479,19.07421],[82.21651,19.08485],[82.21917,19.09207],[82.22005,19.09685],[82.21854,19.09855],[82.20781,19.09847],[82.20647,19.10045],[82.20742,19.1061],[82.20482,19.10741],[82.20943,19.12201],[82.20766,19.12371],[82.19895,19.12254],[82.18415,19.13126],[82.17774,19.11907],[82.17274,19.1209],[82.1677,19.13265],[82.16909,19.13592],[82.17447,19.13831],[82.17606,19.14001],[82.17264,19.14562],[82.17379,19.14929],[82.17782,19.14979],[82.17989,19.14866],[82.1827,19.15138],[82.1803,19.15379],[82.17292,19.15658],[82.17205,19.16076],[82.17551,19.16301],[82.1794,19.16005],[82.18261,19.15889],[82.18475,19.16111],[82.18669,19.165],[82.18614,19.16761],[82.18088,19.17088],[82.17903,19.17438],[82.18307,19.17574],[82.1825,19.17968],[82.17728,19.18278],[82.18127,19.19039],[82.17271,19.19339],[82.16593,19.19922],[82.16359,19.20256],[82.16906,19.21441],[82.16902,19.21445],[82.16165,19.22177],[82.15953,19.22955],[82.15983,19.24485],[82.15885,19.26433],[82.15959,19.27136],[82.16273,19.28066],[82.16622,19.28735],[82.17637,19.29652],[82.17785,19.30158],[82.17793,19.30833],[82.18151,19.32213],[82.19101,19.32554],[82.18808,19.33801],[82.18532,19.33817],[82.18103,19.33988],[82.17678,19.34301],[82.17097,19.34358],[82.16507,19.3486],[82.15736,19.35012],[82.15017,19.3539],[82.15007,19.36083],[82.14865,19.36762],[82.14897,19.37148],[82.15237,19.37581],[82.15861,19.37604],[82.17418,19.37165],[82.1818,19.38265],[82.18556,19.41123],[82.19128,19.41811],[82.19085,19.42326],[82.18703,19.42478],[82.17825,19.4351],[82.17501,19.43546],[82.16846,19.43511],[82.14188,19.4304],[82.12709,19.42946],[82.11457,19.44858],[82.11493,19.4581],[82.10465,19.46654],[82.10764,19.47152],[82.10959,19.4791],[82.10679,19.49498],[82.09877,19.49946],[82.09981,19.5152],[82.09597,19.51579],[82.0786,19.52125],[82.0749,19.51635],[82.06754,19.50897],[82.03014,19.50709],[82.03795,19.51949],[82.0402,19.52656],[82.04876,19.53096],[82.05031,19.53683],[82.05387,19.54387],[82.05074,19.5497],[82.04814,19.55743],[82.05035,19.56321],[82.05186,19.57],[82.04995,19.57611],[82.0455,19.58236],[82.04261,19.58843],[82.04167,19.59583],[82.045,19.60305],[82.05277,19.60678],[82.05242,19.61591],[82.05618,19.62093],[82.05905,19.62954],[82.05853,19.63671],[82.055,19.64335],[82.05408,19.64908],[82.056,19.65442],[82.05373,19.65862],[82.05536,19.66772],[82.05446,19.67438],[82.04615,19.69774],[82.04522,19.70885],[82.04928,19.71322],[82.05138,19.71884],[82.05023,19.72805],[82.05192,19.73402],[82.05167,19.74257],[82.05423,19.74789],[82.06485,19.75827],[82.06307,19.76587],[82.0666,19.7799],[82.06748,19.78791],[82.05983,19.79613],[82.05591,19.7932],[82.05208,19.79402],[82.04871,19.79696],[82.04258,19.79742],[82.03667,19.79695],[82.03182,19.79773],[82.01582,19.8013],[82.01068,19.80324],[82.00694,19.80302],[82,19.79914],[81.99506,19.79646],[81.98779,19.80047],[81.97783,19.8174],[81.96908,19.82905],[81.96503,19.84061],[81.96798,19.8593],[81.94703,19.86936],[81.93207,19.87321],[81.90563,19.88297],[81.87682,19.8972],[81.86599,19.90391],[81.85721,19.9124],[81.85337,19.91918],[81.85323,19.92726],[81.85638,19.94286],[81.85407,19.94571],[81.8465,19.94975],[81.84485,19.95432],[81.84781,19.95938],[81.85445,19.97458],[81.85786,19.9868],[81.85917,20.00024],[81.8596,20.00134],[81.86301,20.00768],[81.86516,20.01324],[81.86771,20.0275],[81.87212,20.03278],[81.87302,20.03801],[81.87408,20.04017],[81.88129,20.05029],[81.88376,20.04851],[81.88841,20.04655],[81.89258,20.04585],[81.89699,20.04741],[81.90173,20.05239],[81.90896,20.06325],[81.91779,20.07117],[81.92296,20.07794],[81.9294,20.09104],[81.93316,20.09422],[81.94146,20.10339],[81.94449,20.10523],[81.94887,20.10634],[81.95173,20.1057],[81.96229,20.09561],[81.97019,20.08972],[81.9811,20.07978],[81.98603,20.07338],[81.99084,20.06125],[81.99415,20.05629],[82.00026,20.05207],[82.00309,20.05178],[82.00857,20.05351],[82.01445,20.05159],[82.01751,20.04907],[82.01752,20.04905],[82.02026,20.04531],[82.02187,20.04073],[82.02205,20.03456],[82.02306,20.03115],[82.02235,20.02383],[82.03197,20.0144],[82.03827,20.01939],[82.03912,20.02101],[82.03859,20.02722],[82.04633,20.03325],[82.05652,20.03958],[82.06546,20.05419],[82.07737,20.05238],[82.08386,20.0484],[82.0906,20.03712],[82.097,20.03894],[82.10075,20.03706],[82.1028,20.03121],[82.1053,20.02779],[82.11031,20.02526],[82.11306,20.02224],[82.12367,20.01486],[82.12899,20.01426],[82.13599,20.01705],[82.13927,20.01716],[82.15592,20.0075],[82.16315,20.00683],[82.17341,20.00269],[82.17364,20.00039],[82.18338,19.99011],[82.18606,19.98267],[82.19178,19.98574],[82.20142,19.98591],[82.21188,19.98496],[82.21818,19.99541],[82.22185,19.99794],[82.22703,19.99807],[82.23195,20.00048],[82.23822,20.0027],[82.24093,20.00049],[82.26031,19.98116],[82.26623,19.97643],[82.2693,19.97625],[82.27624,19.96267],[82.27706,19.95001],[82.29094,19.92289],[82.30293,19.90383],[82.30585,19.88836],[82.32556,19.86413],[82.32897,19.85691],[82.33276,19.84551],[82.33439,19.84335],[82.3471,19.83502],[82.36388,19.85166],[82.36498,19.85454],[82.36371,19.86015],[82.3661,19.8619],[82.37568,19.85952],[82.38489,19.86801],[82.38562,19.87371],[82.3938,19.88186],[82.39644,19.88678],[82.40462,19.88956],[82.40803,19.89382],[82.41806,19.89842],[82.42151,19.90153],[82.42853,19.90335],[82.43255,19.90264],[82.43987,19.90451],[82.44711,19.90795],[82.45001,19.90801],[82.46597,19.89972],[82.47317,19.90165],[82.47571,19.90455],[82.48331,19.90561],[82.49455,19.90163],[82.50185,19.90246],[82.50523,19.9002],[82.5061,19.89031],[82.50989,19.88757],[82.52005,19.88927],[82.52558,19.88148],[82.53069,19.87797],[82.53752,19.8873],[82.54396,19.88209],[82.55191,19.87424],[82.55484,19.87851],[82.55848,19.87977],[82.56252,19.87472],[82.57437,19.87695],[82.5852,19.8687],[82.59839,19.87149],[82.60112,19.86982],[82.605,19.86576],[82.5991,19.85773],[82.59744,19.85349],[82.59336,19.85167],[82.58913,19.84581],[82.59113,19.84363],[82.58658,19.84194],[82.58183,19.8373],[82.57945,19.83313],[82.5789,19.82772],[82.58146,19.82905],[82.57947,19.81297],[82.58068,19.81093],[82.57922,19.80738],[82.58693,19.8026],[82.58544,19.79772],[82.58546,19.79322],[82.58695,19.79007],[82.58557,19.78501],[82.58614,19.78125],[82.58895,19.77813],[82.59271,19.77649],[82.6028,19.77853],[82.60593,19.7806],[82.60666,19.78671],[82.61093,19.78899],[82.61579,19.79057],[82.62652,19.79155],[82.63062,19.79476],[82.63499,19.8016],[82.63655,19.80919],[82.64393,19.81342],[82.64943,19.81914],[82.65337,19.83078],[82.66174,19.83095],[82.66766,19.82915],[82.67677,19.83064],[82.69096,19.82918],[82.69816,19.83122],[82.70607,19.83232],[82.71033,19.8365],[82.7135,19.84354],[82.71234,19.85004],[82.71863,19.854],[82.72147,19.86751],[82.72511,19.87621],[82.71697,19.87552],[82.71398,19.8839],[82.7103,19.8912],[82.70813,19.89864],[82.70909,19.90607],[82.70802,19.91192],[82.71348,19.91654],[82.71185,19.92363],[82.71392,19.93212],[82.71408,19.93881],[82.7182,19.94473],[82.71915,19.94974],[82.71704,19.95193],[82.71851,19.98844],[82.71506,19.99539],[82.7082,19.99802],[82.7056,19.99788],[82.70482,19.99784],[82.69987,19.99757],[82.69402,19.99976],[82.6886,20.00058],[82.65806,20.00448],[82.64948,20.00299],[82.64383,20.00337],[82.63933,20.00515],[82.63116,20.0027],[82.62847,20.00062],[82.62634,19.99663],[82.62196,19.99205],[82.60596,19.9907],[82.58997,19.99496],[82.5863,20.00065],[82.58353,20.00396],[82.5512,20.01707],[82.53957,20.01716],[82.53183,20.01537],[82.50972,20.01843],[82.49765,20.02344],[82.48917,20.02941],[82.48349,20.03489],[82.47834,20.03684],[82.47167,20.03637],[82.46591,20.03867],[82.45907,20.04006],[82.449,20.04013],[82.4395,20.04373],[82.43236,20.04829],[82.42473,20.05008],[82.41376,20.05104],[82.40334,20.05371],[82.39842,20.06428],[82.3979,20.0689],[82.40018,20.07797],[82.40224,20.0938],[82.40021,20.11284],[82.39831,20.12361],[82.3953,20.1315],[82.39413,20.13793],[82.38984,20.1427],[82.38647,20.14914],[82.39473,20.15336],[82.39084,20.16495],[82.39803,20.17179],[82.41328,20.18347],[82.41516,20.19855],[82.42113,20.20672],[82.42062,20.21239],[82.42118,20.2177],[82.42028,20.22187],[82.4157,20.22504],[82.4148,20.23203],[82.41183,20.24397],[82.4159,20.24602],[82.4216,20.24593],[82.41288,20.26021],[82.4126,20.26785],[82.41984,20.27421],[82.42833,20.27693],[82.43556,20.28294],[82.43674,20.28727],[82.43585,20.29416],[82.43146,20.30078],[82.42994,20.31392],[82.4238,20.3212],[82.41467,20.32629],[82.40795,20.32888],[82.40779,20.33345],[82.40629,20.33584],[82.40128,20.3397],[82.40191,20.34431],[82.40545,20.35094],[82.40543,20.36001],[82.41,20.36547],[82.41056,20.36941],[82.41788,20.38132],[82.41809,20.38658],[82.42023,20.39235],[82.41739,20.40676],[82.42516,20.40971],[82.43178,20.41423],[82.43043,20.42239],[82.43664,20.42981],[82.43522,20.43612],[82.43312,20.44036],[82.42519,20.44233],[82.42685,20.4496],[82.42685,20.46127],[82.42356,20.47015],[82.41753,20.47725],[82.41386,20.4701],[82.40477,20.45589],[82.39556,20.45648],[82.39754,20.46334],[82.39707,20.4693],[82.39261,20.47442],[82.3936,20.47944],[82.39121,20.48657],[82.38869,20.50567],[82.38878,20.51162],[82.38795,20.51371],[82.37741,20.51778],[82.36597,20.52006],[82.35623,20.52672],[82.34969,20.54145],[82.34354,20.54698],[82.3352,20.553],[82.33146,20.55759],[82.33189,20.56036],[82.33384,20.56029],[82.33492,20.56161],[82.33526,20.56566],[82.3398,20.56597],[82.3446,20.56889],[82.34808,20.57343],[82.34998,20.57892],[82.34511,20.5886],[82.34581,20.5945],[82.34612,20.59796],[82.35293,20.60156],[82.35543,20.6053],[82.36326,20.60714],[82.36529,20.61286],[82.36408,20.615],[82.36562,20.61881],[82.37377,20.62389],[82.37566,20.6277],[82.37497,20.6332],[82.37124,20.64317],[82.36966,20.65405],[82.37323,20.66472],[82.37263,20.66733],[82.36812,20.67545],[82.3617,20.67856],[82.35874,20.68159],[82.35299,20.6984],[82.3507,20.70234],[82.35166,20.71297],[82.35441,20.71769],[82.34681,20.72925],[82.35327,20.73215],[82.34782,20.75011],[82.34253,20.76188],[82.34433,20.78262],[82.34619,20.79348],[82.34307,20.80067],[82.34049,20.82295],[82.34295,20.83107],[82.34143,20.84381],[82.34426,20.85245],[82.34862,20.87124],[82.3493,20.87323],[82.354,20.887],[82.36657,20.88588],[82.36357,20.87954],[82.36329,20.87313],[82.36643,20.86974],[82.37541,20.86731],[82.38405,20.87014],[82.39018,20.87316],[82.4088,20.86569],[82.40986,20.86122],[82.40966,20.85654],[82.41467,20.8513],[82.41477,20.8468],[82.41303,20.84051],[82.42088,20.83288],[82.42293,20.8298],[82.43033,20.82934],[82.44389,20.83288],[82.44679,20.83054],[82.44848,20.82712],[82.45206,20.82744],[82.45575,20.82557],[82.46091,20.8246],[82.46644,20.82722],[82.46986,20.83095],[82.46969,20.83373],[82.46723,20.83901],[82.47078,20.84302],[82.47565,20.84599],[82.48502,20.85008],[82.48931,20.85866],[82.48874,20.8648],[82.4919,20.87621],[82.49205,20.88286],[82.49053,20.90293],[82.49304,20.90678],[82.50102,20.91262],[82.51047,20.91716],[82.5208,20.9205],[82.52662,20.92796],[82.53362,20.93098],[82.54322,20.9328],[82.5531,20.93822],[82.5603,20.94475],[82.57388,20.97024],[82.58549,20.98217],[82.58943,20.99],[82.60249,21.00035],[82.61181,21.00908],[82.61509,21.01536],[82.61597,21.0214],[82.62967,21.03975],[82.62739,21.04756],[82.61647,21.06703],[82.61674,21.0743],[82.6226,21.07827],[82.62929,21.07831],[82.63323,21.07993],[82.6392,21.09006],[82.64271,21.09509],[82.65034,21.10085],[82.65238,21.10497],[82.64567,21.10955],[82.64445,21.11469],[82.64691,21.12006],[82.65266,21.12372],[82.6551,21.12801],[82.65195,21.13185],[82.64572,21.13465],[82.64142,21.13937],[82.64014,21.14567],[82.64328,21.15244],[82.65316,21.15472],[82.66939,21.15377],[82.69187,21.1611],[82.6993,21.15989],[82.7014,21.15585],[82.70786,21.15632],[82.71286,21.15795],[82.71878,21.15884],[82.72848,21.16201],[82.73458,21.16226],[82.74268,21.16095],[82.75962,21.16284],[82.76485,21.16167],[82.78942,21.14418],[82.79618,21.14244],[82.79908,21.14827],[82.80291,21.15375],[82.81112,21.15623],[82.81418,21.15981],[82.8198,21.16172],[82.84731,21.16655],[82.85445,21.16587],[82.85409,21.16137],[82.86134,21.16022],[82.86681,21.16051],[82.87099,21.1586],[82.87615,21.16297],[82.88017,21.1543],[82.88655,21.15234],[82.89474,21.15702],[82.90244,21.16306],[82.90962,21.16622],[82.91526,21.16353],[82.92173,21.1639],[82.92923,21.16148],[82.93531,21.16431],[82.94469,21.16444],[82.94963,21.16632],[82.95631,21.17305],[82.96337,21.17877],[82.96694,21.17713],[82.97092,21.16498],[82.97244,21.15908],[82.97891,21.15964],[82.98722,21.16079],[82.99072,21.15162],[83.00027,21.15763],[83.00641,21.15151],[83.01284,21.14921],[83.01502,21.14991],[83.01776,21.14875],[83.02318,21.14312],[83.0259,21.14158],[83.03683,21.13475],[83.03637,21.12947],[83.04003,21.12781],[83.04374,21.12466],[83.04788,21.1224],[83.05412,21.12368],[83.05868,21.12065],[83.06703,21.1194],[83.07164,21.1146],[83.07871,21.11158],[83.08887,21.11022],[83.09599,21.11098],[83.09938,21.10951],[83.10246,21.10786],[83.11556,21.11125],[83.12712,21.10464],[83.14126,21.10881],[83.14498,21.11339],[83.15601,21.12343],[83.16066,21.12933],[83.16865,21.13501],[83.17712,21.13508],[83.18388,21.13431],[83.19024,21.13562],[83.19735,21.13912],[83.20001,21.14302],[83.20097,21.16119],[83.20664,21.16551],[83.20732,21.17243],[83.20679,21.17757],[83.20927,21.18095],[83.21246,21.18754],[83.21727,21.19158],[83.21846,21.19468],[83.21481,21.20487],[83.2226,21.21896],[83.22163,21.22404],[83.22246,21.22714],[83.22629,21.22716],[83.22194,21.24385],[83.22138,21.25428],[83.22559,21.26351],[83.23213,21.27035],[83.23911,21.26873],[83.24967,21.27982],[83.25559,21.28069],[83.26453,21.27895],[83.26998,21.27602],[83.27492,21.27201],[83.27855,21.2839],[83.28178,21.28906],[83.28201,21.29396],[83.2799,21.2995],[83.26601,21.30548],[83.26133,21.31571],[83.26142,21.32291],[83.26808,21.33005],[83.263,21.33262],[83.26218,21.33522],[83.26785,21.34047],[83.27331,21.34872],[83.278,21.36251],[83.27674,21.37046],[83.27724,21.37828],[83.28335,21.37917],[83.28858,21.3784],[83.29445,21.37473],[83.30885,21.37113],[83.31679,21.36785],[83.32654,21.36145],[83.3418,21.35912],[83.38201,21.34336],[83.38381,21.34669],[83.39516,21.34236],[83.40105,21.34549],[83.40984,21.35185],[83.41163,21.35852],[83.40905,21.36171],[83.40134,21.36452],[83.40035,21.36856],[83.40351,21.37264],[83.40374,21.37564],[83.40027,21.38655],[83.40095,21.40275],[83.39684,21.40496],[83.38859,21.41286],[83.38113,21.42548],[83.37857,21.4316],[83.37733,21.43933],[83.37298,21.44305],[83.36813,21.44539],[83.35748,21.44718],[83.35451,21.45832],[83.35054,21.46804],[83.34917,21.47727],[83.34925,21.48846],[83.34281,21.49501],[83.34181,21.49865],[83.34308,21.50273],[83.34494,21.50571],[83.35307,21.51132],[83.35614,21.51903],[83.36144,21.53837],[83.37296,21.55271],[83.3741,21.55604],[83.37406,21.56233],[83.37049,21.57077],[83.36951,21.5755],[83.37536,21.60002],[83.38443,21.60764],[83.38788,21.61569],[83.39401,21.6183],[83.39701,21.62347],[83.40243,21.62713],[83.40899,21.62968],[83.41235,21.63473],[83.41579,21.63713],[83.4207,21.63924],[83.43123,21.64141],[83.43367,21.64647],[83.44839,21.6522],[83.45475,21.64755],[83.44855,21.63542],[83.44763,21.62967],[83.44859,21.62799],[83.44849,21.62107],[83.45709,21.61998],[83.45716,21.6164],[83.45587,21.61123],[83.45996,21.61033],[83.45992,21.6082],[83.47012,21.60854],[83.47705,21.62976],[83.48371,21.63029],[83.49168,21.62856],[83.49361,21.63617],[83.49048,21.64017],[83.49022,21.64259],[83.49021,21.64259],[83.48193,21.6442],[83.47336,21.64708],[83.44792,21.65809],[83.44252,21.66602],[83.43582,21.67177],[83.42692,21.67788],[83.42828,21.68939],[83.43204,21.69185],[83.43513,21.69517],[83.439,21.69676],[83.44796,21.69625],[83.45685,21.69382],[83.46349,21.69718],[83.46478,21.70253],[83.46877,21.70913],[83.47408,21.71342],[83.48517,21.73082],[83.48702,21.73697],[83.49127,21.74438],[83.48448,21.74869],[83.48105,21.7524],[83.48256,21.75619],[83.48618,21.76148],[83.48502,21.76736],[83.48307,21.77654],[83.47432,21.78547],[83.48145,21.78888],[83.4912,21.79706],[83.49261,21.80593],[83.49849,21.81137],[83.49807,21.81724],[83.50486,21.8089],[83.51328,21.80314],[83.52125,21.80054],[83.52933,21.79686],[83.54369,21.79671],[83.5429,21.80172],[83.54579,21.80338],[83.54191,21.80957],[83.54352,21.82109],[83.53478,21.8257],[83.53838,21.83461],[83.54807,21.83737],[83.55566,21.83794],[83.56458,21.83713],[83.57168,21.83311],[83.58065,21.83241],[83.58202,21.83534],[83.5866,21.83986],[83.59158,21.84633],[83.59304,21.85036],[83.59116,21.85551],[83.57864,21.87456],[83.58041,21.87904],[83.58523,21.88246],[83.58384,21.88881],[83.58701,21.8919],[83.59045,21.89361],[83.59031,21.89672],[83.58864,21.90007],[83.59038,21.90121],[83.59975,21.90339],[83.60643,21.90864],[83.60759,21.91347],[83.59489,21.92872],[83.56049,21.93474],[83.56109,21.93883],[83.56486,21.94646],[83.55663,21.95291],[83.5423,21.96599],[83.54162,21.97872],[83.54258,21.98212],[83.54725,21.98779],[83.54796,21.99568],[83.55054,21.99681],[83.55378,22.00072],[83.55211,22.00183],[83.55386,22.00578],[83.55569,22.00913],[83.54601,22.01678],[83.54114,22.02467],[83.53982,22.03101],[83.5396,22.03642],[83.54129,22.0458],[83.54551,22.05772],[83.55014,22.06173],[83.55811,22.05798],[83.57276,22.05916],[83.59064,22.05733],[83.59306,22.05795],[83.5977,22.06172],[83.60744,22.06789],[83.59632,22.0787],[83.5902,22.08283],[83.58083,22.09112],[83.57196,22.09627],[83.56606,22.09779],[83.5644,22.10227],[83.56632,22.10614],[83.57289,22.11512],[83.57445,22.11598],[83.59967,22.14223],[83.60945,22.15408],[83.61307,22.15985],[83.61897,22.17935],[83.6264,22.19854],[83.63343,22.20804],[83.65286,22.22675],[83.66169,22.22606],[83.66455,22.22696],[83.67173,22.23413],[83.67986,22.23961],[83.68616,22.24279],[83.70011,22.24768],[83.70754,22.24806],[83.72611,22.24545],[83.75274,22.24344],[83.75988,22.24509],[83.76391,22.25259],[83.76887,22.25637],[83.77292,22.25823],[83.77839,22.25956],[83.78179,22.26956],[83.78563,22.27671],[83.7957,22.28245],[83.79788,22.28683],[83.80072,22.28988],[83.8046,22.29169],[83.80474,22.29183],[83.80506,22.29215],[83.81187,22.29208],[83.82307,22.29341],[83.8265,22.29466],[83.82787,22.29824],[83.82719,22.30726],[83.82772,22.31243],[83.82957,22.31781],[83.83226,22.32179],[83.83649,22.32611],[83.85008,22.32852],[83.85464,22.333],[83.86038,22.34096],[83.86806,22.34594],[83.87121,22.34578],[83.87421,22.3432],[83.879,22.34111],[83.904,22.34188],[83.91238,22.35479],[83.92257,22.36184],[83.92632,22.36196],[83.93107,22.35967],[83.93661,22.35847],[83.95027,22.36066],[83.95934,22.36342],[83.96364,22.36327],[83.97399,22.36008],[83.98522,22.36733],[83.99238,22.36859],[83.99997,22.37147],[84.0044,22.37078],[84.00819,22.3719],[84.01122,22.3699],[84.00867,22.37807],[84.00866,22.38259],[84.01599,22.39362],[84.01695,22.3983],[84.01949,22.4011],[84.02144,22.40628],[84.02574,22.40897],[84.02915,22.41235],[84.03298,22.42127],[84.03098,22.42435],[84.03971,22.4282],[84.04701,22.43507],[84.0484,22.44009],[84.0465,22.45086],[84.04855,22.46622],[84.04574,22.47098],[84.04165,22.47201],[84.03083,22.4728],[84.02869,22.47415],[84.02251,22.48449],[84.02003,22.4873],[84.0041,22.4928],[84,22.49602],[83.99747,22.49642],[83.98772,22.50074],[83.98313,22.50422],[83.98087,22.51113],[83.9815,22.51596],[83.9836,22.52038],[83.98713,22.52398],[83.99287,22.52746],[84,22.52936],[84.00133,22.53079],[84.00952,22.52286],[84.01666,22.5223],[84.02255,22.52369],[84.02616,22.52308],[84.03174,22.51824],[84.04008,22.51411],[84.05764,22.51441],[84.0646,22.5122],[84.06748,22.50709],[84.07369,22.50432],[84.07599,22.50163],[84.07407,22.50021],[84.07863,22.49628],[84.08621,22.49096],[84.09473,22.48706],[84.10687,22.48249],[84.10988,22.48344],[84.11046,22.48147],[84.1091,22.47946],[84.11309,22.47601],[84.12482,22.47359],[84.13255,22.47577],[84.1361,22.47567],[84.13765,22.47219],[84.14188,22.47313],[84.14441,22.46929],[84.14447,22.4594],[84.14218,22.45127],[84.14006,22.44754],[84.14284,22.42294],[84.14926,22.41767],[84.15943,22.40324],[84.1821,22.39127],[84.19036,22.38604],[84.20103,22.3742],[84.23304,22.37653],[84.24734,22.3769],[84.25345,22.37613],[84.2583,22.37285],[84.26776,22.35616],[84.27306,22.35031],[84.28012,22.34758],[84.29188,22.34462],[84.29609,22.33984],[84.32148,22.34146],[84.3256,22.34303],[84.33083,22.34147],[84.34085,22.34546],[84.34524,22.34466],[84.3518,22.34661],[84.36013,22.34767],[84.36594,22.3476],[84.36854,22.3511],[84.37425,22.35213],[84.37883,22.35162],[84.38441,22.34849],[84.39468,22.349],[84.40131,22.34644],[84.42592,22.35338],[84.43289,22.35142],[84.43264,22.35464],[84.43826,22.36261],[84.43399,22.36457],[84.43373,22.36723],[84.44888,22.3756],[84.45465,22.38166],[84.46243,22.37781],[84.47959,22.38529],[84.48438,22.38627],[84.487,22.38983],[84.48251,22.39277],[84.48274,22.39612],[84.48126,22.40429],[84.48346,22.40854],[84.48805,22.40825],[84.50855,22.41788],[84.51261,22.41876],[84.52776,22.41747],[84.53339,22.4226],[84.54741,22.42317],[84.55005,22.41978],[84.57889,22.4256],[84.5958,22.42798],[84.60069,22.43145],[84.60203,22.42755],[84.62037,22.43021],[84.63222,22.43022],[84.63879,22.43128],[84.66829,22.41661],[84.67603,22.41899],[84.67949,22.41761],[84.68818,22.41761],[84.69817,22.41522],[84.718,22.41662],[84.73279,22.41936],[84.7505,22.41749],[84.75933,22.44471],[84.78467,22.44625],[84.79788,22.44555],[84.80787,22.44644],[84.8144,22.44959],[84.81706,22.444],[84.81708,22.43798],[84.81929,22.43437],[84.83502,22.43194],[84.83821,22.4327],[84.83914,22.42917],[84.84233,22.43033],[84.84605,22.43681],[84.84796,22.43765],[84.85438,22.4372],[84.86192,22.43478],[84.87029,22.43732],[84.87781,22.44101],[84.88184,22.44397],[84.8831,22.44603],[84.88437,22.44531],[84.88603,22.435],[84.88806,22.43226],[84.88856,22.42907],[84.88681,22.42042],[84.90034,22.42085],[84.91426,22.42249],[84.92295,22.42623],[84.92641,22.42884],[84.92469,22.43141],[84.92394,22.4372],[84.93187,22.43945],[84.93791,22.44248],[84.94729,22.45025],[84.9538,22.4539],[84.95896,22.4556],[84.95987,22.44836],[84.95896,22.44231],[84.9611,22.44175],[84.96378,22.44471],[84.96676,22.44657],[84.98431,22.45377],[85.00062,22.46111],[85.00699,22.46121],[85.02808,22.46996],[85.03457,22.47105],[85.03804,22.47263],[85.03977,22.47977],[85.04192,22.48014],[85.04379,22.47793],[85.0487,22.47979],[85.0532,22.48024],[85.05787,22.48227],[85.06894,22.48127],[85.07966,22.47575],[85.08008,22.46956],[85.07738,22.46405],[85.07755,22.4588],[85.06694,22.45241],[85.0635,22.44762],[85.0646,22.44265],[85.06936,22.43901],[85.07012,22.42616],[85.07454,22.42103],[85.08104,22.41643],[85.08369,22.41129],[85.08364,22.40602],[85.08711,22.39846],[85.08951,22.38148],[85.0843,22.3722],[85.08147,22.36404],[85.08192,22.35883],[85.08049,22.35166],[85.08633,22.34747],[85.0886,22.34442],[85.09938,22.34419],[85.09688,22.32799],[85.09233,22.32011],[85.09438,22.31723],[85.10155,22.31554],[85.10764,22.31748],[85.11413,22.31837],[85.12043,22.31737],[85.11858,22.30823],[85.12124,22.30356],[85.12085,22.29367],[85.11475,22.29266],[85.11169,22.29432],[85.10498,22.29111],[85.08876,22.28091],[85.07693,22.27535],[85.07585,22.27078],[85.07633,22.26351],[85.08073,22.25417],[85.07848,22.24896],[85.07453,22.24668],[85.07589,22.23392],[85.06895,22.21943],[85.06522,22.20924],[85.05336,22.1891],[85.05602,22.18264],[85.05421,22.17765],[85.04788,22.17401],[85.03966,22.1642],[85.03446,22.16071],[85.03183,22.15735],[85.03262,22.15181],[85.03674,22.14584],[85.03758,22.14075],[85.03379,22.12597],[85.03072,22.12135],[85.03017,22.11541],[85.02591,22.11182],[85.00008,22.10138],[84.9923,22.09601],[84.98992,22.09492],[84.98695,22.09469],[84.98626,22.08812],[84.98749,22.08587],[84.99388,22.0802],[85.00005,22.08068],[85.00877,22.0834],[85.01364,22.08659],[85.01545,22.0941],[85.0205,22.09716],[85.02639,22.10681],[85.03355,22.10458],[85.0376,22.10593],[85.04156,22.11157],[85.05031,22.11414],[85.07585,22.11059],[85.08262,22.10645],[85.09048,22.10393],[85.10182,22.10294],[85.10539,22.09962],[85.10608,22.08806],[85.11085,22.0863],[85.11532,22.08356],[85.11664,22.0794],[85.11966,22.07463],[85.12524,22.07004],[85.13176,22.07268],[85.1414,22.0747],[85.14719,22.0771],[85.15524,22.07621],[85.16189,22.07404],[85.16415,22.07056],[85.16531,22.06551],[85.17009,22.05662],[85.17353,22.05231],[85.17714,22.05182],[85.17614,22.05672],[85.17071,22.06882],[85.17593,22.06969],[85.17879,22.07179],[85.18308,22.07032],[85.18545,22.06839],[85.18978,22.05855],[85.19333,22.05636],[85.19863,22.05478],[85.21705,22.04684],[85.22091,22.04095],[85.22018,22.03085],[85.22012,22.01999],[85.22119,22.01442],[85.22464,22.0104],[85.22842,22.00718],[85.23723,22.00402],[85.24733,22.01625],[85.2528,22.02912],[85.26237,22.04615],[85.26625,22.05652],[85.27172,22.06392],[85.27622,22.07261],[85.28042,22.08374],[85.28716,22.09127],[85.29368,22.0968],[85.30633,22.11067],[85.31594,22.117],[85.32159,22.11944],[85.32924,22.12858],[85.34472,22.12833],[85.35159,22.13059],[85.35978,22.1242],[85.36434,22.12322],[85.36758,22.12507],[85.36793,22.12837],[85.36485,22.1364],[85.36428,22.14154],[85.36913,22.15016],[85.36863,22.15363],[85.36941,22.15814],[85.37557,22.15879],[85.37839,22.15601],[85.38552,22.15527],[85.39155,22.15592],[85.39654,22.15871],[85.40062,22.16218],[85.40855,22.16012],[85.41647,22.15967],[85.42398,22.15696],[85.44192,22.14779],[85.46314,22.13943],[85.47131,22.13487],[85.47785,22.12782],[85.48553,22.12546],[85.49193,22.12019],[85.51179,22.11518],[85.52093,22.11194],[85.53025,22.10679],[85.53482,22.10252],[85.53957,22.10055],[85.54212,22.09817],[85.54341,22.09407],[85.5456,22.09037],[85.55468,22.09234],[85.5604,22.0946],[85.5663,22.08869],[85.57227,22.09083],[85.57715,22.08985],[85.58829,22.08481],[85.5928,22.08064],[85.59712,22.07827],[85.60267,22.07856],[85.60779,22.08017],[85.60961,22.08307],[85.61333,22.08561],[85.61461,22.08278],[85.61711,22.08064],[85.62559,22.08168],[85.63224,22.08348],[85.63725,22.08538],[85.64238,22.08961],[85.64603,22.09406],[85.65061,22.09412],[85.65404,22.09065],[85.65632,22.08515],[85.66131,22.08167],[85.66348,22.07813],[85.67071,22.07045],[85.67355,22.06492],[85.67832,22.06361],[85.67791,22.05538],[85.68746,22.05271],[85.69383,22.05998],[85.70195,22.06075],[85.71059,22.05825],[85.71374,22.06021],[85.71871,22.06033],[85.72349,22.06166],[85.72828,22.06206],[85.73974,22.06845],[85.75197,22.0738],[85.75634,22.07831],[85.75805,22.08315],[85.76372,22.08888],[85.77091,22.09211],[85.77927,22.09413],[85.78494,22.09732],[85.79014,22.10288],[85.7968,22.10428],[85.79987,22.10926],[85.80305,22.11019],[85.80794,22.11471],[85.8206,22.10601],[85.82107,22.10294],[85.81458,22.09575],[85.82128,22.09673],[85.82481,22.09355],[85.83078,22.09106],[85.83393,22.0866],[85.83659,22.08092],[85.82023,22.07402],[85.8086,22.07571],[85.80263,22.07844],[85.7938,22.08111],[85.791,22.07585],[85.77623,22.05525],[85.77712,22.05112],[85.77919,22.04729],[85.78482,22.04025],[85.78149,22.03228],[85.77805,22.02871],[85.76774,22.02196],[85.7646,22.01881],[85.762,22.01241],[85.76641,22.00099],[85.76664,21.99378],[85.77728,21.98777],[85.78638,21.98513],[85.78806,21.98348],[85.79014,21.9827],[85.80683,21.98575],[85.81102,21.98431],[85.81848,21.98505],[85.82124,21.98423],[85.82191,21.97945],[85.82141,21.97541],[85.82418,21.97413],[85.8281,21.97425],[85.83444,21.97705],[85.84625,21.9806],[85.8528,21.9812],[85.87711,21.97889],[85.88753,21.97896],[85.89191,21.97956],[85.89692,21.98266],[85.89995,21.98243],[85.90862,21.97076],[85.9112,21.9708],[85.91176,21.97225],[85.91024,21.97682],[85.91498,21.9797],[85.91542,21.98174],[85.91303,21.98545],[85.91502,21.99426],[85.91883,22.00077],[85.91801,22.00891],[85.9253,22.01389],[85.92915,22.01818],[85.93064,22.02144],[85.93454,22.02345],[85.93885,22.02153],[85.94431,22.02071],[85.94833,22.02322],[85.95046,22.02736],[85.95727,22.03571],[85.95931,22.04017],[85.96373,22.04657],[85.96904,22.05847],[85.97311,22.06382],[85.97695,22.07085],[85.98102,22.07581],[85.98312,22.08076],[85.98303,22.08405],[85.98472,22.08737],[85.99492,22.09745],[85.99833,22.10423],[86.00618,22.11294],[86.0083,22.11699],[86.0018,22.1246],[86.00081,22.12752],[86.00035,22.13572],[86.00481,22.14103],[86.00541,22.14632],[86.00497,22.14884],[86.00956,22.15495],[86.01712,22.16156],[86.01882,22.1675],[86.01828,22.17174],[86.0205,22.17651],[86.03242,22.18909],[86.03126,22.19307],[86.0231,22.20259],[85.99857,22.21928],[85.99087,22.22762],[85.98354,22.23931],[85.97712,22.24213],[85.97554,22.24714],[85.98756,22.25579],[85.99119,22.26118],[85.99095,22.27091],[85.99878,22.27699],[86.00327,22.27904],[86.00648,22.28303],[86.00796,22.28515],[86.00597,22.28806],[86.01423,22.29635],[86.0218,22.30021],[86.02547,22.3015],[86.02912,22.30135],[86.03304,22.30318],[86.0351,22.30444],[86.03603,22.30666],[86.04566,22.30723],[86.049,22.30986],[86.04796,22.3119],[86.04503,22.31231],[86.0398,22.31161],[86.03801,22.3089],[86.03388,22.31135],[86.03045,22.30784],[86.02614,22.3092],[86.02351,22.30821],[86.01713,22.31305],[86.01692,22.31422],[86.01415,22.31361],[86.01419,22.31689],[86.01166,22.31955],[86.019,22.32759],[86.02492,22.33076],[86.02616,22.33303],[86.01973,22.33812],[86.0105,22.33925],[86.00418,22.33469],[86.00158,22.33673],[85.99864,22.34176],[86.01189,22.35234],[86.0226,22.3658],[86.02102,22.36956],[86.02171,22.37653],[86.02417,22.37509],[86.02464,22.37831],[86.02699,22.3786],[86.02536,22.38171],[86.02725,22.3853],[86.02627,22.38773],[86.02331,22.38966],[86.02482,22.39418],[86.02377,22.39676],[86.02149,22.39686],[86.02054,22.40056],[86.01803,22.4025],[86.0194,22.40739],[86.01781,22.41822],[86.01537,22.42237],[86.0155,22.42513],[86.0145,22.42779],[86.01177,22.42882],[86.00863,22.42853],[86.00578,22.42611],[86.00263,22.42511],[85.99874,22.4256],[85.98792,22.43244],[85.97277,22.44464],[85.96892,22.44854],[85.96721,22.45612],[85.95932,22.45936],[85.96408,22.46928],[85.96515,22.47375],[85.96395,22.47954],[85.96658,22.48196],[85.9666,22.48198],[85.97256,22.48552],[85.97282,22.48936],[85.97143,22.4935],[85.97219,22.49715],[85.97508,22.50312],[85.98651,22.51306],[85.98994,22.51395],[85.99877,22.51224],[86.00171,22.51229],[86.00566,22.51829],[86.00758,22.51819],[86.01447,22.52186],[86.02124,22.52779],[86.02782,22.52388],[86.03403,22.53763],[86.02413,22.54692],[86.04426,22.56685],[86.05241,22.56116],[86.05915,22.55794],[86.06389,22.5567],[86.06757,22.55181],[86.06759,22.55179],[86.07494,22.54638],[86.08409,22.53374]]]]}}]}