{"type":"FeatureCollection","features":[{"type":"Feature","properties":{"id":"punjab","name":"Punjab","type":"state"},"geometry":{"type":"Polygon","coordinates":[[[75.88469,32.48841],[75.90303,32.47169],[75.91131,32.46149],[75.93137,32.44827],[75.9403,32.43852],[75.94726,32.43029],[75.95046,32.42426],[75.94798,32.41631],[75.94173,32.41128],[75.93123,32.40978],[75.9269,32.40871],[75.88768,32.39803],[75.88204,32.39415],[75.85956,32.37892],[75.85308,32.37264],[75.83449,32.35467],[75.82952,32.3502],[75.81485,32.33702],[75.80928,32.33202],[75.80103,32.32343],[75.79867,32.32186],[75.77883,32.30182],[75.77733,32.29578],[75.77011,32.28575],[75.76726,32.28384],[75.7518,32.27344],[75.72025,32.26699],[75.70024,32.26481],[75.69117,32.26382],[75.67019,32.25568],[75.66774,32.25528],[75.6562,32.24724],[75.64935,32.2446],[75.63778,32.23455],[75.63699,32.22989],[75.63532,32.22007],[75.63349,32.19685],[75.63461,32.18967],[75.63535,32.18498],[75.66473,32.17943],[75.6713,32.17634],[75.67695,32.16436],[75.67057,32.14574],[75.66292,32.13735],[75.6462,32.11919],[75.62553,32.09932],[75.59364,32.08144],[75.61341,32.0657],[75.62446,32.06914],[75.64023,32.07231],[75.65499,32.07636],[75.6643,32.07677],[75.68804,32.06645],[75.70476,32.06102],[75.70722,32.05893],[75.71532,32.04303],[75.7254,32.03543],[75.73815,32.03556],[75.74889,32.0367],[75.75292,32.03516],[75.75495,32.03383],[75.76328,32.02649],[75.76871,32.01918],[75.77644,32.01318],[75.78134,32.00691],[75.78919,32.00002],[75.79916,31.99353],[75.81,31.98776],[75.82048,31.98417],[75.82891,31.98253],[75.85125,31.98073],[75.8565,31.97268],[75.86618,31.97157],[75.87166,31.96848],[75.88106,31.96783],[75.88343,31.96591],[75.88461,31.96496],[75.89261,31.96095],[75.90942,31.94873],[75.91081,31.93916],[75.91759,31.9268],[75.9275,31.91543],[75.94095,31.88857],[75.94619,31.88261],[75.95313,31.86663],[75.95898,31.85623],[75.96444,31.84679],[75.96827,31.83862],[75.97044,31.83103],[75.98231,31.82214],[75.9856,31.81782],[75.98614,31.81316],[75.98163,31.81349],[75.97498,31.81711],[75.96757,31.82262],[75.96344,31.8218],[75.95071,31.81694],[75.94788,31.81371],[75.94396,31.81393],[75.94139,31.81514],[75.93645,31.81589],[75.94183,31.80383],[75.9476,31.79577],[75.95039,31.7884],[75.95104,31.78299],[75.95963,31.7799],[75.96644,31.7616],[75.97405,31.74809],[75.97426,31.74285],[75.97204,31.73903],[75.97551,31.7353],[75.98052,31.73197],[75.98384,31.71817],[75.98705,31.71363],[75.99182,31.70346],[75.99023,31.69378],[76.00003,31.68381],[76.00509,31.68315],[76.00541,31.68416],[76.00658,31.68293],[76.00911,31.67996],[76.01183,31.67439],[76.01175,31.66726],[76.01912,31.66139],[76.0183,31.65525],[76.02062,31.64977],[76.01709,31.64492],[76.03192,31.61995],[76.03749,31.61373],[76.04571,31.60771],[76.051,31.60504],[76.05429,31.6067],[76.05835,31.60125],[76.05697,31.5941],[76.05743,31.59017],[76.06577,31.57996],[76.07913,31.55992],[76.08026,31.55864],[76.08582,31.55226],[76.09102,31.54405],[76.09821,31.53525],[76.10315,31.52569],[76.10479,31.51702],[76.1087,31.51222],[76.11827,31.5003],[76.12229,31.49308],[76.12206,31.48017],[76.12882,31.47147],[76.12962,31.46337],[76.13536,31.45889],[76.13667,31.45163],[76.14229,31.44164],[76.14913,31.43537],[76.15752,31.43013],[76.16115,31.42343],[76.16109,31.41667],[76.16753,31.41181],[76.17075,31.40229],[76.16701,31.39504],[76.1611,31.38968],[76.15259,31.38466],[76.14804,31.38045],[76.14893,31.35954],[76.1535,31.35088],[76.16162,31.3459],[76.17196,31.34466],[76.1802,31.33916],[76.17995,31.32386],[76.1823,31.3118],[76.18666,31.30439],[76.19952,31.30229],[76.22024,31.30285],[76.22882,31.30522],[76.23706,31.31064],[76.25804,31.31125],[76.26951,31.31247],[76.27507,31.30334],[76.28231,31.30409],[76.29127,31.30741],[76.2983,31.31102],[76.30433,31.31309],[76.31004,31.31667],[76.31622,31.32381],[76.30996,31.33971],[76.31392,31.34132],[76.32982,31.34496],[76.33184,31.34968],[76.33846,31.34456],[76.34409,31.34272],[76.35069,31.35044],[76.34534,31.35654],[76.34408,31.36518],[76.34365,31.37698],[76.33232,31.37859],[76.33287,31.38568],[76.32995,31.3999],[76.34364,31.39864],[76.34874,31.40123],[76.36103,31.40319],[76.36729,31.40993],[76.37334,31.4131],[76.37096,31.42709],[76.37737,31.43884],[76.38337,31.4256],[76.38946,31.4196],[76.38721,31.41109],[76.39582,31.40805],[76.40454,31.39473],[76.39339,31.38857],[76.40517,31.37601],[76.41337,31.36282],[76.42292,31.35107],[76.42692,31.34497],[76.43225,31.3346],[76.44206,31.32244],[76.45149,31.31466],[76.4623,31.30319],[76.4596,31.29761],[76.4498,31.29186],[76.44247,31.28645],[76.44513,31.28006],[76.45976,31.2869],[76.46502,31.2934],[76.47612,31.304],[76.48075,31.30738],[76.48651,31.30387],[76.48909,31.29615],[76.48967,31.28935],[76.49374,31.28624],[76.49721,31.2814],[76.50259,31.27051],[76.51224,31.27038],[76.51741,31.27498],[76.52494,31.2797],[76.5283,31.28016],[76.53062,31.27446],[76.52828,31.26156],[76.53209,31.25937],[76.5419,31.26701],[76.54526,31.2806],[76.55121,31.281],[76.54882,31.26937],[76.54665,31.26355],[76.54893,31.25238],[76.55993,31.25288],[76.56627,31.26186],[76.58457,31.27714],[76.61564,31.24783],[76.6067,31.24308],[76.5987,31.23658],[76.59651,31.22788],[76.58993,31.22272],[76.59331,31.21741],[76.59456,31.21326],[76.60072,31.21296],[76.63026,31.22632],[76.63995,31.22395],[76.63851,31.2179],[76.64813,31.21218],[76.6494,31.20982],[76.63408,31.20351],[76.63265,31.20075],[76.62615,31.1995],[76.6197,31.19398],[76.61458,31.1879],[76.61221,31.18334],[76.60429,31.17973],[76.60635,31.16915],[76.6033,31.16161],[76.60534,31.15717],[76.60393,31.15412],[76.60851,31.14817],[76.61259,31.148],[76.60776,31.13332],[76.60311,31.12452],[76.61124,31.123],[76.62109,31.11642],[76.62938,31.11835],[76.6375,31.11477],[76.63952,31.10699],[76.6256,31.09314],[76.62155,31.08025],[76.61861,31.07513],[76.62321,31.05739],[76.61263,31.05028],[76.61516,31.04028],[76.61882,31.03022],[76.62721,31.01867],[76.62364,31.00091],[76.62599,30.99872],[76.63453,30.99495],[76.63949,30.98914],[76.64692,30.98734],[76.66663,30.9784],[76.67618,30.96769],[76.68175,30.96643],[76.70781,30.96901],[76.70973,30.96831],[76.71195,30.9654],[76.71865,30.9598],[76.72617,30.9599],[76.73768,30.94705],[76.73875,30.94063],[76.73903,30.93897],[76.73903,30.93897],[76.73956,30.93578],[76.75192,30.92649],[76.75736,30.92546],[76.76216,30.92557],[76.76221,30.92021],[76.76764,30.91935],[76.76736,30.91421],[76.78337,30.90276],[76.77602,30.88977],[76.78249,30.87286],[76.78679,30.86748],[76.79839,30.85758],[76.81463,30.83878],[76.81996,30.83651],[76.83238,30.83333],[76.84117,30.82879],[76.84549,30.82164],[76.84674,30.81209],[76.84688,30.80077],[76.85471,30.79526],[76.86016,30.78869],[76.84411,30.76409],[76.84147,30.75996],[76.82527,30.76284],[76.81471,30.75897],[76.8064,30.76273],[76.80464,30.76572],[76.81674,30.77381],[76.81718,30.77524],[76.81548,30.77805],[76.81108,30.78149],[76.80943,30.782],[76.80203,30.7772],[76.79422,30.7701],[76.78884,30.77229],[76.78257,30.77324],[76.78596,30.77934],[76.78958,30.78029],[76.79062,30.78171],[76.78665,30.78417],[76.78091,30.79139],[76.77266,30.79532],[76.76422,30.79314],[76.75903,30.79094],[76.75627,30.78777],[76.75326,30.78738],[76.7515,30.78615],[76.7525,30.78238],[76.74841,30.77929],[76.74376,30.77731],[76.74449,30.77332],[76.74247,30.77255],[76.73598,30.76704],[76.73154,30.76541],[76.72108,30.76644],[76.70381,30.75642],[76.70612,30.75373],[76.7065,30.74899],[76.70385,30.74299],[76.70584,30.74104],[76.70862,30.74041],[76.71443,30.7416],[76.72308,30.73179],[76.72431,30.72858],[76.72929,30.72491],[76.73109,30.7169],[76.73073,30.71374],[76.72845,30.71125],[76.72833,30.70958],[76.73466,30.70835],[76.73859,30.70625],[76.74003,30.70379],[76.73921,30.70115],[76.73771,30.70004],[76.73939,30.69216],[76.74057,30.6919],[76.74355,30.69373],[76.746,30.69339],[76.75157,30.68537],[76.75813,30.68667],[76.78379,30.67411],[76.8024,30.66672],[76.80746,30.66546],[76.81603,30.6716],[76.81906,30.67638],[76.82365,30.68108],[76.83295,30.68195],[76.83148,30.66906],[76.83191,30.65668],[76.8372,30.65614],[76.84005,30.65941],[76.84317,30.66101],[76.84813,30.66018],[76.84788,30.65189],[76.85297,30.65285],[76.86298,30.66092],[76.86856,30.66925],[76.87539,30.67533],[76.87627,30.66755],[76.875,30.65575],[76.87208,30.64759],[76.87166,30.63665],[76.87505,30.63629],[76.88105,30.63766],[76.88575,30.63603],[76.89019,30.63302],[76.89373,30.62906],[76.89669,30.62308],[76.90762,30.6193],[76.91269,30.61599],[76.91459,30.60435],[76.92368,30.60177],[76.92649,30.59563],[76.92025,30.58734],[76.9116,30.58435],[76.91754,30.57648],[76.9169,30.57109],[76.91187,30.56264],[76.91187,30.55995],[76.91683,30.55763],[76.91891,30.55429],[76.91519,30.54695],[76.90513,30.54035],[76.89797,30.53633],[76.9007,30.53406],[76.91114,30.53058],[76.92018,30.52578],[76.92722,30.5224],[76.93299,30.52056],[76.93299,30.52053],[76.93324,30.51388],[76.93118,30.50307],[76.92879,30.49527],[76.92523,30.48951],[76.92068,30.48664],[76.91399,30.48471],[76.90671,30.48551],[76.90175,30.48046],[76.90268,30.47518],[76.90947,30.47123],[76.91085,30.46362],[76.90798,30.45141],[76.90349,30.4469],[76.9016,30.43694],[76.90268,30.43252],[76.91443,30.42414],[76.91645,30.42068],[76.91643,30.41403],[76.91796,30.40899],[76.91663,30.40574],[76.91655,30.4025],[76.91789,30.40048],[76.92196,30.39905],[76.93218,30.3988],[76.93851,30.39735],[76.94177,30.39565],[76.94412,30.39282],[76.94297,30.38834],[76.93999,30.38439],[76.93347,30.38053],[76.92967,30.37852],[76.91612,30.36327],[76.91038,30.35837],[76.90488,30.35545],[76.89983,30.35416],[76.89283,30.35549],[76.88904,30.35914],[76.88833,30.36534],[76.89308,30.3788],[76.89288,30.38203],[76.88707,30.38709],[76.87889,30.39066],[76.88023,30.39735],[76.87742,30.40462],[76.85995,30.41077],[76.85241,30.41662],[76.84515,30.42977],[76.84061,30.42623],[76.83581,30.41845],[76.82111,30.40777],[76.80993,30.41104],[76.7933,30.41097],[76.78344,30.41426],[76.77696,30.42098],[76.77941,30.43198],[76.77599,30.43572],[76.77052,30.43487],[76.7699,30.43381],[76.76702,30.4288],[76.7615,30.42263],[76.75048,30.42088],[76.73777,30.41643],[76.73912,30.40101],[76.72544,30.39426],[76.71267,30.38963],[76.7142,30.38085],[76.7174,30.37684],[76.72825,30.37626],[76.7306,30.3731],[76.72143,30.36417],[76.72385,30.36113],[76.7429,30.36341],[76.74754,30.36089],[76.75102,30.35561],[76.74712,30.34989],[76.74147,30.34439],[76.73639,30.34033],[76.72759,30.33587],[76.72761,30.32888],[76.72339,30.32584],[76.71718,30.32767],[76.71268,30.32583],[76.71008,30.32084],[76.70087,30.32198],[76.69188,30.31738],[76.68703,30.32196],[76.68326,30.31519],[76.68544,30.30877],[76.67477,30.29556],[76.66361,30.29536],[76.63858,30.27998],[76.63512,30.28743],[76.63199,30.28391],[76.62663,30.27133],[76.62207,30.26666],[76.61673,30.26832],[76.59316,30.26596],[76.57012,30.26038],[76.55983,30.26105],[76.558,30.25476],[76.5591,30.24565],[76.55812,30.23966],[76.55434,30.2325],[76.54503,30.22821],[76.54463,30.22325],[76.55648,30.22697],[76.5598,30.23055],[76.58123,30.24743],[76.58807,30.25195],[76.5962,30.2526],[76.60252,30.25018],[76.6081,30.23999],[76.61162,30.23638],[76.6215,30.23092],[76.62417,30.227],[76.62403,30.22164],[76.61842,30.21603],[76.6164,30.21119],[76.62155,30.20878],[76.62889,30.20706],[76.64496,30.20599],[76.65107,30.20191],[76.6493,30.19292],[76.65411,30.18964],[76.65384,30.18521],[76.65137,30.18116],[76.63482,30.16626],[76.63968,30.15106],[76.63532,30.14535],[76.62734,30.14167],[76.6195,30.13682],[76.6076,30.12489],[76.60121,30.11942],[76.59216,30.11489],[76.56675,30.09476],[76.54549,30.07879],[76.53739,30.07687],[76.52076,30.07557],[76.51294,30.07268],[76.50896,30.07762],[76.50684,30.08315],[76.50701,30.08846],[76.50265,30.09323],[76.49533,30.09565],[76.4734,30.09513],[76.46651,30.09637],[76.46389,30.09685],[76.46092,30.10094],[76.45847,30.10738],[76.45633,30.11905],[76.45806,30.12513],[76.45834,30.13329],[76.45291,30.13214],[76.44819,30.13322],[76.44322,30.1369],[76.43794,30.14377],[76.43676,30.15084],[76.43415,30.15492],[76.43434,30.1598],[76.43834,30.1638],[76.44093,30.16921],[76.44053,30.17602],[76.43197,30.19413],[76.42217,30.19856],[76.4108,30.19528],[76.40294,30.18854],[76.39865,30.18328],[76.39291,30.17954],[76.39494,30.17532],[76.40053,30.17038],[76.41351,30.15398],[76.41139,30.15142],[76.40438,30.14652],[76.398,30.1445],[76.3964,30.14207],[76.40015,30.13458],[76.40028,30.13022],[76.40183,30.12378],[76.39619,30.12008],[76.38651,30.11999],[76.37555,30.12382],[76.36996,30.12959],[76.36017,30.14684],[76.35489,30.14977],[76.33767,30.14559],[76.3405,30.14111],[76.34749,30.13558],[76.36009,30.12796],[76.36069,30.12396],[76.34966,30.11216],[76.34012,30.10583],[76.33462,30.10454],[76.32446,30.10485],[76.30479,30.115],[76.29807,30.1132],[76.29156,30.11003],[76.28372,30.11075],[76.27719,30.1141],[76.26284,30.11544],[76.25626,30.11831],[76.25469,30.12393],[76.25265,30.12512],[76.24986,30.12737],[76.2485,30.12902],[76.2471,30.13062],[76.24547,30.13204],[76.24362,30.13326],[76.24168,30.13438],[76.23975,30.13552],[76.23798,30.1368],[76.23644,30.1383],[76.23507,30.13993],[76.23373,30.14159],[76.23229,30.14317],[76.23069,30.14467],[76.22904,30.14627],[76.22736,30.1479],[76.22567,30.14955],[76.22396,30.15112],[76.22226,30.1526],[76.22057,30.15392],[76.21893,30.15504],[76.21731,30.15589],[76.21559,30.15543],[76.21406,30.15324],[76.21365,30.1511],[76.2143,30.14934],[76.21546,30.14756],[76.2168,30.14576],[76.21803,30.14393],[76.21875,30.14202],[76.21912,30.14],[76.22021,30.13824],[76.22171,30.13659],[76.22324,30.13497],[76.22434,30.13334],[76.22362,30.13157],[76.22176,30.13012],[76.21962,30.12966],[76.21746,30.13028],[76.21532,30.13124],[76.21331,30.13234],[76.21137,30.13373],[76.20945,30.13522],[76.20758,30.13652],[76.20578,30.13731],[76.20397,30.13699],[76.20222,30.13517],[76.20128,30.13322],[76.20227,30.1315],[76.20416,30.13005],[76.20603,30.12888],[76.208,30.1278],[76.21002,30.12678],[76.21206,30.12581],[76.21429,30.12517],[76.21637,30.12437],[76.21807,30.123],[76.21958,30.12144],[76.22095,30.1198],[76.22225,30.1181],[76.22359,30.11645],[76.2251,30.11494],[76.22684,30.11366],[76.2288,30.11259],[76.23085,30.1116],[76.23288,30.1106],[76.23481,30.10948],[76.23653,30.10811],[76.23834,30.10687],[76.24035,30.10579],[76.24248,30.10498],[76.24472,30.10467],[76.24703,30.10462],[76.24937,30.10468],[76.25171,30.10472],[76.25404,30.10463],[76.25635,30.10437],[76.25876,30.10405],[76.26115,30.10364],[76.2634,30.10312],[76.26544,30.10244],[76.26666,30.101],[76.26624,30.09881],[76.26524,30.09695],[76.26401,30.0951],[76.26257,30.09348],[76.26087,30.09244],[76.25838,30.09281],[76.25618,30.09257],[76.25447,30.09133],[76.25283,30.08996],[76.25125,30.08846],[76.2497,30.08689],[76.24822,30.08527],[76.24678,30.08364],[76.2454,30.08201],[76.24406,30.08037],[76.24277,30.0787],[76.24152,30.07701],[76.24029,30.07529],[76.23909,30.07357],[76.2379,30.07183],[76.23671,30.0701],[76.23551,30.06838],[76.2343,30.06665],[76.2331,30.06493],[76.23191,30.06319],[76.23072,30.06147],[76.22955,30.05973],[76.22837,30.05799],[76.2272,30.05625],[76.22602,30.05452],[76.22484,30.05278],[76.22369,30.05103],[76.22256,30.04926],[76.2214,30.04751],[76.22016,30.04582],[76.21875,30.04423],[76.21717,30.04274],[76.21555,30.04128],[76.21403,30.03976],[76.21262,30.03808],[76.21112,30.03623],[76.20989,30.03438],[76.20943,30.0327],[76.2104,30.03127],[76.21261,30.03011],[76.21494,30.02917],[76.21729,30.02846],[76.21989,30.02788],[76.22248,30.02736],[76.22481,30.02677],[76.22663,30.02606],[76.22763,30.0251],[76.22694,30.02355],[76.22504,30.02173],[76.22289,30.02015],[76.22094,30.01916],[76.2187,30.01855],[76.21637,30.01809],[76.21411,30.01764],[76.21181,30.01728],[76.20951,30.01696],[76.20727,30.0165],[76.20493,30.01583],[76.20303,30.01466],[76.20238,30.01286],[76.20196,30.01094],[76.20165,30.00894],[76.20143,30.0069],[76.20126,30.00482],[76.20106,30.00276],[76.2008,30.00063],[76.20445,29.99305],[76.20718,29.98692],[76.20854,29.98152],[76.20889,29.97623],[76.21038,29.96958],[76.2061,29.96208],[76.21481,29.94845],[76.21641,29.94388],[76.2152,29.94049],[76.20219,29.94086],[76.19613,29.94269],[76.19023,29.94268],[76.18092,29.93299],[76.17754,29.92508],[76.18275,29.91963],[76.19328,29.91963],[76.19486,29.9121],[76.19394,29.89025],[76.19585,29.88494],[76.20861,29.88036],[76.21935,29.88283],[76.22819,29.88017],[76.23654,29.88136],[76.2437,29.87761],[76.24992,29.87217],[76.25325,29.86529],[76.24916,29.86172],[76.24643,29.85608],[76.24306,29.85263],[76.2397,29.8508],[76.23409,29.85187],[76.22701,29.85098],[76.22294,29.84945],[76.22082,29.84646],[76.22226,29.83952],[76.2208,29.83903],[76.21338,29.8416],[76.20533,29.84128],[76.20051,29.83679],[76.19694,29.82755],[76.17773,29.81466],[76.16418,29.81262],[76.15031,29.81313],[76.14314,29.80843],[76.1382,29.80181],[76.13241,29.79587],[76.12738,29.7928],[76.12126,29.79973],[76.11421,29.80483],[76.10536,29.808],[76.10155,29.80727],[76.09705,29.80635],[76.08864,29.80224],[76.08654,29.79351],[76.08637,29.78435],[76.08527,29.77769],[76.08081,29.77247],[76.07411,29.77392],[76.06933,29.76961],[76.05232,29.74525],[76.04648,29.74315],[76.04255,29.74739],[76.03508,29.75211],[76.02841,29.75259],[76.02209,29.74935],[76.01464,29.74746],[76.00006,29.73886],[75.99076,29.73274],[75.98329,29.72893],[75.97559,29.72795],[75.96822,29.72871],[75.96082,29.73051],[75.95307,29.73091],[75.9494,29.73013],[75.94472,29.72916],[75.93386,29.73155],[75.92466,29.73543],[75.91384,29.74296],[75.90797,29.75223],[75.90141,29.74993],[75.88996,29.74379],[75.88271,29.74685],[75.87446,29.74908],[75.8653,29.76644],[75.85433,29.77276],[75.85197,29.77765],[75.84412,29.7875],[75.84003,29.79755],[75.83979,29.80918],[75.83072,29.81225],[75.80677,29.80403],[75.79393,29.81225],[75.78236,29.82235],[75.77414,29.81893],[75.77132,29.81563],[75.75909,29.80911],[75.7434,29.80827],[75.73666,29.80854],[75.72054,29.80931],[75.71656,29.80569],[75.70799,29.75224],[75.69794,29.74882],[75.68883,29.75413],[75.67672,29.7698],[75.66694,29.77318],[75.6602,29.77169],[75.6514,29.76825],[75.63586,29.77039],[75.634,29.76406],[75.63308,29.75078],[75.62366,29.74363],[75.61092,29.74459],[75.60317,29.74635],[75.57918,29.73986],[75.57348,29.74149],[75.56683,29.76312],[75.5546,29.76908],[75.54061,29.77005],[75.53437,29.76458],[75.52207,29.75741],[75.51671,29.77144],[75.50876,29.77516],[75.45466,29.80537],[75.44584,29.79638],[75.4535,29.79168],[75.45414,29.78369],[75.44496,29.7778],[75.43753,29.77547],[75.43007,29.77193],[75.42028,29.77288],[75.40748,29.75859],[75.40702,29.74623],[75.40108,29.73617],[75.39392,29.73159],[75.39237,29.72464],[75.39376,29.71788],[75.38891,29.70887],[75.38016,29.71064],[75.37207,29.71048],[75.36867,29.70336],[75.36279,29.7021],[75.35129,29.69286],[75.34542,29.69149],[75.34389,29.68568],[75.35607,29.66901],[75.35935,29.66323],[75.36048,29.65686],[75.35851,29.65665],[75.35681,29.65647],[75.3515,29.65973],[75.34018,29.66991],[75.33262,29.67005],[75.32773,29.66835],[75.32621,29.65846],[75.32166,29.6464],[75.31745,29.6302],[75.31098,29.62473],[75.29774,29.61744],[75.29043,29.60779],[75.29019,29.60092],[75.30346,29.5953],[75.31187,29.5896],[75.31434,29.58609],[75.3147,29.58121],[75.31287,29.57666],[75.30586,29.56569],[75.30042,29.55937],[75.28479,29.55876],[75.27723,29.55694],[75.26425,29.55185],[75.24777,29.54925],[75.23316,29.54388],[75.23402,29.54776],[75.23788,29.55629],[75.2315,29.56803],[75.22761,29.57622],[75.2209,29.58018],[75.22912,29.59027],[75.23298,29.59666],[75.23102,29.60433],[75.20916,29.62053],[75.1945,29.6204],[75.18313,29.62797],[75.18224,29.63653],[75.18312,29.64739],[75.17836,29.65215],[75.17257,29.65597],[75.16767,29.66066],[75.16876,29.66732],[75.17771,29.67121],[75.18519,29.67598],[75.18972,29.67623],[75.19878,29.67874],[75.2052,29.68566],[75.2076,29.69437],[75.20236,29.69745],[75.19834,29.70166],[75.1972,29.70986],[75.20367,29.72313],[75.2081,29.72873],[75.21618,29.73317],[75.22068,29.7288],[75.22663,29.72788],[75.2314,29.73095],[75.24105,29.74996],[75.23741,29.75401],[75.23335,29.76144],[75.22683,29.76944],[75.22628,29.77784],[75.2225,29.78447],[75.21547,29.78797],[75.20807,29.79421],[75.20658,29.8031],[75.20795,29.81144],[75.21269,29.81935],[75.21109,29.82801],[75.1988,29.83262],[75.19253,29.83676],[75.18875,29.83497],[75.18619,29.83314],[75.18533,29.82758],[75.17714,29.82303],[75.17008,29.82173],[75.16554,29.81791],[75.16138,29.79992],[75.15901,29.79421],[75.15957,29.78972],[75.16492,29.78717],[75.16924,29.78229],[75.16409,29.77908],[75.15174,29.77509],[75.14549,29.77848],[75.14145,29.78298],[75.13499,29.80376],[75.11233,29.80074],[75.10556,29.80255],[75.10021,29.80487],[75.09908,29.81106],[75.10339,29.81753],[75.11721,29.82473],[75.11418,29.83622],[75.10906,29.83965],[75.09585,29.84306],[75.09134,29.84765],[75.0911,29.85242],[75.09483,29.85686],[75.11075,29.86614],[75.11439,29.87144],[75.11328,29.87503],[75.11289,29.8953],[75.10498,29.90337],[75.10002,29.91003],[75.09503,29.91345],[75.08795,29.91065],[75.08018,29.89169],[75.07563,29.87737],[75.07053,29.87446],[75.06188,29.87322],[75.04762,29.88017],[75.03357,29.87128],[75.02418,29.86305],[75.01572,29.86602],[75.00414,29.86167],[74.99994,29.85492],[74.97952,29.87921],[74.97996,29.88846],[74.96793,29.89631],[74.95322,29.90116],[74.94575,29.91406],[74.942,29.92144],[74.93871,29.92783],[74.93422,29.94022],[74.92585,29.94788],[74.90446,29.9382],[74.89531,29.93789],[74.89968,29.94379],[74.90319,29.94603],[74.90446,29.95171],[74.89988,29.95781],[74.89554,29.96113],[74.89161,29.96717],[74.88751,29.96139],[74.88206,29.95795],[74.87575,29.95773],[74.86946,29.96003],[74.8597,29.95801],[74.84666,29.96307],[74.83907,29.96839],[74.83145,29.97201],[74.82976,29.97843],[74.82677,29.9835],[74.81912,29.98947],[74.81125,29.99159],[74.80447,29.98864],[74.79425,29.97947],[74.78602,29.97345],[74.77738,29.97179],[74.76869,29.97273],[74.76071,29.97034],[74.74722,29.96819],[74.73394,29.96103],[74.71608,29.96809],[74.7073,29.97039],[74.70543,29.97077],[74.70071,29.96852],[74.69309,29.96033],[74.69083,29.94845],[74.67554,29.94097],[74.65874,29.93024],[74.64964,29.92182],[74.64862,29.91377],[74.6567,29.90396],[74.64936,29.90326],[74.64236,29.90499],[74.63612,29.90535],[74.63175,29.90713],[74.59549,29.91421],[74.59056,29.91776],[74.58264,29.92537],[74.57155,29.92883],[74.56169,29.92877],[74.55872,29.93271],[74.53994,29.94458],[74.53435,29.95119],[74.52875,29.94299],[74.47624,29.94445],[74.45364,29.94655],[74.45158,29.94692],[74.43766,29.94941],[74.41335,29.94726],[74.382,29.95002],[74.36537,29.95038],[74.35173,29.95186],[74.331,29.9541],[74.29944,29.95648],[74.28847,29.95535],[74.26974,29.95597],[74.26132,29.95559],[74.25009,29.95665],[74.23319,29.96011],[74.22214,29.96082],[74.19532,29.96088],[74.16376,29.96387],[74.09256,29.96816],[74.07842,29.96971],[74.01189,29.97108],[74.00515,29.97194],[74.00006,29.97228],[73.98557,29.9702],[73.96605,29.97065],[73.94201,29.97195],[73.90021,29.9714],[73.89849,29.97896],[73.89754,29.98313],[73.89209,29.99266],[73.89021,29.99767],[73.89096,30.01265],[73.89463,30.01884],[73.9018,30.03994],[73.904,30.04826],[73.90761,30.05506],[73.91779,30.0615],[73.92748,30.06952],[73.94085,30.08516],[73.95229,30.10043],[73.95348,30.10557],[73.95937,30.11112],[73.96737,30.12089],[73.97607,30.12248],[73.97337,30.12569],[73.97191,30.12882],[73.97064,30.13555],[73.97029,30.14457],[73.97292,30.17319],[73.97599,30.17839],[73.97768,30.18567],[73.97591,30.19643],[73.97424,30.22589],[73.97356,30.23224],[73.97351,30.23273],[73.97083,30.24266],[73.96956,30.25664],[73.96879,30.2571],[73.96756,30.26318],[73.96547,30.26452],[73.96415,30.26769],[73.96178,30.26949],[73.96127,30.2715],[73.96044,30.27207],[73.95918,30.27287],[73.95844,30.27535],[73.95768,30.27577],[73.95707,30.27624],[73.95424,30.28338],[73.95371,30.28361],[73.95305,30.28652],[73.95204,30.28776],[73.95101,30.2884],[73.951,30.28909],[73.95021,30.28952],[73.94676,30.29793],[73.9461,30.2985],[73.94412,30.30463],[73.94287,30.30537],[73.94188,30.30694],[73.94117,30.30816],[73.93665,30.31096],[73.93641,30.3116],[73.93588,30.31182],[73.93522,30.31228],[73.93391,30.31568],[73.93285,30.31657],[73.93232,30.31677],[73.92997,30.32174],[73.92943,30.32197],[73.9289,30.32218],[73.92809,30.32489],[73.92602,30.32669],[73.92573,30.32894],[73.92416,30.32986],[73.92403,30.33031],[73.92285,30.33254],[73.92205,30.33299],[73.92101,30.33367],[73.91837,30.33841],[73.91733,30.33884],[73.91629,30.3393],[73.91629,30.33996],[73.91551,30.34154],[73.91472,30.34199],[73.91444,30.34266],[73.91312,30.34312],[73.91078,30.34468],[73.90963,30.34668],[73.90936,30.34757],[73.90859,30.34803],[73.90763,30.34873],[73.90712,30.35077],[73.89548,30.35625],[73.89052,30.35898],[73.89028,30.35959],[73.88858,30.36082],[73.8854,30.36264],[73.88537,30.36535],[73.88643,30.36536],[73.89392,30.37104],[73.90846,30.37832],[73.91336,30.38169],[73.91777,30.38536],[73.91879,30.38628],[73.9212,30.39013],[73.92228,30.3927],[73.92354,30.39377],[73.92465,30.39472],[73.92465,30.39517],[73.92517,30.39518],[73.92884,30.39809],[73.93898,30.4022],[73.93943,30.40259],[73.94116,30.4043],[73.94279,30.4064],[73.94849,30.41145],[73.95373,30.41537],[73.96488,30.42174],[73.96747,30.42423],[73.97209,30.43354],[73.9727,30.44075],[73.9715,30.44233],[73.97043,30.44278],[73.96888,30.443],[73.95876,30.44025],[73.94282,30.43782],[73.94091,30.4377],[73.93851,30.43756],[73.9353,30.43766],[73.93061,30.43899],[73.93086,30.44147],[73.93734,30.44511],[73.93786,30.4458],[73.9393,30.44852],[73.9395,30.44967],[73.93988,30.45596],[73.9396,30.45776],[73.93943,30.45831],[73.93881,30.46001],[73.93801,30.46047],[73.93749,30.46069],[73.93484,30.46747],[73.93533,30.47289],[73.93552,30.4835],[73.93497,30.4853],[73.9352,30.48937],[73.93663,30.4905],[73.94093,30.49167],[73.9425,30.49099],[73.94277,30.48964],[73.94302,30.48828],[73.94773,30.48605],[73.94911,30.48429],[73.95049,30.48109],[73.95121,30.4801],[73.94968,30.46844],[73.95,30.4619],[73.95729,30.45967],[73.95939,30.45944],[73.96615,30.46195],[73.96744,30.46311],[73.96766,30.46786],[73.97038,30.4726],[73.97126,30.47531],[73.9712,30.47588],[73.97028,30.48368],[73.96974,30.48391],[73.96963,30.48458],[73.97012,30.48685],[73.97067,30.48781],[73.97125,30.48867],[73.97556,30.49323],[73.97648,30.4942],[73.97763,30.49544],[73.9849,30.50135],[73.98872,30.51041],[73.99141,30.51233],[73.99442,30.51381],[73.99868,30.51418],[74.00355,30.51454],[74.0096,30.5131],[74.0097,30.51261],[74.01594,30.51157],[74.0204,30.51327],[74.01582,30.51718],[74.01483,30.51829],[74.01265,30.51999],[74.01162,30.52068],[74.01089,30.52229],[74.01051,30.52675],[74.01178,30.53061],[74.01267,30.53198],[74.01596,30.53268],[74.02181,30.5319],[74.02846,30.53135],[74.02976,30.53159],[74.03052,30.53182],[74.03395,30.53091],[74.03551,30.53115],[74.04097,30.5339],[74.04332,30.53628],[74.04587,30.54001],[74.04901,30.54094],[74.05005,30.54072],[74.05084,30.54003],[74.05191,30.53441],[74.05615,30.52242],[74.06057,30.52134],[74.06164,30.52158],[74.06373,30.52201],[74.06763,30.52068],[74.06842,30.52112],[74.07456,30.52447],[74.07749,30.52659],[74.07802,30.52705],[74.08166,30.53055],[74.08373,30.53315],[74.08399,30.53407],[74.08813,30.53747],[74.09149,30.54223],[74.09263,30.54648],[74.09287,30.55036],[74.09273,30.55195],[74.0922,30.5524],[74.09116,30.55286],[74.08259,30.55079],[74.07863,30.55235],[74.07822,30.55505],[74.07834,30.55641],[74.07979,30.55754],[74.08135,30.55867],[74.08185,30.55913],[74.08642,30.56255],[74.0946,30.5677],[74.09562,30.56891],[74.1005,30.57322],[74.10092,30.57354],[74.10173,30.57433],[74.10316,30.57684],[74.1036,30.58138],[74.10378,30.58294],[74.10268,30.58994],[74.10262,30.59965],[74.10505,30.6062],[74.10504,30.60732],[74.10491,30.60778],[74.10076,30.61003],[74.10061,30.61183],[74.1016,30.61433],[74.10644,30.6166],[74.10904,30.61705],[74.10984,30.61638],[74.11011,30.61503],[74.11116,30.61301],[74.11168,30.61279],[74.11273,30.61144],[74.11273,30.61077],[74.11534,30.60894],[74.11534,30.60805],[74.11954,30.60717],[74.12007,30.6074],[74.1211,30.60853],[74.12234,30.61827],[74.12752,30.62479],[74.12757,30.62582],[74.1281,30.62581],[74.12904,30.63365],[74.13163,30.63388],[74.13244,30.63388],[74.13427,30.63049],[74.14054,30.62937],[74.14314,30.63075],[74.15095,30.63257],[74.15226,30.63349],[74.15431,30.63664],[74.16084,30.64141],[74.16735,30.64549],[74.16877,30.64708],[74.16876,30.64801],[74.17567,30.65074],[74.17698,30.65163],[74.18034,30.65547],[74.18267,30.66003],[74.18615,30.66362],[74.18758,30.66431],[74.19265,30.66514],[74.19386,30.66548],[74.19492,30.66638],[74.19804,30.66817],[74.19934,30.66864],[74.20957,30.682],[74.21072,30.68426],[74.21352,30.68626],[74.2206,30.69243],[74.22151,30.6956],[74.22317,30.70599],[74.22681,30.70939],[74.2304,30.71957],[74.23211,30.72249],[74.23301,30.72318],[74.2351,30.72362],[74.23587,30.72356],[74.24084,30.72253],[74.24502,30.72548],[74.24865,30.72618],[74.25364,30.72512],[74.25806,30.72413],[74.26071,30.72483],[74.26251,30.72437],[74.26538,30.72508],[74.26773,30.72644],[74.27344,30.73255],[74.28102,30.73358],[74.28259,30.73335],[74.28702,30.73527],[74.28767,30.73663],[74.28779,30.74049],[74.28656,30.7414],[74.28603,30.74163],[74.28385,30.74364],[74.28358,30.745],[74.27757,30.74813],[74.27698,30.75575],[74.27596,30.75832],[74.27361,30.76036],[74.27254,30.76102],[74.27177,30.76259],[74.26572,30.76595],[74.26548,30.76756],[74.26468,30.76799],[74.26388,30.76843],[74.2636,30.77205],[74.26413,30.77318],[74.26725,30.77567],[74.2717,30.77705],[74.27328,30.77683],[74.27431,30.77637],[74.27458,30.7757],[74.27668,30.77436],[74.27799,30.7739],[74.28322,30.773],[74.29024,30.77733],[74.29517,30.77824],[74.29669,30.77814],[74.30229,30.77961],[74.30747,30.78276],[74.30853,30.78391],[74.31033,30.78708],[74.31018,30.79002],[74.30927,30.79114],[74.30877,30.79137],[74.30796,30.79363],[74.30744,30.79407],[74.3018,30.7954],[74.29802,30.79699],[74.29722,30.79789],[74.29694,30.80082],[74.30347,30.80355],[74.30452,30.80445],[74.30579,30.81145],[74.30656,30.81281],[74.30957,30.81554],[74.31361,30.81759],[74.31885,30.82234],[74.31974,30.82504],[74.32177,30.83589],[74.32291,30.84176],[74.32538,30.84491],[74.32748,30.8488],[74.33131,30.85083],[74.33182,30.85105],[74.33468,30.85152],[74.3407,30.84995],[74.34249,30.85016],[74.34257,30.85144],[74.34263,30.85197],[74.34275,30.85356],[74.34381,30.85424],[74.34878,30.85528],[74.35226,30.85515],[74.35401,30.85562],[74.35741,30.8554],[74.35741,30.8547],[74.35794,30.8545],[74.35872,30.85404],[74.35873,30.85021],[74.36187,30.84932],[74.36267,30.84909],[74.36578,30.84999],[74.36816,30.85181],[74.36853,30.8536],[74.37127,30.8604],[74.3727,30.86107],[74.37624,30.86173],[74.37727,30.8613],[74.37807,30.86154],[74.38094,30.86131],[74.38198,30.86108],[74.38407,30.86221],[74.38461,30.86267],[74.38576,30.8654],[74.38555,30.8661],[74.38432,30.86652],[74.38097,30.86833],[74.38033,30.86849],[74.37305,30.87011],[74.37173,30.87077],[74.372,30.87213],[74.37147,30.87348],[74.36779,30.87474],[74.36419,30.87877],[74.36644,30.88011],[74.36856,30.88209],[74.36986,30.88454],[74.37012,30.88681],[74.37229,30.89495],[74.37349,30.89587],[74.37973,30.89677],[74.38316,30.89723],[74.39022,30.89972],[74.39378,30.90177],[74.39532,30.90357],[74.39568,30.90449],[74.39689,30.90494],[74.40797,30.91242],[74.40968,30.91274],[74.41119,30.91294],[74.41925,30.9129],[74.42553,30.91154],[74.42603,30.91176],[74.42683,30.91222],[74.42866,30.91404],[74.42889,30.91562],[74.42811,30.91833],[74.42417,30.9215],[74.41342,30.92651],[74.41788,30.92678],[74.42182,30.92714],[74.42782,30.92623],[74.42886,30.92712],[74.42784,30.93164],[74.42459,30.93372],[74.42086,30.9357],[74.42111,30.93685],[74.42441,30.94],[74.42515,30.94293],[74.42777,30.94454],[74.43958,30.94748],[74.44112,30.94816],[74.44568,30.95244],[74.44791,30.9538],[74.44948,30.95402],[74.45475,30.95396],[74.46049,30.95293],[74.46153,30.95383],[74.46153,30.95611],[74.46086,30.95746],[74.46086,30.95881],[74.46256,30.95948],[74.46649,30.95902],[74.467,30.95926],[74.46883,30.96016],[74.46923,30.96082],[74.46937,30.96196],[74.46593,30.96506],[74.45967,30.96967],[74.46306,30.97009],[74.46752,30.97213],[74.47981,30.97577],[74.48896,30.97675],[74.49263,30.97712],[74.49841,30.9751],[74.49935,30.97337],[74.49988,30.97315],[74.49988,30.97249],[74.50052,30.97103],[74.50102,30.97081],[74.5018,30.97035],[74.50217,30.96899],[74.50674,30.96643],[74.50872,30.96845],[74.51149,30.9699],[74.51621,30.97872],[74.52067,30.9809],[74.52144,30.98121],[74.52614,30.98572],[74.53452,30.98982],[74.54446,30.99138],[74.54841,30.99298],[74.54997,30.99434],[74.55036,30.99815],[74.54983,30.99838],[74.5489,31.00111],[74.54804,31.00171],[74.54689,31.00295],[74.54545,31.00588],[74.54366,31.01013],[74.54367,31.01353],[74.5476,31.01759],[74.54991,31.03252],[74.55252,31.03566],[74.55803,31.03952],[74.56166,31.04404],[74.56483,31.04606],[74.56518,31.04737],[74.56492,31.05307],[74.56558,31.05421],[74.57115,31.05518],[74.58313,31.05828],[74.58814,31.05874],[74.59181,31.05828],[74.59653,31.05534],[74.59968,31.04359],[74.60597,31.04134],[74.61462,31.0454],[74.61744,31.04597],[74.62642,31.04685],[74.63454,31.04767],[74.64556,31.05354],[74.65446,31.05377],[74.65812,31.05354],[74.661,31.05377],[74.66809,31.05509],[74.67868,31.05936],[74.68433,31.06211],[74.6859,31.06413],[74.69035,31.06729],[74.69532,31.07271],[74.69719,31.077],[74.69708,31.08051],[74.69634,31.0819],[74.69639,31.08694],[74.69847,31.09011],[74.70318,31.09258],[74.70662,31.09596],[74.70662,31.09869],[74.70294,31.10455],[74.70282,31.11504],[74.70281,31.11559],[74.70281,31.11607],[74.70214,31.11765],[74.69847,31.11993],[74.69428,31.12083],[74.69284,31.12606],[74.69138,31.12964],[74.69033,31.1301],[74.68956,31.13034],[74.68956,31.13123],[74.68879,31.13166],[74.68117,31.13103],[74.67592,31.1274],[74.6712,31.1281],[74.66962,31.13326],[74.66859,31.13418],[74.66491,31.13577],[74.66333,31.13553],[74.66203,31.13441],[74.65204,31.13081],[74.64996,31.1292],[74.64786,31.12494],[74.64338,31.122],[74.6371,31.12333],[74.63685,31.12808],[74.63818,31.13311],[74.63852,31.13644],[74.63838,31.13713],[74.63735,31.13802],[74.6363,31.13756],[74.63527,31.13733],[74.63473,31.13757],[74.63366,31.1378],[74.62695,31.13679],[74.62634,31.13647],[74.62309,31.13456],[74.6224,31.13419],[74.62003,31.13353],[74.61872,31.13375],[74.61347,31.13624],[74.60718,31.13579],[74.60454,31.13419],[74.60404,31.13282],[74.60393,31.12917],[74.60431,31.12809],[74.60545,31.12761],[74.60638,31.12742],[74.60796,31.12561],[74.60876,31.12515],[74.60943,31.12334],[74.61011,31.11622],[74.61141,31.11303],[74.61245,31.11229],[74.61272,31.10958],[74.61219,31.10415],[74.61028,31.10059],[74.60853,31.09827],[74.60856,31.09171],[74.60488,31.08819],[74.60349,31.08992],[74.60147,31.09037],[74.60115,31.09143],[74.60094,31.09219],[74.60014,31.094],[74.59752,31.09602],[74.59477,31.09557],[74.59374,31.09374],[74.59334,31.09262],[74.5902,31.09103],[74.5881,31.09083],[74.58677,31.09103],[74.58495,31.09033],[74.58351,31.08954],[74.58259,31.08922],[74.57788,31.08518],[74.56974,31.08789],[74.56527,31.08706],[74.56396,31.08651],[74.55925,31.08832],[74.55898,31.08924],[74.55845,31.08947],[74.5579,31.09941],[74.55726,31.10008],[74.55595,31.10437],[74.55554,31.10618],[74.55588,31.11194],[74.55641,31.1133],[74.5566,31.11656],[74.5566,31.11791],[74.55592,31.12131],[74.55552,31.12267],[74.55475,31.1231],[74.55448,31.12379],[74.54845,31.12604],[74.54648,31.12555],[74.54224,31.12408],[74.5404,31.12293],[74.53857,31.1234],[74.53728,31.12631],[74.53675,31.12654],[74.53635,31.12818],[74.53582,31.12841],[74.5353,31.13058],[74.5297,31.1331],[74.52794,31.13327],[74.51826,31.13687],[74.51748,31.13757],[74.51668,31.13958],[74.5177,31.15065],[74.51756,31.15177],[74.51703,31.152],[74.51611,31.15965],[74.51599,31.16611],[74.51675,31.16851],[74.51594,31.17211],[74.51542,31.17234],[74.51348,31.18106],[74.51347,31.18218],[74.51345,31.18273],[74.51448,31.18545],[74.51461,31.18611],[74.51659,31.18681],[74.51971,31.18636],[74.52104,31.18681],[74.52168,31.18816],[74.52167,31.18974],[74.51999,31.19403],[74.52048,31.19855],[74.52312,31.20172],[74.5241,31.20411],[74.52677,31.21052],[74.5261,31.21867],[74.52526,31.21945],[74.52307,31.2241],[74.52359,31.23246],[74.52606,31.23788],[74.53195,31.24285],[74.53455,31.24872],[74.53442,31.24985],[74.5335,31.25255],[74.53299,31.25278],[74.53299,31.25347],[74.53112,31.25479],[74.52996,31.25788],[74.52824,31.26453],[74.52771,31.26477],[74.52693,31.26747],[74.52401,31.26929],[74.5235,31.27357],[74.52518,31.27674],[74.52873,31.27876],[74.52926,31.27923],[74.53082,31.2851],[74.53157,31.2867],[74.5371,31.29594],[74.54288,31.30003],[74.54432,31.30368],[74.54456,31.3043],[74.54442,31.30634],[74.54261,31.30746],[74.54233,31.30861],[74.53242,31.31049],[74.5305,31.31132],[74.52985,31.31266],[74.53036,31.31627],[74.53217,31.31651],[74.53655,31.31807],[74.54098,31.32172],[74.5411,31.32284],[74.54019,31.32803],[74.54135,31.33189],[74.54229,31.33232],[74.55043,31.33345],[74.55281,31.33504],[74.55253,31.33889],[74.54831,31.34273],[74.54814,31.34691],[74.55091,31.35085],[74.55331,31.35652],[74.55353,31.3669],[74.55747,31.36871],[74.56406,31.36959],[74.56514,31.37093],[74.5685,31.37345],[74.57101,31.37432],[74.572,31.37419],[74.57615,31.37483],[74.57809,31.37609],[74.57833,31.37671],[74.58271,31.3791],[74.58796,31.38385],[74.58941,31.387],[74.58981,31.38792],[74.58979,31.39832],[74.59029,31.39967],[74.592,31.40237],[74.59227,31.40288],[74.59294,31.40445],[74.59409,31.40661],[74.59528,31.40917],[74.59621,31.4094],[74.59753,31.41053],[74.59726,31.41188],[74.59672,31.41211],[74.59672,31.41413],[74.5975,31.41592],[74.59862,31.41626],[74.60265,31.41773],[74.60291,31.41863],[74.60291,31.42091],[74.60224,31.4216],[74.60251,31.42272],[74.60451,31.42297],[74.60895,31.42295],[74.60946,31.42271],[74.6129,31.42474],[74.61764,31.42543],[74.62263,31.42391],[74.62395,31.42364],[74.62499,31.42407],[74.62656,31.42791],[74.62964,31.42887],[74.63125,31.43],[74.63539,31.42541],[74.63644,31.42425],[74.6371,31.42384],[74.63761,31.42231],[74.63815,31.42173],[74.63842,31.42113],[74.63869,31.42024],[74.64026,31.41978],[74.6408,31.41842],[74.64775,31.41585],[74.65199,31.41725],[74.65053,31.41872],[74.65055,31.42114],[74.65001,31.42136],[74.64948,31.42159],[74.64946,31.42384],[74.64948,31.42453],[74.65038,31.42542],[74.65459,31.42665],[74.65501,31.42678],[74.65632,31.42791],[74.65646,31.42995],[74.65578,31.43084],[74.65316,31.43242],[74.65289,31.43445],[74.6492,31.43738],[74.64786,31.43988],[74.64289,31.44351],[74.64211,31.44584],[74.64262,31.44801],[74.65366,31.45706],[74.65495,31.46111],[74.65495,31.4627],[74.65313,31.46565],[74.64521,31.47083],[74.64494,31.47241],[74.64364,31.47354],[74.64128,31.47477],[74.63365,31.47921],[74.63376,31.47987],[74.63322,31.4801],[74.63362,31.48123],[74.63672,31.48364],[74.63937,31.48791],[74.63496,31.48833],[74.62704,31.4871],[74.62599,31.4874],[74.62203,31.48846],[74.6173,31.49094],[74.61571,31.49615],[74.61466,31.49705],[74.61309,31.49791],[74.61028,31.49943],[74.61,31.50007],[74.60805,31.50157],[74.60596,31.50133],[74.60305,31.49975],[74.60123,31.49998],[74.59909,31.50021],[74.59542,31.49975],[74.59254,31.49704],[74.58804,31.49796],[74.5791,31.50225],[74.57869,31.50315],[74.57882,31.50429],[74.58057,31.50459],[74.58147,31.50473],[74.58463,31.50675],[74.5854,31.50721],[74.58634,31.5106],[74.5862,31.51127],[74.5854,31.51173],[74.58433,31.51286],[74.58432,31.51735],[74.58592,31.52098],[74.58763,31.5221],[74.58776,31.52257],[74.59233,31.52523],[74.59539,31.52619],[74.60119,31.52659],[74.60644,31.52689],[74.61198,31.52891],[74.61406,31.53095],[74.61569,31.53463],[74.61684,31.53547],[74.61734,31.53726],[74.61779,31.54156],[74.61867,31.54314],[74.61878,31.54628],[74.6188,31.54697],[74.61813,31.54766],[74.6176,31.5479],[74.61773,31.54879],[74.61794,31.5517],[74.62004,31.55543],[74.62034,31.55811],[74.61706,31.55965],[74.61333,31.56119],[74.61317,31.56426],[74.61884,31.56502],[74.62047,31.56656],[74.61898,31.57053],[74.61599,31.5713],[74.61227,31.57091],[74.60615,31.5741],[74.60113,31.57631],[74.59716,31.57724],[74.59348,31.57906],[74.59107,31.58514],[74.5897,31.58634],[74.58791,31.58702],[74.58504,31.58792],[74.58477,31.58858],[74.58319,31.58899],[74.58265,31.58966],[74.57998,31.59824],[74.58075,31.60412],[74.58025,31.60435],[74.57974,31.60504],[74.57761,31.60662],[74.56339,31.60887],[74.55781,31.61159],[74.55676,31.61295],[74.5541,31.61833],[74.55383,31.62081],[74.55394,31.63009],[74.55354,31.63101],[74.55153,31.63257],[74.54881,31.63553],[74.54856,31.63762],[74.54789,31.64313],[74.54789,31.64313],[74.54786,31.64342],[74.54718,31.64546],[74.54247,31.64791],[74.54207,31.64883],[74.54245,31.65698],[74.54164,31.65946],[74.54111,31.65969],[74.5411,31.66036],[74.54056,31.66059],[74.53423,31.6651],[74.53356,31.66646],[74.53317,31.67075],[74.5362,31.67435],[74.53683,31.67594],[74.53672,31.67956],[74.53608,31.68092],[74.53315,31.68273],[74.53301,31.68339],[74.53223,31.68385],[74.53223,31.68452],[74.53104,31.68652],[74.52924,31.68803],[74.52817,31.689],[74.52685,31.68967],[74.52098,31.69107],[74.51728,31.69311],[74.517,31.69445],[74.51437,31.69625],[74.50882,31.69806],[74.50718,31.69916],[74.50567,31.70439],[74.50276,31.70664],[74.50276,31.70754],[74.49698,31.71235],[74.49427,31.71452],[74.48978,31.71702],[74.48825,31.71806],[74.48604,31.72243],[74.48897,31.72361],[74.49266,31.72674],[74.50072,31.72926],[74.50134,31.72946],[74.50295,31.73035],[74.50348,31.73104],[74.50544,31.73898],[74.50667,31.74163],[74.5086,31.74247],[74.51187,31.74301],[74.51796,31.74099],[74.51877,31.74131],[74.52036,31.742],[74.52155,31.74249],[74.52493,31.74439],[74.54225,31.75162],[74.54987,31.753],[74.55545,31.75256],[74.55885,31.75232],[74.5644,31.75436],[74.56521,31.75503],[74.56561,31.75615],[74.56546,31.75932],[74.56283,31.76114],[74.56095,31.7652],[74.55831,31.76724],[74.55749,31.7783],[74.55775,31.77968],[74.56064,31.7862],[74.56803,31.79208],[74.56843,31.79343],[74.56829,31.79637],[74.56698,31.79727],[74.56302,31.79841],[74.56289,31.80022],[74.563,31.80091],[74.57116,31.80971],[74.57378,31.81717],[74.57316,31.82059],[74.56982,31.82348],[74.56942,31.8244],[74.56931,31.82958],[74.56995,31.83073],[74.57826,31.83434],[74.58617,31.8436],[74.59408,31.84541],[74.59428,31.84666],[74.59481,31.84711],[74.59595,31.85694],[74.59696,31.85875],[74.59921,31.8607],[74.60966,31.86665],[74.61,31.86936],[74.60964,31.87906],[74.61015,31.88111],[74.61175,31.8854],[74.61283,31.88699],[74.61401,31.88791],[74.61623,31.88836],[74.61755,31.88722],[74.6181,31.88587],[74.62551,31.88313],[74.62895,31.88272],[74.63634,31.88316],[74.64031,31.88474],[74.64353,31.88724],[74.64466,31.88885],[74.64745,31.89151],[74.6493,31.89626],[74.65167,31.89851],[74.65271,31.89874],[74.65804,31.89874],[74.66094,31.89762],[74.66225,31.89805],[74.66462,31.89986],[74.66542,31.90257],[74.66515,31.90642],[74.6654,31.91095],[74.66581,31.91164],[74.67019,31.9132],[74.67282,31.91524],[74.67373,31.92],[74.67572,31.92043],[74.68047,31.91862],[74.68179,31.91838],[74.68312,31.91862],[74.68402,31.91974],[74.68443,31.92043],[74.6879,31.92269],[74.69002,31.92336],[74.69859,31.92481],[74.70112,31.9246],[74.70348,31.92425],[74.70692,31.92267],[74.70824,31.92177],[74.70905,31.92042],[74.70986,31.91906],[74.7109,31.91861],[74.71488,31.91791],[74.72307,31.92107],[74.72361,31.92154],[74.72321,31.92652],[74.72079,31.92929],[74.72023,31.93063],[74.72017,31.93395],[74.72146,31.93712],[74.72265,31.93801],[74.72675,31.93939],[74.73124,31.93985],[74.73391,31.93961],[74.73522,31.93961],[74.73888,31.94455],[74.74325,31.94233],[74.74778,31.93834],[74.75359,31.94012],[74.75975,31.94317],[74.75975,31.94724],[74.75916,31.95081],[74.75995,31.95335],[74.76174,31.95386],[74.76412,31.95166],[74.76571,31.94911],[74.76909,31.94859],[74.77347,31.94774],[74.77695,31.94979],[74.77861,31.95124],[74.7792,31.95174],[74.77996,31.95222],[74.78259,31.95335],[74.79767,31.95695],[74.80233,31.95872],[74.80768,31.96082],[74.81543,31.96324],[74.81675,31.96212],[74.81701,31.95895],[74.82035,31.95686],[74.82076,31.95537],[74.82319,31.95656],[74.82444,31.95759],[74.82624,31.96359],[74.82917,31.97317],[74.83397,31.97791],[74.83399,31.97955],[74.83425,31.98581],[74.83186,31.99531],[74.8325,31.99891],[74.8332,31.99937],[74.83425,31.99937],[74.83463,32.00162],[74.83556,32.00229],[74.84194,32.00657],[74.85258,32.00839],[74.85835,32.00972],[74.85915,32.01017],[74.85993,32.01063],[74.86034,32.01221],[74.85967,32.01469],[74.8549,32.01879],[74.8544,32.01969],[74.85454,32.0217],[74.86656,32.02329],[74.86923,32.02461],[74.87069,32.02732],[74.87373,32.02801],[74.87481,32.02754],[74.87531,32.02732],[74.87583,32.02619],[74.87849,32.02506],[74.8793,32.02528],[74.88176,32.03254],[74.88194,32.03476],[74.88157,32.03589],[74.87904,32.03839],[74.87639,32.04471],[74.87625,32.04607],[74.87653,32.04653],[74.88301,32.04922],[74.88673,32.05193],[74.89363,32.05326],[74.91162,32.05075],[74.91235,32.05097],[74.91325,32.0512],[74.91402,32.05164],[74.91745,32.05843],[74.91853,32.05912],[74.91964,32.06168],[74.9212,32.06384],[74.92772,32.06624],[74.92861,32.06653],[74.94029,32.06694],[74.95351,32.0631],[74.96238,32.05828],[74.96571,32.05695],[74.97612,32.05389],[74.97857,32.05317],[74.9805,32.05218],[74.98104,32.04854],[74.98049,32.04818],[74.97839,32.04607],[74.97798,32.04518],[74.97812,32.04428],[74.98261,32.04315],[74.98473,32.04291],[74.98507,32.04332],[74.98659,32.04334],[74.98767,32.04311],[75.00026,32.0442],[75.00328,32.04443],[75.00436,32.04419],[75.00514,32.04396],[75.00672,32.04442],[75.0075,32.04395],[75.00751,32.0426],[75.0081,32.0422],[75.00937,32.03832],[75.01095,32.03742],[75.01247,32.03685],[75.01342,32.035],[75.0162,32.03792],[75.01713,32.0389],[75.01891,32.0419],[75.02169,32.04394],[75.02369,32.0454],[75.02447,32.04638],[75.03668,32.04998],[75.03853,32.0502],[75.03919,32.04845],[75.03959,32.04455],[75.04303,32.04339],[75.04435,32.04389],[75.0498,32.04904],[75.05126,32.04993],[75.05423,32.05098],[75.06184,32.0526],[75.06509,32.05567],[75.0723,32.06317],[75.07402,32.06159],[75.07617,32.06183],[75.07697,32.06137],[75.07805,32.06025],[75.08253,32.05888],[75.08334,32.05933],[75.08707,32.06049],[75.08892,32.06068],[75.0897,32.06137],[75.0919,32.06207],[75.09315,32.06247],[75.09367,32.06292],[75.10032,32.06377],[75.10072,32.06295],[75.10454,32.06082],[75.10664,32.06035],[75.10876,32.06172],[75.1093,32.06218],[75.10986,32.06737],[75.11197,32.07119],[75.11317,32.07208],[75.12257,32.0757],[75.12393,32.07684],[75.12501,32.07748],[75.12806,32.08204],[75.13082,32.08363],[75.1324,32.08386],[75.13456,32.08399],[75.13776,32.08285],[75.14438,32.08147],[75.14597,32.08215],[75.15284,32.08371],[75.15638,32.08406],[75.15896,32.08366],[75.16649,32.0812],[75.16728,32.07984],[75.16795,32.07956],[75.16875,32.07666],[75.16936,32.07621],[75.17161,32.07301],[75.17213,32.07277],[75.17291,32.06917],[75.17741,32.06846],[75.179,32.06865],[75.18127,32.07094],[75.18273,32.07206],[75.18621,32.07972],[75.1894,32.08197],[75.19552,32.08285],[75.19605,32.08264],[75.19818,32.08329],[75.19897,32.08373],[75.19974,32.08441],[75.20012,32.08783],[75.19981,32.09594],[75.20233,32.09999],[75.20381,32.10088],[75.20622,32.10133],[75.20779,32.10086],[75.20834,32.10132],[75.20787,32.11532],[75.20801,32.11599],[75.21001,32.11733],[75.2137,32.118],[75.21927,32.11665],[75.22005,32.11596],[75.22371,32.10373],[75.2245,32.10329],[75.22636,32.10259],[75.22855,32.10327],[75.22741,32.10192],[75.23105,32.10298],[75.2336,32.10162],[75.23466,32.09348],[75.23966,32.09094],[75.24726,32.09662],[75.24834,32.09888],[75.25013,32.09984],[75.25242,32.10121],[75.25366,32.1018],[75.25868,32.10247],[75.26139,32.10201],[75.26248,32.10268],[75.26548,32.1002],[75.26652,32.10759],[75.26794,32.10834],[75.27471,32.11428],[75.27652,32.11595],[75.27677,32.11636],[75.2829,32.11949],[75.28317,32.12381],[75.28426,32.12537],[75.28718,32.12786],[75.28747,32.13192],[75.28511,32.13372],[75.28431,32.13373],[75.28141,32.13598],[75.28143,32.13962],[75.28304,32.14278],[75.28525,32.14439],[75.2901,32.14884],[75.29106,32.14928],[75.29144,32.14997],[75.29451,32.15131],[75.30166,32.15216],[75.30247,32.15261],[75.30326,32.15327],[75.30562,32.16139],[75.30865,32.16797],[75.30974,32.16975],[75.31532,32.17422],[75.3185,32.17467],[75.31928,32.17444],[75.32063,32.1742],[75.32168,32.17465],[75.32225,32.17963],[75.32185,32.18098],[75.32132,32.18122],[75.32052,32.18325],[75.31995,32.19163],[75.31914,32.19229],[75.31715,32.19191],[75.31606,32.19162],[75.3137,32.19233],[75.31386,32.19593],[75.31598,32.19932],[75.31692,32.2],[75.32771,32.21411],[75.32917,32.21546],[75.32991,32.21623],[75.33127,32.21762],[75.33271,32.21867],[75.33819,32.21942],[75.34504,32.21927],[75.3484,32.21962],[75.35514,32.21809],[75.35832,32.21899],[75.35937,32.21876],[75.36123,32.21851],[75.36469,32.22006],[75.36763,32.22321],[75.37296,32.22635],[75.37431,32.2275],[75.37551,32.23222],[75.37632,32.23267],[75.37781,32.23424],[75.3782,32.23514],[75.37873,32.23874],[75.3786,32.23966],[75.37756,32.24033],[75.37678,32.2408],[75.37546,32.24463],[75.37441,32.24533],[75.37336,32.24625],[75.37204,32.24943],[75.37206,32.25234],[75.37372,32.2591],[75.37465,32.26002],[75.37824,32.26228],[75.38011,32.26293],[75.38107,32.26451],[75.38131,32.26551],[75.38212,32.26925],[75.37928,32.27231],[75.3762,32.27491],[75.3762,32.27538],[75.37145,32.27902],[75.36718,32.27859],[75.35762,32.27594],[75.35576,32.27617],[75.34913,32.278],[75.3521,32.2868],[75.35105,32.28772],[75.34206,32.29161],[75.33223,32.2937],[75.328,32.29597],[75.32737,32.29733],[75.32725,32.30013],[75.32804,32.30162],[75.33178,32.30477],[75.33457,32.31076],[75.33528,32.31157],[75.339,32.31467],[75.33941,32.3158],[75.34047,32.31804],[75.34142,32.31872],[75.34154,32.32007],[75.34117,32.32077],[75.33772,32.32326],[75.33746,32.32417],[75.33725,32.32478],[75.33629,32.32534],[75.33483,32.32645],[75.33384,32.32781],[75.33281,32.32816],[75.33963,32.34238],[75.33963,32.34238],[75.34053,32.34355],[75.34702,32.34539],[75.35924,32.34087],[75.36051,32.33981],[75.37443,32.33554],[75.38872,32.33114],[75.39377,32.32937],[75.40122,32.32823],[75.4127,32.32678],[75.43025,32.32474],[75.44635,32.32693],[75.44786,32.32712],[75.4639,32.33172],[75.46708,32.33216],[75.47165,32.33391],[75.48195,32.33922],[75.48758,32.34041],[75.48886,32.33956],[75.48886,32.33956],[75.48305,32.3179],[75.48305,32.3179],[75.4867,32.31498],[75.49522,32.31065],[75.50003,32.31058],[75.50551,32.31049],[75.50585,32.30917],[75.5064,32.30698],[75.5074,32.30306],[75.50526,32.28823],[75.50526,32.28822],[75.50995,32.27713],[75.51419,32.27554],[75.51647,32.27625],[75.51974,32.27973],[75.52085,32.28154],[75.53111,32.29819],[75.53965,32.34029],[75.54461,32.34913],[75.56058,32.36106],[75.57278,32.36717],[75.58248,32.37202],[75.60816,32.38186],[75.65252,32.38745],[75.66362,32.38885],[75.67832,32.39352],[75.70058,32.4006],[75.71387,32.40949],[75.7272,32.41811],[75.73105,32.42378],[75.73545,32.43027],[75.74086,32.43826],[75.74545,32.44501],[75.75109,32.45463],[75.75955,32.46906],[75.76087,32.47422],[75.76174,32.47631],[75.76876,32.47519],[75.78831,32.475],[75.79471,32.47493],[75.80599,32.47866],[75.82023,32.48691],[75.83161,32.49906],[75.8395,32.50749],[75.84096,32.50906],[75.84488,32.51982],[75.84652,32.52436],[75.85384,32.53747],[75.8726,32.55827],[75.88785,32.57514],[75.88864,32.57603],[75.89153,32.57069],[75.88636,32.55859],[75.87238,32.53751],[75.86736,32.52111],[75.86691,32.50766],[75.87121,32.49934],[75.88469,32.48841]]]}}]}