{"type":"FeatureCollection","features":[{"type":"Feature","properties":{"id":"telangana","name":"Telangana","type":"state"},"geometry":{"type":"Polygon","coordinates":[[[78.34088,19.88362],[78.35133,19.88184],[78.37042,19.88335],[78.37915,19.87973],[78.38885,19.8797],[78.38967,19.87437],[78.38888,19.86412],[78.39069,19.85621],[78.39064,19.85321],[78.39395,19.8467],[78.40238,19.83694],[78.41378,19.83043],[78.43345,19.8237],[78.44938,19.81984],[78.46948,19.81685],[78.48104,19.81701],[78.48916,19.80786],[78.49434,19.7992],[78.49881,19.79385],[78.50856,19.79313],[78.51452,19.80189],[78.51729,19.81498],[78.52413,19.82059],[78.53119,19.82235],[78.56289,19.81634],[78.57869,19.81454],[78.59,19.81245],[78.59678,19.81617],[78.60031,19.81811],[78.6087,19.81827],[78.6194,19.81405],[78.6244,19.80951],[78.6403,19.8046],[78.65344,19.8023],[78.69153,19.79083],[78.70109,19.79061],[78.70698,19.78649],[78.7144,19.77365],[78.72168,19.76776],[78.72994,19.76994],[78.73708,19.77381],[78.74358,19.78039],[78.74833,19.78062],[78.75751,19.77827],[78.7685,19.77662],[78.7785,19.78036],[78.79019,19.77976],[78.80227,19.76961],[78.80852,19.76113],[78.81296,19.75905],[78.8225,19.76147],[78.83065,19.76145],[78.84368,19.76316],[78.84972,19.7601],[78.85102,19.75945],[78.85898,19.73914],[78.86233,19.73246],[78.86282,19.72091],[78.86708,19.7071],[78.8689,19.69797],[78.86942,19.68792],[78.86864,19.68073],[78.86455,19.67016],[78.86423,19.65757],[78.88341,19.65808],[78.89646,19.65656],[78.90928,19.66586],[78.92141,19.66904],[78.94052,19.66351],[78.94913,19.66648],[78.95975,19.66476],[78.96723,19.66014],[78.97453,19.65062],[78.97358,19.64078],[78.97025,19.63097],[78.96844,19.61875],[78.97121,19.60596],[78.97693,19.59873],[78.98391,19.59191],[78.98612,19.58658],[78.98346,19.58144],[78.97458,19.57496],[78.97029,19.57179],[78.96004,19.56422],[78.95514,19.55898],[78.96014,19.55335],[78.97045,19.55186],[78.97914,19.55144],[78.98409,19.55247],[78.99198,19.55859],[78.99848,19.56359],[79.00121,19.56258],[79.00571,19.56093],[79.01785,19.54536],[79.02402,19.54157],[79.04451,19.54662],[79.05723,19.54691],[79.06583,19.54038],[79.06911,19.53292],[79.0796,19.53028],[79.1024,19.53218],[79.10864,19.52967],[79.10814,19.52109],[79.11054,19.51448],[79.11861,19.51154],[79.13227,19.50826],[79.1461,19.50291],[79.16284,19.48739],[79.17498,19.46965],[79.18369,19.46259],[79.19495,19.46062],[79.22466,19.46645],[79.22888,19.46974],[79.22663,19.47752],[79.21471,19.4867],[79.21278,19.49356],[79.214,19.50053],[79.22164,19.51246],[79.22936,19.51888],[79.23793,19.52261],[79.24258,19.52867],[79.2443,19.53463],[79.24529,19.5439],[79.2441,19.55277],[79.24571,19.56131],[79.25605,19.57949],[79.25462,19.58865],[79.24973,19.59511],[79.24363,19.6013],[79.24302,19.61123],[79.2498,19.61429],[79.26117,19.61297],[79.27383,19.60845],[79.29922,19.59855],[79.31084,19.592],[79.31564,19.58388],[79.32029,19.56742],[79.32753,19.57364],[79.33572,19.57558],[79.34694,19.57568],[79.37512,19.57318],[79.37729,19.56351],[79.38682,19.55784],[79.3951,19.55093],[79.40798,19.54186],[79.41976,19.53554],[79.42935,19.53491],[79.43645,19.53717],[79.44745,19.5356],[79.46439,19.52109],[79.47134,19.51116],[79.47666,19.49962],[79.48628,19.506],[79.49956,19.50739],[79.51968,19.52027],[79.52211,19.52455],[79.52223,19.53899],[79.52109,19.54292],[79.52125,19.54412],[79.5325,19.54823],[79.54128,19.55025],[79.54896,19.55071],[79.55104,19.5449],[79.5515,19.53621],[79.554,19.52831],[79.55881,19.52228],[79.57193,19.51317],[79.57978,19.50893],[79.58901,19.50535],[79.5977,19.50405],[79.60442,19.50608],[79.60722,19.51026],[79.6088,19.51683],[79.60931,19.52337],[79.61357,19.54173],[79.61727,19.55144],[79.62218,19.56088],[79.62776,19.56735],[79.6461,19.57726],[79.65901,19.57896],[79.67147,19.57945],[79.68443,19.57886],[79.69121,19.58146],[79.70213,19.58341],[79.71157,19.58354],[79.71938,19.58566],[79.73638,19.5989],[79.7468,19.60547],[79.76075,19.60467],[79.77279,19.60252],[79.78405,19.60006],[79.79195,19.59599],[79.79283,19.59205],[79.79983,19.58251],[79.81177,19.57921],[79.81766,19.5763],[79.82315,19.57148],[79.82611,19.56398],[79.82719,19.55485],[79.82973,19.54683],[79.8348,19.53954],[79.86284,19.51972],[79.87042,19.51622],[79.87684,19.5076],[79.88487,19.50336],[79.90891,19.49918],[79.91771,19.49505],[79.92448,19.48827],[79.93024,19.48033],[79.93958,19.47189],[79.94399,19.46974],[79.94691,19.4673],[79.95172,19.46163],[79.95292,19.45376],[79.95249,19.44362],[79.96599,19.42879],[79.97676,19.41238],[79.9798,19.40395],[79.97936,19.39453],[79.97752,19.38508],[79.97401,19.37755],[79.9733,19.36388],[79.97129,19.35368],[79.96392,19.33759],[79.96415,19.3275],[79.97042,19.30962],[79.96858,19.30058],[79.95573,19.29195],[79.95196,19.28723],[79.93869,19.26244],[79.92695,19.22957],[79.92612,19.2182],[79.9293,19.20661],[79.94207,19.1871],[79.94925,19.17915],[79.95004,19.17388],[79.94753,19.16768],[79.93295,19.16421],[79.92912,19.1604],[79.91278,19.14507],[79.87797,19.12597],[79.86989,19.1191],[79.86481,19.10739],[79.86684,19.09427],[79.86789,19.06331],[79.8638,19.04559],[79.86637,19.03803],[79.87783,19.03896],[79.88791,19.04481],[79.89768,19.04887],[79.90978,19.05142],[79.92295,19.05081],[79.93284,19.04596],[79.93993,19.03319],[79.94136,19.02521],[79.93966,18.99926],[79.93824,18.97839],[79.9391,18.97518],[79.94279,18.96126],[79.94786,18.94133],[79.94827,18.91948],[79.94706,18.90048],[79.9479,18.88116],[79.94594,18.86269],[79.94028,18.84885],[79.93245,18.84136],[79.92777,18.84002],[79.91103,18.83867],[79.90092,18.83464],[79.91605,18.81054],[79.92322,18.80121],[79.93896,18.78835],[79.94706,18.78571],[79.95715,18.78386],[79.98858,18.77827],[79.99997,18.77754],[80.01615,18.77262],[80.01941,18.77081],[80.02157,18.76419],[80.02361,18.76109],[80.02579,18.75509],[80.03674,18.7528],[80.03996,18.75056],[80.05348,18.72508],[80.06039,18.72198],[80.06904,18.72071],[80.07263,18.71747],[80.07505,18.71293],[80.08186,18.7068],[80.08606,18.70559],[80.08927,18.7067],[80.09161,18.7051],[80.09412,18.70183],[80.10775,18.68927],[80.11376,18.68185],[80.11801,18.68052],[80.12319,18.68019],[80.12562,18.68346],[80.1285,18.68555],[80.13808,18.68975],[80.14381,18.69115],[80.14948,18.69061],[80.15596,18.6976],[80.15944,18.69965],[80.16533,18.70031],[80.16923,18.6984],[80.17187,18.69468],[80.17465,18.68447],[80.17822,18.68175],[80.1829,18.68032],[80.19621,18.68002],[80.19822,18.6834],[80.19893,18.68806],[80.20137,18.69295],[80.20917,18.70186],[80.21515,18.70488],[80.22163,18.70555],[80.22729,18.70363],[80.23262,18.7006],[80.23727,18.70199],[80.24285,18.70487],[80.249,18.70468],[80.25396,18.70578],[80.26767,18.71856],[80.27485,18.72244],[80.27823,18.71798],[80.28522,18.71545],[80.29617,18.69954],[80.30367,18.6902],[80.3068,18.68379],[80.31518,18.65691],[80.32239,18.64097],[80.32672,18.62643],[80.33889,18.60137],[80.34411,18.5953],[80.34623,18.593],[80.34929,18.59123],[80.35597,18.59329],[80.36035,18.59575],[80.36339,18.59851],[80.36494,18.60314],[80.36718,18.60698],[80.36997,18.60854],[80.37439,18.60945],[80.37798,18.60787],[80.38903,18.59844],[80.39686,18.6041],[80.40073,18.6078],[80.40957,18.61202],[80.42348,18.61364],[80.42505,18.61558],[80.45771,18.63122],[80.47051,18.62759],[80.47526,18.6277],[80.47969,18.62859],[80.48758,18.63255],[80.491,18.63303],[80.49591,18.63165],[80.50567,18.62261],[80.51825,18.62064],[80.52139,18.61812],[80.52281,18.61229],[80.52556,18.60845],[80.52936,18.60577],[80.53612,18.59874],[80.53688,18.59485],[80.53958,18.59112],[80.54803,18.58802],[80.5654,18.57788],[80.56956,18.57469],[80.57557,18.5666],[80.58909,18.56262],[80.60321,18.55428],[80.60862,18.55025],[80.61169,18.54595],[80.61849,18.53879],[80.62152,18.53132],[80.629,18.52842],[80.63466,18.52347],[80.64036,18.52415],[80.64267,18.52063],[80.6441,18.51257],[80.6412,18.50849],[80.64228,18.50398],[80.64451,18.49931],[80.65597,18.48448],[80.6585,18.4777],[80.6701,18.47119],[80.67385,18.4681],[80.67756,18.46667],[80.68094,18.46379],[80.68189,18.4618],[80.68827,18.45904],[80.69023,18.45552],[80.69086,18.45014],[80.69969,18.44598],[80.70274,18.44631],[80.70666,18.44156],[80.70303,18.44012],[80.70041,18.43441],[80.69879,18.42493],[80.72084,18.41135],[80.72609,18.41543],[80.73028,18.41595],[80.73435,18.41463],[80.73659,18.40945],[80.73495,18.40564],[80.73182,18.40091],[80.72355,18.39295],[80.72408,18.38861],[80.72646,18.38492],[80.73057,18.38149],[80.73206,18.37768],[80.73089,18.37361],[80.73058,18.36703],[80.73423,18.35599],[80.74264,18.34446],[80.7508,18.32798],[80.75231,18.32269],[80.75315,18.31095],[80.7525,18.30803],[80.75922,18.30335],[80.76081,18.29716],[80.76495,18.29061],[80.76739,18.28849],[80.77114,18.28764],[80.77429,18.28416],[80.78133,18.2709],[80.78535,18.26572],[80.78956,18.26557],[80.79284,18.26409],[80.79606,18.26005],[80.79622,18.25579],[80.79521,18.25258],[80.79223,18.24929],[80.77733,18.24241],[80.76483,18.23551],[80.7412,18.22478],[80.7402,18.21147],[80.74048,18.20023],[80.74252,18.17779],[80.75304,18.17094],[80.77038,18.16911],[80.79491,18.17035],[80.80594,18.17247],[80.81885,18.18465],[80.81869,18.18943],[80.82591,18.19328],[80.82677,18.19818],[80.82573,18.21889],[80.82632,18.22514],[80.82516,18.23131],[80.82689,18.23707],[80.83218,18.23967],[80.83757,18.24022],[80.84221,18.23939],[80.84761,18.23416],[80.8671,18.23215],[80.86976,18.22784],[80.87551,18.21346],[80.87528,18.20939],[80.87365,18.2072],[80.86931,18.20491],[80.86453,18.20464],[80.85717,18.20642],[80.85621,18.20385],[80.85695,18.19939],[80.86026,18.18971],[80.86066,18.18473],[80.85971,18.17461],[80.86384,18.15797],[80.86332,18.15308],[80.86382,18.14924],[80.86645,18.14544],[80.86966,18.1428],[80.87008,18.13901],[80.88918,18.1389],[80.90102,18.14083],[80.90882,18.14106],[80.92009,18.1449],[80.94008,18.1558],[80.94392,18.15894],[80.94481,18.1612],[80.95231,18.16349],[80.95795,18.17062],[80.96228,18.17338],[80.97365,18.17477],[80.98179,18.17457],[80.9818,18.17367],[80.98195,18.16474],[80.9829,18.15838],[80.98073,18.15002],[80.97567,18.14446],[80.95746,18.12966],[80.95566,18.12333],[80.95793,18.1102],[80.95797,18.10484],[80.9565,18.0978],[80.95412,18.09078],[80.95211,18.08757],[80.96059,18.07845],[80.97168,18.05641],[80.97415,18.05012],[80.97046,18.03819],[80.97083,18.03784],[80.97207,18.03112],[80.97437,18.0253],[80.97664,18.0185],[80.97812,18.00979],[80.97973,18.00411],[80.98085,17.99993],[80.98205,17.98359],[80.9863,17.95647],[80.98806,17.95258],[80.98883,17.94672],[80.99156,17.94182],[80.99291,17.9298],[81.00024,17.92628],[81.00263,17.92116],[81.01018,17.87176],[81.01267,17.84544],[81.02093,17.82381],[81.04083,17.79695],[81.04604,17.79347],[81.05363,17.79123],[81.06437,17.79009],[81.07422,17.79151],[81.08201,17.79358],[81.08797,17.80224],[81.09548,17.81061],[81.09749,17.81812],[81.1061,17.82436],[81.11742,17.83039],[81.12966,17.8356],[81.16796,17.85992],[81.1848,17.85644],[81.1922,17.85659],[81.20038,17.85444],[81.22192,17.84044],[81.2288,17.83676],[81.23636,17.83373],[81.26252,17.81962],[81.27185,17.81798],[81.30661,17.8174],[81.32356,17.81992],[81.33448,17.82001],[81.34387,17.81886],[81.35303,17.81921],[81.36601,17.81808],[81.37613,17.81576],[81.38295,17.813],[81.39265,17.81118],[81.39351,17.81429],[81.40284,17.81582],[81.4113,17.81304],[81.41779,17.81257],[81.42299,17.81784],[81.42288,17.82415],[81.42795,17.82831],[81.43446,17.82901],[81.44241,17.8235],[81.44611,17.82304],[81.46799,17.83247],[81.47539,17.8327],[81.47865,17.83096],[81.48127,17.82569],[81.48314,17.81782],[81.48727,17.81254],[81.48974,17.81068],[81.49441,17.81045],[81.50489,17.81433],[81.51988,17.81443],[81.5343,17.81876],[81.56251,17.82428],[81.57317,17.8336],[81.57732,17.83579],[81.58344,17.83527],[81.60253,17.82708],[81.60832,17.82342],[81.61973,17.82335],[81.62429,17.83],[81.63257,17.83242],[81.64004,17.83843],[81.64514,17.84427],[81.65136,17.84728],[81.65472,17.85485],[81.65458,17.86424],[81.65763,17.87043],[81.66127,17.87615],[81.66551,17.88077],[81.67162,17.88487],[81.67662,17.88637],[81.68632,17.88555],[81.6918,17.88745],[81.69685,17.89277],[81.70646,17.88354],[81.70785,17.87775],[81.71175,17.86917],[81.7349,17.88214],[81.76686,17.90141],[81.77199,17.89347],[81.77744,17.8868],[81.79004,17.87884],[81.79614,17.87067],[81.80137,17.8607],[81.80301,17.85235],[81.79646,17.84744],[81.79097,17.84015],[81.77256,17.83811],[81.76156,17.8265],[81.74752,17.82977],[81.73821,17.82747],[81.73204,17.82337],[81.71814,17.81327],[81.71262,17.80772],[81.70687,17.79267],[81.70003,17.78389],[81.69343,17.77875],[81.68332,17.77529],[81.66164,17.77377],[81.65054,17.77378],[81.6317,17.77091],[81.62722,17.76669],[81.62146,17.75506],[81.61785,17.75177],[81.59059,17.73878],[81.58527,17.73421],[81.58161,17.7268],[81.58063,17.71997],[81.57974,17.71106],[81.57984,17.69606],[81.57687,17.69103],[81.56886,17.68484],[81.56233,17.6746],[81.55477,17.65892],[81.55301,17.65354],[81.54286,17.63867],[81.52765,17.62704],[81.52059,17.61813],[81.51798,17.61182],[81.51799,17.60661],[81.51662,17.6036],[81.51166,17.59816],[81.52141,17.59127],[81.52965,17.58408],[81.53264,17.58096],[81.53248,17.57806],[81.52904,17.57297],[81.52249,17.56562],[81.51786,17.55769],[81.51019,17.54774],[81.50823,17.53993],[81.5068,17.5185],[81.50829,17.50999],[81.50697,17.49847],[81.50242,17.48551],[81.50255,17.47451],[81.50467,17.4689],[81.50418,17.46235],[81.50225,17.45737],[81.49083,17.44076],[81.48108,17.42809],[81.4661,17.41398],[81.46041,17.40691],[81.45495,17.39928],[81.45037,17.3903],[81.44251,17.38353],[81.42898,17.38076],[81.42717,17.37497],[81.42452,17.37023],[81.41532,17.37],[81.39408,17.36369],[81.38066,17.36572],[81.37282,17.36879],[81.35868,17.377],[81.35214,17.38418],[81.35175,17.39386],[81.34616,17.39843],[81.33916,17.40051],[81.33352,17.39906],[81.33128,17.39755],[81.32045,17.3832],[81.31044,17.36816],[81.30765,17.36058],[81.29802,17.34601],[81.29063,17.33822],[81.27602,17.32846],[81.27108,17.33039],[81.26636,17.3311],[81.24312,17.33122],[81.22756,17.33012],[81.19911,17.3357],[81.19035,17.33055],[81.18702,17.32285],[81.18078,17.3138],[81.17944,17.30482],[81.17998,17.27508],[81.18349,17.2688],[81.18944,17.26306],[81.17688,17.25078],[81.17166,17.24105],[81.15441,17.2401],[81.12703,17.23301],[81.09334,17.22203],[81.07105,17.21247],[81.06268,17.21849],[81.05538,17.22215],[81.05271,17.21288],[81.04879,17.20829],[81.04368,17.2056],[81.04031,17.2007],[81.03501,17.19502],[81.01424,17.19278],[81.00655,17.19033],[81.0001,17.18801],[80.99398,17.1877],[80.97514,17.1928],[80.96481,17.19645],[80.95654,17.20155],[80.94784,17.20857],[80.93944,17.2132],[80.92942,17.21398],[80.92262,17.2134],[80.91412,17.20942],[80.91641,17.20102],[80.91578,17.19202],[80.91726,17.18623],[80.92183,17.18198],[80.92367,17.17805],[80.9228,17.169],[80.921,17.16174],[80.92213,17.1542],[80.91819,17.1507],[80.91279,17.1494],[80.90496,17.14902],[80.89766,17.14928],[80.88556,17.15339],[80.8791,17.1545],[80.87561,17.13284],[80.87228,17.12623],[80.86386,17.11964],[80.87304,17.10409],[80.87124,17.09392],[80.8714,17.08983],[80.86531,17.07683],[80.86772,17.0592],[80.86378,17.0524],[80.85941,17.04851],[80.85374,17.04119],[80.84136,17.03406],[80.83816,17.04068],[80.83209,17.04609],[80.81206,17.05082],[80.80167,17.0513],[80.79413,17.05586],[80.78902,17.05703],[80.77492,17.0585],[80.75539,17.06308],[80.7345,17.07273],[80.72137,17.07355],[80.70392,17.07641],[80.69274,17.07678],[80.69014,17.07235],[80.68439,17.06932],[80.67649,17.06796],[80.66933,17.06475],[80.65792,17.06259],[80.64832,17.06312],[80.64265,17.06687],[80.64645,17.07358],[80.64648,17.07991],[80.65309,17.08507],[80.66411,17.09194],[80.66537,17.09573],[80.65495,17.10242],[80.6451,17.10491],[80.6339,17.10963],[80.63842,17.1179],[80.63257,17.11975],[80.62521,17.12355],[80.62156,17.12448],[80.61251,17.12334],[80.60374,17.12738],[80.58886,17.13872],[80.5821,17.14304],[80.56878,17.14576],[80.55766,17.13135],[80.55026,17.12814],[80.544,17.12751],[80.53778,17.12137],[80.52801,17.11586],[80.52031,17.11392],[80.50469,17.11555],[80.50514,17.10899],[80.50099,17.10014],[80.49731,17.09504],[80.49538,17.09061],[80.49322,17.07533],[80.49327,17.06407],[80.49081,17.05804],[80.48368,17.05058],[80.48036,17.04587],[80.47284,17.04495],[80.46148,17.04478],[80.45485,17.02479],[80.44125,17.02952],[80.42911,17.03258],[80.42636,17.03631],[80.42286,17.04947],[80.40942,17.06182],[80.40743,17.0674],[80.4083,17.07286],[80.40588,17.08148],[80.40361,17.08515],[80.40172,17.08539],[80.39863,17.08378],[80.38758,17.07373],[80.38268,17.07068],[80.37551,17.06414],[80.37627,17.06029],[80.38015,17.05512],[80.38692,17.04176],[80.38578,17.03551],[80.38644,17.03099],[80.39232,17.02743],[80.39727,17.02175],[80.39647,17.015],[80.39507,17.01064],[80.39053,17.00774],[80.37976,17.00353],[80.37978,17.00084],[80.38019,16.99483],[80.3783,16.99066],[80.36964,16.98217],[80.36683,16.97835],[80.369,16.97822],[80.38942,16.97028],[80.40625,16.96481],[80.42098,16.96201],[80.45121,16.95283],[80.46177,16.94625],[80.47193,16.93816],[80.47857,16.93448],[80.48559,16.92916],[80.49655,16.92545],[80.49431,16.93504],[80.49566,16.94484],[80.5,16.95615],[80.5185,16.95044],[80.52943,16.94443],[80.54048,16.95819],[80.57827,16.93502],[80.59296,16.93467],[80.59795,16.92485],[80.59911,16.91982],[80.59817,16.91532],[80.5947,16.91252],[80.59092,16.91129],[80.59005,16.90498],[80.59218,16.89883],[80.5946,16.89538],[80.59559,16.88219],[80.58533,16.88133],[80.57378,16.87727],[80.57368,16.85817],[80.57285,16.85084],[80.57128,16.8446],[80.56345,16.83308],[80.56488,16.82671],[80.57012,16.82544],[80.57588,16.82543],[80.58066,16.82044],[80.59475,16.81504],[80.60256,16.80632],[80.6067,16.80045],[80.61303,16.7962],[80.60645,16.79352],[80.57824,16.77916],[80.57172,16.77124],[80.55542,16.77604],[80.53896,16.77841],[80.52697,16.77711],[80.51987,16.77826],[80.4984,16.78414],[80.4935,16.78957],[80.48788,16.7932],[80.47987,16.79655],[80.46522,16.79823],[80.46388,16.81464],[80.46139,16.82344],[80.45355,16.82751],[80.44061,16.83195],[80.44088,16.83527],[80.43161,16.83739],[80.43016,16.84518],[80.42741,16.85037],[80.40843,16.85775],[80.40891,16.84507],[80.40788,16.83961],[80.40296,16.8332],[80.38814,16.82756],[80.38658,16.82052],[80.38461,16.81867],[80.38167,16.81913],[80.37582,16.83475],[80.37342,16.84687],[80.36989,16.85832],[80.36733,16.86283],[80.3596,16.86122],[80.34361,16.86363],[80.34596,16.87495],[80.33596,16.87886],[80.32786,16.87877],[80.32708,16.88526],[80.32461,16.8918],[80.32475,16.90245],[80.32188,16.91975],[80.32398,16.92014],[80.31643,16.93154],[80.31251,16.94716],[80.30992,16.96352],[80.2975,16.9844],[80.28468,17.00079],[80.27065,17.01812],[80.25873,17.01486],[80.24959,17.01029],[80.24419,17.0098],[80.24069,17.01238],[80.22625,17.02704],[80.22164,17.02658],[80.20967,17.02054],[80.20395,17.02542],[80.20451,17.03305],[80.20264,17.04984],[80.19048,17.05224],[80.1789,17.03772],[80.17555,17.03095],[80.15747,17.01537],[80.15083,17.00881],[80.14895,17.00062],[80.14224,16.9927],[80.13527,16.99266],[80.1285,16.99413],[80.12303,16.99318],[80.12114,16.98964],[80.11413,16.98862],[80.10781,16.99009],[80.09601,16.9947],[80.09228,16.98496],[80.09259,16.97049],[80.05417,16.97254],[80.04537,16.94374],[80.03681,16.93469],[80.0269,16.92609],[80.01786,16.91454],[80.01108,16.89877],[80.00337,16.88462],[80.00002,16.87058],[80.00247,16.86952],[80.02222,16.86033],[80.0415,16.85986],[80.04275,16.85519],[80.04279,16.84656],[80.04509,16.83985],[80.05026,16.83353],[80.07813,16.82115],[80.0734,16.81006],[80.06613,16.78946],[80.06007,16.77888],[80.0564,16.75279],[80.05185,16.74734],[80.04125,16.7394],[80.03181,16.72612],[80.02517,16.71947],[80.01088,16.71058],[80.00216,16.70208],[80.00001,16.70018],[79.98152,16.66718],[79.96665,16.64971],[79.95106,16.64029],[79.93213,16.63837],[79.92228,16.64075],[79.91053,16.64543],[79.89934,16.65711],[79.88905,16.68365],[79.88167,16.69615],[79.87019,16.70563],[79.85289,16.70385],[79.83424,16.69884],[79.81856,16.69783],[79.79161,16.73209],[79.78312,16.73674],[79.77131,16.73434],[79.75869,16.72732],[79.742,16.70523],[79.73093,16.69981],[79.69119,16.69752],[79.67679,16.69113],[79.66364,16.68122],[79.65618,16.66914],[79.6414,16.66799],[79.62492,16.67172],[79.60799,16.67032],[79.59367,16.6584],[79.58208,16.65064],[79.57167,16.64511],[79.56203,16.64162],[79.54474,16.63857],[79.52011,16.64062],[79.50516,16.63746],[79.47804,16.62567],[79.45853,16.61606],[79.45109,16.60063],[79.44244,16.59258],[79.43452,16.58943],[79.41063,16.58732],[79.35336,16.58636],[79.34114,16.58529],[79.32757,16.58263],[79.30289,16.57408],[79.29014,16.57216],[79.27384,16.56817],[79.26851,16.55313],[79.23817,16.52599],[79.233,16.51494],[79.23186,16.49889],[79.23866,16.48844],[79.2429,16.47748],[79.24399,16.46536],[79.23414,16.45935],[79.22685,16.44499],[79.22283,16.42261],[79.22041,16.40065],[79.22114,16.38131],[79.21931,16.36975],[79.23113,16.35733],[79.23574,16.34381],[79.23776,16.30729],[79.23303,16.25721],[79.22667,16.24678],[79.21548,16.23781],[79.19996,16.22984],[79.18453,16.22424],[79.17065,16.22733],[79.15907,16.23168],[79.15036,16.23631],[79.14103,16.24339],[79.13085,16.2449],[79.07636,16.24504],[79.06181,16.24944],[79.05025,16.2518],[79.03863,16.25258],[79.02782,16.25109],[79.01784,16.24726],[79.00008,16.2351],[78.98569,16.22985],[78.96662,16.22398],[78.94868,16.21655],[78.93307,16.20907],[78.91563,16.19776],[78.91301,16.18861],[78.91317,16.17168],[78.92848,16.1405],[78.9295,16.12872],[78.92491,16.12037],[78.92098,16.11569],[78.91811,16.11208],[78.90881,16.10448],[78.89668,16.1054],[78.88025,16.11696],[78.87696,16.1284],[78.87557,16.142],[78.87385,16.15059],[78.87046,16.1598],[78.86394,16.16529],[78.85376,16.16621],[78.84532,16.1634],[78.83959,16.15843],[78.83798,16.14882],[78.83876,16.13967],[78.84145,16.12686],[78.84562,16.11759],[78.84781,16.10958],[78.84691,16.101],[78.84405,16.09415],[78.8291,16.06898],[78.82131,16.05897],[78.81552,16.05297],[78.79754,16.03947],[78.78255,16.03037],[78.7614,16.02774],[78.74642,16.02785],[78.73338,16.02973],[78.72105,16.03332],[78.6939,16.04698],[78.68229,16.0556],[78.67564,16.06234],[78.665,16.07795],[78.65392,16.0892],[78.64368,16.09789],[78.62416,16.1053],[78.61062,16.10282],[78.59969,16.09361],[78.58353,16.07672],[78.5742,16.06824],[78.56621,16.06274],[78.55396,16.06255],[78.53988,16.06864],[78.52784,16.07137],[78.50255,16.07933],[78.45788,16.0872],[78.42776,16.08896],[78.41243,16.08704],[78.39098,16.0779],[78.37675,16.06591],[78.3598,16.06056],[78.34709,16.0588],[78.3378,16.05312],[78.33022,16.04326],[78.32287,16.03518],[78.29879,16.03449],[78.28763,16.03806],[78.27471,16.0407],[78.2632,16.03723],[78.25791,16.03162],[78.26524,16.01105],[78.26632,16.00072],[78.25953,15.98445],[78.25767,15.97686],[78.25494,15.97432],[78.25394,15.96608],[78.2506,15.95299],[78.24946,15.9431],[78.24455,15.93511],[78.23445,15.92952],[78.21194,15.92308],[78.20319,15.91825],[78.18652,15.90645],[78.1857,15.90096],[78.188,15.89368],[78.18561,15.88581],[78.18035,15.87856],[78.17718,15.87247],[78.17519,15.85922],[78.17119,15.85504],[78.15743,15.85507],[78.15489,15.85599],[78.14439,15.85624],[78.13227,15.85493],[78.13335,15.84093],[78.12624,15.83628],[78.11601,15.83318],[78.10756,15.8339],[78.06998,15.85047],[78.06476,15.8563],[78.05512,15.87659],[78.04694,15.87803],[78.04604,15.90389],[78.04248,15.90786],[78.03497,15.90845],[78.03043,15.90435],[78.02313,15.90091],[78.0209,15.89457],[78.01278,15.87774],[78.00804,15.86501],[77.99977,15.86675],[77.97896,15.87983],[77.96915,15.8816],[77.95004,15.88058],[77.93428,15.88216],[77.91348,15.89049],[77.89355,15.90148],[77.88224,15.90154],[77.87277,15.89793],[77.86149,15.8813],[77.85593,15.87935],[77.84556,15.87946],[77.83964,15.88101],[77.8311,15.87929],[77.82348,15.87498],[77.81496,15.87252],[77.80489,15.87079],[77.79547,15.87205],[77.78456,15.87473],[77.77584,15.87869],[77.76565,15.88219],[77.75522,15.88126],[77.74437,15.88388],[77.73749,15.88755],[77.73038,15.89012],[77.72161,15.89189],[77.71279,15.88941],[77.70492,15.88574],[77.69795,15.88062],[77.68895,15.87918],[77.6643,15.88177],[77.65357,15.88416],[77.64491,15.88834],[77.63732,15.89699],[77.63099,15.90429],[77.62406,15.90891],[77.61907,15.91297],[77.6116,15.91685],[77.6039,15.91385],[77.5936,15.9121],[77.58524,15.9153],[77.57675,15.9174],[77.55389,15.91871],[77.53676,15.92113],[77.51441,15.92584],[77.51953,15.94839],[77.52084,15.96239],[77.51982,15.96807],[77.51394,15.97235],[77.51042,15.97757],[77.5104,15.98365],[77.51329,16.00071],[77.51498,16.00711],[77.50656,16.01039],[77.50514,16.01619],[77.50343,16.01872],[77.50367,16.02199],[77.4969,16.03038],[77.49554,16.03544],[77.50049,16.0525],[77.4993,16.05456],[77.50103,16.05956],[77.50435,16.05904],[77.50775,16.07799],[77.49779,16.08437],[77.49767,16.08851],[77.50267,16.10195],[77.50826,16.10625],[77.5142,16.10826],[77.50749,16.11418],[77.5002,16.11935],[77.49497,16.12085],[77.49141,16.12045],[77.49331,16.13113],[77.4928,16.15204],[77.4915,16.15772],[77.4883,16.16318],[77.49306,16.18328],[77.49961,16.19172],[77.49961,16.19994],[77.49838,16.21074],[77.49998,16.21757],[77.50701,16.22027],[77.51348,16.21952],[77.51586,16.22176],[77.51545,16.22791],[77.5069,16.22935],[77.49827,16.22757],[77.4934,16.22889],[77.49354,16.24635],[77.49217,16.25433],[77.5036,16.26237],[77.50484,16.26519],[77.50587,16.27231],[77.51776,16.27524],[77.524,16.27541],[77.52912,16.27431],[77.53053,16.27156],[77.5385,16.26718],[77.54447,16.28717],[77.54792,16.29159],[77.55423,16.29521],[77.56976,16.30227],[77.57404,16.29933],[77.57914,16.29352],[77.5855,16.29065],[77.59513,16.29144],[77.5971,16.29471],[77.59318,16.30023],[77.59581,16.30919],[77.59565,16.31654],[77.59144,16.325],[77.58918,16.33258],[77.5964,16.34205],[77.59122,16.34246],[77.57659,16.34046],[77.55924,16.34604],[77.55418,16.34915],[77.54901,16.35421],[77.5398,16.35738],[77.53326,16.36278],[77.52346,16.3745],[77.51471,16.37456],[77.49902,16.38014],[77.48587,16.3821],[77.46576,16.37975],[77.45339,16.3801],[77.4425,16.37872],[77.43958,16.37694],[77.43215,16.36936],[77.42655,16.36712],[77.41608,16.36694],[77.40543,16.37028],[77.3924,16.37602],[77.37742,16.38411],[77.35672,16.38077],[77.34708,16.38387],[77.33684,16.39243],[77.31103,16.3981],[77.29859,16.40366],[77.28865,16.40704],[77.28217,16.41473],[77.27871,16.42175],[77.27317,16.42708],[77.2683,16.43402],[77.2621,16.45126],[77.25632,16.45723],[77.23899,16.47197],[77.24268,16.4768],[77.24833,16.47612],[77.25536,16.47182],[77.28929,16.47547],[77.29595,16.4776],[77.29976,16.4853],[77.30083,16.48984],[77.30059,16.49541],[77.31309,16.4933],[77.31762,16.49151],[77.32845,16.48492],[77.33399,16.48469],[77.34773,16.48608],[77.34768,16.48889],[77.35197,16.48953],[77.35572,16.48734],[77.36227,16.48718],[77.37042,16.48815],[77.37131,16.49097],[77.37143,16.4978],[77.37322,16.50614],[77.37703,16.51004],[77.38322,16.51475],[77.38531,16.51556],[77.39287,16.51614],[77.39769,16.5189],[77.40478,16.51999],[77.4162,16.51787],[77.41955,16.52189],[77.41985,16.54803],[77.40574,16.55078],[77.40461,16.55423],[77.40122,16.55688],[77.40069,16.55952],[77.39895,16.56222],[77.39675,16.56342],[77.39444,16.56372],[77.39556,16.56916],[77.4017,16.56733],[77.40629,16.57026],[77.42147,16.56791],[77.42516,16.56917],[77.44095,16.58521],[77.44751,16.58607],[77.46067,16.58503],[77.46466,16.5875],[77.46847,16.58825],[77.46848,16.59123],[77.46562,16.59468],[77.46306,16.59606],[77.46461,16.59957],[77.46849,16.59916],[77.46896,16.60146],[77.4679,16.60882],[77.45813,16.61141],[77.45807,16.61778],[77.4598,16.62399],[77.46558,16.62875],[77.46673,16.63318],[77.47013,16.6399],[77.47561,16.64748],[77.47365,16.65087],[77.46566,16.65277],[77.45899,16.64881],[77.45273,16.64277],[77.44826,16.63973],[77.44254,16.64014],[77.43711,16.64157],[77.4404,16.64645],[77.43664,16.64698],[77.43444,16.64864],[77.43224,16.65398],[77.42533,16.65588],[77.42098,16.65863],[77.42069,16.66668],[77.44131,16.67047],[77.45061,16.67806],[77.46592,16.67627],[77.46926,16.68219],[77.47172,16.70069],[77.47167,16.70626],[77.47298,16.71259],[77.47102,16.7158],[77.46523,16.71702],[77.46047,16.71454],[77.4526,16.71742],[77.44956,16.71764],[77.44151,16.71138],[77.43739,16.71294],[77.43412,16.71552],[77.42953,16.71557],[77.42751,16.71834],[77.42822,16.72161],[77.43084,16.72218],[77.43162,16.72494],[77.43043,16.72655],[77.42978,16.73086],[77.43192,16.73328],[77.43538,16.74023],[77.43944,16.75333],[77.44131,16.76689],[77.43935,16.78137],[77.44161,16.78695],[77.44865,16.78378],[77.47149,16.78039],[77.47531,16.78292],[77.47579,16.78895],[77.47591,16.80005],[77.4699,16.80458],[77.46686,16.80826],[77.46352,16.82148],[77.46072,16.82746],[77.4645,16.8478],[77.46439,16.8582],[77.46166,16.88292],[77.45652,16.88511],[77.45629,16.88521],[77.4583,16.88975],[77.45986,16.90826],[77.45796,16.90986],[77.45742,16.91262],[77.46416,16.91653],[77.46942,16.91768],[77.4718,16.92072],[77.47192,16.92778],[77.46865,16.92848],[77.46757,16.93262],[77.47002,16.93813],[77.46835,16.94336],[77.4687,16.94992],[77.4681,16.95623],[77.47322,16.95739],[77.47779,16.96301],[77.48324,16.97158],[77.48403,16.9787],[77.4824,16.99376],[77.48603,17.0007],[77.48727,17.00219],[77.49763,17.00935],[77.50347,17.01084],[77.50226,17.0187],[77.49607,17.02514],[77.49727,17.03646],[77.4959,17.0423],[77.49079,17.04812],[77.48706,17.05687],[77.48205,17.06441],[77.47941,17.07329],[77.48183,17.07567],[77.4809,17.07962],[77.47239,17.08449],[77.4678,17.09008],[77.46423,17.09619],[77.46656,17.10741],[77.45627,17.11093],[77.4523,17.11481],[77.44248,17.11787],[77.43762,17.11445],[77.42734,17.11734],[77.41558,17.12378],[77.4075,17.12646],[77.40265,17.13515],[77.38004,17.14108],[77.3791,17.15187],[77.37054,17.15449],[77.36364,17.16476],[77.36856,17.16809],[77.36719,17.17261],[77.37202,17.17961],[77.37118,17.18632],[77.3744,17.19319],[77.3804,17.19612],[77.3854,17.19685],[77.3952,17.19551],[77.39716,17.21006],[77.40252,17.21189],[77.40273,17.21465],[77.39688,17.21459],[77.38826,17.21606],[77.38496,17.21942],[77.38402,17.22286],[77.38769,17.2264],[77.39594,17.23165],[77.39954,17.23593],[77.40253,17.23498],[77.40917,17.2405],[77.41867,17.23301],[77.42151,17.23591],[77.42375,17.24471],[77.42422,17.25242],[77.42633,17.25634],[77.44112,17.26447],[77.44625,17.27169],[77.45347,17.27297],[77.45831,17.27899],[77.45659,17.28971],[77.45078,17.2919],[77.43777,17.29132],[77.44151,17.29974],[77.44419,17.30086],[77.45175,17.31649],[77.45341,17.31795],[77.45515,17.33025],[77.45628,17.33096],[77.45887,17.34092],[77.46012,17.34799],[77.45674,17.35181],[77.4535,17.35305],[77.45362,17.36603],[77.45534,17.37346],[77.48314,17.37261],[77.47915,17.37114],[77.4762,17.36618],[77.47828,17.36218],[77.48643,17.35748],[77.49622,17.35854],[77.50299,17.35711],[77.51364,17.36232],[77.52473,17.36511],[77.53193,17.37517],[77.53409,17.38093],[77.53049,17.38188],[77.52522,17.38936],[77.53749,17.40188],[77.53942,17.40712],[77.53749,17.40911],[77.53061,17.409],[77.51454,17.41552],[77.51399,17.43022],[77.52724,17.43965],[77.53736,17.44392],[77.55278,17.43791],[77.56174,17.43828],[77.57655,17.43254],[77.57594,17.44155],[77.57717,17.45719],[77.59445,17.45113],[77.59993,17.44572],[77.60853,17.44614],[77.61468,17.44727],[77.61551,17.45595],[77.61416,17.46767],[77.61501,17.47296],[77.61971,17.47443],[77.63066,17.47423],[77.63812,17.47527],[77.64455,17.47905],[77.64671,17.48648],[77.64834,17.49793],[77.65207,17.50238],[77.65689,17.50627],[77.65309,17.49458],[77.65222,17.48423],[77.66906,17.47937],[77.68822,17.47595],[77.68889,17.48831],[77.69117,17.49465],[77.6922,17.50161],[77.68982,17.50871],[77.68744,17.50708],[77.68622,17.50972],[77.68313,17.50815],[77.67023,17.51298],[77.66535,17.51783],[77.66075,17.52435],[77.65399,17.52406],[77.64941,17.52178],[77.63724,17.52605],[77.62528,17.52521],[77.62062,17.5323],[77.61198,17.534],[77.60727,17.53362],[77.60324,17.53692],[77.5957,17.53559],[77.59641,17.55197],[77.59581,17.55795],[77.59378,17.56563],[77.58936,17.5649],[77.58934,17.56122],[77.56473,17.55637],[77.56001,17.555],[77.55668,17.55284],[77.55226,17.5523],[77.54779,17.55742],[77.54052,17.57414],[77.53591,17.57588],[77.53124,17.57602],[77.51768,17.56004],[77.51345,17.55196],[77.50538,17.54368],[77.50058,17.54616],[77.49929,17.54931],[77.49939,17.55281],[77.49373,17.56902],[77.47777,17.56785],[77.47577,17.57185],[77.47279,17.57091],[77.46884,17.57737],[77.46487,17.57974],[77.44353,17.58414],[77.44567,17.59847],[77.44409,17.60673],[77.4449,17.60927],[77.45011,17.60989],[77.44941,17.61493],[77.45242,17.62542],[77.45683,17.63339],[77.45442,17.63498],[77.45111,17.64971],[77.44859,17.65101],[77.44922,17.66004],[77.45267,17.66869],[77.45457,17.68341],[77.45498,17.69029],[77.45392,17.69384],[77.4582,17.69664],[77.46145,17.7015],[77.47517,17.70656],[77.47777,17.70394],[77.48231,17.70559],[77.48473,17.7094],[77.48811,17.70621],[77.49299,17.70936],[77.49539,17.71542],[77.49793,17.7186],[77.50914,17.71709],[77.51316,17.72253],[77.52629,17.7266],[77.53129,17.72969],[77.53772,17.72779],[77.54311,17.72801],[77.54788,17.73598],[77.55566,17.73697],[77.55841,17.74372],[77.56584,17.7497],[77.56976,17.76668],[77.55822,17.76382],[77.54071,17.77298],[77.53821,17.77721],[77.53131,17.77917],[77.52673,17.78212],[77.513,17.78257],[77.50812,17.78506],[77.51066,17.79542],[77.51453,17.8039],[77.52172,17.81017],[77.52977,17.81415],[77.52969,17.82926],[77.54743,17.82873],[77.54853,17.81948],[77.55349,17.82051],[77.55805,17.83296],[77.56294,17.8411],[77.56723,17.84446],[77.5659,17.85158],[77.56979,17.85201],[77.57119,17.86858],[77.57652,17.87524],[77.58151,17.87366],[77.58506,17.87818],[77.59657,17.87223],[77.60052,17.8729],[77.60159,17.87952],[77.59629,17.88195],[77.58898,17.89493],[77.58683,17.90078],[77.58895,17.91063],[77.60361,17.90608],[77.60827,17.90791],[77.62044,17.9053],[77.62278,17.91591],[77.62251,17.92423],[77.62337,17.93247],[77.62062,17.94049],[77.62384,17.94684],[77.62811,17.94608],[77.63271,17.95089],[77.63283,17.95622],[77.62757,17.96012],[77.63357,17.96533],[77.63567,17.95591],[77.63947,17.95291],[77.64448,17.95203],[77.64786,17.94878],[77.65131,17.95558],[77.6467,17.95968],[77.64814,17.96507],[77.65594,17.96669],[77.65728,17.97174],[77.65129,17.97282],[77.64749,17.97581],[77.65277,17.98077],[77.65366,17.98822],[77.65161,17.98967],[77.65003,17.99555],[77.64615,17.99824],[77.64207,17.99887],[77.63656,17.99747],[77.63263,17.99485],[77.62527,18.00066],[77.62772,18.00347],[77.6261,18.00697],[77.61965,18.00838],[77.61384,18.01277],[77.61044,18.02028],[77.60324,18.018],[77.59599,18.01244],[77.59099,18.01559],[77.58869,18.02703],[77.57818,18.03294],[77.56147,18.03739],[77.55675,18.03685],[77.5557,18.04911],[77.55169,18.05015],[77.54937,18.05592],[77.55106,18.06578],[77.56034,18.06433],[77.56412,18.07327],[77.57099,18.07844],[77.58114,18.07902],[77.5935,18.08246],[77.60119,18.08646],[77.60428,18.10155],[77.60032,18.12314],[77.5972,18.12996],[77.60146,18.15391],[77.59283,18.15552],[77.58302,18.16416],[77.58119,18.17031],[77.57609,18.18097],[77.57364,18.19115],[77.56793,18.19197],[77.5679,18.20253],[77.57802,18.2019],[77.58859,18.21871],[77.58471,18.2247],[77.58038,18.23505],[77.57614,18.24248],[77.58511,18.25824],[77.59557,18.26369],[77.60268,18.27482],[77.60668,18.27991],[77.60148,18.28313],[77.58743,18.28496],[77.57791,18.28872],[77.57823,18.29117],[77.57424,18.29234],[77.56455,18.28497],[77.5535,18.29319],[77.55858,18.30014],[77.5738,18.31002],[77.57048,18.31978],[77.5569,18.33301],[77.54571,18.33568],[77.5308,18.34115],[77.52295,18.35099],[77.52484,18.36636],[77.53395,18.37748],[77.54506,18.38693],[77.55282,18.38943],[77.5587,18.41953],[77.54761,18.42208],[77.53864,18.42283],[77.53945,18.4251],[77.52938,18.42899],[77.53191,18.4421],[77.53796,18.44402],[77.54992,18.4422],[77.56368,18.43671],[77.57045,18.44027],[77.57767,18.44101],[77.5862,18.44474],[77.58877,18.44712],[77.58684,18.44885],[77.5872,18.4552],[77.56258,18.45963],[77.55328,18.45959],[77.55235,18.46243],[77.54967,18.46499],[77.55,18.46733],[77.56158,18.46689],[77.5639,18.46911],[77.57415,18.46849],[77.58004,18.48539],[77.59432,18.48274],[77.5967,18.47514],[77.60465,18.47586],[77.60734,18.4869],[77.60642,18.49301],[77.59745,18.49549],[77.58981,18.50452],[77.59061,18.51144],[77.60004,18.51658],[77.60502,18.52353],[77.60398,18.52655],[77.59684,18.52472],[77.59684,18.52959],[77.60175,18.5366],[77.60083,18.54909],[77.61445,18.54932],[77.6169,18.54396],[77.61941,18.54451],[77.61992,18.55023],[77.63268,18.55221],[77.63804,18.54677],[77.64412,18.55551],[77.65247,18.5542],[77.6532,18.55125],[77.65587,18.55122],[77.65314,18.54293],[77.64896,18.53791],[77.66125,18.52884],[77.66577,18.53488],[77.67962,18.54297],[77.68649,18.54245],[77.71615,18.55609],[77.73175,18.55321],[77.74034,18.55648],[77.73921,18.56484],[77.75102,18.59072],[77.75194,18.60693],[77.7468,18.62299],[77.73984,18.63246],[77.73351,18.64427],[77.73356,18.64713],[77.73391,18.64964],[77.73472,18.65685],[77.73697,18.65724],[77.73704,18.66366],[77.7319,18.66572],[77.73665,18.6775],[77.7485,18.6854],[77.75333,18.69128],[77.75375,18.69933],[77.76149,18.70856],[77.76824,18.70943],[77.77266,18.70313],[77.77327,18.69211],[77.79033,18.68566],[77.79042,18.69586],[77.80613,18.71764],[77.80664,18.73075],[77.81432,18.74175],[77.82714,18.76997],[77.8315,18.78745],[77.84141,18.80888],[77.86322,18.8155],[77.91167,18.83098],[77.93287,18.82322],[77.94672,18.82381],[77.94939,18.83361],[77.94828,18.84377],[77.93377,18.84796],[77.93649,18.85239],[77.92871,18.8556],[77.92945,18.86065],[77.91016,18.86874],[77.90328,18.86933],[77.90273,18.88512],[77.89171,18.8865],[77.88663,18.89772],[77.8856,18.90986],[77.87326,18.91164],[77.86062,18.90738],[77.84443,18.9126],[77.84507,18.92273],[77.84826,18.93158],[77.85265,18.93265],[77.85769,18.95354],[77.83442,18.95143],[77.83129,18.94695],[77.81657,18.95066],[77.81909,18.96044],[77.81675,18.96126],[77.82102,18.98354],[77.79095,18.98542],[77.78532,18.97747],[77.77114,18.98254],[77.77221,19.00048],[77.76952,19.00847],[77.76909,19.01647],[77.76804,19.0207],[77.7659,19.02157],[77.76399,19.0237],[77.76113,19.0296],[77.76468,19.05223],[77.7633,19.06031],[77.76544,19.06306],[77.77476,19.05719],[77.78175,19.0554],[77.7869,19.05587],[77.79494,19.05171],[77.79837,19.05125],[77.801,19.05237],[77.7995,19.06207],[77.80097,19.06592],[77.79734,19.07224],[77.79827,19.0744],[77.80109,19.07563],[77.80514,19.08543],[77.80359,19.09558],[77.80406,19.09987],[77.80646,19.10296],[77.80959,19.10434],[77.81902,19.10467],[77.82623,19.09742],[77.82937,19.09273],[77.8325,19.08597],[77.83768,19.08758],[77.84609,19.08782],[77.8505,19.08957],[77.85205,19.09113],[77.85209,19.09365],[77.84806,19.09711],[77.8491,19.11522],[77.84253,19.11985],[77.8378,19.13373],[77.83495,19.13663],[77.84157,19.13929],[77.85314,19.15625],[77.85263,19.1604],[77.85407,19.16328],[77.85427,19.16861],[77.85778,19.17039],[77.85812,19.17325],[77.85691,19.17776],[77.86232,19.18171],[77.84841,19.18911],[77.85044,19.19789],[77.85657,19.20549],[77.85623,19.21061],[77.86235,19.21936],[77.86543,19.22717],[77.86621,19.23484],[77.86932,19.2388],[77.87199,19.24698],[77.87131,19.25612],[77.88858,19.26109],[77.89584,19.25797],[77.90437,19.257],[77.90969,19.26809],[77.90464,19.27799],[77.89701,19.27924],[77.87931,19.2806],[77.86581,19.2849],[77.86474,19.28844],[77.86655,19.29616],[77.86475,19.30292],[77.87503,19.30652],[77.87915,19.30968],[77.89198,19.3132],[77.8972,19.32195],[77.90348,19.31859],[77.90976,19.31659],[77.91625,19.31876],[77.92606,19.32673],[77.93035,19.33271],[77.94126,19.33655],[77.94466,19.3433],[77.95296,19.34209],[77.96679,19.3326],[77.97073,19.32817],[77.981,19.32191],[77.98962,19.30988],[78.00002,19.30662],[78.01579,19.30203],[78.02243,19.29726],[78.03148,19.27965],[78.03708,19.27509],[78.04998,19.27185],[78.05369,19.26375],[78.05185,19.25665],[78.05229,19.24854],[78.05538,19.24279],[78.06182,19.2408],[78.07942,19.24761],[78.08656,19.25583],[78.09945,19.25092],[78.10371,19.24656],[78.1311,19.2475],[78.14368,19.24057],[78.15416,19.2312],[78.17451,19.2375],[78.18781,19.24271],[78.1909,19.25051],[78.18774,19.26231],[78.18762,19.28007],[78.19767,19.30403],[78.2,19.31546],[78.19954,19.32603],[78.20164,19.33279],[78.19159,19.33964],[78.18671,19.34647],[78.18405,19.35402],[78.18582,19.36175],[78.18892,19.36921],[78.18928,19.37727],[78.19145,19.38553],[78.19202,19.39658],[78.18661,19.4127],[78.20258,19.40841],[78.20995,19.41531],[78.21958,19.42799],[78.22877,19.43498],[78.23815,19.43385],[78.25035,19.42996],[78.25657,19.43102],[78.2664,19.44107],[78.27151,19.4489],[78.27782,19.4548],[78.28659,19.45396],[78.29576,19.44979],[78.30195,19.44982],[78.31356,19.4574],[78.31661,19.46688],[78.3167,19.48022],[78.31466,19.48738],[78.30824,19.4947],[78.30404,19.50504],[78.30333,19.51446],[78.30008,19.53172],[78.29964,19.53815],[78.29605,19.54396],[78.28921,19.55123],[78.28369,19.55902],[78.28994,19.56118],[78.30112,19.55921],[78.30389,19.56213],[78.30451,19.56761],[78.31075,19.56828],[78.31579,19.5726],[78.31668,19.57939],[78.31467,19.58752],[78.31561,19.60495],[78.31351,19.61217],[78.30357,19.62416],[78.30009,19.63256],[78.297,19.64487],[78.29214,19.65516],[78.27721,19.66085],[78.27427,19.6638],[78.27795,19.67081],[78.29038,19.69031],[78.30955,19.6891],[78.32066,19.69122],[78.32473,19.69738],[78.32733,19.70431],[78.33715,19.70918],[78.34994,19.71424],[78.34896,19.72498],[78.35007,19.73506],[78.35787,19.7384],[78.36548,19.75461],[78.36948,19.76795],[78.37242,19.78167],[78.37168,19.79512],[78.36516,19.80629],[78.35628,19.81088],[78.34385,19.81403],[78.3406,19.81916],[78.34602,19.83344],[78.34363,19.83968],[78.30773,19.84627],[78.29868,19.84999],[78.29877,19.85597],[78.30224,19.8737],[78.31219,19.90887],[78.31478,19.91311],[78.3241,19.91584],[78.33298,19.91646],[78.33973,19.91049],[78.3392,19.90469],[78.33122,19.89978],[78.32757,19.89537],[78.32985,19.89088],[78.34088,19.88362]]]}}]}